{"type":"FeatureCollection","features":[{"type":"Feature","properties":{"ISO_A3":"AFG","WB_A3":"AFG","WB_NAME":"Afghanistan","WB_REGION":"MEA"},"geometry":{"type":"MultiPolygon","coordinates":[[[[70.04663,37.5436],[70.05307,37.54824],[70.05885,37.54792],[70.07496,37.54066],[70.08342,37.53289],[70.09407,37.53488],[70.11008,37.52517],[70.12657,37.52625],[70.13915,37.52226],[70.1454,37.52281],[70.15078,37.53394],[70.15606,37.53756],[70.1599,37.52616],[70.16645,37.52406],[70.17091,37.52776],[70.17518,37.53911],[70.17258,37.54789],[70.1803,37.54936],[70.17839,37.57151],[70.19472,37.56331],[70.20167,37.5691],[70.21289,37.56785],[70.20923,37.57723],[70.20255,37.58029],[70.20354,37.58397],[70.20971,37.58514],[70.2218,37.58323],[70.2226,37.58772],[70.216,37.59371],[70.2141,37.6053],[70.23128,37.6113],[70.24023,37.61096],[70.24763,37.61542],[70.25079,37.6093],[70.26109,37.60939],[70.26737,37.61356],[70.26873,37.6217],[70.26283,37.62837],[70.2662,37.63516],[70.26085,37.63996],[70.26355,37.6498],[70.27154,37.64934],[70.27583,37.65467],[70.27685,37.67324],[70.28712,37.67771],[70.28586,37.68483],[70.30304,37.69338],[70.30294,37.7011],[70.29078,37.70806],[70.28729,37.715],[70.29931,37.72986],[70.29793,37.73657],[70.28663,37.75267],[70.29746,37.76838],[70.27949,37.77958],[70.27608,37.78812],[70.27649,37.7956],[70.27319,37.79957],[70.27988,37.8087],[70.27964,37.81564],[70.26929,37.81805],[70.26414,37.8257],[70.25465,37.83183],[70.22211,37.8326],[70.20515,37.8417],[70.18892,37.8451],[70.17301,37.87556],[70.18264,37.88644],[70.17732,37.89598],[70.17936,37.90458],[70.17152,37.93309],[70.17873,37.93553],[70.18349,37.94464],[70.1879,37.94485],[70.19257,37.94312],[70.20011,37.92961],[70.2117,37.92111],[70.21434,37.93269],[70.24237,37.94416],[70.25307,37.9444],[70.25975,37.93842],[70.27012,37.93934],[70.27505,37.94597],[70.26687,37.9528],[70.26659,37.9613],[70.25956,37.97325],[70.26257,37.97944],[70.26919,37.97373],[70.28553,37.96982],[70.29035,37.98749],[70.29858,37.98764],[70.3127,37.99765],[70.32956,37.9995],[70.3364,38.01436],[70.36242,38.03173],[70.36717,38.04407],[70.36276,38.05019],[70.3636,38.05464],[70.37758,38.05558],[70.38227,38.06281],[70.39751,38.06683],[70.40547,38.0753],[70.41587,38.07559],[70.41953,38.08907],[70.43176,38.1],[70.4662,38.10406],[70.47815,38.10954],[70.48138,38.11545],[70.49253,38.12164],[70.50547,38.12161],[70.49969,38.14703],[70.50292,38.1629],[70.5095,38.17279],[70.5094,38.17778],[70.5178,38.18776],[70.51783,38.1949],[70.52841,38.20055],[70.53724,38.21076],[70.53677,38.2218],[70.54611,38.24504],[70.5569,38.25365],[70.55681,38.25883],[70.56596,38.26798],[70.60509,38.28332],[70.60852,38.29898],[70.60423,38.30499],[70.60656,38.31334],[70.61482,38.32237],[70.61129,38.33124],[70.61066,38.34719],[70.62781,38.35309],[70.64217,38.34901],[70.66082,38.35104],[70.66339,38.35758],[70.68361,38.3636],[70.69348,38.37225],[70.6935,38.38354],[70.68909,38.3888],[70.67405,38.38848],[70.67405,38.40472],[70.67748,38.40865],[70.69608,38.4196],[70.7115,38.41471],[70.74056,38.419],[70.75649,38.42726],[70.77148,38.45632],[70.78394,38.4561],[70.7883,38.45001],[70.8071,38.44437],[70.81492,38.44479],[70.82633,38.45333],[70.84243,38.44729],[70.84203,38.44066],[70.85032,38.43842],[70.86101,38.45093],[70.85651,38.45793],[70.86436,38.46035],[70.87249,38.46913],[70.88266,38.46943],[70.8953,38.46514],[70.90085,38.45899],[70.89988,38.44946],[70.90683,38.44327],[70.90715,38.43862],[70.92124,38.43516],[70.92233,38.43105],[70.92677,38.43071],[70.93266,38.43315],[70.93613,38.44199],[70.94307,38.44293],[70.94794,38.43828],[70.95287,38.43817],[70.95878,38.44156],[70.95749,38.44733],[70.96181,38.45774],[70.94604,38.46512],[70.94361,38.46891],[70.94563,38.47659],[70.96587,38.47508],[70.97916,38.48052],[70.99066,38.49031],[70.99717,38.48795],[71.0011,38.48343],[70.99985,38.47852],[71.00685,38.47249],[71.02068,38.469],[71.03145,38.4602],[71.02993,38.45079],[71.03702,38.44272],[71.03951,38.42767],[71.04581,38.42178],[71.04623,38.41154],[71.05585,38.3988],[71.06121,38.39795],[71.06894,38.40248],[71.06643,38.41446],[71.07505,38.41346],[71.09318,38.42366],[71.10568,38.42192],[71.10847,38.41876],[71.10467,38.41019],[71.10909,38.40588],[71.1211,38.40636],[71.13185,38.39714],[71.14399,38.40285],[71.14882,38.3992],[71.15001,38.38954],[71.16288,38.388],[71.16717,38.38392],[71.17578,38.36969],[71.18406,38.34595],[71.19788,38.34344],[71.2254,38.32151],[71.24291,38.31922],[71.25229,38.31054],[71.27901,38.31471],[71.29491,38.31362],[71.30346,38.31052],[71.31062,38.30175],[71.32968,38.30684],[71.33349,38.29464],[71.32731,38.28638],[71.33369,38.28142],[71.3321,38.27585],[71.33456,38.27091],[71.35686,38.271],[71.36589,38.26667],[71.37348,38.25697],[71.37038,38.2317],[71.36653,38.22409],[71.37407,38.21993],[71.37913,38.21244],[71.37662,38.20735],[71.36501,38.20077],[71.3638,38.19629],[71.36826,38.17254],[71.37575,38.15993],[71.36297,38.14925],[71.35221,38.15033],[71.3468,38.14627],[71.33859,38.12838],[71.33711,38.1153],[71.32585,38.10898],[71.32662,38.10307],[71.31749,38.09927],[71.32154,38.09264],[71.32033,38.0667],[71.31099,38.06043],[71.30654,38.04682],[71.30266,38.04338],[71.29057,38.04508],[71.28406,38.0424],[71.28494,38.03375],[71.29564,38.03121],[71.2944,38.01743],[71.27566,38.00595],[71.27903,37.99563],[71.27045,37.99416],[71.2682,37.98968],[71.26687,37.98282],[71.27337,37.97722],[71.27423,37.96471],[71.26267,37.95229],[71.26547,37.93809],[71.25209,37.93241],[71.25601,37.92374],[71.28128,37.91984],[71.28774,37.92533],[71.28962,37.93265],[71.29923,37.9317],[71.31348,37.91917],[71.329,37.8857],[71.3784,37.90558],[71.41638,37.90798],[71.4283,37.91879],[71.46073,37.92799],[71.47431,37.93774],[71.49141,37.94143],[71.50313,37.95217],[71.5187,37.95284],[71.52825,37.94321],[71.54023,37.94624],[71.5422,37.94242],[71.57454,37.93558],[71.59094,37.92033],[71.58662,37.89508],[71.59692,37.8744],[71.58444,37.84593],[71.59463,37.80578],[71.5891,37.79729],[71.56419,37.78752],[71.55815,37.78788],[71.54364,37.77066],[71.53145,37.76582],[71.55129,37.73541],[71.54835,37.73319],[71.55176,37.72863],[71.54812,37.72119],[71.55005,37.71484],[71.54124,37.70464],[71.53968,37.6879],[71.52927,37.67826],[71.52628,37.63171],[71.51324,37.61195],[71.50464,37.60509],[71.50699,37.59107],[71.50237,37.55675],[71.49567,37.54996],[71.49396,37.542],[71.49627,37.53197],[71.50317,37.52799],[71.50505,37.52311],[71.50452,37.51104],[71.5265,37.47923],[71.51998,37.46378],[71.50417,37.45295],[71.50188,37.4349],[71.49526,37.42168],[71.49538,37.41531],[71.4993,37.411],[71.49752,37.40742],[71.47848,37.4058],[71.47493,37.38763],[71.49162,37.37825],[71.49555,37.36923],[71.49064,37.35869],[71.49209,37.35256],[71.48675,37.33578],[71.48822,37.33038],[71.50675,37.31384],[71.49253,37.29727],[71.49486,37.28425],[71.48867,37.27555],[71.49104,37.26529],[71.48492,37.25998],[71.48262,37.24906],[71.48535,37.24617],[71.47888,37.23409],[71.48106,37.23131],[71.46692,37.22518],[71.45549,37.2141],[71.45384,37.20841],[71.45664,37.19913],[71.46324,37.19111],[71.46164,37.18436],[71.45012,37.18158],[71.44685,37.17467],[71.44547,37.16983],[71.45189,37.15314],[71.44479,37.14345],[71.44541,37.13332],[71.4422,37.13133],[71.44429,37.12459],[71.44119,37.11804],[71.44477,37.10148],[71.44312,37.09514],[71.43494,37.089],[71.42885,37.07138],[71.43225,37.05604],[71.44125,37.04786],[71.44273,37.04142],[71.44795,37.03953],[71.46215,37.0237],[71.46053,37.01637],[71.46664,37.00776],[71.47143,36.9847],[71.46454,36.96615],[71.4648,36.95701],[71.47003,36.95403],[71.47639,36.93793],[71.48755,36.93115],[71.49344,36.91424],[71.50361,36.90898],[71.518,36.88894],[71.51831,36.88217],[71.52901,36.86978],[71.52636,36.85937],[71.54245,36.84526],[71.54034,36.83006],[71.55364,36.8078],[71.56738,36.7621],[71.59017,36.73327],[71.61892,36.71426],[71.63328,36.69158],[71.65347,36.68785],[71.67662,36.67203],[71.68988,36.67736],[71.71101,36.67234],[71.72764,36.67703],[71.7474,36.67562],[71.75904,36.67891],[71.78499,36.67506],[71.81872,36.68242],[71.84213,36.67982],[71.8454,36.68407],[71.86494,36.69301],[71.87217,36.70328],[71.89263,36.71708],[71.90282,36.73332],[71.94147,36.74638],[71.95818,36.75565],[71.97816,36.77636],[71.98275,36.77988],[71.98841,36.77936],[71.99771,36.79076],[72.00897,36.79591],[72.01908,36.81146],[72.04506,36.81994],[72.0522,36.83106],[72.06744,36.83951],[72.08612,36.8388],[72.10111,36.84402],[72.10957,36.84347],[72.11771,36.85423],[72.12251,36.86797],[72.13846,36.87519],[72.14147,36.87994],[72.1517,36.87963],[72.17188,36.89587],[72.19345,36.90553],[72.2,36.9101],[72.2082,36.92555],[72.23251,36.9306],[72.24569,36.94445],[72.27013,36.94871],[72.29497,36.96262],[72.29464,36.96619],[72.30453,36.9719],[72.33258,36.9802],[72.34462,36.98945],[72.37197,36.988],[72.38194,36.99026],[72.40639,36.99656],[72.41284,37.00517],[72.42225,37.00707],[72.43873,37.00725],[72.45956,37.00185],[72.4761,36.99309],[72.48468,36.99786],[72.51213,37.00026],[72.52387,36.99785],[72.53418,37.00221],[72.56732,37.00623],[72.57429,37.01183],[72.58075,37.00924],[72.58931,37.01085],[72.60987,37.02483],[72.62347,37.02929],[72.63621,37.02789],[72.64447,37.01942],[72.65584,37.02061],[72.66364,37.01693],[72.66835,37.02194],[72.67862,37.0227],[72.67767,37.03158],[72.68232,37.05183],[72.70246,37.06903],[72.70355,37.07412],[72.6999,37.07587],[72.70185,37.08127],[72.71655,37.09026],[72.72687,37.10867],[72.73961,37.11985],[72.77072,37.17863],[72.77621,37.19608],[72.81518,37.23199],[72.83653,37.23532],[72.85764,37.22906],[72.89095,37.24311],[72.90986,37.25842],[72.91507,37.25877],[72.92076,37.26682],[72.93425,37.27443],[72.93892,37.28321],[72.95147,37.28785],[72.95215,37.29062],[72.96975,37.29098],[72.97719,37.29727],[73.0159,37.30573],[73.03934,37.30549],[73.09441,37.325],[73.1073,37.34065],[73.10182,37.34367],[73.10193,37.35313],[73.1071,37.36328],[73.13278,37.37179],[73.14903,37.40431],[73.16617,37.40966],[73.1952,37.40841],[73.20429,37.4041],[73.21634,37.40574],[73.24448,37.42274],[73.25391,37.43614],[73.27548,37.444],[73.2874,37.45633],[73.30557,37.46371],[73.33438,37.46661],[73.34659,37.46455],[73.35321,37.45998],[73.36512,37.46173],[73.36848,37.45416],[73.36588,37.44619],[73.37599,37.44268],[73.40397,37.45622],[73.41848,37.4669],[73.4575,37.47427],[73.50725,37.4723],[73.51239,37.47487],[73.53301,37.47178],[73.57965,37.4472],[73.64938,37.4351],[73.68282,37.4493],[73.73036,37.43874],[73.76881,37.43949],[73.77495,37.43593],[73.77044,37.40947],[73.77222,37.39727],[73.76714,37.39236],[73.77061,37.38294],[73.76975,37.34629],[73.77336,37.33935],[73.75138,37.33183],[73.75312,37.32262],[73.73795,37.31983],[73.73267,37.31531],[73.71094,37.3158],[73.70484,37.30731],[73.69709,37.31125],[73.68329,37.3117],[73.67951,37.30841],[73.66994,37.31046],[73.66734,37.31555],[73.65462,37.31443],[73.65169,37.30385],[73.64725,37.30062],[73.65319,37.2943],[73.65103,37.28498],[73.64101,37.28071],[73.63086,37.28279],[73.61675,37.27083],[73.62186,37.26608],[73.62966,37.26636],[73.62709,37.25859],[73.63016,37.24979],[73.65098,37.23734],[73.65911,37.23814],[73.66022,37.24644],[73.66423,37.24926],[73.68192,37.24913],[73.69103,37.25272],[73.71246,37.24564],[73.72516,37.2462],[73.73896,37.22734],[73.74902,37.22693],[73.75693,37.22184],[73.76139,37.2219],[73.76411,37.23511],[73.7819,37.23803],[73.80524,37.22596],[73.81413,37.2318],[73.81991,37.22674],[73.82886,37.22691],[73.84258,37.23349],[73.8438,37.24889],[73.85265,37.25765],[73.88046,37.26397],[73.88536,37.26723],[73.8843,37.27245],[73.88963,37.2765],[73.90318,37.27867],[73.90804,37.28264],[73.92459,37.28529],[73.95232,37.27484],[73.95514,37.28642],[73.96428,37.29859],[73.98359,37.29807],[73.99876,37.28903],[74.01411,37.29106],[74.02556,37.3069],[74.03496,37.30887],[74.04108,37.30044],[74.05632,37.3111],[74.06242,37.31087],[74.06084,37.32338],[74.06702,37.32665],[74.07705,37.31997],[74.09828,37.31761],[74.11197,37.32014],[74.11394,37.32751],[74.12504,37.32837],[74.12625,37.32469],[74.12981,37.32438],[74.13726,37.32757],[74.14506,37.33706],[74.15183,37.33659],[74.15474,37.34153],[74.17792,37.34035],[74.18492,37.33464],[74.20201,37.3352],[74.2084,37.34042],[74.2125,37.35054],[74.22247,37.34901],[74.22827,37.35432],[74.23819,37.37303],[74.25141,37.37379],[74.25204,37.37679],[74.24294,37.3816],[74.23799,37.39048],[74.23005,37.39447],[74.23124,37.40273],[74.23901,37.41323],[74.24413,37.41535],[74.25472,37.40829],[74.26728,37.41045],[74.27674,37.40183],[74.28288,37.40415],[74.31567,37.39871],[74.32049,37.39958],[74.32433,37.40748],[74.34262,37.4064],[74.34802,37.42188],[74.37563,37.4242],[74.3904,37.41018],[74.38588,37.40626],[74.39009,37.39728],[74.40093,37.39169],[74.41786,37.38864],[74.4282,37.39409],[74.43474,37.41354],[74.43938,37.41635],[74.45205,37.40457],[74.46757,37.40701],[74.46533,37.42087],[74.46816,37.42399],[74.47303,37.42282],[74.4748,37.41782],[74.48343,37.41189],[74.48358,37.40202],[74.49436,37.39603],[74.50523,37.40051],[74.52029,37.40048],[74.52819,37.40881],[74.55541,37.39835],[74.55578,37.3884],[74.56053,37.37723],[74.56595,37.37248],[74.57377,37.37696],[74.58962,37.37674],[74.61464,37.38292],[74.62719,37.38147],[74.63187,37.37689],[74.64036,37.37748],[74.64214,37.3834],[74.67556,37.38971],[74.6859,37.39744],[74.69006,37.40598],[74.70931,37.38753],[74.7066,37.38385],[74.72692,37.37719],[74.7357,37.37796],[74.76931,37.36415],[74.80388,37.355],[74.8204,37.33666],[74.82923,37.33578],[74.84878,37.30815],[74.8541,37.29512],[74.86237,37.285],[74.87672,37.27512],[74.87864,37.26029],[74.88914,37.25399],[74.88822,37.22227],[74.85848,37.22453],[74.85501,37.21894],[74.8092,37.21468],[74.79885,37.23114],[74.80174,37.23655],[74.79778,37.245],[74.78016,37.25156],[74.77841,37.25919],[74.76222,37.2696],[74.74933,37.28462],[74.73066,37.28456],[74.72114,37.28043],[74.71508,37.28253],[74.70376,37.26865],[74.69846,37.2658],[74.68809,37.26634],[74.68218,37.26106],[74.67653,37.25524],[74.67718,37.25079],[74.6721,37.24905],[74.66312,37.2357],[74.65667,37.23481],[74.64541,37.23933],[74.64616,37.25187],[74.63073,37.26391],[74.62267,37.25464],[74.59492,37.25912],[74.5905,37.25529],[74.58869,37.24708],[74.59175,37.24319],[74.58156,37.23524],[74.57085,37.23562],[74.54232,37.24921],[74.53612,37.24277],[74.52142,37.24482],[74.50105,37.2393],[74.49744,37.2285],[74.50195,37.22165],[74.49668,37.21797],[74.49565,37.21068],[74.4874,37.20935],[74.48009,37.2025],[74.47235,37.20216],[74.46874,37.19668],[74.47614,37.18819],[74.48152,37.18839],[74.4892,37.17872],[74.4863,37.16546],[74.46851,37.15909],[74.47083,37.14984],[74.4652,37.14641],[74.45724,37.14707],[74.45578,37.14299],[74.46197,37.13291],[74.46094,37.12921],[74.4917,37.11591],[74.48485,37.09805],[74.48554,37.09247],[74.48066,37.09035],[74.49483,37.08311],[74.49724,37.07628],[74.49457,37.06547],[74.50054,37.06114],[74.50568,37.06214],[74.50913,37.06454],[74.50823,37.06931],[74.51406,37.07904],[74.52659,37.08023],[74.54378,37.06638],[74.5345,37.06089],[74.54318,37.0482],[74.55367,37.04483],[74.56502,37.03296],[74.5493,37.02539],[74.53551,37.02548],[74.52977,37.02026],[74.51893,37.01737],[74.51711,37.01119],[74.52551,37.00423],[74.52724,36.99689],[74.53908,36.98683],[74.53555,36.97969],[74.54392,36.97273],[74.53865,36.95992],[74.53447,36.95737],[74.52192,36.95949],[74.50627,36.96602],[74.50592,36.97062],[74.49937,36.97615],[74.49983,36.98102],[74.49417,36.98645],[74.47152,36.99054],[74.45514,37.00402],[74.44658,37.00178],[74.4287,37.00768],[74.42639,37.01106],[74.41679,37.0034],[74.41824,36.99937],[74.4143,36.99352],[74.42092,36.98846],[74.41527,36.97593],[74.39528,36.97339],[74.39385,36.96801],[74.38808,36.96387],[74.36882,36.96485],[74.34601,36.96046],[74.33323,36.94993],[74.33293,36.945],[74.3167,36.93776],[74.31006,36.91899],[74.29454,36.91234],[74.2713,36.91245],[74.26332,36.90282],[74.24501,36.89863],[74.24058,36.89482],[74.22354,36.89685],[74.21422,36.90734],[74.20397,36.90426],[74.19898,36.9112],[74.19131,36.90958],[74.17615,36.91653],[74.1721,36.91159],[74.17206,36.90336],[74.15331,36.89815],[74.15248,36.89326],[74.15995,36.8859],[74.15622,36.8829],[74.15159,36.88496],[74.13717,36.87367],[74.12906,36.85943],[74.1349,36.85372],[74.13361,36.85052],[74.12415,36.8489],[74.12521,36.84554],[74.12076,36.8382],[74.10956,36.83796],[74.09677,36.84229],[74.08746,36.83812],[74.06514,36.84104],[74.04811,36.82641],[74.02676,36.8275],[74.00652,36.83717],[73.99436,36.83023],[73.98725,36.83147],[73.96674,36.83917],[73.96673,36.84233],[73.95748,36.8425],[73.95413,36.85229],[73.9577,36.85668],[73.94773,36.86116],[73.9461,36.86691],[73.9323,36.87469],[73.91327,36.8691],[73.91017,36.87356],[73.89247,36.87832],[73.90449,36.88647],[73.90736,36.89854],[73.89062,36.91296],[73.8525,36.91775],[73.84365,36.92618],[73.83247,36.92338],[73.82578,36.91285],[73.82731,36.89929],[73.8152,36.89086],[73.79987,36.89063],[73.79919,36.89678],[73.79011,36.9009],[73.78124,36.8975],[73.77272,36.89875],[73.77128,36.90542],[73.76038,36.905],[73.75314,36.91212],[73.73528,36.90308],[73.71617,36.90488],[73.69016,36.91567],[73.657,36.91045],[73.64576,36.90386],[73.62402,36.89751],[73.61814,36.90619],[73.60102,36.90869],[73.59526,36.90017],[73.58664,36.90105],[73.57391,36.8893],[73.54796,36.89107],[73.54395,36.87382],[73.54087,36.87259],[73.52414,36.87915],[73.51187,36.89119],[73.49101,36.8947],[73.48801,36.89248],[73.47953,36.89728],[73.46702,36.89192],[73.44993,36.89334],[73.44888,36.88545],[73.43954,36.8916],[73.44093,36.89386],[73.41447,36.89406],[73.40077,36.89913],[73.39508,36.89012],[73.37594,36.88803],[73.37719,36.8798],[73.36369,36.88172],[73.36152,36.87829],[73.35398,36.87871],[73.34915,36.88595],[73.33231,36.89001],[73.32414,36.88726],[73.32381,36.88341],[73.3093,36.86943],[73.30145,36.86867],[73.29103,36.88263],[73.28203,36.88394],[73.2697,36.89159],[73.25979,36.88932],[73.25452,36.88317],[73.23946,36.88506],[73.22642,36.88225],[73.21766,36.88821],[73.20365,36.88015],[73.18356,36.87831],[73.16598,36.88432],[73.16371,36.88956],[73.15419,36.89401],[73.14779,36.89474],[73.12091,36.88174],[73.08263,36.88718],[73.06263,36.88538],[73.06106,36.88219],[73.06548,36.87246],[73.0556,36.86789],[73.03991,36.86691],[73.0389,36.85918],[73.01763,36.86207],[72.99892,36.86029],[72.99547,36.864],[72.98628,36.86222],[72.97029,36.8751],[72.95398,36.87585],[72.95046,36.87064],[72.94317,36.86813],[72.94376,36.8605],[72.93591,36.85732],[72.93469,36.84794],[72.92991,36.84256],[72.90939,36.84884],[72.9021,36.84816],[72.89297,36.83921],[72.86173,36.84119],[72.85062,36.84561],[72.83872,36.84118],[72.82464,36.84073],[72.80237,36.85063],[72.77525,36.84288],[72.76824,36.85388],[72.75851,36.85256],[72.75292,36.8552],[72.71798,36.83628],[72.7054,36.84391],[72.68827,36.84071],[72.65841,36.84721],[72.6555,36.85131],[72.65073,36.85168],[72.63614,36.84283],[72.62288,36.84464],[72.61011,36.83728],[72.59704,36.83531],[72.58934,36.83744],[72.56735,36.82585],[72.55881,36.82793],[72.55164,36.81501],[72.5373,36.80927],[72.52952,36.80156],[72.52421,36.8016],[72.50119,36.77925],[72.49202,36.7811],[72.48006,36.7766],[72.44636,36.77343],[72.43231,36.78049],[72.42181,36.78124],[72.39548,36.77503],[72.39582,36.76419],[72.37471,36.75897],[72.36221,36.75816],[72.33605,36.76654],[72.33094,36.76159],[72.33132,36.75271],[72.32316,36.75265],[72.31666,36.74853],[72.31688,36.74478],[72.29828,36.74002],[72.28872,36.74508],[72.2465,36.75237],[72.24646,36.74694],[72.24228,36.74299],[72.22813,36.73756],[72.23085,36.72842],[72.21721,36.72835],[72.2107,36.72083],[72.19925,36.72309],[72.18508,36.71067],[72.19554,36.70438],[72.18714,36.69689],[72.19761,36.6881],[72.205,36.67534],[72.20969,36.66336],[72.20752,36.66016],[72.20009,36.65511],[72.18801,36.65726],[72.17884,36.65526],[72.16206,36.65952],[72.14931,36.65674],[72.13045,36.64696],[72.09694,36.64709],[72.09449,36.63687],[72.08552,36.62444],[72.08939,36.60418],[72.08848,36.59639],[72.08261,36.58863],[72.06148,36.59315],[72.04946,36.58962],[72.0302,36.59198],[72.02834,36.57564],[72.00894,36.56555],[72.00157,36.55692],[71.96206,36.55577],[71.93575,36.54662],[71.93254,36.53666],[71.92472,36.53317],[71.9234,36.52054],[71.91664,36.50883],[71.87267,36.50102],[71.84675,36.50261],[71.82595,36.50857],[71.80934,36.50678],[71.80388,36.50224],[71.79815,36.47743],[71.81199,36.45592],[71.81961,36.43501],[71.82901,36.43287],[71.81645,36.42802],[71.81672,36.42186],[71.82182,36.41737],[71.81099,36.40903],[71.8066,36.39922],[71.79281,36.40208],[71.77521,36.41252],[71.76421,36.42606],[71.75095,36.42991],[71.73224,36.44676],[71.70845,36.45413],[71.70561,36.46024],[71.69081,36.45807],[71.67677,36.46638],[71.67447,36.47112],[71.66116,36.47668],[71.65679,36.48359],[71.63712,36.47691],[71.6393,36.46054],[71.63355,36.45285],[71.64009,36.44177],[71.62803,36.43929],[71.62874,36.43461],[71.6228,36.4324],[71.62571,36.41873],[71.6139,36.40889],[71.61592,36.40328],[71.59661,36.39549],[71.59725,36.39089],[71.58542,36.38631],[71.57664,36.37781],[71.55817,36.37195],[71.56444,36.36341],[71.57424,36.35809],[71.58101,36.34989],[71.58674,36.34858],[71.57446,36.32709],[71.5395,36.32745],[71.52699,36.33475],[71.5227,36.33333],[71.51958,36.33044],[71.52443,36.3236],[71.51945,36.31763],[71.52126,36.31001],[71.51198,36.30748],[71.5063,36.29976],[71.49375,36.2953],[71.48859,36.29914],[71.48298,36.29727],[71.48078,36.29531],[71.48244,36.29],[71.47499,36.27911],[71.46231,36.27769],[71.44498,36.26918],[71.44249,36.26551],[71.44605,36.25913],[71.43992,36.25126],[71.43613,36.23273],[71.39195,36.20831],[71.37945,36.20658],[71.37611,36.20329],[71.36065,36.20383],[71.35743,36.18309],[71.34557,36.16713],[71.31942,36.16905],[71.31044,36.16518],[71.3077,36.15904],[71.29463,36.15643],[71.29297,36.14933],[71.28309,36.1429],[71.27389,36.13766],[71.2636,36.13875],[71.25088,36.1297],[71.25375,36.12242],[71.25138,36.11683],[71.24777,36.11819],[71.24356,36.11382],[71.24304,36.10886],[71.25416,36.10253],[71.25212,36.09886],[71.24479,36.09224],[71.2301,36.09525],[71.21783,36.08751],[71.21441,36.08236],[71.21515,36.07406],[71.20888,36.06876],[71.20884,36.06191],[71.1989,36.05333],[71.19978,36.04721],[71.19502,36.03934],[71.20149,36.03949],[71.21264,36.0272],[71.22915,36.02874],[71.25806,35.99863],[71.2888,35.99752],[71.29324,35.98911],[71.29639,35.99028],[71.30467,35.98233],[71.31338,35.98218],[71.31286,35.97145],[71.3191,35.9688],[71.31929,35.95963],[71.34283,35.9612],[71.36862,35.9682],[71.3859,35.95382],[71.38829,35.95104],[71.3848,35.9462],[71.3877,35.94204],[71.37719,35.93376],[71.38506,35.92945],[71.38585,35.92012],[71.39004,35.91634],[71.3821,35.90329],[71.39599,35.89142],[71.40571,35.89077],[71.41334,35.89418],[71.41866,35.88977],[71.43108,35.88803],[71.43499,35.87353],[71.44991,35.86128],[71.46101,35.83763],[71.46054,35.83282],[71.47806,35.82157],[71.47692,35.8129],[71.47988,35.80901],[71.50346,35.80093],[71.48426,35.78843],[71.48354,35.78518],[71.49009,35.77792],[71.48388,35.76893],[71.49006,35.76267],[71.4904,35.75444],[71.49393,35.75316],[71.49431,35.74913],[71.50336,35.7472],[71.50868,35.7388],[71.52136,35.73465],[71.52979,35.73622],[71.53995,35.72909],[71.55084,35.72695],[71.5534,35.72183],[71.54964,35.71556],[71.5506,35.70546],[71.54809,35.70129],[71.55184,35.69874],[71.55205,35.69332],[71.53323,35.68379],[71.5396,35.67092],[71.52686,35.66712],[71.52051,35.66165],[71.51263,35.66342],[71.5066,35.65934],[71.51172,35.64486],[71.49954,35.62961],[71.5062,35.62461],[71.5053,35.62128],[71.51686,35.61412],[71.52111,35.60634],[71.54666,35.59975],[71.55804,35.5898],[71.585,35.57879],[71.60977,35.58075],[71.62041,35.5712],[71.6214,35.56384],[71.61795,35.56071],[71.61628,35.55095],[71.60935,35.54732],[71.61047,35.5448],[71.60481,35.53837],[71.59916,35.53732],[71.60205,35.52326],[71.59691,35.51484],[71.59747,35.50585],[71.5939,35.50022],[71.60074,35.49453],[71.60539,35.48237],[71.62079,35.47993],[71.63344,35.46671],[71.64804,35.45779],[71.65702,35.44314],[71.65536,35.43727],[71.64104,35.42426],[71.63604,35.40931],[71.62057,35.40579],[71.61829,35.3975],[71.60871,35.39319],[71.58719,35.3558],[71.57835,35.3461],[71.56983,35.34195],[71.56175,35.32619],[71.54312,35.31028],[71.55663,35.30341],[71.55355,35.30176],[71.55395,35.29066],[71.56141,35.28006],[71.57763,35.27579],[71.58201,35.26687],[71.59005,35.26038],[71.60027,35.26018],[71.62342,35.2394],[71.63148,35.2263],[71.64322,35.22213],[71.65409,35.22626],[71.6808,35.21596],[71.68043,35.20461],[71.65937,35.18597],[71.65616,35.17506],[71.64663,35.17419],[71.63402,35.16256],[71.62498,35.13902],[71.60978,35.13753],[71.60014,35.14098],[71.58957,35.13853],[71.5773,35.11876],[71.56218,35.11385],[71.53227,35.09122],[71.53167,35.08113],[71.54265,35.07349],[71.54256,35.05412],[71.55832,35.03258],[71.55314,35.02301],[71.54247,35.01736],[71.5056,35.00582],[71.50215,34.99981],[71.50779,34.9931],[71.50723,34.98507],[71.51217,34.9751],[71.49942,34.97185],[71.48928,34.9634],[71.4821,34.96177],[71.47508,34.9494],[71.46587,34.94945],[71.44927,34.94334],[71.43869,34.94605],[71.43305,34.94432],[71.42743,34.93243],[71.39376,34.92273],[71.38423,34.9165],[71.34776,34.9126],[71.32923,34.89473],[71.30438,34.87856],[71.29612,34.87738],[71.29319,34.86382],[71.29516,34.85126],[71.2907,34.84566],[71.29389,34.83586],[71.28852,34.82495],[71.28878,34.81823],[71.27736,34.79946],[71.26912,34.80008],[71.26354,34.79491],[71.24996,34.7926],[71.24017,34.78714],[71.23812,34.77881],[71.22462,34.76265],[71.226,34.7528],[71.18682,34.74979],[71.17673,34.73192],[71.16984,34.72847],[71.15242,34.72697],[71.15027,34.71422],[71.10735,34.70246],[71.10554,34.69577],[71.09681,34.69007],[71.08885,34.67337],[71.09422,34.67075],[71.09239,34.66115],[71.09931,34.64795],[71.1084,34.64296],[71.10929,34.63605],[71.11775,34.62823],[71.10319,34.61701],[71.09175,34.60197],[71.08587,34.58467],[71.07012,34.58754],[71.04152,34.57497],[71.02519,34.55927],[71.02346,34.55026],[71.01452,34.53977],[71.01154,34.53343],[71.01504,34.52976],[71.0135,34.52109],[71.01755,34.50998],[71.00432,34.49934],[71.01293,34.48902],[71.01677,34.47203],[71.02249,34.46416],[71.02358,34.45126],[71.03959,34.4447],[71.03794,34.43999],[71.05196,34.43438],[71.05145,34.43035],[71.05853,34.42438],[71.07825,34.43778],[71.09168,34.43392],[71.09324,34.43732],[71.09688,34.43717],[71.1075,34.43362],[71.11563,34.42518],[71.11527,34.41979],[71.126,34.41629],[71.12647,34.40661],[71.11918,34.39556],[71.12187,34.39149],[71.11559,34.37722],[71.12051,34.37271],[71.13605,34.37133],[71.14513,34.36501],[71.17291,34.36489],[71.17616,34.36182],[71.16699,34.34046],[71.17018,34.33406],[71.1653,34.32802],[71.1567,34.32558],[71.15823,34.3126],[71.15208,34.30815],[71.15169,34.29465],[71.13093,34.28298],[71.13087,34.27318],[71.12411,34.25866],[71.12531,34.2446],[71.11891,34.24082],[71.13866,34.22549],[71.12355,34.20714],[71.12228,34.18635],[71.13021,34.16459],[71.09066,34.13181],[71.09369,34.12012],[71.07085,34.10929],[71.07303,34.09583],[71.07994,34.08719],[71.07541,34.07832],[71.08197,34.07568],[71.08281,34.07032],[71.08149,34.06217],[71.07655,34.0564],[71.05996,34.05006],[71.04191,34.05303],[71.03981,34.05087],[71.0314,34.0547],[71.02435,34.04764],[71.02521,34.0429],[71.00081,34.02485],[70.99158,34.02824],[70.97374,34.02654],[70.96893,34.03046],[70.95732,34.02278],[70.95501,34.01701],[70.95131,34.01856],[70.93741,34.01343],[70.93549,34.00689],[70.91396,34.01057],[70.92056,33.99816],[70.91929,33.99442],[70.9108,33.99297],[70.90106,33.9849],[70.8891,33.98064],[70.8833,33.97382],[70.87224,33.97133],[70.86641,33.9724],[70.86109,33.98274],[70.85478,33.98389],[70.84387,33.98296],[70.8356,33.97822],[70.82211,33.97851],[70.81091,33.96711],[70.78972,33.96701],[70.77919,33.96097],[70.75311,33.96602],[70.74489,33.96133],[70.71497,33.96475],[70.70712,33.96079],[70.68546,33.963],[70.67748,33.95834],[70.65683,33.95714],[70.64822,33.95227],[70.6427,33.95235],[70.6337,33.95877],[70.58414,33.96234],[70.55184,33.94989],[70.54669,33.94299],[70.51354,33.94968],[70.50561,33.94181],[70.49829,33.94002],[70.43716,33.95065],[70.42211,33.96622],[70.41426,33.96733],[70.39565,33.96214],[70.37565,33.96936],[70.37357,33.96564],[70.36131,33.96081],[70.35309,33.96667],[70.34421,33.96829],[70.33972,33.96599],[70.33292,33.96893],[70.3166,33.96701],[70.30525,33.97052],[70.2988,33.97751],[70.27945,33.98376],[70.25448,33.9813],[70.25222,33.97768],[70.24382,33.97559],[70.22404,33.98761],[70.2013,33.98086],[70.19413,33.98315],[70.17535,33.99781],[70.15867,34.00151],[70.1489,34.01408],[70.13094,34.01342],[70.12481,34.00865],[70.1183,34.01107],[70.10096,34.00758],[70.08782,34.00856],[70.08149,34.01605],[70.06905,34.01943],[70.06333,34.02705],[70.04867,34.03499],[70.02699,34.04162],[70.01127,34.04001],[69.99907,34.04768],[69.99394,34.04771],[69.97726,34.03517],[69.96574,34.04012],[69.93698,34.03507],[69.90455,34.03967],[69.89263,34.02076],[69.88866,34.01946],[69.8952,33.9971],[69.90322,33.98891],[69.90164,33.9823],[69.87929,33.98009],[69.87248,33.9755],[69.87402,33.96976],[69.86042,33.96478],[69.85861,33.95907],[69.86197,33.95511],[69.85613,33.94901],[69.85632,33.94369],[69.86113,33.9398],[69.85891,33.92464],[69.87444,33.92168],[69.88715,33.91503],[69.89227,33.90687],[69.90856,33.89893],[69.91541,33.88683],[69.9138,33.8809],[69.91701,33.868],[69.91351,33.859],[69.91754,33.85006],[69.94983,33.8356],[69.95201,33.82497],[69.95535,33.82414],[69.95895,33.81459],[69.96027,33.80267],[69.96605,33.79628],[69.96587,33.78858],[69.96159,33.78196],[69.96434,33.76838],[69.97156,33.75854],[69.98945,33.74848],[69.98976,33.74299],[69.99526,33.74126],[70.00434,33.73151],[70.01457,33.72876],[70.01965,33.73722],[70.0308,33.73857],[70.03794,33.734],[70.04321,33.73564],[70.05341,33.73165],[70.0592,33.72684],[70.08163,33.72542],[70.08846,33.71698],[70.09743,33.71967],[70.10688,33.71767],[70.1123,33.72503],[70.12557,33.72828],[70.13132,33.72375],[70.14262,33.7249],[70.14,33.71188],[70.14647,33.70555],[70.14335,33.69959],[70.15329,33.69504],[70.15232,33.68058],[70.1434,33.65824],[70.16912,33.64952],[70.17658,33.64119],[70.19195,33.64638],[70.19996,33.64269],[70.1953,33.63641],[70.19932,33.63305],[70.19533,33.62485],[70.20035,33.62167],[70.17099,33.53855],[70.172,33.5245],[70.17466,33.52343],[70.17281,33.51876],[70.1834,33.51298],[70.18909,33.50464],[70.19636,33.50628],[70.2072,33.50349],[70.20886,33.49629],[70.19971,33.4877],[70.20917,33.48133],[70.2147,33.48352],[70.21828,33.48097],[70.21755,33.47518],[70.2205,33.47254],[70.23219,33.47485],[70.24016,33.47063],[70.24384,33.47185],[70.24752,33.46802],[70.24485,33.45172],[70.25702,33.43449],[70.26947,33.42935],[70.28378,33.43602],[70.29677,33.43024],[70.29966,33.40812],[70.31776,33.40072],[70.32447,33.39009],[70.31082,33.37872],[70.30915,33.37324],[70.31186,33.37043],[70.3106,33.36371],[70.32509,33.35567],[70.32842,33.34322],[70.32197,33.33972],[70.32693,33.33218],[70.30947,33.33835],[70.29996,33.32901],[70.29426,33.32817],[70.29126,33.32293],[70.28614,33.32158],[70.28528,33.31321],[70.27897,33.30503],[70.27167,33.29877],[70.26421,33.30024],[70.24747,33.27922],[70.22614,33.26095],[70.20305,33.24622],[70.18734,33.24263],[70.18458,33.23647],[70.17138,33.23816],[70.16449,33.23155],[70.16694,33.22762],[70.16428,33.21848],[70.15671,33.21966],[70.14915,33.2145],[70.14479,33.21803],[70.12991,33.21568],[70.12223,33.2108],[70.11952,33.2046],[70.11351,33.20883],[70.10544,33.20899],[70.10458,33.20585],[70.09581,33.20487],[70.07918,33.21873],[70.0715,33.21934],[70.06214,33.21252],[70.06508,33.20732],[70.03983,33.16425],[70.02069,33.13844],[70.00473,33.14517],[69.99239,33.13925],[69.98105,33.14161],[69.97055,33.13237],[69.93929,33.13173],[69.93536,33.11945],[69.92438,33.11901],[69.92876,33.10978],[69.92511,33.10328],[69.91745,33.10602],[69.90864,33.10269],[69.88595,33.10314],[69.87881,33.09468],[69.87275,33.09402],[69.85026,33.10023],[69.83916,33.09875],[69.8192,33.10668],[69.79509,33.13238],[69.7909,33.12599],[69.78369,33.12747],[69.76737,33.11763],[69.74665,33.1183],[69.73729,33.11421],[69.73125,33.10541],[69.73043,33.09366],[69.70526,33.09034],[69.70069,33.09354],[69.69093,33.09203],[69.68602,33.09607],[69.67568,33.09641],[69.67167,33.1009],[69.66383,33.10008],[69.65804,33.08972],[69.65372,33.08938],[69.64187,33.0982],[69.62498,33.10114],[69.60789,33.10091],[69.60161,33.09797],[69.58167,33.10265],[69.57285,33.09863],[69.57185,33.08851],[69.56629,33.08529],[69.5662,33.08054],[69.56307,33.08014],[69.55931,33.07196],[69.5364,33.05375],[69.51947,33.04542],[69.51026,33.0314],[69.49626,33.0202],[69.49537,32.933],[69.50612,32.90963],[69.50379,32.9073],[69.50658,32.89618],[69.50382,32.88997],[69.49636,32.88692],[69.50519,32.88217],[69.51455,32.88106],[69.51896,32.88354],[69.54667,32.87505],[69.46942,32.85491],[69.46338,32.85083],[69.4621,32.84312],[69.46828,32.83646],[69.4572,32.83229],[69.45826,32.82701],[69.44726,32.81931],[69.44094,32.80384],[69.40667,32.80035],[69.40591,32.79156],[69.39117,32.78056],[69.38764,32.76785],[69.39329,32.75831],[69.40744,32.74824],[69.40698,32.74149],[69.41856,32.73737],[69.41978,32.73224],[69.42573,32.7275],[69.43445,32.73062],[69.44197,32.72918],[69.44533,32.71183],[69.44306,32.70737],[69.43422,32.70455],[69.43387,32.69943],[69.43744,32.69363],[69.43603,32.68794],[69.45247,32.67159],[69.45375,32.65834],[69.44449,32.6469],[69.42842,32.64343],[69.43143,32.63921],[69.42989,32.63488],[69.42004,32.62401],[69.42019,32.61896],[69.40905,32.61119],[69.40788,32.60745],[69.41355,32.60401],[69.40486,32.59146],[69.39848,32.58787],[69.39181,32.57561],[69.38365,32.57107],[69.38392,32.56069],[69.37084,32.56257],[69.3499,32.55781],[69.31171,32.54047],[69.30513,32.54542],[69.2903,32.53745],[69.29206,32.53526],[69.28908,32.53111],[69.28293,32.52762],[69.27821,32.52923],[69.26062,32.48873],[69.24521,32.47185],[69.23782,32.45782],[69.24823,32.42678],[69.24817,32.41555],[69.27849,32.36234],[69.28201,32.34448],[69.28338,32.32506],[69.28065,32.32274],[69.28347,32.31089],[69.27647,32.30669],[69.28068,32.28627],[69.27187,32.28114],[69.27309,32.26945],[69.27027,32.26089],[69.27489,32.23726],[69.26973,32.22544],[69.27743,32.18943],[69.27366,32.18214],[69.27026,32.15683],[69.27646,32.12592],[69.28116,32.12255],[69.2962,32.08834],[69.28871,32.08496],[69.28983,32.07507],[69.28708,32.07295],[69.29556,32.01032],[69.30003,32.00917],[69.30254,31.98688],[69.31111,31.98907],[69.3127,31.98657],[69.31909,31.96717],[69.31829,31.9532],[69.3241,31.94725],[69.32129,31.94254],[69.32665,31.94129],[69.3277,31.938],[69.32211,31.93369],[69.32642,31.92688],[69.30385,31.92534],[69.30525,31.92217],[69.29415,31.91597],[69.28839,31.91964],[69.28309,31.91084],[69.27468,31.90842],[69.27589,31.90304],[69.26986,31.89713],[69.2732,31.89435],[69.26407,31.88664],[69.25162,31.88165],[69.24793,31.87564],[69.24115,31.88022],[69.23923,31.87873],[69.24228,31.87285],[69.2354,31.87337],[69.23507,31.86763],[69.22577,31.86649],[69.21341,31.85788],[69.20743,31.85975],[69.19223,31.84847],[69.19106,31.84237],[69.19488,31.83137],[69.18142,31.82497],[69.18032,31.80591],[69.17449,31.7999],[69.1638,31.79993],[69.16925,31.7934],[69.16206,31.79218],[69.16135,31.7866],[69.15339,31.78717],[69.1532,31.77592],[69.15951,31.77363],[69.15585,31.76857],[69.15795,31.76127],[69.1453,31.76225],[69.14937,31.75349],[69.14355,31.75501],[69.14135,31.75006],[69.13635,31.74876],[69.13337,31.75136],[69.13932,31.74325],[69.1365,31.74085],[69.13747,31.73664],[69.12479,31.72745],[69.12812,31.72044],[69.11496,31.71502],[69.11885,31.70882],[69.11514,31.70081],[69.11066,31.70165],[69.10418,31.69643],[69.10131,31.70036],[69.09988,31.6957],[69.08916,31.69374],[69.08947,31.68992],[69.0818,31.68235],[69.07069,31.67649],[69.07317,31.6718],[69.06183,31.67161],[69.04642,31.66502],[69.03705,31.65187],[69.0275,31.64749],[69.01943,31.62875],[69.00442,31.62743],[69.00316,31.63272],[68.99354,31.6285],[68.99392,31.63701],[68.97928,31.63366],[68.97524,31.64473],[68.96943,31.64358],[68.96755,31.64868],[68.95999,31.64908],[68.95471,31.64234],[68.95261,31.63211],[68.94822,31.63186],[68.94923,31.62745],[68.94409,31.62478],[68.94354,31.61666],[68.9388,31.61493],[68.93912,31.60909],[68.9354,31.60962],[68.93425,31.60587],[68.92639,31.60667],[68.92765,31.6022],[68.90678,31.59731],[68.89699,31.60653],[68.87972,31.60346],[68.86991,31.60771],[68.86405,31.59628],[68.85361,31.59492],[68.84988,31.59996],[68.8435,31.60182],[68.8449,31.60695],[68.84025,31.60479],[68.84034,31.60931],[68.82849,31.60551],[68.81981,31.61512],[68.81568,31.60977],[68.81248,31.6125],[68.80689,31.61132],[68.80293,31.61581],[68.80456,31.61796],[68.79925,31.61754],[68.79535,31.62181],[68.7983,31.62638],[68.78989,31.6223],[68.79178,31.6258],[68.78742,31.64007],[68.78776,31.65362],[68.78093,31.66359],[68.769,31.66565],[68.76753,31.66843],[68.75878,31.66779],[68.72775,31.69526],[68.70855,31.77089],[68.6429,31.77781],[68.57552,31.83424],[68.475,31.77348],[68.43305,31.76312],[68.43301,31.76002],[68.44153,31.76326],[68.44988,31.76187],[68.45817,31.75034],[68.4683,31.74748],[68.51555,31.75709],[68.59112,31.7531],[68.56543,31.71454],[68.544,31.71315],[68.54565,31.72073],[68.53741,31.73058],[68.52609,31.72983],[68.52382,31.73512],[68.50024,31.7407],[68.49481,31.73802],[68.49234,31.74095],[68.48983,31.73846],[68.47568,31.73936],[68.46993,31.73485],[68.46374,31.7385],[68.46073,31.73516],[68.45325,31.74265],[68.444,31.7457],[68.44335,31.74958],[68.42817,31.75596],[68.3665,31.7586],[68.27946,31.75695],[68.25427,31.78402],[68.26553,31.80326],[68.17937,31.817],[68.17103,31.83532],[68.1465,31.80447],[68.11279,31.74849],[68.09398,31.74003],[68.0938,31.73622],[68.08312,31.72971],[68.08365,31.72583],[68.07156,31.71659],[68.07054,31.69585],[68.05308,31.69041],[68.05026,31.68483],[68.03704,31.6771],[68.01596,31.66946],[68.00629,31.65839],[67.99491,31.65517],[67.98415,31.6444],[67.95517,31.63451],[67.91894,31.63508],[67.91491,31.6288],[67.90216,31.6246],[67.89278,31.63153],[67.85815,31.62394],[67.84646,31.61455],[67.82263,31.60264],[67.80129,31.57205],[67.76582,31.55629],[67.76104,31.54782],[67.7554,31.54681],[67.74687,31.53091],[67.71954,31.52009],[67.71649,31.51401],[67.70198,31.51353],[67.69982,31.51654],[67.68657,31.51752],[67.68221,31.52075],[67.66033,31.51465],[67.65503,31.51714],[67.65189,31.52667],[67.64022,31.52897],[67.63954,31.53223],[67.6253,31.52363],[67.62055,31.52889],[67.6143,31.52475],[67.60659,31.527],[67.60087,31.52353],[67.59671,31.52704],[67.59586,31.52344],[67.59172,31.52286],[67.56754,31.52303],[67.5851,31.50611],[67.58216,31.49683],[67.5925,31.48455],[67.58972,31.47574],[67.60882,31.44909],[67.59952,31.42621],[67.61272,31.4126],[67.62866,31.41701],[67.63338,31.41353],[67.63078,31.411],[67.63692,31.39675],[67.6515,31.39848],[67.64563,31.39373],[67.6511,31.39231],[67.7499,31.41649],[67.78569,31.39987],[67.79608,31.38287],[67.79245,31.34483],[67.7869,31.332],[67.77416,31.32269],[67.76496,31.32072],[67.72305,31.32679],[67.68997,31.30722],[67.67651,31.29183],[67.65352,31.28355],[67.64892,31.27765],[67.64047,31.27969],[67.62376,31.27422],[67.62017,31.26991],[67.60468,31.26645],[67.5974,31.27074],[67.5791,31.26476],[67.57145,31.26657],[67.56558,31.26266],[67.54758,31.26271],[67.5354,31.2528],[67.52012,31.25207],[67.51281,31.24429],[67.4936,31.24042],[67.49321,31.23578],[67.48415,31.23157],[67.47831,31.23735],[67.47489,31.23419],[67.4672,31.23754],[67.44755,31.22668],[67.43661,31.22483],[67.42914,31.22946],[67.42597,31.22258],[67.42137,31.22283],[67.41617,31.21798],[67.40872,31.22227],[67.40186,31.21588],[67.4041,31.21327],[67.39919,31.2111],[67.39463,31.21362],[67.38864,31.20813],[67.38513,31.2133],[67.37935,31.2138],[67.37475,31.20795],[67.36213,31.20889],[67.36132,31.21134],[67.34562,31.21045],[67.34459,31.20501],[67.33452,31.20733],[67.32907,31.20375],[67.32964,31.20654],[67.32438,31.20749],[67.31182,31.20292],[67.31001,31.20868],[67.30557,31.20828],[67.30223,31.21271],[67.29774,31.20672],[67.27983,31.2042],[67.27726,31.19845],[67.26291,31.20063],[67.25823,31.21042],[67.25998,31.21205],[67.25093,31.21479],[67.19737,31.21717],[67.18084,31.22356],[67.1698,31.24506],[67.15897,31.24458],[67.15431,31.24828],[67.14727,31.24518],[67.1473,31.2402],[67.14068,31.23674],[67.1264,31.23893],[67.1045,31.23214],[67.10301,31.22475],[67.09113,31.22376],[67.07004,31.21386],[67.0534,31.22195],[67.05177,31.23816],[67.04353,31.24164],[67.03858,31.23738],[67.03462,31.24167],[67.0239,31.2372],[67.02392,31.2563],[67.05088,31.27283],[67.05875,31.28641],[67.04933,31.29811],[67.04277,31.30074],[67.03819,31.31013],[67.02471,31.30943],[67.01231,31.30334],[66.99979,31.30927],[66.98185,31.30901],[66.96629,31.30392],[66.96401,31.30817],[66.9558,31.30797],[66.91703,31.29089],[66.90133,31.29376],[66.88864,31.28939],[66.86641,31.27828],[66.85549,31.2689],[66.84953,31.26998],[66.83401,31.26475],[66.82698,31.25532],[66.82315,31.24314],[66.81464,31.23584],[66.81288,31.22306],[66.8021,31.2177],[66.79675,31.21014],[66.79086,31.21068],[66.78116,31.20579],[66.77967,31.20771],[66.76935,31.19925],[66.73145,31.20924],[66.72879,31.2007],[66.72086,31.19678],[66.71559,31.18598],[66.718,31.16782],[66.71136,31.16108],[66.71513,31.15571],[66.70247,31.14029],[66.7028,31.1294],[66.69213,31.11994],[66.69081,31.11132],[66.69744,31.10207],[66.6934,31.09271],[66.6881,31.09182],[66.68771,31.08396],[66.69203,31.07647],[66.68203,31.06577],[66.67356,31.06808],[66.57838,30.97669],[66.42708,30.95306],[66.39192,30.94061],[66.28818,30.57638],[66.27804,30.56891],[66.29303,30.54663],[66.28656,30.52574],[66.29334,30.51789],[66.30905,30.50991],[66.30803,30.50052],[66.32679,30.49727],[66.3366,30.48633],[66.34888,30.48086],[66.35582,30.48395],[66.35307,30.46459],[66.34833,30.46247],[66.33906,30.44562],[66.34468,30.43791],[66.35634,30.43173],[66.36699,30.4209],[66.3529,30.40547],[66.35265,30.39549],[66.34779,30.39495],[66.3471,30.38898],[66.34175,30.3843],[66.34433,30.37693],[66.34183,30.36334],[66.34498,30.36233],[66.34598,30.35461],[66.33414,30.35724],[66.3392,30.35143],[66.33725,30.33488],[66.34112,30.31711],[66.32523,30.28936],[66.32506,30.27791],[66.32769,30.27453],[66.32343,30.26867],[66.3235,30.25196],[66.32646,30.24742],[66.32092,30.24043],[66.32085,30.23375],[66.3174,30.23328],[66.31875,30.22721],[66.31247,30.21308],[66.30179,30.20908],[66.29465,30.18438],[66.286,30.16884],[66.28896,30.15325],[66.27251,30.13097],[66.26559,30.12876],[66.26777,30.12576],[66.26326,30.12313],[66.25839,30.09387],[66.24357,30.084],[66.24086,30.0769],[66.23051,30.07351],[66.22891,30.06875],[66.23152,30.06357],[66.3734,29.97114],[66.36168,29.95479],[66.35201,29.953],[66.3417,29.93812],[66.33934,29.92871],[66.3349,29.92688],[66.31953,29.90733],[66.31327,29.91018],[66.308,29.90112],[66.29636,29.89629],[66.28825,29.88753],[66.28694,29.88172],[66.27358,29.87231],[66.26732,29.85783],[66.25982,29.8574],[66.25158,29.8492],[65.06453,29.52958],[64.57496,29.58557],[64.56599,29.59028],[64.55264,29.58929],[64.55215,29.58633],[64.54306,29.58749],[64.54255,29.57849],[64.54525,29.5766],[64.54058,29.57274],[64.5294,29.57615],[64.51519,29.56881],[64.50879,29.57175],[64.50949,29.56888],[64.50514,29.56759],[64.50257,29.57097],[64.49453,29.56522],[64.47277,29.5677],[64.47286,29.56176],[64.46743,29.55664],[64.45789,29.55573],[64.45051,29.54847],[64.43875,29.55962],[64.43129,29.54996],[64.42568,29.55124],[64.41892,29.54382],[64.41779,29.54656],[64.40555,29.54894],[64.39413,29.54381],[64.38236,29.54631],[64.3772,29.53711],[64.3699,29.53368],[64.35959,29.53507],[64.34748,29.52535],[64.33565,29.52753],[64.33542,29.52359],[64.32953,29.52023],[64.324,29.52314],[64.30636,29.52337],[64.30249,29.52629],[64.29323,29.52094],[64.26317,29.522],[64.25046,29.5169],[64.24905,29.51251],[64.25382,29.5096],[64.25297,29.50489],[64.2412,29.49479],[64.23605,29.49618],[64.23126,29.48482],[64.21743,29.48515],[64.21411,29.48108],[64.18996,29.47646],[64.17949,29.48342],[64.16094,29.46903],[64.1589,29.46552],[64.16554,29.45928],[64.16341,29.4553],[64.15261,29.45185],[64.1428,29.43713],[64.14227,29.43334],[64.14667,29.43057],[64.15849,29.4279],[64.16159,29.42468],[64.15927,29.42132],[64.16629,29.41877],[64.17022,29.41063],[64.15727,29.40307],[64.15957,29.3917],[64.15112,29.39325],[64.13447,29.38869],[64.12851,29.38329],[64.12826,29.37845],[64.11673,29.37733],[64.10672,29.38151],[64.09801,29.37989],[64.05429,29.4073],[63.57667,29.48708],[63.34747,29.46748],[63.34748,29.45188],[63.3271,29.45832],[63.30632,29.45893],[63.28721,29.45409],[63.26739,29.45742],[63.24467,29.45386],[63.23332,29.45758],[62.46917,29.3887],[61.65798,29.63047],[60.87297,29.85847],[61.64009,30.67111],[61.77156,30.80855],[61.80355,30.83363],[61.80583,30.83926],[61.79899,30.84878],[61.79299,30.86584],[61.79621,30.88209],[61.78636,30.89608],[61.78247,30.91015],[61.79026,30.92032],[61.78476,30.94105],[61.80094,30.94475],[61.80217,30.94876],[61.81657,30.95769],[61.82212,30.96706],[61.8347,30.97433],[61.83492,30.97813],[61.82691,30.98079],[61.82353,30.99858],[61.82426,31.00551],[61.82843,31.00946],[61.82794,31.01624],[61.83283,31.01596],[61.82816,31.03275],[61.83801,31.0364],[61.82751,31.05222],[61.82931,31.06008],[61.82655,31.07301],[61.83094,31.08222],[61.83047,31.08987],[61.8163,31.10385],[61.81118,31.11392],[61.81243,31.12084],[61.8056,31.13811],[61.80723,31.14324],[61.80226,31.15008],[61.80418,31.16714],[61.78777,31.19458],[61.77148,31.20764],[61.77666,31.21379],[61.76992,31.25071],[61.77853,31.30299],[61.70667,31.37624],[60.85607,31.48652],[60.81336,31.7083],[60.8179,31.8899],[60.82753,31.92893],[60.82238,31.96446],[60.83232,31.97931],[60.81912,32.01132],[60.81609,32.02638],[60.8427,32.06904],[60.88306,32.19778],[60.85917,32.26583],[60.8475,32.34028],[60.81501,32.48108],[60.70953,32.69612],[60.67585,32.84439],[60.67142,32.85128],[60.62963,33.02106],[60.58315,33.12982],[60.63412,33.22802],[60.74658,33.33222],[60.8245,33.39982],[60.86667,33.42169],[60.86325,33.46187],[60.85114,33.48221],[60.88247,33.50522],[60.92855,33.49724],[60.94629,33.51368],[60.90268,33.53996],[60.70342,33.54552],[60.65502,33.55747],[60.58128,33.59702],[60.55146,33.64003],[60.54689,33.73141],[60.58221,33.80544],[60.5176,34.06176],[60.5211,34.10096],[60.53376,34.12843],[60.53738,34.15061],[60.55469,34.16832],[60.56263,34.18909],[60.58035,34.20289],[60.58643,34.21304],[60.62069,34.24382],[60.64059,34.25829],[60.66896,34.27203],[60.6762,34.30487],[60.6865,34.31071],[60.73743,34.30722],[60.83402,34.31059],[60.8823,34.3034],[60.91837,34.30476],[60.89793,34.32443],[60.89511,34.32784],[60.89652,34.33099],[60.89206,34.33202],[60.8808,34.34712],[60.87112,34.34825],[60.87397,34.35512],[60.86302,34.36105],[60.85883,34.36778],[60.84963,34.36845],[60.84986,34.38212],[60.83807,34.40204],[60.84369,34.40586],[60.84183,34.41048],[60.82973,34.4161],[60.82741,34.42883],[60.82246,34.42928],[60.82164,34.44231],[60.81653,34.44538],[60.80739,34.46191],[60.80927,34.47149],[60.7906,34.47582],[60.78273,34.4855],[60.77509,34.48686],[60.75137,34.50763],[60.74186,34.51083],[60.73908,34.51809],[60.74235,34.52695],[60.79034,34.53776],[60.82284,34.54487],[60.82597,34.53914],[60.83095,34.54488],[60.84865,34.54208],[60.89727,34.56726],[60.92221,34.62302],[60.93535,34.62156],[60.93903,34.6241],[60.95761,34.61669],[60.97015,34.62101],[60.98471,34.61987],[61.0008,34.64298],[61.00006,34.68458],[61.00387,34.71125],[61.0106,34.7183],[61.01427,34.73175],[61.04136,34.75844],[61.04646,34.77395],[61.05497,34.78243],[61.06132,34.80318],[61.06826,34.81411],[61.0678,34.83256],[61.06251,34.83754],[61.06681,34.8422],[61.07383,34.84161],[61.0747,34.84611],[61.06901,34.85076],[61.06944,34.85648],[61.07355,34.85843],[61.06752,34.86542],[61.08081,34.8765],[61.07481,34.88316],[61.06681,34.88544],[61.0649,34.8915],[61.06716,34.89563],[61.0588,34.89987],[61.05641,34.90645],[61.06997,34.91164],[61.06248,34.9173],[61.07247,34.92273],[61.07062,34.92965],[61.07926,34.93379],[61.07931,34.93757],[61.08511,34.94196],[61.08444,34.95364],[61.09675,34.95064],[61.09839,34.95541],[61.09576,34.96038],[61.10151,34.97035],[61.09503,34.97503],[61.09535,34.97829],[61.10474,34.9783],[61.10633,34.98104],[61.10197,34.98544],[61.1046,34.99751],[61.11129,35.00171],[61.11778,35.00101],[61.11845,35.00453],[61.10298,35.02371],[61.10504,35.02927],[61.11226,35.03363],[61.11074,35.03999],[61.11829,35.04221],[61.11174,35.05029],[61.11158,35.06042],[61.12573,35.05884],[61.12816,35.06087],[61.12251,35.07118],[61.13119,35.0747],[61.14367,35.07222],[61.14552,35.07474],[61.14202,35.08866],[61.12605,35.09562],[61.14178,35.10521],[61.14029,35.10899],[61.13099,35.10633],[61.13174,35.11456],[61.13893,35.12033],[61.13169,35.12573],[61.13188,35.13573],[61.12469,35.13452],[61.11979,35.14631],[61.11473,35.14637],[61.11077,35.15178],[61.11207,35.15698],[61.10448,35.16535],[61.09842,35.16594],[61.09167,35.16076],[61.08658,35.16596],[61.08638,35.16837],[61.09867,35.1732],[61.09286,35.18278],[61.09403,35.18591],[61.10599,35.19094],[61.1104,35.2033],[61.11573,35.20381],[61.11738,35.20737],[61.11546,35.21282],[61.10353,35.21435],[61.09839,35.21838],[61.09872,35.22789],[61.10233,35.23236],[61.09632,35.23881],[61.09923,35.24205],[61.0969,35.25835],[61.09174,35.26363],[61.10103,35.27721],[61.10958,35.28293],[61.11595,35.28232],[61.12031,35.27784],[61.1548,35.2847],[61.15568,35.27691],[61.15865,35.27565],[61.16924,35.2902],[61.19027,35.29282],[61.18732,35.30317],[61.18952,35.30824],[61.18597,35.31608],[61.19135,35.31947],[61.18514,35.32449],[61.18643,35.32808],[61.17654,35.33957],[61.17579,35.34713],[61.17834,35.34988],[61.1762,35.35626],[61.18581,35.35814],[61.18424,35.37078],[61.19291,35.37624],[61.20047,35.37402],[61.19442,35.37907],[61.19427,35.38274],[61.20054,35.38768],[61.19768,35.39005],[61.19557,35.38567],[61.19151,35.38601],[61.19442,35.39038],[61.18787,35.40007],[61.19968,35.41156],[61.21082,35.41252],[61.21415,35.4199],[61.2265,35.42118],[61.23295,35.43301],[61.2221,35.44299],[61.23581,35.45025],[61.23634,35.45952],[61.23375,35.46229],[61.24369,35.47617],[61.25411,35.48003],[61.25448,35.4907],[61.25905,35.49205],[61.26124,35.49839],[61.25964,35.5049],[61.26698,35.50594],[61.27097,35.51598],[61.27794,35.52107],[61.27611,35.52488],[61.28217,35.53571],[61.28389,35.54917],[61.27037,35.56037],[61.2743,35.56789],[61.27155,35.57042],[61.273,35.57496],[61.28015,35.58011],[61.26992,35.58992],[61.26976,35.59294],[61.27747,35.59819],[61.27413,35.60515],[61.28276,35.60818],[61.28687,35.61448],[61.31192,35.61991],[61.36646,35.62526],[61.37354,35.62342],[61.37531,35.62073],[61.36848,35.61264],[61.37599,35.59041],[61.39337,35.59156],[61.39449,35.58308],[61.39865,35.58726],[61.40098,35.58344],[61.39855,35.57758],[61.38897,35.57394],[61.3867,35.56689],[61.40276,35.55398],[61.40945,35.55451],[61.42532,35.53863],[61.43428,35.53911],[61.44516,35.53253],[61.45243,35.51907],[61.58849,35.43638],[61.77986,35.41116],[61.96851,35.45449],[62.06428,35.43442],[62.10668,35.38275],[62.15372,35.3409],[62.26606,35.29523],[62.26669,35.28802],[62.27506,35.28359],[62.27268,35.27793],[62.27542,35.26822],[62.29105,35.25622],[62.28905,35.24109],[62.29311,35.23847],[62.29447,35.23172],[62.29103,35.22882],[62.29418,35.22249],[62.29114,35.2148],[62.29552,35.20861],[62.29212,35.18772],[62.29335,35.17854],[62.30128,35.16941],[62.29899,35.15007],[62.30133,35.14346],[62.29831,35.1381],[62.30523,35.13079],[62.32588,35.145],[62.47737,35.27871],[62.49027,35.27402],[62.4988,35.27607],[62.50522,35.26703],[62.51508,35.26616],[62.52131,35.27391],[62.52577,35.27272],[62.52617,35.26217],[62.54327,35.25865],[62.54405,35.24368],[62.54826,35.24186],[62.55017,35.23608],[62.57614,35.23111],[62.57748,35.22375],[62.58115,35.22158],[62.58433,35.22665],[62.59975,35.22739],[62.60383,35.23588],[62.61177,35.23537],[62.62311,35.21003],[62.6283,35.20827],[62.65591,35.23245],[62.677,35.23151],[62.69287,35.23925],[62.70501,35.2368],[62.71638,35.24232],[62.7246,35.25181],[62.73689,35.24979],[62.74679,35.25359],[62.75207,35.26746],[62.75064,35.2721],[62.76354,35.2877],[62.7772,35.29041],[62.78529,35.30075],[62.79834,35.30042],[62.80101,35.30369],[62.82379,35.29937],[62.82714,35.30301],[62.83238,35.30303],[62.84045,35.3115],[62.85463,35.31593],[62.8777,35.3472],[62.88599,35.34132],[62.89226,35.34385],[62.89601,35.35012],[62.89376,35.35837],[62.90564,35.36143],[62.90791,35.35808],[62.91095,35.35899],[62.91744,35.36953],[62.92454,35.36881],[62.93304,35.37582],[62.9338,35.38004],[62.94962,35.38327],[62.95412,35.38806],[62.96239,35.38699],[62.99317,35.4033],[63.00428,35.40569],[63.00715,35.4098],[63.02032,35.40088],[63.02398,35.40274],[63.01424,35.41611],[63.01724,35.41795],[63.02414,35.41271],[63.04448,35.4162],[63.05192,35.41221],[63.07587,35.41504],[63.08722,35.41995],[63.09866,35.41818],[63.10382,35.44131],[63.1084,35.44608],[63.1097,35.46644],[63.11356,35.46788],[63.1167,35.4765],[63.11512,35.4912],[63.11968,35.49146],[63.11958,35.50284],[63.11624,35.50319],[63.11222,35.51133],[63.12471,35.51624],[63.13072,35.54222],[63.1258,35.5471],[63.1239,35.54477],[63.11251,35.5451],[63.1133,35.55132],[63.10565,35.55103],[63.10729,35.5591],[63.10233,35.55989],[63.10552,35.56503],[63.10336,35.57348],[63.10927,35.5783],[63.1094,35.58573],[63.10609,35.58566],[63.10037,35.59321],[63.09785,35.60568],[63.09987,35.60931],[63.09511,35.61938],[63.10661,35.62185],[63.10627,35.62553],[63.11179,35.62684],[63.11175,35.6336],[63.24819,35.68094],[63.24334,35.6846],[63.24434,35.68755],[63.25075,35.68601],[63.24753,35.68982],[63.24937,35.69433],[63.2424,35.70401],[63.23355,35.7026],[63.22439,35.71172],[63.21194,35.71131],[63.2092,35.70763],[63.19451,35.71317],[63.18951,35.73206],[63.17456,35.73317],[63.16715,35.74326],[63.16807,35.75019],[63.1605,35.74999],[63.15952,35.75605],[63.15603,35.75648],[63.14739,35.76584],[63.1479,35.76966],[63.14246,35.77213],[63.14434,35.77729],[63.13858,35.78014],[63.14182,35.78533],[63.13978,35.78826],[63.13618,35.78433],[63.13299,35.7861],[63.13578,35.78806],[63.13119,35.79443],[63.13401,35.79551],[63.13293,35.80235],[63.12883,35.80159],[63.12776,35.80708],[63.12304,35.80968],[63.11842,35.8091],[63.11193,35.81689],[63.11324,35.82195],[63.1088,35.82194],[63.10924,35.82819],[63.11686,35.83392],[63.11249,35.84707],[63.1216,35.85115],[63.1207,35.86318],[63.30583,35.85795],[63.53538,35.90327],[63.57069,35.95144],[63.70334,35.96762],[63.87884,36.00771],[63.98923,36.0363],[64.06854,35.99729],[64.07158,36.00229],[64.06791,36.00605],[64.07196,36.02408],[64.07038,36.02735],[64.06497,36.02351],[64.05994,36.03485],[64.06091,36.04526],[64.05817,36.04736],[64.0608,36.04945],[64.05676,36.05773],[64.05987,36.0649],[64.05595,36.06886],[64.06029,36.07473],[64.05661,36.08192],[64.06038,36.08826],[64.0573,36.09232],[64.05753,36.10242],[64.08094,36.10983],[64.09322,36.12964],[64.09981,36.13028],[64.10361,36.12499],[64.10991,36.12303],[64.1175,36.12569],[64.1272,36.13545],[64.14652,36.14682],[64.15799,36.14689],[64.16077,36.16036],[64.17015,36.16358],[64.18935,36.15949],[64.19553,36.16552],[64.20937,36.16753],[64.2408,36.1508],[64.2472,36.15857],[64.26166,36.16251],[64.26651,36.16165],[64.26856,36.15514],[64.28144,36.15165],[64.30012,36.16961],[64.29877,36.1735],[64.30257,36.18228],[64.30988,36.18902],[64.31598,36.20836],[64.32801,36.2064],[64.34355,36.2129],[64.3626,36.2257],[64.3628,36.22954],[64.37982,36.23087],[64.38978,36.22833],[64.39478,36.23315],[64.40452,36.231],[64.41437,36.23775],[64.41931,36.2356],[64.42141,36.24056],[64.42577,36.23833],[64.42689,36.24174],[64.44523,36.24273],[64.50757,36.29002],[64.57996,36.35164],[64.58877,36.37697],[64.63631,36.44228],[64.6192,36.58295],[64.62233,36.60415],[64.61814,36.63597],[64.7072,36.79583],[64.79815,36.92289],[64.75575,37.11288],[64.99028,37.21851],[65.13261,37.24606],[65.19124,37.23621],[65.22852,37.25093],[65.26806,37.2328],[65.53118,37.23804],[65.64296,37.34292],[65.64632,37.44188],[65.70093,37.53456],[65.70621,37.53888],[65.71366,37.53688],[65.72638,37.54094],[65.7449,37.53993],[65.75777,37.53576],[65.76064,37.55076],[65.76766,37.54972],[65.76419,37.53527],[65.80161,37.52208],[65.82149,37.49788],[65.83828,37.48845],[65.85574,37.49055],[65.89236,37.4768],[65.95437,37.47262],[65.97638,37.46394],[65.98032,37.45713],[65.98922,37.4546],[65.99911,37.44619],[66.04192,37.45378],[66.07174,37.44876],[66.09054,37.43283],[66.11225,37.40431],[66.15485,37.39914],[66.16363,37.37422],[66.16831,37.36907],[66.17696,37.36703],[66.19359,37.3706],[66.22092,37.36433],[66.23061,37.36779],[66.24707,37.36359],[66.26217,37.34437],[66.26947,37.34476],[66.28418,37.33543],[66.29185,37.33473],[66.30174,37.32674],[66.31779,37.32123],[66.34406,37.33368],[66.35473,37.32925],[66.36475,37.33278],[66.3884,37.32859],[66.41612,37.34733],[66.43403,37.33864],[66.46297,37.33445],[66.47518,37.32888],[66.50275,37.33159],[66.54768,37.3485],[66.5603,37.36239],[66.5751,37.36917],[66.59368,37.36872],[66.60204,37.36485],[66.61034,37.35518],[66.61023,37.34905],[66.62536,37.33021],[66.64365,37.32867],[66.65427,37.32298],[66.66584,37.32769],[66.67206,37.34207],[66.69262,37.35702],[66.70846,37.3561],[66.73287,37.36373],[66.74098,37.35679],[66.75119,37.35381],[66.76901,37.36085],[66.80087,37.36325],[66.82393,37.35597],[66.85121,37.35349],[66.87267,37.36639],[66.90412,37.37494],[66.9143,37.38338],[66.94506,37.398],[66.99231,37.38398],[66.99745,37.37837],[67.01107,37.37341],[67.04477,37.38044],[67.06084,37.37097],[67.06915,37.36017],[67.0869,37.35005],[67.08663,37.34257],[67.09061,37.33833],[67.10314,37.33424],[67.11242,37.32707],[67.11,37.28992],[67.11998,37.28356],[67.12788,37.27147],[67.16502,37.25826],[67.18452,37.2602],[67.19383,37.25762],[67.21021,37.24786],[67.21092,37.24332],[67.23246,37.23266],[67.24086,37.22359],[67.25535,37.18884],[67.26202,37.18343],[67.26987,37.18194],[67.3033,37.18813],[67.32568,37.20297],[67.37785,37.21749],[67.40528,37.21988],[67.41575,37.22562],[67.44897,37.23463],[67.46383,37.24443],[67.47935,37.26779],[67.50014,37.28175],[67.50376,37.28137],[67.53229,37.27019],[67.53548,37.25925],[67.54124,37.25722],[67.57096,37.22426],[67.58714,37.2251],[67.61267,37.2392],[67.62867,37.23608],[67.63874,37.22552],[67.64738,37.22277],[67.66385,37.23031],[67.67837,37.23274],[67.69695,37.22531],[67.71788,37.22253],[67.73697,37.21455],[67.75365,37.20311],[67.75866,37.19347],[67.79192,37.1668],[67.79221,37.15282],[67.78587,37.14078],[67.78842,37.1282],[67.78443,37.11123],[67.79348,37.09686],[67.79867,37.07913],[67.81329,37.07013],[67.85195,37.06232],[67.88075,37.06465],[67.89042,37.0693],[67.89718,37.06699],[67.90004,37.06423],[67.8988,37.05438],[67.89272,37.04757],[67.89219,37.04168],[67.89833,37.02898],[67.92176,37.00944],[67.95054,36.99136],[67.94851,36.97887],[67.95383,36.9703],[67.97257,36.96668],[67.9971,36.95379],[67.99924,36.93636],[68.02021,36.92261],[68.02952,36.92866],[68.056,36.93292],[68.06238,36.94319],[68.08459,36.94896],[68.09684,36.95603],[68.12038,36.96114],[68.13616,36.97323],[68.1477,36.99392],[68.19052,37.0224],[68.22245,37.02573],[68.25108,37.00851],[68.25866,37.00688],[68.27386,37.0133],[68.28398,37.02706],[68.28464,37.03675],[68.28866,37.04351],[68.29089,37.0547],[68.28683,37.0758],[68.29532,37.10516],[68.31078,37.10959],[68.32876,37.11018],[68.37011,37.0993],[68.39917,37.10139],[68.42241,37.11131],[68.40864,37.12545],[68.41331,37.13891],[68.42205,37.14419],[68.45867,37.141],[68.46911,37.14561],[68.48257,37.15797],[68.54218,37.16469],[68.56031,37.18351],[68.57104,37.18958],[68.61341,37.19564],[68.62907,37.20689],[68.64265,37.2069],[68.65051,37.21446],[68.65384,37.22419],[68.65215,37.24172],[68.65714,37.24837],[68.67505,37.23656],[68.68885,37.24287],[68.69004,37.24554],[68.67407,37.26981],[68.67619,37.27653],[68.6813,37.28003],[68.73413,37.26854],[68.75529,37.28104],[68.78203,37.28797],[68.78792,37.28556],[68.79611,37.27409],[68.80002,37.26625],[68.80027,37.25089],[68.80451,37.24676],[68.82978,37.24742],[68.83664,37.25343],[68.83666,37.25787],[68.82744,37.26987],[68.81629,37.27411],[68.80855,37.29009],[68.81214,37.30294],[68.81861,37.31182],[68.83271,37.31783],[68.84495,37.31591],[68.86938,37.30316],[68.8951,37.27071],[68.90067,37.26763],[68.913,37.268],[68.92828,37.27994],[68.92445,37.28987],[68.90674,37.29891],[68.90083,37.30827],[68.89427,37.32713],[68.9046,37.33444],[68.93121,37.32071],[68.94069,37.3216],[68.94569,37.32682],[68.95066,37.32688],[68.97183,37.32025],[68.97284,37.31177],[68.9846,37.30418],[68.99185,37.30363],[68.99882,37.29226],[69.01551,37.27871],[69.02885,37.25845],[69.05694,37.24132],[69.07116,37.23735],[69.08907,37.22326],[69.09986,37.20316],[69.09977,37.19717],[69.11408,37.1814],[69.11627,37.17486],[69.1257,37.17327],[69.12993,37.16825],[69.16551,37.15037],[69.16822,37.14588],[69.17773,37.14509],[69.20242,37.13476],[69.2188,37.12261],[69.22231,37.11328],[69.23533,37.10548],[69.23901,37.0997],[69.25077,37.09357],[69.25825,37.09375],[69.26261,37.10152],[69.27861,37.10459],[69.28496,37.11118],[69.32335,37.11764],[69.33191,37.13347],[69.37151,37.16527],[69.37636,37.16738],[69.39452,37.16334],[69.40005,37.16502],[69.41316,37.1848],[69.42272,37.19224],[69.42368,37.20003],[69.45327,37.23245],[69.45371,37.23499],[69.44836,37.23791],[69.42209,37.23484],[69.41239,37.24094],[69.41981,37.25719],[69.41615,37.26978],[69.40624,37.27541],[69.41288,37.29236],[69.39936,37.30191],[69.39952,37.30583],[69.40696,37.30976],[69.40454,37.31641],[69.39976,37.31827],[69.39233,37.31477],[69.38075,37.32206],[69.37943,37.32666],[69.38741,37.34182],[69.38594,37.34548],[69.3937,37.34987],[69.39487,37.35719],[69.38881,37.36156],[69.37817,37.36243],[69.38185,37.36986],[69.38128,37.37411],[69.37486,37.37734],[69.37666,37.3867],[69.38469,37.39096],[69.38295,37.39536],[69.37379,37.40005],[69.37335,37.40633],[69.37978,37.41725],[69.37873,37.43148],[69.3911,37.43885],[69.39404,37.44955],[69.41572,37.45798],[69.42017,37.46625],[69.42484,37.46579],[69.43698,37.48918],[69.44907,37.48898],[69.45844,37.49654],[69.45885,37.50157],[69.4549,37.50252],[69.45417,37.50721],[69.45871,37.50599],[69.46052,37.51115],[69.47732,37.52201],[69.49318,37.5225],[69.49251,37.5295],[69.49707,37.53139],[69.49673,37.53618],[69.51308,37.54792],[69.51141,37.5594],[69.51833,37.56352],[69.5172,37.5677],[69.52153,37.57105],[69.52297,37.57959],[69.53076,37.58368],[69.5283,37.58803],[69.54009,37.5907],[69.54697,37.58383],[69.5519,37.58171],[69.55615,37.58402],[69.56597,37.57902],[69.58892,37.58221],[69.60514,37.58048],[69.62051,37.57324],[69.64226,37.5764],[69.70397,37.57609],[69.74703,37.58856],[69.75521,37.58477],[69.77633,37.58415],[69.8004,37.56985],[69.80959,37.56782],[69.82153,37.57348],[69.82966,37.5925],[69.83896,37.60273],[69.85503,37.60411],[69.86646,37.61217],[69.88591,37.61033],[69.91082,37.61993],[69.91595,37.61912],[69.92251,37.6111],[69.93049,37.6076],[69.94328,37.60619],[69.94513,37.59651],[69.95088,37.58972],[69.95108,37.56819],[69.96573,37.56404],[69.99531,37.5674],[69.99911,37.56532],[69.99991,37.55556],[70.01636,37.55166],[70.02002,37.5475],[70.0385,37.55144],[70.04663,37.5436]]]]}}]}