{"type":"FeatureCollection","features":[{"type":"Feature","properties":{"ISO_A3":"AGO","WB_A3":"AGO","WB_NAME":"Angola","WB_REGION":"AFE,SSF"},"geometry":{"type":"MultiPolygon","coordinates":[[[[21.83201,-7.64727],[21.82932,-7.65694],[21.8182,-7.65847],[21.81249,-7.66422],[21.81706,-7.67376],[21.81622,-7.67974],[21.81011,-7.69955],[21.79812,-7.72178],[21.80153,-7.73216],[21.79346,-7.73755],[21.78893,-7.74737],[21.78963,-7.75828],[21.77522,-7.77466],[21.77247,-7.804],[21.7797,-7.80269],[21.78442,-7.80654],[21.7749,-7.81458],[21.77581,-7.83146],[21.76974,-7.83382],[21.76881,-7.84442],[21.76816,-7.85388],[21.77789,-7.88125],[21.77221,-7.90036],[21.77665,-7.90744],[21.75473,-7.92688],[21.75071,-7.93956],[21.76888,-7.96955],[21.7628,-7.99815],[21.77633,-8.01515],[21.77483,-8.02748],[21.78127,-8.03243],[21.78865,-8.03271],[21.79046,-8.04015],[21.80364,-8.04681],[21.80424,-8.05235],[21.82305,-8.06973],[21.82616,-8.08946],[21.83915,-8.11023],[21.84894,-8.14311],[21.85943,-8.14748],[21.8663,-8.16286],[21.88141,-8.17391],[21.88422,-8.1796],[21.88353,-8.1838],[21.87478,-8.18721],[21.87181,-8.19232],[21.88089,-8.21847],[21.87991,-8.22821],[21.89055,-8.25039],[21.88859,-8.27469],[21.89319,-8.29468],[21.90013,-8.30131],[21.90467,-8.30138],[21.90702,-8.30606],[21.92448,-8.30685],[21.932,-8.32785],[21.92957,-8.33522],[21.914,-8.34651],[21.9156,-8.35881],[21.92278,-8.37072],[21.91776,-8.39394],[21.93461,-8.4118],[21.94834,-8.44022],[21.94281,-8.47737],[21.95205,-8.49949],[21.94596,-8.51106],[21.93301,-8.5249],[21.92923,-8.52538],[21.93049,-8.52988],[21.93735,-8.53257],[21.93594,-8.53679],[21.94258,-8.53899],[21.93697,-8.55437],[21.9416,-8.55916],[21.9262,-8.56567],[21.92856,-8.58224],[21.91908,-8.5902],[21.93566,-8.59279],[21.93693,-8.60426],[21.92482,-8.60482],[21.92263,-8.61567],[21.91152,-8.62223],[21.91028,-8.63083],[21.9058,-8.6339],[21.91387,-8.6663],[21.90616,-8.6669],[21.90537,-8.67974],[21.89714,-8.688],[21.90028,-8.69684],[21.89222,-8.69838],[21.89077,-8.70569],[21.89421,-8.72752],[21.89183,-8.74241],[21.89814,-8.76674],[21.89214,-8.77778],[21.89606,-8.78357],[21.88516,-8.80594],[21.88504,-8.81503],[21.87195,-8.82284],[21.87124,-8.82611],[21.87802,-8.83608],[21.86754,-8.84105],[21.86125,-8.85121],[21.86767,-8.87558],[21.85422,-8.90205],[21.86004,-8.9174],[21.84785,-8.97901],[21.84674,-8.99438],[21.85013,-9.01591],[21.84511,-9.02824],[21.8519,-9.03376],[21.85495,-9.04582],[21.84645,-9.04728],[21.84369,-9.0572],[21.83954,-9.05969],[21.83421,-9.05822],[21.83985,-9.0752],[21.83592,-9.08427],[21.83772,-9.09286],[21.83364,-9.09725],[21.841,-9.11267],[21.83872,-9.11727],[21.83999,-9.13268],[21.84369,-9.1382],[21.84129,-9.14291],[21.84264,-9.14629],[21.8499,-9.14436],[21.85262,-9.15957],[21.85751,-9.16313],[21.85427,-9.17411],[21.8594,-9.18161],[21.86167,-9.19411],[21.85423,-9.20631],[21.85926,-9.21362],[21.85689,-9.21695],[21.85881,-9.22666],[21.85068,-9.2406],[21.83979,-9.25122],[21.83859,-9.27569],[21.82431,-9.28895],[21.82262,-9.31364],[21.80684,-9.3332],[21.80962,-9.34251],[21.80426,-9.35135],[21.81039,-9.3586],[21.80358,-9.3667],[21.81014,-9.37092],[21.80362,-9.3755],[21.79788,-9.39163],[21.79838,-9.3989],[21.79031,-9.40712],[21.79058,-9.41676],[21.79791,-9.42506],[21.8038,-9.4266],[21.80677,-9.43489],[21.81541,-9.43659],[21.82176,-9.4455],[21.82265,-9.45245],[21.8304,-9.4563],[21.83136,-9.46462],[21.8267,-9.47648],[21.8308,-9.50483],[21.84129,-9.51836],[21.84193,-9.52836],[21.85602,-9.53986],[21.86529,-9.56066],[21.86081,-9.59567],[21.87094,-9.60854],[21.86456,-9.62435],[21.87385,-9.62692],[21.87342,-9.64918],[21.89432,-9.65257],[21.897,-9.65945],[21.89291,-9.66586],[21.89466,-9.66807],[21.90833,-9.66823],[21.91581,-9.67913],[21.93543,-9.68534],[21.93274,-9.69945],[21.93489,-9.7066],[21.94858,-9.71022],[21.95697,-9.7213],[21.96821,-9.7272],[21.97684,-9.76045],[21.98712,-9.75691],[21.99403,-9.74838],[21.99722,-9.74928],[22.00135,-9.76145],[21.99779,-9.7801],[22.00995,-9.78998],[22.00867,-9.80469],[22.01588,-9.81185],[22.01299,-9.8193],[22.02481,-9.83242],[22.0331,-9.82641],[22.04021,-9.83038],[22.04855,-9.84983],[22.06583,-9.8643],[22.06852,-9.87382],[22.07944,-9.87495],[22.09437,-9.88146],[22.11135,-9.86956],[22.1208,-9.87659],[22.12176,-9.88428],[22.12888,-9.89065],[22.14045,-9.88598],[22.1485,-9.88727],[22.16114,-9.90053],[22.1778,-9.90933],[22.18535,-9.91887],[22.19155,-9.93123],[22.18751,-9.94052],[22.19101,-9.94973],[22.19652,-9.9543],[22.19726,-9.97041],[22.20335,-9.98427],[22.20135,-9.98955],[22.19544,-9.98904],[22.19307,-9.9918],[22.19339,-9.99639],[22.2026,-10.00241],[22.20227,-10.01262],[22.20917,-10.01172],[22.21362,-10.01987],[22.20632,-10.02554],[22.20867,-10.0359],[22.20572,-10.04207],[22.21545,-10.05319],[22.22121,-10.06992],[22.2156,-10.07347],[22.21563,-10.09024],[22.21278,-10.09187],[22.21436,-10.10082],[22.22145,-10.10937],[22.22022,-10.12397],[22.21405,-10.12059],[22.21224,-10.12629],[22.21619,-10.12983],[22.22186,-10.12964],[22.22275,-10.13285],[22.21608,-10.13833],[22.21508,-10.15845],[22.22555,-10.16539],[22.23031,-10.17421],[22.2287,-10.18372],[22.23266,-10.18448],[22.22972,-10.19023],[22.23606,-10.20041],[22.23287,-10.20826],[22.23444,-10.21543],[22.24669,-10.22483],[22.25473,-10.2263],[22.25697,-10.23261],[22.25537,-10.24453],[22.27664,-10.26025],[22.28349,-10.2822],[22.28389,-10.28822],[22.279,-10.29679],[22.28194,-10.30539],[22.29212,-10.30873],[22.29316,-10.31948],[22.30159,-10.31919],[22.29878,-10.32369],[22.30522,-10.32686],[22.30223,-10.33197],[22.31101,-10.34609],[22.30484,-10.3519],[22.31326,-10.35404],[22.31661,-10.36692],[22.31485,-10.3698],[22.3222,-10.37333],[22.32585,-10.37971],[22.32408,-10.38311],[22.32792,-10.38627],[22.32775,-10.38991],[22.32351,-10.39185],[22.32476,-10.39524],[22.31699,-10.40255],[22.31929,-10.41026],[22.31171,-10.4221],[22.30616,-10.42377],[22.30603,-10.43354],[22.30166,-10.43889],[22.30382,-10.44612],[22.29014,-10.45883],[22.29194,-10.47052],[22.28284,-10.48367],[22.28397,-10.49754],[22.27233,-10.50504],[22.27157,-10.50884],[22.27977,-10.51589],[22.28738,-10.51585],[22.29477,-10.52481],[22.29856,-10.52433],[22.30712,-10.53077],[22.30558,-10.53853],[22.30901,-10.5542],[22.31602,-10.56554],[22.3106,-10.57363],[22.31356,-10.57915],[22.30854,-10.58322],[22.31158,-10.58763],[22.31056,-10.59804],[22.31384,-10.59773],[22.31465,-10.60206],[22.30902,-10.61397],[22.31219,-10.62122],[22.31192,-10.63239],[22.31951,-10.63534],[22.31161,-10.63932],[22.31474,-10.64638],[22.31311,-10.65212],[22.30905,-10.65366],[22.31206,-10.65801],[22.31009,-10.66308],[22.30663,-10.6648],[22.31005,-10.67783],[22.3146,-10.67658],[22.32111,-10.68523],[22.31902,-10.69104],[22.322,-10.69277],[22.32416,-10.70613],[22.31964,-10.72261],[22.33427,-10.73549],[22.32764,-10.75987],[22.31706,-10.76686],[22.30341,-10.78238],[22.29369,-10.78082],[22.28976,-10.78495],[22.28477,-10.78264],[22.26735,-10.78514],[22.264,-10.79261],[22.24774,-10.79679],[22.24709,-10.80076],[22.23556,-10.8029],[22.23462,-10.80799],[22.20881,-10.81937],[22.18902,-10.83764],[22.1903,-10.8427],[22.1827,-10.8445],[22.17811,-10.8529],[22.17224,-10.85186],[22.167,-10.86608],[22.16967,-10.87787],[22.17742,-10.87872],[22.18141,-10.8884],[22.17986,-10.90284],[22.18742,-10.90426],[22.19125,-10.92372],[22.19703,-10.9246],[22.20481,-10.93539],[22.20225,-10.95187],[22.20513,-10.97904],[22.20104,-10.98415],[22.20514,-10.98561],[22.20365,-10.99049],[22.20967,-11.0047],[22.20913,-11.01195],[22.21838,-11.02765],[22.21493,-11.03251],[22.21675,-11.04475],[22.21258,-11.05449],[22.21455,-11.07504],[22.21053,-11.07819],[22.21271,-11.09682],[22.21664,-11.10183],[22.2152,-11.10609],[22.22426,-11.12281],[22.23332,-11.12364],[22.23458,-11.12801],[22.24897,-11.13439],[22.25283,-11.14994],[22.25845,-11.15803],[22.26283,-11.15933],[22.26267,-11.16721],[22.26858,-11.17849],[22.26874,-11.19342],[22.26039,-11.20096],[22.25377,-11.21291],[22.2559,-11.22317],[22.25456,-11.23922],[22.24808,-11.2503],[22.2499,-11.26414],[22.27097,-11.26311],[22.31146,-11.23619],[22.3442,-11.20226],[22.34624,-11.18242],[22.41087,-11.17428],[22.43828,-11.17701],[22.46247,-11.15339],[22.46446,-11.14463],[22.485,-11.13331],[22.50236,-11.11191],[22.50285,-11.10349],[22.49436,-11.09682],[22.4897,-11.08797],[22.48885,-11.06433],[22.49691,-11.04802],[22.50893,-11.03948],[22.52481,-11.04245],[22.56742,-11.02893],[22.57767,-11.02814],[22.58425,-11.03393],[22.59369,-11.03661],[22.60513,-11.03468],[22.61538,-11.04063],[22.61834,-11.03948],[22.62755,-11.04675],[22.62737,-11.06191],[22.63343,-11.07057],[22.67313,-11.09088],[22.68568,-11.09555],[22.69271,-11.0927],[22.69702,-11.09652],[22.70005,-11.10791],[22.70993,-11.11331],[22.74557,-11.11082],[22.76521,-11.11834],[22.77327,-11.1184],[22.79145,-11.10621],[22.80376,-11.09009],[22.83158,-11.085],[22.84546,-11.06869],[22.86304,-11.06269],[22.88462,-11.06554],[22.90668,-11.0867],[22.96071,-11.0875],[22.98436,-11.09335],[23.01197,-11.08918],[23.04076,-11.09064],[23.06119,-11.10519],[23.0801,-11.11319],[23.09392,-11.11046],[23.09834,-11.1047],[23.12295,-11.09864],[23.15132,-11.08173],[23.16266,-11.08676],[23.16726,-11.09827],[23.19618,-11.10822],[23.23709,-11.07154],[23.2557,-11.0716],[23.27691,-11.04275],[23.29243,-11.03548],[23.2971,-11.02305],[23.30619,-11.01893],[23.3305,-11.01669],[23.33492,-11.01232],[23.33747,-11.00208],[23.37961,-10.97664],[23.39303,-10.96249],[23.41929,-10.95877],[23.42859,-10.94665],[23.48395,-10.93849],[23.51401,-10.94067],[23.53155,-10.9456],[23.55895,-10.96362],[23.5781,-10.97154],[23.58465,-10.98092],[23.5971,-10.98625],[23.62191,-10.98068],[23.65036,-10.98375],[23.66183,-10.99894],[23.66862,-11.00314],[23.68891,-11.00387],[23.70572,-10.99846],[23.71776,-10.99943],[23.74176,-10.98593],[23.75938,-10.9873],[23.77821,-10.99417],[23.82978,-11.02227],[23.84245,-11.02409],[23.84376,-11.02671],[23.85293,-11.02619],[23.86284,-11.03527],[23.88681,-11.01167],[23.89401,-10.99432],[23.89213,-10.98378],[23.89751,-10.97656],[23.92173,-10.95705],[23.92754,-10.95473],[23.94078,-10.95801],[23.94505,-10.95511],[23.94883,-10.94562],[23.96167,-10.9351],[23.96789,-10.91176],[23.99742,-10.89103],[23.98053,-10.91118],[23.99271,-10.91614],[24.00005,-10.92766],[24.01822,-10.94111],[24.02136,-10.94874],[24.01603,-10.96139],[24.01837,-10.96685],[24.02271,-10.96768],[24.02329,-10.99486],[24.02168,-11.00212],[24.01755,-11.00339],[24.01052,-11.01522],[24.01412,-11.08194],[24.02173,-11.09812],[24.01421,-11.10754],[24.00637,-11.10943],[24.00212,-11.12001],[24.00739,-11.13052],[24.01741,-11.12949],[24.02038,-11.13336],[24.03108,-11.13441],[24.03621,-11.14242],[24.03508,-11.16279],[24.03739,-11.16782],[24.03442,-11.17195],[24.03133,-11.27474],[24.05624,-11.30831],[24.08789,-11.4045],[24.06247,-11.422],[24.04515,-11.42343],[24.03416,-11.43907],[24.02439,-11.4457],[24.02148,-11.45336],[24.02577,-11.45938],[24.02588,-11.46568],[24.02093,-11.47587],[24.02512,-11.47962],[24.02151,-11.48326],[24.02807,-11.49546],[24.0286,-11.50325],[24.03263,-11.50505],[24.03378,-11.51864],[24.03926,-11.52394],[24.03773,-11.53246],[24.03024,-11.535],[24.02328,-11.5549],[24.01305,-11.56817],[24.01222,-11.58193],[24.00194,-11.58888],[24.00015,-11.60438],[23.99079,-11.61104],[23.98855,-11.61859],[23.98403,-11.62174],[23.98624,-11.62366],[23.98217,-11.62994],[23.98147,-11.64233],[23.97874,-11.64298],[23.9759,-11.65234],[23.96513,-11.65352],[23.96233,-11.65731],[23.9635,-11.66503],[23.97548,-11.68101],[23.97251,-11.68388],[23.97345,-11.68936],[23.98544,-11.69957],[23.98499,-11.70665],[23.99227,-11.71512],[23.99281,-11.74307],[24.00304,-11.7625],[24.00219,-11.77503],[24.01307,-11.78664],[24.01312,-11.78935],[24.0084,-11.78993],[24.01292,-11.80264],[24.01217,-11.81075],[24.02296,-11.83047],[24.01772,-11.84229],[24.00254,-11.84782],[23.99802,-11.85596],[23.98448,-12.00126],[23.98039,-12.13644],[23.98236,-12.17139],[23.99117,-12.17608],[23.99706,-12.18517],[23.99997,-12.20808],[24.01304,-12.22207],[24.02647,-12.223],[24.02903,-12.22987],[24.04065,-12.23602],[24.05053,-12.25571],[24.05988,-12.26483],[24.06286,-12.27722],[24.05763,-12.28743],[24.06646,-12.31088],[24.04301,-12.33396],[24.06069,-12.34209],[24.06384,-12.3485],[24.07566,-12.35822],[24.07793,-12.36227],[24.07466,-12.37639],[24.07728,-12.38082],[24.06945,-12.39704],[24.07198,-12.4081],[24.06566,-12.42436],[24.04391,-12.43268],[24.03196,-12.44121],[24.03416,-12.44769],[24.02119,-12.45234],[24.01953,-12.45791],[24.0091,-12.46559],[24.00078,-12.48527],[23.98311,-12.49772],[23.98048,-12.50607],[23.9841,-12.50885],[23.98276,-12.5111],[23.975,-12.51191],[23.97105,-12.51755],[23.96397,-12.51548],[23.9567,-12.5196],[23.9559,-12.5316],[23.94802,-12.53803],[23.94661,-12.55501],[23.95982,-12.59206],[23.95736,-12.59237],[23.95533,-12.60352],[23.95056,-12.60954],[23.94721,-12.62281],[23.94913,-12.62396],[23.93949,-12.64119],[23.94087,-12.64386],[23.93601,-12.64621],[23.93632,-12.65169],[23.92869,-12.65602],[23.93065,-12.65872],[23.92739,-12.66123],[23.92744,-12.66655],[23.92315,-12.66821],[23.92057,-12.68254],[23.92493,-12.6881],[23.92361,-12.69177],[23.93254,-12.69705],[23.92641,-12.71437],[23.92298,-12.7139],[23.91081,-12.73468],[23.90516,-12.75874],[23.8995,-12.76384],[23.89795,-12.77038],[23.90353,-12.77725],[23.89702,-12.7943],[23.90018,-12.82458],[23.89366,-12.84129],[23.89504,-12.84393],[23.90614,-12.84575],[23.90676,-12.85371],[23.92255,-12.86275],[23.92698,-12.87335],[23.92621,-12.88094],[23.94109,-12.8932],[23.95408,-12.89563],[23.96117,-12.89152],[23.97447,-12.89772],[23.98198,-12.89612],[23.99634,-12.92838],[24.02741,-12.94582],[24.02939,-12.95332],[24.02516,-12.9703],[24.05813,-13.00077],[22.00372,-12.99969],[22.00041,-13.46889],[22.00043,-16.19281],[22.00451,-16.20025],[22.00022,-16.20728],[22.01592,-16.20976],[22.02038,-16.21187],[22.0208,-16.2161],[22.02992,-16.21873],[22.03086,-16.23428],[22.04386,-16.23368],[22.04961,-16.23993],[22.04794,-16.24435],[22.05163,-16.24566],[22.05167,-16.24948],[22.05815,-16.25211],[22.05971,-16.26044],[22.07647,-16.25757],[22.08126,-16.26091],[22.072,-16.27298],[22.07248,-16.27596],[22.08191,-16.27899],[22.07068,-16.29025],[22.08114,-16.29425],[22.08521,-16.30456],[22.10042,-16.30824],[22.10067,-16.31655],[22.0946,-16.31664],[22.09129,-16.32121],[22.09877,-16.32656],[22.09842,-16.33094],[22.11255,-16.33394],[22.11337,-16.34564],[22.12045,-16.34812],[22.1233,-16.35694],[22.11911,-16.35735],[22.12545,-16.36606],[22.12715,-16.37553],[22.11786,-16.3841],[22.11989,-16.38709],[22.12817,-16.38601],[22.13023,-16.40428],[22.13551,-16.40805],[22.13567,-16.42333],[22.1303,-16.4327],[22.13975,-16.43948],[22.12538,-16.44537],[22.1397,-16.45908],[22.13978,-16.47208],[22.14826,-16.47514],[22.13769,-16.48624],[22.12084,-16.49023],[22.12705,-16.49406],[22.1353,-16.4901],[22.14722,-16.49424],[22.14999,-16.48962],[22.16045,-16.50685],[22.16964,-16.50984],[22.16082,-16.52192],[22.1742,-16.52096],[22.18517,-16.54608],[22.2051,-16.54924],[22.21856,-16.56245],[22.21805,-16.5733],[22.25259,-16.57412],[22.26395,-16.58771],[22.2638,-16.6022],[22.27985,-16.617],[22.27738,-16.6252],[22.29575,-16.62178],[22.3219,-16.64171],[22.33318,-16.66217],[22.32933,-16.66715],[22.34788,-16.67348],[22.35547,-16.68318],[22.35082,-16.69876],[22.36894,-16.70061],[22.37154,-16.69781],[22.42025,-16.7455],[22.47092,-16.80463],[22.4968,-16.81475],[22.49215,-16.83511],[22.52088,-16.8598],[22.55616,-16.87925],[22.59905,-16.91868],[22.62682,-16.95222],[22.62022,-16.955],[22.62118,-16.95934],[22.64396,-16.97157],[22.6421,-16.97605],[22.6934,-17.02442],[22.68569,-17.03194],[22.71621,-17.04265],[22.72503,-17.05454],[22.71723,-17.05794],[22.72612,-17.06465],[22.73947,-17.06433],[22.72894,-17.07486],[22.76711,-17.10537],[22.77028,-17.10423],[22.79161,-17.11993],[22.80526,-17.15062],[22.79754,-17.15257],[22.80189,-17.16534],[22.85358,-17.19083],[22.89672,-17.20112],[22.90938,-17.22264],[22.96931,-17.25601],[22.9682,-17.26111],[22.97393,-17.26032],[22.99551,-17.27422],[22.99343,-17.28645],[23.00883,-17.28412],[22.99707,-17.29812],[23.02105,-17.31193],[23.02598,-17.31196],[23.0251,-17.31695],[23.03755,-17.33157],[23.04399,-17.3467],[23.05864,-17.33774],[23.06873,-17.38141],[23.08714,-17.41351],[23.12819,-17.42266],[23.12353,-17.44583],[23.14185,-17.45257],[23.14422,-17.46025],[23.13613,-17.46657],[23.17769,-17.47486],[23.19368,-17.48794],[23.19169,-17.49264],[23.19996,-17.5012],[23.20543,-17.50296],[23.20815,-17.51563],[23.22483,-17.52349],[23.22159,-17.53271],[23.23169,-17.53732],[23.24129,-17.54665],[23.24964,-17.5434],[23.28691,-17.54202],[23.28363,-17.54823],[23.34134,-17.55407],[23.35024,-17.56689],[23.36528,-17.57608],[23.37711,-17.57313],[23.39094,-17.57632],[23.40063,-17.59706],[23.4097,-17.59246],[23.4177,-17.59744],[23.41836,-17.60118],[23.41397,-17.60122],[23.42619,-17.61445],[23.42527,-17.62823],[23.43014,-17.63045],[23.43004,-17.63476],[23.43423,-17.63787],[22.4111,-17.83823],[21.42293,-18.02682],[21.41747,-18.01709],[21.41127,-18.01431],[21.39733,-18.00968],[21.37266,-18.00982],[21.37158,-17.99244],[21.3625,-17.98472],[21.33149,-17.98954],[21.3178,-17.98738],[21.30715,-17.97634],[21.29525,-17.97497],[21.27647,-17.96615],[21.26836,-17.96716],[21.24167,-17.95636],[21.22246,-17.93362],[21.20945,-17.92917],[21.19172,-17.93585],[21.17372,-17.93686],[21.16019,-17.93064],[21.14792,-17.936],[21.11895,-17.93475],[21.11344,-17.93713],[21.10907,-17.94634],[21.1017,-17.94877],[21.08112,-17.94904],[21.06393,-17.94456],[21.05171,-17.95296],[21.02788,-17.95661],[21.01352,-17.9546],[20.99694,-17.96503],[20.97797,-17.958],[20.96974,-17.96411],[20.95652,-17.96562],[20.93716,-17.97395],[20.92443,-17.9861],[20.90352,-17.99651],[20.89516,-17.99242],[20.89164,-17.99851],[20.88663,-18.0003],[20.88282,-17.99834],[20.87744,-18.00124],[20.87173,-17.99988],[20.86997,-18.00369],[20.86317,-18.00289],[20.86702,-18.01145],[20.85929,-18.01806],[20.86914,-18.02629],[20.8659,-18.02996],[20.82511,-18.03928],[20.80155,-18.03788],[20.79815,-18.03171],[20.78864,-18.02531],[20.77019,-18.02092],[20.76379,-18.01606],[20.7474,-18.01983],[20.74955,-18.00729],[20.74535,-18.00112],[20.71932,-18.01322],[20.71345,-18.00764],[20.69701,-18.01017],[20.68279,-18.00212],[20.67817,-17.99169],[20.65873,-17.98602],[20.64208,-17.97697],[20.63063,-17.97999],[20.61833,-17.97589],[20.61354,-17.98496],[20.60985,-17.98373],[20.60556,-17.97537],[20.59796,-17.97796],[20.59176,-17.97428],[20.58801,-17.97564],[20.5855,-17.987],[20.5807,-17.98679],[20.58063,-17.97745],[20.57647,-17.97661],[20.55969,-17.98511],[20.53945,-17.98236],[20.53818,-17.97548],[20.52813,-17.97631],[20.51406,-17.96896],[20.5016,-17.95254],[20.4935,-17.95484],[20.49167,-17.95184],[20.47277,-17.94961],[20.4648,-17.93847],[20.46358,-17.92222],[20.45801,-17.91628],[20.44052,-17.907],[20.41925,-17.90932],[20.40157,-17.89861],[20.3942,-17.89946],[20.38249,-17.89378],[20.36722,-17.89673],[20.35385,-17.88178],[20.32291,-17.86199],[20.30783,-17.86283],[20.29457,-17.87757],[20.28004,-17.86749],[20.26763,-17.8667],[20.25526,-17.87508],[20.25015,-17.88977],[20.24549,-17.89284],[20.22936,-17.8839],[20.22003,-17.88601],[20.19551,-17.88209],[20.18631,-17.87735],[20.17286,-17.87702],[20.15863,-17.89167],[20.14531,-17.89436],[20.1137,-17.91036],[20.10643,-17.91071],[20.09616,-17.90413],[20.09112,-17.89493],[20.08209,-17.89064],[20.06555,-17.89095],[20.05694,-17.88507],[20.03987,-17.90086],[20.02536,-17.90521],[19.99789,-17.88725],[19.97258,-17.88909],[19.96424,-17.88566],[19.95281,-17.87386],[19.92581,-17.86244],[19.91002,-17.86254],[19.90374,-17.87414],[19.89882,-17.87701],[19.86443,-17.88325],[19.84064,-17.87835],[19.81971,-17.86802],[19.8106,-17.86788],[19.785,-17.8806],[19.77965,-17.88954],[19.77321,-17.89079],[19.76299,-17.90782],[19.75737,-17.91073],[19.74252,-17.90752],[19.7261,-17.87725],[19.70859,-17.87401],[19.70674,-17.87621],[19.71233,-17.88377],[19.70777,-17.8856],[19.70013,-17.88084],[19.68501,-17.85638],[19.67358,-17.84939],[19.63144,-17.85074],[19.62261,-17.86365],[19.61508,-17.85919],[19.60916,-17.8674],[19.58623,-17.8619],[19.58122,-17.85732],[19.5782,-17.85964],[19.57893,-17.86626],[19.56985,-17.87339],[19.54625,-17.87512],[19.53807,-17.8739],[19.51984,-17.86249],[19.51015,-17.85999],[19.50564,-17.86525],[19.5071,-17.87037],[19.50217,-17.87143],[19.49278,-17.86499],[19.48405,-17.86974],[19.47919,-17.86539],[19.46771,-17.86674],[19.46139,-17.86082],[19.44054,-17.86364],[19.43727,-17.86791],[19.41103,-17.86773],[19.38869,-17.86078],[19.37927,-17.84994],[19.36755,-17.84674],[19.36119,-17.84764],[19.35669,-17.85695],[19.34822,-17.85096],[19.32649,-17.85424],[19.32398,-17.84846],[19.33516,-17.84632],[19.33483,-17.83664],[19.32131,-17.83396],[19.31268,-17.83744],[19.30731,-17.83112],[19.29886,-17.83772],[19.29386,-17.83727],[19.28051,-17.82456],[19.27097,-17.8207],[19.26206,-17.82563],[19.25698,-17.82428],[19.24902,-17.81381],[19.24428,-17.81226],[19.23409,-17.81476],[19.23701,-17.82318],[19.23085,-17.82794],[19.1898,-17.81715],[19.17655,-17.80696],[19.17213,-17.8065],[19.17215,-17.81467],[19.16825,-17.81821],[19.16317,-17.81421],[19.13781,-17.8077],[19.12026,-17.81714],[19.11947,-17.8223],[19.12366,-17.82629],[19.1222,-17.83293],[19.11369,-17.83671],[19.03469,-17.83534],[19.01918,-17.83352],[18.99472,-17.82468],[18.98152,-17.8293],[18.96583,-17.82784],[18.95543,-17.82389],[18.94916,-17.81754],[18.92937,-17.8215],[18.90082,-17.8193],[18.87856,-17.80078],[18.86891,-17.80568],[18.86173,-17.80363],[18.85496,-17.79552],[18.84132,-17.78727],[18.84116,-17.77748],[18.83402,-17.77183],[18.79005,-17.76655],[18.78277,-17.75621],[18.78149,-17.74561],[18.77641,-17.73634],[18.75159,-17.74009],[18.74154,-17.73602],[18.73695,-17.71863],[18.68715,-17.68525],[18.66941,-17.66695],[18.65589,-17.66037],[18.63879,-17.64209],[18.62149,-17.6333],[18.61692,-17.62232],[18.61924,-17.60183],[18.60812,-17.59933],[18.59904,-17.5842],[18.56935,-17.58448],[18.56124,-17.57951],[18.56039,-17.571],[18.54678,-17.55944],[18.53436,-17.53938],[18.53704,-17.52426],[18.52202,-17.51589],[18.51529,-17.49996],[18.49917,-17.49289],[18.49824,-17.48692],[18.47926,-17.48354],[18.47472,-17.46774],[18.47495,-17.44991],[18.4635,-17.44406],[18.45551,-17.43309],[18.45263,-17.42189],[18.43369,-17.40624],[18.42152,-17.38972],[14.21612,-17.3916],[14.2188,-17.39791],[14.21355,-17.40103],[14.21262,-17.41008],[14.19797,-17.41391],[14.18316,-17.4123],[14.16133,-17.4175],[14.15236,-17.42782],[14.13801,-17.4323],[14.12016,-17.43068],[14.11545,-17.42365],[14.10095,-17.43883],[14.05348,-17.42961],[14.04542,-17.42042],[14.03759,-17.42321],[14.0181,-17.41513],[14.01167,-17.41521],[14.00373,-17.42114],[13.99506,-17.43286],[13.98758,-17.4339],[13.97881,-17.42735],[13.95977,-17.43324],[13.95445,-17.43251],[13.93871,-17.41876],[13.93127,-17.41627],[13.92715,-17.40797],[13.93051,-17.4053],[13.92988,-17.40017],[13.91483,-17.38517],[13.91681,-17.37806],[13.90151,-17.37087],[13.90005,-17.36296],[13.88791,-17.3585],[13.8703,-17.34346],[13.86129,-17.3436],[13.83399,-17.32761],[13.82315,-17.32619],[13.79845,-17.30995],[13.78445,-17.30528],[13.77543,-17.29355],[13.75935,-17.28673],[13.7399,-17.27122],[13.71744,-17.26563],[13.69686,-17.24753],[13.67893,-17.24603],[13.65045,-17.22539],[13.63594,-17.20764],[13.61422,-17.19736],[13.60816,-17.19061],[13.54234,-17.14731],[13.51268,-17.13668],[13.50766,-17.1272],[13.50974,-17.12327],[13.51684,-17.12118],[13.52177,-17.11102],[13.52209,-17.09329],[13.49939,-17.06969],[13.48602,-17.0436],[13.48568,-17.03686],[13.47736,-17.0255],[13.46843,-17.02066],[13.46367,-17.01177],[13.44237,-17.00931],[13.42277,-16.99916],[13.39719,-16.99667],[13.37979,-16.98353],[13.35984,-16.9788],[13.35366,-16.9742],[13.32893,-16.98323],[13.28598,-16.99264],[13.27618,-16.99821],[13.27073,-16.99875],[13.25767,-16.99255],[13.24506,-16.99988],[13.23915,-16.99708],[13.24039,-16.99337],[13.23261,-16.98638],[13.22321,-16.98495],[13.20026,-16.9884],[13.19721,-16.98272],[13.19938,-16.9748],[13.18601,-16.96982],[13.17987,-16.97305],[13.17527,-16.97177],[13.16938,-16.96357],[13.12865,-16.96737],[13.10878,-16.97239],[13.09353,-16.98002],[13.06699,-16.97318],[13.04824,-16.98062],[13.02766,-16.97702],[13.02042,-16.98136],[12.98308,-16.98253],[12.97645,-16.98928],[12.96603,-16.99274],[12.9619,-17.01018],[12.94509,-17.01122],[12.94687,-17.01861],[12.94222,-17.02028],[12.93737,-17.01852],[12.91502,-17.02166],[12.90205,-17.03707],[12.89045,-17.04511],[12.87349,-17.04682],[12.87046,-17.06733],[12.84416,-17.0776],[12.83527,-17.08715],[12.82437,-17.08495],[12.81431,-17.09526],[12.80643,-17.1147],[12.77706,-17.12392],[12.75818,-17.14019],[12.73475,-17.14756],[12.7328,-17.15394],[12.71422,-17.16108],[12.71234,-17.17215],[12.69924,-17.16902],[12.67945,-17.17642],[12.67332,-17.17347],[12.66439,-17.18215],[12.64666,-17.19123],[12.64441,-17.19744],[12.63223,-17.19978],[12.62733,-17.20584],[12.61133,-17.20956],[12.60596,-17.21657],[12.6082,-17.22565],[12.60487,-17.23169],[12.60174,-17.22922],[12.59521,-17.23529],[12.5789,-17.22858],[12.56466,-17.23923],[12.56382,-17.24324],[12.54528,-17.23912],[12.54229,-17.24632],[12.53855,-17.24757],[12.53397,-17.24263],[12.52349,-17.24851],[12.50491,-17.24543],[12.49347,-17.248],[12.48006,-17.24203],[12.47377,-17.25379],[12.45779,-17.25668],[12.45105,-17.25457],[12.44791,-17.26327],[12.44008,-17.26195],[12.43618,-17.25975],[12.43834,-17.24553],[12.43263,-17.24135],[12.43588,-17.22252],[12.42352,-17.20794],[12.417,-17.21278],[12.41541,-17.20902],[12.40601,-17.20656],[12.39621,-17.20777],[12.39304,-17.22059],[12.38501,-17.21953],[12.36796,-17.23349],[12.34976,-17.21987],[12.32864,-17.2292],[12.31612,-17.22906],[12.3059,-17.23539],[12.29634,-17.23346],[12.28297,-17.2418],[12.26318,-17.2319],[12.25843,-17.23729],[12.24945,-17.2401],[12.23338,-17.23477],[12.22865,-17.22378],[12.21733,-17.21793],[12.20985,-17.21769],[12.19941,-17.20937],[12.19421,-17.19756],[12.18384,-17.19645],[12.17596,-17.17655],[12.16216,-17.1627],[12.14674,-17.16075],[12.13625,-17.16631],[12.12803,-17.16588],[12.11083,-17.15794],[12.1023,-17.16119],[12.08094,-17.14268],[12.06194,-17.15492],[12.04508,-17.15548],[12.03418,-17.15103],[12.0223,-17.16149],[12.01446,-17.16165],[11.9965,-17.17061],[11.97238,-17.17706],[11.96225,-17.1752],[11.95658,-17.18169],[11.9402,-17.18281],[11.92153,-17.19646],[11.89277,-17.20957],[11.88262,-17.22637],[11.86907,-17.23387],[11.85935,-17.23484],[11.85776,-17.24023],[11.84919,-17.24207],[11.84528,-17.23584],[11.83699,-17.23605],[11.81915,-17.26252],[11.80829,-17.26846],[11.79756,-17.26847],[11.7954,-17.27336],[11.79246,-17.27368],[11.76724,-17.2524],[11.76503,-17.25464],[11.75595,-17.2526],[11.75446,-17.24858],[11.76503,-17.2478],[11.75355,-17.24088],[11.75259,-17.23085],[11.75513,-17.18475],[11.75182,-17.16008],[11.75427,-17.12685],[11.7507,-17.10245],[11.755,-17.02131],[11.76092,-16.99653],[11.76464,-16.94037],[11.77209,-16.92843],[11.78401,-16.8755],[11.78298,-16.85956],[11.77536,-16.83238],[11.77719,-16.81099],[11.7727,-16.77811],[11.77831,-16.76838],[11.78574,-16.76494],[11.78611,-16.77201],[11.78186,-16.77387],[11.78816,-16.77507],[11.78286,-16.78775],[11.78633,-16.78745],[11.7861,-16.78977],[11.77742,-16.82643],[11.78773,-16.82809],[11.78954,-16.82408],[11.79566,-16.82258],[11.805,-16.80341],[11.81131,-16.76935],[11.81841,-16.75252],[11.82274,-16.71051],[11.81538,-16.68204],[11.81354,-16.64758],[11.81496,-16.64447],[11.821,-16.64645],[11.81928,-16.6753],[11.82226,-16.67809],[11.82505,-16.69555],[11.82725,-16.69038],[11.82218,-16.65467],[11.82328,-16.63818],[11.81721,-16.62463],[11.82219,-16.59703],[11.82057,-16.57411],[11.8232,-16.56797],[11.82616,-16.45223],[11.81526,-16.31878],[11.79118,-16.12801],[11.79179,-16.08994],[11.80625,-16.01811],[11.79055,-15.98468],[11.73911,-15.90903],[11.73269,-15.89479],[11.7327,-15.8778],[11.75221,-15.82175],[11.77119,-15.78987],[11.78725,-15.78213],[11.78594,-15.78957],[11.7961,-15.79423],[11.82306,-15.78626],[11.83032,-15.78083],[11.85399,-15.77951],[11.85536,-15.78544],[11.85228,-15.78746],[11.83056,-15.78277],[11.81102,-15.79149],[11.8099,-15.79533],[11.81434,-15.80016],[11.83768,-15.80307],[11.84941,-15.80118],[11.87911,-15.7881],[11.88967,-15.77487],[11.89501,-15.75591],[11.90067,-15.75084],[11.90784,-15.75094],[11.91135,-15.73838],[11.91063,-15.72448],[11.92756,-15.67633],[11.93498,-15.67785],[11.95908,-15.66442],[11.97707,-15.65129],[11.98927,-15.63421],[11.99568,-15.63173],[12.00418,-15.5953],[12.01995,-15.57004],[12.022,-15.52863],[12.02759,-15.50914],[12.02687,-15.49472],[12.03133,-15.48861],[12.03019,-15.40134],[12.03636,-15.38701],[12.04349,-15.35185],[12.053,-15.34477],[12.05389,-15.33835],[12.05418,-15.29897],[12.05131,-15.28581],[12.05581,-15.27712],[12.05705,-15.26426],[12.05517,-15.23721],[12.05765,-15.2303],[12.06702,-15.22424],[12.07002,-15.21785],[12.08979,-15.20627],[12.09585,-15.19914],[12.10144,-15.20334],[12.10706,-15.20039],[12.11011,-15.19379],[12.11559,-15.19586],[12.12559,-15.18562],[12.13085,-15.18878],[12.13498,-15.19694],[12.14081,-15.19714],[12.15401,-15.18161],[12.156,-15.1613],[12.14396,-15.13],[12.13621,-15.12527],[12.12918,-15.1356],[12.11802,-15.13778],[12.11249,-15.13552],[12.11783,-15.11294],[12.12642,-15.08525],[12.13818,-15.0769],[12.13937,-15.05761],[12.14385,-15.04969],[12.15813,-15.03082],[12.16937,-15.02221],[12.17135,-15.01297],[12.165,-14.982],[12.17164,-14.96072],[12.17636,-14.9537],[12.18454,-14.95586],[12.1939,-14.94864],[12.20197,-14.92866],[12.2051,-14.90142],[12.21547,-14.89768],[12.2107,-14.86776],[12.21279,-14.84925],[12.22208,-14.8365],[12.24302,-14.83404],[12.25025,-14.82731],[12.25601,-14.81116],[12.26205,-14.80377],[12.26588,-14.78348],[12.27712,-14.77306],[12.28833,-14.75491],[12.28924,-14.74565],[12.28183,-14.73527],[12.28638,-14.73069],[12.28604,-14.72605],[12.27528,-14.70842],[12.27303,-14.69835],[12.27542,-14.69761],[12.27688,-14.68656],[12.28244,-14.68534],[12.28841,-14.67331],[12.29586,-14.66927],[12.29657,-14.6438],[12.29278,-14.63011],[12.30165,-14.6176],[12.30025,-14.59184],[12.30586,-14.58701],[12.30308,-14.57617],[12.30787,-14.57416],[12.30846,-14.55821],[12.31271,-14.55594],[12.31546,-14.54722],[12.31402,-14.53485],[12.31559,-14.52534],[12.32109,-14.51897],[12.31986,-14.51097],[12.3368,-14.47564],[12.33819,-14.44759],[12.34266,-14.44957],[12.3464,-14.44614],[12.34587,-14.43481],[12.35538,-14.41252],[12.35337,-14.40348],[12.35709,-14.36851],[12.35958,-14.36594],[12.35802,-14.34561],[12.35323,-14.33732],[12.35667,-14.33633],[12.35934,-14.32271],[12.36451,-14.32122],[12.36933,-14.31484],[12.36983,-14.30661],[12.36481,-14.29497],[12.36984,-14.29425],[12.37057,-14.28834],[12.35524,-14.26706],[12.35722,-14.25524],[12.35501,-14.24182],[12.33526,-14.21509],[12.3385,-14.20869],[12.33263,-14.19215],[12.33311,-14.18469],[12.34468,-14.18829],[12.36407,-14.1773],[12.36824,-14.15907],[12.37155,-14.15731],[12.36785,-14.13564],[12.35573,-14.11131],[12.35428,-14.0997],[12.36213,-14.05911],[12.36362,-14.05604],[12.37072,-14.05753],[12.37897,-14.0508],[12.39289,-14.03319],[12.40443,-13.96843],[12.41034,-13.95794],[12.42283,-13.94906],[12.42539,-13.94368],[12.42603,-13.9339],[12.41876,-13.90035],[12.42203,-13.87825],[12.43155,-13.87551],[12.43309,-13.87901],[12.4619,-13.87197],[12.46792,-13.87589],[12.46769,-13.87254],[12.47564,-13.86825],[12.48194,-13.8705],[12.49422,-13.86818],[12.48736,-13.88112],[12.50159,-13.88165],[12.50823,-13.87657],[12.51213,-13.88163],[12.52393,-13.86282],[12.52297,-13.85367],[12.52841,-13.84999],[12.52808,-13.8442],[12.52031,-13.84347],[12.51995,-13.84038],[12.52544,-13.8322],[12.52203,-13.818],[12.52876,-13.81652],[12.52815,-13.8124],[12.52317,-13.80977],[12.52234,-13.80101],[12.52579,-13.79847],[12.5226,-13.78865],[12.52672,-13.7856],[12.52244,-13.76625],[12.52775,-13.7627],[12.52397,-13.75931],[12.52735,-13.75033],[12.53265,-13.74755],[12.52704,-13.74235],[12.52854,-13.72537],[12.53238,-13.72258],[12.5298,-13.7174],[12.53523,-13.70201],[12.53237,-13.69914],[12.53558,-13.69351],[12.53119,-13.68549],[12.53182,-13.67571],[12.53418,-13.66414],[12.53761,-13.66328],[12.53456,-13.6532],[12.5401,-13.6521],[12.54027,-13.64772],[12.53768,-13.63135],[12.53058,-13.6305],[12.52877,-13.62727],[12.52934,-13.62341],[12.53727,-13.61963],[12.52947,-13.6108],[12.53842,-13.61063],[12.53785,-13.60212],[12.5338,-13.59899],[12.54886,-13.59399],[12.55154,-13.58887],[12.55147,-13.5702],[12.54438,-13.56859],[12.54495,-13.5646],[12.55205,-13.56493],[12.5554,-13.55955],[12.55505,-13.55543],[12.55057,-13.5559],[12.55009,-13.551],[12.54338,-13.55094],[12.54371,-13.54425],[12.54057,-13.54293],[12.5413,-13.53585],[12.5481,-13.52729],[12.5429,-13.52055],[12.5486,-13.51648],[12.55031,-13.50388],[12.54562,-13.49882],[12.53512,-13.49678],[12.54055,-13.48087],[12.53528,-13.48108],[12.53439,-13.47798],[12.53986,-13.45795],[12.5277,-13.45062],[12.5348,-13.43781],[12.53198,-13.41822],[12.53903,-13.42356],[12.54853,-13.41992],[12.54998,-13.40706],[12.5574,-13.40108],[12.56047,-13.41025],[12.56888,-13.41085],[12.56708,-13.40697],[12.57264,-13.40303],[12.57895,-13.40374],[12.58217,-13.39733],[12.58636,-13.39879],[12.59962,-13.38771],[12.6149,-13.35876],[12.62468,-13.35331],[12.62914,-13.35503],[12.63732,-13.35227],[12.64742,-13.34129],[12.65057,-13.34158],[12.65259,-13.33645],[12.6489,-13.32354],[12.65418,-13.32178],[12.65332,-13.31508],[12.63976,-13.29049],[12.65548,-13.29579],[12.65734,-13.294],[12.65954,-13.28346],[12.65423,-13.27569],[12.65843,-13.26285],[12.66453,-13.25737],[12.67689,-13.25633],[12.68354,-13.24776],[12.69677,-13.23912],[12.70333,-13.2406],[12.7073,-13.23754],[12.71177,-13.22291],[12.70894,-13.21249],[12.71645,-13.21445],[12.7205,-13.232],[12.73075,-13.23196],[12.74052,-13.22754],[12.74955,-13.21706],[12.75283,-13.20357],[12.76914,-13.20204],[12.77314,-13.19499],[12.78259,-13.19675],[12.79273,-13.17932],[12.79661,-13.15798],[12.81674,-13.13986],[12.82514,-13.14058],[12.83386,-13.13589],[12.83981,-13.11662],[12.8646,-13.10601],[12.87564,-13.10559],[12.88256,-13.09483],[12.88398,-13.08196],[12.89062,-13.07429],[12.89333,-13.06401],[12.90023,-13.05557],[12.90787,-13.05382],[12.90978,-13.04508],[12.91689,-13.04334],[12.91831,-13.03099],[12.93166,-13.01976],[12.94179,-13.01804],[12.94451,-13.00647],[12.96169,-12.9945],[12.96611,-12.98294],[12.97594,-12.98521],[12.97912,-12.98279],[12.97914,-12.96373],[12.96569,-12.93786],[12.96723,-12.92628],[12.97066,-12.92361],[12.98482,-12.92655],[12.99299,-12.92288],[12.99407,-12.91902],[13.01195,-12.91568],[13.01565,-12.91352],[13.01598,-12.90399],[13.02348,-12.90225],[13.03869,-12.88871],[13.04969,-12.89124],[13.07845,-12.8851],[13.08723,-12.89296],[13.07837,-12.88334],[13.05706,-12.88923],[13.04576,-12.89005],[13.03922,-12.88704],[13.03027,-12.89084],[13.02101,-12.90227],[13.01467,-12.90373],[13.01328,-12.91415],[12.99461,-12.91761],[12.99221,-12.92236],[12.98503,-12.92509],[12.97217,-12.92266],[12.96286,-12.93089],[12.93874,-12.86141],[12.9404,-12.83515],[12.94569,-12.83017],[12.95278,-12.82958],[12.97388,-12.81816],[12.98372,-12.80097],[12.99904,-12.78873],[13.01309,-12.77157],[13.0305,-12.75986],[13.04109,-12.74757],[13.05767,-12.741],[13.07992,-12.71347],[13.10019,-12.70498],[13.11847,-12.6809],[13.13874,-12.67203],[13.15053,-12.63708],[13.19802,-12.59747],[13.20407,-12.59494],[13.20122,-12.6096],[13.20368,-12.61322],[13.21466,-12.61896],[13.22122,-12.61927],[13.22649,-12.61505],[13.22777,-12.62034],[13.23588,-12.62258],[13.25115,-12.6156],[13.26434,-12.60358],[13.26821,-12.59381],[13.26234,-12.58901],[13.2642,-12.58503],[13.28568,-12.58967],[13.30213,-12.58115],[13.30246,-12.59004],[13.30587,-12.59096],[13.31079,-12.60027],[13.31811,-12.60341],[13.32148,-12.61013],[13.33247,-12.61393],[13.34455,-12.61272],[13.37692,-12.59488],[13.39486,-12.5794],[13.40599,-12.55963],[13.45503,-12.52752],[13.47315,-12.5121],[13.48431,-12.48717],[13.48481,-12.46966],[13.47795,-12.45442],[13.48136,-12.45456],[13.48323,-12.44839],[13.48847,-12.44816],[13.49315,-12.45437],[13.49683,-12.45413],[13.50447,-12.44761],[13.51757,-12.44845],[13.51839,-12.44305],[13.52338,-12.44114],[13.53727,-12.44238],[13.54254,-12.43661],[13.54828,-12.44192],[13.55195,-12.44142],[13.54491,-12.43546],[13.54071,-12.43595],[13.53569,-12.44224],[13.52339,-12.43985],[13.51761,-12.44137],[13.516,-12.44831],[13.50815,-12.44621],[13.49448,-12.4527],[13.489,-12.44765],[13.48349,-12.44775],[13.48221,-12.44233],[13.49151,-12.42074],[13.50957,-12.39141],[13.51444,-12.37655],[13.52949,-12.35705],[13.58147,-12.31559],[13.5846,-12.31766],[13.55594,-12.3371],[13.54763,-12.34633],[13.55624,-12.35384],[13.57501,-12.34789],[13.58331,-12.3393],[13.61239,-12.29178],[13.6291,-12.2777],[13.63362,-12.26355],[13.65245,-12.24509],[13.65617,-12.23403],[13.65446,-12.21109],[13.664,-12.18923],[13.67279,-12.15887],[13.67337,-12.14676],[13.68272,-12.13624],[13.68613,-12.13677],[13.69061,-12.12984],[13.69678,-12.12729],[13.70986,-12.10261],[13.7107,-12.06396],[13.72275,-12.03542],[13.72177,-12.02124],[13.72781,-11.98854],[13.74396,-11.97741],[13.76315,-11.95752],[13.76817,-11.91941],[13.7785,-11.89008],[13.78053,-11.84628],[13.79187,-11.82442],[13.79454,-11.81258],[13.79374,-11.78655],[13.79971,-11.76802],[13.7882,-11.70768],[13.7914,-11.69274],[13.78522,-11.67133],[13.7817,-11.63962],[13.7838,-11.63679],[13.78059,-11.62518],[13.78623,-11.61954],[13.78652,-11.61387],[13.77045,-11.58262],[13.77047,-11.57618],[13.77977,-11.57132],[13.78705,-11.55074],[13.77984,-11.5252],[13.78352,-11.5198],[13.78309,-11.50021],[13.78662,-11.49946],[13.78781,-11.49405],[13.78628,-11.48709],[13.79763,-11.45801],[13.7982,-11.44874],[13.79291,-11.43197],[13.79841,-11.42864],[13.79979,-11.41035],[13.80625,-11.39749],[13.79603,-11.34359],[13.80154,-11.33665],[13.8004,-11.32918],[13.80799,-11.32431],[13.81063,-11.31814],[13.82291,-11.316],[13.8291,-11.30275],[13.82541,-11.2463],[13.82674,-11.2396],[13.83316,-11.23396],[13.83463,-11.22469],[13.8345,-11.19144],[13.84083,-11.14225],[13.84726,-11.10027],[13.8577,-11.06603],[13.85625,-11.03665],[13.85836,-11.0297],[13.86609,-11.02225],[13.85626,-10.96629],[13.83403,-10.91415],[13.79779,-10.86357],[13.80124,-10.86674],[13.80542,-10.86457],[13.80151,-10.86365],[13.80062,-10.85759],[13.79217,-10.85188],[13.76885,-10.81726],[13.76263,-10.8095],[13.7621,-10.81182],[13.77907,-10.83534],[13.73901,-10.78467],[13.72011,-10.75547],[13.73004,-10.74946],[13.7436,-10.74758],[13.74677,-10.73522],[13.75346,-10.7252],[13.77397,-10.71291],[13.78315,-10.69748],[13.78228,-10.68563],[13.7757,-10.6704],[13.7389,-10.62232],[13.67565,-10.55093],[13.64174,-10.50389],[13.53005,-10.38821],[13.53415,-10.3756],[13.54747,-10.36406],[13.54828,-10.35943],[13.54372,-10.33106],[13.53367,-10.30989],[13.53452,-10.2952],[13.52501,-10.26965],[13.49627,-10.23911],[13.4973,-10.23273],[13.49348,-10.23885],[13.46897,-10.20987],[13.45547,-10.1763],[13.45873,-10.17426],[13.45659,-10.16111],[13.44327,-10.14455],[13.44269,-10.13012],[13.43884,-10.12057],[13.39679,-10.07759],[13.36288,-10.04805],[13.36017,-10.04443],[13.36229,-10.03516],[13.31227,-9.98106],[13.31152,-9.97461],[13.32218,-9.97454],[13.32923,-9.96878],[13.33104,-9.97033],[13.32765,-9.97238],[13.33284,-9.97395],[13.33575,-9.96482],[13.3428,-9.95673],[13.34246,-9.94849],[13.33,-9.91957],[13.31208,-9.89139],[13.31452,-9.87131],[13.2888,-9.8199],[13.20589,-9.70533],[13.19587,-9.68544],[13.1967,-9.67604],[13.20448,-9.67763],[13.21568,-9.67176],[13.22795,-9.65971],[13.23646,-9.64597],[13.23652,-9.63412],[13.22731,-9.60831],[13.19343,-9.55866],[13.2019,-9.55097],[13.19796,-9.53678],[13.20618,-9.52703],[13.19296,-9.50017],[13.17069,-9.46579],[13.16892,-9.45727],[13.17887,-9.44058],[13.17823,-9.41404],[13.15358,-9.3647],[13.15259,-9.3549],[13.14685,-9.34422],[13.15197,-9.34987],[13.16291,-9.34233],[13.16959,-9.32871],[13.18086,-9.33224],[13.19204,-9.32792],[13.19271,-9.32342],[13.20115,-9.32191],[13.20092,-9.3165],[13.1904,-9.31877],[13.18928,-9.30949],[13.19826,-9.30283],[13.19261,-9.29275],[13.20572,-9.28947],[13.2106,-9.27404],[13.22049,-9.26636],[13.21872,-9.25759],[13.2281,-9.21074],[13.25006,-9.18701],[13.28382,-9.17777],[13.30369,-9.1549],[13.3187,-9.14972],[13.32492,-9.1509],[13.36761,-9.17043],[13.37515,-9.16685],[13.38598,-9.17991],[13.3908,-9.17543],[13.38751,-9.15608],[13.38965,-9.15442],[13.41047,-9.15425],[13.44198,-9.16135],[13.45245,-9.16088],[13.46111,-9.16645],[13.47039,-9.17989],[13.4814,-9.18393],[13.4889,-9.19323],[13.49433,-9.19198],[13.49709,-9.18361],[13.5032,-9.18068],[13.50682,-9.18146],[13.51275,-9.19051],[13.51669,-9.17944],[13.54106,-9.18083],[13.56832,-9.17321],[13.58629,-9.18188],[13.60517,-9.20054],[13.63186,-9.2076],[13.63101,-9.22667],[13.63565,-9.2339],[13.64873,-9.23743],[13.67029,-9.23004],[13.67576,-9.23092],[13.68634,-9.24002],[13.70785,-9.24499],[13.71289,-9.24991],[13.71454,-9.25945],[13.70109,-9.28363],[13.70172,-9.28878],[13.70509,-9.2897],[13.7155,-9.28071],[13.73287,-9.28387],[13.74896,-9.28212],[13.76782,-9.30512],[13.77818,-9.31083],[13.78936,-9.30339],[13.79689,-9.30329],[13.80705,-9.32807],[13.82271,-9.34062],[13.83805,-9.36889],[13.84646,-9.3782],[13.86342,-9.38805],[13.87447,-9.42236],[13.88986,-9.43877],[13.90563,-9.44219],[13.91648,-9.47545],[13.92271,-9.47728],[13.93019,-9.49199],[13.9525,-9.49825],[13.95724,-9.51772],[13.96229,-9.52276],[13.96567,-9.52019],[13.97071,-9.52165],[13.98224,-9.53674],[13.98044,-9.53106],[13.99965,-9.53137],[14.0496,-9.54299],[14.06873,-9.5268],[14.07435,-9.51264],[14.08228,-9.50995],[14.09653,-9.5203],[14.11677,-9.52435],[14.11685,-9.54497],[14.13099,-9.5508],[14.13707,-9.55971],[14.13751,-9.59038],[14.14266,-9.60612],[14.15055,-9.61877],[14.17465,-9.64305],[14.20243,-9.64634],[14.22297,-9.64149],[14.23571,-9.6325],[14.2513,-9.62969],[14.26854,-9.6443],[14.26927,-9.6693],[14.28302,-9.67879],[14.28753,-9.69292],[14.29246,-9.69667],[14.30622,-9.70108],[14.32155,-9.69866],[14.33168,-9.70177],[14.34704,-9.68557],[14.38757,-9.68152],[14.41302,-9.68852],[14.43976,-9.70248],[14.45431,-9.70109],[14.477,-9.72845],[14.46987,-9.71529],[14.45457,-9.69954],[14.43794,-9.70016],[14.4164,-9.68762],[14.3855,-9.67842],[14.34653,-9.68299],[14.33637,-9.69547],[14.32922,-9.69932],[14.32026,-9.6957],[14.30779,-9.69863],[14.29818,-9.69591],[14.28923,-9.69022],[14.28406,-9.67706],[14.27135,-9.66776],[14.27192,-9.64662],[14.25312,-9.62828],[14.24092,-9.62864],[14.21596,-9.64018],[14.19023,-9.64322],[14.17725,-9.64138],[14.14837,-9.60922],[14.14062,-9.59065],[14.1425,-9.56848],[14.13978,-9.56693],[14.13864,-9.55275],[14.13593,-9.54914],[14.12736,-9.54808],[14.11817,-9.53827],[14.12131,-9.52668],[14.1173,-9.52177],[14.09654,-9.51759],[14.0854,-9.50815],[14.07787,-9.50762],[14.07163,-9.51211],[14.06354,-9.52833],[14.04299,-9.54077],[14.00148,-9.52854],[13.98563,-9.53185],[13.9763,-9.52757],[13.96995,-9.51761],[13.96074,-9.52056],[13.95497,-9.49735],[13.93149,-9.49032],[13.92531,-9.4751],[13.91701,-9.47417],[13.90822,-9.4416],[13.88987,-9.43684],[13.88767,-9.43323],[13.89103,-9.43156],[13.87707,-9.42134],[13.86537,-9.38702],[13.85035,-9.37782],[13.84039,-9.36735],[13.8288,-9.3436],[13.80758,-9.32472],[13.80065,-9.3033],[13.79327,-9.30031],[13.77663,-9.30799],[13.75181,-9.28096],[13.72795,-9.28076],[13.71863,-9.27763],[13.7025,-9.28776],[13.70304,-9.28209],[13.71648,-9.26126],[13.71329,-9.24733],[13.7063,-9.24202],[13.68686,-9.23783],[13.67626,-9.22851],[13.65888,-9.23025],[13.64874,-9.23537],[13.6376,-9.23236],[13.63256,-9.22616],[13.63599,-9.21303],[13.63354,-9.20735],[13.62682,-9.20281],[13.60582,-9.199],[13.58438,-9.17804],[13.57066,-9.17193],[13.53769,-9.17979],[13.52033,-9.17714],[13.51461,-9.17931],[13.51213,-9.18724],[13.50761,-9.18005],[13.5019,-9.17964],[13.49671,-9.18207],[13.49277,-9.19184],[13.49043,-9.19169],[13.48347,-9.18381],[13.47027,-9.17796],[13.46099,-9.16413],[13.45246,-9.15985],[13.41229,-9.15297],[13.38688,-9.15376],[13.3895,-9.17516],[13.38339,-9.17848],[13.37697,-9.16634],[13.36394,-9.16815],[13.34822,-9.15848],[13.31767,-9.14868],[13.2987,-9.15619],[13.28148,-9.17827],[13.24825,-9.18662],[13.22674,-9.21073],[13.21809,-9.25526],[13.20876,-9.25328],[13.20692,-9.25778],[13.20138,-9.25157],[13.20865,-9.24852],[13.1995,-9.23804],[13.21977,-9.23041],[13.21563,-9.22833],[13.21932,-9.21636],[13.21806,-9.20553],[13.21168,-9.21349],[13.20744,-9.20587],[13.21591,-9.20595],[13.21758,-9.20077],[13.23128,-9.19463],[13.22357,-9.19616],[13.22304,-9.19886],[13.2189,-9.19652],[13.21448,-9.1983],[13.21034,-9.19738],[13.21044,-9.18878],[13.19573,-9.1879],[13.19517,-9.1964],[13.20086,-9.19952],[13.20044,-9.20674],[13.18952,-9.21132],[13.19015,-9.21596],[13.18439,-9.22598],[13.19105,-9.2675],[13.18745,-9.26207],[13.18304,-9.26127],[13.18429,-9.27133],[13.1717,-9.27332],[13.17491,-9.27978],[13.16969,-9.28568],[13.16528,-9.28617],[13.16383,-9.29055],[13.16615,-9.31761],[13.15887,-9.32092],[13.15087,-9.33737],[13.15396,-9.34125],[13.15226,-9.34459],[13.13106,-9.30738],[13.09449,-9.25746],[13.09042,-9.24379],[13.07654,-9.22052],[13.04926,-9.18328],[13.0258,-9.13497],[13.00094,-9.1065],[12.99452,-9.09512],[12.992,-9.08223],[12.99721,-9.03073],[13.01527,-9.02361],[13.04774,-8.96067],[13.0946,-8.91866],[13.10193,-8.90478],[13.12637,-8.88648],[13.12848,-8.87941],[13.13784,-8.87276],[13.1415,-8.86594],[13.14722,-8.86288],[13.15473,-8.86356],[13.15574,-8.86756],[13.16351,-8.8685],[13.16143,-8.8712],[13.15185,-8.86883],[13.14716,-8.87499],[13.1412,-8.87483],[13.14204,-8.88798],[13.12322,-8.89548],[13.1133,-8.90922],[13.10447,-8.91407],[13.1039,-8.92411],[13.09456,-8.92574],[13.08594,-8.94],[13.06332,-8.95508],[13.04685,-8.98089],[13.03881,-8.98226],[13.0247,-9.00434],[13.0254,-9.01903],[13.00381,-9.03257],[13.00105,-9.03925],[13.004,-9.0461],[13.00904,-9.04883],[13.00194,-9.06682],[13.01309,-9.09007],[13.0071,-9.09442],[13.00669,-9.09854],[13.01431,-9.10335],[13.01757,-9.09989],[13.01658,-9.09138],[13.0272,-9.06928],[13.03525,-9.06675],[13.04411,-9.05688],[13.05139,-9.05369],[13.07312,-9.01156],[13.07343,-9.00241],[13.08486,-8.99783],[13.09072,-8.99181],[13.09339,-8.97714],[13.09911,-8.97279],[13.1045,-8.95839],[13.111,-8.95494],[13.12473,-8.95514],[13.13274,-8.95969],[13.14791,-8.95654],[13.1534,-8.94833],[13.15921,-8.92645],[13.15748,-8.90944],[13.16101,-8.90366],[13.17113,-8.89881],[13.17704,-8.88377],[13.1925,-8.87341],[13.20072,-8.8625],[13.20519,-8.84861],[13.20164,-8.8321],[13.20353,-8.82727],[13.21061,-8.82609],[13.21337,-8.82898],[13.20464,-8.82876],[13.2054,-8.83173],[13.20229,-8.83262],[13.20468,-8.83769],[13.21004,-8.83652],[13.2111,-8.83137],[13.21408,-8.83139],[13.2183,-8.81517],[13.21481,-8.81387],[13.21322,-8.82262],[13.21155,-8.81849],[13.22568,-8.79047],[13.23179,-8.78406],[13.26143,-8.76023],[13.26193,-8.76384],[13.24502,-8.78103],[13.23516,-8.78382],[13.22814,-8.79048],[13.22353,-8.80566],[13.23063,-8.81072],[13.23634,-8.8092],[13.24338,-8.7988],[13.25477,-8.79963],[13.26568,-8.79336],[13.26862,-8.79712],[13.27241,-8.79545],[13.27919,-8.78531],[13.28412,-8.78378],[13.28991,-8.76397],[13.30134,-8.75642],[13.31803,-8.75894],[13.33548,-8.76791],[13.33559,-8.77062],[13.3409,-8.77206],[13.34868,-8.76848],[13.35617,-8.77496],[13.36497,-8.77551],[13.37731,-8.76822],[13.39618,-8.74794],[13.41432,-8.68411],[13.41382,-8.64752],[13.41059,-8.63349],[13.39258,-8.6196],[13.38591,-8.60359],[13.3724,-8.58395],[13.37106,-8.5641],[13.37356,-8.55535],[13.36925,-8.53498],[13.34622,-8.472],[13.34623,-8.46814],[13.35854,-8.46587],[13.36034,-8.46858],[13.37056,-8.46901],[13.38539,-8.4808],[13.38889,-8.48043],[13.38903,-8.47734],[13.37275,-8.47057],[13.37897,-8.47021],[13.38872,-8.45827],[13.39241,-8.44411],[13.38619,-8.41367],[13.39369,-8.41512],[13.39621,-8.40031],[13.38547,-8.36883],[13.36187,-8.32055],[13.33,-8.27016],[13.29797,-8.22828],[13.29133,-8.2079],[13.266,-8.17532],[13.26246,-8.15469],[13.26636,-8.14981],[13.26587,-8.14492],[13.26178,-8.13382],[13.25006,-8.12243],[13.21382,-8.07357],[13.20375,-8.04158],[13.17912,-7.99792],[13.18326,-7.99742],[13.18151,-7.98479],[13.15118,-7.94626],[13.14637,-7.92331],[13.1477,-7.91481],[13.12597,-7.89049],[13.12574,-7.88457],[13.09751,-7.84141],[13.10297,-7.83435],[13.10916,-7.83682],[13.11069,-7.84082],[13.11665,-7.83866],[13.11868,-7.8464],[13.12411,-7.84539],[13.13106,-7.85084],[13.13033,-7.8413],[13.14711,-7.84395],[13.14004,-7.83567],[13.14226,-7.83182],[13.14949,-7.83237],[13.15237,-7.8231],[13.14773,-7.81986],[13.13868,-7.82137],[13.12786,-7.81423],[13.12229,-7.81859],[13.10925,-7.8175],[13.10968,-7.83605],[13.10401,-7.83397],[13.10085,-7.81824],[13.10823,-7.81337],[13.11754,-7.81213],[13.11807,-7.80929],[13.10357,-7.81528],[13.09996,-7.81334],[13.10282,-7.80935],[13.10942,-7.80848],[13.10853,-7.80436],[13.10051,-7.80664],[13.10315,-7.7948],[13.11648,-7.78923],[13.11923,-7.78044],[13.10579,-7.78115],[13.10353,-7.76723],[13.09084,-7.77413],[13.09184,-7.78238],[13.08449,-7.7881],[13.08338,-7.79548],[13.09226,-7.80274],[13.0961,-7.81139],[13.06952,-7.77609],[13.0611,-7.75338],[13.05913,-7.7307],[13.05567,-7.72682],[13.05842,-7.71807],[13.04751,-7.70256],[13.02693,-7.65764],[13.02139,-7.62695],[12.9984,-7.59979],[12.99728,-7.59103],[13.004,-7.58848],[13.00201,-7.57327],[12.9783,-7.53606],[12.96547,-7.49014],[12.95373,-7.46252],[12.9358,-7.43177],[12.9361,-7.42301],[12.92615,-7.39746],[12.91405,-7.33531],[12.90316,-7.32006],[12.85514,-7.2714],[12.851,-7.24665],[12.85405,-7.22799],[12.85677,-7.22607],[12.85133,-7.20427],[12.85624,-7.20185],[12.85389,-7.20853],[12.86679,-7.20756],[12.86703,-7.2122],[12.86961,-7.21105],[12.87294,-7.21622],[12.88016,-7.21613],[12.88839,-7.22325],[12.89394,-7.21216],[12.89773,-7.21144],[12.89991,-7.21339],[12.89717,-7.22059],[12.90335,-7.22293],[12.90319,-7.22886],[12.90927,-7.22734],[12.91054,-7.23095],[12.91712,-7.23047],[12.91496,-7.22402],[12.90774,-7.22295],[12.9057,-7.21702],[12.90286,-7.21675],[12.90135,-7.20991],[12.89541,-7.21027],[12.89471,-7.1952],[12.87551,-7.19163],[12.87532,-7.20348],[12.87211,-7.20166],[12.87163,-7.19367],[12.86916,-7.19714],[12.85833,-7.19696],[12.85159,-7.20273],[12.84942,-7.19924],[12.8508,-7.17915],[12.84345,-7.15181],[12.84458,-7.13069],[12.85035,-7.11062],[12.84757,-7.09669],[12.83735,-7.07707],[12.82829,-7.02782],[12.83304,-7.0062],[12.83051,-6.99536],[12.81925,-6.97573],[12.7972,-6.94884],[12.81172,-6.95998],[12.81071,-6.95624],[12.81859,-6.95151],[12.82128,-6.9559],[12.82182,-6.9514],[12.80223,-6.94976],[12.79452,-6.94354],[12.7817,-6.92816],[12.77814,-6.91758],[12.76121,-6.89972],[12.75597,-6.89068],[12.75551,-6.88012],[12.74822,-6.86823],[12.71246,-6.82607],[12.64719,-6.76033],[12.63311,-6.74042],[12.57721,-6.68451],[12.57301,-6.67393],[12.56148,-6.66125],[12.55951,-6.64424],[12.55059,-6.62307],[12.50277,-6.55303],[12.39628,-6.32559],[12.28054,-6.15708],[12.27495,-6.14392],[12.2787,-6.13943],[12.28514,-6.13934],[12.28444,-6.14329],[12.27559,-6.14469],[12.29167,-6.17066],[12.30896,-6.16109],[12.31397,-6.16292],[12.31688,-6.17156],[12.32407,-6.17443],[12.32076,-6.16707],[12.32233,-6.16334],[12.31706,-6.16242],[12.31567,-6.15623],[12.31054,-6.15389],[12.31146,-6.149],[12.32115,-6.14209],[12.32908,-6.15179],[12.33244,-6.14833],[12.33591,-6.14963],[12.33677,-6.15646],[12.34652,-6.16166],[12.36685,-6.16254],[12.37459,-6.15755],[12.37229,-6.15509],[12.35066,-6.15846],[12.34912,-6.15627],[12.35327,-6.15127],[12.35201,-6.14611],[12.35561,-6.14523],[12.35662,-6.14974],[12.36424,-6.14308],[12.36207,-6.13946],[12.35023,-6.14095],[12.3505,-6.1376],[12.3688,-6.13151],[12.36522,-6.12776],[12.34631,-6.12728],[12.34221,-6.12288],[12.34364,-6.12031],[12.36115,-6.1186],[12.36906,-6.13074],[12.37524,-6.13141],[12.38613,-6.1401],[12.39008,-6.14887],[12.38993,-6.15299],[12.38127,-6.16106],[12.37382,-6.15897],[12.37302,-6.16398],[12.36735,-6.16576],[12.37197,-6.16887],[12.38807,-6.16483],[12.3879,-6.17307],[12.38119,-6.17742],[12.3831,-6.18103],[12.37442,-6.19361],[12.38008,-6.19389],[12.3814,-6.1872],[12.38682,-6.18311],[12.38517,-6.17924],[12.38839,-6.17887],[12.39066,-6.18751],[12.39387,-6.1883],[12.3927,-6.19164],[12.39681,-6.19217],[12.3991,-6.19759],[12.39677,-6.20119],[12.40498,-6.20535],[12.40173,-6.1873],[12.39198,-6.18108],[12.38879,-6.17488],[12.39716,-6.17299],[12.3965,-6.15045],[12.40308,-6.14687],[12.39911,-6.14402],[12.40157,-6.14017],[12.41533,-6.14101],[12.42025,-6.13511],[12.42693,-6.13772],[12.42023,-6.14039],[12.44544,-6.14193],[12.44658,-6.14528],[12.44207,-6.1459],[12.43432,-6.15372],[12.43533,-6.15592],[12.43997,-6.15607],[12.4436,-6.14939],[12.45377,-6.14866],[12.45664,-6.13941],[12.45986,-6.13852],[12.46704,-6.14576],[12.47349,-6.14206],[12.47222,-6.13845],[12.48252,-6.13721],[12.4825,-6.13991],[12.49232,-6.13301],[12.4954,-6.13482],[12.50031,-6.12931],[12.50855,-6.12844],[12.54713,-6.13223],[12.57437,-6.14279],[12.58726,-6.13756],[12.5911,-6.14119],[12.62326,-6.14339],[12.65103,-6.1497],[12.65586,-6.13388],[12.65395,-6.13],[12.64262,-6.1315],[12.64225,-6.12841],[12.6473,-6.12134],[12.65142,-6.12085],[12.65165,-6.12574],[12.65937,-6.12616],[12.66145,-6.12076],[12.65132,-6.11402],[12.6593,-6.11225],[12.65687,-6.10876],[12.66536,-6.11086],[12.66872,-6.10817],[12.65637,-6.1058],[12.65665,-6.10194],[12.64996,-6.09985],[12.64871,-6.09327],[12.63559,-6.0918],[12.63303,-6.08766],[12.61812,-6.08348],[12.61299,-6.07985],[12.61456,-6.07445],[12.60814,-6.07261],[12.60892,-6.06927],[12.58964,-6.0648],[12.6023,-6.05365],[12.61953,-6.05695],[12.62453,-6.06109],[12.62285,-6.06276],[12.63877,-6.06966],[12.64707,-6.05475],[12.66294,-6.04426],[12.66313,-6.03061],[12.667,-6.02946],[12.68011,-6.03235],[12.6991,-6.04454],[12.72174,-6.04451],[12.7436,-6.04911],[12.77375,-6.03815],[12.77887,-6.04526],[12.79018,-6.04827],[12.80078,-6.03659],[12.81626,-6.02867],[12.83258,-6.0326],[12.82006,-6.04169],[12.83657,-6.03351],[12.84893,-6.03111],[12.88664,-5.99687],[12.91237,-5.99774],[12.93795,-5.97001],[12.94927,-5.97211],[12.95972,-5.96481],[12.96387,-5.95503],[12.96091,-5.92075],[12.96285,-5.91638],[12.96826,-5.91653],[12.98606,-5.90435],[13.0167,-5.89738],[13.02403,-5.89959],[13.02568,-5.90591],[13.03545,-5.90852],[13.06663,-5.89549],[13.07949,-5.89889],[13.10085,-5.89612],[13.11367,-5.91111],[13.12501,-5.90523],[13.12912,-5.9091],[13.13607,-5.90771],[13.15003,-5.88856],[13.17142,-5.87832],[13.17451,-5.87859],[13.1733,-5.89443],[13.17501,-5.88284],[13.17992,-5.87693],[13.18713,-5.87734],[13.20105,-5.87004],[13.22061,-5.8692],[13.2237,-5.86586],[13.2309,-5.87052],[13.25791,-5.87241],[13.26356,-5.87746],[13.27642,-5.87917],[13.27988,-5.88292],[13.29544,-5.88761],[13.29632,-5.89431],[13.30621,-5.90104],[13.32036,-5.90224],[13.32757,-5.89956],[13.32808,-5.90304],[13.33528,-5.9037],[13.33308,-5.90756],[13.33512,-5.91298],[13.34762,-5.90928],[13.35557,-5.91858],[13.37067,-5.90355],[13.38478,-5.87602],[13.38838,-5.87487],[13.39455,-5.87901],[13.4203,-5.87393],[13.42854,-5.87034],[13.43165,-5.86022],[13.45243,-5.86736],[13.48856,-5.86549],[13.49342,-5.86977],[13.50323,-5.86618],[13.50541,-5.86786],[13.51421,-5.86239],[13.51636,-5.86737],[13.525,-5.86749],[13.53557,-5.87246],[13.53991,-5.86955],[13.55263,-5.87461],[13.55387,-5.88053],[13.56067,-5.88638],[13.58416,-5.876],[13.58709,-5.86794],[13.61696,-5.87289],[13.77388,-5.86935],[13.82934,-5.86534],[13.88442,-5.85464],[13.95992,-5.85091],[13.99837,-5.82986],[14.0006,-5.82611],[14.00358,-5.82668],[14.00347,-5.83477],[14.01273,-5.83901],[14.03272,-5.83895],[14.03299,-5.84647],[14.04007,-5.85221],[14.05164,-5.85053],[14.05737,-5.84329],[14.063,-5.84844],[14.07838,-5.84588],[14.08087,-5.84112],[14.09618,-5.84397],[14.10597,-5.83665],[14.11723,-5.84379],[14.12563,-5.83813],[14.14337,-5.83839],[14.14023,-5.84338],[14.14607,-5.84955],[14.15669,-5.84462],[14.16043,-5.84471],[14.16265,-5.84983],[14.16714,-5.84306],[14.17411,-5.8444],[14.18097,-5.83937],[14.18589,-5.84463],[14.18958,-5.84228],[14.19639,-5.85384],[14.19565,-5.86396],[14.20568,-5.87237],[14.21255,-5.87077],[14.21538,-5.86613],[14.21974,-5.86953],[14.22912,-5.86526],[14.23052,-5.872],[14.23896,-5.88072],[14.25144,-5.87286],[14.25684,-5.87319],[14.25762,-5.8779],[14.2631,-5.8687],[14.27171,-5.86888],[14.2741,-5.86589],[14.27193,-5.86347],[14.28214,-5.85745],[14.28325,-5.86115],[14.29351,-5.86061],[14.29963,-5.86395],[14.30355,-5.87063],[14.30305,-5.88083],[14.3144,-5.88337],[14.31876,-5.8808],[14.32202,-5.88641],[14.32656,-5.88737],[14.32904,-5.88371],[14.34634,-5.88889],[14.34796,-5.89182],[14.41231,-5.89679],[14.46169,-5.89674],[14.5054,-5.88737],[14.59577,-5.90471],[14.69955,-5.87784],[14.94469,-5.86568],[15.22524,-5.8697],[15.30371,-5.86676],[15.41951,-5.86989],[15.68006,-5.86187],[15.81443,-5.8778],[16.10125,-5.86581],[16.17437,-5.86005],[16.38804,-5.8605],[16.40399,-5.86791],[16.42404,-5.87032],[16.43379,-5.86552],[16.44681,-5.86763],[16.44887,-5.85967],[16.45499,-5.85773],[16.46149,-5.84632],[16.46496,-5.85493],[16.46978,-5.85591],[16.47413,-5.84925],[16.49149,-5.84353],[16.50032,-5.84621],[16.50812,-5.85385],[16.52664,-5.85547],[16.53615,-5.86077],[16.54036,-5.86834],[16.55493,-5.8742],[16.57589,-5.87198],[16.58311,-5.87783],[16.5854,-5.88482],[16.58219,-5.89865],[16.58489,-5.90948],[16.57547,-5.94501],[16.58179,-5.9461],[16.59415,-5.94162],[16.60324,-5.94722],[16.6012,-5.9552],[16.5879,-5.96202],[16.58678,-5.96642],[16.60085,-5.97863],[16.60325,-5.98743],[16.59563,-6.0037],[16.59726,-6.01734],[16.58767,-6.03054],[16.59492,-6.03361],[16.60721,-6.02632],[16.61688,-6.02636],[16.62397,-6.0364],[16.61643,-6.04835],[16.59988,-6.0479],[16.59756,-6.05663],[16.60284,-6.06198],[16.62074,-6.06042],[16.64041,-6.06232],[16.64511,-6.06541],[16.64938,-6.077],[16.64452,-6.08532],[16.63588,-6.09143],[16.63593,-6.09652],[16.6618,-6.09084],[16.6639,-6.09194],[16.66097,-6.1006],[16.6648,-6.10676],[16.67051,-6.10928],[16.68486,-6.1067],[16.68768,-6.10859],[16.69368,-6.11628],[16.71498,-6.13159],[16.71773,-6.1493],[16.71426,-6.15636],[16.72453,-6.15796],[16.72978,-6.16352],[16.7302,-6.16849],[16.72261,-6.18111],[16.72247,-6.19041],[16.71827,-6.1955],[16.70621,-6.20039],[16.70328,-6.20681],[16.7171,-6.22778],[16.70365,-6.26732],[16.71389,-6.27719],[16.71418,-6.30498],[16.72145,-6.32498],[16.71881,-6.33209],[16.70944,-6.33897],[16.70219,-6.33805],[16.68628,-6.3288],[16.67529,-6.33483],[16.69158,-6.34436],[16.69433,-6.3502],[16.69309,-6.35847],[16.68553,-6.36614],[16.67798,-6.383],[16.6806,-6.39156],[16.70998,-6.38747],[16.72253,-6.40145],[16.72097,-6.41311],[16.69714,-6.41856],[16.6947,-6.42892],[16.7143,-6.44422],[16.72026,-6.4585],[16.71918,-6.46579],[16.70719,-6.47215],[16.70711,-6.47974],[16.75251,-6.52273],[16.73078,-6.57114],[16.73351,-6.58682],[16.7458,-6.58922],[16.75794,-6.6021],[16.75941,-6.6085],[16.75289,-6.63847],[16.7572,-6.65948],[16.76388,-6.66895],[16.75952,-6.69528],[16.76311,-6.70757],[16.77382,-6.7208],[16.79907,-6.72778],[16.80121,-6.74854],[16.79909,-6.77775],[16.8022,-6.7936],[16.81436,-6.81329],[16.82183,-6.81575],[16.83508,-6.81388],[16.84313,-6.82436],[16.84144,-6.84357],[16.84397,-6.86087],[16.83669,-6.87739],[16.84075,-6.88395],[16.85965,-6.88461],[16.86743,-6.87619],[16.87156,-6.87561],[16.9037,-6.89937],[16.91077,-6.91256],[16.90144,-6.94489],[16.90155,-6.95354],[16.91954,-6.96946],[16.91762,-6.97476],[16.89877,-6.98521],[16.89639,-6.99611],[16.90446,-7.02544],[16.91039,-7.02758],[16.92896,-7.01924],[16.93662,-7.0272],[16.94184,-7.04549],[16.96408,-7.05071],[16.97018,-7.05922],[16.97075,-7.06511],[16.95631,-7.07957],[16.95296,-7.11489],[16.94044,-7.11906],[16.92883,-7.10168],[16.91905,-7.10014],[16.91687,-7.10286],[16.91936,-7.12768],[16.92975,-7.15207],[16.93844,-7.16345],[16.93597,-7.18147],[16.94678,-7.18794],[16.95476,-7.2019],[16.95426,-7.21334],[16.94027,-7.22837],[16.94205,-7.23867],[16.97743,-7.2638],[16.97631,-7.28719],[16.98137,-7.29164],[16.99663,-7.2981],[17.02043,-7.29265],[17.02866,-7.30127],[17.03207,-7.31329],[17.04158,-7.3204],[17.05666,-7.32464],[17.06886,-7.34451],[17.08895,-7.34149],[17.10705,-7.34951],[17.10907,-7.36057],[17.1021,-7.37753],[17.11026,-7.3951],[17.10062,-7.41434],[17.10425,-7.42151],[17.11359,-7.42471],[17.13009,-7.42421],[17.13329,-7.4215],[17.13694,-7.40409],[17.14268,-7.40679],[17.14784,-7.41662],[17.17704,-7.42471],[17.18327,-7.4373],[17.18259,-7.44364],[17.15692,-7.45009],[17.1481,-7.46441],[17.1486,-7.46901],[17.16369,-7.4861],[17.18271,-7.48866],[17.19653,-7.49829],[17.20106,-7.50815],[17.19285,-7.5345],[17.2015,-7.54081],[17.21411,-7.57584],[17.22937,-7.58413],[17.23247,-7.59341],[17.24071,-7.59503],[17.24178,-7.60179],[17.25159,-7.60243],[17.26464,-7.6108],[17.26949,-7.61076],[17.27317,-7.61793],[17.29463,-7.622],[17.30217,-7.6343],[17.29512,-7.65611],[17.29918,-7.65965],[17.29679,-7.66447],[17.29953,-7.67947],[17.29015,-7.68724],[17.28848,-7.69296],[17.30009,-7.69496],[17.29842,-7.70132],[17.30458,-7.70371],[17.31484,-7.69853],[17.31625,-7.71626],[17.32603,-7.7134],[17.33182,-7.71716],[17.3265,-7.72882],[17.3268,-7.73865],[17.31517,-7.75404],[17.31691,-7.75848],[17.33359,-7.76596],[17.32905,-7.77665],[17.33138,-7.78067],[17.34295,-7.78223],[17.3545,-7.7781],[17.36751,-7.77992],[17.37957,-7.77659],[17.38305,-7.77996],[17.3843,-7.78975],[17.37564,-7.81264],[17.37811,-7.82413],[17.38892,-7.81711],[17.39849,-7.81715],[17.40171,-7.82144],[17.39057,-7.83415],[17.3906,-7.839],[17.39793,-7.84216],[17.41053,-7.83139],[17.42103,-7.83327],[17.4255,-7.84478],[17.42069,-7.85428],[17.42212,-7.86717],[17.42737,-7.86876],[17.44093,-7.8644],[17.44718,-7.8682],[17.45077,-7.88732],[17.43587,-7.90533],[17.44266,-7.92674],[17.45243,-7.92767],[17.45043,-7.94003],[17.46499,-7.93929],[17.46388,-7.95053],[17.47104,-7.9572],[17.47577,-7.94942],[17.47993,-7.94987],[17.48389,-7.9592],[17.48035,-7.98002],[17.48076,-8.00187],[17.49993,-8.00354],[17.50164,-8.01201],[17.51312,-8.01573],[17.53139,-8.04459],[17.53129,-8.05382],[17.52541,-8.04319],[17.51895,-8.0422],[17.51405,-8.05732],[17.50235,-8.06724],[17.50341,-8.07933],[17.52758,-8.08946],[17.53134,-8.09573],[17.53,-8.10252],[17.53399,-8.10281],[17.53802,-8.11081],[17.54723,-8.11783],[17.5577,-8.12212],[17.55935,-8.11968],[17.56609,-8.12637],[17.58321,-8.12533],[17.58493,-8.12938],[17.58688,-8.12648],[17.62215,-8.1293],[17.63095,-8.12413],[17.6314,-8.12083],[17.64177,-8.11613],[17.65109,-8.11652],[17.65624,-8.11233],[17.65903,-8.11416],[17.66987,-8.10918],[17.67146,-8.1054],[17.72206,-8.09734],[17.73269,-8.09989],[17.75925,-8.09887],[17.78139,-8.11176],[17.78687,-8.10874],[17.79873,-8.1119],[17.8001,-8.10789],[17.80747,-8.10728],[17.82437,-8.0911],[17.83735,-8.09051],[17.86985,-8.08094],[17.88744,-8.08466],[17.89489,-8.0812],[17.90716,-8.0819],[17.91006,-8.0848],[17.92103,-8.08255],[17.97096,-8.0958],[18.10363,-8.09658],[18.10083,-8.09236],[18.10429,-8.0859],[18.09582,-8.07888],[18.09788,-8.07314],[18.09249,-8.05607],[18.10127,-8.04738],[18.09666,-8.04152],[18.10551,-8.03301],[18.11422,-8.03188],[18.12036,-8.04099],[18.12835,-8.03866],[18.13067,-8.03465],[18.14053,-8.03637],[18.15,-8.01462],[18.1775,-8.00842],[18.1834,-7.99695],[18.19359,-7.99474],[18.19572,-7.985],[18.19981,-7.98552],[18.20848,-7.97885],[18.21647,-7.97949],[18.21863,-7.97555],[18.22542,-7.97522],[18.24832,-7.98926],[18.26183,-7.9878],[18.26472,-7.98413],[18.2828,-7.98711],[18.29824,-7.99416],[18.30229,-8.00901],[18.30845,-8.01124],[18.31052,-8.01614],[18.31435,-8.01477],[18.31675,-8.0177],[18.32156,-8.01623],[18.32409,-8.01122],[18.33006,-8.01167],[18.33446,-8.01906],[18.35824,-8.02405],[18.36186,-8.01874],[18.36875,-8.02403],[18.37324,-8.02429],[18.37705,-8.01914],[18.38123,-8.02158],[18.38657,-8.01396],[18.40459,-8.00956],[18.40714,-8],[18.53191,-8],[18.52846,-7.99858],[18.53208,-7.97826],[18.52955,-7.97215],[18.53433,-7.96038],[18.5341,-7.95189],[18.52934,-7.93928],[18.53588,-7.9308],[18.53193,-7.92712],[18.53059,-7.91667],[18.76191,-7.91665],[18.76784,-7.91342],[18.77341,-7.91547],[18.7718,-7.92185],[18.78,-7.93712],[18.77514,-7.9404],[18.77872,-7.94745],[18.7752,-7.95697],[18.78423,-7.96812],[18.78163,-7.9741],[18.78684,-7.97782],[18.78641,-7.98403],[18.79323,-7.9867],[18.79645,-8],[19.38133,-8],[19.37951,-7.9906],[19.37025,-7.98151],[19.3717,-7.97612],[19.36619,-7.9653],[19.36695,-7.96046],[19.35845,-7.94934],[19.36141,-7.94128],[19.35716,-7.93773],[19.3565,-7.93178],[19.36263,-7.92235],[19.36191,-7.9147],[19.35743,-7.90499],[19.34844,-7.9035],[19.34469,-7.90586],[19.3421,-7.90052],[19.3488,-7.89351],[19.35068,-7.88503],[19.35776,-7.88125],[19.36039,-7.87644],[19.35742,-7.87232],[19.36641,-7.85892],[19.36691,-7.84178],[19.36406,-7.83769],[19.36653,-7.8339],[19.36165,-7.82459],[19.3637,-7.80725],[19.37595,-7.79185],[19.3832,-7.79003],[19.38623,-7.78543],[19.38447,-7.77627],[19.38976,-7.77415],[19.39116,-7.76995],[19.38828,-7.76389],[19.39017,-7.74922],[19.40135,-7.73253],[19.39802,-7.73081],[19.40269,-7.71107],[19.41173,-7.70526],[19.41036,-7.6913],[19.40508,-7.68174],[19.40613,-7.67106],[19.39457,-7.65551],[19.39084,-7.65483],[19.39052,-7.64424],[19.386,-7.64214],[19.38709,-7.63],[19.38119,-7.62658],[19.37723,-7.61987],[19.37983,-7.61664],[19.37081,-7.60797],[19.36974,-7.59297],[19.37149,-7.58453],[19.37809,-7.58137],[19.38321,-7.57195],[19.47333,-7.57197],[19.48752,-7.56104],[19.48709,-7.54008],[19.49462,-7.52803],[19.48589,-7.50508],[19.50079,-7.49299],[19.51516,-7.48985],[19.52171,-7.48344],[19.52101,-7.47997],[19.53248,-7.46068],[19.54147,-7.46135],[19.54526,-7.455],[19.54057,-7.44638],[19.53044,-7.44483],[19.52978,-7.43944],[19.53469,-7.43712],[19.5342,-7.43422],[19.52785,-7.43244],[19.52493,-7.42399],[19.51652,-7.42197],[19.52226,-7.39354],[19.50554,-7.3872],[19.50232,-7.36927],[19.49445,-7.36349],[19.50106,-7.3519],[19.50609,-7.35094],[19.50121,-7.33663],[19.49861,-7.33821],[19.49804,-7.32878],[19.48721,-7.31379],[19.49556,-7.30565],[19.48784,-7.30004],[19.48772,-7.2946],[19.49041,-7.28939],[19.4957,-7.28761],[19.49789,-7.279],[19.49813,-7.27487],[19.49478,-7.27436],[19.49457,-7.26243],[19.49745,-7.25377],[19.5051,-7.24883],[19.50669,-7.24057],[19.50377,-7.21943],[19.50715,-7.2111],[19.50551,-7.20451],[19.50817,-7.20221],[19.50273,-7.19606],[19.50505,-7.18369],[19.49854,-7.16752],[19.5068,-7.15214],[19.51144,-7.15012],[19.51542,-7.12669],[19.52215,-7.12067],[19.52155,-7.11216],[19.53392,-7.09576],[19.5323,-7.08995],[19.56223,-7.05553],[19.56301,-7.04822],[19.54905,-7.02582],[19.54956,-7.01402],[19.5532,-7.01153],[19.5497,-7.00888],[19.54795,-7],[20.30288,-7],[20.30213,-6.99658],[20.29915,-6.99723],[20.3071,-6.98367],[20.30451,-6.97357],[20.31238,-6.96109],[20.30895,-6.94942],[20.31031,-6.94362],[20.31564,-6.93978],[20.31333,-6.93727],[20.31775,-6.92499],[20.31645,-6.92025],[20.32199,-6.91667],[20.62709,-6.91668],[20.6278,-6.92071],[20.63181,-6.92136],[20.62258,-6.92995],[20.62495,-6.95475],[20.62225,-6.95676],[20.62349,-6.9633],[20.61908,-6.98121],[20.61138,-6.99094],[20.61058,-7.01339],[20.60318,-7.01052],[20.60039,-7.01326],[20.59984,-7.01832],[20.60382,-7.02096],[20.59263,-7.03308],[20.59502,-7.06146],[20.58477,-7.0781],[20.58305,-7.08855],[20.57235,-7.09851],[20.57432,-7.10269],[20.56618,-7.10829],[20.56267,-7.11501],[20.55881,-7.13444],[20.54821,-7.13981],[20.54964,-7.14278],[20.54619,-7.14693],[20.54958,-7.14829],[20.54585,-7.15207],[20.55849,-7.1579],[20.55884,-7.1652],[20.5616,-7.1657],[20.5553,-7.18509],[20.56076,-7.19282],[20.55418,-7.20711],[20.55788,-7.21946],[20.54752,-7.22676],[20.55425,-7.24271],[20.55077,-7.24886],[20.55778,-7.26242],[20.55047,-7.27365],[20.55589,-7.28121],[20.55302,-7.28333],[21.7872,-7.2839],[21.78822,-7.30585],[21.79137,-7.31228],[21.79766,-7.31478],[21.80203,-7.31297],[21.81429,-7.32737],[21.82288,-7.33071],[21.8294,-7.34735],[21.83413,-7.35063],[21.83752,-7.36941],[21.84335,-7.37406],[21.84322,-7.39197],[21.83552,-7.3957],[21.83267,-7.40254],[21.84366,-7.42169],[21.85661,-7.42455],[21.85888,-7.42967],[21.85389,-7.43812],[21.85777,-7.43987],[21.8594,-7.44951],[21.84612,-7.45786],[21.84569,-7.46093],[21.85018,-7.4679],[21.85771,-7.46893],[21.86164,-7.47435],[21.85678,-7.4863],[21.85764,-7.49247],[21.84496,-7.5065],[21.8413,-7.52388],[21.84183,-7.53069],[21.85879,-7.56028],[21.85054,-7.57322],[21.85155,-7.57737],[21.84622,-7.58051],[21.84562,-7.58633],[21.85243,-7.6048],[21.84357,-7.6147],[21.84392,-7.62056],[21.83282,-7.62564],[21.83497,-7.63884],[21.83201,-7.64727]]],[[[14.16092,-9.62743],[14.156,-9.62161],[14.15963,-9.62343],[14.16092,-9.62743]]],[[[14.1245,-9.54782],[14.11881,-9.5402],[14.12296,-9.54215],[14.1245,-9.54782]]],[[[13.79944,-10.86029],[13.79502,-10.85705],[13.79945,-10.85707],[13.79944,-10.86029]]],[[[13.20272,-9.28999],[13.19378,-9.29083],[13.19511,-9.28504],[13.20681,-9.27891],[13.2062,-9.27195],[13.21165,-9.27043],[13.2126,-9.26219],[13.21651,-9.25989],[13.21921,-9.26455],[13.20944,-9.27326],[13.20272,-9.28999]]],[[[13.18766,-9.32236],[13.18224,-9.31666],[13.1872,-9.30999],[13.18724,-9.302],[13.18179,-9.30275],[13.19246,-9.29636],[13.19762,-9.30154],[13.18772,-9.30999],[13.18766,-9.32236]]],[[[13.14686,-8.9082],[13.14988,-8.90258],[13.1553,-8.90505],[13.14686,-8.9082]]],[[[13.13439,-8.94037],[13.13194,-8.93817],[13.13403,-8.93406],[13.13439,-8.94037]]],[[[13.13299,-5.90603],[13.12888,-5.90331],[13.13455,-5.90152],[13.13299,-5.90603]]],[[[13.10485,-8.94138],[13.10136,-8.93982],[13.10255,-8.93467],[13.11765,-8.92135],[13.12225,-8.90823],[13.12835,-8.90595],[13.12447,-8.92989],[13.10485,-8.94138]]],[[[13.11856,-8.94454],[13.11209,-8.94412],[13.11443,-8.94207],[13.11856,-8.94454]]],[[[12.78219,-4.40078],[12.79604,-4.41294],[12.81041,-4.43394],[12.83097,-4.44283],[12.83333,-4.44267],[12.83333,-4.41809],[12.8434,-4.41503],[12.85322,-4.42988],[12.87175,-4.4457],[12.87571,-4.44492],[12.89874,-4.46975],[12.90655,-4.4736],[12.90782,-4.47846],[12.91533,-4.48076],[12.91473,-4.48484],[12.92589,-4.49703],[12.92964,-4.49619],[12.93868,-4.50176],[12.95626,-4.52388],[12.97058,-4.53509],[12.9811,-4.55439],[13.00749,-4.59031],[13.03122,-4.61538],[13.03353,-4.62202],[13.0416,-4.62335],[13.05894,-4.64083],[13.05976,-4.64376],[13.05484,-4.64518],[13.05776,-4.64836],[13.08016,-4.66183],[13.10272,-4.68399],[13.09741,-4.69146],[13.08935,-4.68611],[13.07628,-4.68899],[13.05192,-4.67479],[13.04778,-4.67773],[13.04543,-4.68704],[13.0409,-4.68901],[13.03804,-4.69855],[13.03456,-4.70002],[13.02998,-4.7154],[13.0134,-4.70931],[13.0081,-4.70209],[13.00412,-4.70643],[13.00068,-4.70364],[12.9824,-4.705],[12.97041,-4.71834],[12.96483,-4.71496],[12.95249,-4.72476],[12.94363,-4.72089],[12.92284,-4.7477],[12.91639,-4.74343],[12.91453,-4.74559],[12.91012,-4.74117],[12.911,-4.7383],[12.90592,-4.73551],[12.90149,-4.73837],[12.89567,-4.73509],[12.88252,-4.74174],[12.88131,-4.74604],[12.87136,-4.74896],[12.87016,-4.7517],[12.87588,-4.75352],[12.87335,-4.75589],[12.87448,-4.76162],[12.86782,-4.76407],[12.86451,-4.75887],[12.86025,-4.75821],[12.85972,-4.75304],[12.8525,-4.75322],[12.85365,-4.7575],[12.84507,-4.76215],[12.84482,-4.76495],[12.85094,-4.76511],[12.84719,-4.76653],[12.84521,-4.77852],[12.83556,-4.77308],[12.8286,-4.78368],[12.83161,-4.79335],[12.8272,-4.79729],[12.82685,-4.80544],[12.82362,-4.80587],[12.81825,-4.81972],[12.80868,-4.82514],[12.80552,-4.83634],[12.81214,-4.83385],[12.81577,-4.83953],[12.80935,-4.84227],[12.81217,-4.8449],[12.80519,-4.85023],[12.79625,-4.8496],[12.79269,-4.85523],[12.79351,-4.86216],[12.78713,-4.86877],[12.78589,-4.87498],[12.77891,-4.87461],[12.77679,-4.87084],[12.77284,-4.87422],[12.76824,-4.87147],[12.76704,-4.87662],[12.76015,-4.86968],[12.76006,-4.87452],[12.7502,-4.88314],[12.75263,-4.88866],[12.74945,-4.8875],[12.7406,-4.89356],[12.72844,-4.91076],[12.73141,-4.92208],[12.72805,-4.93454],[12.72394,-4.93728],[12.72578,-4.94258],[12.72043,-4.95021],[12.71337,-4.9505],[12.71269,-4.95554],[12.70897,-4.95579],[12.70329,-4.9496],[12.68478,-4.95413],[12.67895,-4.95949],[12.67546,-4.95703],[12.6685,-4.95999],[12.66066,-4.94852],[12.6475,-4.9446],[12.63436,-4.95297],[12.62608,-4.94995],[12.62276,-4.96072],[12.62676,-4.96397],[12.62566,-4.98542],[12.61731,-4.99755],[12.61593,-5.00649],[12.608,-5.00997],[12.60956,-5.01274],[12.60567,-5.0218],[12.6087,-5.02382],[12.59924,-5.02584],[12.59233,-5.0219],[12.58821,-5.02927],[12.58441,-5.02349],[12.58444,-5.0279],[12.57767,-5.03294],[12.5744,-5.03039],[12.56716,-5.036],[12.56455,-5.04775],[12.55921,-5.03857],[12.55618,-5.03835],[12.54409,-5.04566],[12.54535,-5.05178],[12.53784,-5.05165],[12.52954,-5.05684],[12.52543,-5.05451],[12.52507,-5.0475],[12.5227,-5.05004],[12.51794,-5.04636],[12.51282,-5.04641],[12.50969,-5.0502],[12.50394,-5.04782],[12.50066,-5.04991],[12.50134,-5.05706],[12.4978,-5.05903],[12.49687,-5.0651],[12.46392,-5.08039],[12.46922,-5.08243],[12.46807,-5.0858],[12.47132,-5.08975],[12.4629,-5.09313],[12.46524,-5.09737],[12.46144,-5.10059],[12.47675,-5.10931],[12.47013,-5.11896],[12.47217,-5.12169],[12.47895,-5.11837],[12.49122,-5.13096],[12.49425,-5.13993],[12.49713,-5.13708],[12.50064,-5.14248],[12.50664,-5.13697],[12.51312,-5.13704],[12.51828,-5.13056],[12.52524,-5.13936],[12.52123,-5.14162],[12.52193,-5.14453],[12.52688,-5.14499],[12.52757,-5.14123],[12.53312,-5.14546],[12.53148,-5.16412],[12.52843,-5.1663],[12.53067,-5.17261],[12.52772,-5.17351],[12.52842,-5.74212],[12.27717,-5.74173],[12.26314,-5.74509],[12.25329,-5.75274],[12.24735,-5.74996],[12.2407,-5.7541],[12.23472,-5.75154],[12.22082,-5.75292],[12.21444,-5.75596],[12.2119,-5.7651],[12.20208,-5.77413],[12.17743,-5.74169],[12.15923,-5.70478],[12.14502,-5.64059],[12.16112,-5.60796],[12.1617,-5.59252],[12.16836,-5.57195],[12.17714,-5.5622],[12.18157,-5.54935],[12.19468,-5.54941],[12.20904,-5.55759],[12.21985,-5.55429],[12.23057,-5.54108],[12.23199,-5.51302],[12.22547,-5.47745],[12.20724,-5.41968],[12.16723,-5.33134],[12.17863,-5.32613],[12.17897,-5.31815],[12.16469,-5.2881],[12.13236,-5.24295],[12.14123,-5.21845],[12.13372,-5.20639],[12.14678,-5.22383],[12.1601,-5.2181],[12.16116,-5.22376],[12.16695,-5.22708],[12.16556,-5.23094],[12.17688,-5.23552],[12.18209,-5.25017],[12.18652,-5.24508],[12.19055,-5.24562],[12.19288,-5.25024],[12.21525,-5.2554],[12.2199,-5.26053],[12.22441,-5.25752],[12.2233,-5.24893],[12.21378,-5.24486],[12.21402,-5.24228],[12.19823,-5.2412],[12.19614,-5.23568],[12.20423,-5.23461],[12.20123,-5.22561],[12.19495,-5.22796],[12.18756,-5.21333],[12.17777,-5.20707],[12.17212,-5.20813],[12.1681,-5.20153],[12.16055,-5.20458],[12.16155,-5.1993],[12.15628,-5.19778],[12.16384,-5.19414],[12.16143,-5.18701],[12.15792,-5.19087],[12.14378,-5.18845],[12.1381,-5.18294],[12.13703,-5.17342],[12.13241,-5.17422],[12.12609,-5.16936],[12.12568,-5.16292],[12.11875,-5.16334],[12.11615,-5.1573],[12.11282,-5.15899],[12.10973,-5.15656],[12.1072,-5.16481],[12.11878,-5.16991],[12.11767,-5.17944],[12.13615,-5.20445],[12.13127,-5.20344],[12.0161,-5.04097],[12.02007,-5.03946],[12.01555,-5.03395],[12.01643,-5.03008],[12.0311,-5.03593],[12.03542,-5.02742],[12.0403,-5.02714],[12.03559,-5.03591],[12.03891,-5.06036],[12.04546,-5.06084],[12.03832,-5.04311],[12.04319,-5.0409],[12.04647,-5.04353],[12.04651,-5.03676],[12.05447,-5.03763],[12.05656,-5.04521],[12.05938,-5.04468],[12.05781,-5.03915],[12.06062,-5.03592],[12.07064,-5.03755],[12.07128,-5.0494],[12.07509,-5.05478],[12.07181,-5.05929],[12.07615,-5.06147],[12.07591,-5.06456],[12.07205,-5.06384],[12.06464,-5.07028],[12.06748,-5.07438],[12.07223,-5.06717],[12.07566,-5.06713],[12.08239,-5.07894],[12.09188,-5.0771],[12.10527,-5.08347],[12.10702,-5.07561],[12.11394,-5.07735],[12.11417,-5.06669],[12.12214,-5.06949],[12.1252,-5.06116],[12.13064,-5.06185],[12.12877,-5.05864],[12.13128,-5.04679],[12.12686,-5.03548],[12.13747,-5.03357],[12.13978,-5.02589],[12.13241,-5.01486],[12.13866,-5.0071],[12.13467,-5.00378],[12.12184,-5.005],[12.11411,-4.99937],[12.1086,-5.00261],[12.10764,-5.01549],[12.11048,-5.0196],[12.10588,-5.02348],[12.1061,-5.04227],[12.10072,-5.04487],[12.10134,-5.06701],[12.09259,-5.06422],[12.09231,-5.05856],[12.08793,-5.05652],[12.08843,-5.05266],[12.09535,-5.05082],[12.09072,-5.04788],[12.0939,-5.0431],[12.08709,-5.04159],[12.08796,-5.03567],[12.08141,-5.03351],[12.08304,-5.02642],[12.07725,-5.02194],[12.07836,-5.01357],[12.07517,-5.01693],[12.0667,-5.01736],[12.0656,-5.03011],[12.05623,-5.03041],[12.05904,-5.02705],[12.05543,-5.02385],[12.05224,-5.02837],[12.04738,-5.0285],[12.04206,-5.02018],[12.03513,-5.02059],[12.02848,-5.02565],[12.02182,-5.02413],[12.08853,-4.95955],[12.16621,-4.8962],[12.19759,-4.79075],[12.20922,-4.79672],[12.20859,-4.80321],[12.21226,-4.80443],[12.22506,-4.80306],[12.23463,-4.79654],[12.24344,-4.79857],[12.23552,-4.80366],[12.24071,-4.81416],[12.24942,-4.81123],[12.26364,-4.79743],[12.27382,-4.79594],[12.28147,-4.80442],[12.29816,-4.79413],[12.30587,-4.79939],[12.30127,-4.80705],[12.31813,-4.80058],[12.33156,-4.7902],[12.332,-4.78438],[12.33919,-4.77758],[12.33848,-4.76719],[12.34698,-4.76364],[12.35889,-4.74897],[12.35952,-4.74372],[12.37126,-4.73483],[12.37394,-4.7044],[12.38136,-4.70391],[12.38691,-4.69705],[12.38279,-4.69177],[12.38444,-4.68004],[12.39872,-4.6663],[12.39538,-4.65737],[12.39798,-4.64519],[12.39133,-4.64212],[12.38795,-4.63592],[12.39159,-4.6103],[12.41008,-4.60915],[12.41477,-4.60311],[12.42302,-4.60896],[12.43794,-4.59767],[12.45034,-4.60252],[12.45267,-4.5895],[12.46331,-4.58113],[12.46674,-4.58197],[12.46844,-4.57885],[12.46543,-4.57644],[12.48236,-4.57208],[12.4863,-4.56482],[12.50406,-4.56818],[12.50303,-4.57603],[12.53682,-4.58782],[12.55909,-4.58225],[12.56078,-4.57816],[12.5575,-4.5746],[12.56363,-4.56337],[12.63776,-4.56337],[12.64312,-4.56007],[12.64522,-4.55215],[12.65016,-4.55224],[12.64828,-4.54558],[12.65172,-4.54205],[12.65665,-4.54488],[12.65953,-4.54083],[12.65475,-4.53206],[12.66195,-4.53386],[12.66459,-4.52931],[12.66932,-4.53197],[12.67321,-4.52938],[12.67501,-4.51969],[12.6723,-4.50969],[12.67814,-4.50358],[12.67709,-4.50059],[12.69294,-4.49245],[12.6963,-4.48152],[12.71043,-4.4778],[12.74158,-4.49179],[12.76325,-4.50664],[12.76757,-4.5057],[12.76762,-4.49875],[12.77173,-4.49407],[12.77987,-4.49294],[12.78125,-4.48836],[12.76737,-4.47421],[12.71975,-4.40781],[12.72295,-4.40579],[12.72131,-4.39905],[12.72404,-4.39766],[12.73085,-4.40457],[12.73317,-4.41223],[12.74702,-4.41792],[12.74868,-4.41525],[12.75865,-4.41733],[12.76424,-4.41382],[12.76086,-4.40055],[12.75673,-4.39767],[12.75854,-4.39328],[12.76868,-4.38815],[12.78219,-4.40078]]],[[[13.08982,-5.88861],[13.0821,-5.88807],[13.07595,-5.87981],[13.0937,-5.88103],[13.09342,-5.88837],[13.08982,-5.88861]]],[[[13.07004,-5.88109],[13.07155,-5.88572],[13.05816,-5.88979],[13.04172,-5.88149],[13.03708,-5.88457],[13.01803,-5.88527],[13.05,-5.8676],[13.07005,-5.8745],[13.07004,-5.88109]]],[[[13.05614,-8.98905],[13.05356,-8.98749],[13.0572,-8.98493],[13.05614,-8.98905]]],[[[13.01676,-9.0347],[13.01184,-9.03403],[13.01341,-9.03043],[13.01676,-9.0347]]],[[[12.94721,-5.97094],[12.9524,-5.95988],[12.96143,-5.95296],[12.96063,-5.96275],[12.94721,-5.97094]]],[[[12.95344,-5.9568],[12.95657,-5.94676],[12.95913,-5.94831],[12.9577,-5.95372],[12.95344,-5.9568]]],[[[12.93438,-5.96098],[12.94112,-5.94902],[12.94238,-5.95469],[12.93438,-5.96098]]],[[[12.86563,-5.97141],[12.87493,-5.96307],[12.88934,-5.96351],[12.92136,-5.93503],[12.92883,-5.93236],[12.91603,-5.94841],[12.90927,-5.96642],[12.89442,-5.98105],[12.8738,-5.98806],[12.85759,-5.98928],[12.85348,-5.9854],[12.86563,-5.97141]]],[[[12.92144,-5.9809],[12.91887,-5.97908],[12.92223,-5.97562],[12.92144,-5.9809]]],[[[12.88499,-5.95783],[12.88787,-5.94495],[12.89278,-5.93802],[12.91289,-5.92843],[12.92035,-5.9282],[12.91699,-5.93231],[12.90101,-5.93843],[12.89649,-5.94267],[12.89285,-5.95425],[12.88499,-5.95783]]],[[[12.907,-5.98806],[12.91191,-5.98356],[12.91487,-5.98422],[12.907,-5.98806]]],[[[12.90175,-5.94707],[12.90616,-5.93961],[12.91156,-5.93912],[12.90175,-5.94707]]],[[[12.88691,-5.9327],[12.89179,-5.92706],[12.88894,-5.93414],[12.88691,-5.9327]]],[[[12.87778,-5.95754],[12.88268,-5.9555],[12.88179,-5.95137],[12.87342,-5.95379],[12.87344,-5.94954],[12.88503,-5.94507],[12.88591,-5.95242],[12.87778,-5.95754]]],[[[12.86976,-5.94222],[12.87418,-5.94328],[12.86934,-5.94527],[12.86976,-5.94222]]],[[[12.86617,-5.96703],[12.86451,-5.96238],[12.87109,-5.95919],[12.87288,-5.96139],[12.86617,-5.96703]]],[[[12.87162,-5.95391],[12.86828,-5.95287],[12.87241,-5.94979],[12.87162,-5.95391]]],[[[12.86109,-6.0157],[12.8611,-6.01119],[12.86781,-6.008],[12.86109,-6.0157]]],[[[12.84889,-5.97533],[12.83963,-5.97414],[12.84043,-5.96731],[12.82963,-5.96508],[12.83895,-5.95069],[12.84551,-5.95097],[12.84437,-5.94659],[12.84875,-5.94519],[12.85955,-5.9482],[12.85315,-5.97162],[12.84889,-5.97533]]],[[[12.84843,-6.02699],[12.85,-6.02159],[12.85488,-6.02212],[12.84843,-6.02699]]],[[[12.82222,-6.01671],[12.81426,-6.0132],[12.82353,-6.01066],[12.81194,-6.0128],[12.81093,-6.00855],[12.81481,-6.00496],[12.83953,-6.00055],[12.85007,-6.00201],[12.83896,-6.01446],[12.82222,-6.01671]]],[[[12.83786,-6.03133],[12.83839,-6.02862],[12.83248,-6.02706],[12.83506,-6.02449],[12.84897,-6.02081],[12.84547,-6.02801],[12.83786,-6.03133]]],[[[12.83422,-5.97553],[12.83681,-5.97207],[12.83808,-5.97516],[12.83422,-5.97553]]],[[[12.82538,-5.99894],[12.8169,-5.99672],[12.83182,-5.99652],[12.82538,-5.99894]]],[[[12.82616,-5.99611],[12.80739,-5.99385],[12.81101,-5.99013],[12.81821,-5.9899],[12.82861,-5.99471],[12.82616,-5.99611]]],[[[12.81043,-6.0061],[12.80477,-6.00595],[12.8035,-6.00195],[12.8125,-6.00186],[12.81429,-6.00444],[12.81043,-6.0061]]],[[[12.80813,-6.95597],[12.80401,-6.95428],[12.8048,-6.95106],[12.81227,-6.95226],[12.80813,-6.95597]]],[[[12.79207,-6.02767],[12.78641,-6.02739],[12.78411,-6.02313],[12.80239,-6.01998],[12.80509,-6.02192],[12.79207,-6.02767]]],[[[12.77704,-5.98986],[12.80021,-5.98815],[12.79037,-6.0019],[12.77618,-6.0106],[12.75044,-6.01346],[12.73323,-6.00643],[12.747,-6.00365],[12.77704,-5.98986]]],[[[12.78865,-6.04517],[12.78043,-6.04269],[12.77865,-6.03792],[12.79615,-6.03734],[12.78865,-6.04517]]],[[[12.77057,-5.97957],[12.77578,-5.98357],[12.77087,-5.987],[12.75828,-5.98463],[12.75336,-5.99157],[12.7446,-5.99295],[12.74616,-5.98922],[12.73044,-5.9956],[12.74079,-5.98224],[12.77057,-5.97957]]],[[[12.76683,-6.03233],[12.77276,-6.02875],[12.77327,-6.03017],[12.76683,-6.03233]]],[[[12.76459,-6.01274],[12.7669,-6.01455],[12.75609,-6.01618],[12.76459,-6.01274]]],[[[12.76166,-6.03823],[12.7552,-6.0431],[12.74956,-6.03844],[12.75525,-6.03164],[12.76411,-6.03567],[12.76166,-6.03823]]],[[[12.74829,-6.03483],[12.74495,-6.03379],[12.74625,-6.03134],[12.75243,-6.0306],[12.75293,-6.03305],[12.74829,-6.03483]]],[[[12.74148,-6.00157],[12.73917,-5.99898],[12.74227,-5.99668],[12.7518,-5.99581],[12.74148,-6.00157]]],[[[12.74504,-6.01266],[12.74914,-6.01525],[12.74553,-6.01678],[12.74504,-6.01266]]],[[[12.73539,-6.04392],[12.73411,-6.0416],[12.7403,-6.03827],[12.74402,-6.04151],[12.73539,-6.04392]]],[[[12.73226,-5.98994],[12.74002,-5.98224],[12.73768,-5.98751],[12.73226,-5.98994]]],[[[12.63544,-6.06681],[12.6162,-6.05281],[12.59819,-6.05312],[12.59768,-6.05067],[12.62426,-6.03288],[12.66211,-6.02828],[12.66192,-6.04297],[12.64979,-6.05013],[12.6415,-6.06374],[12.63544,-6.06681]]],[[[12.58563,-6.09905],[12.58203,-6.09826],[12.57885,-6.09026],[12.58156,-6.08808],[12.58541,-6.09157],[12.59082,-6.09031],[12.60196,-6.10092],[12.60335,-6.10672],[12.61184,-6.10895],[12.61875,-6.11671],[12.63032,-6.11972],[12.64437,-6.11322],[12.6471,-6.10846],[12.65028,-6.11633],[12.64293,-6.11888],[12.63853,-6.12453],[12.6383,-6.11976],[12.62746,-6.12512],[12.59864,-6.12422],[12.59558,-6.11725],[12.60666,-6.11421],[12.59123,-6.11375],[12.59497,-6.11171],[12.58563,-6.09905]]],[[[12.63953,-6.13187],[12.63748,-6.12864],[12.64134,-6.12969],[12.63953,-6.13187]]],[[[12.63529,-6.10055],[12.63608,-6.09798],[12.64097,-6.09697],[12.63529,-6.10055]]],[[[12.62853,-6.11611],[12.62341,-6.10952],[12.63576,-6.11009],[12.62853,-6.11611]]],[[[12.62974,-6.13312],[12.62718,-6.1313],[12.63568,-6.12902],[12.62974,-6.13312]]],[[[12.6238,-6.13914],[12.62666,-6.13272],[12.6278,-6.13504],[12.6238,-6.13914]]],[[[12.61404,-6.13433],[12.60992,-6.1338],[12.61174,-6.13123],[12.62099,-6.13398],[12.61404,-6.13433]]],[[[12.60685,-6.13083],[12.60454,-6.12824],[12.60918,-6.12787],[12.60685,-6.13083]]],[[[12.60295,-6.13854],[12.5982,-6.13697],[12.59809,-6.13349],[12.604,-6.13571],[12.60295,-6.13854]]],[[[12.57985,-6.06785],[12.57692,-6.06191],[12.5781,-6.05574],[12.58686,-6.05371],[12.5898,-6.05759],[12.58837,-6.06068],[12.57985,-6.06785]]],[[[12.58914,-6.11864],[12.58737,-6.11232],[12.58956,-6.1122],[12.58914,-6.11864]]],[[[12.58808,-6.12739],[12.58409,-6.1266],[12.58655,-6.12416],[12.58808,-6.12739]]],[[[12.56577,-6.10797],[12.5645,-6.10488],[12.56954,-6.10052],[12.56583,-6.09664],[12.57355,-6.09616],[12.58264,-6.10547],[12.58578,-6.12352],[12.57602,-6.11832],[12.57247,-6.10671],[12.56577,-6.10797]]],[[[12.56041,-6.09867],[12.55498,-6.10457],[12.56065,-6.10383],[12.56551,-6.10849],[12.566,-6.11441],[12.55983,-6.11297],[12.55729,-6.10716],[12.5501,-6.10249],[12.54884,-6.09605],[12.56041,-6.09867]]],[[[12.55664,-6.0796],[12.55021,-6.07738],[12.55485,-6.07727],[12.55664,-6.0796]]],[[[12.5531,-6.1217],[12.54899,-6.12039],[12.55635,-6.11488],[12.5531,-6.1217]]],[[[12.54779,-6.10055],[12.54267,-6.09589],[12.54859,-6.09501],[12.54779,-6.10055]]],[[[12.53712,-6.12729],[12.53945,-6.12369],[12.54021,-6.12589],[12.53712,-6.12729]]],[[[12.39841,-6.12831],[12.3907,-6.12608],[12.39252,-6.12287],[12.3987,-6.12264],[12.41874,-6.12841],[12.41847,-6.1315],[12.4038,-6.13155],[12.39841,-6.12831]]],[[[12.4077,-6.12397],[12.40875,-6.1196],[12.41568,-6.12208],[12.4077,-6.12397]]],[[[12.39557,-6.13087],[12.3984,-6.13101],[12.39813,-6.1341],[12.39529,-6.13435],[12.39557,-6.13087]]],[[[12.38665,-6.11331],[12.39076,-6.11514],[12.3879,-6.1204],[12.3776,-6.12112],[12.37787,-6.11816],[12.38665,-6.11331]]],[[[12.34329,-6.1404],[12.34663,-6.14119],[12.34636,-6.14351],[12.34329,-6.1404]]],[[[12.33079,-6.11767],[12.33978,-6.12171],[12.34,-6.12854],[12.3274,-6.12744],[12.32481,-6.13026],[12.32158,-6.1268],[12.32228,-6.12124],[12.33079,-6.11767]]],[[[12.32162,-6.09883],[12.32315,-6.10244],[12.31852,-6.10126],[12.32162,-6.09883]]],[[[12.32169,-6.08492],[12.31522,-6.09313],[12.31075,-6.09397],[12.30932,-6.08924],[12.32169,-6.08492]]],[[[12.31189,-6.14024],[12.31369,-6.1418],[12.30684,-6.14769],[12.29823,-6.14584],[12.29902,-6.14147],[12.31189,-6.14024]]],[[[11.77964,-17.26511],[11.77675,-17.26109],[11.78041,-17.26393],[11.77964,-17.26511]]],[[[11.68009,-16.59375],[11.67052,-16.5571],[11.67371,-16.53451],[11.67785,-16.52634],[11.70003,-16.50791],[11.71944,-16.51156],[11.71952,-16.53034],[11.72367,-16.53736],[11.72096,-16.5561],[11.72628,-16.56441],[11.71773,-16.581],[11.73034,-16.61755],[11.72763,-16.63354],[11.73064,-16.64792],[11.72913,-16.66415],[11.73094,-16.66928],[11.73701,-16.67306],[11.73658,-16.69005],[11.74016,-16.69773],[11.73497,-16.70835],[11.72429,-16.69896],[11.71187,-16.67982],[11.68009,-16.59375]]]]}}]}