{"type":"FeatureCollection","features":[{"type":"Feature","properties":{"ISO_A3":"ALB","WB_A3":"ALB","WB_NAME":"Albania","WB_REGION":"ECS"},"geometry":{"type":"MultiPolygon","coordinates":[[[[20.45789,41.55023],[20.46324,41.54357],[20.47038,41.54342],[20.47336,41.53589],[20.47304,41.53204],[20.45858,41.52724],[20.45426,41.52271],[20.45496,41.5136],[20.46614,41.50816],[20.47712,41.5074],[20.46931,41.49932],[20.47094,41.49625],[20.47823,41.4988],[20.49441,41.49099],[20.50317,41.47527],[20.50455,41.46217],[20.51254,41.44983],[20.50783,41.44435],[20.51344,41.43768],[20.53897,41.43648],[20.53848,41.42703],[20.55707,41.41668],[20.56008,41.40839],[20.56122,41.40141],[20.55491,41.40055],[20.55038,41.38788],[20.54565,41.3837],[20.55173,41.37989],[20.55153,41.37696],[20.53655,41.36369],[20.53754,41.3596],[20.52711,41.35371],[20.52653,41.34381],[20.51576,41.33694],[20.50237,41.34713],[20.49745,41.34633],[20.49818,41.33727],[20.49132,41.3329],[20.49962,41.32608],[20.49888,41.32141],[20.50943,41.30189],[20.50705,41.29626],[20.5088,41.29014],[20.51405,41.28661],[20.5103,41.2739],[20.51145,41.26423],[20.52094,41.24497],[20.51505,41.23209],[20.52161,41.22714],[20.52523,41.21706],[20.53161,41.21106],[20.53147,41.2042],[20.53834,41.19445],[20.54604,41.19561],[20.55417,41.1908],[20.55871,41.19281],[20.56025,41.1807],[20.57043,41.16688],[20.58071,41.15885],[20.58339,41.14832],[20.5965,41.13208],[20.59674,41.12594],[20.5904,41.12507],[20.58226,41.11328],[20.58508,41.10822],[20.59239,41.10109],[20.59575,41.09207],[20.63285,41.08644],[20.66972,41.08727],[20.70019,41.00901],[20.73259,40.91197],[20.75858,40.90289],[20.77347,40.90481],[20.80132,40.89824],[20.81188,40.89891],[20.8274,40.90698],[20.82757,40.913],[20.848,40.93769],[20.89758,40.91898],[20.9113,40.91752],[20.91567,40.9235],[20.94078,40.92419],[20.95629,40.91721],[20.96197,40.91135],[20.96846,40.91104],[20.9794,40.89749],[20.97728,40.88621],[20.9847,40.79317],[20.97733,40.78214],[20.9594,40.77202],[20.9713,40.76268],[20.98214,40.76247],[20.98456,40.7568],[20.98328,40.73836],[20.988,40.73238],[21.00656,40.72447],[21.02469,40.70935],[21.05726,40.66755],[21.05195,40.63501],[21.05655,40.6169],[21.04463,40.61366],[21.04804,40.60231],[21.04524,40.59449],[21.04004,40.59188],[21.04691,40.57241],[21.04214,40.5653],[21.0422,40.5577],[21.03286,40.55432],[21.02306,40.5569],[21.00606,40.55168],[20.99865,40.54201],[21.00003,40.53564],[20.97844,40.52386],[20.97583,40.51945],[20.96775,40.51873],[20.96401,40.50671],[20.96914,40.49817],[20.96831,40.48815],[20.95986,40.48374],[20.95382,40.47601],[20.95609,40.46911],[20.93184,40.46253],[20.9055,40.47638],[20.87081,40.47114],[20.84418,40.48039],[20.83547,40.4712],[20.83112,40.45594],[20.82168,40.44592],[20.82184,40.43957],[20.81207,40.44069],[20.78586,40.42623],[20.79163,40.41491],[20.7871,40.4006],[20.79142,40.38357],[20.79023,40.36201],[20.77809,40.3575],[20.77572,40.35143],[20.77962,40.34797],[20.77371,40.34817],[20.76499,40.34285],[20.75823,40.33281],[20.76332,40.32047],[20.75559,40.31456],[20.73867,40.31217],[20.73238,40.30634],[20.73133,40.29715],[20.7121,40.28236],[20.70806,40.26432],[20.71297,40.25732],[20.72176,40.25283],[20.72046,40.2294],[20.72561,40.2238],[20.72104,40.21624],[20.71247,40.21042],[20.70774,40.19991],[20.69131,40.1957],[20.67805,40.18831],[20.68086,40.18436],[20.67539,40.16477],[20.69378,40.15125],[20.6842,40.14188],[20.67517,40.12614],[20.67907,40.11322],[20.67765,40.09564],[20.66957,40.09756],[20.66009,40.09149],[20.63882,40.09366],[20.62151,40.08833],[20.61958,40.08428],[20.60053,40.07227],[20.56505,40.06494],[20.54929,40.06387],[20.51137,40.08285],[20.508,40.076],[20.48928,40.06394],[20.47338,40.06631],[20.46515,40.07406],[20.44883,40.07371],[20.41917,40.0605],[20.40929,40.04942],[20.4152,40.03576],[20.39725,40.01486],[20.39732,40.00379],[20.39348,39.99575],[20.3788,39.99323],[20.37566,39.98915],[20.3305,39.99344],[20.31211,39.9908],[20.31983,39.97373],[20.32485,39.97286],[20.34506,39.94683],[20.33729,39.92408],[20.35255,39.91381],[20.36391,39.91025],[20.36466,39.90406],[20.37331,39.89209],[20.38353,39.8896],[20.38199,39.88243],[20.39082,39.86681],[20.41581,39.84212],[20.41701,39.83944],[20.41292,39.83511],[20.41648,39.82801],[20.41378,39.82499],[20.41453,39.81588],[20.3915,39.78884],[20.38268,39.7847],[20.37354,39.78541],[20.34854,39.80343],[20.32507,39.80984],[20.31813,39.80892],[20.30374,39.81686],[20.30211,39.81222],[20.28949,39.80515],[20.30709,39.78151],[20.30237,39.77357],[20.29209,39.76599],[20.29248,39.7628],[20.29504,39.75521],[20.30309,39.7528],[20.30517,39.74578],[20.32179,39.73492],[20.32115,39.72876],[20.31168,39.72653],[20.30024,39.71411],[20.28343,39.71142],[20.27782,39.7009],[20.26592,39.69539],[20.26467,39.67189],[20.2543,39.67523],[20.24502,39.68343],[20.2334,39.68556],[20.21858,39.66508],[20.22879,39.65144],[20.2261,39.64795],[20.18986,39.64539],[20.15016,39.65563],[20.12589,39.65649],[20.09875,39.67042],[20.09058,39.68112],[20.07698,39.68034],[20.06648,39.68898],[20.05817,39.69162],[20.03503,39.69277],[20.03389,39.70022],[20.02245,39.6957],[20.01844,39.69711],[20.00855,39.6916],[20.00334,39.69454],[20.00143,39.68849],[19.98248,39.68909],[19.98515,39.69964],[19.98131,39.70064],[19.98298,39.71169],[19.98863,39.72291],[19.99329,39.72308],[19.99849,39.74264],[20.0226,39.74272],[20.02657,39.74982],[20.03514,39.75053],[20.0505,39.75797],[20.04461,39.77539],[20.05005,39.80291],[20.02626,39.81414],[20.01395,39.81288],[20.01077,39.79128],[20.02072,39.7698],[20.01591,39.76924],[20.01728,39.76617],[20.02227,39.76647],[20.02745,39.75316],[20.02012,39.75361],[20.01669,39.74896],[20.02286,39.74799],[20.02357,39.74491],[19.99431,39.74389],[19.99856,39.74919],[19.99917,39.75318],[19.9965,39.75392],[19.99456,39.74954],[19.97634,39.74476],[19.97354,39.75411],[19.98021,39.76405],[19.98321,39.76408],[19.98396,39.76948],[19.99829,39.76781],[19.99688,39.77319],[20.00203,39.77374],[20.00046,39.77887],[20.00657,39.782],[20.00259,39.79275],[19.99558,39.79385],[19.99351,39.79909],[20.00313,39.80149],[20.00606,39.806],[20.00481,39.81177],[20.0069,39.81444],[20.01062,39.81323],[20.01337,39.81878],[20.00878,39.83697],[20.02065,39.84493],[20.01791,39.86273],[20.01209,39.8732],[20.00277,39.87235],[19.9985,39.86847],[19.99079,39.87135],[19.98348,39.87],[19.97809,39.87342],[19.98138,39.87679],[19.9697,39.87733],[19.96262,39.8833],[19.95795,39.88326],[19.95475,39.89633],[19.94708,39.89651],[19.94512,39.89393],[19.93577,39.89487],[19.9351,39.90026],[19.91436,39.90006],[19.90835,39.91053],[19.91518,39.91098],[19.9286,39.92703],[19.93697,39.92556],[19.93826,39.92802],[19.93474,39.92952],[19.93654,39.94212],[19.914,39.96477],[19.91078,39.9786],[19.90303,39.98289],[19.89888,39.9921],[19.89384,39.99436],[19.88963,40.00665],[19.87327,40.02677],[19.85461,40.04405],[19.83612,40.05118],[19.82106,40.05257],[19.81206,40.05107],[19.81147,40.04644],[19.80307,40.04944],[19.80213,40.04583],[19.79644,40.04629],[19.79265,40.05318],[19.80316,40.0538],[19.8009,40.05866],[19.78263,40.07156],[19.77728,40.07163],[19.7775,40.05944],[19.77081,40.05962],[19.76711,40.07987],[19.75104,40.08124],[19.75247,40.08485],[19.74929,40.08558],[19.74922,40.08892],[19.75355,40.09],[19.75396,40.09488],[19.75106,40.09844],[19.73061,40.1013],[19.72547,40.10766],[19.71374,40.10907],[19.71099,40.11315],[19.69996,40.11264],[19.70048,40.12048],[19.69611,40.12197],[19.65589,40.12639],[19.6375,40.14235],[19.62676,40.14441],[19.60541,40.15738],[19.59077,40.16182],[19.57899,40.17272],[19.53287,40.18536],[19.52268,40.19204],[19.50245,40.19845],[19.50205,40.20153],[19.47966,40.21433],[19.4706,40.21524],[19.46235,40.22437],[19.44403,40.23478],[19.43075,40.25117],[19.41317,40.26479],[19.40481,40.27854],[19.3792,40.29821],[19.37141,40.30811],[19.37159,40.31479],[19.3778,40.31449],[19.363,40.35087],[19.35914,40.35107],[19.34793,40.37017],[19.33015,40.3902],[19.32319,40.39343],[19.3231,40.39703],[19.3098,40.40505],[19.30389,40.41292],[19.28894,40.41989],[19.29067,40.42454],[19.30453,40.42757],[19.30708,40.43338],[19.31904,40.43869],[19.32931,40.43114],[19.34135,40.43311],[19.35843,40.42167],[19.36332,40.41404],[19.37794,40.40667],[19.38268,40.39813],[19.40135,40.38247],[19.41066,40.3577],[19.40562,40.35814],[19.40839,40.35433],[19.40685,40.34147],[19.42025,40.32779],[19.41694,40.32595],[19.41956,40.32162],[19.43666,40.32198],[19.45831,40.32869],[19.48486,40.34894],[19.47971,40.36171],[19.48017,40.37866],[19.48437,40.3859],[19.4778,40.39455],[19.47768,40.39968],[19.48052,40.41512],[19.49263,40.4294],[19.49377,40.44636],[19.48811,40.45117],[19.48105,40.45159],[19.46202,40.46058],[19.43655,40.48642],[19.43186,40.48559],[19.42315,40.49857],[19.40068,40.50288],[19.38627,40.52193],[19.38832,40.52735],[19.37761,40.53208],[19.37661,40.53874],[19.38046,40.5465],[19.37822,40.55571],[19.36372,40.58426],[19.34895,40.60998],[19.3196,40.64524],[19.32942,40.65001],[19.33708,40.66064],[19.35052,40.66416],[19.39115,40.65499],[19.39561,40.6521],[19.39974,40.64125],[19.41219,40.63487],[19.41926,40.63523],[19.42069,40.64628],[19.43078,40.64694],[19.45247,40.6566],[19.45504,40.65484],[19.44955,40.64424],[19.45516,40.63507],[19.46301,40.63557],[19.4729,40.63012],[19.48902,40.62807],[19.47908,40.61895],[19.48934,40.62859],[19.47123,40.63137],[19.46473,40.63635],[19.45668,40.63483],[19.4506,40.64271],[19.45639,40.6546],[19.45415,40.65688],[19.44841,40.65744],[19.43578,40.64957],[19.41868,40.64587],[19.4179,40.63585],[19.41218,40.63564],[19.40296,40.64052],[19.39317,40.65528],[19.35314,40.66562],[19.34071,40.6639],[19.32223,40.64785],[19.31297,40.64746],[19.30695,40.65892],[19.30865,40.66511],[19.3224,40.668],[19.34964,40.69138],[19.36487,40.7165],[19.37691,40.80447],[19.37288,40.81725],[19.36874,40.82078],[19.37247,40.82712],[19.38613,40.83515],[19.39379,40.84706],[19.40224,40.88928],[19.41177,40.91483],[19.41587,40.92066],[19.45237,40.91564],[19.45983,40.93157],[19.45288,40.93002],[19.45366,40.93286],[19.46777,40.94473],[19.46602,40.94727],[19.4556,40.94379],[19.4542,40.94583],[19.46821,40.95487],[19.47462,40.96317],[19.47663,40.97886],[19.46838,40.99159],[19.46396,40.99217],[19.46555,40.99668],[19.44346,40.9996],[19.44526,40.99487],[19.44259,40.9933],[19.43921,41.00018],[19.44426,41.03029],[19.44185,41.03898],[19.45136,41.03847],[19.46994,41.04839],[19.47293,41.04415],[19.48372,41.05036],[19.47789,41.04948],[19.47582,41.04603],[19.47006,41.05053],[19.45302,41.0399],[19.44196,41.04155],[19.4488,41.04626],[19.45406,41.06045],[19.45677,41.10413],[19.45462,41.11643],[19.43733,41.14392],[19.43961,41.14793],[19.45963,41.14897],[19.47109,41.15977],[19.48212,41.19714],[19.50556,41.22004],[19.51895,41.25179],[19.5187,41.26283],[19.51289,41.27892],[19.48967,41.3048],[19.46697,41.31464],[19.45988,41.31185],[19.45236,41.31329],[19.45066,41.30583],[19.43402,41.31125],[19.43163,41.31892],[19.42007,41.32492],[19.4182,41.37162],[19.42268,41.37938],[19.42117,41.38526],[19.40544,41.39429],[19.40289,41.40118],[19.39142,41.41001],[19.39099,41.41359],[19.40409,41.40762],[19.40803,41.39984],[19.41558,41.39789],[19.44176,41.40107],[19.44824,41.40796],[19.44612,41.41102],[19.44201,41.40454],[19.43909,41.40553],[19.44833,41.43261],[19.46471,41.43976],[19.49234,41.46194],[19.50638,41.48215],[19.51122,41.49453],[19.51342,41.52485],[19.50995,41.53508],[19.50572,41.54041],[19.46963,41.54969],[19.46748,41.55377],[19.46163,41.55549],[19.46054,41.56549],[19.44931,41.58497],[19.45925,41.58395],[19.48137,41.57372],[19.50609,41.56917],[19.53816,41.57151],[19.55786,41.57753],[19.57874,41.59961],[19.58693,41.61614],[19.59538,41.62086],[19.59533,41.61522],[19.60309,41.61223],[19.60828,41.62513],[19.60679,41.63101],[19.60998,41.63388],[19.60571,41.64152],[19.59695,41.64056],[19.58917,41.64671],[19.57959,41.64316],[19.57739,41.62963],[19.57391,41.63001],[19.57975,41.62119],[19.5712,41.63109],[19.57788,41.64645],[19.58088,41.64597],[19.58274,41.64951],[19.58062,41.64635],[19.5765,41.64681],[19.57289,41.63984],[19.56911,41.64852],[19.56935,41.66059],[19.58226,41.70439],[19.5816,41.71875],[19.57111,41.75148],[19.57472,41.76615],[19.58068,41.76841],[19.59065,41.76699],[19.59179,41.762],[19.57334,41.75908],[19.57226,41.7538],[19.57623,41.75218],[19.59639,41.75551],[19.60876,41.76169],[19.60838,41.7717],[19.61739,41.78336],[19.61179,41.78843],[19.60377,41.78628],[19.60418,41.7832],[19.60917,41.78262],[19.60546,41.77192],[19.59688,41.76412],[19.59446,41.76524],[19.60096,41.77366],[19.602,41.78908],[19.59678,41.80801],[19.59241,41.81206],[19.58551,41.81352],[19.58525,41.80967],[19.58098,41.8091],[19.57424,41.81133],[19.5297,41.83657],[19.47684,41.85294],[19.41002,41.86166],[19.40323,41.85862],[19.39859,41.85162],[19.3788,41.84685],[19.37369,41.85204],[19.37523,41.87285],[19.38247,41.88502],[19.37021,41.88793],[19.36476,41.8994],[19.34333,41.90423],[19.34555,41.91145],[19.36364,41.91645],[19.37223,41.92312],[19.36879,41.93026],[19.35293,41.93876],[19.35113,41.95516],[19.35705,41.95897],[19.38721,41.96286],[19.38936,41.96623],[19.38706,41.96902],[19.37669,41.97413],[19.38496,41.99761],[19.39647,42.00509],[19.40913,42.00796],[19.4166,42.00511],[19.41947,42.00053],[19.41804,41.99563],[19.41192,41.99273],[19.41186,41.9881],[19.4187,41.98281],[19.43179,41.98235],[19.43918,41.98951],[19.4407,41.99787],[19.45915,42.00338],[19.46078,42.00712],[19.45832,42.00927],[19.46652,42.01144],[19.47435,42.02976],[19.48685,42.03955],[19.48339,42.04041],[19.49239,42.0531],[19.47364,42.05927],[19.47287,42.08416],[19.46529,42.09125],[19.47616,42.10525],[19.47731,42.11251],[19.47157,42.13111],[19.45804,42.1489],[19.4508,42.14855],[19.43508,42.1568],[19.43456,42.17091],[19.42858,42.18238],[19.39904,42.19044],[19.39029,42.19533],[19.38913,42.20006],[19.37869,42.2035],[19.35895,42.21914],[19.36048,42.22686],[19.3573,42.23631],[19.36298,42.24358],[19.36286,42.24845],[19.36948,42.25265],[19.37644,42.2643],[19.38399,42.26633],[19.38321,42.27005],[19.38867,42.27256],[19.39353,42.27173],[19.39305,42.27711],[19.38819,42.27782],[19.38749,42.28499],[19.39704,42.29693],[19.40796,42.30248],[19.43071,42.33333],[19.42928,42.33524],[19.42007,42.32982],[19.41388,42.35106],[19.42219,42.35549],[19.42437,42.35933],[19.4223,42.36466],[19.42695,42.37353],[19.43999,42.38351],[19.44784,42.38586],[19.45424,42.38414],[19.47252,42.3924],[19.48725,42.41117],[19.4928,42.42461],[19.4982,42.4239],[19.49852,42.43168],[19.50332,42.43732],[19.51959,42.44274],[19.51856,42.4489],[19.53112,42.45849],[19.54802,42.48661],[19.55234,42.48686],[19.55867,42.49485],[19.56293,42.50121],[19.56199,42.51392],[19.60156,42.53028],[19.60688,42.53846],[19.61559,42.54306],[19.61325,42.55829],[19.60989,42.56198],[19.61235,42.56977],[19.61015,42.57545],[19.66299,42.62873],[19.67995,42.62819],[19.68826,42.63778],[19.69964,42.64442],[19.6992,42.65064],[19.70457,42.65525],[19.72717,42.66078],[19.73348,42.65608],[19.7374,42.64307],[19.75261,42.63989],[19.75668,42.63633],[19.7494,42.62882],[19.7537,42.6201],[19.75178,42.61351],[19.76046,42.61047],[19.76677,42.59903],[19.77431,42.5928],[19.77564,42.58644],[19.77487,42.58215],[19.77146,42.58137],[19.75154,42.58144],[19.75311,42.57699],[19.74869,42.57582],[19.74805,42.57239],[19.75438,42.56498],[19.74865,42.55671],[19.74965,42.55089],[19.74358,42.54489],[19.75858,42.52305],[19.76134,42.50855],[19.76655,42.50162],[19.78077,42.49671],[19.79268,42.48135],[19.80731,42.47332],[19.8313,42.46635],[19.83947,42.47388],[19.83713,42.47933],[19.84915,42.47774],[19.85413,42.48478],[19.8647,42.48126],[19.87238,42.4853],[19.87603,42.49532],[19.88548,42.49427],[19.89454,42.48554],[19.89901,42.48509],[19.90602,42.5075],[19.91847,42.50851],[19.94304,42.51835],[19.95195,42.51153],[19.9663,42.51007],[19.98195,42.5135],[20.00299,42.50843],[20.01597,42.53069],[20.01491,42.54167],[20.0502,42.55029],[20.0569,42.55957],[20.08715,42.5517],[20.09799,42.53424],[20.16521,42.50663],[20.16971,42.49148],[20.18026,42.48659],[20.18312,42.47402],[20.19679,42.46235],[20.19187,42.45631],[20.1929,42.45261],[20.20303,42.44743],[20.21104,42.43816],[20.21766,42.43664],[20.22761,42.41943],[20.22514,42.41374],[20.21399,42.40962],[20.20814,42.40133],[20.23923,42.38113],[20.24074,42.3736],[20.24615,42.36762],[20.24467,42.35261],[20.23614,42.34711],[20.24782,42.33279],[20.24265,42.32701],[20.24811,42.32272],[20.25539,42.32268],[20.25758,42.31901],[20.29278,42.32343],[20.30551,42.31491],[20.32733,42.32773],[20.33917,42.32767],[20.35402,42.3171],[20.35339,42.30963],[20.39468,42.29866],[20.40477,42.28487],[20.45636,42.27233],[20.47538,42.25875],[20.4769,42.25346],[20.49537,42.2421],[20.50225,42.22815],[20.51411,42.22434],[20.52388,42.21152],[20.53149,42.18594],[20.5427,42.17153],[20.54299,42.1662],[20.54705,42.16437],[20.54364,42.16009],[20.55813,42.14715],[20.55546,42.14029],[20.56839,42.12093],[20.56022,42.10691],[20.56697,42.09888],[20.55515,42.08405],[20.5591,42.07859],[20.55776,42.0752],[20.57039,42.05869],[20.5759,42.05813],[20.59472,42.04277],[20.59727,42.01968],[20.60155,42.01703],[20.61162,41.98668],[20.62432,41.97422],[20.62642,41.96283],[20.61807,41.93851],[20.60595,41.93109],[20.59107,41.92707],[20.58528,41.91732],[20.57479,41.91646],[20.59337,41.88453],[20.59438,41.87717],[20.57104,41.87413],[20.55832,41.86109],[20.56381,41.84093],[20.56122,41.82694],[20.56952,41.80698],[20.56909,41.80119],[20.57337,41.79772],[20.5733,41.78822],[20.56384,41.7861],[20.5473,41.78966],[20.54567,41.78072],[20.53165,41.77668],[20.53431,41.76652],[20.52811,41.76217],[20.5276,41.75607],[20.52054,41.75161],[20.51916,41.7353],[20.51426,41.72877],[20.51765,41.71499],[20.52725,41.70473],[20.52968,41.68676],[20.51652,41.66194],[20.52651,41.65212],[20.52529,41.636],[20.53276,41.63301],[20.54475,41.6217],[20.54218,41.61969],[20.54676,41.61436],[20.54742,41.60734],[20.55531,41.60068],[20.55313,41.5952],[20.55755,41.58157],[20.54184,41.57811],[20.51803,41.56331],[20.50902,41.56444],[20.48932,41.55892],[20.46803,41.55841],[20.4564,41.55301],[20.45789,41.55023]]],[[[19.61104,41.77558],[19.60793,41.77657],[19.60819,41.78043],[19.61432,41.78255],[19.61104,41.77558]]],[[[19.38122,41.99655],[19.37362,42.00499],[19.37278,42.02237],[19.36918,42.03093],[19.37902,42.05175],[19.37845,42.07228],[19.38475,42.07889],[19.40724,42.07005],[19.41896,42.0697],[19.4765,42.05482],[19.48977,42.05435],[19.49053,42.05128],[19.48006,42.03549],[19.47315,42.02949],[19.46864,42.01634],[19.45863,42.01056],[19.45574,42.00205],[19.43778,41.99744],[19.43676,41.99011],[19.43073,41.98349],[19.41796,41.98511],[19.41319,41.98992],[19.42197,41.99697],[19.41813,42.0059],[19.41013,42.00951],[19.39641,42.0074],[19.38122,41.99655]]],[[[19.4631,40.98536],[19.4515,40.98905],[19.45384,40.99049],[19.4631,40.98536]]],[[[19.26386,40.50655],[19.26572,40.51274],[19.27039,40.51435],[19.27667,40.50546],[19.28959,40.50026],[19.29335,40.49107],[19.28622,40.47389],[19.27948,40.47469],[19.27403,40.49053],[19.26826,40.49263],[19.26365,40.50193],[19.26386,40.50655]]]]}}]}