{"type":"FeatureCollection","features":[{"type":"Feature","properties":{"ISO_A3":"ARE","WB_A3":"ARE","WB_NAME":"United Arab Emirates","WB_REGION":"MEA"},"geometry":{"type":"MultiPolygon","coordinates":[[[[56.0811,24.74334],[56.03616,24.81075],[55.99638,24.85968],[55.97795,24.87772],[55.97975,24.89504],[56.06176,24.871],[56.05112,24.87642],[56.04193,24.88873],[56.04076,24.90886],[56.06344,24.94778],[56.04156,24.94687],[56.04594,24.96813],[56.0301,24.97335],[56.00677,24.99442],[55.96114,25.00563],[55.9111,24.9653],[55.85162,24.96553],[55.81286,24.9107],[55.81525,24.79942],[55.82023,24.79975],[55.82241,24.78967],[55.83212,24.78016],[55.82795,24.72143],[55.83712,24.67091],[55.79426,24.63687],[55.81683,24.61526],[55.76807,24.57239],[55.76534,24.52963],[55.78575,24.48619],[55.82093,24.44027],[55.82788,24.41],[55.8347,24.41001],[55.83442,24.32743],[55.80798,24.31042],[55.7916,24.27935],[55.76793,24.26218],[55.75947,24.26107],[55.753,24.23488],[55.76567,24.23227],[55.77683,24.23486],[55.8082,24.21215],[55.83341,24.20135],[55.85342,24.21131],[55.87076,24.21548],[55.95525,24.22323],[55.95119,24.21407],[55.96329,24.21738],[55.97227,24.18509],[55.96128,24.17031],[55.97524,24.14618],[56.00027,24.1177],[56.01493,24.0899],[56.01813,24.06603],[55.95987,24.06053],[55.90404,24.04677],[55.85487,24.02199],[55.84293,24.02065],[55.83374,24.01375],[55.81976,24.02085],[55.80186,24.02501],[55.78017,24.05529],[55.75835,24.05131],[55.74311,24.05718],[55.73053,24.05723],[55.67954,24.03559],[55.63336,24.02014],[55.58516,23.99638],[55.57461,23.98745],[55.49478,23.95322],[55.48512,23.94432],[55.48486,23.93999],[55.49854,23.92378],[55.50023,23.90584],[55.51962,23.88568],[55.53315,23.85212],[55.53518,23.84328],[55.53179,23.80741],[55.5359,23.77124],[55.53184,23.75949],[55.56013,23.7341],[55.56873,23.72138],[55.57216,23.70359],[55.57158,23.62613],[55.56537,23.61483],[55.53494,23.5793],[55.52341,23.55485],[55.49828,23.53338],[55.44721,23.45593],[55.43689,23.41167],[55.43068,23.39941],[55.4164,23.38198],[55.40167,23.39231],[55.29908,23.2069],[55.28038,23.17696],[55.24133,23.12686],[55.23247,23.11041],[55.23144,23.08532],[55.22563,23.07241],[55.23012,23.04791],[55.2185,23.03329],[55.21658,23.02624],[55.22051,22.99452],[55.21729,22.98612],[55.22002,22.97834],[55.21877,22.952],[55.21364,22.93556],[55.21538,22.90957],[55.22564,22.8849],[55.22325,22.85928],[55.21822,22.85099],[55.22194,22.83268],[55.22657,22.82512],[55.22367,22.81726],[55.22809,22.79153],[55.22072,22.76491],[55.21335,22.70577],[55.20833,22.70833],[55.13737,22.63153],[53.54068,22.82843],[52.58127,22.93881],[51.96644,23.68193],[51.59022,24.12692],[51.59022,24.25372],[51.60088,24.25977],[51.59714,24.26982],[51.6045,24.28266],[51.5996,24.28603],[51.59718,24.30869],[51.59326,24.30999],[51.59486,24.32182],[51.59111,24.33214],[51.59594,24.34241],[51.5922,24.35427],[51.58545,24.35404],[51.58226,24.36229],[51.59226,24.36765],[51.59006,24.37693],[51.59541,24.37999],[51.58297,24.38407],[51.57519,24.38226],[51.57689,24.38534],[51.5971,24.38012],[51.59665,24.37536],[51.60463,24.36838],[51.60935,24.35626],[51.61693,24.35623],[51.62141,24.35158],[51.6317,24.33197],[51.62872,24.32581],[51.63667,24.31419],[51.63227,24.30546],[51.63288,24.28589],[51.62866,24.28359],[51.62736,24.27691],[51.62827,24.26197],[51.63397,24.25088],[51.63503,24.23878],[51.63192,24.23313],[51.63757,24.21251],[51.63181,24.21177],[51.6322,24.20456],[51.64567,24.20527],[51.64852,24.21272],[51.65611,24.21604],[51.66841,24.23426],[51.67328,24.25123],[51.66772,24.26335],[51.66728,24.28677],[51.6589,24.29453],[51.65866,24.30303],[51.6511,24.30692],[51.65449,24.31025],[51.65132,24.32185],[51.65315,24.32364],[51.65652,24.32363],[51.66084,24.31666],[51.66148,24.30482],[51.67055,24.29371],[51.67247,24.28521],[51.66854,24.2842],[51.67004,24.2775],[51.67411,24.27696],[51.68871,24.25064],[51.68943,24.22696],[51.69539,24.21393],[51.70912,24.20975],[51.72053,24.21678],[51.71565,24.24897],[51.7455,24.28886],[51.76651,24.27987],[51.77824,24.26977],[51.7817,24.26075],[51.77484,24.24174],[51.78205,24.22703],[51.77371,24.216],[51.77792,24.19333],[51.76774,24.18025],[51.76934,24.16635],[51.76424,24.15762],[51.76929,24.13469],[51.7797,24.11739],[51.781,24.10065],[51.78734,24.0826],[51.78628,24.06973],[51.78087,24.05612],[51.78396,24.03319],[51.8002,24.00789],[51.82809,23.98843],[51.84823,23.98253],[51.87482,23.97994],[51.87366,23.97364],[51.9042,23.97436],[51.91874,23.97118],[51.9286,23.95851],[51.93536,23.96439],[51.92623,23.97989],[51.92643,23.98864],[51.94443,23.99818],[51.95563,23.99721],[51.96171,23.98585],[51.98969,23.98091],[52.02499,23.98132],[52.0214,23.98817],[52.02433,23.98725],[52.03928,23.96501],[52.05449,23.95783],[52.07269,23.95757],[52.09251,23.94894],[52.09531,23.94892],[52.09481,23.95703],[52.10186,23.96174],[52.10301,23.9656],[52.09968,23.96948],[52.14413,23.95925],[52.19373,23.96196],[52.28217,23.98441],[52.31704,23.99775],[52.3275,24.0068],[52.32811,24.01117],[52.3566,24.02984],[52.38223,24.04222],[52.41455,24.05042],[52.44838,24.06824],[52.45764,24.08102],[52.45827,24.0872],[52.45028,24.09619],[52.43449,24.10466],[52.43126,24.11628],[52.4389,24.12277],[52.447,24.11973],[52.4442,24.10792],[52.4458,24.10018],[52.4593,24.09143],[52.46575,24.09163],[52.47564,24.09912],[52.50064,24.10287],[52.52493,24.11833],[52.56549,24.13323],[52.57243,24.13882],[52.5707,24.14604],[52.56147,24.14846],[52.56161,24.17187],[52.56793,24.17181],[52.56666,24.18327],[52.57,24.18054],[52.57146,24.18528],[52.59236,24.19652],[52.59226,24.21119],[52.597,24.20882],[52.59222,24.2081],[52.59461,24.19752],[52.60892,24.19699],[52.62706,24.1901],[52.63326,24.18116],[52.63606,24.16981],[52.66057,24.15616],[52.66822,24.14038],[52.66808,24.12983],[52.6742,24.12616],[52.67849,24.13267],[52.69404,24.14241],[52.69437,24.14614],[52.72152,24.14184],[52.72239,24.16499],[52.72208,24.14158],[52.72992,24.14111],[52.735,24.14298],[52.73563,24.14837],[52.73954,24.14717],[52.74976,24.13586],[52.76617,24.12628],[52.80047,24.13231],[52.82981,24.14496],[52.84389,24.13939],[52.84388,24.12896],[52.86207,24.12681],[52.8987,24.13897],[52.91635,24.13772],[52.91642,24.14235],[52.91979,24.14282],[52.92666,24.13373],[52.942,24.128],[52.94323,24.12606],[52.93943,24.12508],[52.94558,24.10519],[52.95981,24.10063],[52.95971,24.1032],[52.96882,24.10334],[52.97369,24.11036],[52.98179,24.10807],[52.97992,24.11439],[52.97529,24.11407],[52.9717,24.12698],[52.96724,24.1282],[52.96646,24.13219],[52.96984,24.13318],[52.96579,24.14352],[52.97774,24.15521],[52.9825,24.15463],[52.99884,24.14091],[53.02788,24.13345],[53.02772,24.14091],[53.01518,24.14597],[53.00817,24.15532],[53.0102,24.15967],[53.02363,24.14869],[53.02815,24.14168],[53.02898,24.13241],[53.04014,24.12865],[53.03714,24.12535],[53.04167,24.11911],[53.06667,24.12199],[53.09263,24.13232],[53.10879,24.13493],[53.1222,24.1238],[53.13841,24.12049],[53.14827,24.11482],[53.15015,24.10167],[53.13606,24.09711],[53.15283,24.09443],[53.15494,24.10315],[53.15035,24.11389],[53.16475,24.10314],[53.17008,24.10371],[53.17185,24.10857],[53.1859,24.11068],[53.19021,24.1168],[53.2065,24.12685],[53.19876,24.12517],[53.19982,24.12155],[53.1877,24.11761],[53.18257,24.11266],[53.16234,24.1096],[53.13842,24.121],[53.12361,24.1243],[53.12718,24.12798],[53.12426,24.12969],[53.12115,24.12755],[53.11196,24.13167],[53.10949,24.13492],[53.12825,24.13363],[53.13441,24.14126],[53.13074,24.15649],[53.13324,24.16379],[53.14037,24.17064],[53.14457,24.17019],[53.14535,24.16684],[53.16941,24.16341],[53.18351,24.1515],[53.1808,24.14909],[53.18342,24.1461],[53.18592,24.15065],[53.18934,24.14807],[53.20056,24.14855],[53.20212,24.14107],[53.21149,24.13193],[53.2314,24.09999],[53.25344,24.09414],[53.26396,24.08678],[53.27549,24.08892],[53.28682,24.08001],[53.30817,24.09062],[53.29761,24.10351],[53.29193,24.09948],[53.26333,24.09836],[53.2593,24.10061],[53.25636,24.10837],[53.25773,24.11504],[53.25269,24.11512],[53.25484,24.11792],[53.26157,24.11533],[53.25914,24.12351],[53.26179,24.13042],[53.27718,24.13688],[53.28574,24.12929],[53.29282,24.11015],[53.30861,24.09138],[53.32041,24.10098],[53.32256,24.1115],[53.34101,24.1008],[53.34996,24.10014],[53.37062,24.11089],[53.39804,24.1084],[53.40534,24.10893],[53.4075,24.11198],[53.40807,24.10541],[53.42097,24.10547],[53.42638,24.10988],[53.42851,24.11911],[53.43761,24.12578],[53.44463,24.12657],[53.46436,24.11776],[53.46303,24.11393],[53.46776,24.10459],[53.47358,24.10154],[53.48722,24.10402],[53.48704,24.1017],[53.49572,24.10156],[53.51818,24.08897],[53.52577,24.09026],[53.53859,24.08697],[53.56728,24.06436],[53.57259,24.05656],[53.5718,24.0522],[53.57731,24.04734],[53.60858,24.04244],[53.65853,24.04698],[53.67936,24.05176],[53.70538,24.06378],[53.70726,24.06658],[53.70216,24.07027],[53.70361,24.07294],[53.71822,24.06137],[53.73658,24.05538],[53.77054,24.05837],[53.80955,24.04917],[53.82227,24.05421],[53.82958,24.06205],[53.82843,24.06721],[53.84584,24.06882],[53.85271,24.06291],[53.85901,24.06304],[53.85386,24.08963],[53.91092,24.09807],[53.91553,24.0787],[53.91059,24.11428],[53.90725,24.11512],[53.91123,24.11761],[53.91332,24.0988],[53.92273,24.0999],[53.92826,24.07177],[53.942,24.07253],[53.94655,24.0754],[53.94498,24.08032],[53.98683,24.09738],[54.00567,24.098],[54.03764,24.10853],[54.05458,24.1032],[54.05241,24.11203],[54.0699,24.11931],[54.07179,24.12269],[54.05788,24.11792],[54.02665,24.13558],[54.02288,24.13512],[54.01856,24.14018],[54.06038,24.119],[54.0926,24.13145],[54.09629,24.12972],[54.09927,24.13427],[54.1489,24.1581],[54.16326,24.16827],[54.16632,24.16923],[54.17722,24.15811],[54.17613,24.16298],[54.16701,24.16976],[54.17195,24.18103],[54.17653,24.18305],[54.17082,24.21278],[54.16151,24.22161],[54.15319,24.21747],[54.15235,24.21115],[54.14179,24.21314],[54.14723,24.20822],[54.13134,24.21628],[54.11657,24.21228],[54.12957,24.19555],[54.11899,24.19187],[54.10977,24.19054],[54.0981,24.20232],[54.10011,24.18393],[54.08426,24.17784],[54.08131,24.17817],[54.07907,24.18456],[54.07407,24.1824],[54.07807,24.17296],[54.06748,24.16414],[54.05572,24.1634],[54.05692,24.16613],[54.0431,24.17602],[54.02771,24.17469],[54.01695,24.18515],[54.01614,24.18977],[54.0255,24.19741],[54.03106,24.19957],[54.03925,24.19677],[54.04315,24.19775],[54.04333,24.20225],[54.04781,24.20247],[54.0575,24.19597],[54.06948,24.19903],[54.07322,24.18264],[54.07862,24.18558],[54.07584,24.19684],[54.0652,24.20255],[54.06109,24.21057],[54.07685,24.20792],[54.09658,24.19912],[54.09791,24.20249],[54.09482,24.20685],[54.0719,24.22197],[54.07214,24.22994],[54.0943,24.22973],[54.09727,24.22271],[54.10639,24.21607],[54.12123,24.21297],[54.13022,24.21639],[54.13126,24.21988],[54.13855,24.22015],[54.1391,24.22685],[54.12319,24.2295],[54.11719,24.23441],[54.10951,24.24558],[54.1047,24.24754],[54.10638,24.25362],[54.11501,24.24439],[54.12151,24.24195],[54.12487,24.24227],[54.11858,24.24742],[54.12016,24.25234],[54.12355,24.25124],[54.14411,24.23491],[54.15772,24.2407],[54.16096,24.24642],[54.15586,24.24864],[54.15184,24.24663],[54.15177,24.24997],[54.14566,24.25359],[54.12093,24.26174],[54.11079,24.26965],[54.09677,24.26308],[54.10896,24.27],[54.0993,24.27522],[54.10308,24.27555],[54.1044,24.27904],[54.09007,24.29227],[54.09001,24.2951],[54.1006,24.298],[54.144,24.32763],[54.1506,24.32737],[54.15006,24.30781],[54.16493,24.29497],[54.16787,24.28268],[54.19477,24.24614],[54.19805,24.22434],[54.21246,24.20017],[54.23323,24.21251],[54.24832,24.2151],[54.26332,24.22193],[54.27948,24.22042],[54.26242,24.23747],[54.27883,24.24407],[54.29366,24.24588],[54.29713,24.24131],[54.27912,24.24369],[54.26639,24.23562],[54.2799,24.22043],[54.2938,24.2262],[54.30584,24.22706],[54.30603,24.22475],[54.31675,24.22185],[54.33135,24.2279],[54.33674,24.22516],[54.34258,24.22745],[54.34464,24.23597],[54.35981,24.23521],[54.3552,24.24117],[54.32116,24.23235],[54.28757,24.22905],[54.28561,24.23734],[54.3299,24.2433],[54.38629,24.25702],[54.41547,24.27102],[54.43592,24.28693],[54.44713,24.3014],[54.48807,24.30349],[54.48817,24.3125],[54.52565,24.3126],[54.52515,24.31632],[54.51279,24.31689],[54.45868,24.31368],[54.45316,24.31577],[54.45078,24.32242],[54.45422,24.33277],[54.46086,24.33108],[54.45709,24.34388],[54.46245,24.36352],[54.46722,24.36411],[54.46715,24.38135],[54.51739,24.38321],[54.52009,24.38866],[54.51694,24.39208],[54.49111,24.39126],[54.48742,24.39313],[54.48753,24.40175],[54.4844,24.40376],[54.47525,24.39807],[54.46459,24.39713],[54.45509,24.40147],[54.45682,24.40638],[54.46614,24.40423],[54.46694,24.4063],[54.42453,24.4196],[54.45341,24.40838],[54.45142,24.40269],[54.44734,24.40301],[54.42019,24.41207],[54.41474,24.41763],[54.41549,24.42215],[54.38243,24.43148],[54.39659,24.42594],[54.39839,24.42005],[54.39191,24.4211],[54.36672,24.43018],[54.34301,24.44867],[54.34658,24.45259],[54.34177,24.45418],[54.33515,24.4484],[54.33116,24.45091],[54.33337,24.453],[54.32202,24.45795],[54.31346,24.45085],[54.30925,24.4509],[54.30395,24.4557],[54.30192,24.46492],[54.31921,24.46471],[54.32118,24.47118],[54.31136,24.47718],[54.31584,24.48459],[54.31769,24.48346],[54.31431,24.47736],[54.3166,24.47534],[54.32037,24.48312],[54.32674,24.48079],[54.32925,24.47518],[54.32386,24.47097],[54.32385,24.46479],[54.34552,24.4765],[54.35196,24.49127],[54.37352,24.50862],[54.36841,24.51085],[54.37224,24.51593],[54.36782,24.51251],[54.36158,24.5151],[54.36354,24.52903],[54.36648,24.52959],[54.36506,24.5369],[54.38157,24.54079],[54.38687,24.53586],[54.38046,24.52649],[54.38247,24.52421],[54.3936,24.51669],[54.39593,24.51956],[54.39031,24.52602],[54.39076,24.53156],[54.39952,24.52245],[54.39698,24.5161],[54.38766,24.51118],[54.38735,24.50616],[54.38168,24.50156],[54.39285,24.48452],[54.41185,24.46942],[54.40596,24.46224],[54.4003,24.4642],[54.41075,24.44792],[54.42094,24.4441],[54.44171,24.44536],[54.46154,24.4372],[54.46724,24.44051],[54.47036,24.43208],[54.48513,24.42358],[54.5197,24.42325],[54.61024,24.44927],[54.61269,24.45369],[54.61086,24.47578],[54.6329,24.48488],[54.63545,24.49109],[54.6367,24.49986],[54.63244,24.50957],[54.607,24.51675],[54.60425,24.5207],[54.60543,24.52535],[54.60854,24.52411],[54.61452,24.52781],[54.61971,24.53612],[54.61946,24.54152],[54.62797,24.53792],[54.61739,24.54689],[54.633,24.55459],[54.64579,24.58489],[54.64723,24.59804],[54.63624,24.61407],[54.63749,24.62258],[54.65396,24.63699],[54.66466,24.65233],[54.68118,24.65696],[54.68529,24.66294],[54.68294,24.66818],[54.66084,24.67594],[54.65947,24.68106],[54.66545,24.68527],[54.66464,24.69118],[54.65515,24.69424],[54.6549,24.70003],[54.66598,24.702],[54.66334,24.73052],[54.66176,24.73191],[54.65569,24.72512],[54.64975,24.72657],[54.64784,24.72346],[54.63744,24.72252],[54.63593,24.72751],[54.64344,24.73278],[54.64495,24.72727],[54.65773,24.7366],[54.66982,24.73808],[54.67449,24.75204],[54.66959,24.74271],[54.65627,24.73928],[54.64823,24.7326],[54.64694,24.74132],[54.64407,24.73665],[54.643,24.74126],[54.66919,24.75633],[54.67786,24.76727],[54.68337,24.76684],[54.68002,24.77022],[54.69268,24.78139],[54.7087,24.81444],[54.74621,24.79739],[54.74682,24.8028],[54.7414,24.80632],[54.73866,24.81734],[54.74563,24.837],[54.76172,24.83595],[54.76097,24.8308],[54.75066,24.8318],[54.75879,24.82639],[54.7583,24.82227],[54.75369,24.82014],[54.75776,24.81351],[54.75501,24.80948],[54.76576,24.8072],[54.76878,24.80364],[54.76276,24.80162],[54.75617,24.80744],[54.74856,24.80746],[54.74646,24.79148],[54.75169,24.78281],[54.74712,24.77039],[54.74845,24.76707],[54.75139,24.76788],[54.76602,24.77685],[54.76981,24.78578],[54.78659,24.80108],[54.7859,24.80776],[54.77971,24.80741],[54.77043,24.81422],[54.77802,24.81536],[54.78754,24.82656],[54.78342,24.82869],[54.77986,24.82246],[54.77025,24.82438],[54.7806,24.83624],[54.77481,24.83705],[54.77224,24.83122],[54.76602,24.83216],[54.76209,24.83905],[54.76687,24.84761],[54.77496,24.84426],[54.8139,24.85885],[54.82421,24.86582],[54.82358,24.86954],[54.82976,24.87066],[54.84058,24.88111],[54.84296,24.89053],[54.86733,24.86747],[54.88969,24.86213],[54.88937,24.8647],[54.86731,24.8685],[54.85224,24.88385],[54.85258,24.88861],[54.85979,24.89554],[54.88914,24.91126],[54.90126,24.9122],[54.96274,24.96451],[54.98019,24.96758],[55.00274,24.97831],[54.9904,24.99949],[54.99461,25.00084],[55.00447,24.98476],[55.00484,24.97923],[55.03045,24.99283],[55.0413,24.994],[55.04477,24.9979],[55.04342,25.00303],[55.04712,25.00128],[55.05491,24.98106],[55.0495,24.97558],[55.05604,24.97232],[55.07944,24.99244],[55.08151,24.99529],[55.07908,24.99745],[55.06153,24.98204],[55.05886,24.99063],[55.07514,25.00525],[55.07213,25.0083],[55.05709,24.99536],[55.05313,24.99595],[55.04626,25.01992],[55.05948,25.02292],[55.06774,25.01814],[55.07754,25.0238],[55.13302,25.08034],[55.13797,25.0889],[55.14334,25.08896],[55.15181,25.09885],[55.15289,25.1022],[55.13163,25.11558],[55.12669,25.11577],[55.12577,25.12],[55.11729,25.12015],[55.1192,25.12468],[55.1369,25.13146],[55.13247,25.12562],[55.13538,25.11987],[55.14044,25.12173],[55.14254,25.11417],[55.15597,25.10404],[55.21906,25.1766],[55.25343,25.22539],[55.25931,25.22957],[55.26636,25.24123],[55.26438,25.25073],[55.26632,25.25384],[55.27033,25.25016],[55.26757,25.2554],[55.2731,25.25469],[55.26962,25.26057],[55.26251,25.2628],[55.26333,25.26538],[55.26726,25.26736],[55.27047,25.26058],[55.27732,25.25603],[55.288,25.27159],[55.27606,25.26515],[55.27488,25.26886],[55.29153,25.28218],[55.2945,25.27167],[55.29049,25.26544],[55.30779,25.26281],[55.32039,25.25138],[55.32233,25.25474],[55.30803,25.2659],[55.2936,25.26586],[55.29487,25.27553],[55.33276,25.29861],[55.34937,25.32632],[55.35489,25.32639],[55.34773,25.31138],[55.35286,25.29819],[55.3571,25.29888],[55.35775,25.303],[55.35189,25.30731],[55.35093,25.31579],[55.35954,25.30675],[55.36378,25.3077],[55.36416,25.31079],[55.35673,25.31611],[55.35623,25.32855],[55.36678,25.32626],[55.36712,25.32215],[55.364,25.32237],[55.36593,25.31596],[55.37359,25.31476],[55.37288,25.32504],[55.35624,25.33077],[55.36954,25.35254],[55.36731,25.36075],[55.37215,25.359],[55.38477,25.3684],[55.38331,25.3716],[55.37515,25.36765],[55.37793,25.37141],[55.38498,25.37329],[55.38885,25.37025],[55.37578,25.35235],[55.3772,25.33075],[55.38506,25.32492],[55.38964,25.3314],[55.38333,25.33776],[55.38493,25.34499],[55.37747,25.35262],[55.37868,25.35727],[55.38626,25.36224],[55.39427,25.37777],[55.42487,25.3992],[55.44252,25.42512],[55.44754,25.42028],[55.45232,25.42355],[55.45645,25.4214],[55.4539,25.39899],[55.46655,25.39552],[55.46681,25.3981],[55.45773,25.39916],[55.45654,25.40314],[55.46117,25.40704],[55.45687,25.4106],[55.4578,25.4155],[55.46304,25.41581],[55.4597,25.42247],[55.46928,25.42643],[55.4824,25.41949],[55.47236,25.42929],[55.49227,25.42332],[55.50268,25.42909],[55.50422,25.44223],[55.49672,25.43044],[55.48594,25.43149],[55.48461,25.43533],[55.4785,25.43707],[55.48412,25.44073],[55.48324,25.44317],[55.47613,25.44502],[55.47275,25.44319],[55.47438,25.43754],[55.46768,25.42976],[55.45994,25.42569],[55.45479,25.42923],[55.45314,25.42561],[55.45001,25.42635],[55.47601,25.4548],[55.4849,25.4693],[55.48627,25.47305],[55.482,25.47442],[55.48481,25.47638],[55.48879,25.475],[55.49017,25.47811],[55.49626,25.46685],[55.50051,25.46753],[55.51221,25.46109],[55.51558,25.46344],[55.51599,25.47657],[55.50432,25.47992],[55.49813,25.476],[55.49543,25.47687],[55.49581,25.48074],[55.52266,25.52167],[55.55749,25.58531],[55.57552,25.59655],[55.57967,25.60509],[55.58158,25.59996],[55.58215,25.5871],[55.57937,25.58282],[55.57031,25.58093],[55.56489,25.58358],[55.56745,25.57126],[55.55981,25.54597],[55.56445,25.52491],[55.57259,25.53258],[55.58455,25.52832],[55.60122,25.53363],[55.60917,25.53268],[55.62526,25.539],[55.62732,25.53323],[55.61672,25.52979],[55.61675,25.52722],[55.6081,25.52688],[55.60153,25.51909],[55.6034,25.51641],[55.61976,25.52441],[55.63076,25.53005],[55.64085,25.54044],[55.64964,25.54065],[55.65612,25.54457],[55.6582,25.54896],[55.64635,25.55528],[55.64184,25.55318],[55.63994,25.55805],[55.64339,25.56684],[55.64938,25.56355],[55.65142,25.57154],[55.64715,25.58565],[55.67058,25.59616],[55.67632,25.60342],[55.67093,25.60286],[55.67087,25.60826],[55.69584,25.62186],[55.6995,25.62524],[55.69451,25.62726],[55.69746,25.63011],[55.72941,25.64146],[55.73898,25.649],[55.74825,25.65861],[55.74263,25.66628],[55.74344,25.6704],[55.75303,25.66328],[55.77517,25.69126],[55.7823,25.68887],[55.78394,25.69468],[55.78679,25.69444],[55.78683,25.69045],[55.79023,25.69087],[55.78705,25.69689],[55.7811,25.69465],[55.77696,25.69693],[55.79802,25.72104],[55.79989,25.719],[55.79654,25.71279],[55.79969,25.7105],[55.80106,25.71502],[55.80903,25.71354],[55.82261,25.71918],[55.82322,25.71558],[55.83517,25.71349],[55.85868,25.7196],[55.8807,25.73431],[55.87556,25.73736],[55.88269,25.73522],[55.90017,25.74887],[55.95066,25.8074],[55.95236,25.79274],[55.96587,25.79104],[55.96683,25.7949],[55.95189,25.79737],[55.9541,25.80433],[55.9522,25.81037],[55.96265,25.81842],[55.96948,25.81795],[55.9864,25.8339],[56.00464,25.86336],[56.00948,25.86223],[56.01144,25.86572],[56.00728,25.86981],[56.01555,25.88556],[56.03293,25.88195],[56.03769,25.89163],[56.05123,25.88812],[56.05556,25.89767],[56.06052,25.90027],[56.05591,25.90693],[56.05322,25.9239],[56.05007,25.92594],[56.0469,25.91382],[56.03798,25.90836],[56.02999,25.8939],[56.02905,25.88617],[56.02149,25.88869],[56.02144,25.89461],[56.04145,25.93566],[56.04977,25.96351],[56.05623,25.95686],[56.05254,25.95555],[56.05187,25.94988],[56.05788,25.94606],[56.05793,25.93963],[56.05992,25.94016],[56.06015,25.94685],[56.05385,25.95118],[56.05779,25.95764],[56.05104,25.9648],[56.05903,25.98004],[56.05149,25.98012],[56.0563,25.98298],[56.06259,25.98057],[56.07091,25.98989],[56.08667,26.05054],[56.10706,26.05566],[56.12203,26.05087],[56.12827,26.05672],[56.13316,26.05596],[56.14201,26.06698],[56.15342,26.06939],[56.16293,26.05384],[56.16129,26.04936],[56.17179,26.02359],[56.18218,26.01909],[56.18038,25.99537],[56.18873,25.98331],[56.19153,25.97198],[56.18034,25.95347],[56.17068,25.94679],[56.16592,25.94775],[56.16547,25.93965],[56.1729,25.92847],[56.17313,25.91886],[56.17958,25.9172],[56.17843,25.89317],[56.15978,25.87551],[56.1642,25.86501],[56.16298,25.85795],[56.15266,25.84803],[56.14157,25.82787],[56.14139,25.8126],[56.15489,25.79734],[56.15673,25.76104],[56.1677,25.72565],[56.15861,25.68935],[56.17748,25.61771],[56.20296,25.61915],[56.25334,25.60229],[56.26634,25.60643],[56.26139,25.6106],[56.25943,25.61828],[56.26345,25.62014],[56.26352,25.62418],[56.27084,25.62587],[56.27834,25.61419],[56.28215,25.61509],[56.28063,25.61202],[56.29088,25.60679],[56.3093,25.61048],[56.32637,25.60336],[56.33545,25.60443],[56.35437,25.59615],[56.35475,25.5524],[56.36278,25.53545],[56.36674,25.5365],[56.36975,25.53136],[56.36926,25.51669],[56.36034,25.48783],[56.36336,25.4796],[56.35914,25.44587],[56.36007,25.43095],[56.36505,25.42762],[56.36643,25.40601],[56.3588,25.37715],[56.35697,25.3738],[56.35089,25.37287],[56.34935,25.36862],[56.35212,25.35473],[56.35667,25.35064],[56.36687,25.34914],[56.36486,25.35453],[56.36868,25.35506],[56.37566,25.34866],[56.37371,25.34119],[56.3801,25.33735],[56.3766,25.32962],[56.38101,25.32552],[56.37749,25.32216],[56.37431,25.30825],[56.35823,25.18799],[56.35903,25.09045],[56.36711,25.03],[56.36195,25.01608],[56.35473,25.02107],[56.35134,25.02067],[56.35009,25.01577],[56.35058,25.00445],[56.35382,25.00549],[56.35392,25.01347],[56.35957,25.01221],[56.3595,24.99882],[56.36354,25.00914],[56.37006,24.97939],[56.35123,24.97624],[56.34339,24.97182],[56.32374,24.97213],[56.34126,24.94202],[56.35012,24.93391],[56.32609,24.89816],[56.30544,24.8842],[56.28068,24.88418],[56.28073,24.875],[56.25921,24.85993],[56.20591,24.85025],[56.20128,24.78435],[56.11273,24.73821],[56.0811,24.74334]],[[56.24882,25.23738],[56.25853,25.238],[56.26059,25.24292],[56.27213,25.24259],[56.28232,25.2366],[56.30485,25.25773],[56.3214,25.26104],[56.3378,25.27296],[56.34487,25.27435],[56.35109,25.30359],[56.34892,25.30647],[56.32265,25.3099],[56.31972,25.30248],[56.3145,25.30685],[56.31404,25.31298],[56.30931,25.31533],[56.30711,25.32943],[56.29122,25.3252],[56.28045,25.331],[56.28054,25.33482],[56.2761,25.33715],[56.26779,25.33723],[56.24807,25.32489],[56.2465,25.31413],[56.25153,25.30876],[56.25092,25.30306],[56.2587,25.29634],[56.25784,25.28645],[56.25546,25.28221],[56.24697,25.28167],[56.22322,25.26238],[56.22446,25.24872],[56.23435,25.24788],[56.24882,25.23738]]],[[[56.37461,24.98042],[56.36698,24.99937],[56.36622,25.00966],[56.36127,25.01196],[56.36769,25.02614],[56.37461,24.98042]]],[[[56.27443,25.28664],[56.27972,25.29011],[56.2892,25.27531],[56.28472,25.27087],[56.28477,25.26276],[56.27357,25.26057],[56.27024,25.26409],[56.27122,25.27425],[56.26791,25.27787],[56.27443,25.28664]]],[[[56.05098,25.90175],[56.04813,25.90199],[56.04867,25.90496],[56.05181,25.90459],[56.05098,25.90175]]],[[[55.97734,25.82997],[56.00122,25.86411],[56.00913,25.88681],[56.01525,25.88685],[56.00098,25.85819],[55.97734,25.82997]]],[[[55.83401,25.71593],[55.82347,25.71867],[55.83282,25.72145],[55.83086,25.71796],[55.83401,25.71593]]],[[[55.61057,25.60808],[55.61675,25.61316],[55.63093,25.61445],[55.63739,25.62056],[55.6544,25.622],[55.67305,25.62976],[55.70855,25.65427],[55.69024,25.6415],[55.67368,25.62411],[55.66803,25.62136],[55.66772,25.62431],[55.67381,25.62527],[55.67165,25.62769],[55.65073,25.62017],[55.64935,25.61655],[55.64167,25.61867],[55.63944,25.61492],[55.64846,25.60754],[55.63919,25.6117],[55.63426,25.60844],[55.64207,25.60812],[55.64295,25.60556],[55.63133,25.60429],[55.63314,25.59479],[55.63785,25.59252],[55.63517,25.5912],[55.62897,25.59938],[55.62002,25.60071],[55.63269,25.60919],[55.63436,25.61191],[55.63208,25.61292],[55.61484,25.60722],[55.61741,25.60545],[55.61573,25.6035],[55.6014,25.60375],[55.59552,25.59675],[55.59557,25.59237],[55.5899,25.59206],[55.60346,25.60905],[55.6198,25.61962],[55.64417,25.62345],[55.64249,25.62099],[55.61841,25.61729],[55.619,25.61498],[55.61446,25.61533],[55.60559,25.60894],[55.61057,25.60808]]],[[[55.59968,25.59241],[55.60214,25.60093],[55.60638,25.60238],[55.60406,25.59426],[55.59968,25.59241]]],[[[55.58446,25.53604],[55.57569,25.54612],[55.57832,25.55104],[55.58596,25.55265],[55.59181,25.54988],[55.58446,25.53604]]],[[[55.57564,25.56233],[55.57601,25.5788],[55.57928,25.57806],[55.58126,25.56663],[55.57487,25.56721],[55.57564,25.56233]]],[[[55.50675,25.4667],[55.4962,25.47199],[55.50068,25.47667],[55.50675,25.4667]]],[[[55.38118,25.34006],[55.37776,25.34182],[55.37797,25.34671],[55.38153,25.34546],[55.38118,25.34006]]],[[[55.3144,25.29608],[55.31284,25.30648],[55.31751,25.29624],[55.3144,25.29608]]],[[[55.31164,25.33194],[55.30564,25.33548],[55.30056,25.33426],[55.30299,25.34278],[55.31413,25.33596],[55.31475,25.33224],[55.31164,25.33194]]],[[[55.16145,25.22826],[55.15955,25.23274],[55.16513,25.24696],[55.17465,25.25376],[55.18172,25.25411],[55.16571,25.24619],[55.16145,25.22826]]],[[[55.12838,25.09714],[55.11876,25.09817],[55.11161,25.10349],[55.10896,25.11966],[55.11988,25.1355],[55.13139,25.14092],[55.14383,25.14069],[55.15226,25.13436],[55.15501,25.12101],[55.15275,25.12073],[55.15147,25.13075],[55.14615,25.13673],[55.13171,25.1386],[55.11924,25.13111],[55.11152,25.11892],[55.11371,25.1048],[55.12128,25.09988],[55.13455,25.10043],[55.12838,25.09714]]],[[[55.1364,25.20183],[55.13434,25.21647],[55.13467,25.22265],[55.13748,25.22371],[55.13677,25.2147],[55.14014,25.20702],[55.1364,25.20183]]],[[[55.01841,24.99537],[55.0233,25.01614],[55.0224,25.00198],[55.01841,24.99537]]],[[[55.0188,25.02393],[55.01396,25.02657],[55.01629,25.02797],[55.0188,25.02393]]],[[[54.98544,24.99197],[54.98351,24.9976],[54.98018,24.99395],[54.98691,25.00549],[54.98208,25.00774],[54.98398,25.01201],[54.99149,25.00195],[54.98544,24.99197]]],[[[54.95579,24.99259],[54.95312,25.00851],[54.96478,25.02899],[54.9709,25.03461],[54.9867,25.03598],[54.96001,25.01863],[54.95618,25.01138],[54.95579,24.99259]]],[[[54.76882,24.80969],[54.76232,24.81075],[54.76227,24.81307],[54.76618,24.81544],[54.76882,24.80969]]],[[[54.72572,24.8084],[54.71177,24.81577],[54.72331,24.83203],[54.7372,24.8433],[54.75626,24.84951],[54.75318,24.87159],[54.75557,24.87239],[54.76151,24.84753],[54.75779,24.84271],[54.74731,24.8459],[54.73889,24.84346],[54.73032,24.83432],[54.7236,24.83178],[54.71664,24.81906],[54.72572,24.8084]]],[[[54.72733,24.81267],[54.72488,24.82356],[54.74277,24.83155],[54.72657,24.82359],[54.72733,24.81267]]],[[[54.6751,24.66574],[54.66254,24.66773],[54.66484,24.67279],[54.67105,24.67185],[54.67672,24.6695],[54.6751,24.66574]]],[[[54.65529,24.64125],[54.64193,24.6485],[54.64454,24.65176],[54.65198,24.65265],[54.65203,24.65008],[54.66107,24.64816],[54.65529,24.64125]]],[[[54.65409,24.66027],[54.64336,24.66216],[54.64435,24.66951],[54.64837,24.67266],[54.64147,24.67281],[54.64167,24.67731],[54.65287,24.68019],[54.65124,24.67708],[54.65532,24.67714],[54.65409,24.66027]]],[[[54.62701,24.55887],[54.63504,24.56569],[54.63991,24.57605],[54.63643,24.58166],[54.63951,24.58222],[54.64206,24.59667],[54.63744,24.60277],[54.63761,24.60856],[54.6272,24.60865],[54.61898,24.60428],[54.60766,24.60796],[54.61444,24.61373],[54.62106,24.61109],[54.62215,24.61539],[54.6158,24.61632],[54.61683,24.62122],[54.63172,24.62275],[54.63596,24.62178],[54.63513,24.61354],[54.64525,24.59903],[54.64505,24.5872],[54.63228,24.55561],[54.61654,24.54752],[54.6145,24.55109],[54.62181,24.55159],[54.62701,24.55887]]],[[[54.64207,24.64092],[54.63948,24.64371],[54.64258,24.64363],[54.64207,24.64092]]],[[[54.60034,24.45272],[54.59301,24.45376],[54.59063,24.4608],[54.59896,24.47353],[54.59867,24.48151],[54.58068,24.48868],[54.57232,24.49935],[54.57455,24.50813],[54.58441,24.50687],[54.60223,24.51603],[54.62817,24.51207],[54.63234,24.50699],[54.6345,24.48927],[54.63205,24.48538],[54.60973,24.47628],[54.61067,24.46369],[54.60785,24.45683],[54.60034,24.45272]]],[[[54.62002,24.63118],[54.61879,24.63643],[54.62807,24.63684],[54.62898,24.63364],[54.62474,24.63473],[54.62002,24.63118]]],[[[54.61828,24.66344],[54.6222,24.67199],[54.6253,24.67178],[54.61828,24.66344]]],[[[54.62218,24.68073],[54.61932,24.68275],[54.61879,24.68866],[54.62218,24.68073]]],[[[54.62152,24.65577],[54.61814,24.6561],[54.61691,24.66136],[54.62128,24.66091],[54.62152,24.65577]]],[[[54.55788,24.64266],[54.58053,24.66515],[54.59254,24.66984],[54.60556,24.68111],[54.61501,24.67277],[54.6023,24.67489],[54.55788,24.64266]]],[[[54.60867,24.6656],[54.60531,24.66975],[54.6114,24.66976],[54.61258,24.66695],[54.60867,24.6656]]],[[[54.60846,24.64682],[54.6061,24.65244],[54.59948,24.65285],[54.60209,24.6561],[54.60795,24.6517],[54.60846,24.64682]]],[[[54.60763,24.63124],[54.60253,24.63335],[54.60045,24.63897],[54.60269,24.63952],[54.60763,24.63124]]],[[[54.59836,24.64511],[54.59207,24.65029],[54.59883,24.65027],[54.59836,24.64511]]],[[[54.59172,24.46287],[54.59239,24.47163],[54.59463,24.47218],[54.59172,24.46287]]],[[[54.59103,24.6311],[54.58905,24.64625],[54.59462,24.64197],[54.59254,24.64039],[54.59447,24.63502],[54.59103,24.6311]]],[[[54.5882,24.61755],[54.5913,24.62442],[54.59194,24.62057],[54.5882,24.61755]]],[[[54.57683,24.44758],[54.57158,24.45046],[54.57088,24.45739],[54.58133,24.46699],[54.59007,24.46053],[54.59059,24.45565],[54.58941,24.451],[54.57683,24.44758]]],[[[54.57219,24.55736],[54.54956,24.56394],[54.54233,24.5597],[54.52587,24.56728],[54.51824,24.57641],[54.548,24.57188],[54.55331,24.5739],[54.55679,24.56855],[54.59024,24.56948],[54.59057,24.56717],[54.58304,24.56396],[54.56948,24.56683],[54.57219,24.55736]]],[[[54.57301,24.64625],[54.57486,24.65245],[54.57662,24.64888],[54.57301,24.64625]]],[[[54.57076,24.50022],[54.54984,24.50632],[54.52797,24.51779],[54.53102,24.52003],[54.54688,24.51373],[54.57341,24.50888],[54.57076,24.50022]]],[[[54.56314,24.44338],[54.5575,24.4447],[54.54971,24.4622],[54.54369,24.46107],[54.55098,24.4473],[54.54511,24.44566],[54.53511,24.45411],[54.5213,24.45646],[54.51727,24.46115],[54.49462,24.46978],[54.49248,24.47836],[54.50995,24.47634],[54.5168,24.47079],[54.55801,24.46182],[54.56749,24.45116],[54.56773,24.44602],[54.56314,24.44338]]],[[[54.55297,24.59126],[54.54942,24.59287],[54.5534,24.59821],[54.55595,24.5971],[54.55297,24.59126]]],[[[54.52374,24.60416],[54.5135,24.6099],[54.5037,24.60743],[54.49968,24.61135],[54.51056,24.6159],[54.51204,24.61245],[54.51541,24.61277],[54.52625,24.6195],[54.53328,24.63415],[54.55405,24.63681],[54.54823,24.6326],[54.54931,24.62734],[54.54116,24.62001],[54.54473,24.61724],[54.5444,24.61247],[54.5368,24.6126],[54.52374,24.60416]]],[[[54.54678,24.43192],[54.54364,24.43483],[54.5453,24.43589],[54.54678,24.43192]]],[[[54.53342,24.48354],[54.53459,24.49514],[54.545,24.48759],[54.53342,24.48354]]],[[[54.51319,24.42546],[54.49942,24.42574],[54.49704,24.43226],[54.48129,24.43316],[54.47743,24.43657],[54.47651,24.44041],[54.48337,24.45596],[54.48783,24.45063],[54.48295,24.44875],[54.48221,24.44334],[54.50358,24.44266],[54.49968,24.4552],[54.50238,24.46116],[54.50691,24.45944],[54.50447,24.45477],[54.52617,24.45139],[54.54083,24.44199],[54.53911,24.43668],[54.51774,24.43003],[54.51319,24.42546]]],[[[54.52077,24.52642],[54.51622,24.52879],[54.5165,24.536],[54.52627,24.53976],[54.52267,24.54433],[54.52887,24.5434],[54.52908,24.53981],[54.53296,24.54296],[54.53606,24.53516],[54.5285,24.53375],[54.52077,24.52642]]],[[[54.53039,24.48015],[54.52642,24.48201],[54.52262,24.49408],[54.5159,24.49294],[54.51491,24.48812],[54.50935,24.49935],[54.50055,24.50384],[54.50978,24.5063],[54.50799,24.51142],[54.50043,24.51708],[54.50334,24.51906],[54.49863,24.52271],[54.49358,24.52211],[54.4966,24.52564],[54.50948,24.51427],[54.5158,24.49328],[54.53317,24.49614],[54.53039,24.48015]]],[[[54.51604,24.59528],[54.51441,24.59924],[54.51705,24.60096],[54.51881,24.59713],[54.51604,24.59528]]],[[[54.51081,24.51828],[54.50702,24.52465],[54.50108,24.52687],[54.48724,24.52985],[54.48392,24.52684],[54.47372,24.53104],[54.4659,24.52821],[54.46439,24.53333],[54.46894,24.53083],[54.47296,24.53373],[54.471,24.54013],[54.48553,24.54526],[54.48701,24.54143],[54.4991,24.53442],[54.50078,24.52763],[54.51521,24.52286],[54.51081,24.51828]]],[[[54.49772,24.55434],[54.49608,24.56627],[54.49908,24.56375],[54.49772,24.55434]]],[[[54.49047,24.60746],[54.48814,24.61141],[54.49165,24.61199],[54.49047,24.60746]]],[[[54.49004,24.51601],[54.48471,24.52261],[54.48678,24.52457],[54.49004,24.51601]]],[[[54.48582,24.47388],[54.47735,24.47567],[54.47384,24.48281],[54.4803,24.48318],[54.48582,24.47388]]],[[[54.48298,24.48952],[54.47463,24.49234],[54.47679,24.49675],[54.48298,24.48952]]],[[[54.47644,24.5779],[54.4783,24.58295],[54.48028,24.58273],[54.47644,24.5779]]],[[[54.47798,24.61304],[54.47223,24.61938],[54.47588,24.61944],[54.47798,24.61304]]],[[[54.42094,24.51999],[54.40891,24.52377],[54.39654,24.53745],[54.4159,24.53932],[54.42958,24.54419],[54.44732,24.55722],[54.47345,24.58634],[54.47741,24.58525],[54.47269,24.58234],[54.4584,24.55869],[54.45395,24.54936],[54.45648,24.5422],[54.45063,24.53953],[54.45238,24.53621],[54.44132,24.53423],[54.44347,24.525],[54.45628,24.5175],[54.46423,24.50657],[54.46217,24.5041],[54.42094,24.51999]]],[[[54.46445,24.46053],[54.45808,24.46969],[54.45529,24.46861],[54.45312,24.47886],[54.45985,24.47949],[54.47407,24.4715],[54.47458,24.46688],[54.46445,24.46053]]],[[[54.47193,24.49397],[54.46849,24.50407],[54.47261,24.50234],[54.47193,24.49397]]],[[[54.47057,24.47774],[54.45581,24.4847],[54.44994,24.48305],[54.43919,24.48647],[54.43367,24.49525],[54.46646,24.48629],[54.47057,24.47774]]],[[[54.46771,24.55036],[54.4632,24.5508],[54.46372,24.55287],[54.46771,24.55036]]],[[[54.44739,24.3306],[54.44076,24.33203],[54.44393,24.34932],[54.45094,24.34944],[54.45784,24.36962],[54.44318,24.37233],[54.39919,24.39512],[54.42008,24.40358],[54.45854,24.39072],[54.46132,24.37791],[54.44739,24.3306]]],[[[54.43632,24.5034],[54.42786,24.50454],[54.42667,24.508],[54.43399,24.50735],[54.43632,24.5034]]],[[[54.42437,24.48275],[54.42175,24.48708],[54.42343,24.48736],[54.42437,24.48275]]],[[[54.41502,24.47243],[54.39228,24.49197],[54.39517,24.50848],[54.39908,24.50984],[54.40018,24.49751],[54.40862,24.49714],[54.40465,24.51238],[54.41702,24.50552],[54.41394,24.50495],[54.4129,24.49387],[54.40913,24.49252],[54.4099,24.48945],[54.42028,24.49014],[54.42182,24.47705],[54.41502,24.47243]]],[[[54.39747,24.3965],[54.34258,24.41587],[54.3305,24.41565],[54.32314,24.44498],[54.34065,24.44091],[54.3655,24.42141],[54.41641,24.40428],[54.39747,24.3965]]],[[[54.39043,24.4931],[54.38755,24.49626],[54.38798,24.5027],[54.3913,24.50507],[54.39043,24.4931]]],[[[54.32998,24.48034],[54.33878,24.50287],[54.3559,24.51758],[54.35933,24.50156],[54.34765,24.49557],[54.33988,24.48386],[54.32998,24.48034]]],[[[54.34465,24.37488],[54.34388,24.38065],[54.3496,24.38217],[54.34983,24.37805],[54.34603,24.37824],[54.34465,24.37488]]],[[[54.31954,24.34923],[54.31747,24.35459],[54.32193,24.35596],[54.32158,24.35904],[54.32776,24.35889],[54.32728,24.36171],[54.31641,24.3646],[54.3124,24.37482],[54.2902,24.3824],[54.29467,24.39676],[54.31128,24.39461],[54.31487,24.38438],[54.32277,24.38272],[54.33375,24.368],[54.34946,24.35541],[54.33217,24.34302],[54.32586,24.32259],[54.31957,24.32119],[54.31724,24.32539],[54.3091,24.32538],[54.30226,24.3304],[54.30089,24.33526],[54.30432,24.33893],[54.30162,24.34711],[54.30418,24.3523],[54.30007,24.35415],[54.292,24.35041],[54.29539,24.34983],[54.29564,24.34469],[54.28941,24.34689],[54.28949,24.34998],[54.30044,24.3566],[54.30786,24.35725],[54.30364,24.36438],[54.29357,24.36896],[54.29846,24.37689],[54.30695,24.36701],[54.30621,24.36237],[54.31954,24.34923]]],[[[54.34348,24.37206],[54.34235,24.37291],[54.34449,24.37452],[54.34348,24.37206]]],[[[54.33241,24.37852],[54.32602,24.38175],[54.33172,24.38442],[54.33241,24.37852]]],[[[54.3261,24.45133],[54.31851,24.45132],[54.32156,24.45331],[54.3261,24.45133]]],[[[54.31462,24.43595],[54.31165,24.43706],[54.31412,24.44649],[54.31685,24.44332],[54.31714,24.43638],[54.31462,24.43595]]],[[[54.30782,24.43866],[54.30292,24.44462],[54.30456,24.44657],[54.30878,24.44639],[54.30782,24.43866]]],[[[54.30582,24.42692],[54.30591,24.43618],[54.30772,24.43673],[54.30582,24.42692]]],[[[54.30048,24.40085],[54.29824,24.40698],[54.30135,24.41295],[54.30048,24.40085]]],[[[54.28643,24.44046],[54.28871,24.44565],[54.28702,24.45899],[54.29148,24.46276],[54.29974,24.44855],[54.29554,24.44783],[54.29248,24.45318],[54.29362,24.44599],[54.28941,24.44553],[54.28643,24.44046]]],[[[54.2881,24.32282],[54.27564,24.32787],[54.27443,24.33222],[54.27833,24.33357],[54.27125,24.33615],[54.27205,24.33848],[54.2874,24.32936],[54.28986,24.32606],[54.2881,24.32282]]],[[[54.28751,24.36345],[54.27933,24.36561],[54.27456,24.37157],[54.28482,24.3715],[54.28751,24.36345]]],[[[54.16568,24.31839],[54.17368,24.33063],[54.19429,24.33809],[54.21834,24.35512],[54.19549,24.34762],[54.21549,24.357],[54.2264,24.34627],[54.23715,24.34222],[54.2462,24.32656],[54.27566,24.29417],[54.2753,24.29134],[54.27072,24.2955],[54.26796,24.29326],[54.25123,24.29502],[54.25454,24.29109],[54.26694,24.28874],[54.24816,24.28763],[54.28155,24.2746],[54.24311,24.28741],[54.23529,24.2856],[54.2365,24.27546],[54.22947,24.26942],[54.22237,24.26697],[54.21432,24.26965],[54.19532,24.2976],[54.18723,24.30195],[54.17602,24.30135],[54.16605,24.30785],[54.16568,24.31839]]],[[[54.19682,24.3636],[54.19066,24.36927],[54.19896,24.38087],[54.22455,24.3924],[54.24377,24.4123],[54.25355,24.41505],[54.25668,24.41292],[54.25534,24.40364],[54.24488,24.40036],[54.24176,24.38847],[54.24448,24.38003],[54.2411,24.38048],[54.2415,24.37458],[54.25224,24.37169],[54.26011,24.36488],[54.26376,24.358],[54.26051,24.3528],[54.22697,24.37135],[54.20467,24.37699],[54.19721,24.37145],[54.19682,24.3636]]],[[[54.23668,24.41551],[54.23662,24.41847],[54.24609,24.42211],[54.25928,24.42248],[54.24584,24.42057],[54.23668,24.41551]]],[[[54.24099,25.21226],[54.22816,25.21704],[54.20564,25.21906],[54.19786,25.23177],[54.20233,25.24651],[54.21943,25.25275],[54.2329,25.24529],[54.23807,25.23535],[54.2381,25.22147],[54.23514,25.22115],[54.23549,25.21808],[54.24099,25.21226]]],[[[54.19066,24.3883],[54.2082,24.39506],[54.20629,24.39232],[54.19066,24.3883]]],[[[54.20619,24.25651],[54.20279,24.25787],[54.20498,24.26022],[54.20619,24.25651]]],[[[54.20351,24.36565],[54.19815,24.36684],[54.19965,24.36866],[54.20351,24.36565]]],[[[54.13717,24.19415],[54.13625,24.19773],[54.13849,24.19777],[54.13717,24.19415]]],[[[54.11252,24.23033],[54.09745,24.23943],[54.09781,24.24201],[54.101,24.24361],[54.11299,24.23433],[54.11642,24.23143],[54.11252,24.23033]]],[[[54.0863,24.16206],[54.08079,24.16427],[54.08097,24.16839],[54.08909,24.17536],[54.1046,24.17103],[54.10457,24.16627],[54.0863,24.16206]]],[[[54.03931,24.14572],[54.02812,24.15682],[54.03116,24.15881],[54.05491,24.14988],[54.04028,24.1523],[54.03931,24.14572]]],[[[53.70303,24.21829],[53.72912,24.23184],[53.73177,24.23771],[53.75813,24.23736],[53.77088,24.23044],[53.77792,24.2316],[53.80096,24.24635],[53.81686,24.25047],[53.81934,24.24666],[53.80907,24.23861],[53.81038,24.23448],[53.80582,24.22453],[53.79868,24.21874],[53.79909,24.20562],[53.81204,24.18866],[53.81507,24.19246],[53.80612,24.20626],[53.80779,24.21202],[53.81683,24.21532],[53.82618,24.22595],[53.82806,24.23492],[53.82429,24.24836],[53.83277,24.25129],[53.84398,24.26343],[53.84727,24.27237],[53.85933,24.27227],[53.86878,24.26811],[53.86996,24.26474],[53.87713,24.26512],[53.87759,24.26074],[53.87234,24.25801],[53.8676,24.26569],[53.85417,24.26092],[53.86003,24.24101],[53.87537,24.22426],[53.89044,24.22127],[53.92399,24.20417],[53.93362,24.20874],[53.93229,24.21173],[53.93704,24.21099],[53.94102,24.21755],[53.93731,24.21047],[53.95147,24.20428],[53.9634,24.18682],[53.97263,24.17995],[53.94654,24.15474],[53.94774,24.15202],[53.9592,24.1626],[53.95795,24.14488],[53.96427,24.15183],[53.96621,24.1505],[53.95393,24.14058],[53.93211,24.13046],[53.92873,24.12949],[53.90585,24.14639],[53.90755,24.14083],[53.90318,24.13989],[53.91221,24.13033],[53.90897,24.12923],[53.90002,24.13647],[53.88884,24.13771],[53.8541,24.15097],[53.85246,24.15267],[53.86404,24.1567],[53.87979,24.1465],[53.88081,24.14828],[53.85764,24.17135],[53.84603,24.17877],[53.83081,24.15616],[53.83013,24.13791],[53.80736,24.12856],[53.78325,24.12797],[53.78115,24.12158],[53.77638,24.12154],[53.76004,24.13084],[53.74708,24.1276],[53.74322,24.1305],[53.73284,24.12979],[53.72099,24.13939],[53.6878,24.15438],[53.68136,24.16131],[53.67348,24.15965],[53.66238,24.15187],[53.65314,24.15228],[53.64379,24.1473],[53.62411,24.16526],[53.62304,24.16785],[53.63295,24.17952],[53.64431,24.18614],[53.67222,24.19362],[53.69933,24.21565],[53.71417,24.20819],[53.70303,24.21829]]],[[[53.9415,24.21834],[53.94265,24.22323],[53.94488,24.22267],[53.9415,24.21834]]],[[[53.81679,24.26432],[53.81393,24.2681],[53.81388,24.27865],[53.87267,24.2917],[53.81719,24.27602],[53.81679,24.26432]]],[[[53.80242,24.21019],[53.80055,24.21447],[53.80335,24.21454],[53.80242,24.21019]]],[[[53.6711,24.19377],[53.67085,24.19506],[53.68136,24.20131],[53.6711,24.19377]]],[[[53.54274,24.18336],[53.53325,24.19253],[53.53417,24.20396],[53.54168,24.20062],[53.54274,24.18336]]],[[[53.40074,24.19287],[53.38275,24.20563],[53.38429,24.21294],[53.388,24.21674],[53.40882,24.21963],[53.42054,24.21674],[53.42313,24.21284],[53.423,24.19818],[53.43104,24.19355],[53.41539,24.19611],[53.40074,24.19287]]],[[[53.39816,24.23459],[53.39484,24.23734],[53.39431,24.24648],[53.39816,24.23459]]],[[[53.3429,24.53233],[53.32629,24.58443],[53.31471,24.58216],[53.3158,24.56491],[53.31016,24.56448],[53.30798,24.57583],[53.30265,24.57643],[53.30256,24.57952],[53.30964,24.58198],[53.31103,24.5655],[53.31469,24.5657],[53.31304,24.58322],[53.32611,24.58996],[53.34442,24.53102],[53.33482,24.52114],[53.33531,24.50209],[53.37133,24.46616],[53.37528,24.467],[53.37349,24.4539],[53.36959,24.45577],[53.37061,24.46527],[53.33484,24.49953],[53.33412,24.52115],[53.3429,24.53233]]],[[[53.3541,24.58232],[53.35559,24.60185],[53.35688,24.59591],[53.3541,24.58232]]],[[[53.3426,24.5843],[53.34292,24.58661],[53.33143,24.58859],[53.34971,24.58818],[53.34795,24.58435],[53.3426,24.5843]]],[[[53.32351,24.26456],[53.31433,24.28425],[53.31846,24.28753],[53.31724,24.29784],[53.3084,24.29798],[53.30722,24.29465],[53.31095,24.29177],[53.30827,24.29065],[53.30388,24.29625],[53.30708,24.28719],[53.30288,24.28764],[53.30251,24.28263],[53.28104,24.2908],[53.27596,24.28921],[53.26969,24.2839],[53.26967,24.27489],[53.2647,24.27162],[53.26674,24.26773],[53.25957,24.26694],[53.24472,24.26857],[53.24235,24.2771],[53.23038,24.28268],[53.23628,24.28336],[53.23064,24.28962],[53.22602,24.29033],[53.22525,24.29459],[53.24152,24.29396],[53.27036,24.30576],[53.30079,24.3116],[53.32367,24.30418],[53.32607,24.31237],[53.33679,24.31517],[53.34359,24.30893],[53.33722,24.30821],[53.32793,24.28379],[53.33232,24.26262],[53.3211,24.27103],[53.32351,24.26456]]],[[[53.31287,24.58926],[53.3141,24.59503],[53.31159,24.59623],[53.32062,24.59776],[53.32234,24.607],[53.32611,24.6054],[53.32247,24.59117],[53.31287,24.58926]]],[[[53.31936,24.11283],[53.31293,24.11383],[53.31593,24.117],[53.31936,24.11283]]],[[[53.206,24.28496],[53.19759,24.28599],[53.18768,24.29694],[53.18701,24.30698],[53.19102,24.31207],[53.19859,24.31144],[53.20334,24.30185],[53.21478,24.29809],[53.21375,24.28704],[53.206,24.28496]]],[[[53.10621,24.31044],[53.09567,24.31843],[53.085,24.31858],[53.07611,24.32397],[53.07631,24.33658],[53.09256,24.34253],[53.09818,24.31724],[53.10265,24.31615],[53.10621,24.31044]]],[[[53.07928,24.85716],[53.05899,24.88356],[53.05851,24.88845],[53.06475,24.89879],[53.07796,24.89616],[53.08594,24.88434],[53.07928,24.85716]]],[[[53.03394,24.14418],[53.03915,24.15491],[53.03277,24.15924],[53.0392,24.15813],[53.062,24.16335],[53.06168,24.1604],[53.04228,24.15757],[53.03394,24.14418]]],[[[52.95246,24.18885],[52.94605,24.1919],[52.94364,24.19965],[52.94727,24.19857],[52.95246,24.18885]]],[[[52.88165,24.29512],[52.88104,24.3013],[52.87479,24.30601],[52.87902,24.3075],[52.88409,24.29869],[52.88165,24.29512]]],[[[52.88158,25.14107],[52.87127,25.14307],[52.86732,25.15315],[52.86789,25.16267],[52.87919,25.16201],[52.88158,25.14107]]],[[[52.85553,24.92366],[52.84975,24.93403],[52.84374,24.93783],[52.84992,24.94496],[52.85888,24.93121],[52.85982,24.9276],[52.85553,24.92366]]],[[[52.82342,24.16897],[52.81256,24.17501],[52.8146,24.18001],[52.82342,24.16897]]],[[[52.78204,24.19841],[52.7925,24.2042],[52.79018,24.19908],[52.78204,24.19841]]],[[[52.77767,24.38888],[52.77605,24.3934],[52.77997,24.39207],[52.77767,24.38888]]],[[[52.77147,24.38728],[52.7641,24.39277],[52.76624,24.39532],[52.77147,24.38728]]],[[[52.65373,24.40804],[52.64932,24.41465],[52.64526,24.41547],[52.64797,24.4184],[52.65217,24.41745],[52.65373,24.40804]]],[[[52.55337,24.3014],[52.55236,24.31094],[52.56011,24.3474],[52.57051,24.35939],[52.57853,24.36428],[52.58487,24.36207],[52.60165,24.36755],[52.60156,24.3709],[52.61141,24.37247],[52.62545,24.37193],[52.63309,24.36567],[52.64599,24.34186],[52.64519,24.31227],[52.64123,24.29945],[52.62961,24.29083],[52.62507,24.27595],[52.62109,24.27226],[52.61606,24.27373],[52.62331,24.28137],[52.61532,24.28171],[52.59907,24.26207],[52.59872,24.25667],[52.60111,24.25716],[52.60174,24.26256],[52.60725,24.26507],[52.60654,24.25401],[52.58938,24.25085],[52.58611,24.25809],[52.59035,24.26113],[52.59074,24.26936],[52.59645,24.26622],[52.59246,24.27218],[52.58453,24.27792],[52.58976,24.26989],[52.58474,24.2608],[52.58209,24.26225],[52.55337,24.3014]]],[[[52.56414,24.77454],[52.55009,24.78961],[52.54976,24.79708],[52.55377,24.80179],[52.56167,24.80223],[52.57069,24.7912],[52.56414,24.77454]]],[[[52.40258,24.94521],[52.39438,24.95584],[52.3932,24.96434],[52.39605,24.96612],[52.40506,24.95214],[52.40258,24.94521]]],[[[52.30231,24.47748],[52.29942,24.4842],[52.2892,24.48841],[52.2807,24.50984],[52.29216,24.53007],[52.30549,24.54025],[52.31225,24.54135],[52.33394,24.53048],[52.34129,24.49413],[52.3362,24.49173],[52.33186,24.49344],[52.32082,24.47282],[52.31758,24.47246],[52.31238,24.41833],[52.30367,24.41892],[52.30457,24.42445],[52.30849,24.42313],[52.30939,24.44637],[52.31323,24.44573],[52.31325,24.44831],[52.31089,24.45064],[52.31026,24.47175],[52.30582,24.47694],[52.30795,24.47962],[52.30431,24.48068],[52.30231,24.47748]]],[[[52.00911,24.20819],[51.99613,24.21703],[52.00069,24.226],[52.00255,24.24761],[52.01286,24.25617],[52.0221,24.25289],[52.02541,24.24592],[52.02296,24.23744],[52.02516,24.23202],[52.01888,24.21893],[52.00911,24.20819]]],[[[52.00261,24.16538],[51.99476,24.16633],[51.98625,24.17282],[51.99181,24.20187],[51.999,24.20671],[52.00261,24.16538]]],[[[51.86095,24.20987],[51.86185,24.21784],[51.86761,24.21987],[51.86546,24.21293],[51.86095,24.20987]]],[[[51.73341,24.4808],[51.73061,24.48159],[51.72855,24.49164],[51.73237,24.49574],[51.73743,24.49378],[51.7381,24.48902],[51.73341,24.4808]]],[[[51.72069,24.56786],[51.71719,24.57097],[51.7168,24.57715],[51.7219,24.58175],[51.71868,24.58614],[51.71204,24.58129],[51.71485,24.57973],[51.71357,24.57742],[51.71034,24.57936],[51.71535,24.59337],[51.71353,24.59595],[51.72341,24.60092],[51.73278,24.59045],[51.72976,24.57888],[51.72069,24.56786]]],[[[51.72483,24.50427],[51.71782,24.50919],[51.71953,24.51188],[51.72332,24.51019],[51.72483,24.50427]]],[[[51.68924,24.27007],[51.68589,24.27356],[51.68899,24.27561],[51.68924,24.27007]]],[[[51.56572,24.4025],[51.56552,24.41962],[51.57057,24.41896],[51.56572,24.4025]]],[[[51.56262,24.40007],[51.54776,24.40939],[51.53763,24.40621],[51.53649,24.40171],[51.532,24.40571],[51.53523,24.41428],[51.54048,24.41521],[51.54558,24.42445],[51.55821,24.41978],[51.55241,24.41182],[51.55589,24.40408],[51.56262,24.40007]]],[[[51.54533,24.43256],[51.53987,24.43657],[51.54255,24.43991],[51.55028,24.43859],[51.54533,24.43256]]]]}}]}