{"type":"FeatureCollection","features":[{"type":"Feature","properties":{"ISO_A3":"ARM","WB_A3":"ARM","WB_NAME":"Armenia","WB_REGION":"ECS"},"geometry":{"type":"MultiPolygon","coordinates":[[[[43.68259,40.25587],[43.66358,40.27004],[43.65328,40.26895],[43.64127,40.27204],[43.63971,40.27881],[43.63166,40.2835],[43.63586,40.29303],[43.6271,40.29863],[43.62731,40.30354],[43.61474,40.31357],[43.59075,40.3457],[43.59656,40.35381],[43.59503,40.35958],[43.60026,40.37246],[43.60652,40.37455],[43.60518,40.38131],[43.61171,40.38962],[43.61774,40.39],[43.62002,40.39806],[43.61349,40.4133],[43.61814,40.41532],[43.61897,40.42232],[43.61205,40.42748],[43.60928,40.43497],[43.59693,40.44031],[43.59138,40.44643],[43.58647,40.44511],[43.57292,40.45862],[43.56015,40.45911],[43.54705,40.46793],[43.5488,40.47295],[43.54556,40.4785],[43.5579,40.48163],[43.55689,40.48704],[43.55949,40.48993],[43.55717,40.49371],[43.57004,40.49618],[43.5682,40.49848],[43.57131,40.50401],[43.58771,40.50652],[43.60521,40.51639],[43.61125,40.51413],[43.61953,40.52508],[43.6275,40.52313],[43.62441,40.52101],[43.62604,40.51883],[43.63328,40.51878],[43.63891,40.52336],[43.62773,40.53746],[43.63549,40.53948],[43.63556,40.53589],[43.63955,40.53746],[43.64726,40.53051],[43.65036,40.53168],[43.65086,40.53814],[43.64281,40.55225],[43.64357,40.5618],[43.65607,40.56538],[43.6624,40.56308],[43.67203,40.56688],[43.66813,40.57383],[43.67334,40.57847],[43.67755,40.57566],[43.68064,40.57804],[43.68077,40.58368],[43.68611,40.58549],[43.68407,40.59125],[43.69552,40.60212],[43.6954,40.60598],[43.70508,40.6092],[43.70275,40.61223],[43.70901,40.61674],[43.70561,40.62602],[43.72106,40.63464],[43.71732,40.64074],[43.71852,40.65634],[43.72997,40.66443],[43.73593,40.66254],[43.73649,40.66651],[43.74252,40.66694],[43.74356,40.67152],[43.7405,40.67387],[43.74961,40.6771],[43.74453,40.68635],[43.73894,40.68941],[43.74664,40.7034],[43.741,40.71149],[43.73653,40.71137],[43.73781,40.71738],[43.74831,40.73095],[43.73599,40.75904],[43.73122,40.76275],[43.72313,40.79189],[43.70674,40.8208],[43.678,40.84474],[43.68086,40.86611],[43.67551,40.87105],[43.67389,40.88685],[43.67674,40.89865],[43.68114,40.9035],[43.6695,40.91345],[43.67613,40.93028],[43.6716,40.93666],[43.57776,40.99331],[43.55788,40.99419],[43.51707,41.01477],[43.50892,41.01107],[43.48401,41.01625],[43.4684,41.03074],[43.47154,41.06754],[43.46035,41.07301],[43.45667,41.08406],[43.4487,41.088],[43.44726,41.09448],[43.44724,41.09902],[43.46259,41.1201],[43.47991,41.12562],[43.492,41.12535],[43.50759,41.13364],[43.52979,41.13224],[43.54465,41.14072],[43.56943,41.14477],[43.58966,41.14008],[43.60111,41.12959],[43.63201,41.12916],[43.6803,41.1369],[43.69054,41.12939],[43.71904,41.12177],[43.74878,41.10936],[43.80171,41.14447],[43.84463,41.16311],[43.87914,41.16355],[43.93859,41.17627],[43.9506,41.17347],[43.9486,41.16755],[43.96361,41.16491],[43.99314,41.18006],[44.02379,41.18832],[44.05582,41.19059],[44.08875,41.20247],[44.08963,41.1901],[44.12487,41.18594],[44.16205,41.18913],[44.17434,41.20937],[44.18338,41.23382],[44.17972,41.24697],[44.21092,41.23332],[44.23608,41.23892],[44.24525,41.23223],[44.24928,41.23318],[44.27194,41.21242],[44.28545,41.20848],[44.29686,41.21468],[44.31484,41.21398],[44.3272,41.2037],[44.34575,41.2026],[44.34509,41.21177],[44.34791,41.21449],[44.34458,41.21908],[44.34491,41.22569],[44.35412,41.23137],[44.35858,41.23065],[44.36372,41.22569],[44.38775,41.22146],[44.40751,41.20801],[44.41292,41.20082],[44.43921,41.19234],[44.45585,41.19038],[44.46547,41.18068],[44.47607,41.18159],[44.47896,41.18578],[44.512,41.19438],[44.51019,41.1981],[44.51355,41.20476],[44.51998,41.21175],[44.52718,41.21381],[44.52977,41.22431],[44.53629,41.22635],[44.54692,41.22344],[44.53708,41.21676],[44.53625,41.2132],[44.54207,41.21289],[44.54055,41.20568],[44.53202,41.20219],[44.53496,41.20014],[44.53304,41.19821],[44.55212,41.19665],[44.55808,41.20409],[44.56668,41.20265],[44.56708,41.2066],[44.57053,41.20744],[44.5756,41.20446],[44.57476,41.21054],[44.57757,41.21259],[44.58153,41.21222],[44.58259,41.20893],[44.59192,41.21268],[44.58474,41.20694],[44.58336,41.19643],[44.59456,41.19276],[44.60192,41.2145],[44.60773,41.22005],[44.60349,41.23166],[44.61066,41.23678],[44.60657,41.24118],[44.65048,41.23358],[44.6637,41.23809],[44.67435,41.23603],[44.68748,41.23916],[44.68257,41.23516],[44.68053,41.22559],[44.68826,41.21867],[44.71187,41.21943],[44.71616,41.22332],[44.72807,41.22434],[44.72195,41.21533],[44.72584,41.21314],[44.72634,41.2031],[44.73236,41.2038],[44.73904,41.21317],[44.74269,41.21378],[44.74485,41.20895],[44.7465,41.21713],[44.75106,41.2206],[44.76511,41.22186],[44.76846,41.21824],[44.77342,41.22246],[44.78993,41.22103],[44.79347,41.22223],[44.79065,41.22654],[44.79531,41.23005],[44.80722,41.21571],[44.83277,41.21336],[44.84313,41.21587],[44.84726,41.20952],[44.86646,41.20373],[44.88354,41.20273],[44.90071,41.21254],[44.89307,41.21701],[44.89117,41.22174],[44.86687,41.21799],[44.86366,41.22411],[44.85483,41.224],[44.8543,41.2274],[44.84565,41.23019],[44.82798,41.22959],[44.81345,41.23823],[44.813,41.244],[44.80281,41.25342],[44.80299,41.26274],[44.80751,41.266],[44.80822,41.29094],[44.81804,41.30094],[44.83009,41.29884],[44.83803,41.29259],[44.84781,41.28431],[44.84852,41.27544],[44.87074,41.27649],[44.88388,41.26849],[44.89049,41.26903],[44.89212,41.2731],[44.89747,41.27444],[44.91281,41.25698],[44.92493,41.25988],[44.95788,41.25694],[44.97428,41.27325],[44.97341,41.27704],[44.97728,41.28137],[44.99234,41.28474],[45.0018,41.29355],[45.01507,41.29709],[45.02376,41.27777],[45.04515,41.26204],[45.04168,41.2603],[45.04383,41.25449],[45.04863,41.24901],[45.06023,41.24502],[45.05327,41.24113],[45.05158,41.22594],[45.03853,41.21577],[45.03714,41.20059],[45.05643,41.19405],[45.0616,41.18817],[45.07547,41.18643],[45.0766,41.17981],[45.09181,41.17793],[45.09779,41.18516],[45.0983,41.19082],[45.10505,41.19384],[45.10619,41.1979],[45.11388,41.19967],[45.11812,41.19667],[45.11981,41.20514],[45.12706,41.2032],[45.13123,41.19505],[45.14303,41.19302],[45.14267,41.18767],[45.15945,41.17825],[45.16667,41.169],[45.18121,41.16444],[45.19433,41.16588],[45.20224,41.15982],[45.2052,41.15246],[45.20254,41.13803],[45.18459,41.1307],[45.18406,41.12671],[45.17341,41.11897],[45.15685,41.1229],[45.14903,41.11581],[45.10659,41.11206],[45.09895,41.11989],[45.09273,41.11533],[45.09019,41.10594],[45.07117,41.09768],[45.07462,41.09514],[45.07689,41.08241],[45.08435,41.07404],[45.08369,41.07062],[45.09837,41.06311],[45.16175,41.06552],[45.21248,41.03701],[45.21584,41.03362],[45.21796,41.02114],[45.22931,41.02018],[45.24885,41.01298],[45.24951,41.00798],[45.25839,41.00636],[45.26626,41.00901],[45.27025,41.01769],[45.27771,41.0208],[45.29912,41.0139],[45.31843,41.00075],[45.33834,41.00566],[45.34082,41.00002],[45.35281,40.99991],[45.3595,40.9964],[45.36324,40.99672],[45.36979,41.00972],[45.38442,41.01376],[45.3931,41.01239],[45.39711,41.02444],[45.40492,41.02099],[45.42272,41.02209],[45.44024,41.01672],[45.43914,41.01208],[45.41852,40.99925],[45.40788,40.98845],[45.41634,40.97794],[45.42071,40.96115],[45.4253,40.95957],[45.43211,40.96438],[45.44487,40.96476],[45.45359,40.96965],[45.46376,40.95349],[45.47313,40.94499],[45.47517,40.93503],[45.48518,40.92289],[45.49328,40.92255],[45.50093,40.92645],[45.5105,40.92395],[45.51587,40.92053],[45.51656,40.91447],[45.53871,40.89878],[45.55723,40.90007],[45.55985,40.89113],[45.55697,40.88534],[45.56074,40.88365],[45.56873,40.88412],[45.58235,40.89103],[45.60247,40.88268],[45.60208,40.87308],[45.5974,40.86766],[45.60794,40.85172],[45.59391,40.83263],[45.59367,40.82134],[45.58434,40.8186],[45.57569,40.80918],[45.5746,40.80079],[45.55086,40.78426],[45.54807,40.77702],[45.5051,40.7704],[45.49253,40.75604],[45.47921,40.75017],[45.47235,40.75235],[45.45584,40.74499],[45.43636,40.74556],[45.43195,40.7398],[45.42429,40.74119],[45.41747,40.73117],[45.40401,40.73085],[45.40326,40.72043],[45.39651,40.71801],[45.40733,40.70939],[45.40342,40.69987],[45.39822,40.69733],[45.39067,40.69547],[45.3789,40.70573],[45.37908,40.6904],[45.37309,40.69062],[45.37932,40.68436],[45.37546,40.67702],[45.37704,40.672],[45.36763,40.66547],[45.3642,40.65251],[45.39786,40.62958],[45.38778,40.61694],[45.4022,40.60099],[45.4057,40.59863],[45.4274,40.60056],[45.45909,40.58167],[45.45574,40.57345],[45.43751,40.56346],[45.45039,40.5499],[45.43425,40.5438],[45.43815,40.5193],[45.45239,40.50964],[45.45103,40.50001],[45.46682,40.48942],[45.47992,40.48879],[45.49337,40.47611],[45.50888,40.47137],[45.50449,40.46541],[45.51098,40.45507],[45.51863,40.45796],[45.52502,40.44616],[45.55713,40.42863],[45.56689,40.42688],[45.58693,40.43124],[45.59166,40.42897],[45.59982,40.42342],[45.60619,40.4114],[45.63627,40.39716],[45.6367,40.38275],[45.64704,40.37745],[45.64995,40.36729],[45.69522,40.36709],[45.69857,40.36209],[45.70795,40.35717],[45.7199,40.35571],[45.72465,40.35143],[45.73582,40.3543],[45.74304,40.35259],[45.7699,40.33596],[45.78401,40.33414],[45.78765,40.32735],[45.82034,40.32256],[45.87386,40.30675],[45.87886,40.30366],[45.87941,40.29739],[45.88913,40.29351],[45.90975,40.2929],[45.91757,40.29773],[45.93186,40.29734],[45.93348,40.28706],[45.96089,40.27331],[45.95712,40.25259],[45.94339,40.25389],[45.93893,40.24873],[45.96009,40.2406],[45.95879,40.23419],[45.97525,40.22796],[45.97801,40.22304],[45.9802,40.2132],[45.97496,40.20736],[45.97979,40.20065],[45.97769,40.18841],[45.97338,40.18601],[45.97423,40.17992],[45.96814,40.17549],[45.9759,40.16603],[45.9585,40.15059],[45.95469,40.13529],[45.96013,40.1221],[45.92948,40.11693],[45.92003,40.11275],[45.91265,40.10352],[45.90499,40.10166],[45.90695,40.0894],[45.91276,40.08527],[45.91209,40.0754],[45.89787,40.06023],[45.89953,40.05359],[45.88247,40.02096],[45.87093,40.02253],[45.86234,40.0162],[45.8524,40.01538],[45.85013,40.00807],[45.84201,40.00308],[45.84224,39.99584],[45.8383,39.99046],[45.82605,39.99677],[45.81566,40.01168],[45.80507,40.01234],[45.80384,40.01803],[45.79719,40.02469],[45.78722,40.02919],[45.78122,40.02253],[45.73863,40.03086],[45.72311,40.02435],[45.7006,40.02428],[45.68954,40.03283],[45.68034,40.03415],[45.6615,40.02249],[45.62005,40.02023],[45.60231,40.01063],[45.59912,40.00387],[45.60093,39.99587],[45.60291,39.99011],[45.6123,39.98721],[45.61079,39.9748],[45.62701,39.97206],[45.65757,39.97612],[45.66369,39.97038],[45.69933,39.96909],[45.72892,39.94904],[45.78704,39.94498],[45.8008,39.9319],[45.80513,39.9199],[45.80221,39.91404],[45.78885,39.90656],[45.79092,39.89681],[45.80292,39.89164],[45.80298,39.88679],[45.81254,39.87629],[45.80961,39.86637],[45.81408,39.86448],[45.82381,39.8431],[45.82531,39.82804],[45.82812,39.82514],[45.85178,39.82523],[45.85635,39.81878],[45.86505,39.82057],[45.87326,39.81213],[45.88846,39.80992],[45.93764,39.7876],[45.9683,39.79153],[45.9804,39.7851],[45.98993,39.77094],[46.00333,39.76236],[46.00331,39.7542],[46.02738,39.7451],[46.03348,39.72767],[46.06428,39.70725],[46.06939,39.69918],[46.06568,39.6943],[46.05642,39.69219],[46.06469,39.68828],[46.0658,39.68428],[46.07746,39.67841],[46.08008,39.68371],[46.0944,39.68788],[46.12948,39.65793],[46.15855,39.6471],[46.16073,39.64015],[46.1715,39.63252],[46.16477,39.62415],[46.16436,39.61867],[46.17219,39.61416],[46.17085,39.60536],[46.17535,39.59949],[46.17503,39.58544],[46.18273,39.58494],[46.19042,39.58969],[46.19673,39.60215],[46.2509,39.60141],[46.2585,39.60632],[46.28376,39.61271],[46.29018,39.61954],[46.30915,39.62501],[46.31691,39.63105],[46.32291,39.62817],[46.33403,39.63597],[46.33992,39.63644],[46.34963,39.63257],[46.35678,39.63958],[46.37067,39.63694],[46.37621,39.63158],[46.37716,39.62796],[46.37111,39.61975],[46.38761,39.61796],[46.39202,39.61272],[46.40048,39.62271],[46.40975,39.62973],[46.41367,39.62931],[46.41376,39.61992],[46.42152,39.59605],[46.41315,39.58319],[46.4141,39.57885],[46.42391,39.57542],[46.43045,39.56922],[46.43395,39.56916],[46.43922,39.57761],[46.44762,39.57906],[46.45369,39.57406],[46.45992,39.57413],[46.48688,39.58687],[46.50492,39.58531],[46.50726,39.58266],[46.52273,39.58392],[46.53285,39.5762],[46.56899,39.56849],[46.57163,39.55999],[46.58028,39.55343],[46.58156,39.53907],[46.58738,39.53276],[46.57815,39.5341],[46.57473,39.54092],[46.5434,39.54594],[46.54153,39.54365],[46.54449,39.54045],[46.53572,39.53165],[46.51017,39.52514],[46.49915,39.51893],[46.49916,39.5158],[46.50997,39.50923],[46.50718,39.50501],[46.5141,39.50053],[46.51463,39.49386],[46.52224,39.48705],[46.53062,39.48553],[46.54067,39.47322],[46.53529,39.46793],[46.52948,39.46939],[46.52747,39.47361],[46.51149,39.47665],[46.50661,39.48257],[46.5011,39.48414],[46.49488,39.48109],[46.488,39.4838],[46.4806,39.48205],[46.4851,39.47549],[46.45589,39.44817],[46.44912,39.44652],[46.43231,39.45649],[46.42131,39.45826],[46.4093,39.45363],[46.39443,39.45663],[46.39031,39.4533],[46.39039,39.44512],[46.3956,39.44279],[46.38556,39.44148],[46.38062,39.43577],[46.38986,39.42121],[46.39071,39.414],[46.38408,39.39831],[46.39497,39.39187],[46.38881,39.3878],[46.39333,39.38362],[46.40028,39.38343],[46.40456,39.36875],[46.41074,39.36502],[46.40994,39.36142],[46.41612,39.36364],[46.42553,39.35583],[46.44659,39.34773],[46.4488,39.33872],[46.46081,39.33766],[46.46754,39.33193],[46.48164,39.33188],[46.49069,39.34284],[46.50547,39.34292],[46.51514,39.32778],[46.5278,39.32093],[46.52797,39.31563],[46.53803,39.3078],[46.53661,39.30336],[46.51982,39.2987],[46.54768,39.25942],[46.55345,39.25425],[46.57194,39.25591],[46.57852,39.25162],[46.57913,39.24512],[46.59086,39.23567],[46.61129,39.23621],[46.62959,39.2321],[46.63051,39.22908],[46.61752,39.22231],[46.60152,39.22173],[46.59764,39.21856],[46.59148,39.22231],[46.57299,39.21361],[46.57288,39.20866],[46.58595,39.20397],[46.58671,39.20085],[46.57383,39.20184],[46.56824,39.19769],[46.56689,39.18791],[46.54441,39.1759],[46.54222,39.16951],[46.54522,39.16708],[46.53643,39.15822],[46.53155,39.1919],[46.52672,39.19773],[46.52248,39.19783],[46.51621,39.21294],[46.49814,39.19533],[46.51067,39.18964],[46.50415,39.18429],[46.50543,39.18149],[46.46476,39.20033],[46.45253,39.20149],[46.43208,39.18805],[46.43602,39.17222],[46.44006,39.16954],[46.44075,39.15585],[46.46037,39.15928],[46.45752,39.15161],[46.46657,39.14724],[46.48446,39.15193],[46.49674,39.15041],[46.49746,39.14034],[46.48289,39.13738],[46.48396,39.13332],[46.4943,39.13103],[46.49541,39.12316],[46.50492,39.12392],[46.50168,39.10612],[46.5306,39.09527],[46.53664,39.0851],[46.52979,39.07002],[46.52334,39.07172],[46.51591,39.06584],[46.51806,39.06182],[46.54099,39.0634],[46.55417,39.05715],[46.54829,39.0471],[46.53885,39.04435],[46.53621,39.03855],[46.53904,39.0306],[46.53654,39.02679],[46.53923,39.01478],[46.54551,39.00611],[46.54421,39.00247],[46.53783,38.9959],[46.51885,38.99562],[46.51807,38.98645],[46.52313,38.97048],[46.51663,38.96407],[46.50824,38.96158],[46.50691,38.94995],[46.52025,38.92793],[46.53097,38.92333],[46.53737,38.9057],[46.53736,38.89828],[46.53285,38.89427],[46.53363,38.86751],[46.52363,38.87836],[46.52425,38.88829],[46.50415,38.88571],[46.49778,38.88974],[46.48231,38.88586],[46.47366,38.88998],[46.46606,38.88849],[46.4542,38.89903],[46.42883,38.89342],[46.42072,38.88311],[46.41573,38.89287],[46.41039,38.89326],[46.3935,38.90426],[46.36896,38.90983],[46.36347,38.91639],[46.34608,38.91689],[46.33713,38.91551],[46.33598,38.91068],[46.31722,38.90155],[46.30567,38.90601],[46.29786,38.90035],[46.28228,38.90033],[46.26716,38.893],[46.26634,38.88667],[46.24951,38.87805],[46.2478,38.87412],[46.2164,38.86434],[46.21168,38.85357],[46.19296,38.85143],[46.18148,38.84074],[46.14204,38.8436],[46.14731,38.85337],[46.14318,38.86015],[46.14405,38.87239],[46.15141,38.88973],[46.1361,38.9132],[46.12788,38.9162],[46.125,38.92911],[46.1269,38.93389],[46.12186,38.94002],[46.12173,38.94671],[46.11079,38.95218],[46.11178,38.97636],[46.10165,38.98905],[46.09838,39.01166],[46.10177,39.01731],[46.0988,39.01924],[46.09861,39.02624],[46.08303,39.02646],[46.07499,39.03713],[46.07613,39.0541],[46.07095,39.06028],[46.07103,39.07885],[46.05334,39.08182],[46.03322,39.09102],[46.03063,39.09819],[46.01894,39.10805],[46.01668,39.11534],[46.02943,39.12594],[46.02813,39.1335],[46.02074,39.14219],[46.00408,39.14876],[46.004,39.15818],[46.00776,39.16336],[46.00101,39.17482],[45.99881,39.18588],[45.98343,39.19313],[45.99119,39.20648],[45.98776,39.21445],[45.99201,39.22362],[45.98707,39.2409],[45.98846,39.24631],[46.00492,39.25622],[46.00617,39.26219],[45.99899,39.29168],[45.98444,39.29598],[45.97146,39.29529],[45.94224,39.30772],[45.94024,39.31457],[45.93168,39.32136],[45.92261,39.32154],[45.91174,39.32993],[45.89782,39.33172],[45.88883,39.34365],[45.88349,39.34397],[45.86227,39.35672],[45.81004,39.36144],[45.79246,39.36989],[45.78877,39.3816],[45.79436,39.38748],[45.79795,39.41343],[45.8022,39.41808],[45.8045,39.42915],[45.81582,39.42909],[45.82806,39.45103],[45.83849,39.45691],[45.84074,39.46179],[45.83675,39.46925],[45.8137,39.48471],[45.82388,39.50642],[45.81825,39.51501],[45.82141,39.52612],[45.81673,39.52849],[45.81509,39.53894],[45.80578,39.55064],[45.805,39.56066],[45.80025,39.56915],[45.78452,39.57126],[45.77843,39.57848],[45.77969,39.58211],[45.75539,39.58753],[45.74852,39.5945],[45.73402,39.59267],[45.72547,39.60158],[45.69451,39.60365],[45.67367,39.58526],[45.65546,39.58203],[45.64359,39.57256],[45.62441,39.56821],[45.62164,39.56235],[45.59067,39.56997],[45.57487,39.56688],[45.56295,39.54398],[45.5565,39.54101],[45.54548,39.54552],[45.53625,39.54291],[45.52968,39.52811],[45.51966,39.52607],[45.51488,39.51961],[45.49009,39.51053],[45.48275,39.50344],[45.47722,39.49104],[45.47112,39.49196],[45.46772,39.5037],[45.44344,39.50575],[45.44487,39.51067],[45.43166,39.53239],[45.41675,39.53028],[45.39212,39.53898],[45.34562,39.53992],[45.3291,39.55415],[45.31572,39.55375],[45.30842,39.56392],[45.31119,39.56632],[45.30828,39.57297],[45.29782,39.5851],[45.30201,39.5904],[45.30192,39.59915],[45.30865,39.6084],[45.3057,39.61229],[45.28716,39.61438],[45.26295,39.61113],[45.24185,39.61222],[45.22512,39.60131],[45.22344,39.59329],[45.22719,39.5808],[45.19323,39.58438],[45.169,39.59133],[45.18019,39.60559],[45.17224,39.6104],[45.17531,39.61314],[45.17339,39.62605],[45.18652,39.64948],[45.17531,39.65207],[45.17259,39.6639],[45.18633,39.67563],[45.18619,39.68013],[45.17157,39.68849],[45.16836,39.6961],[45.14766,39.7122],[45.13758,39.72581],[45.13704,39.73232],[45.13391,39.73327],[45.1327,39.74065],[45.135,39.74327],[45.12631,39.75018],[45.12097,39.76085],[45.07961,39.78676],[45.07036,39.78695],[45.05917,39.79247],[45.04849,39.79029],[45.04587,39.7835],[45.02324,39.77463],[45.02344,39.76819],[45.01202,39.76392],[45.0065,39.75173],[44.97256,39.73925],[44.95983,39.7301],[44.94027,39.72511],[44.90552,39.72913],[44.90451,39.74096],[44.88631,39.74779],[44.87716,39.73684],[44.85224,39.73622],[44.76925,39.71721],[44.76645,39.71433],[44.75245,39.7139],[44.74699,39.71798],[44.74824,39.72426],[44.74251,39.73446],[44.74419,39.7433],[44.73651,39.74602],[44.72969,39.7411],[44.72339,39.74181],[44.71078,39.76995],[44.70005,39.77218],[44.69306,39.76973],[44.68598,39.77456],[44.68624,39.78225],[44.69682,39.79131],[44.69266,39.79474],[44.68256,39.79591],[44.67668,39.78836],[44.67028,39.79225],[44.66062,39.79119],[44.65274,39.79424],[44.64284,39.80464],[44.6333,39.80654],[44.62926,39.81307],[44.61156,39.81469],[44.61996,39.82363],[44.61637,39.82855],[44.61034,39.82818],[44.60432,39.82213],[44.59557,39.82377],[44.58832,39.8332],[44.59551,39.84305],[44.59223,39.85899],[44.58314,39.8642],[44.57771,39.86196],[44.56472,39.87004],[44.56285,39.87536],[44.54996,39.88633],[44.55401,39.90178],[44.55214,39.90404],[44.54065,39.91171],[44.53685,39.92052],[44.52984,39.92251],[44.52174,39.91999],[44.51641,39.92898],[44.50262,39.93538],[44.50094,39.945],[44.49382,39.94977],[44.49141,39.95678],[44.48149,39.96619],[44.4677,39.97226],[44.45582,39.97016],[44.45068,39.97344],[44.45167,39.97728],[44.44816,39.98198],[44.43111,39.98837],[44.41916,40],[44.39237,40.00496],[44.37875,40.00412],[44.35886,40.01802],[44.35118,40.02762],[44.34298,40.02683],[44.33466,40.03285],[44.32391,40.03178],[44.31261,40.03934],[44.29709,40.03623],[44.2943,40.04384],[44.28558,40.04351],[44.27499,40.04933],[44.26104,40.04647],[44.24783,40.0491],[44.24186,40.04584],[44.23376,40.04658],[44.23227,40.04331],[44.22152,40.04339],[44.21479,40.03429],[44.20998,40.03444],[44.20574,40.03932],[44.18925,40.03855],[44.18794,40.03061],[44.17396,40.02755],[44.16444,40.03208],[44.14443,40.03337],[44.13138,40.02723],[44.12281,40.03427],[44.10919,40.03037],[44.08852,40.0343],[44.06303,40.03207],[44.05679,40.02736],[44.03669,40.02891],[44.03063,40.02468],[44.0169,40.02324],[43.99231,40.03233],[43.97497,40.02584],[43.97086,40.01857],[43.96483,40.01679],[43.95731,40.02145],[43.92672,40.02177],[43.91848,40.02532],[43.89731,40.02124],[43.87488,40.03561],[43.8644,40.03563],[43.8569,40.04347],[43.82468,40.04871],[43.8247,40.05909],[43.80887,40.0616],[43.79685,40.06935],[43.78789,40.06903],[43.76102,40.08419],[43.75332,40.07866],[43.74652,40.08198],[43.72884,40.07807],[43.70146,40.08601],[43.69811,40.0927],[43.68914,40.09649],[43.67973,40.09583],[43.67474,40.10771],[43.65699,40.11218],[43.65421,40.12452],[43.64854,40.13134],[43.65326,40.14055],[43.6513,40.14604],[43.66097,40.15422],[43.66846,40.15627],[43.71452,40.16204],[43.71238,40.17266],[43.70161,40.17744],[43.69496,40.18868],[43.69633,40.1912],[43.67351,40.20557],[43.65323,40.22458],[43.65737,40.22814],[43.68318,40.22623],[43.67839,40.22914],[43.67795,40.23335],[43.68228,40.23703],[43.67682,40.24812],[43.68176,40.25026],[43.67845,40.25402],[43.68259,40.25587]],[[45.20429,41.0145],[45.18365,41.00657],[45.18374,41.00084],[45.19532,40.98857],[45.20965,40.99352],[45.21181,40.9836],[45.23216,40.97738],[45.23305,40.98529],[45.22718,40.99697],[45.23229,41.00198],[45.22515,41.0088],[45.20429,41.0145]],[[44.99986,41.04352],[45.00211,41.03881],[45.01136,41.03361],[45.03451,41.03927],[45.04574,41.04612],[45.03952,41.05097],[45.04131,41.06033],[45.04791,41.06583],[45.0343,41.07996],[45.02191,41.08475],[45.01015,41.09598],[44.99056,41.09052],[44.97146,41.07681],[44.976,41.06708],[44.9963,41.05953],[44.99986,41.04352]],[[44.93534,39.80765],[44.93248,39.80371],[44.93472,39.79682],[44.9457,39.7829],[44.95649,39.77664],[44.966,39.78105],[44.97202,39.79972],[44.96983,39.80633],[44.93534,39.80765]]],[[[45.53458,40.66856],[45.53719,40.66271],[45.55609,40.6508],[45.55404,40.6328],[45.54809,40.62275],[45.55246,40.61771],[45.54381,40.61937],[45.52329,40.61278],[45.52483,40.60479],[45.52177,40.59933],[45.50551,40.58834],[45.49691,40.58936],[45.48936,40.60085],[45.49038,40.6125],[45.48702,40.62158],[45.47838,40.62498],[45.47881,40.64136],[45.48877,40.64773],[45.49809,40.66523],[45.51281,40.66863],[45.53458,40.66856]]]]}}]}