{"type":"FeatureCollection","features":[{"type":"Feature","properties":{"ISO_A3":"ATG","WB_A3":"ATG","WB_NAME":"Antigua and Barbuda","WB_REGION":"LCN"},"geometry":{"type":"MultiPolygon","coordinates":[[[[-61.66259,17.06636],[-61.67515,17.07031],[-61.67245,17.07325],[-61.66069,17.0706],[-61.66259,17.06636]]],[[[-61.80026,17.16738],[-61.79934,17.16342],[-61.78972,17.15925],[-61.78792,17.14764],[-61.77323,17.14137],[-61.77366,17.13674],[-61.78049,17.13742],[-61.78695,17.13244],[-61.78321,17.13036],[-61.78874,17.12524],[-61.7857,17.11852],[-61.78353,17.12328],[-61.77642,17.12413],[-61.77744,17.11229],[-61.75924,17.11012],[-61.75747,17.11475],[-61.76196,17.12456],[-61.74781,17.13761],[-61.74544,17.13064],[-61.75447,17.12297],[-61.75198,17.11471],[-61.74542,17.11364],[-61.74211,17.1086],[-61.73138,17.11033],[-61.72659,17.10528],[-61.73035,17.10415],[-61.73352,17.09064],[-61.72907,17.09615],[-61.72022,17.0979],[-61.71823,17.09467],[-61.713,17.09515],[-61.70575,17.09871],[-61.70652,17.10374],[-61.67897,17.09828],[-61.68684,17.08339],[-61.69322,17.09013],[-61.69273,17.08317],[-61.70239,17.08027],[-61.70942,17.0713],[-61.71691,17.07161],[-61.71747,17.06929],[-61.71104,17.06874],[-61.70056,17.07459],[-61.70005,17.07111],[-61.69205,17.0663],[-61.68051,17.0697],[-61.67598,17.06632],[-61.67893,17.0657],[-61.67745,17.04753],[-61.67479,17.04468],[-61.68014,17.04561],[-61.68299,17.04035],[-61.68794,17.04026],[-61.68931,17.03576],[-61.68558,17.03367],[-61.69256,17.03101],[-61.71237,17.03178],[-61.73264,17.0426],[-61.74334,17.04396],[-61.74445,17.0392],[-61.73918,17.02603],[-61.73118,17.02108],[-61.73014,17.01721],[-61.7371,17.01661],[-61.7394,17.01341],[-61.73369,17.00693],[-61.7343,17.00282],[-61.7432,17.0061],[-61.74208,17.00272],[-61.74639,16.99827],[-61.75596,16.99857],[-61.75955,17.00194],[-61.76339,17.00789],[-61.76175,17.01406],[-61.76537,17.01228],[-61.76448,17.00583],[-61.7696,17.00097],[-61.77867,17.00566],[-61.77569,17.0108],[-61.77015,17.01265],[-61.76726,17.01987],[-61.76914,17.02228],[-61.77936,17.0228],[-61.78935,17.01036],[-61.80994,17.01435],[-61.81026,17.0097],[-61.83276,17.00405],[-61.83324,17.01268],[-61.83002,17.01318],[-61.82865,17.01858],[-61.83413,17.02067],[-61.83604,17.01398],[-61.83966,17.01388],[-61.85409,17.01834],[-61.85837,17.02287],[-61.8811,17.02299],[-61.88698,17.0247],[-61.89427,17.03749],[-61.89673,17.0509],[-61.89108,17.05499],[-61.88886,17.0694],[-61.88457,17.07041],[-61.89413,17.08411],[-61.89429,17.07922],[-61.89791,17.07898],[-61.90406,17.08043],[-61.90349,17.08494],[-61.88179,17.08688],[-61.87745,17.09536],[-61.86301,17.09718],[-61.86335,17.10197],[-61.86642,17.10457],[-61.86907,17.10195],[-61.87285,17.10319],[-61.87404,17.10667],[-61.88169,17.10388],[-61.89936,17.1041],[-61.89993,17.0987],[-61.90501,17.10001],[-61.89766,17.12071],[-61.87859,17.12859],[-61.87754,17.12549],[-61.87058,17.12545],[-61.86766,17.12054],[-61.8508,17.11813],[-61.84862,17.12353],[-61.85209,17.12509],[-61.85178,17.13256],[-61.86116,17.13223],[-61.86115,17.13442],[-61.85459,17.15408],[-61.84827,17.1583],[-61.8454,17.16756],[-61.83197,17.17353],[-61.82289,17.16794],[-61.80439,17.17079],[-61.80026,17.16738]]],[[[-61.72471,17.10617],[-61.71745,17.11025],[-61.7172,17.10767],[-61.72471,17.10617]]],[[[-61.72696,17.13078],[-61.71839,17.12996],[-61.71828,17.12712],[-61.72757,17.11945],[-61.74528,17.1148],[-61.74538,17.11931],[-61.72806,17.12641],[-61.72696,17.13078]]],[[[-61.81085,17.70336],[-61.80552,17.69792],[-61.79528,17.70095],[-61.79114,17.69783],[-61.7729,17.67299],[-61.75367,17.65664],[-61.74063,17.63853],[-61.7316,17.60525],[-61.73195,17.59315],[-61.73766,17.58262],[-61.73587,17.57025],[-61.73915,17.56125],[-61.73484,17.54436],[-61.73883,17.54992],[-61.76321,17.5578],[-61.75934,17.55417],[-61.76636,17.54829],[-61.76792,17.55577],[-61.77764,17.56845],[-61.78647,17.57275],[-61.7956,17.57294],[-61.82152,17.59177],[-61.83683,17.59237],[-61.85543,17.58115],[-61.85919,17.58156],[-61.85979,17.59264],[-61.8531,17.60908],[-61.85016,17.62864],[-61.85537,17.6552],[-61.8647,17.66607],[-61.86984,17.68233],[-61.85172,17.65827],[-61.84999,17.61319],[-61.85856,17.59495],[-61.85211,17.59646],[-61.84564,17.60054],[-61.84237,17.60747],[-61.83834,17.60822],[-61.84073,17.6121],[-61.83536,17.61207],[-61.83265,17.6154],[-61.83157,17.63806],[-61.82304,17.64831],[-61.83355,17.66306],[-61.82862,17.67771],[-61.83004,17.68712],[-61.81635,17.68485],[-61.8038,17.69379],[-61.80229,17.6988],[-61.8156,17.69618],[-61.81704,17.70327],[-61.81085,17.70336]]],[[[-61.75389,17.14872],[-61.75481,17.15156],[-61.75952,17.14889],[-61.76245,17.15135],[-61.76053,17.15855],[-61.74686,17.15873],[-61.74567,17.15589],[-61.75389,17.14872]]],[[[-61.76458,17.14791],[-61.76158,17.14579],[-61.76382,17.14329],[-61.76458,17.14791]]],[[[-61.8384,17.72361],[-61.82228,17.70266],[-61.82648,17.69714],[-61.83105,17.69653],[-61.83016,17.70991],[-61.8335,17.71225],[-61.83556,17.7066],[-61.84334,17.70793],[-61.8448,17.71103],[-61.84051,17.72052],[-61.84375,17.72867],[-61.84778,17.72779],[-61.84888,17.72355],[-61.85506,17.72526],[-61.84374,17.72931],[-61.8384,17.72361]]],[[[-61.85204,17.71288],[-61.8495,17.71183],[-61.84609,17.71877],[-61.84423,17.71541],[-61.8471,17.70847],[-61.84322,17.70639],[-61.8418,17.69685],[-61.8383,17.69734],[-61.8378,17.69167],[-61.83151,17.68751],[-61.83195,17.68288],[-61.84638,17.697],[-61.84679,17.69327],[-61.85831,17.70003],[-61.85996,17.71395],[-61.85405,17.71517],[-61.85204,17.71288]]],[[[-61.87438,17.68673],[-61.88667,17.69788],[-61.87749,17.70427],[-61.87044,17.71556],[-61.86776,17.71426],[-61.87036,17.70577],[-61.88074,17.70094],[-61.87438,17.68673]]],[[[-62.3473,16.93215],[-62.3478,16.94414],[-62.34512,16.94439],[-62.34342,16.93459],[-62.3473,16.93215]]]]}}]}