{"type":"FeatureCollection","features":[{"type":"Feature","properties":{"ISO_A3":"AUT","WB_A3":"AUT","WB_NAME":"Austria","WB_REGION":"ECS"},"geometry":{"type":"MultiPolygon","coordinates":[[[[16.97622,48.1719],[17.03163,48.1401],[17.0572,48.14377],[17.06789,48.12703],[17.06758,48.1235],[17.06251,48.12193],[17.07609,48.11399],[17.07296,48.11031],[17.0791,48.10789],[17.07744,48.10595],[17.09265,48.09967],[17.08781,48.09656],[17.08965,48.09219],[17.0746,48.08589],[17.07164,48.08108],[17.07891,48.07822],[17.07226,48.07045],[17.0868,48.06536],[17.07175,48.05621],[17.07214,48.05356],[17.08474,48.0503],[17.08781,48.0457],[17.06745,48.03144],[17.08987,48.01979],[17.11008,48.03123],[17.12676,48.02091],[17.1366,48.02296],[17.14387,48.02024],[17.16081,48.00667],[17.09466,47.97088],[17.11699,47.9609],[17.0909,47.9344],[17.11271,47.92736],[17.0956,47.9043],[17.10417,47.89926],[17.08518,47.87444],[17.07779,47.87756],[17.04871,47.87191],[17.0496,47.87007],[17.04004,47.86682],[17.01775,47.86841],[17.00995,47.85835],[17.05155,47.83791],[17.04661,47.8329],[17.04972,47.83124],[17.04692,47.82836],[17.06083,47.82275],[17.05971,47.82012],[17.07287,47.80961],[17.05096,47.79399],[17.05819,47.78617],[17.06085,47.77765],[17.06379,47.77783],[17.06717,47.7669],[17.07076,47.74994],[17.07027,47.72821],[17.09308,47.70825],[17.0403,47.70435],[16.91276,47.68779],[16.87513,47.68836],[16.87163,47.69011],[16.86882,47.72133],[16.85552,47.71108],[16.83907,47.70459],[16.82832,47.68273],[16.74902,47.68143],[16.72151,47.72262],[16.72056,47.73538],[16.65718,47.74156],[16.6397,47.74828],[16.63392,47.75909],[16.62796,47.75707],[16.60917,47.76037],[16.59877,47.75613],[16.59253,47.7591],[16.58802,47.75545],[16.56645,47.75159],[16.54797,47.75155],[16.54596,47.74932],[16.54878,47.74318],[16.53757,47.73999],[16.53646,47.73664],[16.55223,47.72252],[16.54046,47.71185],[16.52062,47.71225],[16.51692,47.70691],[16.5,47.70475],[16.49367,47.6987],[16.48725,47.69804],[16.48437,47.69498],[16.48606,47.69278],[16.47628,47.69037],[16.47471,47.68126],[16.46191,47.68271],[16.45399,47.69684],[16.44733,47.69631],[16.44315,47.67393],[16.42207,47.66439],[16.43984,47.6567],[16.47914,47.65012],[16.48732,47.64174],[16.49695,47.63935],[16.50751,47.64007],[16.51666,47.64531],[16.5488,47.63359],[16.57249,47.61986],[16.58976,47.61741],[16.628,47.62787],[16.65293,47.62225],[16.65953,47.60612],[16.67314,47.60495],[16.66638,47.59766],[16.67512,47.57879],[16.67109,47.57135],[16.66314,47.5687],[16.66463,47.56618],[16.67118,47.56009],[16.684,47.56131],[16.69099,47.55791],[16.69005,47.55555],[16.69816,47.54565],[16.70414,47.54575],[16.70586,47.54239],[16.71123,47.54309],[16.71453,47.53993],[16.70317,47.53324],[16.7056,47.52319],[16.69484,47.51752],[16.6898,47.51043],[16.66893,47.50354],[16.66246,47.50903],[16.65234,47.50033],[16.67048,47.47426],[16.65975,47.46062],[16.66204,47.45568],[16.64918,47.45131],[16.6516,47.44896],[16.6462,47.44661],[16.62684,47.44165],[16.62037,47.43075],[16.61524,47.43225],[16.5938,47.42226],[16.58789,47.42278],[16.58889,47.41939],[16.57928,47.41788],[16.58207,47.41495],[16.5751,47.41236],[16.57575,47.40637],[16.54629,47.4056],[16.53996,47.41006],[16.51879,47.40993],[16.50787,47.40376],[16.50992,47.39648],[16.49653,47.38992],[16.49656,47.3963],[16.48883,47.39449],[16.48815,47.39905],[16.48396,47.40072],[16.48964,47.40513],[16.48509,47.40854],[16.45629,47.41274],[16.44543,47.40683],[16.44641,47.40062],[16.45756,47.3849],[16.45115,47.37781],[16.45673,47.37221],[16.457,47.36724],[16.45116,47.36048],[16.45233,47.35711],[16.43734,47.35537],[16.435,47.35221],[16.4444,47.34655],[16.44768,47.34001],[16.46303,47.33579],[16.48941,47.28029],[16.47945,47.27801],[16.4783,47.26314],[16.46901,47.25519],[16.44658,47.25337],[16.44868,47.25047],[16.4318,47.25295],[16.43048,47.25036],[16.4417,47.24862],[16.44275,47.23375],[16.4382,47.23],[16.43679,47.22235],[16.43932,47.21789],[16.435,47.21543],[16.43659,47.20994],[16.42434,47.20782],[16.41895,47.21062],[16.4169,47.20535],[16.4212,47.19736],[16.41949,47.19493],[16.42819,47.18504],[16.45074,47.1883],[16.45309,47.18627],[16.46423,47.16819],[16.46103,47.1675],[16.46062,47.15908],[16.45311,47.15771],[16.44906,47.15189],[16.4548,47.14235],[16.46859,47.14273],[16.49045,47.14887],[16.51678,47.14934],[16.52264,47.14002],[16.52878,47.13733],[16.52933,47.12725],[16.49988,47.12342],[16.50071,47.11022],[16.48288,47.10876],[16.48476,47.10262],[16.47769,47.10142],[16.47466,47.10516],[16.47263,47.10056],[16.46461,47.09896],[16.46636,47.09577],[16.46333,47.09498],[16.47472,47.08532],[16.47085,47.0782],[16.47292,47.07359],[16.48246,47.07503],[16.48703,47.06889],[16.50021,47.06969],[16.51007,47.06627],[16.52048,47.06155],[16.52057,47.0562],[16.50656,47.04962],[16.47583,47.04684],[16.44361,47.0382],[16.4402,47.03592],[16.44407,47.03447],[16.4389,47.02972],[16.44779,47.02267],[16.46338,47.03223],[16.47509,47.02729],[16.4777,47.02135],[16.48182,47.0226],[16.49259,47.01012],[16.51235,47.0035],[16.51231,47.00096],[16.49314,46.99998],[16.48369,46.99428],[16.46379,46.99707],[16.45129,47.00415],[16.44609,47.00256],[16.44548,46.99322],[16.4275,46.99314],[16.41261,47.00474],[16.37288,46.9984],[16.36415,47.0074],[16.35926,47.00583],[16.34982,47.0104],[16.33947,46.99669],[16.32398,47.00244],[16.30226,46.99843],[16.2986,47.00132],[16.29943,47.0084],[16.29008,47.01396],[16.28274,47.00416],[16.28347,46.99751],[16.27707,46.98777],[16.2764,46.96266],[16.26924,46.96116],[16.25532,46.96421],[16.24944,46.96131],[16.24279,46.95597],[16.24649,46.94956],[16.24414,46.94613],[16.23383,46.94486],[16.22184,46.93555],[16.21746,46.93612],[16.21822,46.94002],[16.20722,46.93904],[16.20592,46.94255],[16.19992,46.9418],[16.19052,46.93002],[16.17925,46.90666],[16.1712,46.90347],[16.16301,46.90488],[16.15776,46.89681],[16.14876,46.89291],[16.14519,46.88607],[16.13876,46.88518],[16.13381,46.87632],[16.11115,46.86916],[16.09761,46.86101],[16.09207,46.86461],[16.079,46.8526],[16.06564,46.84988],[16.06597,46.84605],[16.05837,46.83866],[16.04131,46.84005],[16.0338,46.8355],[16.02793,46.84102],[16.01348,46.83593],[16.00798,46.8308],[15.99618,46.83537],[15.99142,46.83308],[15.98607,46.8275],[15.98747,46.82038],[15.9977,46.8112],[15.99747,46.80799],[15.99221,46.80278],[15.99399,46.79372],[15.98863,46.77585],[15.98974,46.75821],[15.98488,46.75163],[15.99284,46.73213],[16.00367,46.7227],[16.00342,46.71736],[16.01636,46.71616],[16.02078,46.71115],[16.02787,46.7122],[16.0293,46.70029],[16.04251,46.68613],[16.0381,46.65615],[16.00938,46.6659],[16.00175,46.67846],[15.99666,46.68126],[15.95096,46.68803],[15.91436,46.70915],[15.87668,46.71989],[15.83683,46.72233],[15.80282,46.71584],[15.76881,46.69905],[15.74318,46.6999],[15.72104,46.69587],[15.69885,46.69842],[15.67657,46.7068],[15.6524,46.70615],[15.64981,46.70505],[15.6541,46.6994],[15.65399,46.69278],[15.63667,46.69024],[15.63312,46.68172],[15.6055,46.68122],[15.60429,46.68472],[15.60855,46.68765],[15.59502,46.68999],[15.5781,46.68094],[15.56833,46.67982],[15.56742,46.67538],[15.55921,46.6711],[15.54379,46.66933],[15.55318,46.65021],[15.55139,46.64769],[15.54682,46.64877],[15.54427,46.64388],[15.55105,46.64029],[15.54565,46.63344],[15.53711,46.63387],[15.50399,46.6143],[15.48813,46.62069],[15.47281,46.61196],[15.46392,46.61459],[15.46219,46.62599],[15.45502,46.63016],[15.45675,46.63898],[15.44954,46.64243],[15.43926,46.63987],[15.43025,46.64669],[15.42184,46.64741],[15.42323,46.65265],[15.42047,46.65489],[15.41368,46.65555],[15.3701,46.64989],[15.35574,46.65147],[15.35358,46.65501],[15.34113,46.65088],[15.32846,46.65326],[15.32167,46.64806],[15.31108,46.65222],[15.29425,46.65257],[15.27699,46.64349],[15.26214,46.64469],[15.23573,46.63944],[15.22436,46.64339],[15.1972,46.64576],[15.18118,46.65631],[15.16687,46.65416],[15.16452,46.6573],[15.15474,46.65596],[15.14497,46.65978],[15.13414,46.6566],[15.1312,46.65066],[15.11616,46.65482],[15.11077,46.65961],[15.09744,46.65286],[15.08905,46.65231],[15.08254,46.64515],[15.06527,46.65196],[15.044,46.65211],[15.01615,46.64078],[14.99463,46.62113],[14.99599,46.61534],[14.97943,46.60136],[14.97114,46.62373],[14.95602,46.63255],[14.93111,46.61525],[14.92286,46.62011],[14.92059,46.61756],[14.92334,46.6035],[14.91899,46.60192],[14.91658,46.60505],[14.9054,46.60524],[14.88955,46.61251],[14.87023,46.60714],[14.86475,46.59332],[14.85787,46.59305],[14.85577,46.5862],[14.83799,46.56908],[14.83937,46.56733],[14.83457,46.56333],[14.83803,46.55817],[14.83231,46.54874],[14.82615,46.54805],[14.82318,46.54315],[14.82982,46.53858],[14.82349,46.53633],[14.82185,46.52438],[14.81802,46.52248],[14.81859,46.50937],[14.78428,46.49955],[14.77689,46.5046],[14.75877,46.50405],[14.74841,46.49764],[14.74141,46.50526],[14.72973,46.49159],[14.71479,46.49997],[14.7093,46.48111],[14.69754,46.47449],[14.70235,46.4672],[14.69306,46.46382],[14.68326,46.46789],[14.6756,46.46183],[14.67924,46.45778],[14.67478,46.45072],[14.66643,46.44984],[14.65991,46.4446],[14.63164,46.43953],[14.59604,46.43682],[14.59629,46.43401],[14.58669,46.42833],[14.58414,46.42278],[14.58327,46.41594],[14.58834,46.41474],[14.58934,46.41025],[14.58652,46.40421],[14.58755,46.39642],[14.57861,46.3832],[14.5816,46.38162],[14.57862,46.37748],[14.56344,46.37231],[14.55592,46.37865],[14.55365,46.3915],[14.54185,46.40407],[14.5399,46.4115],[14.53204,46.41471],[14.52181,46.4272],[14.5034,46.42305],[14.4922,46.41288],[14.48442,46.41547],[14.47826,46.4139],[14.47815,46.41792],[14.46701,46.42197],[14.44255,46.42329],[14.44212,46.42814],[14.43019,46.43721],[14.43868,46.44077],[14.43778,46.44301],[14.42961,46.44701],[14.4014,46.44485],[14.38151,46.43904],[14.34471,46.43697],[14.32616,46.43101],[14.3082,46.43065],[14.3027,46.43748],[14.28327,46.44349],[14.23713,46.43225],[14.21573,46.44314],[14.20752,46.43933],[14.19246,46.44241],[14.17642,46.434],[14.15773,46.43467],[14.15247,46.43734],[14.15203,46.44137],[14.13498,46.45102],[14.13545,46.45779],[14.12099,46.47668],[14.10249,46.47892],[14.09456,46.48492],[14.07134,46.48711],[14.05139,46.4932],[14.03421,46.49088],[14.01922,46.48135],[14.0064,46.48141],[13.98981,46.48819],[13.98885,46.49287],[13.97572,46.49824],[13.96736,46.49786],[13.94278,46.5115],[13.91174,46.52111],[13.90127,46.5188],[13.88197,46.52279],[13.87891,46.51916],[13.85636,46.51391],[13.83105,46.51863],[13.82703,46.51361],[13.81178,46.50607],[13.79478,46.50535],[13.78017,46.51216],[13.77856,46.51617],[13.73732,46.51709],[13.72142,46.52344],[13.6802,46.52172],[13.62225,46.54216],[13.59227,46.5461],[13.57757,46.53808],[13.56945,46.53967],[13.56877,46.54598],[13.56336,46.55126],[13.54303,46.55353],[13.52001,46.54688],[13.5147,46.54863],[13.51142,46.55531],[13.50541,46.55588],[13.50708,46.55937],[13.5043,46.56611],[13.47826,46.56071],[13.47479,46.55734],[13.42613,46.55758],[13.4076,46.56153],[13.40897,46.57117],[13.37227,46.57925],[13.36852,46.57386],[13.37081,46.56796],[13.36343,46.57],[13.3523,46.56655],[13.34389,46.56966],[13.31987,46.55292],[13.30717,46.55456],[13.2978,46.56021],[13.2858,46.55755],[13.26817,46.56092],[13.26101,46.55728],[13.25234,46.56044],[13.23904,46.55235],[13.23265,46.55364],[13.2323,46.55881],[13.21732,46.57038],[13.1946,46.57188],[13.17907,46.57788],[13.17701,46.58175],[13.1687,46.58496],[13.16848,46.58887],[13.15086,46.5899],[13.14636,46.58713],[13.10912,46.59594],[13.10605,46.59434],[13.08343,46.60197],[13.04705,46.59528],[13.03168,46.59621],[13.02153,46.60233],[12.9875,46.59937],[12.9567,46.60648],[12.94882,46.60232],[12.92766,46.61059],[12.88809,46.60675],[12.86566,46.61],[12.85306,46.60476],[12.83361,46.61023],[12.83356,46.6219],[12.83715,46.62708],[12.83078,46.62905],[12.831,46.63133],[12.81922,46.62829],[12.80391,46.63314],[12.79644,46.6379],[12.79535,46.64219],[12.78401,46.64503],[12.75659,46.6472],[12.74754,46.6431],[12.74553,46.63828],[12.73143,46.63432],[12.7167,46.64849],[12.69923,46.65155],[12.6906,46.65696],[12.65858,46.65724],[12.64144,46.65211],[12.632,46.65702],[12.63104,46.66124],[12.61886,46.66186],[12.60254,46.65612],[12.57652,46.65615],[12.56682,46.6515],[12.55966,46.65333],[12.55849,46.65737],[12.54681,46.65948],[12.52868,46.67004],[12.52833,46.67396],[12.51643,46.67839],[12.50622,46.67777],[12.50166,46.6805],[12.49934,46.67783],[12.48012,46.67722],[12.47573,46.68578],[12.45218,46.68982],[12.44311,46.6884],[12.42789,46.69561],[12.42526,46.69972],[12.41408,46.70074],[12.41002,46.70612],[12.40215,46.70709],[12.37766,46.72231],[12.35725,46.77505],[12.30927,46.78498],[12.28474,46.7827],[12.28055,46.78962],[12.28198,46.79347],[12.28773,46.7951],[12.2876,46.80059],[12.29216,46.80254],[12.28306,46.81502],[12.30574,46.83304],[12.30673,46.84106],[12.29606,46.84352],[12.29686,46.84762],[12.29212,46.84978],[12.2893,46.85715],[12.29021,46.86408],[12.2761,46.87244],[12.27797,46.87816],[12.27366,46.88441],[12.24195,46.8909],[12.23588,46.88868],[12.23238,46.8807],[12.22097,46.87902],[12.21833,46.87381],[12.20462,46.88381],[12.19692,46.89292],[12.19949,46.89632],[12.19019,46.90607],[12.16929,46.91001],[12.16233,46.90694],[12.14378,46.91374],[12.15246,46.9169],[12.16116,46.92959],[12.16776,46.93328],[12.16835,46.93822],[12.15796,46.95067],[12.13736,46.95709],[12.13186,46.96242],[12.13669,46.96674],[12.13817,46.98121],[12.12817,46.98506],[12.13048,46.99317],[12.12117,47.00649],[12.12451,47.01169],[12.14759,47.02496],[12.16473,47.01899],[12.18003,47.02541],[12.20464,47.02697],[12.21648,47.04525],[12.21658,47.05858],[12.2405,47.06866],[12.22708,47.08202],[12.18597,47.09211],[12.15161,47.07931],[12.13536,47.07936],[12.11865,47.07325],[12.10292,47.07826],[12.09193,47.07621],[12.09193,47.07366],[12.08199,47.06917],[12.07606,47.05891],[12.04402,47.06145],[12.03478,47.05767],[12.03106,47.05065],[12.01974,47.04709],[11.99447,47.04952],[11.98478,47.04729],[11.98013,47.05001],[11.96841,47.04053],[11.9571,47.04332],[11.94591,47.0337],[11.93292,47.03755],[11.91683,47.03316],[11.91446,47.02872],[11.89514,47.02041],[11.89269,47.01656],[11.88017,47.01618],[11.87364,47.01017],[11.86973,47.01183],[11.86038,47.00794],[11.85237,47.00022],[11.84544,47.00153],[11.84018,46.9986],[11.83606,46.99296],[11.81534,46.98985],[11.78156,46.99225],[11.76573,46.97382],[11.74705,46.96885],[11.72749,46.97239],[11.72421,46.97992],[11.71064,46.99307],[11.68848,46.99543],[11.66444,46.99185],[11.63517,47.00297],[11.62717,47.01319],[11.59197,47.00571],[11.58235,47.00224],[11.58151,46.99743],[11.53862,46.98408],[11.53344,46.98735],[11.53257,46.99165],[11.51642,46.9997],[11.51261,47.00514],[11.50081,47.00731],[11.50203,47.00968],[11.47882,47.01095],[11.47006,47.0027],[11.46988,46.99548],[11.46094,46.9916],[11.45437,46.99284],[11.43959,46.97487],[11.40566,46.96485],[11.38258,46.9706],[11.37542,46.97977],[11.35864,46.99058],[11.34569,46.99063],[11.33689,46.98495],[11.31928,46.99231],[11.30791,46.9842],[11.28802,46.98591],[11.27729,46.98073],[11.26396,46.98078],[11.25721,46.97478],[11.24238,46.97003],[11.22041,46.96918],[11.2068,46.96254],[11.20315,46.96791],[11.19001,46.97051],[11.17712,46.96287],[11.16497,46.96568],[11.16583,46.95528],[11.16273,46.95068],[11.1679,46.94452],[11.16391,46.93984],[11.13893,46.92747],[11.11598,46.93146],[11.11013,46.92737],[11.10915,46.91599],[11.09617,46.91231],[11.09493,46.90794],[11.0992,46.90128],[11.09674,46.89334],[11.10162,46.88988],[11.08898,46.87885],[11.07807,46.85909],[11.0719,46.85623],[11.07483,46.84347],[11.07036,46.83836],[11.07745,46.83465],[11.08344,46.8226],[11.06044,46.81275],[11.05685,46.80812],[11.03925,46.80493],[11.04406,46.80059],[11.03632,46.79405],[11.02241,46.76548],[11.01383,46.77211],[10.99641,46.76703],[10.97797,46.76902],[10.97493,46.7725],[10.94875,46.77514],[10.92846,46.77285],[10.92364,46.77531],[10.90644,46.76831],[10.89403,46.76927],[10.8879,46.76329],[10.8824,46.76293],[10.86858,46.76582],[10.86725,46.7724],[10.85293,46.77403],[10.84219,46.77828],[10.84072,46.78179],[10.83201,46.78038],[10.82578,46.77397],[10.81414,46.77509],[10.78672,46.79624],[10.75489,46.78508],[10.73103,46.78808],[10.72605,46.79783],[10.74507,46.80372],[10.75121,46.8151],[10.76276,46.82065],[10.76311,46.8239],[10.75604,46.83235],[10.72225,46.83788],[10.71563,46.84319],[10.71704,46.84634],[10.70569,46.84671],[10.69294,46.85284],[10.69687,46.86215],[10.69037,46.86755],[10.67087,46.87126],[10.66754,46.87533],[10.65414,46.86691],[10.62435,46.86449],[10.59551,46.85725],[10.59025,46.85037],[10.55547,46.83978],[10.54998,46.84002],[10.55621,46.84679],[10.55233,46.85004],[10.52105,46.84542],[10.4971,46.84854],[10.49548,46.85216],[10.48316,46.85426],[10.48103,46.85863],[10.46965,46.8549],[10.46795,46.86173],[10.47123,46.87298],[10.46923,46.88106],[10.4647,46.88428],[10.47488,46.89411],[10.47847,46.91064],[10.48617,46.91542],[10.48782,46.93878],[10.47784,46.94041],[10.45491,46.9529],[10.42893,46.95605],[10.42221,46.96004],[10.42676,46.97547],[10.41259,46.98258],[10.39873,46.99685],[10.38928,47.0005],[10.37212,46.99073],[10.35501,46.99235],[10.34665,46.98959],[10.34449,46.98269],[10.33992,46.98123],[10.3398,46.97697],[10.32961,46.96445],[10.32783,46.95402],[10.30946,46.95018],[10.30781,46.94743],[10.30621,46.94103],[10.31725,46.93054],[10.31703,46.92609],[10.30086,46.92465],[10.29688,46.91997],[10.26704,46.92883],[10.24176,46.93164],[10.24214,46.9195],[10.23721,46.91577],[10.23337,46.90173],[10.22609,46.89664],[10.22835,46.88959],[10.23473,46.88501],[10.23197,46.86669],[10.19377,46.86642],[10.18192,46.85554],[10.16879,46.85063],[10.15751,46.84785],[10.14591,46.85117],[10.13945,46.84739],[10.12266,46.84823],[10.11933,46.8444],[10.10537,46.84086],[10.0933,46.8506],[10.09137,46.85895],[10.08692,46.86107],[10.05474,46.86175],[10.0509,46.86448],[10.05258,46.87574],[10.0195,46.8991],[9.99088,46.90227],[9.98238,46.90629],[9.97777,46.91586],[9.96663,46.91222],[9.95902,46.91601],[9.93827,46.91315],[9.92282,46.91828],[9.91217,46.92608],[9.90797,46.92495],[9.88009,46.93503],[9.87494,46.95031],[9.87877,46.95669],[9.8713,46.96304],[9.8755,46.96742],[9.87559,46.97348],[9.88443,46.98079],[9.88495,46.98551],[9.89188,46.98889],[9.88877,47.0007],[9.87086,47.00971],[9.87097,47.01264],[9.88014,47.01719],[9.87615,47.02124],[9.85974,47.02322],[9.85276,47.01644],[9.83608,47.01255],[9.82424,47.01952],[9.80775,47.02357],[9.78528,47.03683],[9.76906,47.03894],[9.74781,47.03695],[9.74505,47.04119],[9.71929,47.04337],[9.70885,47.04711],[9.70571,47.05025],[9.70731,47.05384],[9.69763,47.0524],[9.68835,47.05521],[9.682,47.05896],[9.68184,47.06206],[9.6591,47.05827],[9.64511,47.05974],[9.64136,47.05401],[9.63291,47.05126],[9.61728,47.05358],[9.6106,47.05768],[9.60707,47.06077],[9.61183,47.06481],[9.61214,47.07918],[9.61913,47.07838],[9.62354,47.08251],[9.63353,47.08343],[9.63443,47.10113],[9.62084,47.1105],[9.63293,47.12841],[9.62492,47.13238],[9.6226,47.14119],[9.62586,47.14589],[9.62141,47.15136],[9.60871,47.14777],[9.60282,47.15175],[9.59674,47.16291],[9.57945,47.1711],[9.5662,47.16987],[9.57309,47.17576],[9.57256,47.1908],[9.5803,47.1958],[9.58488,47.20534],[9.56925,47.21935],[9.55857,47.22411],[9.55209,47.22366],[9.5667,47.24292],[9.53073,47.2706],[9.54584,47.27972],[9.55729,47.29899],[9.58363,47.31269],[9.60396,47.35027],[9.62448,47.36615],[9.65907,47.36958],[9.67336,47.3815],[9.6741,47.39015],[9.65164,47.40463],[9.65001,47.42216],[9.64432,47.43521],[9.65801,47.44779],[9.65863,47.45257],[9.62064,47.45844],[9.6121,47.46891],[9.60679,47.47001],[9.60438,47.46304],[9.60075,47.4616],[9.59313,47.46561],[9.58354,47.48101],[9.56146,47.4978],[9.55451,47.54571],[9.5702,47.54303],[9.59979,47.53159],[9.60979,47.53199],[9.63588,47.54311],[9.65576,47.53875],[9.67962,47.52454],[9.71041,47.52491],[9.73577,47.53424],[9.7351,47.54563],[9.74172,47.55489],[9.74683,47.55538],[9.7435,47.55888],[9.75191,47.56728],[9.74832,47.57073],[9.75646,47.57282],[9.7567,47.57989],[9.76198,47.58141],[9.76068,47.58348],[9.76665,47.58919],[9.77144,47.58884],[9.77682,47.59538],[9.80002,47.59556],[9.82463,47.58596],[9.82736,47.57998],[9.82585,47.57384],[9.82077,47.57086],[9.82572,47.55937],[9.81697,47.55317],[9.81577,47.54775],[9.84874,47.54216],[9.8582,47.53396],[9.87301,47.53011],[9.87806,47.53877],[9.87579,47.54437],[9.88023,47.54792],[9.90664,47.5424],[9.91331,47.53293],[9.92254,47.52981],[9.94107,47.53823],[9.96363,47.5352],[9.95958,47.53806],[9.96044,47.54152],[9.96797,47.54634],[9.97065,47.5434],[9.96488,47.53798],[9.96831,47.52822],[9.96516,47.52116],[9.99574,47.50277],[9.98747,47.49855],[10.00073,47.48214],[10.0372,47.48922],[10.04717,47.48639],[10.04534,47.48485],[10.05462,47.47434],[10.05166,47.4703],[10.05406,47.46631],[10.06471,47.46368],[10.07017,47.45594],[10.09148,47.45904],[10.09491,47.44984],[10.09331,47.44157],[10.10553,47.42875],[10.09567,47.42201],[10.09556,47.41792],[10.07432,47.4148],[10.07026,47.4095],[10.08629,47.39929],[10.08342,47.39269],[10.10023,47.35523],[10.11926,47.37555],[10.1418,47.36725],[10.16606,47.36884],[10.1693,47.37103],[10.16991,47.38587],[10.17658,47.38534],[10.18532,47.39075],[10.21289,47.38066],[10.22978,47.38797],[10.23632,47.38177],[10.23179,47.37898],[10.23711,47.37371],[10.22461,47.35887],[10.21671,47.35423],[10.21761,47.35043],[10.20433,47.33688],[10.20741,47.33231],[10.19966,47.32638],[10.21112,47.31889],[10.216,47.31108],[10.21235,47.31114],[10.20146,47.29931],[10.18884,47.29392],[10.17842,47.29476],[10.17503,47.2894],[10.17585,47.28175],[10.17224,47.27902],[10.17502,47.2761],[10.17269,47.27392],[10.17425,47.27029],[10.19289,47.27272],[10.20121,47.2769],[10.22246,47.27585],[10.23198,47.27072],[10.2381,47.27208],[10.24192,47.2778],[10.25948,47.28146],[10.26636,47.28803],[10.28277,47.28882],[10.29577,47.29994],[10.30134,47.29866],[10.31465,47.30637],[10.33007,47.30482],[10.34056,47.31421],[10.34722,47.31587],[10.34574,47.32184],[10.3569,47.33714],[10.38637,47.35654],[10.38568,47.36229],[10.39329,47.37445],[10.41351,47.37856],[10.41958,47.38449],[10.43628,47.38107],[10.42921,47.39124],[10.434,47.39994],[10.43128,47.40281],[10.4374,47.40697],[10.43561,47.40988],[10.45576,47.42024],[10.45824,47.42727],[10.4757,47.43342],[10.46585,47.45306],[10.46823,47.45925],[10.46553,47.46388],[10.47006,47.46873],[10.46666,47.47358],[10.46809,47.47702],[10.46302,47.48279],[10.44037,47.48649],[10.43135,47.50361],[10.44023,47.51316],[10.442,47.51836],[10.43878,47.52385],[10.45418,47.55543],[10.45109,47.55473],[10.4452,47.56725],[10.43534,47.56792],[10.43211,47.57163],[10.42897,47.57764],[10.43533,47.57941],[10.43294,47.58126],[10.43494,47.58362],[10.45652,47.58281],[10.46946,47.58717],[10.48151,47.58376],[10.47036,47.57786],[10.47339,47.57115],[10.45552,47.55605],[10.47222,47.55118],[10.48886,47.54049],[10.5247,47.53517],[10.55886,47.53738],[10.57341,47.5341],[10.58168,47.54778],[10.58041,47.55576],[10.59016,47.5601],[10.59804,47.56972],[10.60829,47.56584],[10.61906,47.56688],[10.62606,47.56108],[10.63483,47.55907],[10.67698,47.55905],[10.678,47.55624],[10.69098,47.55877],[10.69459,47.54478],[10.7109,47.54312],[10.7182,47.53843],[10.74132,47.53844],[10.75805,47.53468],[10.76387,47.52839],[10.76299,47.52037],[10.77751,47.51392],[10.79541,47.52119],[10.812,47.52097],[10.81314,47.52643],[10.82807,47.52846],[10.83852,47.52544],[10.85307,47.53337],[10.89059,47.53683],[10.9009,47.52118],[10.90564,47.51749],[10.91626,47.51928],[10.91791,47.5137],[10.87159,47.49926],[10.86935,47.48676],[10.87139,47.48158],[10.8854,47.47918],[10.91024,47.48558],[10.93658,47.48229],[10.93848,47.47997],[10.92811,47.47192],[10.98361,47.43001],[10.98465,47.42104],[10.97096,47.41649],[10.9698,47.40427],[10.97056,47.4001],[10.98839,47.39574],[11.02428,47.39698],[11.0285,47.39347],[11.03837,47.39664],[11.04896,47.39406],[11.06143,47.3966],[11.11508,47.39555],[11.1222,47.39834],[11.12257,47.4065],[11.12967,47.41273],[11.14087,47.41411],[11.15813,47.42165],[11.19899,47.42787],[11.20549,47.43389],[11.22564,47.4309],[11.24999,47.43233],[11.25342,47.42823],[11.24035,47.41955],[11.23059,47.40545],[11.22408,47.40163],[11.22231,47.39734],[11.22496,47.39525],[11.27268,47.39799],[11.29006,47.40726],[11.29317,47.41913],[11.29024,47.42208],[11.29092,47.42702],[11.31756,47.43252],[11.32168,47.43754],[11.33118,47.43912],[11.3313,47.44473],[11.33811,47.44978],[11.35727,47.44882],[11.36435,47.44497],[11.3755,47.44919],[11.42109,47.44467],[11.40666,47.46658],[11.38982,47.4669],[11.38377,47.47228],[11.38679,47.47784],[11.40489,47.48887],[11.41642,47.50195],[11.43724,47.5159],[11.44221,47.5159],[11.44949,47.50727],[11.48761,47.509],[11.50567,47.50472],[11.51862,47.511],[11.53332,47.50882],[11.57242,47.5145],[11.58812,47.52545],[11.5857,47.54557],[11.58954,47.55179],[11.58686,47.5547],[11.59988,47.56647],[11.60497,47.57955],[11.61819,47.58397],[11.63425,47.58158],[11.63085,47.5847],[11.63588,47.59466],[11.64111,47.5935],[11.64335,47.5893],[11.64928,47.59034],[11.66388,47.5836],[11.68127,47.58383],[11.70018,47.58896],[11.74529,47.58773],[11.78105,47.59119],[11.78957,47.58769],[11.8284,47.58537],[11.82945,47.58212],[11.84461,47.58131],[11.84737,47.58231],[11.85496,47.60236],[11.90223,47.60824],[11.91381,47.61387],[11.93334,47.61273],[11.96817,47.61724],[11.97685,47.61481],[11.98217,47.61925],[12.0086,47.62497],[12.02191,47.61108],[12.0299,47.61181],[12.03848,47.6176],[12.04954,47.61494],[12.06422,47.61868],[12.08236,47.60974],[12.11522,47.61145],[12.12903,47.60565],[12.13981,47.60533],[12.16119,47.61275],[12.179,47.61439],[12.18144,47.61034],[12.17958,47.60201],[12.20301,47.60643],[12.20814,47.61404],[12.19912,47.64082],[12.18146,47.66898],[12.16732,47.68238],[12.16243,47.70116],[12.18348,47.70048],[12.19772,47.70876],[12.20365,47.70743],[12.22675,47.71814],[12.24971,47.74155],[12.25703,47.74303],[12.26499,47.73251],[12.24693,47.71096],[12.24127,47.69437],[12.25526,47.67945],[12.26325,47.67832],[12.28473,47.69014],[12.33801,47.69699],[12.33507,47.6927],[12.33738,47.69122],[12.35118,47.69214],[12.36362,47.68384],[12.40138,47.69227],[12.44007,47.69522],[12.443,47.69184],[12.43954,47.67973],[12.44121,47.674],[12.45272,47.66796],[12.46512,47.64972],[12.49136,47.6369],[12.49918,47.62509],[12.51228,47.62531],[12.53637,47.63646],[12.57501,47.63231],[12.59627,47.66551],[12.60894,47.67398],[12.61534,47.67244],[12.63158,47.67582],[12.6388,47.6711],[12.64669,47.67311],[12.64798,47.67019],[12.66554,47.6809],[12.68347,47.6827],[12.70524,47.68113],[12.71497,47.67637],[12.73141,47.67966],[12.74462,47.67579],[12.75678,47.66332],[12.76351,47.6671],[12.77199,47.66556],[12.77906,47.67246],[12.78413,47.67154],[12.77851,47.66113],[12.75899,47.65373],[12.75952,47.65043],[12.78091,47.63264],[12.78976,47.63327],[12.82443,47.61221],[12.82277,47.60962],[12.80735,47.61026],[12.79311,47.60074],[12.79124,47.5982],[12.79524,47.59312],[12.77924,47.5792],[12.7847,47.5686],[12.79234,47.56517],[12.7947,47.55676],[12.81773,47.54495],[12.8478,47.54589],[12.85182,47.53083],[12.88072,47.52188],[12.8852,47.51856],[12.886,47.51261],[12.90836,47.49709],[12.96402,47.47529],[12.97265,47.47434],[12.97505,47.48506],[12.98934,47.47762],[12.99477,47.47872],[12.99372,47.47154],[13.00114,47.46407],[13.0068,47.46452],[13.0221,47.47793],[13.0261,47.48624],[13.0476,47.49244],[13.04659,47.51497],[13.04328,47.51994],[13.04623,47.52376],[13.03089,47.53259],[13.03712,47.54295],[13.0556,47.55739],[13.05653,47.5618],[13.0506,47.56362],[13.04152,47.57649],[13.04489,47.57883],[13.04383,47.5835],[13.07189,47.58838],[13.06401,47.5965],[13.06321,47.6024],[13.06911,47.60476],[13.07982,47.6184],[13.09564,47.62801],[13.09859,47.63472],[13.09696,47.64069],[13.08839,47.64914],[13.08968,47.65395],[13.08005,47.66249],[13.07676,47.6714],[13.0807,47.68705],[13.06073,47.69718],[13.0455,47.71269],[13.02703,47.71657],[13.01795,47.72297],[13.0085,47.72219],[13.0023,47.71321],[12.99468,47.71282],[12.99136,47.70858],[12.97325,47.70715],[12.95668,47.70778],[12.94672,47.7121],[12.9249,47.7103],[12.9053,47.7234],[12.90463,47.7275],[12.91824,47.74258],[12.93098,47.74485],[12.93628,47.74906],[12.93732,47.75889],[12.94482,47.76441],[12.94223,47.77098],[12.93479,47.77019],[12.92964,47.77318],[12.93978,47.77873],[12.94007,47.78538],[12.9481,47.78715],[12.96352,47.79926],[12.98303,47.82613],[13.0031,47.84233],[13.00382,47.84857],[12.96793,47.89848],[12.94376,47.92594],[12.93897,47.94189],[12.93578,47.94393],[12.93374,47.94041],[12.92236,47.93944],[12.91934,47.94226],[12.92032,47.95253],[12.91809,47.95461],[12.87593,47.96257],[12.86933,47.96917],[12.85754,48.00685],[12.84855,48.01771],[12.76221,48.07246],[12.75299,48.08683],[12.74929,48.10787],[12.75827,48.11795],[12.75876,48.12695],[12.76479,48.12895],[12.7856,48.12298],[12.79752,48.13879],[12.80025,48.14729],[12.83172,48.15532],[12.83548,48.16486],[12.84829,48.16829],[12.85192,48.17697],[12.86021,48.18457],[12.86606,48.19883],[12.87369,48.20247],[12.95386,48.20857],[12.99927,48.23764],[13.01462,48.25426],[13.02254,48.25812],[13.0542,48.26519],[13.08032,48.27724],[13.12869,48.2785],[13.17548,48.29421],[13.26032,48.29469],[13.33048,48.324],[13.3671,48.35294],[13.41064,48.37409],[13.41776,48.3844],[13.42046,48.40102],[13.43991,48.43547],[13.42914,48.45017],[13.42759,48.45833],[13.45749,48.51012],[13.45746,48.51346],[13.44728,48.52233],[13.44486,48.52888],[13.45055,48.53472],[13.4391,48.5478],[13.43853,48.5582],[13.44998,48.56395],[13.46355,48.55398],[13.47535,48.55606],[13.47451,48.56238],[13.47889,48.56465],[13.48489,48.56154],[13.50404,48.57252],[13.50683,48.57627],[13.50166,48.58089],[13.50855,48.59042],[13.52766,48.5872],[13.56675,48.56215],[13.58258,48.5601],[13.58811,48.56741],[13.59902,48.56961],[13.62303,48.55518],[13.65169,48.54979],[13.66471,48.53395],[13.68451,48.52894],[13.70625,48.51745],[13.72709,48.51297],[13.73029,48.51477],[13.73309,48.525],[13.74777,48.52944],[13.74826,48.53948],[13.74361,48.54393],[13.7547,48.55118],[13.74663,48.5524],[13.75556,48.56503],[13.76015,48.56551],[13.77014,48.55361],[13.79045,48.5719],[13.80216,48.57467],[13.8072,48.58464],[13.80137,48.59732],[13.80858,48.59994],[13.81451,48.61294],[13.82017,48.61333],[13.82551,48.61805],[13.82356,48.62562],[13.8266,48.62709],[13.82635,48.63483],[13.82226,48.63761],[13.82409,48.64177],[13.8141,48.64966],[13.81969,48.67025],[13.81346,48.69191],[13.81659,48.69479],[13.83435,48.69289],[13.83537,48.70004],[13.8206,48.69905],[13.81123,48.70247],[13.81138,48.70868],[13.80304,48.70817],[13.79491,48.71457],[13.80095,48.71667],[13.81094,48.72914],[13.81927,48.73242],[13.82099,48.75451],[13.83617,48.76278],[13.83954,48.77162],[13.8761,48.76662],[13.91019,48.7475],[13.94129,48.72199],[13.95454,48.71974],[13.95552,48.71494],[13.95896,48.71372],[14.00328,48.70858],[14.00984,48.70481],[14.01457,48.69648],[14.01817,48.69624],[14.01617,48.69189],[14.02537,48.68909],[14.02598,48.6839],[14.03473,48.67727],[14.0594,48.67375],[14.06028,48.66525],[14.05294,48.65266],[14.0246,48.65262],[14.02285,48.64557],[14.0113,48.63907],[14.01825,48.63691],[14.02297,48.63072],[14.04813,48.62737],[14.04552,48.61887],[14.04089,48.61742],[14.05423,48.60413],[14.06771,48.6061],[14.06648,48.59551],[14.07171,48.59965],[14.08624,48.60009],[14.09826,48.59778],[14.09558,48.59224],[14.11593,48.58917],[14.13283,48.5975],[14.14034,48.59467],[14.15449,48.59587],[14.16202,48.59291],[14.16353,48.58924],[14.18373,48.59375],[14.19526,48.59251],[14.22819,48.58522],[14.23928,48.57794],[14.27137,48.58115],[14.27885,48.57424],[14.29501,48.56839],[14.32404,48.56408],[14.3271,48.55407],[14.33319,48.55182],[14.35311,48.56247],[14.3524,48.56889],[14.3579,48.57348],[14.36584,48.57584],[14.36849,48.56983],[14.37613,48.56919],[14.38808,48.57188],[14.39312,48.57737],[14.38774,48.58324],[14.38578,48.59192],[14.41543,48.59251],[14.43034,48.58853],[14.43547,48.59804],[14.44178,48.60028],[14.4486,48.61424],[14.4473,48.61981],[14.45594,48.62554],[14.44376,48.64344],[14.45828,48.64347],[14.47007,48.64821],[14.47651,48.63955],[14.49247,48.63333],[14.4952,48.62234],[14.50398,48.61723],[14.51623,48.6198],[14.52454,48.61546],[14.54756,48.61364],[14.55354,48.60584],[14.56206,48.60334],[14.56434,48.6085],[14.5809,48.61691],[14.5898,48.61764],[14.60715,48.62856],[14.61206,48.62741],[14.61822,48.62026],[14.62635,48.60451],[14.63067,48.60317],[14.64594,48.60989],[14.65384,48.60407],[14.66344,48.58195],[14.70619,48.5851],[14.70599,48.59089],[14.72113,48.60237],[14.71409,48.61744],[14.72211,48.63823],[14.71781,48.64956],[14.71235,48.65011],[14.72714,48.6792],[14.72785,48.68841],[14.73657,48.69894],[14.75566,48.70347],[14.75704,48.70933],[14.78039,48.71492],[14.79468,48.72998],[14.80812,48.73388],[14.80049,48.74739],[14.81149,48.76145],[14.81077,48.76734],[14.80638,48.77148],[14.8083,48.77745],[14.82553,48.78386],[14.82928,48.78049],[14.84254,48.78397],[14.85114,48.77731],[14.86226,48.77711],[14.86937,48.78105],[14.88128,48.78011],[14.88808,48.77008],[14.89295,48.77239],[14.9062,48.767],[14.92048,48.76858],[14.93188,48.76656],[14.94009,48.76129],[14.95226,48.76175],[14.95579,48.75808],[14.97933,48.77235],[14.98012,48.77915],[14.95342,48.78954],[14.95557,48.79291],[14.95323,48.7952],[14.95691,48.79982],[14.9553,48.80136],[14.9605,48.80452],[14.9574,48.81168],[14.96959,48.82383],[14.96826,48.83679],[14.97206,48.84227],[14.98452,48.84239],[14.98445,48.84601],[14.97414,48.85485],[14.97294,48.87466],[14.98382,48.87475],[14.98346,48.89096],[14.98891,48.89102],[14.99291,48.90403],[14.99001,48.91587],[14.97901,48.92803],[14.98651,48.93592],[14.97648,48.95582],[14.97619,48.971],[14.98451,48.98658],[14.99506,48.99007],[15.00081,49.00296],[14.99062,49.00985],[14.99513,49.01471],[15.00427,49.01242],[15.02172,49.02047],[15.0408,49.01149],[15.0525,49.01529],[15.06542,49.01422],[15.06728,49.00625],[15.06442,48.99974],[15.10256,48.99384],[15.10731,48.99882],[15.12192,48.99726],[15.13418,48.99991],[15.15628,48.9933],[15.15864,48.98992],[15.15665,48.98425],[15.15297,48.98452],[15.15109,48.98095],[15.16204,48.97771],[15.15946,48.9721],[15.1683,48.96716],[15.16973,48.96277],[15.15538,48.94614],[15.16047,48.94181],[15.177,48.94769],[15.18924,48.94302],[15.20001,48.95221],[15.22444,48.96014],[15.23854,48.95757],[15.24639,48.95952],[15.26005,48.95391],[15.26192,48.95759],[15.26907,48.95828],[15.26714,48.9672],[15.27188,48.96639],[15.28182,48.98075],[15.27577,48.98584],[15.27778,48.99462],[15.28948,48.99274],[15.29341,48.98944],[15.29102,48.98432],[15.30569,48.97792],[15.31209,48.98075],[15.32173,48.97613],[15.33223,48.98483],[15.36698,48.98188],[15.38793,48.97272],[15.39367,48.96521],[15.40341,48.96344],[15.42327,48.95222],[15.45052,48.94979],[15.4559,48.94528],[15.46939,48.95065],[15.48009,48.94359],[15.50201,48.93597],[15.5054,48.92132],[15.51339,48.91412],[15.55985,48.9042],[15.57786,48.89589],[15.61243,48.89826],[15.61959,48.89561],[15.63032,48.88504],[15.64237,48.8866],[15.65268,48.88281],[15.68967,48.85567],[15.70909,48.86068],[15.75115,48.85214],[15.76307,48.85792],[15.77953,48.87488],[15.82758,48.87105],[15.83957,48.87756],[15.85091,48.86905],[15.85166,48.866],[15.84113,48.86103],[15.84481,48.85885],[15.85827,48.85724],[15.86293,48.85274],[15.87502,48.85514],[15.87389,48.8606],[15.88084,48.85476],[15.87969,48.84822],[15.88277,48.84338],[15.88806,48.842],[15.893,48.84864],[15.89728,48.8486],[15.90515,48.83917],[15.89683,48.83868],[15.89423,48.84143],[15.8908,48.83844],[15.89349,48.83458],[15.91821,48.83882],[15.93085,48.83312],[15.92422,48.82443],[15.93465,48.81909],[15.94063,48.81987],[15.94069,48.8275],[15.94667,48.82754],[15.94802,48.82237],[15.95827,48.82307],[15.9598,48.8198],[15.95195,48.81394],[15.94959,48.80527],[15.95954,48.79847],[15.96886,48.7967],[15.99433,48.77935],[16.09279,48.74688],[16.11794,48.74669],[16.13891,48.74275],[16.13924,48.74541],[16.14986,48.74319],[16.1547,48.74845],[16.26304,48.737],[16.26831,48.74133],[16.27789,48.74151],[16.30531,48.73865],[16.31035,48.73383],[16.32988,48.73124],[16.33622,48.7323],[16.34379,48.74505],[16.34616,48.74077],[16.34974,48.74216],[16.35726,48.73782],[16.35144,48.73364],[16.35977,48.72806],[16.37945,48.72917],[16.39042,48.73903],[16.3941,48.73642],[16.40434,48.74052],[16.42279,48.76203],[16.43499,48.76563],[16.43926,48.77432],[16.43523,48.77658],[16.44773,48.79059],[16.44868,48.79938],[16.46196,48.80451],[16.45902,48.80809],[16.46446,48.8099],[16.48467,48.80162],[16.51613,48.80266],[16.51863,48.79825],[16.54072,48.81429],[16.56469,48.79395],[16.58177,48.79218],[16.59353,48.78692],[16.59358,48.78267],[16.6306,48.78043],[16.63454,48.78576],[16.64425,48.78579],[16.66307,48.78131],[16.66453,48.775],[16.67462,48.77157],[16.6775,48.76692],[16.68086,48.74993],[16.67381,48.74249],[16.68259,48.72802],[16.70115,48.7365],[16.72378,48.73821],[16.72856,48.73665],[16.72885,48.73323],[16.73946,48.73051],[16.74726,48.73215],[16.75328,48.721],[16.77578,48.71201],[16.7898,48.71384],[16.79964,48.70936],[16.79978,48.7063],[16.80607,48.70907],[16.80602,48.71217],[16.82726,48.71109],[16.83427,48.71651],[16.84089,48.71172],[16.86941,48.71249],[16.87917,48.72301],[16.8854,48.71667],[16.90234,48.71778],[16.90606,48.71409],[16.90232,48.71268],[16.90408,48.70988],[16.91074,48.70707],[16.91824,48.69417],[16.91047,48.67566],[16.92333,48.66941],[16.91925,48.65122],[16.92056,48.64532],[16.92834,48.63816],[16.9187,48.62266],[16.94019,48.61654],[16.94206,48.60663],[16.93374,48.59917],[16.93898,48.58434],[16.93558,48.57444],[16.93706,48.56793],[16.94487,48.55962],[16.94269,48.55223],[16.95333,48.54549],[16.95357,48.54219],[16.94928,48.53409],[16.94046,48.52738],[16.94366,48.52194],[16.91968,48.51883],[16.92248,48.51476],[16.91301,48.51031],[16.91446,48.49981],[16.91751,48.49726],[16.91392,48.49431],[16.90718,48.49801],[16.8964,48.4968],[16.88992,48.49197],[16.89627,48.48585],[16.89043,48.4814],[16.89017,48.47717],[16.88033,48.4774],[16.87349,48.46718],[16.86571,48.46591],[16.85962,48.45959],[16.86407,48.45539],[16.86047,48.4515],[16.85248,48.45123],[16.84943,48.44748],[16.85164,48.43536],[16.8631,48.41823],[16.85165,48.41184],[16.85026,48.40795],[16.85547,48.39474],[16.85103,48.39133],[16.85077,48.38368],[16.83379,48.38242],[16.83331,48.37987],[16.84043,48.37286],[16.83913,48.36465],[16.84363,48.35092],[16.85015,48.34814],[16.87165,48.349],[16.87473,48.34771],[16.87427,48.34438],[16.86965,48.33965],[16.87328,48.33716],[16.90759,48.32668],[16.90934,48.32438],[16.89768,48.31585],[16.89503,48.3094],[16.92003,48.2737],[16.9454,48.27066],[16.95732,48.26282],[16.9511,48.25612],[16.94616,48.23562],[16.96184,48.22052],[16.96218,48.21428],[16.97613,48.19027],[16.97622,48.1719]]]]}}]}