{"type":"FeatureCollection","features":[{"type":"Feature","properties":{"ISO_A3":"AZE","WB_A3":"AZE","WB_NAME":"Azerbaijan","WB_REGION":"ECS"},"geometry":{"type":"MultiPolygon","coordinates":[[[[50.84706,40.24993],[50.86241,40.23886],[50.8608,40.23289],[50.87921,40.22376],[50.87507,40.2214],[50.85458,40.234],[50.84113,40.25245],[50.84706,40.24993]]],[[[50.85212,40.23489],[50.86572,40.22557],[50.85803,40.22692],[50.84702,40.2357],[50.84888,40.23861],[50.85212,40.23489]]],[[[50.59488,40.33656],[50.59874,40.33787],[50.59823,40.34082],[50.6172,40.32655],[50.61128,40.32224],[50.61574,40.31851],[50.61437,40.31327],[50.59025,40.31222],[50.57789,40.30771],[50.55631,40.29],[50.55533,40.2928],[50.56364,40.30051],[50.573,40.31752],[50.58982,40.32426],[50.58106,40.34474],[50.58613,40.34487],[50.59488,40.33656]]],[[[50.55676,40.33663],[50.56716,40.32911],[50.57154,40.31994],[50.56002,40.32946],[50.54923,40.33042],[50.55472,40.33245],[50.55248,40.33845],[50.55676,40.33663]]],[[[49.3729,40.88794],[49.40697,40.85262],[49.44443,40.84042],[49.49691,40.83144],[49.5206,40.81729],[49.55419,40.78148],[49.54227,40.76103],[49.53444,40.75765],[49.53316,40.76008],[49.53719,40.7606],[49.5513,40.78125],[49.52923,40.79901],[49.52953,40.77229],[49.51624,40.75307],[49.51287,40.73107],[49.51321,40.7071],[49.52176,40.67648],[49.53653,40.65038],[49.55382,40.63302],[49.60612,40.61689],[49.63194,40.61263],[49.6721,40.61238],[49.68412,40.60194],[49.68358,40.5978],[49.69057,40.58644],[49.70272,40.57803],[49.73537,40.57421],[49.77734,40.57675],[49.80909,40.56649],[49.90846,40.57661],[49.99101,40.59359],[49.99705,40.58651],[50.00791,40.58544],[50.06716,40.59584],[50.07131,40.5929],[50.06583,40.58618],[50.07109,40.57187],[50.08539,40.56015],[50.09256,40.54497],[50.11703,40.52516],[50.15189,40.51949],[50.18495,40.50897],[50.22669,40.50279],[50.23954,40.48671],[50.23954,40.47783],[50.24408,40.47545],[50.24924,40.46481],[50.2633,40.45581],[50.26404,40.44941],[50.28189,40.44505],[50.2792,40.44174],[50.28516,40.43],[50.30107,40.42216],[50.31667,40.41882],[50.33507,40.40306],[50.35356,40.41076],[50.3526,40.42578],[50.32059,40.46725],[50.31509,40.47259],[50.30771,40.47405],[50.31286,40.47885],[50.32032,40.47994],[50.32947,40.48848],[50.33756,40.48419],[50.34242,40.4851],[50.35138,40.4696],[50.34576,40.45707],[50.35309,40.44733],[50.34978,40.44221],[50.35248,40.43726],[50.36213,40.43326],[50.36547,40.42676],[50.36585,40.42017],[50.35813,40.41473],[50.35671,40.40856],[50.35209,40.40953],[50.33961,40.40221],[50.33911,40.39679],[50.34378,40.39192],[50.34382,40.38321],[50.36234,40.3622],[50.36129,40.31939],[50.36024,40.31256],[50.35728,40.31111],[50.35664,40.29819],[50.36725,40.27513],[50.36404,40.25859],[50.3686,40.24942],[50.36637,40.24491],[50.36952,40.24059],[50.36918,40.22845],[50.36133,40.24979],[50.36004,40.26963],[50.35492,40.28552],[50.33946,40.30344],[50.30883,40.32205],[50.23582,40.34734],[50.20113,40.35415],[50.18036,40.35461],[50.17714,40.35831],[50.13556,40.36732],[50.09587,40.36406],[50.08599,40.35931],[50.08102,40.34779],[50.07971,40.35193],[50.07472,40.3529],[50.07009,40.34853],[50.06441,40.35388],[50.05211,40.35679],[50.03995,40.35536],[50.01082,40.34411],[50.00609,40.33733],[50.00116,40.33594],[50.007,40.31282],[50.01529,40.31016],[50.0112,40.30784],[49.98918,40.31196],[50.00649,40.3134],[50.00041,40.3361],[49.97018,40.34154],[49.95695,40.33698],[49.95564,40.34507],[49.94544,40.35572],[49.92199,40.36816],[49.91622,40.36747],[49.90191,40.37306],[49.87245,40.3746],[49.86337,40.37267],[49.86196,40.36973],[49.85647,40.37163],[49.84553,40.36852],[49.83776,40.3632],[49.83596,40.35525],[49.84068,40.34721],[49.84514,40.34902],[49.84776,40.34556],[49.86008,40.34477],[49.84088,40.33843],[49.84446,40.33683],[49.83554,40.30936],[49.8221,40.31382],[49.82303,40.3091],[49.82957,40.30449],[49.81209,40.30174],[49.79357,40.30481],[49.77648,40.30138],[49.75408,40.29342],[49.72242,40.27347],[49.71803,40.27985],[49.71179,40.28164],[49.69005,40.27837],[49.67659,40.27157],[49.67543,40.26654],[49.67827,40.26362],[49.65244,40.25142],[49.66694,40.24252],[49.63955,40.24972],[49.63127,40.24757],[49.6419,40.23566],[49.63694,40.2342],[49.64077,40.2277],[49.63603,40.22671],[49.63341,40.23365],[49.62163,40.22866],[49.60023,40.22764],[49.59312,40.23065],[49.56775,40.21266],[49.53827,40.20748],[49.51185,40.19538],[49.50347,40.18731],[49.48726,40.18375],[49.4767,40.17758],[49.47237,40.16914],[49.47314,40.14325],[49.48153,40.12525],[49.49161,40.11415],[49.47658,40.1108],[49.46044,40.11172],[49.457,40.10642],[49.44741,40.10154],[49.43925,40.10098],[49.42301,40.09013],[49.41768,40.07344],[49.42404,40.05629],[49.44165,40.03109],[49.46569,40.01059],[49.48011,40.0027],[49.48287,39.99633],[49.4742,39.98778],[49.45407,39.98245],[49.43898,39.9691],[49.42346,39.9635],[49.41487,39.95517],[49.41129,39.94041],[49.41245,39.92896],[49.42414,39.89241],[49.44028,39.86317],[49.43414,39.85653],[49.41199,39.8506],[49.40804,39.83729],[49.40581,39.84415],[49.40272,39.82635],[49.38481,39.79234],[49.38504,39.77769],[49.39208,39.75077],[49.40972,39.71544],[49.42174,39.69959],[49.38247,39.68964],[49.36264,39.68061],[49.33649,39.65575],[49.32142,39.63526],[49.30276,39.5808],[49.27583,39.52423],[49.27583,39.51311],[49.28123,39.49639],[49.30457,39.45537],[49.30218,39.45492],[49.28937,39.47242],[49.27452,39.5153],[49.27302,39.49698],[49.27881,39.47829],[49.29938,39.45265],[49.33495,39.42497],[49.33593,39.42223],[49.32554,39.42641],[49.31187,39.42209],[49.30637,39.41428],[49.31382,39.40824],[49.31525,39.40207],[49.34374,39.38155],[49.34294,39.37524],[49.35759,39.38677],[49.35723,39.39912],[49.36196,39.40386],[49.36779,39.39457],[49.37798,39.38848],[49.3748,39.38764],[49.37429,39.38367],[49.38133,39.38648],[49.4005,39.37825],[49.38638,39.3625],[49.38604,39.34525],[49.40513,39.31393],[49.43757,39.2788],[49.43345,39.27647],[49.3905,39.30036],[49.37539,39.30089],[49.36762,39.3055],[49.36831,39.31081],[49.34625,39.31008],[49.339,39.3171],[49.33758,39.33697],[49.31218,39.35065],[49.28317,39.35582],[49.26737,39.3533],[49.25523,39.34737],[49.24677,39.33432],[49.23792,39.28438],[49.23689,39.24966],[49.23393,39.24543],[49.23058,39.18765],[49.22461,39.1479],[49.21754,39.1312],[49.20135,39.11879],[49.19929,39.12006],[49.20196,39.12792],[49.20771,39.13275],[49.21003,39.1405],[49.20956,39.16113],[49.20222,39.18169],[49.18832,39.19592],[49.18317,39.19405],[49.18732,39.17991],[49.18009,39.17509],[49.18569,39.16425],[49.1753,39.16554],[49.16328,39.15259],[49.16424,39.1399],[49.15553,39.14602],[49.15584,39.17369],[49.15174,39.17043],[49.14999,39.13577],[49.16281,39.13672],[49.16681,39.13198],[49.14979,39.12933],[49.14606,39.13396],[49.13185,39.1288],[49.12398,39.13207],[49.12439,39.13522],[49.13436,39.13554],[49.14189,39.14209],[49.14107,39.14794],[49.13762,39.15014],[49.13182,39.14832],[49.1307,39.14296],[49.11657,39.13586],[49.10591,39.13333],[49.1024,39.1366],[49.10474,39.14125],[49.09991,39.15027],[49.11093,39.16174],[49.12013,39.17894],[49.10897,39.18186],[49.10215,39.15795],[49.09491,39.15818],[49.09177,39.15188],[49.08338,39.1546],[49.07967,39.16324],[49.08323,39.17688],[49.08679,39.17822],[49.09065,39.1753],[49.09424,39.17807],[49.08984,39.19084],[49.11176,39.20762],[49.12721,39.21347],[49.1485,39.23236],[49.10563,39.23766],[49.07846,39.2297],[49.06301,39.22172],[49.04911,39.21953],[49.04049,39.22507],[49.04049,39.24381],[49.01127,39.28029],[49.00031,39.2819],[48.972,39.27808],[48.9675,39.27111],[48.98271,39.25176],[48.98191,39.24683],[48.97905,39.24372],[48.96932,39.24362],[48.96831,39.23637],[48.96188,39.23214],[48.93249,39.22695],[48.91651,39.21966],[48.90792,39.2089],[48.89385,39.21166],[48.87191,39.20383],[48.86582,39.19264],[48.86882,39.18731],[48.87961,39.18296],[48.89703,39.18573],[48.90447,39.18094],[48.9169,39.18454],[48.91645,39.1773],[48.91209,39.17361],[48.91411,39.17202],[48.92591,39.17848],[48.92662,39.18724],[48.93415,39.19268],[48.97694,39.21109],[49.01179,39.21331],[49.02301,39.20922],[49.02113,39.19725],[48.98954,39.18155],[48.95489,39.16967],[48.9428,39.15849],[48.93213,39.13024],[48.92328,39.08088],[48.90972,39.05678],[48.92123,39.05517],[48.9357,39.04614],[48.94244,39.01249],[48.94186,38.98226],[48.93363,38.97146],[48.93737,38.97172],[48.93733,38.96869],[48.93213,38.96539],[48.92516,38.93515],[48.90852,38.90227],[48.86985,38.86276],[48.86662,38.86245],[48.8774,38.87276],[48.86603,38.8666],[48.8404,38.86181],[48.83106,38.85139],[48.82816,38.84089],[48.82559,38.84464],[48.82818,38.8551],[48.82612,38.85902],[48.8304,38.86747],[48.85773,38.87796],[48.86554,38.8875],[48.87364,38.88934],[48.88589,38.89797],[48.8775,38.90496],[48.85654,38.90619],[48.85387,38.90919],[48.8687,38.90819],[48.88682,38.91372],[48.89796,38.92273],[48.91703,38.94933],[48.90932,38.96501],[48.91289,38.97314],[48.90657,38.98467],[48.90914,38.99573],[48.88897,38.98651],[48.88462,38.99036],[48.86339,38.97502],[48.83317,38.94192],[48.82276,38.91954],[48.81629,38.91875],[48.81395,38.91139],[48.81988,38.89787],[48.82691,38.9162],[48.82299,38.8979],[48.8113,38.88604],[48.81087,38.88033],[48.81189,38.87643],[48.81645,38.87706],[48.82264,38.8724],[48.8151,38.86334],[48.81951,38.8456],[48.82896,38.83933],[48.82778,38.81985],[48.83904,38.79024],[48.85124,38.76859],[48.86959,38.75005],[48.86647,38.73176],[48.87491,38.63312],[48.87307,38.55722],[48.87929,38.52093],[48.87577,38.51055],[48.87624,38.48494],[48.88203,38.4423],[48.87321,38.44027],[48.84196,38.45219],[48.81145,38.44779],[48.79159,38.45178],[48.78308,38.44765],[48.77974,38.44174],[48.76709,38.44081],[48.76377,38.43431],[48.75268,38.42775],[48.7472,38.41698],[48.73853,38.4109],[48.70786,38.40851],[48.6934,38.39959],[48.66141,38.3925],[48.65686,38.39789],[48.63004,38.40131],[48.60131,38.41721],[48.60141,38.4231],[48.59233,38.43203],[48.59038,38.4559],[48.58124,38.45669],[48.58223,38.46092],[48.57169,38.47469],[48.56555,38.48034],[48.55709,38.48083],[48.55061,38.49335],[48.54406,38.49559],[48.53738,38.50406],[48.53059,38.50534],[48.5275,38.51325],[48.5125,38.51864],[48.51398,38.52192],[48.50843,38.52685],[48.50843,38.53859],[48.50429,38.54801],[48.49665,38.5526],[48.47292,38.55335],[48.46795,38.56127],[48.46218,38.56417],[48.46271,38.56909],[48.45425,38.5825],[48.45685,38.586],[48.45426,38.59103],[48.45857,38.59702],[48.45636,38.60333],[48.45846,38.6089],[48.43091,38.6138],[48.4075,38.60227],[48.38478,38.60515],[48.36201,38.59467],[48.35663,38.59719],[48.35031,38.59538],[48.32737,38.60399],[48.32085,38.60191],[48.31495,38.60414],[48.30579,38.61263],[48.30707,38.62105],[48.29392,38.63721],[48.295,38.64539],[48.25259,38.6623],[48.25364,38.66593],[48.24997,38.66877],[48.25204,38.68385],[48.24886,38.6919],[48.25754,38.6986],[48.2603,38.70546],[48.24743,38.72091],[48.24932,38.72671],[48.20671,38.74021],[48.20015,38.74862],[48.19134,38.75186],[48.19161,38.75545],[48.17353,38.76187],[48.16014,38.75996],[48.14486,38.76682],[48.13723,38.76637],[48.13433,38.77011],[48.13033,38.76809],[48.11796,38.77215],[48.10714,38.77019],[48.10272,38.77844],[48.10793,38.78597],[48.1064,38.78962],[48.07949,38.79324],[48.08062,38.80065],[48.06718,38.8031],[48.06214,38.80805],[48.04224,38.81571],[48.03506,38.8303],[48.0208,38.83806],[48.01094,38.90648],[48.01589,38.91001],[48.02093,38.91111],[48.02815,38.89916],[48.07197,38.91147],[48.07916,38.91674],[48.07842,38.92845],[48.08819,38.94659],[48.10782,38.94344],[48.11037,38.946],[48.13441,38.94841],[48.14616,38.94594],[48.15555,38.9538],[48.18503,38.95732],[48.2074,38.95332],[48.22076,38.95917],[48.233,38.95963],[48.2382,38.96462],[48.27062,38.96709],[48.29814,38.98441],[48.3086,38.99679],[48.32768,39.01082],[48.3353,39.02253],[48.34068,39.03518],[48.33476,39.04061],[48.33059,39.05247],[48.32588,39.05315],[48.32684,39.05724],[48.3241,39.05744],[48.32275,39.06698],[48.3167,39.07719],[48.31657,39.08627],[48.30445,39.09211],[48.30625,39.10781],[48.29982,39.1139],[48.28652,39.11494],[48.27721,39.12227],[48.25639,39.12322],[48.23073,39.13394],[48.22842,39.14145],[48.22534,39.14201],[48.22728,39.14745],[48.22191,39.14782],[48.2162,39.15673],[48.21984,39.16257],[48.19792,39.17572],[48.19509,39.17343],[48.19095,39.17578],[48.16979,39.19169],[48.1609,39.19043],[48.15852,39.19515],[48.16104,39.19708],[48.15018,39.19824],[48.14099,39.20835],[48.14453,39.21306],[48.13609,39.21806],[48.1405,39.22426],[48.13284,39.23108],[48.13474,39.23788],[48.13011,39.24123],[48.1328,39.24221],[48.12932,39.24633],[48.1373,39.25905],[48.13165,39.26195],[48.13096,39.2677],[48.14125,39.27502],[48.14428,39.28375],[48.15168,39.28256],[48.15497,39.29479],[48.18049,39.3061],[48.18614,39.31244],[48.19398,39.31171],[48.19576,39.31889],[48.20064,39.31942],[48.2133,39.32987],[48.23029,39.33015],[48.23568,39.33481],[48.24713,39.33066],[48.25841,39.33232],[48.25937,39.33527],[48.26756,39.33536],[48.26553,39.34089],[48.27683,39.34133],[48.27671,39.34403],[48.29702,39.35023],[48.31544,39.36247],[48.32505,39.36251],[48.34406,39.3712],[48.3615,39.371],[48.36849,39.37959],[48.34049,39.41653],[48.03177,39.69169],[47.986,39.70876],[47.97749,39.70809],[47.9803,39.70554],[47.97386,39.69897],[47.97225,39.69242],[47.96436,39.69256],[47.96081,39.68613],[47.94859,39.68001],[47.94408,39.68332],[47.93931,39.68188],[47.92956,39.66606],[47.92499,39.6709],[47.91791,39.66194],[47.89845,39.66481],[47.89319,39.66185],[47.89046,39.66621],[47.87893,39.67052],[47.86417,39.66466],[47.85577,39.66824],[47.8524,39.66423],[47.84725,39.66595],[47.83731,39.65953],[47.82215,39.66148],[47.81913,39.65657],[47.80828,39.65938],[47.80633,39.65067],[47.79443,39.6487],[47.79448,39.64253],[47.78435,39.64204],[47.78576,39.63464],[47.78028,39.6249],[47.76981,39.62625],[47.76222,39.62043],[47.7538,39.60717],[47.7395,39.59866],[47.71589,39.58973],[47.71145,39.59207],[47.7036,39.58524],[47.68862,39.58715],[47.68003,39.57826],[47.6709,39.57868],[47.65793,39.56528],[47.64938,39.56177],[47.64501,39.56326],[47.64043,39.55814],[47.62556,39.55373],[47.6125,39.53901],[47.60452,39.54186],[47.59573,39.53783],[47.57568,39.52799],[47.56388,39.51443],[47.52974,39.49887],[47.50596,39.49784],[47.49791,39.48921],[47.48617,39.48903],[47.46937,39.48029],[47.44304,39.47919],[47.44148,39.47193],[47.42999,39.47099],[47.42042,39.465],[47.40651,39.46401],[47.39511,39.46904],[47.37897,39.45623],[47.3787,39.44433],[47.36604,39.42661],[47.35347,39.42678],[47.34874,39.41451],[47.34071,39.4127],[47.34111,39.40645],[47.33616,39.4044],[47.33364,39.39578],[47.31421,39.36902],[47.29997,39.37057],[47.2896,39.36353],[47.27904,39.36098],[47.26969,39.35185],[47.25088,39.34746],[47.24617,39.33777],[47.22769,39.33387],[47.22132,39.32389],[47.21169,39.32017],[47.19694,39.32163],[47.16595,39.3076],[47.15802,39.31185],[47.15234,39.30175],[47.13495,39.29525],[47.11386,39.27917],[47.09981,39.27709],[47.09411,39.26526],[47.08069,39.26234],[47.07243,39.24507],[47.0639,39.24571],[47.05764,39.23805],[47.06013,39.23344],[47.05487,39.21623],[47.05591,39.21313],[47.06105,39.21216],[47.06056,39.20432],[47.05664,39.20225],[47.0531,39.19333],[47.02097,39.17357],[47.01932,39.16734],[46.99914,39.16778],[46.99315,39.16441],[46.99398,39.15538],[46.96311,39.14064],[46.94968,39.13972],[46.94786,39.14713],[46.93858,39.15222],[46.93222,39.16024],[46.90997,39.15695],[46.90369,39.16367],[46.88531,39.15504],[46.86671,39.15642],[46.85879,39.14587],[46.86067,39.14119],[46.84048,39.13926],[46.84124,39.13096],[46.8389,39.12369],[46.83377,39.12021],[46.83436,39.11515],[46.81545,39.1099],[46.81955,39.10671],[46.81114,39.10182],[46.8133,39.09742],[46.79068,39.08694],[46.78744,39.0777],[46.77572,39.06998],[46.76853,39.07072],[46.76774,39.05988],[46.75809,39.05608],[46.75804,39.04512],[46.76188,39.03758],[46.75283,39.02587],[46.74732,39.0285],[46.73582,39.01728],[46.71734,39.01269],[46.69415,39.01602],[46.68316,39.00575],[46.68868,39.00185],[46.69009,38.99489],[46.6814,38.99042],[46.67446,38.97968],[46.66334,38.97079],[46.65533,38.9546],[46.64076,38.95136],[46.6387,38.94213],[46.62795,38.93716],[46.62712,38.93014],[46.60485,38.91519],[46.60219,38.90786],[46.56918,38.89072],[46.56618,38.88613],[46.5525,38.88294],[46.53363,38.86751],[46.53285,38.89427],[46.53736,38.89828],[46.53737,38.9057],[46.53097,38.92333],[46.52025,38.92793],[46.50691,38.94995],[46.50824,38.96158],[46.51663,38.96407],[46.52313,38.97048],[46.51807,38.98645],[46.51885,38.99562],[46.53783,38.9959],[46.54421,39.00247],[46.54551,39.00611],[46.53923,39.01478],[46.53654,39.02679],[46.53904,39.0306],[46.53621,39.03855],[46.53885,39.04435],[46.54829,39.0471],[46.55417,39.05715],[46.54099,39.0634],[46.51806,39.06182],[46.51591,39.06584],[46.52334,39.07172],[46.52979,39.07002],[46.53664,39.0851],[46.5306,39.09527],[46.50168,39.10612],[46.50492,39.12392],[46.49541,39.12316],[46.4943,39.13103],[46.48396,39.13332],[46.48289,39.13738],[46.49746,39.14034],[46.49674,39.15041],[46.48446,39.15193],[46.46657,39.14724],[46.45752,39.15161],[46.46037,39.15928],[46.44075,39.15585],[46.44006,39.16954],[46.43602,39.17222],[46.43208,39.18805],[46.45253,39.20149],[46.46476,39.20033],[46.50543,39.18149],[46.50415,39.18429],[46.51067,39.18964],[46.49814,39.19533],[46.51621,39.21294],[46.52248,39.19783],[46.52672,39.19773],[46.53155,39.1919],[46.53643,39.15822],[46.54522,39.16708],[46.54222,39.16951],[46.54441,39.1759],[46.56689,39.18791],[46.56824,39.19769],[46.57383,39.20184],[46.58671,39.20085],[46.58595,39.20397],[46.57288,39.20866],[46.57299,39.21361],[46.59148,39.22231],[46.59764,39.21856],[46.60152,39.22173],[46.61752,39.22231],[46.63051,39.22908],[46.62959,39.2321],[46.61129,39.23621],[46.59086,39.23567],[46.57913,39.24512],[46.57852,39.25162],[46.57194,39.25591],[46.55345,39.25425],[46.54768,39.25942],[46.51982,39.2987],[46.53661,39.30336],[46.53803,39.3078],[46.52797,39.31563],[46.5278,39.32093],[46.51514,39.32778],[46.50547,39.34292],[46.49069,39.34284],[46.48164,39.33188],[46.46754,39.33193],[46.46081,39.33766],[46.4488,39.33872],[46.44659,39.34773],[46.42553,39.35583],[46.41612,39.36364],[46.40994,39.36142],[46.41074,39.36502],[46.40456,39.36875],[46.40028,39.38343],[46.39333,39.38362],[46.38881,39.3878],[46.39497,39.39187],[46.38408,39.39831],[46.39071,39.414],[46.38986,39.42121],[46.38062,39.43577],[46.38556,39.44148],[46.3956,39.44279],[46.39039,39.44512],[46.39031,39.4533],[46.39443,39.45663],[46.4093,39.45363],[46.42131,39.45826],[46.43231,39.45649],[46.44912,39.44652],[46.45589,39.44817],[46.4851,39.47549],[46.4806,39.48205],[46.488,39.4838],[46.49488,39.48109],[46.5011,39.48414],[46.50661,39.48257],[46.51149,39.47665],[46.52747,39.47361],[46.52948,39.46939],[46.53529,39.46793],[46.54067,39.47322],[46.53062,39.48553],[46.52224,39.48705],[46.51463,39.49386],[46.5141,39.50053],[46.50718,39.50501],[46.50997,39.50923],[46.49916,39.5158],[46.49915,39.51893],[46.51017,39.52514],[46.53572,39.53165],[46.54449,39.54045],[46.54153,39.54365],[46.5434,39.54594],[46.57473,39.54092],[46.57815,39.5341],[46.58738,39.53276],[46.58156,39.53907],[46.58028,39.55343],[46.57163,39.55999],[46.56899,39.56849],[46.53285,39.5762],[46.52273,39.58392],[46.50726,39.58266],[46.50492,39.58531],[46.48688,39.58687],[46.45992,39.57413],[46.45369,39.57406],[46.44762,39.57906],[46.43922,39.57761],[46.43395,39.56916],[46.43045,39.56922],[46.42391,39.57542],[46.4141,39.57885],[46.41315,39.58319],[46.42152,39.59605],[46.41376,39.61992],[46.41367,39.62931],[46.40975,39.62973],[46.40048,39.62271],[46.39202,39.61272],[46.38761,39.61796],[46.37111,39.61975],[46.37716,39.62796],[46.37621,39.63158],[46.37067,39.63694],[46.35678,39.63958],[46.34963,39.63257],[46.33992,39.63644],[46.33403,39.63597],[46.32291,39.62817],[46.31691,39.63105],[46.30915,39.62501],[46.29018,39.61954],[46.28376,39.61271],[46.2585,39.60632],[46.2509,39.60141],[46.19673,39.60215],[46.19042,39.58969],[46.18273,39.58494],[46.17503,39.58544],[46.17535,39.59949],[46.17085,39.60536],[46.17219,39.61416],[46.16436,39.61867],[46.16477,39.62415],[46.1715,39.63252],[46.16073,39.64015],[46.15855,39.6471],[46.12948,39.65793],[46.0944,39.68788],[46.08008,39.68371],[46.07746,39.67841],[46.0658,39.68428],[46.06469,39.68828],[46.05642,39.69219],[46.06568,39.6943],[46.06939,39.69918],[46.06428,39.70725],[46.03348,39.72767],[46.02738,39.7451],[46.00331,39.7542],[46.00333,39.76236],[45.98993,39.77094],[45.9804,39.7851],[45.9683,39.79153],[45.93764,39.7876],[45.88846,39.80992],[45.87326,39.81213],[45.86505,39.82057],[45.85635,39.81878],[45.85178,39.82523],[45.82812,39.82514],[45.82531,39.82804],[45.82381,39.8431],[45.81408,39.86448],[45.80961,39.86637],[45.81254,39.87629],[45.80298,39.88679],[45.80292,39.89164],[45.79092,39.89681],[45.78885,39.90656],[45.80221,39.91404],[45.80513,39.9199],[45.8008,39.9319],[45.78704,39.94498],[45.72892,39.94904],[45.69933,39.96909],[45.66369,39.97038],[45.65757,39.97612],[45.62701,39.97206],[45.61079,39.9748],[45.6123,39.98721],[45.60291,39.99011],[45.60093,39.99587],[45.59912,40.00387],[45.60231,40.01063],[45.62005,40.02023],[45.6615,40.02249],[45.68034,40.03415],[45.68954,40.03283],[45.7006,40.02428],[45.72311,40.02435],[45.73863,40.03086],[45.78122,40.02253],[45.78722,40.02919],[45.79719,40.02469],[45.80384,40.01803],[45.80507,40.01234],[45.81566,40.01168],[45.82605,39.99677],[45.8383,39.99046],[45.84224,39.99584],[45.84201,40.00308],[45.85013,40.00807],[45.8524,40.01538],[45.86234,40.0162],[45.87093,40.02253],[45.88247,40.02096],[45.89953,40.05359],[45.89787,40.06023],[45.91209,40.0754],[45.91276,40.08527],[45.90695,40.0894],[45.90499,40.10166],[45.91265,40.10352],[45.92003,40.11275],[45.92948,40.11693],[45.96013,40.1221],[45.95469,40.13529],[45.9585,40.15059],[45.9759,40.16603],[45.96814,40.17549],[45.97423,40.17992],[45.97338,40.18601],[45.97769,40.18841],[45.97979,40.20065],[45.97496,40.20736],[45.9802,40.2132],[45.97801,40.22304],[45.97525,40.22796],[45.95879,40.23419],[45.96009,40.2406],[45.93893,40.24873],[45.94339,40.25389],[45.95712,40.25259],[45.96089,40.27331],[45.93348,40.28706],[45.93186,40.29734],[45.91757,40.29773],[45.90975,40.2929],[45.88913,40.29351],[45.87941,40.29739],[45.87886,40.30366],[45.87386,40.30675],[45.82034,40.32256],[45.78765,40.32735],[45.78401,40.33414],[45.7699,40.33596],[45.74304,40.35259],[45.73582,40.3543],[45.72465,40.35143],[45.7199,40.35571],[45.70795,40.35717],[45.69857,40.36209],[45.69522,40.36709],[45.64995,40.36729],[45.64704,40.37745],[45.6367,40.38275],[45.63627,40.39716],[45.60619,40.4114],[45.59982,40.42342],[45.59166,40.42897],[45.58693,40.43124],[45.56689,40.42688],[45.55713,40.42863],[45.52502,40.44616],[45.51863,40.45796],[45.51098,40.45507],[45.50449,40.46541],[45.50888,40.47137],[45.49337,40.47611],[45.47992,40.48879],[45.46682,40.48942],[45.45103,40.50001],[45.45239,40.50964],[45.43815,40.5193],[45.43425,40.5438],[45.45039,40.5499],[45.43751,40.56346],[45.45574,40.57345],[45.45909,40.58167],[45.4274,40.60056],[45.4057,40.59863],[45.4022,40.60099],[45.38778,40.61694],[45.39786,40.62958],[45.3642,40.65251],[45.36763,40.66547],[45.37704,40.672],[45.37546,40.67702],[45.37932,40.68436],[45.37309,40.69062],[45.37908,40.6904],[45.3789,40.70573],[45.39067,40.69547],[45.39822,40.69733],[45.40342,40.69987],[45.40733,40.70939],[45.39651,40.71801],[45.40326,40.72043],[45.40401,40.73085],[45.41747,40.73117],[45.42429,40.74119],[45.43195,40.7398],[45.43636,40.74556],[45.45584,40.74499],[45.47235,40.75235],[45.47921,40.75017],[45.49253,40.75604],[45.5051,40.7704],[45.54807,40.77702],[45.55086,40.78426],[45.5746,40.80079],[45.57569,40.80918],[45.58434,40.8186],[45.59367,40.82134],[45.59391,40.83263],[45.60794,40.85172],[45.5974,40.86766],[45.60208,40.87308],[45.60247,40.88268],[45.58235,40.89103],[45.56873,40.88412],[45.56074,40.88365],[45.55697,40.88534],[45.55985,40.89113],[45.55723,40.90007],[45.53871,40.89878],[45.51656,40.91447],[45.51587,40.92053],[45.5105,40.92395],[45.50093,40.92645],[45.49328,40.92255],[45.48518,40.92289],[45.47517,40.93503],[45.47313,40.94499],[45.46376,40.95349],[45.45359,40.96965],[45.44487,40.96476],[45.43211,40.96438],[45.4253,40.95957],[45.42071,40.96115],[45.41634,40.97794],[45.40788,40.98845],[45.41852,40.99925],[45.43914,41.01208],[45.44024,41.01672],[45.42272,41.02209],[45.40492,41.02099],[45.39711,41.02444],[45.3931,41.01239],[45.38442,41.01376],[45.36979,41.00972],[45.36324,40.99672],[45.3595,40.9964],[45.35281,40.99991],[45.34082,41.00002],[45.33834,41.00566],[45.31843,41.00075],[45.29912,41.0139],[45.27771,41.0208],[45.27025,41.01769],[45.26626,41.00901],[45.25839,41.00636],[45.24951,41.00798],[45.24885,41.01298],[45.22931,41.02018],[45.21796,41.02114],[45.21584,41.03362],[45.21248,41.03701],[45.16175,41.06552],[45.09837,41.06311],[45.08369,41.07062],[45.08435,41.07404],[45.07689,41.08241],[45.07462,41.09514],[45.07117,41.09768],[45.09019,41.10594],[45.09273,41.11533],[45.09895,41.11989],[45.10659,41.11206],[45.14903,41.11581],[45.15685,41.1229],[45.17341,41.11897],[45.18406,41.12671],[45.18459,41.1307],[45.20254,41.13803],[45.2052,41.15246],[45.20224,41.15982],[45.19433,41.16588],[45.18121,41.16444],[45.16667,41.169],[45.15945,41.17825],[45.14267,41.18767],[45.14303,41.19302],[45.13123,41.19505],[45.12706,41.2032],[45.11981,41.20514],[45.11812,41.19667],[45.11388,41.19967],[45.10619,41.1979],[45.10505,41.19384],[45.0983,41.19082],[45.09779,41.18516],[45.09181,41.17793],[45.0766,41.17981],[45.07547,41.18643],[45.0616,41.18817],[45.05643,41.19405],[45.03714,41.20059],[45.03853,41.21577],[45.05158,41.22594],[45.05327,41.24113],[45.06023,41.24502],[45.04863,41.24901],[45.04383,41.25449],[45.04168,41.2603],[45.04515,41.26204],[45.02376,41.27777],[45.01507,41.29709],[45.01934,41.29984],[45.02095,41.30748],[45.04288,41.30956],[45.04521,41.31951],[45.06046,41.32854],[45.07045,41.32828],[45.07402,41.33957],[45.07963,41.34367],[45.0914,41.33986],[45.09653,41.34278],[45.17219,41.41229],[45.17482,41.423],[45.19599,41.41659],[45.23385,41.43613],[45.24928,41.44623],[45.25963,41.46739],[45.2878,41.4627],[45.31023,41.47322],[45.36114,41.45547],[45.3917,41.42737],[45.42945,41.43042],[45.43696,41.44336],[45.45909,41.45683],[45.49757,41.43433],[45.50962,41.42361],[45.56352,41.40804],[45.58128,41.38966],[45.57686,41.37592],[45.60214,41.37358],[45.62271,41.37859],[45.64762,41.37897],[45.6506,41.37353],[45.67769,41.35713],[45.70003,41.3551],[45.70082,41.36137],[45.7087,41.36389],[45.76078,41.35135],[45.75575,41.33884],[45.74087,41.34474],[45.70023,41.29769],[45.72542,41.27781],[45.74382,41.25713],[45.75791,41.25233],[45.76921,41.24324],[45.80704,41.22529],[45.80841,41.22226],[45.88833,41.21081],[45.91428,41.18943],[45.9371,41.18315],[45.95396,41.17416],[45.95797,41.17338],[45.96291,41.17957],[45.97232,41.1784],[45.97542,41.18116],[45.98413,41.17807],[46.0029,41.18027],[46.01052,41.18434],[46.01738,41.18261],[46.02381,41.18693],[46.05528,41.18701],[46.06524,41.19014],[46.08218,41.18175],[46.08283,41.17449],[46.09759,41.17211],[46.1128,41.18136],[46.12106,41.19064],[46.12198,41.19595],[46.12655,41.19623],[46.13629,41.20508],[46.13763,41.19984],[46.14205,41.19993],[46.14654,41.20527],[46.14982,41.2047],[46.15026,41.19828],[46.15252,41.1986],[46.15693,41.20469],[46.16503,41.19954],[46.17233,41.20179],[46.18126,41.19396],[46.18709,41.19916],[46.19663,41.19299],[46.20125,41.19529],[46.20921,41.19139],[46.2171,41.19429],[46.22496,41.18929],[46.22974,41.19614],[46.23046,41.18873],[46.25391,41.1822],[46.26323,41.18792],[46.27881,41.19007],[46.29066,41.17478],[46.36916,41.1188],[46.36924,41.10653],[46.38677,41.10126],[46.42823,41.10531],[46.44474,41.09969],[46.45854,41.09901],[46.46231,41.09406],[46.46109,41.08845],[46.46927,41.06516],[46.49127,41.05572],[46.55026,41.11262],[46.58334,41.11198],[46.60404,41.09921],[46.61487,41.09755],[46.64147,41.1069],[46.64342,41.11086],[46.6501,41.11226],[46.64659,41.12156],[46.6596,41.13154],[46.65384,41.13896],[46.65705,41.14522],[46.65668,41.15208],[46.65235,41.15597],[46.65583,41.16405],[46.65414,41.16765],[46.66694,41.17151],[46.66173,41.17657],[46.66871,41.18996],[46.65829,41.19182],[46.6602,41.19715],[46.65757,41.20348],[46.66389,41.21247],[46.67259,41.21657],[46.66742,41.22058],[46.67775,41.22639],[46.6763,41.23097],[46.67877,41.23362],[46.68873,41.23163],[46.69639,41.23675],[46.69558,41.23922],[46.69985,41.24203],[46.69904,41.25038],[46.70752,41.25623],[46.69699,41.26013],[46.70027,41.26425],[46.71415,41.26754],[46.71223,41.27368],[46.72494,41.28495],[46.72684,41.28238],[46.72356,41.2803],[46.72449,41.2774],[46.73613,41.28416],[46.7305,41.29035],[46.69907,41.29634],[46.70295,41.30632],[46.68761,41.31946],[46.6901,41.32149],[46.69647,41.31917],[46.7033,41.32755],[46.69826,41.32996],[46.68433,41.32868],[46.68481,41.33251],[46.69012,41.33526],[46.68925,41.33897],[46.68359,41.34121],[46.66893,41.33765],[46.66649,41.3411],[46.67036,41.34897],[46.65822,41.34908],[46.65697,41.36118],[46.66292,41.36724],[46.65972,41.3704],[46.65075,41.37089],[46.64904,41.36737],[46.65169,41.36412],[46.64698,41.35914],[46.64671,41.35265],[46.63104,41.35994],[46.62521,41.35916],[46.62629,41.36462],[46.63826,41.36578],[46.63767,41.36919],[46.64586,41.37347],[46.64106,41.37469],[46.63911,41.38166],[46.62627,41.37796],[46.62609,41.38173],[46.63344,41.38671],[46.6328,41.38952],[46.63027,41.39069],[46.6212,41.37853],[46.61092,41.38266],[46.61618,41.39032],[46.61296,41.39499],[46.59846,41.39333],[46.59302,41.39804],[46.56941,41.39939],[46.57,41.4054],[46.56652,41.40714],[46.52653,41.40995],[46.52106,41.41344],[46.52118,41.41809],[46.50865,41.41305],[46.50629,41.41993],[46.48461,41.42487],[46.48546,41.42961],[46.47308,41.4292],[46.47893,41.43531],[46.46715,41.43349],[46.45698,41.43818],[46.45267,41.4452],[46.44236,41.44832],[46.44175,41.45046],[46.44938,41.45403],[46.44467,41.46161],[46.43944,41.46109],[46.44411,41.45611],[46.43833,41.45335],[46.42686,41.4554],[46.42792,41.46759],[46.42434,41.4736],[46.41615,41.476],[46.41046,41.48177],[46.40724,41.48049],[46.40791,41.47632],[46.39857,41.47043],[46.39293,41.47199],[46.39329,41.4773],[46.40392,41.48083],[46.40272,41.48337],[46.38574,41.48339],[46.38468,41.48004],[46.37599,41.47817],[46.37346,41.48038],[46.38465,41.48565],[46.38256,41.4922],[46.37839,41.48878],[46.37088,41.48782],[46.36461,41.49095],[46.35996,41.48857],[46.35672,41.49228],[46.35986,41.4965],[46.3576,41.50356],[46.35432,41.50441],[46.35439,41.49386],[46.34183,41.49533],[46.34095,41.50076],[46.33384,41.49952],[46.32542,41.52193],[46.33515,41.52472],[46.33305,41.52771],[46.32351,41.52674],[46.32073,41.53045],[46.32859,41.53769],[46.32378,41.53873],[46.32083,41.53412],[46.31498,41.53303],[46.30652,41.53603],[46.30556,41.53855],[46.3094,41.54134],[46.30487,41.54642],[46.30439,41.55247],[46.30055,41.55353],[46.30653,41.55855],[46.30166,41.56234],[46.29751,41.57273],[46.30155,41.57668],[46.30645,41.57492],[46.3044,41.57015],[46.30695,41.5675],[46.31266,41.56905],[46.31007,41.57632],[46.32097,41.58086],[46.32693,41.57539],[46.33124,41.57643],[46.33632,41.56821],[46.34375,41.56907],[46.34453,41.57204],[46.3346,41.57518],[46.33992,41.57609],[46.33797,41.58196],[46.34083,41.58495],[46.33762,41.5871],[46.34162,41.59183],[46.32983,41.59994],[46.32702,41.59737],[46.32238,41.59876],[46.32361,41.6082],[46.31523,41.61122],[46.31076,41.60788],[46.30673,41.61047],[46.30324,41.60794],[46.30719,41.60667],[46.3055,41.60485],[46.30001,41.60456],[46.30287,41.59747],[46.29808,41.59661],[46.28787,41.60157],[46.28118,41.59947],[46.26662,41.60737],[46.27254,41.60951],[46.27237,41.612],[46.27984,41.61195],[46.27805,41.62011],[46.26618,41.63432],[46.26291,41.63337],[46.26225,41.62542],[46.26838,41.62533],[46.26642,41.62061],[46.25278,41.62264],[46.25039,41.61815],[46.25624,41.6105],[46.2516,41.60932],[46.24601,41.6145],[46.24275,41.61312],[46.2483,41.60989],[46.2469,41.60398],[46.25037,41.60087],[46.23982,41.59559],[46.23788,41.6024],[46.22106,41.6077],[46.22274,41.61088],[46.21347,41.6154],[46.20412,41.61515],[46.20386,41.61947],[46.2074,41.62133],[46.20413,41.63163],[46.19523,41.62539],[46.19294,41.62771],[46.20079,41.63711],[46.1997,41.64224],[46.19346,41.64376],[46.19501,41.64788],[46.20744,41.6531],[46.2042,41.65749],[46.20755,41.66058],[46.20684,41.66446],[46.20251,41.6644],[46.19874,41.67201],[46.19052,41.67831],[46.18667,41.68812],[46.18838,41.69622],[46.18209,41.70098],[46.18501,41.70299],[46.18478,41.7086],[46.18083,41.70863],[46.17797,41.71273],[46.18213,41.72327],[46.18283,41.73993],[46.19887,41.75001],[46.20235,41.76127],[46.20131,41.76981],[46.20407,41.77309],[46.21766,41.76271],[46.23425,41.75811],[46.25369,41.77016],[46.30159,41.77612],[46.30705,41.79035],[46.32595,41.79656],[46.34183,41.81255],[46.35983,41.82407],[46.37459,41.82782],[46.40029,41.84569],[46.40439,41.86117],[46.41583,41.87136],[46.41649,41.87577],[46.40882,41.88646],[46.40978,41.89192],[46.41796,41.89908],[46.4258,41.91232],[46.45434,41.89193],[46.4789,41.88136],[46.50862,41.89005],[46.53698,41.88304],[46.53675,41.87273],[46.54987,41.86643],[46.55425,41.85969],[46.55108,41.85002],[46.55195,41.82399],[46.55637,41.82049],[46.56394,41.8204],[46.56679,41.81333],[46.57341,41.81272],[46.58318,41.80248],[46.5977,41.81196],[46.60536,41.81235],[46.61436,41.8178],[46.62155,41.82505],[46.61797,41.82887],[46.6255,41.83465],[46.64737,41.82842],[46.66518,41.8338],[46.66508,41.83747],[46.67799,41.83302],[46.70153,41.83339],[46.71126,41.827],[46.72035,41.8282],[46.72203,41.83178],[46.71574,41.8412],[46.71776,41.84716],[46.73528,41.85687],[46.76009,41.86243],[46.7615,41.84777],[46.77085,41.83557],[46.77177,41.82927],[46.78533,41.81804],[46.78208,41.81264],[46.76922,41.80942],[46.76652,41.80004],[46.78762,41.78407],[46.79732,41.78252],[46.79193,41.77682],[46.80087,41.77049],[46.80288,41.76456],[46.83147,41.76193],[46.83184,41.7485],[46.83961,41.74815],[46.8504,41.73959],[46.85572,41.73201],[46.85434,41.72637],[46.86336,41.72403],[46.8645,41.72068],[46.87162,41.71921],[46.8778,41.72776],[46.89934,41.7328],[46.91421,41.72665],[46.92918,41.70969],[46.92572,41.69064],[46.92164,41.68581],[46.92825,41.6765],[46.93567,41.67777],[46.94253,41.67349],[46.94587,41.66454],[46.95698,41.65438],[46.96538,41.65393],[46.97289,41.64757],[46.99003,41.64529],[47.00036,41.63997],[47.00097,41.63364],[47.00748,41.6291],[47.0087,41.6234],[47.00047,41.61289],[46.99649,41.60156],[46.99118,41.5997],[46.99136,41.59484],[47.00409,41.58458],[47.00409,41.58167],[47.02344,41.57588],[47.01751,41.55828],[47.03418,41.56481],[47.04131,41.55805],[47.04997,41.55537],[47.06598,41.5557],[47.07292,41.55938],[47.06822,41.57221],[47.07372,41.57393],[47.0772,41.57934],[47.08928,41.5803],[47.10291,41.59186],[47.11142,41.59181],[47.11175,41.58793],[47.124,41.58334],[47.11643,41.56939],[47.12268,41.56508],[47.12867,41.55151],[47.14001,41.54499],[47.14933,41.54426],[47.14683,41.53943],[47.15722,41.53232],[47.17373,41.52841],[47.16887,41.51606],[47.1574,41.50625],[47.15895,41.49838],[47.17539,41.49546],[47.18057,41.48685],[47.19295,41.48823],[47.19744,41.47712],[47.19477,41.47078],[47.20245,41.46518],[47.21007,41.45099],[47.22044,41.44681],[47.22886,41.44994],[47.24256,41.44599],[47.23629,41.43375],[47.2238,41.42215],[47.2226,41.41825],[47.22855,41.41289],[47.22864,41.40815],[47.21987,41.39982],[47.22418,41.39867],[47.23269,41.40256],[47.24092,41.40038],[47.24451,41.39615],[47.25569,41.39981],[47.26043,41.39576],[47.26381,41.38867],[47.26093,41.37898],[47.2716,41.3527],[47.26181,41.34849],[47.2612,41.33762],[47.27109,41.32854],[47.28894,41.32536],[47.28956,41.3194],[47.30061,41.30788],[47.34453,41.29168],[47.35612,41.28128],[47.37651,41.27161],[47.38698,41.27411],[47.41178,41.26741],[47.42475,41.26871],[47.43308,41.26621],[47.45065,41.27425],[47.47321,41.25656],[47.48261,41.26448],[47.49794,41.26931],[47.50625,41.26262],[47.50474,41.25063],[47.50847,41.24641],[47.50157,41.23351],[47.50376,41.22811],[47.5221,41.21979],[47.53676,41.2066],[47.5459,41.20645],[47.55817,41.19833],[47.56439,41.2009],[47.56792,41.21109],[47.57834,41.21799],[47.61308,41.21999],[47.61908,41.23715],[47.62796,41.2323],[47.64708,41.22925],[47.65008,41.22411],[47.67221,41.22234],[47.69147,41.22722],[47.70064,41.22654],[47.70589,41.21387],[47.71194,41.2088],[47.726,41.20672],[47.72641,41.19368],[47.7298,41.19195],[47.747,41.18734],[47.75495,41.1925],[47.76172,41.18869],[47.78173,41.18574],[47.78992,41.19339],[47.79509,41.20513],[47.80817,41.21133],[47.81083,41.21898],[47.82722,41.22078],[47.84989,41.21432],[47.85823,41.22036],[47.8638,41.21786],[47.88485,41.21879],[47.89406,41.22997],[47.90108,41.23354],[47.91126,41.25479],[47.90744,41.26422],[47.90333,41.26613],[47.90525,41.27428],[47.91046,41.27841],[47.89135,41.28769],[47.89337,41.29191],[47.90337,41.29911],[47.91441,41.29997],[47.93674,41.31383],[47.9472,41.31256],[47.96804,41.31951],[47.97007,41.32371],[47.9572,41.33362],[47.95131,41.35006],[47.95569,41.35848],[47.96447,41.35992],[47.98173,41.35362],[47.98165,41.36345],[48.00256,41.37305],[48.00529,41.38014],[47.99692,41.38649],[48.00076,41.39193],[47.99829,41.39652],[48.00649,41.40367],[48.00298,41.41543],[48.00827,41.42641],[48.01328,41.4285],[48.01125,41.43392],[48.01384,41.43642],[48.03274,41.4371],[48.05491,41.45502],[48.04898,41.46891],[48.06482,41.48971],[48.06542,41.49751],[48.1171,41.49794],[48.14835,41.51014],[48.18907,41.51391],[48.21607,41.52062],[48.23934,41.52143],[48.25069,41.52749],[48.26532,41.54829],[48.28607,41.56383],[48.30844,41.565],[48.32984,41.57115],[48.38279,41.594],[48.39122,41.6001],[48.39612,41.61204],[48.41595,41.63306],[48.41807,41.64344],[48.42746,41.66023],[48.45665,41.6907],[48.4753,41.7051],[48.48483,41.72056],[48.48481,41.72525],[48.5065,41.74612],[48.50411,41.74746],[48.50665,41.75194],[48.5426,41.78001],[48.55399,41.78539],[48.55742,41.79848],[48.57797,41.81389],[48.57695,41.82403],[48.58305,41.83746],[48.59237,41.84233],[48.65067,41.80554],[48.70254,41.75748],[48.77996,41.67267],[48.93212,41.52637],[48.99004,41.46454],[49.04793,41.39367],[49.06876,41.37349],[49.12244,41.2905],[49.13472,41.25567],[49.1512,41.1676],[49.16486,41.13922],[49.17249,41.10373],[49.20922,41.02504],[49.23429,40.99654],[49.30089,40.94911],[49.32424,40.91798],[49.36367,40.8967],[49.3729,40.88794]],[[45.53458,40.66856],[45.51281,40.66863],[45.49809,40.66523],[45.48877,40.64773],[45.47881,40.64136],[45.47838,40.62498],[45.48702,40.62158],[45.49038,40.6125],[45.48936,40.60085],[45.49691,40.58936],[45.50551,40.58834],[45.52177,40.59933],[45.52483,40.60479],[45.52329,40.61278],[45.54381,40.61937],[45.55246,40.61771],[45.54809,40.62275],[45.55404,40.6328],[45.55609,40.6508],[45.53719,40.66271],[45.53458,40.66856]]],[[[49.90791,40.29882],[49.91872,40.29497],[49.9385,40.29517],[49.92517,40.2906],[49.90354,40.29416],[49.90791,40.29882]]],[[[49.64199,40.0057],[49.65054,40.00152],[49.65609,39.99394],[49.65337,39.98703],[49.63213,39.98661],[49.63481,39.99064],[49.63369,40.00259],[49.64199,40.0057]]],[[[49.59325,40.04045],[49.58827,40.03875],[49.5842,40.04152],[49.58509,40.04498],[49.58948,40.04617],[49.59325,40.04045]]],[[[49.58846,39.75402],[49.57937,39.75338],[49.57859,39.75737],[49.58401,39.75947],[49.58846,39.75402]]],[[[49.53284,39.83983],[49.53625,39.83443],[49.53062,39.83033],[49.52754,39.83471],[49.53284,39.83983]]],[[[49.48235,39.95332],[49.48918,39.9501],[49.4875,39.94684],[49.47773,39.94688],[49.48235,39.95332]]],[[[49.4256,39.83956],[49.43098,39.83235],[49.42779,39.83297],[49.4256,39.83956]]],[[[49.35537,39.40714],[49.3488,39.4057],[49.35146,39.40872],[49.35537,39.40714]]],[[[49.33928,39.419],[49.3464,39.41489],[49.34578,39.40666],[49.33957,39.40584],[49.33682,39.40941],[49.33928,39.419]]],[[[49.15673,39.03553],[49.17498,39.03367],[49.17898,39.02644],[49.1806,39.00717],[49.17677,38.99455],[49.15473,38.96533],[49.12918,38.94572],[49.11035,38.93737],[49.1021,38.9398],[49.10083,38.94183],[49.10712,38.94367],[49.13067,38.94765],[49.16899,38.98463],[49.17353,38.99436],[49.14598,38.97168],[49.10457,38.95548],[49.08691,38.95899],[49.09226,38.97523],[49.11129,38.98726],[49.12305,38.9896],[49.14873,39.00903],[49.16961,39.03314],[49.15519,39.02977],[49.14915,39.03394],[49.15673,39.03553]]],[[[44.95566,39.72914],[44.97256,39.73925],[45.0065,39.75173],[45.01202,39.76392],[45.02344,39.76819],[45.02324,39.77463],[45.04587,39.7835],[45.04849,39.79029],[45.05917,39.79247],[45.07036,39.78695],[45.07961,39.78676],[45.12097,39.76085],[45.12631,39.75018],[45.135,39.74327],[45.1327,39.74065],[45.13391,39.73327],[45.13704,39.73232],[45.13758,39.72581],[45.14766,39.7122],[45.16836,39.6961],[45.17157,39.68849],[45.18619,39.68013],[45.18633,39.67563],[45.17259,39.6639],[45.17531,39.65207],[45.18652,39.64948],[45.17339,39.62605],[45.17531,39.61314],[45.17224,39.6104],[45.18019,39.60559],[45.169,39.59133],[45.19323,39.58438],[45.22719,39.5808],[45.22344,39.59329],[45.22512,39.60131],[45.24185,39.61222],[45.26295,39.61113],[45.28716,39.61438],[45.3057,39.61229],[45.30865,39.6084],[45.30192,39.59915],[45.30201,39.5904],[45.29782,39.5851],[45.30828,39.57297],[45.31119,39.56632],[45.30842,39.56392],[45.31572,39.55375],[45.3291,39.55415],[45.34562,39.53992],[45.39212,39.53898],[45.41675,39.53028],[45.43166,39.53239],[45.44487,39.51067],[45.44344,39.50575],[45.46772,39.5037],[45.47112,39.49196],[45.47722,39.49104],[45.48275,39.50344],[45.49009,39.51053],[45.51488,39.51961],[45.51966,39.52607],[45.52968,39.52811],[45.53625,39.54291],[45.54548,39.54552],[45.5565,39.54101],[45.56295,39.54398],[45.57487,39.56688],[45.59067,39.56997],[45.62164,39.56235],[45.62441,39.56821],[45.64359,39.57256],[45.65546,39.58203],[45.67367,39.58526],[45.69451,39.60365],[45.72547,39.60158],[45.73402,39.59267],[45.74852,39.5945],[45.75539,39.58753],[45.77969,39.58211],[45.77843,39.57848],[45.78452,39.57126],[45.79794,39.57131],[45.805,39.56066],[45.80578,39.55064],[45.81509,39.53894],[45.81673,39.52849],[45.82141,39.52612],[45.81825,39.51501],[45.82388,39.50642],[45.8137,39.48471],[45.83675,39.46925],[45.84068,39.4588],[45.82806,39.45103],[45.81582,39.42909],[45.8045,39.42915],[45.8022,39.41808],[45.79795,39.41343],[45.79436,39.38748],[45.78877,39.3816],[45.79246,39.36989],[45.81004,39.36144],[45.86227,39.35672],[45.88349,39.34397],[45.88883,39.34365],[45.89782,39.33172],[45.91174,39.32993],[45.92261,39.32154],[45.93168,39.32136],[45.94024,39.31457],[45.94224,39.30772],[45.97146,39.29529],[45.98444,39.29598],[45.99899,39.29168],[46.00617,39.26219],[46.00492,39.25622],[45.98846,39.24631],[45.98707,39.2409],[45.99201,39.22362],[45.98776,39.21445],[45.99119,39.20648],[45.98343,39.19313],[45.99881,39.18588],[46.00101,39.17482],[46.00776,39.16336],[46.004,39.15818],[46.00408,39.14876],[46.02074,39.14219],[46.02813,39.1335],[46.02943,39.12594],[46.01668,39.11534],[46.01894,39.10805],[46.03063,39.09819],[46.03322,39.09102],[46.05334,39.08182],[46.07103,39.07885],[46.07095,39.06028],[46.07613,39.0541],[46.07499,39.03713],[46.08303,39.02646],[46.09861,39.02624],[46.0988,39.01924],[46.10177,39.01731],[46.09838,39.01166],[46.10165,38.98905],[46.11178,38.97636],[46.11079,38.95218],[46.12173,38.94671],[46.12186,38.94002],[46.1269,38.93389],[46.125,38.92911],[46.12788,38.9162],[46.1361,38.9132],[46.15141,38.88973],[46.14405,38.87239],[46.14318,38.86015],[46.14731,38.85337],[46.14204,38.8436],[46.12877,38.84703],[46.1282,38.85096],[46.11157,38.85901],[46.1115,38.8654],[46.09345,38.86723],[46.0796,38.87227],[46.06397,38.88767],[46.05836,38.88743],[46.05423,38.88353],[46.05381,38.87794],[46.0401,38.87184],[46.03453,38.87463],[46.011,38.87213],[45.979,38.87903],[45.96588,38.89053],[45.95786,38.8888],[45.94408,38.89668],[45.92167,38.87502],[45.90892,38.87409],[45.90242,38.87775],[45.89224,38.87815],[45.89039,38.88487],[45.87971,38.88919],[45.87002,38.88874],[45.86061,38.89359],[45.86392,38.89921],[45.86143,38.90338],[45.84816,38.91017],[45.84382,38.91056],[45.83293,38.90285],[45.8158,38.90538],[45.81112,38.91186],[45.80079,38.91392],[45.79746,38.92484],[45.78762,38.9203],[45.78464,38.92466],[45.77067,38.92443],[45.76365,38.92935],[45.73574,38.92817],[45.71551,38.93787],[45.71032,38.94433],[45.69884,38.9445],[45.69455,38.95165],[45.67879,38.94629],[45.67406,38.94972],[45.6683,38.9471],[45.65928,38.95189],[45.64685,38.95155],[45.64503,38.94748],[45.61757,38.94245],[45.6143,38.94305],[45.61623,38.94614],[45.61293,38.95809],[45.60901,38.95635],[45.5849,38.96802],[45.58428,38.97594],[45.58106,38.97868],[45.56929,38.97605],[45.56364,38.96836],[45.54315,38.96461],[45.50027,38.98351],[45.45456,38.99088],[45.43802,39.00608],[45.43706,39.01146],[45.45062,39.03086],[45.45041,39.03956],[45.45594,39.04506],[45.4567,39.0515],[45.45303,39.05486],[45.43934,39.0516],[45.43319,39.05367],[45.42898,39.06127],[45.40327,39.07281],[45.40008,39.0832],[45.40219,39.09398],[45.33632,39.16707],[45.32959,39.16754],[45.30977,39.19335],[45.2846,39.17964],[45.22289,39.19575],[45.2209,39.20778],[45.21027,39.20218],[45.18427,39.20368],[45.18676,39.21694],[45.18192,39.22182],[45.17154,39.22213],[45.16769,39.21613],[45.15305,39.20691],[45.14944,39.20768],[45.14757,39.23013],[45.15208,39.24016],[45.14682,39.24875],[45.1479,39.26399],[45.13445,39.27178],[45.14198,39.27948],[45.14114,39.28549],[45.12908,39.28902],[45.12023,39.28566],[45.11843,39.28913],[45.12741,39.29327],[45.12814,39.30206],[45.10749,39.31091],[45.10131,39.33334],[45.08954,39.32893],[45.08031,39.33394],[45.0865,39.34414],[45.08638,39.3518],[45.07495,39.35919],[45.05947,39.36331],[45.05676,39.36636],[45.05706,39.38191],[45.04472,39.38012],[45.04082,39.39129],[45.03342,39.39118],[45.01872,39.40574],[45.01118,39.40459],[45.00647,39.41021],[44.99864,39.409],[44.99472,39.41346],[44.96382,39.42371],[44.96577,39.43056],[44.96019,39.43998],[44.97644,39.44633],[44.97595,39.45063],[44.94687,39.45208],[44.94598,39.45696],[44.94091,39.45904],[44.93959,39.46187],[44.94842,39.47206],[44.93814,39.47794],[44.93815,39.48149],[44.94728,39.48181],[44.949,39.48511],[44.94155,39.48402],[44.93795,39.48748],[44.95134,39.48893],[44.95177,39.49233],[44.93977,39.50363],[44.93655,39.51201],[44.92927,39.51196],[44.91036,39.52464],[44.90931,39.5279],[44.91844,39.53271],[44.90652,39.54007],[44.91156,39.54797],[44.90877,39.56035],[44.91534,39.56515],[44.91444,39.56765],[44.90305,39.57697],[44.8887,39.58154],[44.89921,39.59676],[44.89735,39.60514],[44.89361,39.60494],[44.89095,39.59635],[44.87723,39.59316],[44.8714,39.59689],[44.88017,39.60617],[44.88058,39.6098],[44.87493,39.61539],[44.86988,39.61547],[44.8664,39.61199],[44.86626,39.60583],[44.8591,39.60115],[44.83898,39.6119],[44.82355,39.61105],[44.81617,39.61516],[44.80752,39.63627],[44.81454,39.64194],[44.81773,39.65191],[44.8152,39.6568],[44.80646,39.65516],[44.79876,39.65814],[44.80514,39.66842],[44.80438,39.67296],[44.79642,39.66868],[44.7942,39.67085],[44.80204,39.6825],[44.78462,39.68575],[44.78796,39.69144],[44.78122,39.69366],[44.78061,39.7004],[44.76383,39.70364],[44.76978,39.71179],[44.76645,39.71433],[44.76925,39.71721],[44.85224,39.73622],[44.87716,39.73684],[44.88631,39.74779],[44.90451,39.74096],[44.90552,39.72913],[44.94027,39.72511],[44.95566,39.72914]]],[[[45.20429,41.0145],[45.22515,41.0088],[45.23229,41.00198],[45.22718,40.99697],[45.23305,40.98529],[45.23216,40.97738],[45.21181,40.9836],[45.20965,40.99352],[45.19532,40.98857],[45.18374,41.00084],[45.18365,41.00657],[45.20429,41.0145]]],[[[45.04574,41.04612],[45.03451,41.03927],[45.00894,41.03405],[45.00211,41.03881],[44.99781,41.04706],[44.9963,41.05953],[44.976,41.06708],[44.97146,41.07681],[44.99056,41.09052],[45.01015,41.09598],[45.02191,41.08475],[45.0343,41.07996],[45.04791,41.06583],[45.04131,41.06033],[45.03952,41.05097],[45.04574,41.04612]]],[[[44.93534,39.80765],[44.96983,39.80633],[44.97202,39.79972],[44.966,39.78105],[44.95649,39.77664],[44.9457,39.7829],[44.93472,39.79682],[44.93248,39.80371],[44.93534,39.80765]]]]}}]}