{"type":"FeatureCollection","features":[{"type":"Feature","properties":{"ISO_A3":"BDI","WB_A3":"BDI","WB_NAME":"Burundi","WB_REGION":"AFE,SSF"},"geometry":{"type":"MultiPolygon","coordinates":[[[[30.42029,-2.6658],[30.43118,-2.68017],[30.44458,-2.67935],[30.45872,-2.69213],[30.47281,-2.6806],[30.5017,-2.66739],[30.51375,-2.65632],[30.52699,-2.65417],[30.52954,-2.66528],[30.52482,-2.68121],[30.52089,-2.68204],[30.52153,-2.68734],[30.51652,-2.69237],[30.50844,-2.69417],[30.50929,-2.69865],[30.50438,-2.70004],[30.49746,-2.71195],[30.48359,-2.72238],[30.47849,-2.7158],[30.46649,-2.71937],[30.46236,-2.72535],[30.46476,-2.73404],[30.45447,-2.74176],[30.44056,-2.74497],[30.44185,-2.75279],[30.43698,-2.75465],[30.43686,-2.75759],[30.44698,-2.76829],[30.44245,-2.77733],[30.44481,-2.78228],[30.43803,-2.79167],[30.43909,-2.80116],[30.43569,-2.7998],[30.433,-2.81058],[30.42946,-2.81014],[30.42437,-2.81658],[30.42735,-2.82142],[30.42416,-2.82728],[30.42558,-2.83081],[30.42009,-2.83657],[30.41959,-2.84254],[30.41516,-2.84239],[30.41649,-2.84779],[30.41316,-2.8509],[30.41834,-2.85638],[30.41595,-2.85867],[30.41211,-2.85572],[30.41258,-2.85956],[30.40881,-2.85898],[30.4128,-2.86935],[30.41924,-2.87472],[30.42627,-2.86933],[30.43549,-2.8767],[30.43354,-2.88033],[30.43914,-2.89914],[30.43727,-2.9031],[30.44293,-2.90491],[30.44951,-2.913],[30.45778,-2.91018],[30.46399,-2.91903],[30.45763,-2.921],[30.46098,-2.92484],[30.46448,-2.92244],[30.46958,-2.92563],[30.47978,-2.93571],[30.48275,-2.94631],[30.50538,-2.95461],[30.51642,-2.94447],[30.52369,-2.94293],[30.5303,-2.93356],[30.5391,-2.93455],[30.55164,-2.9148],[30.56567,-2.90086],[30.56607,-2.89585],[30.57606,-2.89413],[30.58037,-2.90499],[30.58685,-2.90724],[30.59019,-2.91489],[30.59647,-2.91625],[30.59845,-2.92277],[30.60668,-2.92177],[30.62044,-2.92792],[30.63205,-2.9389],[30.6329,-2.94394],[30.64688,-2.95354],[30.64576,-2.96891],[30.64893,-2.97518],[30.65665,-2.97899],[30.66941,-2.99387],[30.67977,-2.98865],[30.68898,-2.97724],[30.70382,-2.97179],[30.7263,-2.99078],[30.73907,-2.99179],[30.74751,-2.99775],[30.8058,-2.98848],[30.81247,-2.98223],[30.83659,-2.97622],[30.84895,-2.97887],[30.8389,-2.98915],[30.83222,-3.00527],[30.82527,-3.01043],[30.82062,-3.02466],[30.81615,-3.02685],[30.81462,-3.04155],[30.79802,-3.05102],[30.80162,-3.06805],[30.80866,-3.07202],[30.81341,-3.08131],[30.83265,-3.08626],[30.83578,-3.09356],[30.83152,-3.10401],[30.83184,-3.12221],[30.82797,-3.13342],[30.81802,-3.14726],[30.82225,-3.15025],[30.83323,-3.14391],[30.84559,-3.16396],[30.83778,-3.19284],[30.84488,-3.20564],[30.82553,-3.21417],[30.82003,-3.21289],[30.81295,-3.22587],[30.82688,-3.24793],[30.83915,-3.25486],[30.82797,-3.26355],[30.80356,-3.27219],[30.79796,-3.27845],[30.77991,-3.28201],[30.76255,-3.29089],[30.75694,-3.29137],[30.74831,-3.2863],[30.74214,-3.26664],[30.73083,-3.27282],[30.72915,-3.28819],[30.72073,-3.30172],[30.69213,-3.31431],[30.66692,-3.31901],[30.66045,-3.332],[30.65002,-3.34073],[30.6478,-3.34754],[30.63822,-3.35378],[30.63415,-3.36162],[30.64476,-3.37171],[30.64631,-3.38368],[30.65511,-3.38355],[30.66838,-3.38925],[30.67765,-3.39857],[30.67249,-3.40856],[30.6725,-3.4179],[30.66263,-3.43178],[30.64494,-3.4427],[30.63697,-3.4535],[30.61746,-3.46618],[30.59921,-3.47208],[30.58404,-3.48422],[30.56812,-3.48981],[30.56373,-3.49452],[30.53548,-3.50283],[30.52395,-3.51392],[30.51475,-3.52889],[30.51226,-3.52933],[30.51008,-3.52106],[30.50616,-3.51892],[30.50131,-3.51711],[30.49316,-3.51994],[30.47853,-3.53688],[30.47087,-3.53935],[30.46079,-3.55255],[30.4619,-3.55598],[30.44965,-3.56265],[30.44778,-3.57535],[30.45639,-3.57595],[30.45507,-3.58713],[30.45029,-3.59187],[30.45703,-3.59299],[30.45631,-3.60579],[30.45121,-3.60762],[30.45127,-3.61224],[30.44312,-3.61934],[30.43794,-3.61857],[30.42988,-3.62428],[30.43321,-3.63156],[30.42688,-3.63792],[30.42741,-3.64134],[30.4215,-3.64104],[30.41898,-3.6538],[30.4155,-3.65433],[30.41424,-3.65861],[30.4153,-3.66403],[30.40815,-3.67058],[30.41141,-3.67787],[30.40549,-3.68047],[30.40942,-3.68562],[30.40316,-3.6901],[30.39745,-3.70454],[30.39024,-3.70541],[30.39152,-3.70816],[30.38676,-3.71355],[30.39137,-3.71606],[30.389,-3.71964],[30.39084,-3.72842],[30.39822,-3.73122],[30.40374,-3.76157],[30.40974,-3.76644],[30.40959,-3.78389],[30.40465,-3.7869],[30.40402,-3.79274],[30.39724,-3.79571],[30.39224,-3.79278],[30.391,-3.78812],[30.38761,-3.78829],[30.38419,-3.78162],[30.3774,-3.78201],[30.37531,-3.77742],[30.36574,-3.77939],[30.36389,-3.7836],[30.35842,-3.78017],[30.35862,-3.77587],[30.34725,-3.77372],[30.3317,-3.78535],[30.32926,-3.78446],[30.32768,-3.79153],[30.32084,-3.79807],[30.3236,-3.79901],[30.3197,-3.81801],[30.30601,-3.83211],[30.30425,-3.84851],[30.29781,-3.85119],[30.29876,-3.85554],[30.28829,-3.86182],[30.27918,-3.87328],[30.27289,-3.87384],[30.2716,-3.87686],[30.269,-3.87513],[30.26557,-3.87921],[30.25986,-3.8798],[30.26088,-3.88405],[30.2562,-3.88426],[30.25939,-3.89249],[30.25128,-3.90683],[30.24936,-3.91861],[30.24042,-3.92292],[30.24053,-3.9283],[30.23122,-3.94094],[30.23275,-3.95228],[30.22926,-3.95299],[30.22679,-3.97375],[30.21373,-3.99096],[30.2266,-4.02107],[30.21849,-4.02581],[30.20524,-4.04524],[30.19297,-4.04592],[30.17945,-4.07931],[30.17746,-4.08665],[30.17984,-4.08739],[30.17113,-4.09423],[30.15808,-4.11456],[30.14863,-4.11869],[30.13551,-4.13057],[30.12259,-4.13529],[30.12385,-4.13956],[30.11505,-4.14057],[30.11223,-4.15058],[30.10091,-4.1526],[30.09154,-4.15948],[30.08629,-4.15887],[30.0778,-4.16826],[30.05666,-4.22139],[30.0527,-4.22244],[30.05622,-4.23036],[30.05225,-4.2409],[30.04649,-4.24246],[30.05096,-4.2435],[30.04924,-4.24774],[30.05304,-4.25814],[30.04561,-4.25453],[30.04293,-4.25652],[30.04667,-4.25943],[30.04176,-4.26956],[30.04211,-4.27643],[30.03054,-4.27301],[30.02575,-4.27783],[30.02181,-4.27564],[30.01517,-4.27742],[30.01382,-4.28426],[30.0033,-4.28051],[30.00206,-4.28675],[30.00466,-4.28719],[30.00557,-4.29323],[30.00195,-4.29293],[29.9983,-4.29932],[29.99522,-4.29299],[29.99194,-4.29999],[29.98674,-4.29641],[29.98326,-4.29977],[29.97263,-4.30058],[29.9641,-4.30645],[29.96696,-4.31312],[29.95825,-4.3287],[29.95093,-4.33024],[29.9426,-4.33857],[29.92554,-4.34737],[29.91241,-4.3503],[29.91022,-4.3484],[29.90054,-4.35621],[29.89348,-4.3533],[29.88427,-4.35916],[29.88248,-4.36975],[29.88043,-4.36676],[29.87395,-4.36913],[29.87182,-4.3727],[29.87525,-4.37824],[29.86704,-4.38339],[29.8662,-4.38044],[29.85176,-4.38141],[29.84497,-4.3684],[29.83442,-4.36802],[29.8268,-4.3608],[29.81855,-4.36646],[29.81442,-4.36394],[29.801,-4.38496],[29.79421,-4.40276],[29.78307,-4.41377],[29.77576,-4.41173],[29.76434,-4.42889],[29.76625,-4.44167],[29.76394,-4.44768],[29.76995,-4.45617],[29.75576,-4.46889],[29.74408,-4.46551],[29.74143,-4.45703],[29.7232,-4.46167],[29.70945,-4.44847],[29.70219,-4.4604],[29.69863,-4.44969],[29.69367,-4.44811],[29.69339,-4.45196],[29.68659,-4.45196],[29.66406,-4.44444],[29.41462,-4.44444],[29.40057,-4.36239],[29.39537,-4.27636],[29.38513,-4.21606],[29.38393,-4.17156],[29.36378,-4.08893],[29.3358,-4.03178],[29.32935,-4.00591],[29.30342,-3.9609],[29.27583,-3.93509],[29.24412,-3.91508],[29.23939,-3.88515],[29.23736,-3.82505],[29.22976,-3.79371],[29.21824,-3.76736],[29.21852,-3.74607],[29.24127,-3.66964],[29.24887,-3.57257],[29.23712,-3.47973],[29.23292,-3.41545],[29.22559,-3.38725],[29.2125,-3.35452],[29.21491,-3.34365],[29.21213,-3.33864],[29.21973,-3.3298],[29.21148,-3.30264],[29.21326,-3.29519],[29.22739,-3.28985],[29.22814,-3.28451],[29.23975,-3.27611],[29.23765,-3.27165],[29.24096,-3.26886],[29.23259,-3.25894],[29.22606,-3.22944],[29.22618,-3.22398],[29.23091,-3.2213],[29.23462,-3.21313],[29.2281,-3.20552],[29.22777,-3.20021],[29.22271,-3.19942],[29.22281,-3.19686],[29.22447,-3.18861],[29.22996,-3.18706],[29.23153,-3.18329],[29.22489,-3.181],[29.23303,-3.16844],[29.22852,-3.15942],[29.23952,-3.14891],[29.24081,-3.13899],[29.24446,-3.13876],[29.24402,-3.12973],[29.25023,-3.12916],[29.24813,-3.12329],[29.25215,-3.12546],[29.25494,-3.12251],[29.25724,-3.11329],[29.25047,-3.10626],[29.25459,-3.10279],[29.24705,-3.09634],[29.25352,-3.09558],[29.25499,-3.08951],[29.26061,-3.08678],[29.25644,-3.08313],[29.25891,-3.07663],[29.25759,-3.06581],[29.24965,-3.06382],[29.25443,-3.05255],[29.24006,-3.04098],[29.24099,-3.03575],[29.23455,-3.03523],[29.2322,-3.03179],[29.23715,-3.0254],[29.22901,-3.02554],[29.22591,-3.01928],[29.20295,-3.02233],[29.19294,-3.00824],[29.18603,-3.00901],[29.18584,-3.00156],[29.17809,-2.99208],[29.16844,-2.99665],[29.16636,-2.99335],[29.17206,-2.98246],[29.16689,-2.97305],[29.16807,-2.9608],[29.15453,-2.94675],[29.14266,-2.94637],[29.13995,-2.93961],[29.13232,-2.93567],[29.12956,-2.9304],[29.12273,-2.93056],[29.1092,-2.92179],[29.10099,-2.92358],[29.09624,-2.91812],[29.08938,-2.89898],[29.09444,-2.88288],[29.0934,-2.87623],[29.08939,-2.87029],[29.08674,-2.87271],[29.07631,-2.86376],[29.06819,-2.86154],[29.07048,-2.85878],[29.06686,-2.85441],[29.06944,-2.8496],[29.0616,-2.84286],[29.06043,-2.83451],[29.05208,-2.82592],[29.05127,-2.82076],[29.04568,-2.8188],[29.02804,-2.82587],[29.02005,-2.82027],[29.01136,-2.81951],[29.00243,-2.80976],[29.00186,-2.78385],[29.02752,-2.76028],[29.03852,-2.76079],[29.04274,-2.72573],[29.05588,-2.70991],[29.05542,-2.70586],[29.04981,-2.70194],[29.05252,-2.69833],[29.05023,-2.69445],[29.05533,-2.69217],[29.05444,-2.68856],[29.04838,-2.68784],[29.05789,-2.68044],[29.05697,-2.67615],[29.05202,-2.67647],[29.04772,-2.67042],[29.05249,-2.65679],[29.06062,-2.65119],[29.05932,-2.64496],[29.05398,-2.64062],[29.05233,-2.62686],[29.06231,-2.60171],[29.07301,-2.60329],[29.08889,-2.59167],[29.09595,-2.59678],[29.10832,-2.59469],[29.11638,-2.59779],[29.12822,-2.61011],[29.1336,-2.6054],[29.14124,-2.6043],[29.13951,-2.59812],[29.14429,-2.59504],[29.16274,-2.5952],[29.16244,-2.60024],[29.16906,-2.60417],[29.17445,-2.61539],[29.18274,-2.6139],[29.18456,-2.61071],[29.19527,-2.61796],[29.20372,-2.61543],[29.20903,-2.62243],[29.21321,-2.62145],[29.21912,-2.62634],[29.21901,-2.63099],[29.22257,-2.63195],[29.22683,-2.62544],[29.23088,-2.62899],[29.23591,-2.62594],[29.23943,-2.62729],[29.24376,-2.62308],[29.25034,-2.62693],[29.2635,-2.61818],[29.26824,-2.62491],[29.28191,-2.62564],[29.29181,-2.63901],[29.31422,-2.64624],[29.3231,-2.64355],[29.33546,-2.66893],[29.32898,-2.68978],[29.33166,-2.6929],[29.33506,-2.69092],[29.34562,-2.70255],[29.3493,-2.7],[29.35126,-2.70485],[29.34794,-2.71987],[29.35139,-2.72416],[29.3512,-2.73509],[29.33337,-2.74619],[29.3412,-2.75442],[29.33823,-2.76098],[29.34037,-2.76382],[29.35076,-2.76812],[29.34814,-2.7768],[29.35752,-2.79264],[29.35183,-2.79917],[29.35298,-2.80528],[29.36244,-2.81973],[29.36101,-2.82325],[29.36458,-2.82752],[29.36255,-2.83238],[29.36719,-2.8317],[29.37084,-2.83975],[29.37711,-2.83779],[29.38529,-2.82129],[29.39104,-2.81813],[29.40072,-2.82184],[29.40755,-2.81467],[29.41419,-2.81441],[29.4378,-2.79736],[29.45525,-2.79997],[29.4646,-2.8104],[29.47043,-2.80761],[29.47866,-2.80937],[29.48366,-2.80197],[29.48643,-2.8023],[29.49058,-2.8079],[29.50064,-2.81267],[29.50749,-2.8221],[29.52263,-2.83014],[29.53501,-2.82748],[29.5434,-2.82917],[29.54256,-2.81904],[29.545,-2.81716],[29.5508,-2.81821],[29.56535,-2.81182],[29.57347,-2.81187],[29.58905,-2.80275],[29.59142,-2.80808],[29.60594,-2.80654],[29.6124,-2.8112],[29.61633,-2.81012],[29.62099,-2.80524],[29.62971,-2.80395],[29.63925,-2.78907],[29.64535,-2.78747],[29.66022,-2.78772],[29.66959,-2.79161],[29.68074,-2.8003],[29.68474,-2.79977],[29.68953,-2.80643],[29.70523,-2.81215],[29.70853,-2.81969],[29.72401,-2.81718],[29.7307,-2.81197],[29.74596,-2.80736],[29.75286,-2.81127],[29.75996,-2.80212],[29.76494,-2.7792],[29.76879,-2.77728],[29.76908,-2.76669],[29.77238,-2.76425],[29.78714,-2.76625],[29.79517,-2.75765],[29.80239,-2.75928],[29.81451,-2.77441],[29.82512,-2.77478],[29.82961,-2.7803],[29.83964,-2.76878],[29.85319,-2.76658],[29.867,-2.75991],[29.875,-2.76152],[29.87923,-2.75917],[29.87882,-2.75418],[29.8935,-2.74687],[29.89106,-2.74467],[29.89245,-2.7378],[29.91866,-2.70208],[29.9307,-2.66275],[29.92891,-2.65762],[29.9363,-2.64151],[29.92807,-2.63255],[29.93104,-2.6234],[29.93164,-2.58938],[29.92082,-2.55748],[29.93429,-2.53408],[29.93426,-2.52119],[29.93888,-2.51504],[29.94271,-2.49844],[29.95087,-2.49603],[29.953,-2.49175],[29.96438,-2.48895],[29.96786,-2.48469],[29.96669,-2.47133],[29.97053,-2.46106],[29.96569,-2.45016],[29.96765,-2.4457],[29.96255,-2.43575],[29.96207,-2.41488],[29.95468,-2.38961],[29.94351,-2.36997],[29.94412,-2.3641],[29.95643,-2.34986],[29.95643,-2.32921],[29.9827,-2.33497],[29.98324,-2.3386],[30.00076,-2.34492],[30.02013,-2.34413],[30.02948,-2.34808],[30.04607,-2.3609],[30.06407,-2.39431],[30.07535,-2.40149],[30.09686,-2.42304],[30.10708,-2.42557],[30.12297,-2.43556],[30.13641,-2.43771],[30.1654,-2.4263],[30.18348,-2.42855],[30.19583,-2.40968],[30.19745,-2.38614],[30.2041,-2.38613],[30.21337,-2.37948],[30.21896,-2.36461],[30.21886,-2.35597],[30.22388,-2.35049],[30.23457,-2.35256],[30.24042,-2.36027],[30.24322,-2.35933],[30.24851,-2.36455],[30.25006,-2.3721],[30.25553,-2.37457],[30.27161,-2.37444],[30.37275,-2.35509],[30.38049,-2.32614],[30.39206,-2.3135],[30.40861,-2.30981],[30.41738,-2.32072],[30.42844,-2.32805],[30.43822,-2.32961],[30.4496,-2.31896],[30.46021,-2.31926],[30.46308,-2.32552],[30.4586,-2.34316],[30.46059,-2.3478],[30.47005,-2.35152],[30.47116,-2.36658],[30.47686,-2.36869],[30.4865,-2.36684],[30.48894,-2.37636],[30.49463,-2.37718],[30.5085,-2.3896],[30.51114,-2.4012],[30.5354,-2.40538],[30.5448,-2.41358],[30.539,-2.42214],[30.5373,-2.43381],[30.52564,-2.44569],[30.5203,-2.45736],[30.51933,-2.47353],[30.51128,-2.49185],[30.51231,-2.50248],[30.4977,-2.51124],[30.4963,-2.52416],[30.48417,-2.52609],[30.48422,-2.55807],[30.46904,-2.57737],[30.46451,-2.59001],[30.45717,-2.59639],[30.43844,-2.63522],[30.42231,-2.65463],[30.42029,-2.6658]]]]}}]}