{"type":"FeatureCollection","features":[{"type":"Feature","properties":{"ISO_A3":"BEL","WB_A3":"BEL","WB_NAME":"Belgium","WB_REGION":"ECS"},"geometry":{"type":"MultiPolygon","coordinates":[[[[6.02234,50.18244],[6.00383,50.17652],[5.97113,50.17498],[5.96436,50.17088],[5.96359,50.16105],[5.96716,50.15527],[5.95816,50.15138],[5.96128,50.14983],[5.95857,50.1389],[5.96132,50.13138],[5.9142,50.12188],[5.89524,50.11212],[5.89458,50.10109],[5.88645,50.09085],[5.88662,50.07854],[5.86066,50.06928],[5.85423,50.0589],[5.86884,50.04741],[5.86336,50.03937],[5.85624,50.03634],[5.85988,50.02888],[5.85325,50.02757],[5.85246,50.02291],[5.81899,50.0128],[5.82275,49.99794],[5.8325,49.99045],[5.83943,49.98959],[5.83859,49.98231],[5.83208,49.97655],[5.81249,49.97223],[5.81055,49.96411],[5.80661,49.96231],[5.79575,49.96571],[5.79125,49.96181],[5.77503,49.9608],[5.77722,49.95774],[5.77035,49.94959],[5.77516,49.9377],[5.77068,49.93578],[5.77094,49.93166],[5.76401,49.93146],[5.76062,49.91748],[5.76358,49.91545],[5.74008,49.90422],[5.73573,49.89704],[5.77061,49.88706],[5.78331,49.87894],[5.78222,49.87377],[5.77377,49.86753],[5.77132,49.87205],[5.76305,49.86946],[5.75875,49.87285],[5.75397,49.87208],[5.75277,49.86822],[5.75696,49.8651],[5.75486,49.86104],[5.76065,49.85681],[5.74628,49.85212],[5.75473,49.85182],[5.75832,49.84915],[5.75735,49.84566],[5.74824,49.84646],[5.75048,49.84005],[5.74087,49.83874],[5.73934,49.83367],[5.74812,49.82468],[5.74339,49.82098],[5.74695,49.81536],[5.75119,49.81484],[5.75513,49.79145],[5.77733,49.79455],[5.78132,49.79232],[5.78534,49.79626],[5.79041,49.79572],[5.7934,49.79066],[5.79195,49.78723],[5.80708,49.77256],[5.80946,49.76534],[5.81595,49.76221],[5.81791,49.75402],[5.83233,49.74685],[5.83039,49.74337],[5.83265,49.74144],[5.82743,49.73914],[5.82804,49.73288],[5.82538,49.73204],[5.82632,49.72356],[5.84454,49.72134],[5.86519,49.72689],[5.87518,49.72189],[5.87474,49.71588],[5.88598,49.70972],[5.86341,49.68849],[5.86179,49.68107],[5.8654,49.67605],[5.88223,49.67184],[5.88665,49.66789],[5.88998,49.66963],[5.90323,49.66418],[5.90802,49.66566],[5.91067,49.66248],[5.90297,49.6576],[5.90223,49.64894],[5.90613,49.63838],[5.89896,49.63438],[5.88692,49.63496],[5.88271,49.63095],[5.88631,49.62726],[5.87689,49.62091],[5.87653,49.60851],[5.84784,49.59578],[5.85013,49.58694],[5.8714,49.58797],[5.87314,49.58402],[5.86599,49.58056],[5.8719,49.5796],[5.86974,49.57674],[5.87276,49.57434],[5.8432,49.56049],[5.84628,49.55771],[5.84183,49.55309],[5.828,49.54999],[5.826,49.55218],[5.81852,49.54642],[5.80758,49.55079],[5.79247,49.55156],[5.77133,49.5633],[5.75829,49.56136],[5.75986,49.55836],[5.75582,49.55632],[5.75763,49.543],[5.74747,49.53969],[5.73828,49.53887],[5.73278,49.54508],[5.72101,49.53987],[5.7005,49.53988],[5.69056,49.54622],[5.66927,49.54832],[5.6641,49.55297],[5.64282,49.55001],[5.64343,49.5471],[5.6337,49.54438],[5.63202,49.5397],[5.61564,49.52721],[5.62152,49.51965],[5.61102,49.506],[5.60388,49.50882],[5.59892,49.51847],[5.59118,49.52295],[5.57119,49.52795],[5.56482,49.52568],[5.55664,49.52922],[5.54511,49.5235],[5.54082,49.51519],[5.49958,49.50658],[5.48381,49.50732],[5.47899,49.50008],[5.47213,49.4969],[5.46517,49.49884],[5.46593,49.50884],[5.44943,49.51609],[5.46034,49.5257],[5.46704,49.52593],[5.46535,49.53891],[5.44141,49.55235],[5.44767,49.55435],[5.45709,49.56699],[5.43766,49.56992],[5.42848,49.59606],[5.41829,49.59981],[5.41123,49.60824],[5.40221,49.60989],[5.39808,49.6158],[5.37533,49.62348],[5.36333,49.62359],[5.3536,49.63066],[5.34728,49.63129],[5.33701,49.61564],[5.33019,49.61683],[5.31216,49.61166],[5.31118,49.61825],[5.30482,49.62444],[5.30506,49.63024],[5.31838,49.64621],[5.33236,49.65285],[5.30925,49.6718],[5.29362,49.67748],[5.26854,49.69657],[5.25616,49.69423],[5.2427,49.68534],[5.24294,49.68931],[5.23152,49.69166],[5.21802,49.68769],[5.20568,49.69632],[5.19625,49.69199],[5.19132,49.69499],[5.16431,49.69344],[5.1655,49.71216],[5.15411,49.71879],[5.14365,49.70916],[5.141,49.71347],[5.12592,49.71248],[5.12597,49.71636],[5.12282,49.71741],[5.12498,49.72671],[5.11902,49.73824],[5.09383,49.76387],[5.08777,49.76619],[5.08562,49.76337],[5.06303,49.76235],[5.06168,49.76725],[5.019,49.77819],[5.00878,49.78201],[5.00692,49.78738],[4.99809,49.79432],[4.9982,49.79968],[4.99412,49.80085],[4.9687,49.80163],[4.96758,49.79859],[4.96233,49.79776],[4.95679,49.80187],[4.9474,49.799],[4.94378,49.79176],[4.93888,49.79311],[4.93093,49.787],[4.9203,49.7887],[4.90589,49.78552],[4.89814,49.78916],[4.88793,49.78822],[4.8803,49.79289],[4.86987,49.79353],[4.87092,49.78958],[4.86421,49.78886],[4.85213,49.79362],[4.85921,49.79694],[4.86667,49.81327],[4.87623,49.81987],[4.86931,49.82281],[4.86716,49.84204],[4.85762,49.84183],[4.85754,49.84676],[4.85234,49.85177],[4.85023,49.86644],[4.85908,49.86508],[4.86309,49.86762],[4.86157,49.87105],[4.86677,49.87861],[4.87181,49.87993],[4.86915,49.88359],[4.87805,49.89481],[4.88732,49.89982],[4.87672,49.90138],[4.87766,49.90457],[4.8902,49.90894],[4.88093,49.91614],[4.88005,49.92295],[4.85912,49.93151],[4.84878,49.94788],[4.84109,49.95064],[4.82986,49.9492],[4.79107,49.95812],[4.79027,49.9691],[4.79576,49.97732],[4.79326,49.9818],[4.80749,49.98413],[4.81933,49.99538],[4.81622,49.99887],[4.82153,50.01157],[4.81751,50.01493],[4.81831,50.01959],[4.82253,50.02214],[4.82006,50.02613],[4.84161,50.03853],[4.84062,50.04653],[4.83202,50.04675],[4.82678,50.05094],[4.82966,50.05658],[4.82765,50.05915],[4.81883,50.06147],[4.82212,50.06419],[4.81965,50.06608],[4.83788,50.06724],[4.84288,50.07776],[4.84059,50.08302],[4.84687,50.08432],[4.83825,50.09357],[4.85504,50.10111],[4.8619,50.09722],[4.86025,50.09327],[4.86874,50.08832],[4.87238,50.08779],[4.87595,50.09441],[4.86895,50.09623],[4.87356,50.10754],[4.86704,50.11879],[4.87293,50.12587],[4.87851,50.12723],[4.87842,50.13176],[4.88681,50.1308],[4.89705,50.13797],[4.88143,50.14126],[4.87921,50.15212],[4.83259,50.15326],[4.82486,50.16034],[4.82416,50.16931],[4.80658,50.15268],[4.76215,50.13642],[4.75616,50.12163],[4.74806,50.12234],[4.7533,50.11651],[4.75168,50.11192],[4.71588,50.10088],[4.71285,50.09673],[4.70207,50.09553],[4.69244,50.08448],[4.68831,50.0726],[4.6795,50.06693],[4.68623,50.05751],[4.69627,50.05906],[4.70001,50.05237],[4.69533,50.04767],[4.69669,50.04224],[4.68458,50.02718],[4.68893,50.01133],[4.68494,50.00766],[4.68764,50.00053],[4.69418,49.99627],[4.66701,49.99682],[4.63354,49.98728],[4.58182,49.9836],[4.57368,49.98005],[4.57356,49.97655],[4.56469,49.97048],[4.54091,49.96952],[4.52353,49.95027],[4.5187,49.95165],[4.51137,49.94647],[4.48093,49.94806],[4.44564,49.93719],[4.44119,49.9411],[4.40507,49.94913],[4.39071,49.94769],[4.37973,49.95326],[4.34979,49.95256],[4.3353,49.96338],[4.31866,49.96451],[4.30942,49.96962],[4.29704,49.96466],[4.26878,49.96541],[4.24124,49.96136],[4.23465,49.9578],[4.19834,49.95602],[4.19487,49.95679],[4.1971,49.96772],[4.17881,49.97201],[4.17528,49.97627],[4.14489,49.97605],[4.14237,49.97798],[4.14759,49.98366],[4.15359,49.98458],[4.16311,49.99498],[4.16183,50.00059],[4.15489,49.99983],[4.14543,50.00381],[4.14754,50.0059],[4.13535,50.01515],[4.14428,50.0308],[4.14873,50.03235],[4.16225,50.04927],[4.174,50.04548],[4.19429,50.04943],[4.19877,50.05663],[4.21844,50.06093],[4.23058,50.0693],[4.22526,50.08559],[4.21739,50.08813],[4.21052,50.09687],[4.2016,50.09991],[4.20622,50.10615],[4.19669,50.10645],[4.20406,50.11564],[4.19774,50.12911],[4.20093,50.13296],[4.19678,50.13523],[4.17563,50.13308],[4.15703,50.13526],[4.15441,50.12787],[4.13212,50.13206],[4.12788,50.13609],[4.13568,50.14272],[4.13735,50.15153],[4.15535,50.16298],[4.15575,50.17209],[4.14832,50.1733],[4.15617,50.18335],[4.15604,50.19242],[4.16032,50.19358],[4.16029,50.20155],[4.15192,50.21204],[4.17288,50.21718],[4.18202,50.23262],[4.19368,50.2404],[4.20289,50.24029],[4.22004,50.25166],[4.22127,50.25863],[4.21581,50.26165],[4.21154,50.27006],[4.20105,50.27486],[4.17886,50.27518],[4.17467,50.27848],[4.17634,50.28444],[4.16902,50.28467],[4.1699,50.28814],[4.16259,50.28896],[4.16111,50.28499],[4.15639,50.28519],[4.14961,50.27456],[4.16236,50.27161],[4.16865,50.26646],[4.16762,50.2595],[4.15431,50.25637],[4.13809,50.25716],[4.13879,50.26328],[4.13427,50.26569],[4.13652,50.2747],[4.12496,50.27355],[4.12185,50.27771],[4.126,50.28619],[4.12273,50.29798],[4.10974,50.30191],[4.09716,50.3135],[4.08187,50.30918],[4.07828,50.32071],[4.05326,50.33535],[4.054,50.33932],[4.04422,50.3395],[4.03604,50.34367],[4.02797,50.35839],[4.02419,50.35917],[4.01128,50.35002],[3.99356,50.3487],[3.98769,50.3429],[3.97508,50.34602],[3.96745,50.34062],[3.96827,50.35002],[3.90028,50.32697],[3.88775,50.32862],[3.88988,50.33306],[3.88721,50.34095],[3.87196,50.33821],[3.84686,50.35305],[3.82434,50.35338],[3.82191,50.34578],[3.81141,50.345],[3.81532,50.34966],[3.81402,50.35323],[3.80642,50.35535],[3.79899,50.35092],[3.76667,50.35312],[3.76338,50.34807],[3.74715,50.351],[3.73382,50.34245],[3.73394,50.32997],[3.72989,50.33039],[3.72919,50.32564],[3.7324,50.32154],[3.72737,50.3153],[3.73194,50.3115],[3.72859,50.30938],[3.72103,50.3113],[3.7203,50.31594],[3.71222,50.31964],[3.71033,50.31393],[3.71532,50.31267],[3.7165,50.30638],[3.72002,50.30502],[3.70991,50.30319],[3.68979,50.3191],[3.69385,50.32185],[3.68864,50.32281],[3.67326,50.3351],[3.67742,50.34025],[3.66544,50.34705],[3.66721,50.36084],[3.6571,50.3693],[3.67328,50.38805],[3.67498,50.40231],[3.6691,50.42283],[3.66886,50.43678],[3.66092,50.44319],[3.66081,50.44992],[3.66425,50.45243],[3.66165,50.45758],[3.6546,50.46291],[3.64349,50.46334],[3.63517,50.47119],[3.63023,50.47921],[3.63251,50.47999],[3.61925,50.48666],[3.60756,50.49722],[3.58537,50.49052],[3.56852,50.50085],[3.5393,50.49465],[3.52353,50.49537],[3.50074,50.4867],[3.49625,50.49882],[3.50383,50.50712],[3.51573,50.51255],[3.51835,50.52467],[3.47444,50.53367],[3.45387,50.51925],[3.45185,50.50994],[3.44688,50.50601],[3.43552,50.50986],[3.42882,50.50463],[3.39601,50.49612],[3.39193,50.49845],[3.37702,50.49111],[3.36189,50.50393],[3.32968,50.50796],[3.32056,50.51876],[3.30459,50.52039],[3.28642,50.52788],[3.28697,50.53181],[3.27879,50.53891],[3.28076,50.54438],[3.27825,50.5517],[3.28259,50.55213],[3.27596,50.55855],[3.2852,50.56168],[3.27774,50.56433],[3.27768,50.57034],[3.28157,50.57291],[3.28171,50.57767],[3.27567,50.58212],[3.27954,50.5959],[3.27459,50.59689],[3.27473,50.60475],[3.27203,50.60489],[3.26989,50.61203],[3.25537,50.62271],[3.25917,50.62971],[3.2441,50.64074],[3.24959,50.64754],[3.24009,50.65868],[3.24106,50.66869],[3.26455,50.67778],[3.25292,50.68974],[3.25984,50.69123],[3.26109,50.70134],[3.25094,50.70533],[3.24517,50.71303],[3.2274,50.71302],[3.22214,50.71019],[3.21062,50.71333],[3.20841,50.71872],[3.19151,50.72464],[3.20003,50.73455],[3.18743,50.74082],[3.18023,50.75527],[3.17123,50.75867],[3.17145,50.76218],[3.15111,50.78354],[3.15089,50.7899],[3.12819,50.78633],[3.11032,50.79359],[3.10818,50.78562],[3.08791,50.77314],[3.08005,50.77311],[3.06005,50.78075],[3.05176,50.77968],[3.03971,50.77572],[3.03277,50.76977],[3.01446,50.7737],[3.01254,50.76942],[2.9811,50.75698],[2.97412,50.75094],[2.95634,50.75363],[2.94989,50.7512],[2.93806,50.74458],[2.93798,50.73889],[2.94459,50.73292],[2.93178,50.72832],[2.92878,50.7228],[2.93109,50.71805],[2.92882,50.70915],[2.92181,50.70289],[2.91216,50.70401],[2.90954,50.70098],[2.9108,50.69432],[2.9057,50.69243],[2.89873,50.69396],[2.88541,50.70653],[2.87946,50.70279],[2.86971,50.70326],[2.8481,50.72303],[2.81924,50.71552],[2.79462,50.72488],[2.78936,50.72888],[2.79038,50.73158],[2.78163,50.74341],[2.78301,50.75151],[2.76456,50.75575],[2.7621,50.76336],[2.75652,50.76269],[2.76199,50.77166],[2.75255,50.77765],[2.7383,50.78053],[2.72945,50.79226],[2.72609,50.79263],[2.72278,50.80108],[2.72591,50.809],[2.71415,50.81426],[2.67893,50.81342],[2.66941,50.82257],[2.65574,50.81345],[2.63509,50.81291],[2.62548,50.83668],[2.61666,50.83935],[2.61653,50.84808],[2.59871,50.85014],[2.61236,50.86435],[2.60617,50.87414],[2.60981,50.879],[2.60706,50.88607],[2.60432,50.88615],[2.60951,50.89482],[2.60392,50.90459],[2.60747,50.91281],[2.60359,50.91669],[2.59229,50.91537],[2.59035,50.91924],[2.61426,50.9325],[2.61927,50.93694],[2.61802,50.94144],[2.63291,50.9462],[2.62124,50.96468],[2.61091,50.97362],[2.60671,50.98203],[2.6101,50.98533],[2.60729,50.99113],[2.59544,50.99204],[2.57405,51.00327],[2.57228,51.01345],[2.57593,51.01387],[2.56199,51.0584],[2.56285,51.06487],[2.54514,51.08946],[2.72234,51.15345],[2.74278,51.14196],[2.74399,51.14402],[2.72356,51.15422],[2.79476,51.18025],[2.91739,51.23563],[2.9227,51.23653],[2.9274,51.2291],[2.93005,51.23346],[2.92392,51.23807],[3.02028,51.27487],[3.07671,51.30175],[3.16961,51.32805],[3.17843,51.3356],[3.16948,51.34919],[3.17072,51.35304],[3.1824,51.35584],[3.18648,51.35378],[3.17848,51.34892],[3.17847,51.34585],[3.20038,51.34927],[3.20037,51.34594],[3.19176,51.34224],[3.18559,51.33405],[3.19625,51.33993],[3.19335,51.33096],[3.19764,51.3307],[3.20156,51.33915],[3.20811,51.34016],[3.21301,51.33656],[3.22489,51.3409],[3.22391,51.34885],[3.21801,51.35629],[3.22375,51.3573],[3.21353,51.36104],[3.20942,51.3581],[3.20576,51.36195],[3.22212,51.36038],[3.22942,51.34576],[3.24496,51.34457],[3.36668,51.36863],[3.37499,51.35889],[3.37407,51.34852],[3.3835,51.34123],[3.38534,51.33414],[3.35838,51.31498],[3.37685,51.30245],[3.36734,51.29961],[3.36669,51.2958],[3.37962,51.28815],[3.38185,51.28231],[3.37557,51.27916],[3.37815,51.27516],[3.38843,51.2728],[3.40644,51.25757],[3.41676,51.26004],[3.42457,51.25425],[3.42748,51.24467],[3.44848,51.24156],[3.5276,51.24604],[3.51542,51.28716],[3.52911,51.28874],[3.53365,51.2835],[3.53798,51.28366],[3.54341,51.2912],[3.5549,51.2896],[3.56272,51.29585],[3.57567,51.28865],[3.58388,51.2889],[3.58339,51.29227],[3.58792,51.29297],[3.58111,51.29834],[3.59083,51.30443],[3.62135,51.29274],[3.64009,51.28833],[3.65809,51.2902],[3.67791,51.28054],[3.68999,51.28057],[3.69358,51.27612],[3.75574,51.26933],[3.76252,51.26178],[3.76946,51.25989],[3.77831,51.26234],[3.79547,51.25606],[3.78946,51.24579],[3.78846,51.22638],[3.7913,51.21396],[3.80191,51.21047],[3.80138,51.18614],[3.77072,51.1333],[3.73295,51.10125],[3.73016,51.09255],[3.73342,51.09279],[3.73862,51.0743],[3.73757,51.08456],[3.74365,51.08324],[3.74328,51.08581],[3.7368,51.08739],[3.74214,51.09094],[3.73626,51.09226],[3.73453,51.09842],[3.73828,51.10404],[3.74033,51.10479],[3.75288,51.0878],[3.75536,51.09034],[3.74343,51.10759],[3.75394,51.11547],[3.75752,51.11032],[3.76038,51.11107],[3.75849,51.1198],[3.7719,51.13022],[3.78173,51.14553],[3.7992,51.1431],[3.79965,51.14541],[3.78525,51.14884],[3.80367,51.17741],[3.80552,51.2133],[3.82095,51.20922],[3.83638,51.2138],[3.85956,51.21083],[3.88865,51.22296],[3.89326,51.21884],[3.89015,51.21387],[3.87763,51.20802],[3.88642,51.20029],[3.89458,51.2035],[3.89883,51.20172],[3.91861,51.2078],[3.91601,51.21464],[3.92942,51.22025],[3.93597,51.21191],[3.95802,51.21576],[3.96461,51.2241],[3.97898,51.22539],[3.9862,51.23415],[4.01106,51.24404],[4.03788,51.24456],[4.04055,51.24132],[4.06185,51.24459],[4.16706,51.29363],[4.2348,51.34814],[4.26228,51.33073],[4.26421,51.31917],[4.27612,51.2988],[4.31378,51.28608],[4.31483,51.28017],[4.30143,51.26853],[4.27555,51.26356],[4.25713,51.26979],[4.2599,51.27386],[4.25324,51.27675],[4.24598,51.27272],[4.23121,51.27801],[4.2526,51.29828],[4.24836,51.30038],[4.22126,51.28042],[4.21048,51.26695],[4.21392,51.2655],[4.22234,51.27502],[4.23938,51.27049],[4.22894,51.25445],[4.23383,51.25389],[4.24583,51.26709],[4.25154,51.26677],[4.25328,51.26342],[4.25054,51.26012],[4.25784,51.25824],[4.26122,51.26218],[4.29434,51.26349],[4.2982,51.2555],[4.30786,51.25065],[4.30699,51.24848],[4.32699,51.24825],[4.35157,51.23708],[4.39155,51.2361],[4.39736,51.23231],[4.38707,51.21603],[4.37895,51.21062],[4.34231,51.19926],[4.3315,51.19233],[4.32554,51.17651],[4.32724,51.14343],[4.32349,51.13348],[4.31747,51.12944],[4.30269,51.12538],[4.27309,51.12344],[4.25646,51.11743],[4.24137,51.11656],[4.22927,51.12105],[4.20974,51.12189],[4.19654,51.11524],[4.19684,51.111],[4.17312,51.09894],[4.17202,51.089],[4.18852,51.08059],[4.18597,51.06037],[4.1978,51.05615],[4.18643,51.04652],[4.1894,51.03522],[4.1871,51.03268],[4.17532,51.03331],[4.16674,51.03955],[4.15746,51.05053],[4.15921,51.05526],[4.15561,51.05785],[4.13242,51.05731],[4.12739,51.04301],[4.10996,51.03651],[4.12943,51.04299],[4.1283,51.04684],[4.13391,51.05166],[4.13486,51.05754],[4.15274,51.05699],[4.15698,51.05553],[4.15019,51.05227],[4.15215,51.0493],[4.15744,51.04963],[4.17328,51.03282],[4.18951,51.03163],[4.19195,51.03986],[4.19,51.04726],[4.2017,51.05534],[4.20037,51.05856],[4.18881,51.06008],[4.19215,51.07927],[4.18884,51.08494],[4.17592,51.08879],[4.17659,51.09942],[4.1922,51.10464],[4.21334,51.11942],[4.2535,51.11349],[4.28019,51.12153],[4.30383,51.12229],[4.30292,51.11884],[4.30804,51.12007],[4.31158,51.11567],[4.30768,51.10725],[4.30945,51.10493],[4.31668,51.10164],[4.32525,51.10244],[4.36011,51.08333],[4.38362,51.08037],[4.40092,51.07375],[4.41529,51.07807],[4.4196,51.07263],[4.42147,51.07389],[4.41531,51.07896],[4.39773,51.07584],[4.38609,51.08123],[4.36299,51.08445],[4.32409,51.10463],[4.31011,51.10671],[4.31404,51.11615],[4.3109,51.12029],[4.31368,51.12487],[4.32354,51.12784],[4.3315,51.14261],[4.33178,51.17362],[4.33403,51.17359],[4.33138,51.17388],[4.3359,51.18946],[4.3426,51.19528],[4.37589,51.20386],[4.38832,51.21012],[4.40218,51.22969],[4.40156,51.23636],[4.399,51.23921],[4.3623,51.2408],[4.33204,51.25345],[4.30766,51.25783],[4.31011,51.2651],[4.32499,51.27801],[4.32903,51.27655],[4.33155,51.27896],[4.3187,51.29397],[4.28971,51.30249],[4.28493,51.3069],[4.28197,51.33282],[4.27305,51.34291],[4.29509,51.34113],[4.29229,51.33604],[4.29765,51.33752],[4.30372,51.32797],[4.29933,51.32468],[4.30132,51.32261],[4.30631,51.32537],[4.30886,51.3215],[4.30597,51.31359],[4.31277,51.31531],[4.34042,51.28193],[4.33927,51.27733],[4.32989,51.27078],[4.33008,51.26334],[4.32564,51.25827],[4.32848,51.25746],[4.33187,51.26178],[4.33671,51.25968],[4.33818,51.26786],[4.35538,51.25562],[4.35404,51.25153],[4.35932,51.2507],[4.3551,51.24601],[4.40849,51.24243],[4.41024,51.24651],[4.40556,51.25349],[4.41582,51.25516],[4.40479,51.25516],[4.40446,51.25786],[4.41554,51.25952],[4.39724,51.26217],[4.36699,51.26125],[4.36665,51.26382],[4.35882,51.26147],[4.34375,51.26985],[4.3432,51.27216],[4.34775,51.27377],[4.3651,51.2664],[4.36801,51.26803],[4.35522,51.27792],[4.38448,51.27911],[4.38394,51.28181],[4.34637,51.28263],[4.33009,51.30614],[4.32543,51.3076],[4.31399,51.32221],[4.34478,51.32596],[4.34444,51.32853],[4.31145,51.32634],[4.30296,51.34438],[4.30359,51.37371],[4.2699,51.37577],[4.33452,51.37764],[4.34112,51.35761],[4.38457,51.35439],[4.42212,51.36522],[4.43135,51.36385],[4.42511,51.37127],[4.43169,51.37499],[4.39162,51.40815],[4.38363,51.42106],[4.39136,51.42739],[4.39519,51.42691],[4.39465,51.43148],[4.3989,51.43526],[4.39542,51.43552],[4.39665,51.442],[4.392,51.44638],[4.37928,51.44674],[4.38271,51.45025],[4.44255,51.46869],[4.46453,51.47115],[4.47658,51.47828],[4.53822,51.48238],[4.54817,51.47331],[4.52989,51.44954],[4.53541,51.42304],[4.57475,51.43285],[4.63759,51.42297],[4.6518,51.42683],[4.66968,51.42637],[4.66659,51.4444],[4.69308,51.45172],[4.70327,51.46698],[4.71695,51.46889],[4.72945,51.48412],[4.74649,51.48946],[4.7527,51.49983],[4.77375,51.50512],[4.78087,51.50408],[4.78387,51.49949],[4.79792,51.49981],[4.81673,51.49396],[4.82113,51.48308],[4.84185,51.48073],[4.83604,51.46124],[4.844,51.45907],[4.83355,51.45743],[4.82335,51.44871],[4.8286,51.42379],[4.83936,51.4198],[4.83649,51.41726],[4.82471,51.42308],[4.78949,51.42958],[4.78655,51.43253],[4.76898,51.42999],[4.76857,51.41962],[4.77328,51.41346],[4.78936,51.40901],[4.83925,51.41463],[4.86613,51.40998],[4.88303,51.41637],[4.89446,51.41297],[4.89996,51.41468],[4.89993,51.41062],[4.90978,51.40742],[4.91017,51.40223],[4.92332,51.39851],[4.91774,51.39681],[4.921,51.39369],[4.92786,51.39546],[4.92442,51.39876],[4.92788,51.39975],[4.92866,51.39587],[4.9632,51.42229],[5.0047,51.44403],[5.00557,51.45106],[5.01036,51.45364],[5.00724,51.46447],[5.01088,51.47238],[5.0332,51.48731],[5.0402,51.48653],[5.03789,51.47935],[5.0457,51.47111],[5.07897,51.47151],[5.10461,51.43135],[5.07117,51.39349],[5.13169,51.34703],[5.13436,51.3155],[5.16263,51.31031],[5.20025,51.32265],[5.24219,51.30522],[5.22596,51.26826],[5.23791,51.26135],[5.26306,51.2668],[5.29627,51.26148],[5.3365,51.26308],[5.34271,51.26626],[5.34614,51.27576],[5.4174,51.26228],[5.43329,51.27633],[5.43837,51.27603],[5.44178,51.2821],[5.46485,51.28457],[5.4832,51.29866],[5.51578,51.29519],[5.52873,51.28173],[5.55624,51.26659],[5.55521,51.2444],[5.56043,51.22234],[5.65273,51.19766],[5.65408,51.19424],[5.64974,51.19362],[5.65806,51.18475],[5.6709,51.18579],[5.67654,51.18272],[5.68955,51.18541],[5.70934,51.18043],[5.74565,51.18952],[5.77672,51.17848],[5.77362,51.17276],[5.77575,51.17055],[5.76956,51.169],[5.77019,51.16423],[5.7794,51.16332],[5.77764,51.15131],[5.8063,51.16285],[5.81333,51.15897],[5.82437,51.16784],[5.83865,51.15708],[5.83639,51.15367],[5.85578,51.14463],[5.84671,51.14134],[5.84287,51.13283],[5.82492,51.12936],[5.80985,51.11843],[5.80768,51.113],[5.81102,51.10879],[5.82658,51.10785],[5.83278,51.10461],[5.83335,51.0991],[5.82561,51.09271],[5.80823,51.09634],[5.79602,51.09148],[5.80417,51.07693],[5.7969,51.07279],[5.80105,51.06397],[5.79884,51.05971],[5.77466,51.06298],[5.77039,51.04852],[5.75802,51.03357],[5.77641,51.02325],[5.76596,51.00965],[5.7676,50.99971],[5.75087,50.98336],[5.73635,50.97786],[5.73322,50.97184],[5.72011,50.96239],[5.71994,50.95954],[5.72798,50.95499],[5.74475,50.96155],[5.75047,50.96076],[5.75607,50.95769],[5.75812,50.95076],[5.74658,50.9473],[5.74086,50.93522],[5.72688,50.9238],[5.72665,50.91309],[5.72275,50.90916],[5.69946,50.91076],[5.69651,50.90858],[5.69564,50.89759],[5.68251,50.88853],[5.67942,50.88053],[5.6617,50.87866],[5.64415,50.87136],[5.6495,50.86835],[5.64165,50.86415],[5.64033,50.85374],[5.64265,50.8501],[5.63921,50.84637],[5.65135,50.8318],[5.65003,50.82853],[5.65623,50.82434],[5.65399,50.82009],[5.67828,50.81647],[5.6806,50.81203],[5.69386,50.81151],[5.69354,50.80032],[5.69874,50.77969],[5.68206,50.75754],[5.69941,50.7554],[5.70254,50.75891],[5.71563,50.75988],[5.71957,50.76347],[5.73039,50.75742],[5.73918,50.75708],[5.74715,50.77053],[5.76581,50.78254],[5.77669,50.78301],[5.78451,50.76717],[5.79321,50.77019],[5.80749,50.75609],[5.83076,50.75851],[5.84502,50.76535],[5.84892,50.75342],[5.86336,50.76348],[5.88648,50.77015],[5.88975,50.75634],[5.90163,50.7514],[5.9048,50.75521],[5.91252,50.75567],[5.91538,50.75449],[5.91507,50.75038],[5.92147,50.75137],[5.93048,50.75671],[5.95777,50.76208],[5.97274,50.75969],[5.97415,50.75521],[5.98452,50.7534],[6.02102,50.75428],[6.04044,50.7455],[6.03966,50.73744],[6.03421,50.73347],[6.03323,50.72694],[6.03675,50.72],[6.04153,50.7188],[6.04447,50.72843],[6.07321,50.72096],[6.11474,50.72231],[6.12481,50.71115],[6.12361,50.70681],[6.13953,50.69349],[6.14886,50.67774],[6.16199,50.67173],[6.16584,50.66213],[6.19316,50.66405],[6.16739,50.66202],[6.1835,50.65204],[6.19502,50.65681],[6.18361,50.64599],[6.18734,50.64033],[6.18309,50.64697],[6.16668,50.64362],[6.18333,50.63215],[6.17638,50.62575],[6.18179,50.62382],[6.19421,50.6339],[6.19961,50.63143],[6.21706,50.63225],[6.23486,50.62612],[6.26104,50.62844],[6.2684,50.62555],[6.27365,50.62963],[6.26668,50.64094],[6.26278,50.64302],[6.24351,50.64105],[6.23506,50.64707],[6.24351,50.64143],[6.26681,50.64155],[6.27405,50.62964],[6.26169,50.61136],[6.24831,50.60438],[6.24961,50.59825],[6.24036,50.58634],[6.22532,50.59047],[6.22225,50.58454],[6.20762,50.57615],[6.2031,50.5693],[6.18934,50.56603],[6.17468,50.55794],[6.17852,50.55394],[6.1781,50.54152],[6.19567,50.53611],[6.20716,50.5469],[6.20961,50.55376],[6.2137,50.55622],[6.22243,50.55508],[6.21032,50.55393],[6.20765,50.54666],[6.19828,50.53874],[6.19682,50.5314],[6.20664,50.52382],[6.20825,50.51731],[6.21252,50.51557],[6.22256,50.50145],[6.22169,50.49788],[6.22629,50.4946],[6.2517,50.50353],[6.25557,50.49909],[6.26241,50.49899],[6.26966,50.50455],[6.29322,50.49811],[6.30897,50.50148],[6.33476,50.48915],[6.34759,50.48926],[6.33747,50.47469],[6.34384,50.46876],[6.3404,50.46228],[6.36295,50.45379],[6.37178,50.4555],[6.37735,50.44171],[6.37595,50.43147],[6.36672,50.41923],[6.37004,50.4094],[6.3656,50.40133],[6.34304,50.38062],[6.36052,50.3715],[6.36996,50.3589],[6.3982,50.34589],[6.40023,50.33875],[6.4081,50.33539],[6.40552,50.32333],[6.38249,50.32216],[6.37511,50.31372],[6.3615,50.31481],[6.35668,50.30904],[6.34143,50.31856],[6.33568,50.31739],[6.32727,50.32469],[6.31786,50.31897],[6.31319,50.32175],[6.3064,50.32016],[6.30906,50.3122],[6.29611,50.30897],[6.29851,50.30426],[6.29183,50.29566],[6.2859,50.29377],[6.28851,50.29055],[6.28495,50.28498],[6.29222,50.27878],[6.29104,50.27645],[6.27831,50.26633],[6.26174,50.26497],[6.25906,50.26776],[6.24563,50.26196],[6.21578,50.25693],[6.20534,50.25113],[6.20689,50.2494],[6.19617,50.23731],[6.1768,50.23584],[6.17372,50.23157],[6.17741,50.22884],[6.17633,50.22557],[6.16784,50.22436],[6.16694,50.2192],[6.17794,50.21653],[6.18565,50.20601],[6.18431,50.19219],[6.19028,50.1876],[6.18594,50.18407],[6.19125,50.18212],[6.18379,50.17819],[6.16528,50.17894],[6.16163,50.17756],[6.1604,50.17156],[6.14687,50.17774],[6.1442,50.17373],[6.14732,50.1712],[6.14051,50.16966],[6.14761,50.16055],[6.14325,50.15589],[6.13196,50.15352],[6.14164,50.14788],[6.14851,50.15187],[6.15306,50.15013],[6.15477,50.14186],[6.14701,50.13566],[6.1387,50.13489],[6.13778,50.12986],[6.11219,50.138],[6.11723,50.14668],[6.12434,50.1509],[6.11494,50.15587],[6.11929,50.16355],[6.10246,50.17054],[6.08441,50.17201],[6.07925,50.17079],[6.07861,50.15655],[6.05691,50.15439],[6.03341,50.1624],[6.02955,50.16591],[6.02478,50.18282],[6.02234,50.18244]],[[6.19575,50.53102],[6.18729,50.52714],[6.19217,50.52091],[6.20596,50.52104],[6.19575,50.53102]]],[[[6.23979,50.58439],[6.23632,50.5668],[6.22357,50.55547],[6.22694,50.5622],[6.23606,50.56757],[6.23979,50.58439]]],[[[6.20774,50.63978],[6.22096,50.64061],[6.22833,50.64891],[6.23348,50.64812],[6.2263,50.6469],[6.22169,50.64042],[6.20774,50.63978]]],[[[6.18779,50.64024],[6.19672,50.64094],[6.20328,50.63958],[6.18779,50.64024]]],[[[6.19523,50.66099],[6.19669,50.65884],[6.19534,50.6572],[6.19523,50.66099]]],[[[4.95206,51.45221],[4.94352,51.4475],[4.93309,51.44951],[4.95206,51.45221]]],[[[4.92305,51.44598],[4.92867,51.44158],[4.93428,51.44212],[4.93467,51.43853],[4.93945,51.43717],[4.93969,51.43074],[4.92812,51.43092],[4.91796,51.43521],[4.92305,51.44598]]],[[[4.40281,51.24391],[4.39551,51.24528],[4.39117,51.25058],[4.38863,51.24754],[4.36194,51.24939],[4.36347,51.25283],[4.38151,51.25531],[4.3611,51.25555],[4.36119,51.25875],[4.39553,51.2595],[4.4054,51.24836],[4.40281,51.24391]]],[[[4.24441,51.37486],[4.29617,51.37213],[4.30017,51.3685],[4.30027,51.35056],[4.29348,51.3637],[4.27991,51.36155],[4.28186,51.35819],[4.29006,51.35861],[4.29088,51.344],[4.25551,51.35258],[4.24441,51.37486]]]]}}]}