{"type":"FeatureCollection","features":[{"type":"Feature","properties":{"ISO_A3":"BEN","WB_A3":"BEN","WB_NAME":"Benin","WB_REGION":"AFW,SSF"},"geometry":{"type":"MultiPolygon","coordinates":[[[[2.00443,11.41833],[2.01309,11.41456],[2.02115,11.41557],[2.02369,11.42621],[2.05733,11.45466],[2.0573,11.4602],[2.06631,11.46966],[2.06946,11.47939],[2.07632,11.47927],[2.08905,11.48954],[2.09951,11.50682],[2.10908,11.51337],[2.11634,11.53056],[2.12794,11.54318],[2.14072,11.55329],[2.15329,11.55454],[2.16956,11.57741],[2.18847,11.58902],[2.19113,11.59712],[2.19696,11.59887],[2.20479,11.59447],[2.20812,11.59608],[2.20913,11.60291],[2.21757,11.61135],[2.22219,11.61492],[2.23123,11.61533],[2.23573,11.62198],[2.24371,11.62432],[2.25399,11.65156],[2.26149,11.65179],[2.26616,11.64252],[2.27503,11.64435],[2.30716,11.66518],[2.31437,11.6789],[2.30582,11.68551],[2.30617,11.69158],[2.30903,11.69306],[2.30319,11.69857],[2.30235,11.70949],[2.29829,11.71623],[2.30089,11.72253],[2.30691,11.72218],[2.30452,11.7339],[2.30996,11.73875],[2.31421,11.73715],[2.31774,11.73967],[2.32348,11.75059],[2.32014,11.75395],[2.3224,11.75841],[2.33435,11.76365],[2.34364,11.77369],[2.33892,11.78242],[2.36084,11.78965],[2.3742,11.78937],[2.37595,11.79193],[2.37145,11.7989],[2.37199,11.80862],[2.36834,11.81486],[2.36912,11.81774],[2.38379,11.82464],[2.38507,11.82824],[2.37683,11.83261],[2.37987,11.85511],[2.39262,11.86075],[2.40416,11.87461],[2.39729,11.89389],[2.40406,11.90032],[2.4086,11.89958],[2.41096,11.90663],[2.3996,11.91308],[2.4019,11.92006],[2.39302,11.92617],[2.39177,11.93124],[2.39799,11.93645],[2.4015,11.93588],[2.40072,11.94064],[2.40443,11.94416],[2.40164,11.94791],[2.41157,11.95611],[2.41524,11.95537],[2.41148,11.9507],[2.41837,11.947],[2.41857,11.95092],[2.42428,11.95493],[2.43673,11.95316],[2.43886,11.95862],[2.43449,11.97149],[2.44499,11.9779],[2.44766,11.9842],[2.45884,11.98108],[2.46073,11.97636],[2.46383,11.97831],[2.46063,11.99852],[2.45399,12.00672],[2.45527,12.01312],[2.44856,12.0204],[2.44131,12.0171],[2.43734,12.02149],[2.43609,12.03424],[2.43211,12.03956],[2.43627,12.04446],[2.43564,12.04886],[2.42784,12.0533],[2.42205,12.05265],[2.41749,12.06458],[2.42119,12.07483],[2.40475,12.08188],[2.40858,12.08642],[2.40411,12.10227],[2.39094,12.11274],[2.39741,12.13132],[2.39021,12.14103],[2.39642,12.14735],[2.38152,12.1686],[2.38151,12.17463],[2.39229,12.18363],[2.3918,12.19301],[2.38214,12.20095],[2.37683,12.21461],[2.3871,12.21621],[2.39071,12.2275],[2.38115,12.2307],[2.37371,12.24225],[2.38417,12.24273],[2.38134,12.25067],[2.39954,12.25802],[2.40985,12.25321],[2.43191,12.25285],[2.44202,12.26508],[2.46365,12.25321],[2.46936,12.27134],[2.47389,12.27325],[2.50445,12.26634],[2.50787,12.27429],[2.51283,12.27585],[2.51323,12.28531],[2.52133,12.29478],[2.52278,12.28792],[2.54139,12.28186],[2.54175,12.2738],[2.54727,12.27397],[2.55418,12.28004],[2.56632,12.27888],[2.57345,12.28265],[2.57943,12.27788],[2.59319,12.29934],[2.59837,12.30252],[2.60305,12.29837],[2.61315,12.30107],[2.62826,12.29536],[2.66859,12.30557],[2.68444,12.2945],[2.68446,12.28016],[2.69387,12.2819],[2.7071,12.30474],[2.70621,12.31172],[2.71715,12.32825],[2.72242,12.35188],[2.7321,12.35627],[2.73574,12.36464],[2.7476,12.35021],[2.75804,12.34981],[2.76245,12.35171],[2.77629,12.37624],[2.78648,12.38571],[2.80658,12.39616],[2.82978,12.39406],[2.83612,12.39675],[2.83251,12.39863],[2.83623,12.40309],[2.83343,12.40586],[2.82911,12.40007],[2.8254,12.40473],[2.82667,12.40861],[2.8398,12.40646],[2.8572,12.39269],[2.87192,12.38833],[2.88465,12.37708],[2.89588,12.35686],[2.92746,12.33484],[2.94993,12.31227],[2.95401,12.2991],[2.96617,12.28501],[3.00265,12.27402],[3.01488,12.26542],[3.02852,12.23436],[3.05664,12.21255],[3.05992,12.20522],[3.0583,12.19827],[3.07251,12.18273],[3.08416,12.17599],[3.09805,12.17368],[3.12452,12.15792],[3.12827,12.15198],[3.12691,12.14106],[3.13109,12.13693],[3.16433,12.11795],[3.17678,12.10529],[3.19116,12.08116],[3.21849,12.06355],[3.23127,12.04926],[3.23784,12.03333],[3.25632,12.02938],[3.26015,12.0206],[3.2704,12.0144],[3.26935,12.00982],[3.25697,11.99845],[3.2583,11.99158],[3.26815,11.9825],[3.27975,11.96277],[3.27955,11.94201],[3.28297,11.93559],[3.29954,11.93097],[3.30551,11.89835],[3.32154,11.88156],[3.32698,11.88085],[3.33833,11.88628],[3.34981,11.88206],[3.37657,11.88696],[3.38763,11.88558],[3.40452,11.87685],[3.41928,11.87872],[3.43044,11.87445],[3.43982,11.87732],[3.45094,11.87383],[3.46347,11.86471],[3.47457,11.86485],[3.48568,11.85803],[3.49625,11.84054],[3.52004,11.81879],[3.51974,11.79457],[3.52505,11.7858],[3.53471,11.77959],[3.55464,11.77961],[3.56353,11.77477],[3.56428,11.7626],[3.55343,11.75099],[3.55039,11.73174],[3.56006,11.7217],[3.58732,11.7115],[3.59373,11.70309],[3.54989,11.60192],[3.52739,11.4359],[3.49373,11.29535],[3.54005,11.25],[3.56009,11.23541],[3.69423,11.14057],[3.70398,11.13967],[3.7107,11.13338],[3.72041,11.13177],[3.71393,11.08358],[3.71968,11.04758],[3.71569,11.03387],[3.75305,11.01002],[3.76645,10.93451],[3.76618,10.92088],[3.75221,10.86511],[3.73749,10.84348],[3.74506,10.83293],[3.74573,10.81709],[3.7658,10.79393],[3.77942,10.75004],[3.77733,10.74536],[3.77976,10.73608],[3.79451,10.72027],[3.81777,10.7162],[3.83281,10.70119],[3.83679,10.68695],[3.84074,10.5939],[3.83786,10.58015],[3.82304,10.56342],[3.80277,10.47492],[3.80242,10.44104],[3.79608,10.42903],[3.77854,10.41091],[3.68346,10.46165],[3.66459,10.44874],[3.6412,10.43989],[3.62279,10.41715],[3.62647,10.40072],[3.62493,10.39267],[3.59914,10.33133],[3.59482,10.2886],[3.58679,10.25654],[3.58986,10.23546],[3.59862,10.21682],[3.61398,10.2001],[3.6434,10.18629],[3.67832,10.18742],[3.67821,10.1718],[3.65838,10.09925],[3.63389,10.09786],[3.61653,10.0822],[3.61214,10.06503],[3.61399,10.05384],[3.60785,10.04893],[3.60416,10.03067],[3.60654,9.98847],[3.60046,9.96202],[3.5906,9.94802],[3.56081,9.92486],[3.56425,9.90684],[3.56217,9.89813],[3.55237,9.88661],[3.52017,9.86224],[3.49703,9.86348],[3.4695,9.87089],[3.37182,9.83709],[3.34419,9.81944],[3.32756,9.79203],[3.32429,9.76371],[3.32919,9.74337],[3.33897,9.7264],[3.36072,9.70775],[3.33766,9.67789],[3.31212,9.65735],[3.29033,9.66428],[3.28136,9.66307],[3.26686,9.65523],[3.2555,9.63493],[3.25541,9.62288],[3.26147,9.60808],[3.24883,9.59931],[3.22633,9.5718],[3.20991,9.54823],[3.19356,9.51676],[3.16872,9.49947],[3.15322,9.49675],[3.14556,9.47202],[3.13489,9.45217],[3.13246,9.43756],[3.15543,9.35806],[3.15752,9.28904],[3.16005,9.28187],[3.13967,9.26402],[3.12738,9.24173],[3.1232,9.21821],[3.12524,9.19947],[3.09458,9.14546],[3.08861,9.10242],[3.02859,9.08315],[2.99481,9.08201],[2.96187,9.07207],[2.9027,9.06021],[2.86193,9.05731],[2.82782,9.06029],[2.78833,9.07077],[2.78003,9.06886],[2.77803,9.06324],[2.78348,9.05896],[2.78169,9.05429],[2.78425,9.05164],[2.79202,9.05091],[2.7823,9.04278],[2.78334,9.03494],[2.7756,9.03145],[2.77756,9.02829],[2.7892,9.02566],[2.78887,9.02197],[2.77681,9.01488],[2.78733,9.00403],[2.78073,8.99463],[2.79113,8.99379],[2.78245,8.98412],[2.78985,8.97747],[2.78665,8.96857],[2.77243,8.96196],[2.78039,8.95629],[2.77905,8.95063],[2.78238,8.93969],[2.773,8.93044],[2.7735,8.92286],[2.75734,8.91961],[2.75491,8.91494],[2.75798,8.90667],[2.76239,8.90376],[2.76932,8.90777],[2.77222,8.9012],[2.76863,8.8863],[2.77223,8.88199],[2.77081,8.87365],[2.7542,8.87137],[2.76624,8.8621],[2.75916,8.84696],[2.76227,8.837],[2.75858,8.82692],[2.76095,8.82151],[2.76545,8.82293],[2.76737,8.82058],[2.76601,8.81159],[2.7597,8.80518],[2.74691,8.80873],[2.74273,8.80689],[2.73787,8.79788],[2.73897,8.79172],[2.72923,8.78509],[2.73465,8.77895],[2.73333,8.76608],[2.74309,8.75146],[2.75158,8.7469],[2.74762,8.7403],[2.74549,8.71142],[2.75934,8.70981],[2.75899,8.70667],[2.7458,8.70157],[2.73822,8.68598],[2.73915,8.68223],[2.74891,8.68199],[2.7502,8.67525],[2.73895,8.67039],[2.73364,8.66373],[2.73461,8.65822],[2.74754,8.65451],[2.75313,8.65653],[2.75432,8.65314],[2.74984,8.63986],[2.75454,8.62838],[2.74927,8.61981],[2.74945,8.61679],[2.75612,8.61323],[2.74922,8.60422],[2.74921,8.59534],[2.75312,8.57903],[2.76145,8.57046],[2.75678,8.56352],[2.75893,8.5521],[2.75171,8.54148],[2.75213,8.53619],[2.76105,8.53342],[2.76847,8.52466],[2.76039,8.51521],[2.76038,8.49931],[2.75276,8.49841],[2.75003,8.49486],[2.76007,8.4883],[2.74542,8.46293],[2.74811,8.45015],[2.73735,8.44291],[2.73473,8.43521],[2.71792,8.4391],[2.70756,8.42274],[2.71827,8.40648],[2.71981,8.38771],[2.71176,8.37277],[2.69644,8.35633],[2.69907,8.32687],[2.69344,8.32162],[2.70276,8.31182],[2.72017,8.25282],[2.75252,8.21863],[2.75471,8.18586],[2.7436,8.15734],[2.74417,8.15194],[2.74233,8.14904],[2.73314,8.14781],[2.73033,8.14311],[2.72935,8.11165],[2.73621,8.10442],[2.72813,8.08694],[2.73296,8.07825],[2.7197,8.04774],[2.7075,7.97153],[2.69928,7.94543],[2.69559,7.94394],[2.69865,7.93232],[2.68943,7.9267],[2.69235,7.91611],[2.68946,7.90987],[2.67883,7.90709],[2.68097,7.89834],[2.67693,7.88158],[2.67831,7.87443],[2.71148,7.81978],[2.72556,7.8027],[2.72461,7.78872],[2.73356,7.76656],[2.72896,7.75538],[2.71664,7.63647],[2.71701,7.61214],[2.72943,7.6051],[2.73405,7.55061],[2.74051,7.54054],[2.75789,7.53143],[2.76437,7.52305],[2.78265,7.51725],[2.78157,7.51113],[2.79225,7.49655],[2.79206,7.48335],[2.79552,7.47952],[2.79208,7.46346],[2.79462,7.4357],[2.79195,7.42927],[2.7575,7.42957],[2.74484,7.42433],[2.74396,7.41356],[2.745,7.28129],[2.74989,7.25677],[2.75729,7.25147],[2.77281,7.13301],[2.74046,7.10496],[2.7401,7.09391],[2.74829,7.07897],[2.77406,7.06179],[2.77978,7.05466],[2.77578,7.04842],[2.73636,7.02798],[2.72842,7.0182],[2.72218,6.9779],[2.71274,6.95299],[2.72153,6.94052],[2.74198,6.92607],[2.74006,6.83876],[2.73471,6.81338],[2.73428,6.78499],[2.76125,6.76579],[2.78257,6.76747],[2.78943,6.75699],[2.79135,6.74632],[2.78183,6.72911],[2.7864,6.70533],[2.78309,6.69353],[2.75007,6.66902],[2.74149,6.65067],[2.73016,6.63593],[2.73587,6.62358],[2.73562,6.60991],[2.73936,6.60615],[2.74096,6.58854],[2.74558,6.58538],[2.75057,6.57191],[2.74693,6.56427],[2.74235,6.56238],[2.74107,6.55451],[2.73524,6.55445],[2.73198,6.55042],[2.72874,6.53884],[2.71149,6.52957],[2.71174,6.52595],[2.70603,6.5216],[2.70648,6.50848],[2.71762,6.50418],[2.71653,6.49699],[2.72269,6.48598],[2.70466,6.46362],[2.70533,6.45746],[2.67138,6.44923],[2.65737,6.45395],[2.64396,6.46438],[2.62076,6.46861],[2.62136,6.46009],[2.63288,6.45999],[2.64449,6.45577],[2.66201,6.44273],[2.67774,6.44042],[2.70573,6.44645],[2.70686,6.3765],[2.61181,6.36432],[2.51725,6.3596],[2.47009,6.36162],[2.46288,6.35594],[2.45025,6.35644],[2.4398,6.36945],[2.43823,6.39162],[2.4417,6.3973],[2.46774,6.39307],[2.4881,6.38458],[2.50253,6.3846],[2.51051,6.39762],[2.49453,6.40096],[2.49401,6.40715],[2.50792,6.41141],[2.53808,6.4028],[2.54915,6.41467],[2.54837,6.41957],[2.54373,6.4206],[2.54244,6.42859],[2.54526,6.43865],[2.56201,6.44369],[2.58185,6.45518],[2.59332,6.449],[2.60891,6.45043],[2.62019,6.46018],[2.62011,6.46784],[2.58685,6.47864],[2.58638,6.47288],[2.56895,6.46703],[2.56805,6.4629],[2.57566,6.45917],[2.57566,6.45543],[2.56291,6.45104],[2.56768,6.44833],[2.55016,6.44058],[2.53753,6.43941],[2.52953,6.45255],[2.52437,6.45435],[2.52255,6.46995],[2.51275,6.47793],[2.50425,6.47419],[2.49948,6.47547],[2.50759,6.48914],[2.50204,6.4912],[2.49831,6.48668],[2.49443,6.49591],[2.49322,6.4879],[2.48696,6.49402],[2.48232,6.49324],[2.4795,6.48177],[2.45396,6.50185],[2.43513,6.51111],[2.42792,6.50814],[2.43231,6.50221],[2.42445,6.50298],[2.42227,6.49111],[2.42421,6.4857],[2.41611,6.47126],[2.38557,6.46761],[2.3727,6.4771],[2.3689,6.47507],[2.36665,6.44567],[2.36227,6.44438],[2.3577,6.43463],[2.34866,6.40647],[2.35511,6.39913],[2.3546,6.39544],[2.35895,6.39966],[2.39583,6.39686],[2.40459,6.40022],[2.41671,6.39044],[2.43269,6.39368],[2.43696,6.36996],[2.4451,6.35193],[2.42037,6.34996],[2.42166,6.34739],[2.42733,6.34765],[2.42939,6.34366],[2.35208,6.35143],[2.25263,6.34511],[2.10038,6.32631],[1.97284,6.30339],[1.97486,6.30821],[1.99452,6.30833],[2.04217,6.31679],[2.04216,6.31989],[2.05349,6.32249],[2.0549,6.3261],[2.06019,6.32366],[2.08852,6.32822],[2.08761,6.33312],[2.0813,6.33478],[2.0661,6.3323],[2.05838,6.32726],[2.05528,6.33009],[2.04524,6.32982],[2.02141,6.32552],[2.01226,6.32756],[2.00774,6.33271],[1.99782,6.33359],[1.99395,6.33939],[1.98519,6.33989],[1.98377,6.33756],[1.99963,6.32935],[2.00504,6.3309],[2.01162,6.32756],[2.00995,6.32408],[2.00427,6.32845],[1.98496,6.32532],[1.98392,6.3288],[1.97619,6.33007],[1.95891,6.34009],[1.95843,6.34693],[1.96454,6.35557],[1.96091,6.36791],[1.95979,6.36142],[1.96287,6.35394],[1.95914,6.35375],[1.95681,6.35749],[1.95502,6.34962],[1.95748,6.33742],[1.96589,6.32593],[1.94966,6.32564],[1.94475,6.33065],[1.94526,6.3371],[1.94835,6.33801],[1.94215,6.34302],[1.93314,6.33952],[1.92993,6.33642],[1.93007,6.32895],[1.92801,6.32946],[1.92478,6.33229],[1.92657,6.33796],[1.92258,6.3395],[1.91973,6.34684],[1.91549,6.33897],[1.91795,6.33434],[1.91154,6.32169],[1.89505,6.32333],[1.89454,6.32037],[1.90239,6.32013],[1.89197,6.31701],[1.89288,6.31237],[1.87986,6.31415],[1.87935,6.3117],[1.89379,6.30567],[1.87448,6.3028],[1.86831,6.29673],[1.87346,6.29558],[1.87244,6.293],[1.85681,6.29236],[1.84849,6.28972],[1.84798,6.28547],[1.84129,6.2852],[1.83406,6.28969],[1.81114,6.28874],[1.80107,6.29722],[1.79336,6.29976],[1.80101,6.29509],[1.79293,6.29815],[1.79312,6.30521],[1.78813,6.30905],[1.79564,6.31179],[1.79611,6.32321],[1.79079,6.32855],[1.7911,6.33433],[1.78404,6.33263],[1.78609,6.34118],[1.77961,6.34506],[1.78666,6.35182],[1.78226,6.36878],[1.78471,6.38276],[1.77503,6.38451],[1.77251,6.39427],[1.76755,6.39607],[1.77518,6.40721],[1.76538,6.40568],[1.76343,6.41073],[1.76924,6.41705],[1.7704,6.42368],[1.77294,6.42519],[1.77546,6.42196],[1.77882,6.42824],[1.76652,6.43156],[1.76436,6.43977],[1.76642,6.44479],[1.75961,6.44128],[1.75482,6.44474],[1.75293,6.45417],[1.75817,6.45929],[1.74691,6.46182],[1.74907,6.46871],[1.75263,6.46885],[1.75269,6.47348],[1.74551,6.47237],[1.73618,6.47824],[1.7361,6.47404],[1.73095,6.47567],[1.73787,6.48687],[1.72527,6.48752],[1.72472,6.49372],[1.72952,6.49463],[1.73061,6.49991],[1.72187,6.50026],[1.7214,6.49132],[1.71704,6.49199],[1.71725,6.49847],[1.71114,6.50344],[1.70378,6.49717],[1.70247,6.50629],[1.6941,6.5024],[1.69459,6.51165],[1.69131,6.51843],[1.69626,6.51769],[1.70131,6.51162],[1.70365,6.51348],[1.69919,6.52525],[1.70165,6.53146],[1.69894,6.53348],[1.70776,6.53814],[1.70707,6.54038],[1.69975,6.53907],[1.69298,6.54451],[1.69685,6.55366],[1.68525,6.5515],[1.68301,6.56194],[1.67874,6.5626],[1.67437,6.55555],[1.67043,6.55476],[1.66782,6.565],[1.6595,6.56838],[1.65724,6.57279],[1.66493,6.57249],[1.66743,6.57613],[1.66541,6.57932],[1.66129,6.58088],[1.65502,6.5739],[1.65224,6.57513],[1.64991,6.5846],[1.63924,6.5898],[1.63535,6.60005],[1.6289,6.60314],[1.62297,6.60096],[1.60972,6.61225],[1.61166,6.62467],[1.60301,6.62443],[1.60595,6.63261],[1.60306,6.63383],[1.60176,6.64292],[1.61175,6.6438],[1.61481,6.64972],[1.60706,6.65184],[1.60348,6.65689],[1.60734,6.66282],[1.59533,6.67555],[1.58746,6.67409],[1.58912,6.6809],[1.5861,6.68522],[1.57968,6.68312],[1.57504,6.68732],[1.57624,6.69101],[1.58441,6.6909],[1.5845,6.69532],[1.59312,6.70337],[1.58839,6.7103],[1.59047,6.71581],[1.58844,6.72262],[1.59152,6.7286],[1.59692,6.72824],[1.59713,6.72035],[1.59952,6.72971],[1.62282,6.7365],[1.62208,6.74348],[1.61579,6.75328],[1.62529,6.76282],[1.61522,6.76377],[1.60977,6.76832],[1.6082,6.77492],[1.61469,6.78661],[1.61162,6.79285],[1.59407,6.79974],[1.60267,6.81897],[1.61245,6.82581],[1.60221,6.82614],[1.59811,6.83019],[1.60119,6.85011],[1.5974,6.8695],[1.60705,6.87866],[1.60285,6.89147],[1.6056,6.90473],[1.58486,6.90891],[1.57761,6.92006],[1.58026,6.93888],[1.56017,6.97167],[1.55793,7],[1.63291,7],[1.6309,7.4407],[1.64736,7.60146],[1.64,7.63624],[1.63129,7.64259],[1.63324,7.80776],[1.62962,7.86499],[1.63446,7.97513],[1.63179,8.00003],[1.63202,8.34508],[1.62013,8.3602],[1.6156,8.3722],[1.62111,8.38148],[1.62527,8.38271],[1.62372,8.40085],[1.62647,8.4023],[1.62603,8.4149],[1.62882,8.41959],[1.62536,8.4216],[1.62542,8.43007],[1.63221,8.43667],[1.63231,8.44375],[1.62661,8.45508],[1.64122,8.46708],[1.65097,8.49434],[1.6238,8.54456],[1.63001,8.67311],[1.63292,8.86749],[1.63126,8.89343],[1.62533,8.90124],[1.62334,8.92029],[1.6194,8.92845],[1.62387,8.94431],[1.61843,8.96048],[1.62637,9.00714],[1.61849,9.03722],[1.62089,9.04999],[1.59863,9.10785],[1.5742,9.14],[1.56292,9.1723],[1.52147,9.19534],[1.49269,9.223],[1.45839,9.2603],[1.44843,9.28518],[1.41169,9.3277],[1.40188,9.36242],[1.39641,9.47299],[1.38329,9.49771],[1.36853,9.49222],[1.36454,9.48417],[1.35957,9.48216],[1.35958,9.49974],[1.34213,9.55446],[1.36285,9.59832],[1.36383,9.6513],[1.36858,9.6618],[1.35864,9.68415],[1.36173,9.80279],[1.35563,9.869],[1.35484,9.99207],[1.11056,10.14068],[0.77541,10.38065],[0.78605,10.52737],[0.80666,10.57584],[0.80807,10.63137],[0.79973,10.6775],[0.80171,10.72307],[0.87428,10.80493],[0.88256,10.85429],[0.90166,10.88331],[0.88914,10.91362],[0.91667,11],[0.9465,11.02308],[0.94486,11.02653],[0.94894,11.0312],[0.94546,11.03458],[0.97384,11.05671],[0.97735,11.06605],[0.97438,11.07971],[0.97808,11.08896],[0.98566,11.09293],[0.98848,11.09267],[0.98779,11.0863],[1.0132,11.0874],[1.01565,11.07447],[1.02702,11.05268],[1.0374,11.05167],[1.05567,11.05881],[1.06263,11.05856],[1.06438,11.06212],[1.07071,11.0618],[1.07325,11.05594],[1.08272,11.05554],[1.09663,11.04771],[1.10567,11.03238],[1.11461,11.03226],[1.11232,11.03661],[1.11681,11.03762],[1.11862,11.04304],[1.11757,11.04782],[1.11371,11.04527],[1.11203,11.04851],[1.11663,11.05381],[1.11272,11.05564],[1.11236,11.05096],[1.1096,11.05143],[1.09769,11.06211],[1.10094,11.0678],[1.09706,11.0751],[1.10091,11.08213],[1.09153,11.09422],[1.08796,11.09351],[1.08941,11.09951],[1.09546,11.10377],[1.08671,11.10626],[1.08565,11.1097],[1.08979,11.11456],[1.08683,11.12127],[1.082,11.12111],[1.07573,11.13114],[1.06675,11.13566],[1.06315,11.1347],[1.0638,11.13154],[1.06872,11.12719],[1.05617,11.11914],[1.05671,11.12959],[1.05052,11.1307],[1.05081,11.13326],[1.0562,11.13511],[1.0547,11.1461],[1.06086,11.15022],[1.08063,11.14845],[1.08598,11.15136],[1.09016,11.14886],[1.10025,11.15306],[1.10491,11.16374],[1.11716,11.17707],[1.1426,11.17687],[1.14232,11.17285],[1.15679,11.16331],[1.16084,11.16997],[1.16468,11.16956],[1.16142,11.17577],[1.15742,11.17372],[1.15344,11.18215],[1.15761,11.18626],[1.15463,11.19273],[1.15108,11.1926],[1.15489,11.2081],[1.15031,11.2131],[1.15474,11.21325],[1.15994,11.22677],[1.14866,11.23926],[1.12982,11.24748],[1.13799,11.25218],[1.13113,11.25607],[1.13198,11.26021],[1.13786,11.25993],[1.13967,11.27163],[1.1482,11.28061],[1.15029,11.27823],[1.15747,11.28449],[1.17048,11.28303],[1.16872,11.27955],[1.17632,11.27871],[1.1735,11.26743],[1.17723,11.26424],[1.18627,11.27092],[1.19184,11.264],[1.19636,11.2636],[1.2042,11.26717],[1.21495,11.2686],[1.2182,11.26527],[1.22624,11.26857],[1.22945,11.26307],[1.23595,11.26509],[1.24271,11.2625],[1.24201,11.25589],[1.24523,11.25797],[1.24995,11.25282],[1.26352,11.25089],[1.26311,11.25384],[1.27213,11.26214],[1.2752,11.26073],[1.2837,11.26668],[1.27896,11.26881],[1.28244,11.27249],[1.28002,11.27942],[1.27616,11.28052],[1.27905,11.28554],[1.27553,11.28819],[1.27559,11.29439],[1.26465,11.2948],[1.25955,11.3027],[1.26301,11.30533],[1.26073,11.31671],[1.26375,11.31722],[1.26214,11.32017],[1.26899,11.32739],[1.28521,11.32338],[1.294,11.29836],[1.3087,11.29684],[1.30779,11.30158],[1.31893,11.30753],[1.32,11.30479],[1.31709,11.3031],[1.31978,11.29707],[1.32497,11.29439],[1.32871,11.29668],[1.32923,11.29333],[1.33338,11.29275],[1.33264,11.29825],[1.34126,11.30144],[1.33528,11.3055],[1.34035,11.31014],[1.35169,11.3072],[1.34808,11.31567],[1.3436,11.31553],[1.34833,11.32035],[1.34638,11.3231],[1.33926,11.32428],[1.34019,11.33343],[1.33229,11.33642],[1.33464,11.33994],[1.32617,11.35266],[1.3272,11.36716],[1.33642,11.36818],[1.33569,11.36431],[1.34105,11.36372],[1.34209,11.36692],[1.35094,11.36827],[1.35142,11.37869],[1.35995,11.38746],[1.35726,11.39317],[1.35945,11.39581],[1.36603,11.39137],[1.37753,11.39149],[1.38134,11.38853],[1.38582,11.39759],[1.38249,11.40146],[1.39678,11.40768],[1.39517,11.41177],[1.39168,11.41183],[1.38539,11.42592],[1.38799,11.43381],[1.38357,11.43464],[1.39108,11.43825],[1.38814,11.4439],[1.39243,11.44575],[1.39556,11.45314],[1.40508,11.45556],[1.41373,11.45038],[1.41542,11.45368],[1.41154,11.45386],[1.41016,11.45957],[1.42398,11.45446],[1.4255,11.45881],[1.43458,11.46298],[1.43376,11.4708],[1.43889,11.47025],[1.4483,11.48108],[1.45862,11.46934],[1.47697,11.47081],[1.48505,11.45344],[1.49238,11.4571],[1.49475,11.47216],[1.5043,11.47759],[1.50586,11.47393],[1.50099,11.4722],[1.50071,11.45976],[1.50637,11.45801],[1.51596,11.46176],[1.52691,11.4573],[1.52775,11.45423],[1.53952,11.45396],[1.54845,11.4617],[1.54532,11.46476],[1.55331,11.47239],[1.54851,11.47773],[1.55299,11.47835],[1.56016,11.46905],[1.56696,11.46818],[1.57012,11.46455],[1.56556,11.4563],[1.56924,11.44975],[1.57294,11.44775],[1.57563,11.454],[1.57876,11.45386],[1.58285,11.44841],[1.58098,11.44107],[1.57731,11.44085],[1.58063,11.43747],[1.57845,11.42958],[1.5819,11.42851],[1.58309,11.4368],[1.5864,11.43625],[1.58612,11.43086],[1.59339,11.4228],[1.59005,11.42061],[1.58934,11.40797],[1.59359,11.40844],[1.60356,11.39653],[1.61852,11.39736],[1.62263,11.39371],[1.63044,11.39566],[1.63189,11.39957],[1.63648,11.39956],[1.64369,11.40677],[1.64568,11.40135],[1.6658,11.39847],[1.67761,11.4097],[1.68238,11.40747],[1.68232,11.41577],[1.68697,11.41879],[1.68636,11.41575],[1.69791,11.41115],[1.69963,11.41653],[1.70612,11.41907],[1.70855,11.42881],[1.71388,11.43393],[1.71345,11.42798],[1.71644,11.42553],[1.7254,11.42674],[1.72498,11.42314],[1.72821,11.42339],[1.73142,11.4286],[1.73497,11.42852],[1.74164,11.41855],[1.74891,11.42184],[1.75337,11.4188],[1.75869,11.42751],[1.76826,11.42219],[1.78477,11.42883],[1.79709,11.42737],[1.8005,11.42955],[1.79964,11.43619],[1.80539,11.43461],[1.80813,11.44076],[1.83251,11.43783],[1.84107,11.44084],[1.84333,11.44614],[1.84814,11.44653],[1.85494,11.44178],[1.85927,11.44813],[1.87712,11.44561],[1.87745,11.45074],[1.88655,11.43986],[1.90099,11.43912],[1.90066,11.43371],[1.9137,11.42865],[1.91675,11.40849],[1.92026,11.41531],[1.92841,11.41524],[1.93008,11.41797],[1.95157,11.41354],[1.96525,11.42051],[2.00443,11.41833]],[[1.95328,6.36944],[1.96065,6.36871],[1.95576,6.36857],[1.95433,6.37411],[1.94724,6.37564],[1.95058,6.37951],[1.94399,6.39059],[1.9571,6.40582],[1.96708,6.43806],[1.9839,6.46722],[2.00199,6.50876],[1.99242,6.52601],[1.99627,6.53247],[1.9903,6.55385],[1.99441,6.56262],[1.99426,6.57448],[1.96667,6.57829],[1.97305,6.54582],[1.96629,6.50921],[1.94907,6.48546],[1.94369,6.47075],[1.92671,6.46041],[1.92145,6.44879],[1.93178,6.43567],[1.93089,6.43232],[1.92573,6.43334],[1.93234,6.41324],[1.92977,6.40989],[1.93198,6.40216],[1.92838,6.39738],[1.93174,6.39481],[1.93998,6.39844],[1.93496,6.3934],[1.93844,6.39302],[1.94522,6.37661],[1.95265,6.37449],[1.95328,6.36944]]],[[[2.03315,6.31794],[2.03057,6.31806],[2.03108,6.32399],[2.03365,6.32387],[2.03315,6.31794]]],[[[1.99758,6.32354],[2.00273,6.32639],[2.00377,6.32471],[1.99758,6.32354]]],[[[1.99323,6.31206],[1.99476,6.31748],[1.99965,6.31852],[2.00185,6.31569],[2.00044,6.31272],[1.99323,6.31206]]],[[[1.98394,6.31952],[1.98247,6.3227],[1.98625,6.32184],[1.98394,6.31952]]],[[[1.97943,6.3189],[1.98074,6.31588],[1.97596,6.31267],[1.97943,6.3189]]],[[[1.95251,6.31714],[1.95482,6.32036],[1.95818,6.31831],[1.95251,6.31714]]],[[[1.94865,6.31636],[1.95044,6.31997],[1.95096,6.317],[1.94865,6.31636]]],[[[1.9462,6.37886],[1.94413,6.38466],[1.95006,6.3808],[1.9462,6.37886]]],[[[1.93322,6.30292],[1.94583,6.30707],[1.9479,6.30604],[1.93322,6.30292]]],[[[1.93783,6.31711],[1.9355,6.32032],[1.93859,6.31917],[1.93783,6.31711]]],[[[1.93657,6.4246],[1.93116,6.42458],[1.92961,6.42871],[1.93476,6.42949],[1.93657,6.4246]]],[[[1.93115,6.30575],[1.93114,6.31142],[1.93526,6.31285],[1.93115,6.30575]]],[[[1.91904,6.3065],[1.92238,6.31218],[1.92766,6.3091],[1.91904,6.3065]]],[[[1.91334,6.32324],[1.92054,6.33073],[1.92093,6.32687],[1.91334,6.32324]]],[[[1.91516,6.31474],[1.91463,6.32196],[1.91695,6.32183],[1.92005,6.31668],[1.91516,6.31474]]],[[[1.91157,6.30687],[1.91311,6.30971],[1.91595,6.30739],[1.91157,6.30687]]],[[[1.62903,6.23462],[1.62903,6.24134],[1.63508,6.24757],[1.64582,6.24486],[1.6509,6.24964],[1.65953,6.24896],[1.66413,6.25295],[1.67538,6.2513],[1.68054,6.25638],[1.69063,6.2547],[1.69889,6.26027],[1.71411,6.25965],[1.72271,6.26407],[1.73275,6.2642],[1.74421,6.2684],[1.74723,6.27315],[1.7674,6.27316],[1.76687,6.27716],[1.77064,6.27634],[1.76987,6.27979],[1.7774,6.28623],[1.79621,6.28052],[1.7996,6.28682],[1.80833,6.28671],[1.8044,6.29298],[1.8163,6.28604],[1.83072,6.28865],[1.84206,6.28301],[1.85828,6.28833],[1.89177,6.29046],[1.89253,6.29278],[1.90284,6.29216],[1.91108,6.29604],[1.91198,6.29385],[1.91083,6.2914],[1.82275,6.27781],[1.62903,6.23462]]],[[[1.8521,6.28754],[1.8557,6.29128],[1.85802,6.28974],[1.8521,6.28754]]]]}}]}