{"type":"FeatureCollection","features":[{"type":"Feature","properties":{"ISO_A3":"BFA","WB_A3":"BFA","WB_NAME":"Burkina Faso","WB_REGION":"AFW,SSF"},"geometry":{"type":"MultiPolygon","coordinates":[[[[-3.89936,9.90183],[-3.91219,9.88299],[-3.92467,9.88169],[-3.93109,9.87405],[-3.94162,9.87692],[-3.95319,9.87438],[-3.95636,9.87922],[-3.9623,9.87475],[-3.96773,9.87509],[-3.97151,9.85134],[-3.97565,9.84946],[-3.97172,9.84276],[-3.96593,9.84117],[-3.97239,9.83366],[-3.98511,9.82939],[-4.01795,9.839],[-4.02759,9.8355],[-4.0344,9.83153],[-4.03551,9.82222],[-4.05137,9.80311],[-4.05835,9.80837],[-4.07427,9.80921],[-4.10594,9.82443],[-4.12139,9.84621],[-4.12733,9.84717],[-4.13449,9.83827],[-4.13862,9.82577],[-4.15359,9.81508],[-4.16139,9.81341],[-4.17522,9.7948],[-4.1776,9.78688],[-4.18428,9.7834],[-4.18907,9.7748],[-4.20367,9.77144],[-4.21173,9.77337],[-4.21609,9.76925],[-4.22285,9.77208],[-4.22517,9.7681],[-4.24755,9.76474],[-4.25535,9.7565],[-4.26188,9.75578],[-4.26205,9.75982],[-4.26625,9.7603],[-4.26861,9.74963],[-4.27672,9.74066],[-4.27234,9.73567],[-4.25769,9.7371],[-4.25886,9.73283],[-4.26988,9.7297],[-4.26549,9.7152],[-4.26729,9.70917],[-4.27405,9.70734],[-4.2702,9.69824],[-4.27177,9.69352],[-4.28088,9.69616],[-4.28062,9.68819],[-4.27494,9.68681],[-4.27375,9.68227],[-4.27476,9.67772],[-4.28687,9.67263],[-4.28165,9.66071],[-4.28771,9.65415],[-4.28355,9.64099],[-4.2914,9.6301],[-4.29063,9.62316],[-4.29397,9.61802],[-4.30004,9.61577],[-4.30149,9.60808],[-4.30387,9.60461],[-4.30902,9.60481],[-4.31163,9.60122],[-4.30891,9.59908],[-4.31276,9.59686],[-4.32677,9.60569],[-4.34096,9.62542],[-4.36085,9.62311],[-4.36992,9.61742],[-4.36883,9.59813],[-4.37403,9.59192],[-4.38966,9.59599],[-4.40035,9.60352],[-4.40893,9.62261],[-4.40873,9.64449],[-4.41498,9.65439],[-4.4294,9.66411],[-4.45645,9.65238],[-4.47606,9.6502],[-4.48446,9.65289],[-4.5048,9.64656],[-4.51721,9.66383],[-4.52095,9.67574],[-4.51957,9.70496],[-4.50277,9.72601],[-4.50335,9.7393],[-4.51541,9.75144],[-4.53333,9.75254],[-4.54611,9.74924],[-4.55387,9.74152],[-4.54289,9.71895],[-4.56085,9.69378],[-4.57732,9.69118],[-4.58275,9.69446],[-4.59204,9.71186],[-4.6125,9.72514],[-4.62064,9.70302],[-4.63535,9.70597],[-4.6439,9.71347],[-4.65073,9.71026],[-4.65173,9.69793],[-4.65655,9.68686],[-4.66072,9.68875],[-4.68771,9.67747],[-4.69157,9.68002],[-4.69141,9.68419],[-4.70607,9.69141],[-4.72087,9.72093],[-4.72097,9.72886],[-4.73458,9.739],[-4.73322,9.74704],[-4.7464,9.75405],[-4.762,9.7555],[-4.76919,9.74933],[-4.76385,9.74479],[-4.76595,9.73886],[-4.77498,9.7368],[-4.78094,9.74228],[-4.77885,9.75233],[-4.7929,9.75877],[-4.79244,9.76791],[-4.79675,9.77308],[-4.80491,9.77067],[-4.81658,9.78345],[-4.81377,9.78816],[-4.78383,9.78149],[-4.78361,9.78812],[-4.79078,9.79426],[-4.79201,9.80188],[-4.79075,9.81944],[-4.78234,9.83093],[-4.78612,9.83573],[-4.79686,9.83963],[-4.79897,9.84451],[-4.81505,9.84232],[-4.82439,9.8478],[-4.82693,9.85329],[-4.82515,9.86576],[-4.8397,9.8721],[-4.8511,9.86865],[-4.86525,9.87484],[-4.87153,9.87453],[-4.87397,9.87006],[-4.87514,9.87627],[-4.88636,9.8818],[-4.89757,9.87668],[-4.89881,9.88589],[-4.91062,9.8912],[-4.92827,9.88401],[-4.93094,9.87863],[-4.92708,9.87156],[-4.93089,9.86885],[-4.94359,9.88099],[-4.95479,9.88325],[-4.96652,9.89182],[-4.97005,9.8989],[-4.96896,9.91393],[-4.95687,9.92088],[-4.95767,9.93086],[-4.96401,9.94498],[-4.96244,9.9475],[-4.94727,9.9462],[-4.94074,9.95473],[-4.96014,9.96662],[-4.9603,9.97601],[-4.97895,9.97944],[-4.98692,9.9887],[-4.9819,10.00693],[-4.98614,10.01003],[-4.98435,10.01366],[-4.97536,10.00793],[-4.96372,10.00637],[-4.96007,10.00942],[-4.96367,10.01862],[-4.96223,10.02591],[-4.96986,10.03359],[-4.97315,10.04818],[-4.98737,10.05241],[-4.98689,10.059],[-4.99053,10.06324],[-5.00525,10.06331],[-5.01514,10.0726],[-5.01377,10.07876],[-5.00324,10.08912],[-4.99926,10.10723],[-5.00792,10.1017],[-5.02425,10.09788],[-5.03661,10.08189],[-5.04577,10.08693],[-5.0522,10.08297],[-5.05564,10.08341],[-5.05515,10.08937],[-5.04027,10.10109],[-5.03812,10.10787],[-5.04142,10.10872],[-5.04693,10.10428],[-5.06039,10.10782],[-5.06866,10.1062],[-5.0735,10.1126],[-5.07015,10.12327],[-5.06228,10.122],[-5.05533,10.12561],[-5.04887,10.11762],[-5.03668,10.1215],[-5.0426,10.13381],[-5.05847,10.13377],[-5.06965,10.13901],[-5.06904,10.15396],[-5.06379,10.16332],[-5.06472,10.17132],[-5.06062,10.18081],[-5.06886,10.18224],[-5.09496,10.17292],[-5.10473,10.17613],[-5.09698,10.18263],[-5.08879,10.1828],[-5.08115,10.19299],[-5.07854,10.21066],[-5.08197,10.22257],[-5.08735,10.22452],[-5.09031,10.21746],[-5.09805,10.21201],[-5.11781,10.20344],[-5.12187,10.20442],[-5.11528,10.22547],[-5.10556,10.23747],[-5.11933,10.24535],[-5.11895,10.25781],[-5.10617,10.26399],[-5.09814,10.27207],[-5.10457,10.27889],[-5.12043,10.28306],[-5.11003,10.30601],[-5.11244,10.30782],[-5.12391,10.30126],[-5.1299,10.31074],[-5.13189,10.30322],[-5.13652,10.30258],[-5.14871,10.28933],[-5.15594,10.28638],[-5.16951,10.28777],[-5.17281,10.29355],[-5.17638,10.29373],[-5.18889,10.28793],[-5.19145,10.29352],[-5.18693,10.29983],[-5.18503,10.29428],[-5.18178,10.29466],[-5.18163,10.298],[-5.19845,10.30739],[-5.19909,10.3116],[-5.19413,10.31906],[-5.19792,10.32144],[-5.21122,10.3065],[-5.22219,10.31443],[-5.22739,10.31478],[-5.24758,10.31238],[-5.25684,10.30544],[-5.26408,10.31398],[-5.27113,10.3121],[-5.27004,10.30783],[-5.28043,10.31085],[-5.28441,10.31908],[-5.28952,10.32033],[-5.29895,10.31503],[-5.29214,10.3131],[-5.29136,10.30711],[-5.29429,10.30352],[-5.29978,10.30639],[-5.30594,10.30049],[-5.31107,10.30166],[-5.32265,10.29045],[-5.34928,10.30492],[-5.35214,10.30281],[-5.35514,10.28803],[-5.36287,10.28247],[-5.36858,10.28441],[-5.37264,10.29438],[-5.37661,10.29595],[-5.38399,10.28981],[-5.39504,10.29716],[-5.40309,10.29609],[-5.40774,10.30416],[-5.41647,10.30641],[-5.41679,10.31869],[-5.42237,10.32303],[-5.43337,10.31818],[-5.43766,10.32199],[-5.43618,10.33344],[-5.44101,10.3409],[-5.45299,10.34037],[-5.46125,10.34669],[-5.46473,10.35211],[-5.45944,10.35101],[-5.45867,10.35532],[-5.46605,10.37612],[-5.47518,10.37316],[-5.48132,10.37656],[-5.48326,10.37888],[-5.4804,10.38301],[-5.48389,10.38386],[-5.48838,10.40522],[-5.49984,10.41077],[-5.49944,10.42268],[-5.50975,10.4244],[-5.50633,10.42796],[-5.51321,10.43079],[-5.50396,10.44931],[-5.50807,10.46057],[-5.50293,10.46294],[-5.50384,10.4689],[-5.49772,10.47254],[-5.50019,10.47661],[-5.49361,10.48037],[-5.49325,10.48912],[-5.48859,10.48842],[-5.49059,10.49447],[-5.48572,10.50831],[-5.4789,10.51203],[-5.47707,10.52113],[-5.47959,10.52343],[-5.47221,10.53578],[-5.47072,10.54687],[-5.45766,10.55547],[-5.46363,10.57954],[-5.46751,10.58425],[-5.46709,10.58812],[-5.46031,10.59113],[-5.4601,10.60256],[-5.46713,10.60877],[-5.47313,10.60769],[-5.47399,10.6188],[-5.47842,10.62107],[-5.47844,10.62406],[-5.4723,10.62595],[-5.46324,10.63681],[-5.46192,10.64376],[-5.46517,10.69823],[-5.4601,10.71212],[-5.46291,10.72946],[-5.45584,10.75176],[-5.45909,10.75824],[-5.46614,10.75863],[-5.46811,10.76515],[-5.44581,10.76574],[-5.43222,10.77519],[-5.42807,10.79545],[-5.41421,10.82647],[-5.41046,10.82761],[-5.41124,10.83711],[-5.40272,10.85435],[-5.41378,10.86838],[-5.4163,10.87775],[-5.4517,10.90085],[-5.44619,10.90664],[-5.44513,10.92138],[-5.45542,10.94729],[-5.45624,10.95926],[-5.45119,10.97406],[-5.45318,10.97805],[-5.45918,10.98399],[-5.47944,10.97452],[-5.49243,10.97376],[-5.47503,11.00798],[-5.47372,11.0165],[-5.4875,11.04748],[-5.48864,11.08322],[-5.46959,11.08463],[-5.39188,11.10343],[-5.34291,11.12953],[-5.333,11.1383],[-5.325,11.15713],[-5.32728,11.18861],[-5.32442,11.20633],[-5.31584,11.21529],[-5.29336,11.22825],[-5.25963,11.24082],[-5.25334,11.2494],[-5.25683,11.34373],[-5.25562,11.35979],[-5.24495,11.39251],[-5.24254,11.39659],[-5.23105,11.40001],[-5.19839,11.42866],[-5.20078,11.44545],[-5.21003,11.45782],[-5.20384,11.47432],[-5.20504,11.47857],[-5.20052,11.48325],[-5.20974,11.49749],[-5.19959,11.53025],[-5.20439,11.53407],[-5.20781,11.54638],[-5.21477,11.5555],[-5.21682,11.57943],[-5.23147,11.59188],[-5.23605,11.60209],[-5.25581,11.60513],[-5.27444,11.60161],[-5.29351,11.61708],[-5.29318,11.6287],[-5.28394,11.63992],[-5.28186,11.65366],[-5.27263,11.66312],[-5.26515,11.67949],[-5.26679,11.6975],[-5.27097,11.70694],[-5.26733,11.71032],[-5.26457,11.72705],[-5.2593,11.73639],[-5.25874,11.74706],[-5.26186,11.75238],[-5.25999,11.76175],[-5.27537,11.75661],[-5.29197,11.76558],[-5.2939,11.7716],[-5.28695,11.77123],[-5.2849,11.77673],[-5.29089,11.78475],[-5.29965,11.78415],[-5.30649,11.78786],[-5.3061,11.79323],[-5.31558,11.79403],[-5.32468,11.80094],[-5.32267,11.8047],[-5.32734,11.8035],[-5.32705,11.80073],[-5.33239,11.8008],[-5.33317,11.79783],[-5.33592,11.79841],[-5.33614,11.80424],[-5.34396,11.80203],[-5.34358,11.80776],[-5.34707,11.80727],[-5.35035,11.79521],[-5.35685,11.80366],[-5.35987,11.80144],[-5.3651,11.80426],[-5.36369,11.80812],[-5.36781,11.81214],[-5.37565,11.80958],[-5.38008,11.81989],[-5.39297,11.81599],[-5.39113,11.81925],[-5.40602,11.82666],[-5.40423,11.83094],[-5.38959,11.84046],[-5.38751,11.8387],[-5.38101,11.84214],[-5.37833,11.83607],[-5.37475,11.83972],[-5.37374,11.83338],[-5.36868,11.8369],[-5.36385,11.83148],[-5.36115,11.83313],[-5.35737,11.82939],[-5.35653,11.82186],[-5.34073,11.8305],[-5.3382,11.82927],[-5.3228,11.84854],[-5.32011,11.84776],[-5.31895,11.8413],[-5.30331,11.83534],[-5.29796,11.84927],[-5.28671,11.85379],[-5.28055,11.85096],[-5.27696,11.85305],[-5.2783,11.84709],[-5.27526,11.84033],[-5.26717,11.84036],[-5.25779,11.83307],[-5.25899,11.83791],[-5.25599,11.84123],[-5.24593,11.83902],[-5.24687,11.8445],[-5.24356,11.84909],[-5.24748,11.85267],[-5.24372,11.85657],[-5.24436,11.86576],[-5.23449,11.87082],[-5.22978,11.8677],[-5.2212,11.87324],[-5.21662,11.87858],[-5.21754,11.88272],[-5.21442,11.88117],[-5.20938,11.88454],[-5.20869,11.89281],[-5.20478,11.89205],[-5.19428,11.899],[-5.18424,11.89818],[-5.18849,11.90434],[-5.18009,11.90373],[-5.17933,11.91241],[-5.17247,11.91961],[-5.17272,11.92698],[-5.16701,11.92843],[-5.15976,11.93618],[-5.15306,11.93363],[-5.14857,11.94479],[-5.14333,11.94892],[-5.13693,11.94672],[-5.12605,11.95741],[-5.11016,11.9612],[-5.10622,11.96543],[-5.09608,11.9642],[-5.09474,11.9689],[-5.08381,11.97028],[-5.07506,11.98194],[-5.06809,11.98272],[-5.05604,11.97748],[-5.02054,11.98585],[-5.01442,11.98162],[-5.00595,11.98917],[-5.00165,11.98746],[-4.997,11.9899],[-4.99376,11.98601],[-4.98755,11.98521],[-4.9797,11.99627],[-4.97096,11.99301],[-4.96492,11.99808],[-4.96149,11.99603],[-4.95685,11.99929],[-4.94927,11.99871],[-4.94867,12.0025],[-4.94384,12.00434],[-4.92722,12.00511],[-4.92483,12.00057],[-4.91517,11.99854],[-4.91526,12.00278],[-4.90119,12.00563],[-4.89363,12.00255],[-4.88558,12.00658],[-4.88111,12.0019],[-4.86488,12.00316],[-4.86438,12.00725],[-4.85317,12.01167],[-4.85023,12.01702],[-4.8384,12.01254],[-4.83446,12.01886],[-4.82722,12.0159],[-4.82855,12.01359],[-4.8198,12.00756],[-4.80995,12.01391],[-4.79736,12.00835],[-4.79083,12.01214],[-4.78581,12.00554],[-4.77763,12.01138],[-4.76561,12.00872],[-4.76555,12.0043],[-4.74831,12.00859],[-4.74501,12.00542],[-4.7455,11.99926],[-4.74056,11.9991],[-4.73334,12.00377],[-4.72447,12.01619],[-4.72365,12.03192],[-4.71906,12.03217],[-4.71466,12.04245],[-4.71633,12.04865],[-4.70926,12.05053],[-4.70042,12.06609],[-4.68512,12.06476],[-4.67527,12.06742],[-4.6489,12.06069],[-4.62962,12.05964],[-4.62818,12.11404],[-4.61472,12.12509],[-4.60683,12.13911],[-4.56812,12.13808],[-4.54436,12.14159],[-4.54977,12.15477],[-4.5553,12.15726],[-4.57597,12.18979],[-4.57995,12.20189],[-4.55041,12.22377],[-4.55089,12.22652],[-4.54294,12.23261],[-4.52972,12.23486],[-4.52987,12.24157],[-4.52142,12.25065],[-4.4714,12.2856],[-4.4781,12.30832],[-4.47367,12.33073],[-4.43956,12.33355],[-4.43547,12.32473],[-4.42957,12.32399],[-4.42751,12.3082],[-4.41892,12.30249],[-4.39694,12.31032],[-4.40902,12.34484],[-4.43962,12.40216],[-4.44079,12.4153],[-4.42878,12.454],[-4.42256,12.4632],[-4.42413,12.47227],[-4.42043,12.48525],[-4.37794,12.51947],[-4.36503,12.53223],[-4.36531,12.53572],[-4.37298,12.54616],[-4.40228,12.5605],[-4.40384,12.58038],[-4.41159,12.60974],[-4.42979,12.62347],[-4.45247,12.62563],[-4.45973,12.63878],[-4.48061,12.65815],[-4.48023,12.67185],[-4.47562,12.67565],[-4.47688,12.67823],[-4.47119,12.68008],[-4.46723,12.69077],[-4.47284,12.70892],[-4.46902,12.71458],[-4.47231,12.72113],[-4.4781,12.72131],[-4.47798,12.72519],[-4.4758,12.72705],[-4.47095,12.72167],[-4.4561,12.71976],[-4.4514,12.71404],[-4.44473,12.71442],[-4.44193,12.71796],[-4.43161,12.71082],[-4.41869,12.71621],[-4.40095,12.71687],[-4.37766,12.72811],[-4.37314,12.73401],[-4.34618,12.744],[-4.32362,12.7199],[-4.32533,12.71151],[-4.3096,12.70824],[-4.30024,12.70116],[-4.28221,12.70993],[-4.28059,12.7073],[-4.27057,12.70874],[-4.26695,12.70414],[-4.25527,12.71248],[-4.25178,12.71889],[-4.24613,12.71735],[-4.23899,12.72609],[-4.23256,12.72751],[-4.23468,12.73273],[-4.21683,12.77626],[-4.21626,12.80732],[-4.20819,12.81666],[-4.22532,12.86356],[-4.21533,12.91339],[-4.21811,12.96233],[-4.22638,12.97511],[-4.26594,12.99292],[-4.27507,13.01946],[-4.27488,13.0395],[-4.30686,13.07591],[-4.31498,13.09164],[-4.33002,13.09829],[-4.33254,13.11056],[-4.34546,13.11452],[-4.34693,13.11964],[-4.34181,13.1401],[-4.32635,13.15342],[-4.32012,13.15359],[-4.31689,13.15945],[-4.30882,13.16366],[-4.30779,13.17235],[-4.30119,13.17594],[-4.30001,13.18094],[-4.28914,13.18378],[-4.28533,13.18912],[-4.24522,13.1782],[-4.23057,13.18205],[-4.22557,13.18706],[-4.22499,13.19535],[-4.23924,13.21442],[-4.25909,13.2333],[-4.25889,13.23676],[-4.22518,13.24948],[-4.20727,13.26951],[-4.16777,13.27625],[-4.16122,13.28454],[-4.13679,13.29634],[-4.13165,13.30874],[-4.11692,13.32075],[-4.10536,13.33905],[-4.10016,13.35581],[-4.10262,13.37502],[-4.10054,13.38702],[-4.08841,13.39916],[-4.0701,13.40725],[-4.05296,13.40686],[-4.03697,13.42073],[-4.0258,13.42555],[-4.01597,13.43769],[-4.00326,13.43884],[-3.98448,13.43509],[-3.98428,13.45175],[-3.97456,13.46446],[-3.95963,13.47294],[-3.96492,13.49037],[-3.97548,13.47424],[-3.98226,13.47323],[-3.98274,13.47776],[-3.97109,13.48768],[-3.97157,13.5003],[-3.96531,13.50559],[-3.96011,13.49904],[-3.94864,13.49413],[-3.9497,13.48864],[-3.9395,13.47178],[-3.94036,13.45213],[-3.90521,13.44886],[-3.89567,13.44279],[-3.90164,13.43364],[-3.93035,13.43287],[-3.93651,13.41572],[-3.96319,13.40763],[-3.95888,13.39581],[-3.95847,13.37985],[-3.94604,13.37459],[-3.93738,13.38038],[-3.91536,13.38306],[-3.85345,13.37329],[-3.83748,13.36022],[-3.81688,13.36102],[-3.79741,13.37248],[-3.74343,13.32677],[-3.74163,13.32331],[-3.74473,13.3128],[-3.73711,13.30377],[-3.718,13.29116],[-3.67218,13.27525],[-3.61607,13.22332],[-3.61198,13.21532],[-3.60538,13.21717],[-3.58314,13.19997],[-3.55318,13.19713],[-3.54734,13.17995],[-3.55183,13.167],[-3.54551,13.1672],[-3.54376,13.16432],[-3.5361,13.17139],[-3.53437,13.16822],[-3.53142,13.16754],[-3.52979,13.17096],[-3.52209,13.16581],[-3.50151,13.1697],[-3.47985,13.15814],[-3.47538,13.161],[-3.46339,13.15557],[-3.4624,13.15874],[-3.44238,13.15779],[-3.42234,13.17871],[-3.43912,13.24682],[-3.44781,13.25685],[-3.43747,13.27669],[-3.38436,13.27725],[-3.33896,13.28821],[-3.23424,13.28887],[-3.23339,13.31377],[-3.23661,13.32554],[-3.23745,13.35517],[-3.25456,13.36076],[-3.26472,13.48675],[-3.27831,13.55685],[-3.24999,13.58463],[-3.24689,13.68412],[-3.25724,13.69468],[-3.27209,13.69841],[-3.27012,13.70601],[-3.2618,13.71491],[-3.20997,13.70594],[-3.19188,13.6808],[-3.18537,13.67852],[-3.14762,13.67936],[-3.14473,13.6832],[-3.12944,13.68142],[-3.10748,13.68871],[-3.09332,13.67903],[-3.08379,13.66589],[-3.07693,13.66662],[-3.0718,13.66013],[-3.06126,13.65616],[-3.05605,13.63953],[-3.05779,13.62781],[-3.05142,13.61921],[-3.0401,13.61355],[-3.02903,13.61491],[-3.01712,13.63133],[-3.01883,13.63913],[-3.00681,13.65496],[-3.00177,13.65689],[-2.98493,13.65169],[-2.96948,13.65166],[-2.9663,13.64391],[-2.95814,13.63898],[-2.95249,13.62466],[-2.87535,13.6539],[-2.89025,13.69065],[-2.89202,13.70557],[-2.9068,13.72686],[-2.90775,13.82468],[-2.90419,13.82471],[-2.90049,13.83247],[-2.90212,13.835],[-2.89284,13.8419],[-2.88484,13.86601],[-2.88148,13.86598],[-2.87883,13.8708],[-2.87955,13.8768],[-2.87184,13.88399],[-2.86597,13.91033],[-2.83606,13.99535],[-2.84477,14.00606],[-2.85498,14.0062],[-2.83886,14.05407],[-2.80603,14.07667],[-2.67689,14.13494],[-2.58915,14.21565],[-2.4742,14.29986],[-2.29698,14.2491],[-2.17779,14.19196],[-2.1028,14.14675],[-1.99721,14.19327],[-1.98028,14.475],[-1.90667,14.48889],[-1.77722,14.48167],[-1.67778,14.50083],[-1.31806,14.72917],[-1.09278,14.78444],[-1.07167,14.78444],[-0.72472,15.08333],[-0.44306,15.08333],[-0.40358,15.00479],[-0.38449,15.00479],[-0.24556,15.07833],[0.244,14.913],[0.21936,14.88532],[0.17753,14.84694],[0.23688,14.75262],[0.17212,14.63295],[0.16172,14.53423],[0.38097,14.05229],[0.38167,14.04502],[0.39136,14.03743],[0.411,14.0296],[0.41285,14.00606],[0.42364,13.98059],[0.43959,13.97482],[0.44025,13.96677],[0.44648,13.96748],[0.44496,13.95744],[0.43996,13.95283],[0.44855,13.94874],[0.45359,13.95765],[0.46213,13.95651],[0.4731,13.94225],[0.46957,13.93722],[0.46843,13.92434],[0.47955,13.90542],[0.48819,13.90068],[0.51404,13.86839],[0.5259,13.86457],[0.53232,13.84801],[0.55105,13.83656],[0.55868,13.82668],[0.57424,13.81867],[0.58331,13.80849],[0.58181,13.80399],[0.58677,13.78987],[0.59519,13.78646],[0.5963,13.78071],[0.59995,13.77751],[0.6181,13.77742],[0.62057,13.77349],[0.62611,13.77251],[0.62337,13.76392],[0.60977,13.74912],[0.60725,13.7415],[0.60735,13.72225],[0.61188,13.70304],[0.64424,13.68126],[0.76999,13.69078],[0.80447,13.66691],[0.78969,13.65412],[0.79728,13.63126],[0.83611,13.61949],[0.8523,13.6252],[0.90793,13.61686],[0.97099,13.57899],[0.99655,13.57731],[0.99805,13.57112],[1.00781,13.56109],[1.00821,13.54849],[1.01838,13.52828],[1.0085,13.51893],[1.01775,13.50131],[1.0129,13.49395],[1.01708,13.48454],[1.02407,13.4847],[1.02763,13.48098],[1.03397,13.48269],[1.03533,13.48601],[1.06772,13.46243],[1.08973,13.46237],[1.13786,13.41232],[1.15976,13.41291],[1.21276,13.3903],[1.24214,13.39156],[1.28404,13.35649],[1.28321,13.35118],[1.25737,13.33949],[1.24099,13.33923],[1.24146,13.34412],[1.23781,13.34406],[1.22723,13.35883],[1.22722,13.37038],[1.21987,13.37843],[1.21148,13.38016],[1.20365,13.37331],[1.20659,13.35851],[1.20638,13.34713],[1.2018,13.34385],[1.20305,13.33276],[1.18517,13.32089],[1.1513,13.32848],[1.15275,13.33183],[1.14859,13.33452],[1.14512,13.32998],[1.13339,13.3368],[1.12764,13.33166],[1.11672,13.33382],[1.07314,13.35632],[1.05999,13.36795],[1.01757,13.36858],[1.01241,13.37459],[0.99192,13.37469],[0.99192,13.10336],[1.86858,12.60534],[1.9273,12.69302],[1.95044,12.69214],[1.97883,12.73571],[1.9837,12.73769],[2.01836,12.72532],[2.04293,12.72454],[2.04826,12.72834],[2.05891,12.72552],[2.0623,12.72761],[2.06611,12.72451],[2.08028,12.72469],[2.09128,12.71868],[2.09445,12.72386],[2.10663,12.72887],[2.11408,12.7053],[2.13592,12.69577],[2.16292,12.69038],[2.16142,12.66705],[2.15225,12.64912],[2.2008,12.62883],[2.2289,12.58397],[2.23064,12.52362],[2.2718,12.47269],[2.26842,12.44349],[2.27787,12.42518],[2.26339,12.42084],[2.26201,12.41343],[2.25784,12.41384],[2.25323,12.42018],[2.24267,12.4176],[2.24341,12.42181],[2.24072,12.42291],[2.22933,12.42242],[2.2227,12.41401],[2.21622,12.41209],[2.21306,12.4207],[2.193,12.42237],[2.18048,12.41602],[2.18117,12.41995],[2.17712,12.42452],[2.16948,12.41481],[2.16489,12.41287],[2.16317,12.41777],[2.15906,12.41766],[2.1556,12.41594],[2.15608,12.4091],[2.13179,12.40072],[2.13036,12.39593],[2.12394,12.39827],[2.11941,12.39598],[2.11173,12.38162],[2.10494,12.38908],[2.10721,12.39386],[2.09389,12.39181],[2.08784,12.39396],[2.07081,12.37694],[2.07551,12.37034],[2.06569,12.3571],[2.06685,12.35089],[2.40406,11.90032],[2.39729,11.89389],[2.40416,11.87461],[2.39262,11.86075],[2.37987,11.85511],[2.37683,11.83261],[2.38507,11.82824],[2.38379,11.82464],[2.36912,11.81774],[2.36834,11.81486],[2.37199,11.80862],[2.37145,11.7989],[2.37595,11.79193],[2.3742,11.78937],[2.36084,11.78965],[2.33892,11.78242],[2.34364,11.77369],[2.33435,11.76365],[2.3224,11.75841],[2.32014,11.75395],[2.32348,11.75059],[2.31774,11.73967],[2.31421,11.73715],[2.30996,11.73875],[2.30452,11.7339],[2.30691,11.72218],[2.30089,11.72253],[2.29829,11.71623],[2.30235,11.70949],[2.30319,11.69857],[2.30903,11.69306],[2.30617,11.69158],[2.30582,11.68551],[2.31437,11.6789],[2.30716,11.66518],[2.27503,11.64435],[2.26616,11.64252],[2.26149,11.65179],[2.25399,11.65156],[2.24371,11.62432],[2.23573,11.62198],[2.23123,11.61533],[2.22219,11.61492],[2.21757,11.61135],[2.20913,11.60291],[2.20812,11.59608],[2.20479,11.59447],[2.19696,11.59887],[2.19113,11.59712],[2.18847,11.58902],[2.16956,11.57741],[2.15329,11.55454],[2.14072,11.55329],[2.12794,11.54318],[2.11634,11.53056],[2.10908,11.51337],[2.09951,11.50682],[2.08905,11.48954],[2.07632,11.47927],[2.06946,11.47939],[2.06631,11.46966],[2.0573,11.4602],[2.05733,11.45466],[2.02369,11.42621],[2.02115,11.41557],[2.01309,11.41456],[2.00949,11.41778],[1.9872,11.42073],[1.98447,11.41814],[1.96525,11.42051],[1.95157,11.41354],[1.93008,11.41797],[1.92841,11.41524],[1.92026,11.41531],[1.91675,11.40849],[1.9137,11.42865],[1.90066,11.43371],[1.90099,11.43912],[1.88655,11.43986],[1.87745,11.45074],[1.87712,11.44561],[1.85927,11.44813],[1.85494,11.44178],[1.84814,11.44653],[1.84333,11.44614],[1.84107,11.44084],[1.83251,11.43783],[1.80813,11.44076],[1.80539,11.43461],[1.79964,11.43619],[1.8005,11.42955],[1.79709,11.42737],[1.78477,11.42883],[1.76826,11.42219],[1.75869,11.42751],[1.75337,11.4188],[1.74891,11.42184],[1.74164,11.41855],[1.73497,11.42852],[1.73142,11.4286],[1.72821,11.42339],[1.72498,11.42314],[1.7254,11.42674],[1.71644,11.42553],[1.71345,11.42798],[1.71388,11.43393],[1.70855,11.42881],[1.70612,11.41907],[1.69963,11.41653],[1.69791,11.41115],[1.68636,11.41575],[1.68697,11.41879],[1.68232,11.41577],[1.68238,11.40747],[1.67761,11.4097],[1.6658,11.39847],[1.64568,11.40135],[1.64369,11.40677],[1.63648,11.39956],[1.63189,11.39957],[1.63044,11.39566],[1.62263,11.39371],[1.61852,11.39736],[1.60356,11.39653],[1.59359,11.40844],[1.58934,11.40797],[1.59005,11.42061],[1.59339,11.4228],[1.58612,11.43086],[1.5864,11.43625],[1.58309,11.4368],[1.5819,11.42851],[1.57845,11.42958],[1.58063,11.43747],[1.57731,11.44085],[1.58098,11.44107],[1.58285,11.44841],[1.57876,11.45386],[1.57563,11.454],[1.57294,11.44775],[1.56924,11.44975],[1.56556,11.4563],[1.57012,11.46455],[1.56696,11.46818],[1.56016,11.46905],[1.55299,11.47835],[1.54851,11.47773],[1.55331,11.47239],[1.54532,11.46476],[1.54845,11.4617],[1.53952,11.45396],[1.52775,11.45423],[1.52691,11.4573],[1.51596,11.46176],[1.50637,11.45801],[1.50071,11.45976],[1.50099,11.4722],[1.50586,11.47393],[1.5043,11.47759],[1.49475,11.47216],[1.49238,11.4571],[1.48505,11.45344],[1.47697,11.47081],[1.45862,11.46934],[1.4483,11.48108],[1.43889,11.47025],[1.43376,11.4708],[1.43458,11.46298],[1.4255,11.45881],[1.42398,11.45446],[1.41016,11.45957],[1.41154,11.45386],[1.41542,11.45368],[1.41373,11.45038],[1.40508,11.45556],[1.39556,11.45314],[1.39243,11.44575],[1.38814,11.4439],[1.39108,11.43825],[1.38357,11.43464],[1.38799,11.43381],[1.38539,11.42592],[1.39168,11.41183],[1.39517,11.41177],[1.39678,11.40768],[1.38249,11.40146],[1.38582,11.39759],[1.38134,11.38853],[1.37753,11.39149],[1.36603,11.39137],[1.35945,11.39581],[1.35726,11.39317],[1.35995,11.38746],[1.35142,11.37869],[1.35094,11.36827],[1.34209,11.36692],[1.34105,11.36372],[1.33569,11.36431],[1.33642,11.36818],[1.3272,11.36716],[1.32617,11.35266],[1.33464,11.33994],[1.33229,11.33642],[1.34019,11.33343],[1.33926,11.32428],[1.34638,11.3231],[1.34833,11.32035],[1.3436,11.31553],[1.34808,11.31567],[1.35169,11.3072],[1.34035,11.31014],[1.33528,11.3055],[1.34126,11.30144],[1.33264,11.29825],[1.33338,11.29275],[1.32923,11.29333],[1.32871,11.29668],[1.32497,11.29439],[1.31978,11.29707],[1.31709,11.3031],[1.32,11.30479],[1.31893,11.30753],[1.30779,11.30158],[1.3087,11.29684],[1.294,11.29836],[1.28521,11.32338],[1.26899,11.32739],[1.26214,11.32017],[1.26375,11.31722],[1.26073,11.31671],[1.26301,11.30533],[1.25955,11.3027],[1.26465,11.2948],[1.27559,11.29439],[1.27553,11.28819],[1.27905,11.28554],[1.27616,11.28052],[1.28002,11.27942],[1.28244,11.27249],[1.27896,11.26881],[1.2837,11.26668],[1.2752,11.26073],[1.27213,11.26214],[1.26311,11.25384],[1.26352,11.25089],[1.24995,11.25282],[1.24523,11.25797],[1.24201,11.25589],[1.24271,11.2625],[1.23595,11.26509],[1.22945,11.26307],[1.22624,11.26857],[1.2182,11.26527],[1.21495,11.2686],[1.2042,11.26717],[1.19636,11.2636],[1.19184,11.264],[1.18627,11.27092],[1.17723,11.26424],[1.1735,11.26743],[1.17632,11.27871],[1.16872,11.27955],[1.17048,11.28303],[1.15747,11.28449],[1.15029,11.27823],[1.1482,11.28061],[1.13967,11.27163],[1.13786,11.25993],[1.13353,11.26127],[1.13113,11.25607],[1.13799,11.25218],[1.12982,11.24748],[1.14866,11.23926],[1.15994,11.22677],[1.15474,11.21325],[1.15031,11.2131],[1.15489,11.2081],[1.15108,11.1926],[1.15463,11.19273],[1.15761,11.18626],[1.15344,11.18215],[1.15742,11.17372],[1.16142,11.17577],[1.16468,11.16956],[1.16084,11.16997],[1.15679,11.16331],[1.14232,11.17285],[1.1426,11.17687],[1.11716,11.17707],[1.10491,11.16374],[1.10025,11.15306],[1.09016,11.14886],[1.08598,11.15136],[1.08063,11.14845],[1.06086,11.15022],[1.0547,11.1461],[1.0562,11.13511],[1.05052,11.1307],[1.05671,11.12959],[1.05617,11.11914],[1.06872,11.12719],[1.0638,11.13154],[1.06315,11.1347],[1.06675,11.13566],[1.07573,11.13114],[1.082,11.12111],[1.08683,11.12127],[1.08979,11.11456],[1.08565,11.1097],[1.08671,11.10626],[1.09546,11.10377],[1.08941,11.09951],[1.08796,11.09351],[1.09153,11.09422],[1.10091,11.08213],[1.09706,11.0751],[1.10094,11.0678],[1.09769,11.06211],[1.1096,11.05143],[1.11236,11.05096],[1.11272,11.05564],[1.11663,11.05381],[1.11203,11.04851],[1.11371,11.04527],[1.11757,11.04782],[1.11862,11.04304],[1.11681,11.03762],[1.11232,11.03661],[1.11461,11.03226],[1.10567,11.03238],[1.09663,11.04771],[1.08272,11.05554],[1.07325,11.05594],[1.07071,11.0618],[1.06438,11.06212],[1.06263,11.05856],[1.05567,11.05881],[1.0374,11.05167],[1.02702,11.05268],[1.01565,11.07447],[1.0132,11.0874],[0.98779,11.0863],[0.98848,11.09267],[0.98566,11.09293],[0.97641,11.0867],[0.97438,11.07971],[0.97735,11.06605],[0.97384,11.05671],[0.94546,11.03458],[0.94894,11.0312],[0.94486,11.02653],[0.9465,11.02308],[0.91667,11],[0.66311,11.00002],[0.50032,10.93248],[0.51012,10.94936],[0.50945,10.96028],[0.51736,10.97128],[0.51119,10.97818],[0.50776,10.99116],[0.49778,10.9883],[0.49882,10.99431],[0.50405,10.99861],[0.50161,11.00476],[0.5051,11.00923],[0.03127,11.10535],[0.01066,11.11467],[0.00111,11.1115],[-0.15236,11.14258],[-0.27542,11.17485],[-0.28187,11.16966],[-0.28423,11.15479],[-0.28901,11.14954],[-0.28125,11.14042],[-0.27182,11.13809],[-0.27322,11.12343],[-0.30308,11.11959],[-0.30929,11.11522],[-0.32083,11.1155],[-0.33236,11.1094],[-0.3365,11.10624],[-0.33605,11.0963],[-0.34029,11.08665],[-0.35434,11.08426],[-0.35645,11.07116],[-0.36112,11.06949],[-0.36055,11.07879],[-0.36616,11.0818],[-0.37207,11.09191],[-0.36979,11.09839],[-0.37516,11.10557],[-0.37246,11.12335],[-0.40206,11.12698],[-0.42091,11.11522],[-0.42806,11.11445],[-0.43144,11.08686],[-0.43975,11.06487],[-0.43493,11.0478],[-0.43879,11.04443],[-0.43359,11.03715],[-0.43801,11.03034],[-0.45916,11.02815],[-0.47418,11.03555],[-0.47957,11.03142],[-0.48111,11.02338],[-0.50219,11.01608],[-0.501,11.00338],[-0.51088,10.98839],[-0.52331,10.99164],[-0.52612,10.99958],[-0.52957,10.99989],[-0.5434,10.98539],[-0.54472,10.97483],[-0.55117,10.97869],[-0.5508,10.98735],[-0.55443,10.9909],[-0.56029,10.98956],[-0.56625,10.99266],[-0.57974,10.97238],[-0.58175,10.96269],[-0.58611,10.9596],[-0.5867,10.94296],[-0.59371,10.93067],[-0.59321,10.92351],[-0.61852,10.91093],[-0.62579,10.9386],[-0.64856,10.9498],[-0.64567,10.95588],[-0.6532,10.96348],[-0.6624,10.95568],[-0.67032,10.95758],[-0.67155,10.96143],[-0.66382,10.97453],[-0.65677,10.9746],[-0.65271,10.98094],[-0.65419,10.98756],[-0.67325,10.98973],[-0.67756,10.98213],[-0.68089,10.98246],[-0.68626,10.98659],[-0.6842,10.99736],[-0.8076,10.99784],[-0.80756,11.00583],[-0.82733,11.00649],[-0.82844,10.99805],[-0.85507,10.99804],[-0.87001,10.9666],[-0.89337,10.96241],[-0.88859,10.96494],[-0.88882,10.98036],[-0.91671,10.98029],[-0.91633,11.00242],[-0.99979,10.99796],[-0.99973,11.00816],[-1.00817,11.00849],[-1.11494,11.00382],[-1.11466,10.98582],[-1.30189,10.9907],[-1.38989,10.98652],[-1.42641,11.02137],[-1.58445,11.02138],[-1.58444,10.98973],[-1.69571,10.98974],[-1.69571,10.9767],[-1.7506,10.97671],[-1.75058,10.98573],[-2.12818,10.98374],[-2.22112,10.99121],[-2.2703,10.99173],[-2.32913,10.98641],[-2.47899,10.98818],[-2.6296,11],[-2.6296,10.99667],[-2.63529,10.99667],[-2.68945,11.00459],[-2.75899,11.00365],[-2.75898,11.00817],[-2.83357,11.00709],[-2.84087,10.96749],[-2.83855,10.96108],[-2.82261,10.94728],[-2.81801,10.93831],[-2.81738,10.92577],[-2.83725,10.89375],[-2.85983,10.89088],[-2.86399,10.88772],[-2.86685,10.87279],[-2.86394,10.8575],[-2.87929,10.83186],[-2.88109,10.8035],[-2.89243,10.77954],[-2.89521,10.76461],[-2.91971,10.73523],[-2.93682,10.72375],[-2.93989,10.70901],[-2.91061,10.69926],[-2.90594,10.68473],[-2.91157,10.67699],[-2.91259,10.66837],[-2.93729,10.64395],[-2.94117,10.63576],[-2.94124,10.61717],[-2.93347,10.60333],[-2.92646,10.59851],[-2.91112,10.56319],[-2.90285,10.55224],[-2.89842,10.53901],[-2.89941,10.52268],[-2.87459,10.49004],[-2.87119,10.47987],[-2.87285,10.46765],[-2.86628,10.45431],[-2.83482,10.43761],[-2.77343,10.42281],[-2.77915,10.40907],[-2.8009,10.39765],[-2.80801,10.39961],[-2.81908,10.39753],[-2.83048,10.38884],[-2.84201,10.36553],[-2.84229,10.34371],[-2.85041,10.31939],[-2.84272,10.30418],[-2.83219,10.2951],[-2.79309,10.27425],[-2.77605,10.27023],[-2.76258,10.26302],[-2.75636,10.24436],[-2.76069,10.22686],[-2.78784,10.20697],[-2.79648,10.1982],[-2.79805,10.19169],[-2.78715,10.1403],[-2.79322,10.1275],[-2.78806,10.0948],[-2.79045,10.06947],[-2.78183,10.0413],[-2.78183,10.02713],[-2.77646,10.02002],[-2.77531,10.01112],[-2.7637,9.99434],[-2.74979,9.98196],[-2.74284,9.95817],[-2.7446,9.94803],[-2.75922,9.92841],[-2.76334,9.9148],[-2.76159,9.8834],[-2.74538,9.85305],[-2.73094,9.83928],[-2.72638,9.83047],[-2.73281,9.81461],[-2.75037,9.80762],[-2.75875,9.79959],[-2.77707,9.75893],[-2.78961,9.7473],[-2.78994,9.7414],[-2.78298,9.72638],[-2.78738,9.69774],[-2.7839,9.68972],[-2.76086,9.68307],[-2.7564,9.67877],[-2.7538,9.65275],[-2.74572,9.64121],[-2.74751,9.63389],[-2.76266,9.61687],[-2.76247,9.61055],[-2.77206,9.59867],[-2.76855,9.56918],[-2.7599,9.55463],[-2.74508,9.54459],[-2.73204,9.52999],[-2.71637,9.5256],[-2.70012,9.51064],[-2.6872,9.49167],[-2.72483,9.44968],[-2.72821,9.44912],[-2.73295,9.44011],[-2.75201,9.42472],[-2.75811,9.41151],[-2.76785,9.4105],[-2.77322,9.41659],[-2.78302,9.41863],[-2.8154,9.45],[-2.82387,9.45125],[-2.93531,9.57576],[-2.9346,9.58264],[-2.94298,9.59849],[-2.94474,9.61804],[-2.96865,9.65031],[-3.00544,9.74305],[-3.05671,9.72549],[-3.09003,9.7648],[-3.09517,9.7904],[-3.09184,9.80995],[-3.10345,9.82048],[-3.13176,9.84284],[-3.15383,9.85139],[-3.16036,9.84387],[-3.17779,9.8335],[-3.18502,9.83891],[-3.19332,9.88658],[-3.18921,9.9355],[-3.19762,9.93289],[-3.21486,9.90196],[-3.22395,9.89703],[-3.23574,9.89684],[-3.23955,9.88485],[-3.25157,9.86995],[-3.26246,9.86501],[-3.27045,9.84639],[-3.27692,9.84885],[-3.28609,9.85872],[-3.31764,9.87057],[-3.30954,9.91023],[-3.31468,9.91169],[-3.34748,9.90153],[-3.35986,9.90475],[-3.37762,9.92322],[-3.41386,9.92957],[-3.42363,9.92553],[-3.42975,9.91774],[-3.44655,9.93051],[-3.45396,9.92979],[-3.47292,9.93588],[-3.52411,9.93124],[-3.53946,9.93786],[-3.57116,9.94008],[-3.5992,9.93456],[-3.61829,9.95848],[-3.63775,9.95625],[-3.64262,9.95302],[-3.64723,9.94108],[-3.66767,9.92841],[-3.71429,9.93599],[-3.77589,9.92688],[-3.78135,9.924],[-3.80326,9.89476],[-3.81117,9.90181],[-3.83011,9.90256],[-3.83458,9.89945],[-3.84743,9.90374],[-3.89592,9.90573],[-3.89936,9.90183]]]]}}]}