{"type":"FeatureCollection","features":[{"type":"Feature","properties":{"ISO_A3":"BGR","WB_A3":"BGR","WB_NAME":"Bulgaria","WB_REGION":"ECS"},"geometry":{"type":"MultiPolygon","coordinates":[[[[27.58749,42.56467],[27.57693,42.56233],[27.56642,42.55263],[27.55738,42.55049],[27.53558,42.55932],[27.52203,42.55707],[27.50843,42.55059],[27.48914,42.52552],[27.48208,42.48654],[27.47116,42.48748],[27.47113,42.48363],[27.46284,42.48816],[27.46071,42.48098],[27.45695,42.48869],[27.44681,42.47718],[27.4488,42.46357],[27.44254,42.4618],[27.46584,42.44862],[27.46771,42.44245],[27.46248,42.43939],[27.45695,42.44057],[27.45831,42.43684],[27.46556,42.43322],[27.46758,42.42564],[27.47314,42.42728],[27.47611,42.43164],[27.4746,42.43832],[27.46838,42.44039],[27.46929,42.44629],[27.47573,42.44986],[27.47247,42.45398],[27.47615,42.45948],[27.49061,42.44672],[27.50891,42.43817],[27.50902,42.42995],[27.52062,42.42977],[27.53184,42.44538],[27.53845,42.44779],[27.53538,42.45396],[27.54614,42.45532],[27.5658,42.4456],[27.57967,42.44643],[27.58213,42.44988],[27.57975,42.45464],[27.58329,42.46271],[27.58641,42.46244],[27.58981,42.456],[27.60773,42.445],[27.62263,42.44466],[27.62932,42.45477],[27.63791,42.44792],[27.6414,42.45021],[27.64935,42.44824],[27.64963,42.44156],[27.64666,42.43953],[27.65303,42.43577],[27.65195,42.43128],[27.6455,42.42747],[27.64613,42.42131],[27.66178,42.41082],[27.67042,42.40897],[27.68363,42.413],[27.69398,42.42565],[27.69761,42.42473],[27.69447,42.42231],[27.6972,42.41882],[27.70292,42.41918],[27.70044,42.41457],[27.70489,42.40941],[27.71299,42.40641],[27.72516,42.40992],[27.7233,42.39954],[27.71085,42.40103],[27.70645,42.39477],[27.70944,42.38346],[27.72027,42.37685],[27.71052,42.37139],[27.71402,42.35956],[27.72854,42.34355],[27.73138,42.33455],[27.73892,42.3286],[27.75256,42.32659],[27.75693,42.33028],[27.7561,42.33311],[27.77205,42.3366],[27.78467,42.33574],[27.7792,42.32654],[27.78089,42.32396],[27.7729,42.32106],[27.78187,42.31882],[27.77868,42.31319],[27.78903,42.31081],[27.79037,42.30747],[27.76885,42.30068],[27.77363,42.29577],[27.76456,42.28942],[27.75556,42.28845],[27.75491,42.27742],[27.76357,42.26466],[27.75424,42.26459],[27.75159,42.25973],[27.7532,42.24945],[27.76847,42.24126],[27.77177,42.2424],[27.77111,42.24497],[27.77764,42.2421],[27.77982,42.23734],[27.78483,42.23692],[27.7784,42.23414],[27.7778,42.22696],[27.78262,42.2259],[27.79087,42.21702],[27.80373,42.21548],[27.80541,42.21188],[27.81897,42.20639],[27.81857,42.20229],[27.82421,42.19737],[27.8299,42.19707],[27.8283,42.19349],[27.83831,42.19329],[27.8367,42.18907],[27.84274,42.18928],[27.84561,42.18438],[27.84281,42.18158],[27.85243,42.17868],[27.85016,42.17639],[27.85252,42.17252],[27.85979,42.17375],[27.85871,42.17055],[27.85214,42.1697],[27.85209,42.16585],[27.86566,42.16164],[27.86545,42.15882],[27.86889,42.1579],[27.87461,42.16029],[27.8783,42.15282],[27.87686,42.14821],[27.89558,42.14293],[27.89892,42.13482],[27.90271,42.13492],[27.90349,42.12901],[27.91054,42.12767],[27.91342,42.1238],[27.91324,42.11148],[27.92536,42.10304],[27.9371,42.10474],[27.94395,42.10186],[27.94407,42.0984],[27.95314,42.09421],[27.95611,42.08521],[27.96329,42.08181],[27.96254,42.07732],[27.96699,42.07587],[27.96914,42.06995],[27.97579,42.0654],[27.9892,42.06349],[27.99119,42.05885],[27.98702,42.05645],[27.99254,42.04614],[28.00332,42.04194],[28.00271,42.03552],[28.0148,42.0272],[28.01075,42.02185],[28.0171,42.02025],[28.01729,42.01063],[28.03269,41.9947],[28.03509,41.98339],[28.00915,41.97883],[27.99248,41.98065],[27.97901,41.98887],[27.9749,41.98829],[27.97614,41.98439],[27.95738,41.97623],[27.95356,41.98172],[27.94375,41.97747],[27.93185,41.98357],[27.93223,41.98042],[27.9258,41.97602],[27.92322,41.98223],[27.91558,41.97303],[27.90881,41.97401],[27.89954,41.98254],[27.90021,41.99152],[27.89757,41.99339],[27.87903,41.99458],[27.87689,42.0001],[27.86909,41.99951],[27.86416,42.00629],[27.85948,42.00534],[27.85803,42.00029],[27.86142,41.99618],[27.85393,41.99084],[27.85188,41.99662],[27.85715,41.99773],[27.8553,42.0016],[27.85153,42.00169],[27.84837,41.9934],[27.84221,41.99082],[27.83165,41.99863],[27.82068,41.99163],[27.8179,41.98623],[27.81835,41.9756],[27.82548,41.97374],[27.81986,41.96249],[27.8264,41.95901],[27.83253,41.96188],[27.83714,41.95343],[27.83575,41.94769],[27.82471,41.94842],[27.81887,41.95418],[27.81385,41.95429],[27.81297,41.95043],[27.81717,41.94498],[27.81452,41.94247],[27.80069,41.95246],[27.79191,41.94828],[27.79216,41.95272],[27.78867,41.95458],[27.77886,41.95354],[27.78622,41.96137],[27.78477,41.96365],[27.77499,41.96562],[27.77329,41.96032],[27.76978,41.96004],[27.76759,41.96741],[27.74631,41.97005],[27.7486,41.97254],[27.73676,41.98002],[27.73367,41.97367],[27.69775,41.97826],[27.69521,41.97612],[27.70311,41.97538],[27.7041,41.97078],[27.69809,41.97403],[27.68405,41.97162],[27.68187,41.96461],[27.67372,41.9633],[27.67281,41.95648],[27.66972,41.9569],[27.6712,41.96032],[27.66584,41.96175],[27.65847,41.95682],[27.65886,41.95999],[27.65242,41.96229],[27.64326,41.95427],[27.63891,41.95513],[27.63943,41.9582],[27.63532,41.95493],[27.62004,41.95791],[27.6201,41.95537],[27.62974,41.95142],[27.62309,41.9509],[27.62495,41.94805],[27.61467,41.93958],[27.60788,41.93948],[27.60906,41.94549],[27.60252,41.94736],[27.59685,41.93769],[27.58849,41.93181],[27.58489,41.93577],[27.57377,41.93684],[27.57446,41.93312],[27.57112,41.93238],[27.5663,41.92334],[27.57293,41.92402],[27.57667,41.92045],[27.56485,41.91931],[27.5614,41.91583],[27.56297,41.91213],[27.57221,41.91135],[27.57139,41.90448],[27.56046,41.90483],[27.55507,41.9111],[27.54108,41.9162],[27.53194,41.92709],[27.52965,41.93654],[27.51092,41.95861],[27.50664,41.95924],[27.50414,41.95453],[27.48963,41.95253],[27.46754,41.95877],[27.469,41.96283],[27.46287,41.96896],[27.449,41.96641],[27.44633,41.97378],[27.44056,41.97471],[27.43453,41.98342],[27.43281,41.99125],[27.42092,41.98844],[27.41392,41.99429],[27.41258,41.99991],[27.40324,42.00492],[27.39532,42.0051],[27.39192,42.01851],[27.38237,42.02414],[27.38168,42.03461],[27.37468,42.04159],[27.37698,42.04556],[27.36468,42.05798],[27.35245,42.06095],[27.33558,42.05983],[27.33545,42.06747],[27.32654,42.07209],[27.32627,42.08006],[27.31671,42.0785],[27.31303,42.08602],[27.29952,42.08759],[27.29372,42.09712],[27.28308,42.095],[27.27213,42.09786],[27.27069,42.10433],[27.25243,42.09873],[27.24068,42.10475],[27.23081,42.09924],[27.22176,42.09848],[27.21666,42.08544],[27.20156,42.08242],[27.1982,42.07355],[27.20299,42.07079],[27.20702,42.06097],[27.20103,42.05942],[27.185,42.06396],[27.18378,42.07006],[27.16372,42.06464],[27.15285,42.07209],[27.13553,42.06592],[27.12946,42.06821],[27.12581,42.07675],[27.11376,42.08018],[27.10931,42.0868],[27.08166,42.08755],[27.06605,42.0932],[27.05042,42.08376],[27.04224,42.0848],[27.03053,42.07913],[27.0245,42.08133],[27.02297,42.06729],[27.02856,42.06091],[27.02588,42.05579],[27.02227,42.05539],[27.00762,42.03866],[26.98218,42.03775],[26.98067,42.02714],[26.98502,42.01995],[26.97181,42.00889],[26.9659,41.99716],[26.93159,42.00223],[26.92391,41.99876],[26.92114,41.99392],[26.91476,41.99494],[26.90193,41.98605],[26.87258,41.9906],[26.84781,41.98037],[26.84716,41.96983],[26.83294,41.96924],[26.82873,41.97379],[26.81678,41.97346],[26.79401,41.98422],[26.79069,41.99008],[26.78714,41.98959],[26.77886,41.97894],[26.77262,41.97913],[26.76324,41.96946],[26.75911,41.97027],[26.75391,41.9587],[26.7502,41.95844],[26.72912,41.96088],[26.71416,41.96838],[26.70357,41.96523],[26.67392,41.96929],[26.66822,41.96467],[26.62362,41.97963],[26.61853,41.96566],[26.58655,41.94773],[26.56116,41.92559],[26.57023,41.91288],[26.58432,41.9035],[26.5774,41.89761],[26.57684,41.893],[26.56715,41.88669],[26.5707,41.88035],[26.5783,41.87871],[26.58106,41.87416],[26.57761,41.86961],[26.56855,41.86921],[26.56406,41.86465],[26.56497,41.8549],[26.55251,41.84825],[26.53866,41.82356],[26.36903,41.82071],[26.34198,41.77949],[26.32976,41.75172],[26.3295,41.73568],[26.35791,41.71121],[26.33226,41.71616],[26.31528,41.71003],[26.28595,41.71126],[26.24931,41.72338],[26.23122,41.74026],[26.21359,41.73254],[26.20163,41.73431],[26.18021,41.74063],[26.17495,41.74895],[26.1215,41.73064],[26.11361,41.7141],[26.08084,41.71516],[26.07053,41.70965],[26.06776,41.69849],[26.06102,41.69864],[26.06313,41.6939],[26.06039,41.68864],[26.06596,41.68374],[26.06877,41.67239],[26.06425,41.66247],[26.07065,41.65515],[26.06964,41.65165],[26.08197,41.64144],[26.09076,41.64199],[26.09153,41.6317],[26.09517,41.62676],[26.12122,41.6247],[26.12323,41.63123],[26.13857,41.63183],[26.13838,41.61357],[26.15398,41.60553],[26.15001,41.59623],[26.14747,41.55377],[26.16776,41.55158],[26.17695,41.55431],[26.18177,41.5409],[26.18391,41.5169],[26.17944,41.51554],[26.17181,41.50307],[26.17395,41.50137],[26.17186,41.49384],[26.15355,41.48659],[26.15286,41.48386],[26.1552,41.47392],[26.17439,41.46412],[26.20125,41.43839],[26.19597,41.43556],[26.18708,41.438],[26.1836,41.43454],[26.17571,41.43399],[26.16483,41.42166],[26.15954,41.42102],[26.16394,41.41317],[26.16388,41.40553],[26.15661,41.39784],[26.15933,41.39338],[26.15776,41.38981],[26.15046,41.3856],[26.14864,41.37787],[26.13886,41.3763],[26.13536,41.36845],[26.13706,41.36374],[26.13247,41.35487],[26.12811,41.35332],[26.12066,41.3564],[26.11383,41.35308],[26.10692,41.35764],[26.09999,41.35297],[26.09797,41.35617],[26.09129,41.34679],[26.08065,41.34531],[26.06737,41.35027],[26.05309,41.34662],[26.03641,41.3504],[26.03042,41.34624],[26.01052,41.34462],[26.0034,41.33823],[25.99954,41.32646],[25.99062,41.32629],[25.97771,41.31884],[25.93588,41.32097],[25.93012,41.31546],[25.90355,41.30636],[25.88441,41.30432],[25.8686,41.31345],[25.87287,41.32821],[25.8543,41.32756],[25.84602,41.3375],[25.82203,41.34808],[25.81725,41.33715],[25.78926,41.33287],[25.78107,41.32091],[25.7693,41.31958],[25.76378,41.32439],[25.74787,41.31642],[25.73985,41.31883],[25.71855,41.3167],[25.71494,41.30435],[25.71169,41.30234],[25.71472,41.29333],[25.7115,41.29103],[25.70196,41.29253],[25.69477,41.30136],[25.68399,41.30547],[25.66449,41.30884],[25.65803,41.31463],[25.63779,41.31159],[25.62368,41.30359],[25.61439,41.30379],[25.58499,41.31025],[25.58578,41.31354],[25.57387,41.31862],[25.56043,41.31887],[25.54514,41.31031],[25.54338,41.3015],[25.53519,41.29213],[25.5317,41.27788],[25.52536,41.27631],[25.51796,41.28306],[25.50137,41.28679],[25.47484,41.28863],[25.46971,41.28258],[25.46095,41.28339],[25.44224,41.27568],[25.43141,41.275],[25.42872,41.26449],[25.41748,41.2665],[25.41095,41.262],[25.40349,41.26265],[25.38586,41.25618],[25.36667,41.2599],[25.35725,41.25076],[25.34157,41.24782],[25.33561,41.24081],[25.29521,41.24478],[25.2887,41.23595],[25.28146,41.23609],[25.26672,41.24392],[25.23936,41.24525],[25.23199,41.24909],[25.23402,41.25475],[25.22345,41.26494],[25.22593,41.26948],[25.22334,41.27838],[25.21524,41.28311],[25.20913,41.29191],[25.18331,41.29842],[25.17885,41.3027],[25.18191,41.30798],[25.17942,41.31025],[25.17018,41.31327],[25.16347,41.31174],[25.16101,41.31789],[25.15696,41.31875],[25.1525,41.31513],[25.14501,41.32308],[25.13219,41.32342],[25.12226,41.33498],[25.1259,41.34233],[25.11103,41.34251],[25.09804,41.33414],[25.09169,41.33972],[25.08264,41.33856],[25.0658,41.35256],[25.06382,41.36036],[25.05656,41.36242],[25.0558,41.36567],[25.03053,41.36643],[24.98927,41.37696],[24.98088,41.37605],[24.95706,41.38675],[24.94125,41.38639],[24.92068,41.4022],[24.91701,41.4084],[24.89865,41.40777],[24.88554,41.39919],[24.88169,41.39229],[24.8747,41.39377],[24.87118,41.39101],[24.86212,41.39261],[24.85375,41.39925],[24.81928,41.40121],[24.82202,41.38412],[24.81443,41.37051],[24.81612,41.35396],[24.80411,41.34587],[24.7902,41.35843],[24.77026,41.36453],[24.76074,41.37155],[24.76201,41.37598],[24.74704,41.38036],[24.74613,41.38633],[24.74188,41.38853],[24.74385,41.39102],[24.73625,41.39768],[24.73611,41.41076],[24.73064,41.41625],[24.70905,41.42118],[24.69288,41.41856],[24.68937,41.42317],[24.68115,41.4251],[24.67313,41.4174],[24.66188,41.41898],[24.66033,41.41605],[24.65609,41.41882],[24.65987,41.42075],[24.65889,41.42652],[24.66425,41.43244],[24.65715,41.43531],[24.64161,41.43071],[24.62811,41.43189],[24.61437,41.42386],[24.59787,41.44034],[24.59575,41.4481],[24.59951,41.45604],[24.59457,41.46736],[24.57271,41.47492],[24.56882,41.49136],[24.5589,41.50223],[24.56366,41.51406],[24.55552,41.52466],[24.55775,41.52646],[24.55601,41.53089],[24.54613,41.5394],[24.55366,41.54897],[24.54429,41.55797],[24.53405,41.55833],[24.53501,41.56525],[24.52458,41.56857],[24.5099,41.55849],[24.49955,41.55876],[24.4974,41.55519],[24.4838,41.55783],[24.48395,41.55449],[24.47301,41.55067],[24.47014,41.54535],[24.46478,41.54536],[24.46088,41.53865],[24.46318,41.52896],[24.45022,41.5218],[24.43776,41.52776],[24.41529,41.5287],[24.41162,41.531],[24.41089,41.53812],[24.40653,41.54018],[24.3836,41.53473],[24.3685,41.5219],[24.36995,41.5183],[24.3615,41.51689],[24.34894,41.52536],[24.33746,41.52613],[24.33152,41.52042],[24.31828,41.5184],[24.31472,41.51338],[24.30518,41.51079],[24.29886,41.51838],[24.30024,41.52395],[24.29532,41.52479],[24.30334,41.53792],[24.28744,41.55154],[24.27043,41.55925],[24.27579,41.56731],[24.26059,41.5728],[24.24062,41.56238],[24.23791,41.55425],[24.22924,41.5469],[24.21257,41.55235],[24.20874,41.54888],[24.2096,41.54348],[24.19788,41.53943],[24.19514,41.53255],[24.18948,41.53165],[24.19389,41.52033],[24.18707,41.51548],[24.17286,41.51642],[24.17469,41.52333],[24.16298,41.5277],[24.16072,41.53603],[24.154,41.53878],[24.13373,41.53336],[24.13197,41.54113],[24.11644,41.53994],[24.10746,41.54251],[24.10338,41.55005],[24.07733,41.54164],[24.07573,41.53176],[24.06373,41.52689],[24.0594,41.51938],[24.06142,41.51637],[24.05927,41.51212],[24.06733,41.50039],[24.06023,41.48463],[24.06868,41.48253],[24.07393,41.46846],[24.07273,41.46486],[24.05703,41.46084],[24.04743,41.45109],[24.04028,41.45153],[24.03648,41.45617],[24.02341,41.45582],[24.02045,41.45943],[24.0214,41.46469],[24.0168,41.46794],[24.00867,41.45686],[24.00257,41.45358],[23.99557,41.45444],[23.99519,41.44971],[23.98504,41.44637],[23.98196,41.44084],[23.96607,41.43937],[23.95267,41.44936],[23.94332,41.45059],[23.94172,41.46175],[23.93457,41.46305],[23.93292,41.47118],[23.91559,41.4818],[23.9093,41.47876],[23.90823,41.47357],[23.91081,41.47082],[23.90762,41.45896],[23.88996,41.45025],[23.88206,41.4539],[23.86887,41.44868],[23.85726,41.44988],[23.85015,41.43982],[23.84412,41.44179],[23.83248,41.43739],[23.80118,41.43756],[23.78977,41.4246],[23.78784,41.41643],[23.78087,41.4134],[23.77515,41.40338],[23.76683,41.39664],[23.7619,41.39789],[23.7589,41.40272],[23.73024,41.40786],[23.69106,41.40453],[23.67409,41.41069],[23.66137,41.39979],[23.64789,41.39428],[23.64761,41.38135],[23.63867,41.37596],[23.61615,41.37561],[23.60636,41.37986],[23.59691,41.37789],[23.58376,41.389],[23.57741,41.39063],[23.55195,41.38628],[23.53724,41.39396],[23.53398,41.40236],[23.52517,41.40514],[23.48478,41.39881],[23.43832,41.40631],[23.42026,41.39849],[23.40473,41.40164],[23.39517,41.3915],[23.39094,41.39277],[23.37573,41.38124],[23.36223,41.37883],[23.34929,41.36614],[23.34054,41.36355],[23.32226,41.39967],[23.28189,41.39986],[23.25648,41.38205],[23.23271,41.37638],[23.22614,41.36588],[23.23155,41.34956],[23.22026,41.33276],[23.1994,41.32238],[23.18899,41.32264],[23.18087,41.31857],[23.16184,41.3224],[23.09536,41.31724],[23.05891,41.32403],[23.02802,41.33402],[23.02099,41.3304],[23.00455,41.32968],[22.98256,41.33551],[22.97585,41.33259],[22.93312,41.34003],[22.92729,41.33855],[22.9281,41.34129],[22.93853,41.34187],[22.94815,41.35064],[22.96555,41.35347],[22.96217,41.37867],[22.96605,41.39658],[22.96063,41.40931],[22.9526,41.41754],[22.964,41.43153],[22.96907,41.43071],[22.97939,41.44691],[22.964,41.46501],[22.96777,41.47442],[22.96112,41.47701],[22.96064,41.49205],[22.95749,41.49368],[22.96799,41.50305],[22.97124,41.51584],[22.95867,41.5349],[22.96069,41.54108],[22.97049,41.54371],[22.96913,41.55359],[22.97309,41.55993],[22.9665,41.56838],[22.96624,41.57775],[22.96096,41.58456],[22.95185,41.58828],[22.94984,41.59887],[22.95456,41.6185],[22.95294,41.62753],[22.9487,41.63159],[22.95206,41.64251],[22.95819,41.64381],[22.95884,41.64679],[22.98358,41.64665],[22.98497,41.65188],[22.98187,41.65573],[22.99008,41.6631],[22.9953,41.67433],[23.00777,41.68214],[23.02296,41.70289],[23.02702,41.70283],[23.03345,41.70873],[23.03149,41.71918],[23.03367,41.72251],[23.0216,41.74769],[23.01553,41.75007],[23.01612,41.75615],[23.00844,41.76835],[23.00024,41.76974],[22.99607,41.76699],[22.98865,41.77134],[22.98254,41.76918],[22.96487,41.77296],[22.96462,41.78927],[22.95556,41.79426],[22.94053,41.81736],[22.94368,41.82799],[22.93612,41.84166],[22.93717,41.84704],[22.93159,41.85009],[22.92722,41.863],[22.91575,41.87636],[22.90159,41.87755],[22.90123,41.89267],[22.89686,41.89802],[22.89934,41.90417],[22.89372,41.9102],[22.89091,41.91999],[22.88463,41.92087],[22.87372,41.93586],[22.87743,41.94056],[22.87386,41.95541],[22.87829,41.97606],[22.87442,41.97816],[22.87562,41.99589],[22.86391,42.0017],[22.87025,42.01044],[22.86658,42.02242],[22.85221,42.0254],[22.82726,42.02165],[22.81467,42.02869],[22.80498,42.0388],[22.80458,42.04312],[22.79915,42.04575],[22.79245,42.038],[22.77916,42.03685],[22.75021,42.04696],[22.74217,42.04456],[22.73131,42.05058],[22.72795,42.0584],[22.71796,42.06436],[22.71698,42.0684],[22.69834,42.06355],[22.68012,42.06348],[22.65096,42.07649],[22.63059,42.09373],[22.59977,42.09807],[22.59015,42.10987],[22.57686,42.11204],[22.5472,42.13487],[22.52918,42.13903],[22.52395,42.1471],[22.51264,42.15274],[22.51136,42.15585],[22.51594,42.15814],[22.50561,42.17001],[22.50108,42.187],[22.50394,42.19341],[22.4861,42.20129],[22.47065,42.20172],[22.4483,42.23712],[22.45001,42.24254],[22.43919,42.24838],[22.43977,42.25246],[22.43364,42.25796],[22.42485,42.25622],[22.42396,42.26423],[22.41522,42.26697],[22.39933,42.28511],[22.4019,42.28988],[22.38934,42.29466],[22.3785,42.30883],[22.37282,42.30734],[22.35981,42.31174],[22.3664,42.32099],[22.40019,42.32615],[22.40414,42.33245],[22.41565,42.3293],[22.42501,42.3318],[22.43227,42.32304],[22.4555,42.33363],[22.46322,42.34511],[22.45935,42.3612],[22.46851,42.37126],[22.46913,42.37597],[22.48065,42.38033],[22.47779,42.39358],[22.509,42.39719],[22.51365,42.39485],[22.5211,42.39782],[22.52293,42.41261],[22.53529,42.42126],[22.53551,42.43147],[22.54399,42.44888],[22.54053,42.45412],[22.54409,42.46379],[22.55916,42.47994],[22.54766,42.50688],[22.52394,42.52547],[22.51359,42.52702],[22.50125,42.53427],[22.48789,42.5498],[22.47688,42.55427],[22.47082,42.56207],[22.4514,42.56695],[22.44142,42.56597],[22.43784,42.57214],[22.4417,42.58962],[22.4488,42.59547],[22.4514,42.6121],[22.45857,42.62205],[22.45836,42.6312],[22.46488,42.63254],[22.46708,42.64097],[22.45405,42.64648],[22.46097,42.64812],[22.4587,42.65511],[22.47266,42.66699],[22.47592,42.67582],[22.4696,42.68201],[22.46017,42.68377],[22.45842,42.68885],[22.47191,42.69493],[22.47409,42.70671],[22.48624,42.72147],[22.49658,42.72268],[22.49629,42.73271],[22.50135,42.73958],[22.49933,42.74389],[22.48717,42.74877],[22.47573,42.76398],[22.47627,42.76722],[22.46004,42.77793],[22.45568,42.79393],[22.4494,42.79578],[22.44873,42.80263],[22.44087,42.80579],[22.43976,42.82355],[22.46609,42.83339],[22.4752,42.83185],[22.49032,42.84372],[22.50689,42.85045],[22.51625,42.8581],[22.51548,42.86845],[22.52047,42.87569],[22.52762,42.87644],[22.53603,42.88213],[22.57438,42.86373],[22.57257,42.87581],[22.58428,42.89208],[22.59214,42.89075],[22.59618,42.89421],[22.6031,42.89206],[22.6194,42.89608],[22.64029,42.87799],[22.65665,42.88306],[22.67367,42.87597],[22.67436,42.86865],[22.67825,42.86545],[22.68229,42.86838],[22.68169,42.87202],[22.69555,42.87876],[22.69561,42.88358],[22.70168,42.88433],[22.70522,42.87941],[22.71384,42.88654],[22.74457,42.88605],[22.7542,42.89468],[22.75298,42.89929],[22.75817,42.90136],[22.76174,42.90703],[22.76057,42.91109],[22.76813,42.91793],[22.77247,42.91758],[22.77773,42.92534],[22.77966,42.93198],[22.77216,42.93581],[22.76921,42.94919],[22.77805,42.95046],[22.78445,42.95755],[22.78293,42.96448],[22.78621,42.96684],[22.78397,42.97359],[22.78599,42.97571],[22.78384,42.98109],[22.84937,43.00469],[22.86251,43.02143],[22.89839,43.03619],[22.89959,43.04761],[22.91113,43.05906],[22.91852,43.08017],[22.93142,43.08744],[22.95265,43.09239],[22.98321,43.11121],[22.98516,43.12205],[22.99225,43.12882],[22.99554,43.13953],[22.99367,43.15057],[22.9974,43.15583],[22.98643,43.16717],[23.00636,43.18714],[23.00557,43.1918],[22.98322,43.20252],[22.9611,43.20693],[22.94157,43.20259],[22.92026,43.21855],[22.8963,43.22725],[22.89666,43.2307],[22.88806,43.23579],[22.88272,43.2449],[22.87048,43.25464],[22.86888,43.26739],[22.85908,43.27426],[22.84832,43.27603],[22.84237,43.28635],[22.84504,43.29706],[22.83743,43.30261],[22.83127,43.31311],[22.82775,43.32901],[22.79451,43.34302],[22.78946,43.35169],[22.76995,43.36362],[22.76788,43.37664],[22.72253,43.39561],[22.67848,43.39471],[22.6672,43.4025],[22.66647,43.41275],[22.65949,43.42282],[22.66122,43.42593],[22.63884,43.43335],[22.62833,43.42814],[22.59769,43.43566],[22.59143,43.44042],[22.58631,43.45311],[22.57591,43.46379],[22.55399,43.4616],[22.53342,43.47124],[22.53271,43.47913],[22.52468,43.48576],[22.52406,43.49665],[22.50655,43.51628],[22.50204,43.52845],[22.5028,43.54126],[22.49008,43.55584],[22.48767,43.56867],[22.49658,43.58353],[22.4893,43.58738],[22.48701,43.59229],[22.49354,43.60014],[22.48895,43.61689],[22.48187,43.62551],[22.49159,43.63393],[22.49182,43.63918],[22.47653,43.65756],[22.46024,43.6588],[22.45149,43.66335],[22.4398,43.67378],[22.42048,43.68151],[22.42171,43.68376],[22.40788,43.69586],[22.40461,43.7168],[22.39426,43.73036],[22.39986,43.73795],[22.39916,43.75434],[22.40263,43.75882],[22.39528,43.75927],[22.37746,43.77519],[22.35716,43.81285],[22.35947,43.82008],[22.36604,43.82532],[22.37789,43.84412],[22.38869,43.87885],[22.3896,43.89565],[22.39443,43.90779],[22.38849,43.92671],[22.40889,43.93972],[22.40637,43.94789],[22.4115,43.95484],[22.41322,43.97225],[22.41217,43.97992],[22.40826,43.98164],[22.40893,43.98721],[22.4173,43.99239],[22.40919,43.99726],[22.412,43.9999],[22.40946,44.00424],[22.44107,44.01014],[22.44238,44.01655],[22.4679,44.01504],[22.48435,44.02023],[22.52746,44.01958],[22.53305,44.02499],[22.53874,44.02566],[22.54349,44.03344],[22.53831,44.0384],[22.54197,44.04231],[22.53123,44.04819],[22.53277,44.05089],[22.55481,44.05363],[22.55986,44.05749],[22.58087,44.05407],[22.5822,44.06172],[22.62111,44.06328],[22.61914,44.06869],[22.6246,44.07299],[22.61579,44.0789],[22.61997,44.08239],[22.61985,44.09772],[22.61031,44.10732],[22.62039,44.15058],[22.62517,44.14727],[22.62814,44.15584],[22.62226,44.16272],[22.61684,44.16135],[22.61634,44.16979],[22.6183,44.1728],[22.62161,44.17385],[22.62416,44.17078],[22.63633,44.17631],[22.62905,44.18284],[22.63658,44.18154],[22.6433,44.18662],[22.63708,44.19178],[22.64131,44.19259],[22.64563,44.1986],[22.64531,44.20907],[22.65527,44.20471],[22.66439,44.21384],[22.66709,44.21223],[22.6758,44.21583],[22.69248,44.20477],[22.72954,44.20222],[22.75119,44.19582],[22.80937,44.1556],[22.8644,44.13752],[22.89629,44.11377],[22.92265,44.10267],[22.99402,44.09654],[23.02184,44.08851],[23.04018,44.0766],[23.0454,44.06129],[23.03525,44.03963],[23.00709,44.0124],[22.93834,44.00338],[22.88637,43.98712],[22.87686,43.97431],[22.86235,43.93752],[22.85994,43.92302],[22.83777,43.8838],[22.84128,43.86815],[22.84921,43.85591],[22.87011,43.83675],[22.93797,43.82083],[22.97267,43.80756],[22.99646,43.80762],[23.05907,43.7955],[23.10718,43.80322],[23.13295,43.80376],[23.2109,43.83308],[23.24755,43.83936],[23.26973,43.84742],[23.32982,43.8505],[23.3729,43.84741],[23.42329,43.85363],[23.46419,43.83964],[23.48572,43.83659],[23.49542,43.83937],[23.50899,43.83809],[23.55222,43.81302],[23.5944,43.80192],[23.60894,43.79198],[23.62907,43.7904],[23.67497,43.80149],[23.69779,43.80376],[23.72519,43.80515],[23.74728,43.80238],[23.76813,43.78439],[23.81204,43.77402],[23.856,43.7567],[23.89452,43.74852],[23.96768,43.74412],[23.98579,43.74024],[24.06125,43.71866],[24.08664,43.70217],[24.13233,43.69516],[24.1656,43.68429],[24.19534,43.68225],[24.30919,43.70021],[24.34521,43.69674],[24.38148,43.71353],[24.38291,43.71945],[24.40433,43.73486],[24.4555,43.74458],[24.50972,43.76478],[24.53373,43.75866],[24.58878,43.75142],[24.62415,43.74248],[24.70302,43.69464],[24.73523,43.68516],[24.75295,43.68718],[24.79742,43.70819],[24.81884,43.71348],[24.85773,43.70588],[24.88172,43.70736],[24.91531,43.71505],[24.91504,43.71953],[24.935,43.72751],[24.95999,43.73099],[25.00298,43.7246],[25.05291,43.69352],[25.10334,43.68439],[25.16707,43.69779],[25.18723,43.69843],[25.20955,43.69055],[25.24973,43.68359],[25.29015,43.65537],[25.31652,43.64654],[25.34123,43.63138],[25.38728,43.61909],[25.44656,43.62814],[25.46771,43.6387],[25.50912,43.64675],[25.54536,43.64084],[25.56002,43.64132],[25.61092,43.66755],[25.66073,43.68573],[25.68518,43.69155],[25.72707,43.69104],[25.75474,43.69993],[25.7577,43.69656],[25.78451,43.70888],[25.79591,43.71682],[25.80728,43.73789],[25.85108,43.75455],[25.86566,43.7649],[25.86474,43.76755],[25.88318,43.78213],[25.88234,43.78537],[25.89085,43.79829],[25.91392,43.81719],[25.92637,43.83788],[25.94925,43.85673],[25.97442,43.86875],[26.0003,43.88656],[26.05159,43.9041],[26.06547,43.9163],[26.08061,43.93804],[26.08059,43.94432],[26.09893,43.96179],[26.11014,43.97013],[26.1487,43.98575],[26.16451,43.98808],[26.20144,43.98577],[26.27635,44.00889],[26.27594,44.01135],[26.30007,44.02449],[26.38013,44.04199],[26.44131,44.03495],[26.5274,44.0536],[26.60102,44.05308],[26.66092,44.06247],[26.68253,44.07244],[26.70444,44.07685],[26.73659,44.07426],[26.7617,44.078],[26.78476,44.08496],[26.85635,44.11728],[26.88235,44.12312],[26.90834,44.1337],[26.97601,44.13597],[26.98951,44.13328],[27.02119,44.14198],[27.04482,44.14448],[27.05816,44.13706],[27.08652,44.13353],[27.11759,44.13908],[27.13707,44.1387],[27.16842,44.13133],[27.18412,44.11935],[27.22581,44.11569],[27.24417,44.11771],[27.27597,44.12861],[27.27673,44.11517],[27.28351,44.10881],[27.27625,44.10354],[27.27821,44.09634],[27.29066,44.08301],[27.29115,44.07511],[27.35622,44.05878],[27.37099,44.03881],[27.39939,44.01227],[27.46897,44.02254],[27.61205,44.01219],[27.64354,44.04796],[27.67366,44.02977],[27.71,43.95931],[27.73448,43.95351],[27.75435,43.95829],[27.84354,43.96632],[27.91684,44.00826],[27.94431,43.98477],[27.9542,43.94011],[27.97635,43.90087],[27.99427,43.84295],[28.11592,43.79722],[28.23614,43.7585],[28.34851,43.75217],[28.44558,43.73378],[28.57859,43.73871],[28.57215,43.72375],[28.57776,43.70828],[28.57631,43.70034],[28.5663,43.69625],[28.56268,43.68642],[28.56784,43.65376],[28.57869,43.63616],[28.57213,43.62829],[28.57363,43.61801],[28.57021,43.61575],[28.56755,43.60167],[28.57416,43.58413],[28.60229,43.55346],[28.60745,43.54196],[28.60154,43.51857],[28.58803,43.50079],[28.58527,43.4898],[28.56313,43.4647],[28.55458,43.44736],[28.52932,43.42332],[28.49768,43.41091],[28.48206,43.39136],[28.46953,43.38254],[28.46619,43.36051],[28.45742,43.37602],[28.44874,43.38088],[28.41196,43.38826],[28.38735,43.40422],[28.35762,43.41266],[28.34879,43.41148],[28.32814,43.41673],[28.3081,43.41799],[28.28562,43.41247],[28.27384,43.41298],[28.25118,43.40669],[28.24829,43.40287],[28.23672,43.40479],[28.22252,43.39917],[28.18026,43.39782],[28.16422,43.40517],[28.14445,43.40242],[28.10958,43.38133],[28.09615,43.37813],[28.08508,43.36887],[28.0667,43.33388],[28.06866,43.32539],[28.05739,43.31369],[28.04812,43.29607],[28.04304,43.27636],[28.0285,43.24723],[28.01967,43.24423],[28.01606,43.23811],[28.01393,43.22606],[27.99606,43.21673],[27.9761,43.21934],[27.95844,43.21243],[27.94157,43.21026],[27.92781,43.20537],[27.92118,43.19605],[27.91119,43.19613],[27.909,43.19063],[27.90166,43.19236],[27.90037,43.18801],[27.91074,43.18946],[27.90856,43.18486],[27.89316,43.18678],[27.90993,43.18228],[27.91489,43.17403],[27.94589,43.17173],[27.94631,43.16505],[27.9399,43.1361],[27.9372,43.13074],[27.9312,43.12822],[27.92801,43.11439],[27.92533,43.11302],[27.92341,43.09928],[27.91341,43.07447],[27.91288,43.06241],[27.90771,43.05578],[27.9014,43.05532],[27.89797,43.0479],[27.88893,43.04027],[27.89152,42.98944],[27.90602,42.92901],[27.89716,42.92035],[27.89638,42.91471],[27.90208,42.88644],[27.89754,42.87416],[27.9023,42.85397],[27.89255,42.85482],[27.88515,42.84961],[27.88222,42.84222],[27.88457,42.82113],[27.90059,42.77198],[27.90033,42.76608],[27.89366,42.76229],[27.8888,42.75129],[27.90053,42.72014],[27.89973,42.70038],[27.89412,42.69773],[27.82219,42.70469],[27.80926,42.70093],[27.75994,42.70846],[27.73141,42.7089],[27.71948,42.70089],[27.71172,42.6763],[27.71491,42.66601],[27.72527,42.65979],[27.73642,42.66164],[27.74074,42.65917],[27.73182,42.65513],[27.72874,42.65925],[27.71794,42.65727],[27.70913,42.64706],[27.69945,42.65199],[27.69284,42.65165],[27.67634,42.63724],[27.66281,42.6395],[27.65408,42.63622],[27.64786,42.63908],[27.6345,42.62439],[27.63065,42.60491],[27.63384,42.57666],[27.6508,42.55449],[27.64523,42.5526],[27.63039,42.56205],[27.61931,42.56493],[27.6054,42.56295],[27.60138,42.55964],[27.58749,42.56467]]],[[[27.69046,42.43632],[27.68702,42.43827],[27.69051,42.44081],[27.69603,42.43872],[27.69046,42.43632]]]]}}]}