{"type":"FeatureCollection","features":[{"type":"Feature","properties":{"ISO_A3":"BHR","WB_A3":"BHR","WB_NAME":"Bahrain","WB_REGION":"MEA"},"geometry":{"type":"MultiPolygon","coordinates":[[[[50.80765,25.6623],[50.80025,25.67362],[50.80393,25.67954],[50.81131,25.68109],[50.81414,25.68702],[50.81472,25.68264],[50.82239,25.67879],[50.81843,25.67016],[50.80906,25.66668],[50.80765,25.6623]]],[[[50.79152,25.62895],[50.78625,25.63911],[50.78851,25.64349],[50.78325,25.65043],[50.81307,25.64944],[50.81818,25.64481],[50.8189,25.64173],[50.81167,25.63232],[50.8023,25.63476],[50.79152,25.62895]]],[[[50.73823,25.65859],[50.74512,25.68833],[50.77006,25.71887],[50.77971,25.72081],[50.78341,25.71773],[50.78794,25.72559],[50.80044,25.72805],[50.79675,25.7256],[50.79691,25.71402],[50.7904,25.70397],[50.78514,25.7028],[50.78062,25.69315],[50.78814,25.6947],[50.78943,25.68891],[50.79682,25.68622],[50.79682,25.68288],[50.79015,25.68004],[50.78887,25.68351],[50.77595,25.68336],[50.77497,25.67628],[50.77071,25.67447],[50.76829,25.67794],[50.7656,25.67331],[50.75921,25.67124],[50.75809,25.66686],[50.76351,25.65503],[50.7699,25.65221],[50.77346,25.64604],[50.77134,25.64153],[50.77532,25.64089],[50.76581,25.63625],[50.76229,25.62646],[50.76555,25.62389],[50.75805,25.61462],[50.77082,25.6185],[50.77466,25.61284],[50.76176,25.60356],[50.76263,25.59815],[50.75484,25.58862],[50.75556,25.58424],[50.76266,25.57924],[50.74903,25.58282],[50.74036,25.59039],[50.74006,25.59889],[50.74826,25.61125],[50.74962,25.6424],[50.74464,25.64921],[50.73981,25.6501],[50.73823,25.65859]]],[[[50.78382,25.65159],[50.7821,25.65596],[50.78692,25.6597],[50.79402,25.65945],[50.79488,25.65508],[50.78382,25.65159]]],[[[50.77796,25.74461],[50.78009,25.74796],[50.77682,25.75118],[50.77823,25.75452],[50.79159,25.7539],[50.78989,25.74785],[50.77796,25.74461]]],[[[50.77415,25.65788],[50.77045,25.66251],[50.77669,25.66715],[50.77968,25.66175],[50.77415,25.65788]]],[[[50.76942,25.75207],[50.76573,25.75412],[50.76743,25.75644],[50.77098,25.75516],[50.76942,25.75207]]],[[[50.76488,25.7491],[50.76005,25.75179],[50.76317,25.7536],[50.76488,25.7491]]],[[[50.65954,26.2483],[50.6589,26.23708],[50.66603,26.23722],[50.66721,26.22577],[50.69689,26.22443],[50.71995,26.18304],[50.71468,26.18123],[50.70666,26.19614],[50.7085,26.20103],[50.6969,26.21915],[50.68463,26.21912],[50.68407,26.21539],[50.67908,26.21512],[50.67954,26.20457],[50.68626,26.19481],[50.67929,26.19132],[50.67355,26.20199],[50.67497,26.20572],[50.67182,26.20751],[50.66214,26.20299],[50.66186,26.19964],[50.67315,26.19272],[50.67188,26.18706],[50.66533,26.18472],[50.65755,26.21018],[50.65083,26.21763],[50.65539,26.21867],[50.65266,26.22433],[50.63241,26.22286],[50.62245,26.21396],[50.6229,26.2083],[50.61449,26.20017],[50.58981,26.19422],[50.59161,26.18196],[50.59815,26.1746],[50.61084,26.1869],[50.62368,26.18642],[50.62975,26.16199],[50.62892,26.15427],[50.62508,26.15117],[50.62952,26.14513],[50.64945,26.15471],[50.65886,26.15383],[50.65714,26.15678],[50.66013,26.15769],[50.66541,26.15629],[50.67196,26.16004],[50.67168,26.15579],[50.64037,26.1386],[50.63894,26.14143],[50.63352,26.13987],[50.62997,26.136],[50.63298,26.13215],[50.63144,26.12391],[50.6383,26.11724],[50.63904,26.109],[50.63105,26.1113],[50.62365,26.1078],[50.61755,26.09968],[50.61913,26.093],[50.62897,26.09148],[50.62914,26.08453],[50.62344,26.08503],[50.62886,26.08221],[50.62887,26.07719],[50.62204,26.07679],[50.62405,26.06972],[50.61922,26.06778],[50.62085,26.04591],[50.63212,26.04027],[50.62574,26.03074],[50.62508,26.01452],[50.62879,26.01402],[50.6288,26.01016],[50.6251,26.01079],[50.62013,26.00396],[50.61666,25.97744],[50.61284,25.97074],[50.61138,25.93831],[50.61352,25.936],[50.60549,25.91076],[50.60991,25.90923],[50.60992,25.90639],[50.6056,25.87872],[50.59977,25.87703],[50.59572,25.85617],[50.59717,25.84781],[50.60655,25.84874],[50.60771,25.84308],[50.61581,25.84516],[50.60999,25.84141],[50.59448,25.84304],[50.59423,25.83326],[50.5901,25.83673],[50.58346,25.8232],[50.5683,25.80926],[50.56956,25.81415],[50.56827,25.81762],[50.56557,25.81671],[50.56449,25.80152],[50.55332,25.82465],[50.54665,25.85654],[50.52835,25.88248],[50.5163,25.90663],[50.50991,25.90403],[50.48847,25.9266],[50.46778,25.93863],[50.46235,25.94478],[50.45658,25.96046],[50.45396,25.97435],[50.45704,25.98491],[50.47148,26.00349],[50.47382,26.02241],[50.48525,26.04626],[50.4821,26.04882],[50.48169,26.0779],[50.47775,26.0977],[50.46472,26.11206],[50.45793,26.13275],[50.45337,26.13209],[50.45278,26.13685],[50.44808,26.13439],[50.44735,26.13902],[50.45375,26.14187],[50.44754,26.16012],[50.44694,26.16501],[50.45035,26.16888],[50.44834,26.17106],[50.42069,26.16748],[50.41857,26.13582],[50.42414,26.13378],[50.4219,26.12554],[50.42421,26.11963],[50.41464,26.12358],[50.39783,26.12093],[50.38442,26.1241],[50.38537,26.13233],[50.37816,26.14903],[50.3794,26.15701],[50.39672,26.17073],[50.37614,26.17952],[50.32794,26.18033],[50.31937,26.18248],[50.31625,26.18814],[50.33363,26.18267],[50.37643,26.18003],[50.39501,26.17188],[50.39869,26.17627],[50.4047,26.17217],[50.4056,26.19109],[50.39716,26.19569],[50.40315,26.19597],[50.40974,26.19124],[50.40619,26.18852],[50.40641,26.17308],[50.41467,26.17402],[50.4191,26.17236],[50.42012,26.16812],[50.44691,26.17144],[50.45086,26.18046],[50.45357,26.18047],[50.4552,26.19927],[50.44647,26.20515],[50.44513,26.21544],[50.45922,26.22399],[50.46005,26.22913],[50.48627,26.23502],[50.52137,26.23476],[50.53446,26.24458],[50.53558,26.24844],[50.53958,26.24807],[50.53988,26.24382],[50.54475,26.24114],[50.55703,26.23847],[50.55762,26.23359],[50.56145,26.23823],[50.56213,26.24698],[50.57842,26.24008],[50.58697,26.24397],[50.5959,26.25943],[50.59219,26.26097],[50.59185,26.27486],[50.58541,26.28243],[50.58084,26.28268],[50.58267,26.28744],[50.57824,26.29052],[50.57947,26.29344],[50.58951,26.29184],[50.59425,26.28323],[50.60739,26.27979],[50.61823,26.2842],[50.6202,26.29128],[50.62221,26.28755],[50.62964,26.28667],[50.63677,26.28708],[50.63848,26.29043],[50.64077,26.28631],[50.65936,26.27581],[50.66135,26.27736],[50.65391,26.28274],[50.65867,26.28336],[50.6569,26.28635],[50.65974,26.29254],[50.65687,26.29819],[50.66328,26.30142],[50.67481,26.29806],[50.67802,26.28769],[50.67518,26.28357],[50.66505,26.282],[50.6642,26.27839],[50.66934,26.27879],[50.66992,26.27519],[50.6605,26.2753],[50.6628,26.27016],[50.65954,26.2483]]],[[[50.65307,26.18187],[50.64992,26.18597],[50.65534,26.18573],[50.65307,26.18187]]],[[[50.48525,26.40203],[50.48282,26.40343],[50.48552,26.40602],[50.48525,26.40203]]],[[[50.43682,26.19405],[50.43536,26.20202],[50.43779,26.19971],[50.43682,26.19405]]]]}}]}