{"type":"FeatureCollection","features":[{"type":"Feature","properties":{"ISO_A3":"BIH","WB_A3":"BIH","WB_NAME":"Bosnia and Herzegovina","WB_REGION":"ECS"},"geometry":{"type":"MultiPolygon","coordinates":[[[[18.33169,42.61879],[18.31101,42.6148],[18.28169,42.61722],[18.27476,42.61007],[18.24407,42.6027],[18.24088,42.61599],[18.23467,42.61487],[18.23402,42.61813],[18.22172,42.62292],[18.19206,42.65475],[18.17844,42.66075],[18.15704,42.65473],[18.14333,42.67929],[18.10284,42.6867],[18.10883,42.70432],[18.10563,42.71216],[18.09836,42.71715],[18.07405,42.725],[18.07357,42.72807],[18.04156,42.74827],[18.01031,42.75257],[17.99698,42.76504],[17.99629,42.77617],[17.97456,42.78042],[17.95017,42.79898],[17.90969,42.81072],[17.89127,42.80977],[17.88749,42.81471],[17.90022,42.83248],[17.87868,42.83749],[17.87017,42.84659],[17.85663,42.8685],[17.85432,42.87892],[17.85878,42.88463],[17.85726,42.88763],[17.84446,42.90235],[17.82869,42.9101],[17.81011,42.91716],[17.79133,42.89166],[17.78588,42.89175],[17.76487,42.90802],[17.75135,42.913],[17.68875,42.92275],[17.67797,42.92042],[17.64911,42.88888],[17.63549,42.90097],[17.62541,42.9021],[17.55988,42.92963],[17.55964,42.93233],[17.56858,42.92892],[17.57389,42.93047],[17.60094,42.91767],[17.62414,42.91316],[17.60803,42.92854],[17.6007,42.92858],[17.5812,42.93835],[17.61324,42.94169],[17.62997,42.94716],[17.65021,42.95889],[17.68999,42.9652],[17.71209,42.97301],[17.70217,42.9848],[17.68309,43.02062],[17.66902,43.03578],[17.66885,43.04139],[17.64129,43.08871],[17.58015,43.11903],[17.47506,43.16151],[17.45065,43.17715],[17.43793,43.18035],[17.43151,43.17859],[17.42702,43.18877],[17.4327,43.20428],[17.42343,43.22897],[17.41783,43.23412],[17.40019,43.24441],[17.35847,43.24974],[17.34212,43.25364],[17.33838,43.25752],[17.33165,43.26609],[17.33409,43.26809],[17.32751,43.28558],[17.32155,43.28754],[17.31084,43.29838],[17.26555,43.37267],[17.26124,43.39288],[17.25246,43.40049],[17.26957,43.4151],[17.28376,43.4346],[17.28611,43.4631],[17.27856,43.47155],[17.26867,43.47948],[17.22394,43.49798],[17.18867,43.49874],[17.17679,43.492],[17.17259,43.4946],[17.14877,43.49534],[17.13901,43.50675],[17.13098,43.50778],[17.1236,43.51791],[17.08917,43.53441],[17.08255,43.54294],[17.03664,43.55925],[17.00802,43.57581],[16.9966,43.58456],[16.97102,43.61805],[16.9318,43.64385],[16.92746,43.65505],[16.9197,43.65864],[16.9085,43.67479],[16.88539,43.68586],[16.88279,43.69206],[16.87759,43.6945],[16.87259,43.70656],[16.825,43.73238],[16.81155,43.75551],[16.80005,43.76297],[16.75279,43.76969],[16.72896,43.79148],[16.72469,43.79627],[16.72646,43.79973],[16.71907,43.80683],[16.72038,43.82583],[16.71769,43.82995],[16.72031,43.83215],[16.71023,43.85484],[16.68454,43.86616],[16.66883,43.87777],[16.66357,43.87743],[16.62605,43.90203],[16.60986,43.91708],[16.59953,43.93468],[16.59033,43.93757],[16.58753,43.9432],[16.55014,43.95356],[16.54434,43.97418],[16.53671,43.98639],[16.51572,44.00419],[16.50224,44.02437],[16.4821,44.02947],[16.44791,44.02826],[16.43664,44.0307],[16.43895,44.03754],[16.43581,44.05494],[16.44218,44.06693],[16.42765,44.08318],[16.40174,44.07959],[16.38382,44.08351],[16.37735,44.08015],[16.3695,44.08212],[16.35927,44.10198],[16.33393,44.11256],[16.31847,44.11449],[16.31248,44.12485],[16.30826,44.12669],[16.30967,44.14323],[16.3062,44.14775],[16.29488,44.15379],[16.28982,44.16236],[16.26278,44.17656],[16.23784,44.20102],[16.23176,44.20184],[16.22643,44.20958],[16.20716,44.21721],[16.18416,44.21321],[16.20552,44.21819],[16.21214,44.2169],[16.21561,44.22426],[16.22001,44.22589],[16.21824,44.23986],[16.21006,44.25003],[16.19958,44.25239],[16.20081,44.2566],[16.19596,44.26],[16.19098,44.2712],[16.19226,44.28349],[16.18715,44.2946],[16.18871,44.30953],[16.19494,44.31521],[16.20019,44.33081],[16.21604,44.34133],[16.21871,44.34814],[16.20618,44.36007],[16.17534,44.36696],[16.16873,44.37482],[16.15512,44.38035],[16.14444,44.37541],[16.13133,44.37796],[16.12795,44.39461],[16.13572,44.39545],[16.13907,44.3925],[16.15003,44.39677],[16.15925,44.39501],[16.17229,44.40264],[16.15312,44.42273],[16.14587,44.41948],[16.14317,44.42217],[16.13839,44.44073],[16.14215,44.44268],[16.14338,44.4485],[16.13924,44.45394],[16.13143,44.4551],[16.13263,44.46051],[16.13783,44.46404],[16.13582,44.47191],[16.14107,44.47975],[16.13001,44.48651],[16.13145,44.49129],[16.12221,44.50468],[16.12287,44.51213],[16.1089,44.52605],[16.07883,44.53578],[16.05508,44.5384],[16.01869,44.5627],[16.01737,44.58525],[16.02412,44.58952],[16.04142,44.58888],[16.0491,44.59593],[16.04319,44.60009],[16.04826,44.60425],[16.04665,44.60872],[16.05263,44.60934],[16.055,44.6065],[16.05787,44.60894],[16.05517,44.61143],[16.05455,44.62567],[16.04804,44.62483],[16.04283,44.62968],[16.04238,44.63628],[16.0319,44.64867],[16.03136,44.65373],[16.02149,44.65691],[16.01408,44.65477],[15.99649,44.66005],[15.98702,44.66834],[15.97271,44.67329],[15.9677,44.67857],[15.96574,44.69084],[15.95897,44.69272],[15.95273,44.70094],[15.95651,44.70453],[15.95512,44.71091],[15.93751,44.71101],[15.93256,44.70749],[15.91157,44.73421],[15.90136,44.74171],[15.90235,44.74558],[15.89408,44.74934],[15.88305,44.74248],[15.88409,44.735],[15.87941,44.72827],[15.87402,44.72955],[15.87121,44.72686],[15.8652,44.72994],[15.86498,44.73341],[15.85269,44.73628],[15.83487,44.71377],[15.8169,44.72443],[15.81009,44.73916],[15.7821,44.74947],[15.78166,44.75439],[15.77161,44.76529],[15.76939,44.77203],[15.74076,44.80075],[15.74276,44.80921],[15.72873,44.82531],[15.76156,44.82952],[15.79331,44.84664],[15.76023,44.8696],[15.76067,44.88736],[15.73669,44.93563],[15.75022,44.95143],[15.74547,44.95489],[15.74974,44.96788],[15.7711,44.97171],[15.77895,44.96883],[15.78353,44.97329],[15.78067,44.98363],[15.78359,44.98764],[15.78233,44.99325],[15.78574,44.99531],[15.78207,44.99775],[15.78143,45.00395],[15.77138,45.00893],[15.76475,45.01921],[15.76639,45.02256],[15.76148,45.02533],[15.76282,45.02818],[15.7567,45.03562],[15.75909,45.03804],[15.75331,45.04727],[15.75376,45.05407],[15.74508,45.06018],[15.74883,45.06529],[15.77159,45.07682],[15.76924,45.0815],[15.77438,45.08391],[15.76891,45.08942],[15.77055,45.0934],[15.77902,45.0952],[15.78004,45.10407],[15.79115,45.11536],[15.77769,45.13078],[15.78207,45.13592],[15.77486,45.14101],[15.77624,45.14442],[15.76943,45.15131],[15.76502,45.16657],[15.77806,45.17595],[15.77654,45.18339],[15.78497,45.19179],[15.80152,45.19843],[15.80272,45.20364],[15.80952,45.20555],[15.80739,45.20806],[15.81249,45.21056],[15.8217,45.20626],[15.82684,45.20744],[15.83192,45.21284],[15.82686,45.21725],[15.84475,45.22505],[15.8569,45.21684],[15.87191,45.22069],[15.87594,45.21808],[15.88619,45.2201],[15.89388,45.21664],[15.8939,45.22189],[15.88845,45.22428],[15.8922,45.22923],[15.90926,45.22442],[15.91381,45.22477],[15.91938,45.23039],[15.92642,45.22368],[15.92175,45.21379],[15.92728,45.21406],[15.92716,45.2109],[15.9404,45.21475],[15.94405,45.21323],[15.95707,45.22082],[15.96543,45.2216],[15.97838,45.23038],[16.00435,45.21722],[16.01079,45.21888],[16.01571,45.21621],[16.02347,45.20072],[16.03006,45.20063],[16.01467,45.18311],[16.01564,45.17979],[16.04868,45.17833],[16.04626,45.1726],[16.05119,45.17143],[16.05419,45.16082],[16.07835,45.14214],[16.08603,45.13206],[16.08447,45.1106],[16.08976,45.10438],[16.10276,45.09966],[16.10872,45.09279],[16.12071,45.09335],[16.13138,45.08664],[16.13856,45.09054],[16.17195,45.07266],[16.17393,45.07036],[16.17023,45.06661],[16.17514,45.06259],[16.17686,45.0512],[16.18608,45.04639],[16.19418,45.03077],[16.20534,45.03302],[16.22928,45.02449],[16.22976,45.0172],[16.23458,45.01489],[16.25292,45.01438],[16.25734,45.01107],[16.26254,45.01686],[16.26865,45.01685],[16.27282,45.01408],[16.27366,45.00614],[16.28524,45.00713],[16.28876,44.99569],[16.30561,45.00078],[16.31252,44.9983],[16.31891,45.00157],[16.33957,45.00036],[16.35443,45.00309],[16.35854,45.01174],[16.35597,45.03167],[16.37433,45.05131],[16.38334,45.05345],[16.38705,45.08281],[16.40272,45.09862],[16.394,45.10368],[16.39412,45.11222],[16.40887,45.12049],[16.43489,45.12582],[16.4446,45.13377],[16.46231,45.14165],[16.47116,45.15632],[16.47867,45.16122],[16.4739,45.18169],[16.48441,45.19077],[16.49097,45.2072],[16.51955,45.22342],[16.53562,45.22692],[16.55061,45.22139],[16.57882,45.2239],[16.59839,45.23129],[16.61924,45.2233],[16.62899,45.21386],[16.69365,45.19672],[16.73265,45.20729],[16.7973,45.18737],[16.81226,45.18459],[16.82657,45.18642],[16.84301,45.19432],[16.84372,45.20232],[16.83523,45.21294],[16.83549,45.21956],[16.84007,45.22109],[16.85486,45.2146],[16.85027,45.20757],[16.85395,45.2047],[16.86235,45.2131],[16.86335,45.21798],[16.87934,45.21984],[16.87913,45.22326],[16.86864,45.22349],[16.86337,45.22783],[16.86637,45.23217],[16.8765,45.23216],[16.87579,45.22675],[16.8809,45.22461],[16.8834,45.22773],[16.88206,45.2418],[16.87987,45.24394],[16.87229,45.24032],[16.87045,45.24224],[16.87836,45.24683],[16.89426,45.24851],[16.89365,45.25152],[16.88278,45.25464],[16.88276,45.25716],[16.89201,45.25817],[16.89592,45.25162],[16.9041,45.2505],[16.91375,45.25725],[16.91901,45.27252],[16.93313,45.27637],[16.93869,45.27377],[16.94223,45.26317],[16.95381,45.25727],[16.95263,45.25224],[16.93605,45.24415],[16.93867,45.22722],[16.95428,45.23176],[16.97423,45.22768],[16.97731,45.23394],[16.97389,45.23898],[16.96189,45.24242],[16.96146,45.24494],[16.96754,45.25068],[16.97268,45.25125],[16.98239,45.24576],[16.98533,45.24046],[16.98249,45.22998],[16.98772,45.22365],[17.0037,45.22271],[17.00694,45.22979],[17.00522,45.23797],[17.0215,45.23603],[17.02183,45.2327],[17.01433,45.22845],[17.00871,45.22014],[17.01019,45.21431],[17.02231,45.21438],[17.03574,45.22568],[17.03913,45.22447],[17.04219,45.20997],[17.05179,45.20068],[17.06272,45.19894],[17.06908,45.19163],[17.11183,45.17653],[17.17307,45.14847],[17.24811,45.14717],[17.25626,45.15622],[17.27028,45.18798],[17.27395,45.18946],[17.2885,45.17513],[17.30665,45.17663],[17.31126,45.17493],[17.31136,45.16607],[17.33019,45.16512],[17.32958,45.15272],[17.34152,45.14348],[17.35204,45.13985],[17.41245,45.13435],[17.43219,45.14494],[17.43862,45.15903],[17.44956,45.15991],[17.45541,45.14789],[17.44846,45.12925],[17.45338,45.12622],[17.46953,45.12619],[17.48763,45.13701],[17.49285,45.13524],[17.49216,45.12342],[17.48189,45.11708],[17.47968,45.11334],[17.48198,45.11034],[17.50065,45.11427],[17.51621,45.10824],[17.53374,45.11026],[17.54168,45.11927],[17.541,45.12783],[17.54539,45.12989],[17.55176,45.12957],[17.55679,45.12424],[17.55563,45.1087],[17.56495,45.10941],[17.57369,45.11586],[17.57931,45.11616],[17.5973,45.10605],[17.62609,45.11509],[17.63212,45.12283],[17.6512,45.13161],[17.67116,45.13328],[17.69459,45.11588],[17.71462,45.11185],[17.76038,45.08462],[17.78425,45.08297],[17.80363,45.06543],[17.82472,45.05274],[17.85406,45.04372],[17.86557,45.04496],[17.90022,45.05918],[17.92247,45.0763],[17.9357,45.0811],[17.93652,45.08706],[17.92961,45.10062],[17.93126,45.10593],[17.94257,45.11165],[17.96546,45.11436],[17.97479,45.12391],[17.97646,45.13456],[17.98159,45.14041],[17.99659,45.14997],[18.0057,45.15181],[18.02118,45.14775],[18.03036,45.12942],[18.03707,45.12539],[18.04134,45.12858],[18.04586,45.14048],[18.05817,45.14335],[18.0704,45.14098],[18.08507,45.12089],[18.08437,45.11651],[18.07376,45.11137],[18.07129,45.10692],[18.09367,45.09904],[18.10558,45.08625],[18.11805,45.08059],[18.14637,45.08568],[18.17181,45.07722],[18.20143,45.08034],[18.22109,45.09717],[18.21909,45.10257],[18.21043,45.10942],[18.20982,45.12199],[18.23632,45.13609],[18.25922,45.1393],[18.27365,45.13566],[18.27756,45.13179],[18.27891,45.11659],[18.29156,45.11338],[18.30664,45.11544],[18.32166,45.10138],[18.40641,45.11066],[18.42096,45.10914],[18.4322,45.10383],[18.44836,45.08135],[18.47064,45.0659],[18.4798,45.06087],[18.49171,45.06172],[18.50739,45.05689],[18.5241,45.06092],[18.53034,45.0544],[18.53026,45.04537],[18.53507,45.04455],[18.5358,45.05993],[18.55111,45.0746],[18.5464,45.08049],[18.53025,45.08663],[18.53616,45.09315],[18.55051,45.09146],[18.5673,45.08008],[18.57081,45.0692],[18.57595,45.0668],[18.58306,45.07711],[18.57893,45.08352],[18.56938,45.08924],[18.56736,45.09253],[18.57113,45.0952],[18.58648,45.09165],[18.59848,45.08249],[18.61157,45.08012],[18.61839,45.08303],[18.62235,45.09464],[18.62812,45.09589],[18.63528,45.09163],[18.63432,45.08379],[18.60949,45.07265],[18.60642,45.06537],[18.61334,45.06191],[18.64205,45.06138],[18.65259,45.05627],[18.65825,45.05709],[18.66063,45.06075],[18.65412,45.07481],[18.65498,45.08029],[18.66096,45.08996],[18.67229,45.09489],[18.68023,45.09105],[18.68721,45.0799],[18.68374,45.07193],[18.66831,45.06518],[18.6677,45.06213],[18.69207,45.04073],[18.71576,45.0369],[18.72203,45.02507],[18.73656,45.01813],[18.73654,45.00986],[18.72739,44.99667],[18.73188,44.9927],[18.74437,44.99324],[18.75273,44.99812],[18.76439,44.99961],[18.79309,44.99494],[18.79653,44.99035],[18.7844,44.97296],[18.78989,44.95539],[18.8053,44.94317],[18.80341,44.93816],[18.78719,44.93434],[18.76243,44.94398],[18.75045,44.94109],[18.75331,44.9324],[18.7727,44.91911],[18.76289,44.91063],[18.76467,44.90472],[18.79096,44.88856],[18.81938,44.87836],[18.85016,44.85443],[18.97254,44.84982],[19.06491,44.86127],[19.07454,44.86527],[19.08723,44.87899],[19.1203,44.88754],[19.12929,44.89899],[19.15195,44.90625],[19.16571,44.91733],[19.17711,44.92198],[19.19794,44.91729],[19.2099,44.89797],[19.21414,44.89617],[19.22125,44.89631],[19.25382,44.91365],[19.27548,44.9049],[19.29558,44.90973],[19.30686,44.90846],[19.34736,44.88906],[19.35401,44.89109],[19.3666,44.88735],[19.35765,44.87738],[19.36129,44.87476],[19.36786,44.87711],[19.37216,44.87508],[19.36481,44.867],[19.36422,44.86199],[19.37359,44.84975],[19.36469,44.8517],[19.36081,44.84912],[19.36189,44.83653],[19.34791,44.83418],[19.34534,44.83084],[19.3537,44.82606],[19.34749,44.81636],[19.35574,44.80742],[19.34767,44.80196],[19.34797,44.78869],[19.33955,44.78526],[19.34051,44.77208],[19.32653,44.77086],[19.32653,44.76499],[19.33907,44.7566],[19.33384,44.74831],[19.3414,44.74102],[19.32365,44.73639],[19.32723,44.72977],[19.32216,44.72604],[19.31996,44.71744],[19.31311,44.71321],[19.3124,44.70812],[19.30037,44.70011],[19.29912,44.6903],[19.29477,44.68706],[19.27309,44.68819],[19.27053,44.6831],[19.27661,44.67163],[19.2566,44.65894],[19.24975,44.63666],[19.24093,44.63063],[19.24135,44.61645],[19.22283,44.61474],[19.22736,44.59993],[19.22498,44.59377],[19.20604,44.59111],[19.19706,44.58674],[19.18321,44.57294],[19.18166,44.56683],[19.19576,44.56103],[19.19629,44.55308],[19.17691,44.53785],[19.17078,44.52414],[19.14771,44.52342],[19.13933,44.52774],[19.13029,44.52437],[19.12922,44.51574],[19.12,44.50311],[19.13334,44.49391],[19.13251,44.48317],[19.14928,44.45438],[19.14507,44.43302],[19.14726,44.41905],[19.14555,44.41314],[19.10864,44.39622],[19.10295,44.3711],[19.118,44.36556],[19.11724,44.36206],[19.10974,44.35796],[19.11414,44.34513],[19.13423,44.33926],[19.13556,44.33492],[19.13016,44.31827],[19.16932,44.28156],[19.18249,44.28006],[19.19818,44.29092],[19.21006,44.29105],[19.21793,44.28467],[19.22231,44.26979],[19.23044,44.26358],[19.23909,44.26162],[19.25269,44.26326],[19.27276,44.27124],[19.27824,44.27631],[19.29392,44.27031],[19.32056,44.27302],[19.32636,44.27067],[19.32978,44.24993],[19.33946,44.24525],[19.34903,44.23163],[19.34292,44.22083],[19.35867,44.20924],[19.35548,44.20047],[19.35747,44.18433],[19.37688,44.18157],[19.39678,44.17127],[19.40388,44.17254],[19.40943,44.16848],[19.42087,44.14341],[19.44395,44.13158],[19.44915,44.13173],[19.45439,44.14032],[19.46706,44.14883],[19.4749,44.14993],[19.48234,44.14551],[19.48002,44.13636],[19.47038,44.1285],[19.47037,44.12115],[19.47483,44.11686],[19.4941,44.11495],[19.49741,44.09857],[19.51012,44.08204],[19.55744,44.06996],[19.5666,44.05944],[19.57,44.04916],[19.5748,44.04623],[19.58216,44.0503],[19.58236,44.06827],[19.59019,44.07244],[19.59907,44.07051],[19.60301,44.06395],[19.60207,44.054],[19.60444,44.0507],[19.61194,44.05003],[19.61897,44.05393],[19.62328,44.05228],[19.61416,44.03406],[19.6227,44.02017],[19.61831,44.01364],[19.59684,44.00956],[19.59082,44.00383],[19.5633,43.9989],[19.56829,43.98904],[19.56689,43.9845],[19.55147,43.98058],[19.53852,43.97308],[19.52602,43.95598],[19.42471,43.95885],[19.40422,43.96793],[19.38746,43.96043],[19.36255,43.97182],[19.35497,43.98155],[19.33256,43.98352],[19.30271,43.99767],[19.26859,43.99988],[19.24749,44.01469],[19.237,44.01338],[19.23486,44.00997],[19.23698,43.98812],[19.25437,43.96586],[19.25539,43.96044],[19.25111,43.95502],[19.25733,43.94924],[19.26763,43.9462],[19.27435,43.93653],[19.29108,43.92283],[19.29576,43.9175],[19.29646,43.91036],[19.3153,43.88882],[19.31522,43.88327],[19.33361,43.87194],[19.35393,43.84596],[19.36484,43.83743],[19.3749,43.8348],[19.37237,43.82415],[19.39151,43.80921],[19.39474,43.7982],[19.40572,43.79742],[19.40924,43.79442],[19.421,43.79691],[19.43162,43.78372],[19.43221,43.77651],[19.44633,43.77587],[19.46511,43.76551],[19.46715,43.75385],[19.47717,43.74745],[19.48123,43.73353],[19.5192,43.71412],[19.51969,43.70681],[19.51427,43.70089],[19.5182,43.696],[19.51726,43.6891],[19.53189,43.668],[19.53114,43.66242],[19.5242,43.64919],[19.51245,43.64437],[19.5147,43.6385],[19.51047,43.62824],[19.50549,43.63365],[19.50069,43.63321],[19.49931,43.63864],[19.48763,43.63158],[19.49243,43.62494],[19.49221,43.61948],[19.49905,43.61691],[19.49184,43.59763],[19.49619,43.59849],[19.50008,43.59266],[19.51136,43.58605],[19.48011,43.57158],[19.47208,43.57664],[19.44595,43.58195],[19.42172,43.57925],[19.42209,43.57533],[19.40245,43.5703],[19.40536,43.57734],[19.38843,43.57638],[19.39975,43.58141],[19.40208,43.58751],[19.39746,43.59109],[19.3842,43.59212],[19.3817,43.60179],[19.36938,43.60637],[19.36938,43.61089],[19.35666,43.60576],[19.336,43.58892],[19.32996,43.59081],[19.31997,43.58824],[19.3042,43.59006],[19.29076,43.59867],[19.28776,43.59578],[19.27397,43.59713],[19.26375,43.60706],[19.25785,43.59927],[19.26858,43.60199],[19.27257,43.59686],[19.26317,43.58957],[19.24639,43.59284],[19.25373,43.57355],[19.24644,43.54792],[19.25034,43.52942],[19.22429,43.52746],[19.19704,43.53355],[19.1533,43.53643],[19.12691,43.52127],[19.1195,43.51932],[19.10313,43.52201],[19.09664,43.51311],[19.08682,43.5167],[19.06523,43.51084],[19.06095,43.50498],[19.05163,43.5021],[19.04215,43.50363],[19.04413,43.51318],[19.04033,43.52183],[19.04353,43.52436],[19.03608,43.53251],[19.02524,43.53969],[19.02362,43.54478],[19.01147,43.54285],[19.00689,43.55619],[18.9977,43.55821],[18.98836,43.55537],[18.98725,43.54809],[18.98101,43.54339],[18.97998,43.53586],[18.9825,43.5324],[18.97911,43.5303],[18.93544,43.51372],[18.9244,43.51466],[18.91788,43.50878],[18.92587,43.5081],[18.92401,43.5048],[18.91255,43.50216],[18.91701,43.4941],[18.92592,43.49118],[18.93522,43.49418],[18.93642,43.50267],[18.95,43.50373],[18.94937,43.4946],[18.95863,43.4879],[18.95668,43.4758],[18.96167,43.47017],[18.96102,43.46099],[18.95596,43.45708],[18.95612,43.4522],[18.96296,43.45107],[18.97819,43.45581],[18.98844,43.44601],[18.99194,43.4482],[18.99819,43.44454],[18.99858,43.43982],[19.00437,43.44231],[19.00499,43.44692],[19.01102,43.44527],[19.00707,43.44284],[19.01851,43.4308],[19.02057,43.40861],[19.03018,43.40051],[19.04198,43.39691],[19.04052,43.38766],[19.04269,43.38564],[19.0404,43.38079],[19.0346,43.37896],[19.03953,43.37541],[19.0413,43.36379],[19.06108,43.35219],[19.06114,43.34466],[19.0751,43.33567],[19.07489,43.32784],[19.08288,43.3195],[19.07699,43.30449],[19.08019,43.2998],[19.0357,43.28948],[19.01988,43.2599],[19.00852,43.25071],[19.00164,43.25236],[18.98468,43.26364],[18.98724,43.27266],[18.98183,43.2807],[18.95548,43.28785],[18.95382,43.29063],[18.94918,43.30114],[18.95233,43.3117],[18.95989,43.31716],[18.95878,43.32983],[18.94877,43.33016],[18.94194,43.33437],[18.92757,43.3499],[18.91008,43.36069],[18.89825,43.35462],[18.87831,43.35649],[18.83981,43.34854],[18.83903,43.34414],[18.84914,43.33675],[18.85182,43.32399],[18.8372,43.32012],[18.82905,43.31418],[18.81952,43.31483],[18.80623,43.30737],[18.78855,43.30396],[18.73301,43.28101],[18.68792,43.25475],[18.70589,43.23508],[18.71683,43.23194],[18.68732,43.22147],[18.68215,43.21046],[18.66763,43.20389],[18.64836,43.14705],[18.65608,43.10209],[18.66065,43.0374],[18.61357,43.02916],[18.59183,43.03287],[18.53619,43.03339],[18.51885,43.02002],[18.50912,43],[18.49819,42.99587],[18.49397,42.98665],[18.48595,42.96376],[18.48606,42.93878],[18.48252,42.92853],[18.49485,42.91499],[18.50913,42.88679],[18.48875,42.88018],[18.4936,42.86537],[18.48474,42.85942],[18.47667,42.86207],[18.4693,42.85464],[18.46539,42.8387],[18.47554,42.82896],[18.44812,42.8154],[18.45696,42.81179],[18.45591,42.80389],[18.4628,42.79448],[18.45972,42.79208],[18.46046,42.78823],[18.46686,42.78198],[18.46813,42.76309],[18.47401,42.75375],[18.49216,42.74778],[18.49822,42.7427],[18.49624,42.73729],[18.51407,42.73518],[18.52844,42.72393],[18.56977,42.71967],[18.5609,42.70992],[18.56129,42.7025],[18.55504,42.69864],[18.55179,42.69034],[18.54818,42.69208],[18.54631,42.68893],[18.55072,42.67614],[18.54865,42.6719],[18.5641,42.66125],[18.57477,42.64272],[18.56498,42.64346],[18.53725,42.63674],[18.52798,42.63063],[18.52008,42.61837],[18.53093,42.61066],[18.53337,42.60363],[18.54804,42.5952],[18.55432,42.58073],[18.54334,42.57372],[18.5315,42.57867],[18.52776,42.58359],[18.49934,42.58815],[18.48482,42.57357],[18.47484,42.5695],[18.47244,42.56379],[18.4462,42.56241],[18.44289,42.56078],[18.44304,42.55644],[18.4387,42.5556],[18.43691,42.56364],[18.3904,42.58921],[18.3664,42.61614],[18.33169,42.61879]]],[[[19.42247,43.56826],[19.42343,43.55907],[19.42882,43.5531],[19.42188,43.54352],[19.41347,43.54044],[19.41113,43.54723],[19.39765,43.55328],[19.40796,43.55512],[19.41516,43.56705],[19.42247,43.56826]]]]}}]}