{"type":"FeatureCollection","features":[{"type":"Feature","properties":{"ISO_A3":"BLZ","WB_A3":"BLZ","WB_NAME":"Belize","WB_REGION":"LCN"},"geometry":{"type":"MultiPolygon","coordinates":[[[[-87.51244,17.44108],[-87.51579,17.44224],[-87.5146,17.44765],[-87.50335,17.45553],[-87.49503,17.45543],[-87.49475,17.45015],[-87.50281,17.45438],[-87.51017,17.44817],[-87.51244,17.44108]]],[[[-87.53456,17.20351],[-87.53979,17.20543],[-87.53832,17.20685],[-87.53456,17.20351]]],[[[-87.58928,17.21688],[-87.59045,17.21962],[-87.59505,17.2179],[-87.59519,17.2215],[-87.58928,17.21688]]],[[[-87.59809,17.20475],[-87.59356,17.21404],[-87.59327,17.20824],[-87.59809,17.20475]]],[[[-87.80679,17.49227],[-87.80413,17.49615],[-87.78938,17.50033],[-87.79264,17.50894],[-87.80015,17.50853],[-87.79674,17.52529],[-87.81126,17.52999],[-87.81832,17.51773],[-87.82368,17.51642],[-87.81876,17.5261],[-87.81286,17.52934],[-87.8124,17.54634],[-87.80095,17.53789],[-87.80362,17.53247],[-87.80023,17.52682],[-87.78053,17.53334],[-87.79,17.519],[-87.79402,17.51898],[-87.79374,17.51422],[-87.78539,17.50897],[-87.7768,17.50888],[-87.77624,17.5027],[-87.7615,17.51048],[-87.76335,17.50365],[-87.78345,17.49584],[-87.78315,17.48799],[-87.79507,17.48202],[-87.8052,17.46497],[-87.81048,17.44589],[-87.82055,17.44752],[-87.81999,17.44276],[-87.81276,17.44485],[-87.80952,17.44074],[-87.82384,17.43167],[-87.82877,17.42431],[-87.83466,17.42119],[-87.84326,17.42412],[-87.84668,17.43827],[-87.84347,17.44215],[-87.84846,17.44689],[-87.85112,17.44211],[-87.86841,17.43715],[-87.86892,17.43199],[-87.86596,17.42994],[-87.86915,17.42478],[-87.88594,17.42895],[-87.89209,17.42403],[-87.90211,17.3878],[-87.91041,17.38402],[-87.91701,17.38902],[-87.90865,17.40812],[-87.89572,17.4244],[-87.89256,17.43678],[-87.88601,17.44171],[-87.87897,17.45745],[-87.87268,17.46211],[-87.86363,17.47799],[-87.8553,17.47455],[-87.85636,17.47159],[-87.8664,17.46626],[-87.87172,17.45645],[-87.86727,17.45273],[-87.8501,17.45435],[-87.84073,17.45916],[-87.84048,17.46199],[-87.82705,17.46051],[-87.82707,17.46437],[-87.81421,17.47009],[-87.81857,17.48527],[-87.81632,17.4912],[-87.80679,17.49227]]],[[[-87.82077,17.34487],[-87.81893,17.35493],[-87.82325,17.36032],[-87.82233,17.36431],[-87.81321,17.36499],[-87.81126,17.37969],[-87.8184,17.3861],[-87.81996,17.40412],[-87.83405,17.40664],[-87.83004,17.40897],[-87.82954,17.4167],[-87.82207,17.42691],[-87.81669,17.42384],[-87.80972,17.42477],[-87.81826,17.41495],[-87.81808,17.40439],[-87.81457,17.39976],[-87.81479,17.38894],[-87.8094,17.38304],[-87.8012,17.34727],[-87.79472,17.33879],[-87.7928,17.32927],[-87.7977,17.31521],[-87.80012,17.31482],[-87.80605,17.32381],[-87.81061,17.32405],[-87.82237,17.31473],[-87.82467,17.31755],[-87.81988,17.32607],[-87.82298,17.33147],[-87.82077,17.34487]]],[[[-87.80477,17.45957],[-87.80103,17.46383],[-87.80022,17.46242],[-87.80477,17.45957]]],[[[-87.81709,17.27199],[-87.81071,17.28554],[-87.80896,17.28335],[-87.81709,17.27199]]],[[[-87.84247,17.25282],[-87.83742,17.26263],[-87.82563,17.26371],[-87.82097,17.27042],[-87.82255,17.26295],[-87.83448,17.26277],[-87.84247,17.25282]]],[[[-87.95806,18],[-87.95387,17.9957],[-87.95256,18.00163],[-87.95796,18.0047],[-87.95664,18.00908],[-87.95179,18.00923],[-87.95263,18.01541],[-87.94806,18.01531],[-87.94943,18.02071],[-87.9323,18.03985],[-87.92585,18.0422],[-87.93026,18.06073],[-87.93592,18.06224],[-87.93206,18.07025],[-87.9263,18.07646],[-87.90987,18.07615],[-87.90372,18.08429],[-87.90616,18.08827],[-87.90912,18.08761],[-87.90969,18.09289],[-87.90592,18.09252],[-87.90481,18.08789],[-87.90226,18.08893],[-87.90948,18.10461],[-87.90012,18.11805],[-87.89908,18.12552],[-87.88351,18.13693],[-87.88167,18.14492],[-87.88841,18.14618],[-87.88937,18.14978],[-87.88726,18.15906],[-87.8783,18.1725],[-87.86729,18.17899],[-87.86121,18.17489],[-87.85968,18.16537],[-87.85413,18.1605],[-87.85207,18.15175],[-87.85648,18.14581],[-87.85619,18.14092],[-87.84998,18.13811],[-87.84947,18.11545],[-87.82984,18.12429],[-87.83013,18.12867],[-87.83649,18.13353],[-87.83615,18.14719],[-87.84363,18.16261],[-87.84656,18.18372],[-87.83469,18.15106],[-87.83272,18.13406],[-87.82825,18.12945],[-87.82861,18.12017],[-87.8344,18.12002],[-87.8567,18.1082],[-87.87866,18.08209],[-87.88582,18.0599],[-87.89184,18.05163],[-87.89392,18.03746],[-87.90807,18.0137],[-87.93161,17.96027],[-87.93859,17.95585],[-87.95899,17.92201],[-87.9737,17.90571],[-87.977,17.89403],[-87.98313,17.88679],[-87.99222,17.87997],[-88.02182,17.8743],[-88.02696,17.88007],[-88.00657,17.88906],[-88.00304,17.88354],[-87.9951,17.88371],[-87.99311,17.88887],[-88.00191,17.89733],[-88.00073,17.90326],[-87.99885,17.90468],[-87.99761,17.89941],[-87.99398,17.9002],[-87.96209,17.92174],[-87.95971,17.93102],[-87.95541,17.93182],[-87.94419,17.94681],[-87.94196,17.9579],[-87.93752,17.95792],[-87.93311,17.96283],[-87.92984,17.98036],[-87.91965,17.9884],[-87.91545,18.00838],[-87.90147,18.02951],[-87.88799,18.06247],[-87.89553,18.06347],[-87.89847,18.0583],[-87.90738,18.06354],[-87.9114,18.05888],[-87.91357,18.06261],[-87.91842,18.06207],[-87.9173,18.05461],[-87.92226,18.05072],[-87.92047,18.0421],[-87.92636,18.03731],[-87.93059,18.02157],[-87.93368,18.0213],[-87.93406,18.01666],[-87.92843,18.02055],[-87.92757,18.01077],[-87.9324,18.0074],[-87.93154,17.99736],[-87.92912,17.99737],[-87.93243,17.98679],[-87.93669,17.97879],[-87.95652,17.96195],[-87.97385,17.93301],[-87.98033,17.93607],[-87.98247,17.94267],[-87.98677,17.93243],[-87.98959,17.9319],[-87.99041,17.93525],[-87.98746,17.93707],[-87.98326,17.95589],[-87.97816,17.9572],[-87.96675,17.98714],[-87.96404,17.98432],[-87.9619,17.98613],[-87.96407,17.99024],[-87.96005,17.99361],[-87.95956,18.0016],[-87.95806,18]]],[[[-87.8545,17.4761],[-87.85746,17.47751],[-87.8508,17.489],[-87.84703,17.48695],[-87.85412,17.48048],[-87.8545,17.4761]]],[[[-87.86397,17.22343],[-87.86421,17.22851],[-87.8614,17.23007],[-87.86058,17.22647],[-87.86397,17.22343]]],[[[-87.86322,17.21693],[-87.86458,17.22259],[-87.86405,17.22333],[-87.86322,17.21693]]],[[[-87.86903,17.19925],[-87.87375,17.20426],[-87.87229,17.20864],[-87.86854,17.20789],[-87.86903,17.19925]]],[[[-87.9183,18.0139],[-87.91577,18.01933],[-87.91821,18.0215],[-87.91217,18.02552],[-87.91636,18.02937],[-87.91071,18.03068],[-87.90942,18.04125],[-87.90458,18.04153],[-87.90365,18.0454],[-87.90624,18.0517],[-87.89968,18.05513],[-87.89962,18.04708],[-87.90911,18.01938],[-87.9183,18.0139]]],[[[-87.90425,17.16716],[-87.90628,17.17037],[-87.90401,17.17334],[-87.89931,17.16988],[-87.90425,17.16716]]],[[[-87.92211,17.25633],[-87.92521,17.25967],[-87.92296,17.26457],[-87.92526,17.26843],[-87.93468,17.27611],[-87.92923,17.28644],[-87.92629,17.28697],[-87.92545,17.28053],[-87.92101,17.27669],[-87.92211,17.25633]]],[[[-87.92968,17.21521],[-87.93399,17.21841],[-87.9362,17.23283],[-87.9311,17.23105],[-87.92968,17.21521]]],[[[-87.93407,17.23438],[-87.93864,17.23823],[-87.93597,17.2403],[-87.93407,17.23438]]],[[[-87.94662,18.04918],[-87.95191,18.05624],[-87.95235,18.06371],[-87.94806,18.06656],[-87.94803,18.06167],[-87.94371,18.0586],[-87.94562,18.06284],[-87.93835,18.06275],[-87.93712,18.0594],[-87.94662,18.04918]]],[[[-87.93873,17.25535],[-87.94332,17.26139],[-87.94063,17.26114],[-87.93873,17.25535]]],[[[-87.94667,18.10933],[-87.93922,18.10868],[-87.93938,18.10498],[-87.94258,18.09917],[-87.94314,18.10316],[-87.95332,18.09358],[-87.94853,18.10288],[-87.95296,18.10105],[-87.95475,18.10774],[-87.94396,18.10509],[-87.9429,18.1078],[-87.94667,18.10933]]],[[[-87.94792,18.04081],[-87.94728,18.03815],[-87.95087,18.03847],[-87.94971,18.04801],[-87.94792,18.04081]]],[[[-87.95142,17.93982],[-87.9539,17.95063],[-87.95067,17.94961],[-87.95142,17.93982]]],[[[-87.95077,18.11987],[-87.95371,18.1147],[-87.95587,18.11572],[-87.95077,18.11987]]],[[[-87.96405,18.08477],[-87.9678,18.08166],[-87.97548,18.08214],[-87.97834,18.08895],[-87.97516,18.09708],[-87.96651,18.0921],[-87.9606,18.09432],[-87.96405,18.08477]]],[[[-87.97559,18.07724],[-87.98206,18.0785],[-87.98424,18.08287],[-87.97604,18.08548],[-87.97559,18.07724]]],[[[-87.98258,17.92988],[-87.98315,17.93358],[-87.98034,17.9349],[-87.97826,17.93265],[-87.98258,17.92988]]],[[[-87.98573,17.91518],[-87.98242,17.92473],[-87.98119,17.92164],[-87.98573,17.91518]]],[[[-87.99297,17.91128],[-87.99301,17.91823],[-87.98979,17.91915],[-87.99297,17.91128]]],[[[-88.00657,17.89048],[-88.00995,17.89239],[-88.00794,17.89472],[-88.00657,17.89048]]],[[[-88.0213,17.78415],[-88.02485,17.77048],[-88.02294,17.7419],[-88.0304,17.72976],[-88.03806,17.7292],[-88.03424,17.74248],[-88.02948,17.74015],[-88.02627,17.74471],[-88.02529,17.75185],[-88.03177,17.75705],[-88.02945,17.77561],[-88.0211,17.79549],[-88.01746,17.79396],[-88.0213,17.78415]]],[[[-88.02909,18.0167],[-88.02727,18.02752],[-88.02499,18.02908],[-88.02909,18.0167]]],[[[-88.03447,17.87565],[-88.04094,17.87909],[-88.03801,17.88426],[-88.03238,17.88622],[-88.02561,17.8784],[-88.03126,17.87876],[-88.03447,17.87565]]],[[[-88.03967,17.0891],[-88.04184,17.09321],[-88.03729,17.09349],[-88.03295,17.0836],[-88.03967,17.0891]]],[[[-88.04468,17.69001],[-88.04037,17.70987],[-88.03971,17.69004],[-88.04664,17.67918],[-88.04468,17.69001]]],[[[-88.05797,17.84809],[-88.06765,17.84624],[-88.07011,17.85292],[-88.04213,17.85127],[-88.04856,17.84776],[-88.05797,17.84809]]],[[[-88.07115,17.48381],[-88.0728,17.49127],[-88.08392,17.4955],[-88.07766,17.49653],[-88.08011,17.50102],[-88.07734,17.50344],[-88.06356,17.49519],[-88.06579,17.48564],[-88.07115,17.48381]]],[[[-88.088,17.60993],[-88.1053,17.62761],[-88.09106,17.62704],[-88.08216,17.62027],[-88.07997,17.61435],[-88.08436,17.60712],[-88.088,17.60993]]],[[[-89.19316,16.41422],[-89.15005,17.0591],[-89.15196,17.93947],[-89.14454,17.95123],[-89.13554,17.95612],[-89.1341,17.97095],[-89.12463,17.97511],[-89.11617,17.96868],[-89.11095,17.97011],[-89.10273,17.98019],[-89.096,17.98026],[-89.07652,17.99384],[-89.05891,17.99003],[-89.05225,17.99972],[-89.03712,18.003],[-89.03564,17.99953],[-89.0289,18.00033],[-89.02143,17.99171],[-89.00099,17.98485],[-88.99996,17.97714],[-89.00359,17.97229],[-88.99774,17.97082],[-88.99947,17.96756],[-88.98832,17.94845],[-88.98603,17.94828],[-88.98282,17.95803],[-88.95978,17.95166],[-88.95595,17.9569],[-88.95383,17.95454],[-88.94611,17.95937],[-88.94506,17.95173],[-88.93698,17.94567],[-88.93736,17.93985],[-88.93122,17.94288],[-88.93309,17.93098],[-88.92752,17.93016],[-88.92059,17.91594],[-88.91329,17.91485],[-88.91268,17.91048],[-88.90585,17.9157],[-88.89651,17.90621],[-88.88723,17.90722],[-88.88351,17.89774],[-88.87751,17.89438],[-88.8599,17.89421],[-88.85783,17.89971],[-88.86024,17.90086],[-88.85479,17.90442],[-88.85403,17.90967],[-88.85875,17.92451],[-88.8425,17.94045],[-88.83417,17.94158],[-88.83358,17.94573],[-88.82903,17.94786],[-88.81645,17.94962],[-88.79581,17.9744],[-88.79053,17.97435],[-88.78901,17.98099],[-88.7844,17.98078],[-88.78841,17.99295],[-88.7832,18.00007],[-88.77256,18.00534],[-88.77259,18.01205],[-88.76683,18.01589],[-88.77082,18.0292],[-88.76623,18.03437],[-88.74093,18.04376],[-88.74036,18.04748],[-88.73166,18.04954],[-88.717,18.06043],[-88.71902,18.07222],[-88.71394,18.07378],[-88.71961,18.08402],[-88.7156,18.0943],[-88.71042,18.09769],[-88.71193,18.10386],[-88.71868,18.10803],[-88.7107,18.11615],[-88.70843,18.1259],[-88.69487,18.1483],[-88.6799,18.16192],[-88.68488,18.17811],[-88.69512,18.17885],[-88.69754,18.18225],[-88.68745,18.19413],[-88.67376,18.19416],[-88.66667,18.20253],[-88.65795,18.2039],[-88.64224,18.21553],[-88.6323,18.21313],[-88.62887,18.21904],[-88.61583,18.22333],[-88.60412,18.24172],[-88.60656,18.2638],[-88.60257,18.26775],[-88.59735,18.28961],[-88.60535,18.29208],[-88.57802,18.32071],[-88.57558,18.32002],[-88.54407,18.3611],[-88.55149,18.374],[-88.54602,18.3895],[-88.53173,18.40893],[-88.52113,18.458],[-88.47811,18.4937],[-88.46532,18.48661],[-88.4556,18.48839],[-88.44832,18.47573],[-88.41769,18.49198],[-88.40098,18.49561],[-88.38126,18.47897],[-88.36736,18.48525],[-88.34128,18.48617],[-88.34198,18.48298],[-88.3325,18.47906],[-88.3338,18.47338],[-88.31883,18.47336],[-88.31704,18.46912],[-88.31503,18.47158],[-88.30516,18.46908],[-88.30275,18.47167],[-88.3012,18.46266],[-88.29671,18.45767],[-88.31037,18.44354],[-88.31711,18.44247],[-88.31824,18.43242],[-88.32318,18.42491],[-88.37554,18.39312],[-88.38684,18.38982],[-88.39675,18.38112],[-88.39802,18.37158],[-88.40379,18.3669],[-88.40169,18.35829],[-88.39846,18.35896],[-88.39869,18.35432],[-88.39654,18.3546],[-88.39731,18.34996],[-88.3922,18.35218],[-88.38785,18.34745],[-88.39535,18.3407],[-88.40482,18.34436],[-88.41231,18.33684],[-88.40892,18.33442],[-88.40479,18.34102],[-88.39666,18.33567],[-88.38454,18.33859],[-88.37801,18.33052],[-88.37384,18.33133],[-88.37549,18.33621],[-88.36415,18.35084],[-88.3518,18.35917],[-88.34721,18.35843],[-88.33243,18.36549],[-88.31976,18.36609],[-88.31731,18.36314],[-88.32323,18.3613],[-88.32241,18.35925],[-88.3393,18.34599],[-88.34516,18.33668],[-88.34496,18.3287],[-88.3474,18.32525],[-88.3502,18.32634],[-88.35843,18.31032],[-88.36569,18.30666],[-88.36847,18.30098],[-88.36627,18.29558],[-88.36237,18.29587],[-88.34903,18.31451],[-88.34214,18.33039],[-88.33228,18.32724],[-88.33095,18.33034],[-88.29319,18.34696],[-88.2727,18.34838],[-88.25603,18.35596],[-88.25251,18.35315],[-88.23934,18.3598],[-88.23687,18.35441],[-88.23065,18.35213],[-88.23817,18.34719],[-88.23461,18.33897],[-88.2061,18.35139],[-88.21247,18.33615],[-88.21974,18.33443],[-88.21837,18.33148],[-88.2251,18.32899],[-88.22196,18.32386],[-88.21187,18.32753],[-88.20035,18.33829],[-88.17097,18.34066],[-88.13551,18.36251],[-88.12448,18.36657],[-88.11341,18.36509],[-88.09699,18.37098],[-88.0996,18.35641],[-88.10297,18.35626],[-88.10288,18.34262],[-88.1065,18.33847],[-88.11404,18.33753],[-88.11919,18.34033],[-88.12402,18.33683],[-88.12963,18.32958],[-88.13011,18.31915],[-88.14813,18.31247],[-88.14901,18.30345],[-88.15912,18.29562],[-88.15583,18.29414],[-88.14511,18.30502],[-88.13032,18.31078],[-88.12661,18.32136],[-88.12254,18.31597],[-88.11741,18.316],[-88.12339,18.32369],[-88.11208,18.32595],[-88.11098,18.32171],[-88.09895,18.32495],[-88.09628,18.32909],[-88.09877,18.33208],[-88.09747,18.33904],[-88.09604,18.32643],[-88.10062,18.30503],[-88.09777,18.30221],[-88.10206,18.29832],[-88.10358,18.28157],[-88.09789,18.278],[-88.09968,18.28365],[-88.09415,18.28369],[-88.09721,18.2762],[-88.09424,18.2757],[-88.09515,18.22805],[-88.08951,18.20876],[-88.1012,18.11804],[-88.11266,18.09917],[-88.11656,18.07674],[-88.12454,18.06072],[-88.1283,18.05941],[-88.1272,18.05659],[-88.13513,18.05435],[-88.13516,18.05912],[-88.14403,18.05674],[-88.14317,18.04774],[-88.15772,18.05022],[-88.15959,18.04686],[-88.15467,18.03621],[-88.15011,18.03894],[-88.14767,18.03663],[-88.14845,18.03174],[-88.15677,18.02731],[-88.15895,18.03245],[-88.16272,18.03191],[-88.16189,18.02934],[-88.16778,18.02364],[-88.1648,18.02056],[-88.16186,18.02354],[-88.15995,18.01982],[-88.1588,18.00836],[-88.16499,18.00871],[-88.16333,18],[-88.15874,18],[-88.15859,17.99742],[-88.17243,17.99425],[-88.17523,17.98959],[-88.17207,17.9797],[-88.18165,17.96431],[-88.17879,17.95892],[-88.17909,17.96356],[-88.17386,17.96668],[-88.17167,17.9609],[-88.19205,17.95034],[-88.1923,17.94622],[-88.1879,17.94616],[-88.18891,17.94212],[-88.19479,17.93616],[-88.19788,17.93666],[-88.20575,17.92605],[-88.20673,17.91188],[-88.20387,17.90687],[-88.20078,17.90728],[-88.20075,17.90316],[-88.21197,17.85209],[-88.22635,17.73223],[-88.2227,17.76857],[-88.22621,17.77113],[-88.22625,17.77654],[-88.2223,17.78892],[-88.22568,17.79251],[-88.23591,17.79425],[-88.23476,17.78344],[-88.23879,17.78212],[-88.24115,17.77412],[-88.24732,17.77151],[-88.24809,17.76687],[-88.24378,17.76483],[-88.2548,17.76502],[-88.25796,17.75612],[-88.25285,17.75602],[-88.25422,17.7403],[-88.26938,17.7366],[-88.27095,17.72963],[-88.27765,17.72753],[-88.27756,17.71542],[-88.27013,17.71479],[-88.26932,17.70904],[-88.26379,17.7056],[-88.25118,17.708],[-88.24282,17.70419],[-88.23147,17.71443],[-88.24462,17.69271],[-88.24944,17.69011],[-88.25204,17.67747],[-88.25928,17.67562],[-88.26286,17.66942],[-88.26955,17.64542],[-88.27533,17.6459],[-88.27765,17.65206],[-88.27349,17.65235],[-88.2647,17.66297],[-88.26367,17.6689],[-88.27784,17.67859],[-88.28197,17.67419],[-88.28193,17.66749],[-88.28584,17.66965],[-88.28905,17.66744],[-88.29293,17.64772],[-88.28892,17.64732],[-88.28846,17.64169],[-88.29016,17.63601],[-88.29405,17.63496],[-88.2901,17.62739],[-88.29823,17.61819],[-88.29441,17.61023],[-88.2972,17.60558],[-88.29475,17.60057],[-88.30172,17.59885],[-88.29754,17.59733],[-88.29527,17.58035],[-88.2923,17.57702],[-88.30395,17.57321],[-88.3007,17.56924],[-88.27984,17.56191],[-88.26753,17.54859],[-88.25705,17.54698],[-88.24196,17.53922],[-88.2422,17.53536],[-88.23629,17.53411],[-88.23746,17.52946],[-88.23135,17.51946],[-88.21656,17.51465],[-88.20208,17.51745],[-88.1967,17.51555],[-88.19591,17.51774],[-88.1862,17.51149],[-88.18655,17.50222],[-88.18128,17.49761],[-88.18058,17.49246],[-88.18514,17.49269],[-88.18618,17.48651],[-88.19408,17.48517],[-88.20103,17.47972],[-88.21311,17.48106],[-88.22793,17.48999],[-88.24611,17.4788],[-88.24927,17.46938],[-88.25891,17.4661],[-88.2594,17.46004],[-88.25389,17.45853],[-88.26185,17.42641],[-88.2602,17.4196],[-88.29761,17.28388],[-88.30234,17.23182],[-88.30582,17.23193],[-88.3084,17.23937],[-88.30514,17.25383],[-88.31132,17.25927],[-88.31153,17.25295],[-88.31805,17.24786],[-88.31791,17.24188],[-88.31424,17.24005],[-88.32103,17.23516],[-88.32171,17.27624],[-88.32804,17.26565],[-88.33258,17.26979],[-88.32701,17.27787],[-88.32674,17.28724],[-88.33156,17.28663],[-88.33432,17.28132],[-88.33712,17.26083],[-88.33224,17.24534],[-88.33455,17.23934],[-88.33851,17.24884],[-88.34575,17.24905],[-88.33843,17.25631],[-88.3446,17.27135],[-88.34351,17.27746],[-88.35499,17.27033],[-88.35884,17.26236],[-88.37861,17.27072],[-88.37709,17.26493],[-88.37469,17.26598],[-88.3698,17.25803],[-88.36096,17.25809],[-88.35489,17.25362],[-88.35792,17.24601],[-88.36247,17.2452],[-88.36818,17.25663],[-88.3765,17.25695],[-88.37749,17.24652],[-88.37547,17.24447],[-88.36838,17.24709],[-88.36496,17.23733],[-88.35891,17.23467],[-88.34686,17.23565],[-88.3411,17.23096],[-88.34609,17.22861],[-88.35434,17.23225],[-88.35868,17.22115],[-88.35838,17.21754],[-88.35219,17.21295],[-88.3528,17.20483],[-88.35574,17.20391],[-88.35423,17.1998],[-88.34848,17.20138],[-88.34834,17.18194],[-88.33841,17.17917],[-88.33784,17.17518],[-88.33092,17.18064],[-88.32285,17.16939],[-88.32473,17.18704],[-88.32255,17.21005],[-88.31825,17.21431],[-88.31918,17.20673],[-88.31409,17.18783],[-88.30675,17.2117],[-88.30555,17.2309],[-88.30273,17.23027],[-88.30314,17.13626],[-88.29899,17.11723],[-88.28955,17.10776],[-88.29444,17.09871],[-88.29059,17.08302],[-88.28552,17.08563],[-88.28402,17.08178],[-88.28414,17.07959],[-88.29111,17.08199],[-88.28861,17.06874],[-88.27475,17.05737],[-88.27445,17.05376],[-88.27097,17.05378],[-88.27188,17.0494],[-88.25394,17.04925],[-88.24903,17.05624],[-88.25173,17.06008],[-88.25084,17.06679],[-88.24424,17.05987],[-88.2422,17.03567],[-88.23515,17.02155],[-88.23606,16.99888],[-88.23204,16.99634],[-88.21848,16.96962],[-88.21803,16.96292],[-88.22724,16.93814],[-88.24541,16.93365],[-88.23797,16.93975],[-88.23205,16.93722],[-88.22619,16.94098],[-88.22218,16.95508],[-88.22978,16.95746],[-88.23456,16.95304],[-88.24176,16.95203],[-88.24069,16.94888],[-88.24842,16.94394],[-88.25026,16.93853],[-88.25908,16.93769],[-88.25743,16.9301],[-88.27795,16.918],[-88.28115,16.89608],[-88.28819,16.88986],[-88.28225,16.86079],[-88.26562,16.83604],[-88.26597,16.82586],[-88.26014,16.81392],[-88.27673,16.81575],[-88.28331,16.80025],[-88.28838,16.79919],[-88.29688,16.78961],[-88.31048,16.78385],[-88.32598,16.76392],[-88.32184,16.76317],[-88.32417,16.75376],[-88.31293,16.75267],[-88.30003,16.72236],[-88.31134,16.69653],[-88.30847,16.66641],[-88.31437,16.64937],[-88.34761,16.62791],[-88.35171,16.62182],[-88.35509,16.58961],[-88.36122,16.58674],[-88.36449,16.57719],[-88.36306,16.56354],[-88.3549,16.54248],[-88.36054,16.52827],[-88.36719,16.52501],[-88.36497,16.51253],[-88.36897,16.51199],[-88.37143,16.52022],[-88.36961,16.52692],[-88.36454,16.52709],[-88.36209,16.5396],[-88.3565,16.54195],[-88.36392,16.55336],[-88.36666,16.58155],[-88.36181,16.59472],[-88.35517,16.60249],[-88.35638,16.62051],[-88.34924,16.63047],[-88.3391,16.63324],[-88.33407,16.63869],[-88.33597,16.64331],[-88.32713,16.64118],[-88.31782,16.64678],[-88.31385,16.65195],[-88.31273,16.66355],[-88.31932,16.67008],[-88.32413,16.67069],[-88.32914,16.6601],[-88.33395,16.66058],[-88.34085,16.6541],[-88.34275,16.65769],[-88.34377,16.65176],[-88.34792,16.65225],[-88.34463,16.63991],[-88.34832,16.63344],[-88.35609,16.63648],[-88.35464,16.63907],[-88.3584,16.64213],[-88.35943,16.63646],[-88.35633,16.6321],[-88.36335,16.62433],[-88.3671,16.62521],[-88.36733,16.61992],[-88.37184,16.61577],[-88.36977,16.60651],[-88.37243,16.60418],[-88.37692,16.57826],[-88.38117,16.57617],[-88.3896,16.57805],[-88.38901,16.58887],[-88.39224,16.59168],[-88.38909,16.59917],[-88.39124,16.60174],[-88.39764,16.60066],[-88.39877,16.59009],[-88.39381,16.58755],[-88.39587,16.57724],[-88.39127,16.56864],[-88.39447,16.56759],[-88.39583,16.57067],[-88.39968,16.56845],[-88.40138,16.56368],[-88.40765,16.56222],[-88.4124,16.55446],[-88.41213,16.54862],[-88.4242,16.54369],[-88.40953,16.54611],[-88.40543,16.53905],[-88.39854,16.5391],[-88.40751,16.52435],[-88.40136,16.52285],[-88.40223,16.51434],[-88.41949,16.52028],[-88.42519,16.5147],[-88.42263,16.51099],[-88.42547,16.51075],[-88.42567,16.5062],[-88.4173,16.51257],[-88.40525,16.50685],[-88.4104,16.49935],[-88.40741,16.49216],[-88.41486,16.48876],[-88.41999,16.47804],[-88.42997,16.47475],[-88.43406,16.46815],[-88.43105,16.45774],[-88.43316,16.45451],[-88.4393,16.45434],[-88.43991,16.44609],[-88.44577,16.44476],[-88.45154,16.44987],[-88.45124,16.44459],[-88.45632,16.44585],[-88.45736,16.44249],[-88.46723,16.44204],[-88.45894,16.43965],[-88.44882,16.44191],[-88.44724,16.42775],[-88.45264,16.41844],[-88.45681,16.42279],[-88.4549,16.4344],[-88.46608,16.43045],[-88.46224,16.41722],[-88.46805,16.40893],[-88.47233,16.40955],[-88.4727,16.40645],[-88.47696,16.40539],[-88.48422,16.3944],[-88.4842,16.39156],[-88.47725,16.39019],[-88.4817,16.3787],[-88.48492,16.38061],[-88.47976,16.36867],[-88.49144,16.3445],[-88.51756,16.32397],[-88.52785,16.30934],[-88.54007,16.30359],[-88.54335,16.29648],[-88.54357,16.27278],[-88.57261,16.26935],[-88.57749,16.26326],[-88.58307,16.24468],[-88.59029,16.2472],[-88.59006,16.25106],[-88.58211,16.25808],[-88.59335,16.26289],[-88.58991,16.26613],[-88.59303,16.27293],[-88.60192,16.26681],[-88.5972,16.26105],[-88.60102,16.25523],[-88.60532,16.25958],[-88.61279,16.259],[-88.6194,16.26938],[-88.63538,16.28317],[-88.64979,16.2837],[-88.65142,16.28768],[-88.66146,16.29198],[-88.66335,16.29557],[-88.66112,16.3001],[-88.65259,16.29978],[-88.64598,16.30717],[-88.65397,16.3053],[-88.66214,16.30949],[-88.6631,16.31334],[-88.65487,16.31779],[-88.65468,16.32629],[-88.65228,16.32656],[-88.65691,16.33557],[-88.65681,16.34704],[-88.66758,16.33829],[-88.6666,16.33289],[-88.67097,16.32938],[-88.66214,16.32546],[-88.66318,16.32287],[-88.66958,16.32231],[-88.67282,16.3264],[-88.6733,16.32073],[-88.67903,16.32043],[-88.68613,16.32411],[-88.68271,16.3289],[-88.69489,16.32915],[-88.69678,16.33205],[-88.6977,16.325],[-88.69364,16.32907],[-88.68856,16.32795],[-88.68931,16.32138],[-88.6815,16.3132],[-88.68412,16.30674],[-88.67944,16.30549],[-88.68321,16.29413],[-88.68709,16.29564],[-88.68953,16.28519],[-88.68393,16.28472],[-88.67358,16.2906],[-88.67193,16.28443],[-88.66395,16.28733],[-88.65695,16.27914],[-88.67362,16.26407],[-88.69196,16.25697],[-88.6919,16.25014],[-88.70074,16.25471],[-88.71519,16.24648],[-88.71582,16.24223],[-88.72384,16.24461],[-88.73287,16.24054],[-88.7333,16.25857],[-88.72997,16.25975],[-88.73591,16.26795],[-88.73815,16.26471],[-88.73574,16.26383],[-88.74251,16.26042],[-88.74181,16.25657],[-88.7362,16.25507],[-88.73629,16.25069],[-88.74016,16.25104],[-88.74225,16.24549],[-88.74274,16.24136],[-88.73728,16.24141],[-88.74187,16.23287],[-88.75238,16.23098],[-88.75473,16.24036],[-88.76375,16.23527],[-88.75571,16.23095],[-88.75538,16.22323],[-88.74791,16.22252],[-88.74973,16.21748],[-88.75456,16.22066],[-88.7601,16.21495],[-88.75424,16.21474],[-88.74944,16.2001],[-88.7442,16.19499],[-88.74375,16.18933],[-88.74761,16.18865],[-88.75538,16.17816],[-88.74693,16.1566],[-88.75631,16.14815],[-88.76165,16.14862],[-88.76381,16.15221],[-88.77379,16.13603],[-88.76952,16.13529],[-88.76316,16.13946],[-88.76055,16.14502],[-88.7525,16.13904],[-88.76178,16.13317],[-88.76685,16.13428],[-88.78273,16.12295],[-88.79417,16.12028],[-88.79772,16.11574],[-88.80038,16.10026],[-88.8079,16.0917],[-88.80914,16.08216],[-88.81511,16.07941],[-88.81913,16.08234],[-88.83003,16.0798],[-88.8354,16.07009],[-88.85208,16.05939],[-88.85597,16.03373],[-88.89225,16.01152],[-88.91215,16.00465],[-88.92774,15.99202],[-88.93639,15.97842],[-88.94361,15.98158],[-88.94461,15.97487],[-88.94064,15.97736],[-88.93411,15.97574],[-88.93309,15.9536],[-88.91322,15.90717],[-88.9178,15.89863],[-88.93237,15.89193],[-88.95736,15.889],[-88.96753,15.89548],[-88.98271,15.89637],[-88.99397,15.90502],[-89.00268,15.89805],[-89.02036,15.89479],[-89.01987,15.91068],[-89.04186,15.91482],[-89.04634,15.90439],[-89.05177,15.90235],[-89.05449,15.91717],[-89.05991,15.91445],[-89.05959,15.90996],[-89.06407,15.90787],[-89.06565,15.90076],[-89.07607,15.9092],[-89.07785,15.89943],[-89.08062,15.89808],[-89.0887,15.90971],[-89.10262,15.91246],[-89.10917,15.90637],[-89.11685,15.90678],[-89.11297,15.89872],[-89.11557,15.89595],[-89.12084,15.90338],[-89.12841,15.89931],[-89.1318,15.90698],[-89.14837,15.89687],[-89.16261,15.89914],[-89.16917,15.91031],[-89.17741,15.91304],[-89.18786,15.90813],[-89.18707,15.89817],[-89.19765,15.90218],[-89.20271,15.89775],[-89.20891,15.89837],[-89.21601,15.89438],[-89.21815,15.88708],[-89.22479,15.88743],[-89.22474,15.89499],[-89.22755,15.89692],[-89.19316,16.41422]]],[[[-88.13184,18.04394],[-88.13589,18.04572],[-88.13457,18.04997],[-88.13066,18.04935],[-88.13184,18.04394]]],[[[-88.15207,18],[-88.15554,17.98301],[-88.15761,17.99124],[-88.15561,17.99409],[-88.15912,17.99536],[-88.15443,17.99989],[-88.15499,18.00337],[-88.14324,18.01657],[-88.14036,18.01487],[-88.13855,18.02072],[-88.13479,18.021],[-88.15207,18]]],[[[-88.14094,18.03616],[-88.14204,18.0395],[-88.13857,18.04416],[-88.13558,18.0407],[-88.14094,18.03616]]],[[[-88.1497,18.01679],[-88.15083,18.02451],[-88.14558,18.02583],[-88.1497,18.01679]]],[[[-88.1447,18.03408],[-88.14852,18.04294],[-88.14474,18.04077],[-88.1447,18.03408]]],[[[-88.15677,17.65384],[-88.15627,17.65874],[-88.14875,17.65981],[-88.15114,17.65491],[-88.15677,17.65384]]],[[[-88.14957,18.03894],[-88.15523,18.03981],[-88.15687,18.04353],[-88.14959,18.04203],[-88.14957,18.03894]]],[[[-88.15512,18.0232],[-88.1577,18.0255],[-88.15407,18.02732],[-88.15512,18.0232]]],[[[-88.24006,17.73292],[-88.24574,17.73778],[-88.23794,17.73757],[-88.24006,17.73292]]],[[[-88.23993,17.7525],[-88.24343,17.75441],[-88.24183,17.75609],[-88.23993,17.7525]]],[[[-88.26634,17.7249],[-88.27148,17.72886],[-88.26664,17.72863],[-88.26634,17.7249]]],[[[-88.27821,16.79745],[-88.27533,16.80623],[-88.27425,16.80533],[-88.27821,16.79745]]],[[[-88.28898,17.64922],[-88.28815,17.65509],[-88.28253,17.65834],[-88.2809,17.65552],[-88.28788,17.65406],[-88.28898,17.64922]]],[[[-88.3588,16.50793],[-88.36177,16.51384],[-88.35911,16.51527],[-88.3588,16.50793]]],[[[-88.38479,16.55838],[-88.39095,16.56168],[-88.38861,16.56956],[-88.38084,16.56677],[-88.38479,16.55838]]],[[[-88.38923,16.54495],[-88.39231,16.54558],[-88.39154,16.55099],[-88.39569,16.55212],[-88.39571,16.55496],[-88.38675,16.55308],[-88.38512,16.54949],[-88.38923,16.54495]]],[[[-88.42427,16.44285],[-88.42589,16.44541],[-88.42068,16.44493],[-88.42427,16.44285]]],[[[-88.43534,16.4241],[-88.43885,16.42961],[-88.43537,16.42848],[-88.43534,16.4241]]],[[[-88.45941,16.39457],[-88.4552,16.40323],[-88.44532,16.40252],[-88.44482,16.40716],[-88.43778,16.41107],[-88.43736,16.40799],[-88.44096,16.4077],[-88.44558,16.40149],[-88.44985,16.40185],[-88.45941,16.39457]]],[[[-88.46537,16.40715],[-88.46541,16.41269],[-88.46221,16.41335],[-88.46537,16.40715]]],[[[-88.63878,16.17767],[-88.64438,16.17802],[-88.63746,16.18013],[-88.63878,16.17767]]],[[[-88.65779,16.2526],[-88.65522,16.2637],[-88.6533,16.25753],[-88.65779,16.2526]]],[[[-88.67008,16.28728],[-88.66961,16.29475],[-88.66669,16.29606],[-88.66441,16.29479],[-88.67008,16.28728]]],[[[-88.71226,16.16937],[-88.71071,16.17518],[-88.70817,16.17365],[-88.71226,16.16937]]],[[[-88.92615,15.88758],[-88.9305,15.8913],[-88.91829,15.89425],[-88.91878,15.89012],[-88.92615,15.88758]]]]}}]}