{"type":"FeatureCollection","features":[{"type":"Feature","properties":{"ISO_A3":"BRB","WB_A3":"BRB","WB_NAME":"Barbados","WB_REGION":"LCN"},"geometry":{"type":"MultiPolygon","coordinates":[[[[-59.6439,13.26334],[-59.64385,13.26335],[-59.64368,13.26337],[-59.6439,13.26334]]],[[[-59.52778,13.04425],[-59.53274,13.04612],[-59.53885,13.05907],[-59.54588,13.06354],[-59.56531,13.06315],[-59.58932,13.0726],[-59.61314,13.07768],[-59.61008,13.08073],[-59.61073,13.09026],[-59.62923,13.10105],[-59.63008,13.10595],[-59.62688,13.10951],[-59.62873,13.11802],[-59.63491,13.12711],[-59.63889,13.14286],[-59.6383,13.18659],[-59.64273,13.19823],[-59.6401,13.20823],[-59.64519,13.23969],[-59.64355,13.26338],[-59.65012,13.28221],[-59.65061,13.30491],[-59.6373,13.32579],[-59.62144,13.33304],[-59.60727,13.33156],[-59.58471,13.31042],[-59.57672,13.30717],[-59.57434,13.3005],[-59.57728,13.29642],[-59.56854,13.28396],[-59.56581,13.27157],[-59.55497,13.2517],[-59.53083,13.21912],[-59.51991,13.21177],[-59.50813,13.20878],[-59.49986,13.19966],[-59.48718,13.19589],[-59.48659,13.19073],[-59.47769,13.18881],[-59.46864,13.17968],[-59.45835,13.18262],[-59.44859,13.16808],[-59.43922,13.16255],[-59.43171,13.1645],[-59.43162,13.16142],[-59.42187,13.15459],[-59.42277,13.13788],[-59.43008,13.12255],[-59.4497,13.10018],[-59.45443,13.09047],[-59.48626,13.06685],[-59.49599,13.06505],[-59.50459,13.05115],[-59.52778,13.04425]]]]}}]}