{"type":"FeatureCollection","features":[{"type":"Feature","properties":{"ISO_A3":"BRN","WB_A3":"BRN","WB_NAME":"Brunei Darussalam","WB_REGION":"EAS"},"geometry":{"type":"MultiPolygon","coordinates":[[[[115.04337,4.67537],[115.03394,4.69442],[115.03872,4.69235],[115.03933,4.69484],[115.02917,4.69985],[115.03278,4.70763],[115.0357,4.7049],[115.039,4.70651],[115.03539,4.709],[115.03791,4.71251],[115.0338,4.71161],[115.03343,4.71412],[115.04106,4.71396],[115.04233,4.71768],[115.03587,4.72089],[115.04342,4.73161],[115.03673,4.73365],[115.0371,4.741],[115.04191,4.73942],[115.04097,4.73573],[115.0515,4.73292],[115.05429,4.74839],[115.06402,4.75769],[115.06763,4.7541],[115.06736,4.75925],[115.07634,4.75979],[115.07645,4.76352],[115.08275,4.76689],[115.09173,4.7695],[115.09393,4.76705],[115.08521,4.75698],[115.09076,4.74587],[115.08489,4.73482],[115.07539,4.7335],[115.07913,4.72939],[115.07799,4.72372],[115.07118,4.7219],[115.07408,4.69558],[115.0717,4.72164],[115.07799,4.72269],[115.08003,4.72707],[115.07745,4.73286],[115.08412,4.73301],[115.09141,4.74566],[115.09478,4.74459],[115.09449,4.74848],[115.08794,4.75074],[115.09331,4.75369],[115.09254,4.75623],[115.08649,4.75802],[115.09457,4.76345],[115.09546,4.76835],[115.08531,4.76883],[115.08453,4.77141],[115.09583,4.77428],[115.10331,4.76141],[115.10947,4.76169],[115.11321,4.75706],[115.11436,4.76093],[115.12553,4.75942],[115.1236,4.76327],[115.12874,4.76175],[115.13004,4.75582],[115.1403,4.76086],[115.15059,4.75561],[115.1426,4.76448],[115.13697,4.75906],[115.13234,4.7593],[115.12255,4.7692],[115.10842,4.77018],[115.10275,4.77868],[115.10762,4.78101],[115.11123,4.77664],[115.11366,4.78051],[115.11018,4.78411],[115.0988,4.7844],[115.09578,4.78987],[115.08318,4.79408],[115.08625,4.7995],[115.09086,4.7999],[115.09291,4.8097],[115.10574,4.81271],[115.11682,4.80113],[115.11657,4.7983],[115.11195,4.79725],[115.11889,4.79547],[115.11608,4.78747],[115.12147,4.79161],[115.13252,4.78778],[115.1284,4.79189],[115.13403,4.79847],[115.13145,4.80325],[115.12335,4.80553],[115.12473,4.82074],[115.11288,4.82973],[115.11208,4.84132],[115.1167,4.84313],[115.12417,4.83749],[115.13311,4.83611],[115.13318,4.83004],[115.12678,4.82049],[115.13114,4.82205],[115.13625,4.83263],[115.14392,4.82984],[115.14831,4.8373],[115.15525,4.8368],[115.15523,4.84505],[115.16386,4.85296],[115.16237,4.86362],[115.18421,4.86677],[115.18536,4.86343],[115.18045,4.85864],[115.18519,4.8514],[115.18318,4.84947],[115.19053,4.84023],[115.23842,4.80318],[115.23492,4.78808],[115.23694,4.78379],[115.2345,4.78339],[115.22756,4.75691],[115.23998,4.75099],[115.24283,4.73926],[115.24894,4.73852],[115.26066,4.72737],[115.2537,4.71236],[115.24315,4.70107],[115.25205,4.69237],[115.25833,4.69228],[115.27011,4.68417],[115.26612,4.66766],[115.25572,4.6503],[115.26561,4.65072],[115.28034,4.64022],[115.28156,4.63472],[115.28577,4.63337],[115.28515,4.62049],[115.28994,4.61451],[115.29009,4.60687],[115.28475,4.59456],[115.28932,4.58661],[115.28635,4.58281],[115.28629,4.57394],[115.27477,4.56685],[115.27277,4.55028],[115.26844,4.54689],[115.27226,4.53538],[115.26699,4.52902],[115.27018,4.51977],[115.26834,4.51183],[115.26899,4.50915],[115.27622,4.5105],[115.27788,4.50777],[115.27322,4.48282],[115.28073,4.47308],[115.27257,4.44765],[115.27825,4.43445],[115.2998,4.41039],[115.302,4.40015],[115.31369,4.39338],[115.32454,4.39156],[115.32778,4.38558],[115.333,4.38723],[115.34729,4.35396],[115.36428,4.34504],[115.35683,4.3234],[115.3363,4.30159],[115.32299,4.29593],[115.29332,4.32507],[115.29497,4.33708],[115.28255,4.33689],[115.27488,4.34386],[115.26793,4.34235],[115.26482,4.3363],[115.25023,4.33737],[115.24434,4.34353],[115.2464,4.36089],[115.2373,4.36794],[115.22807,4.36319],[115.22119,4.36381],[115.21827,4.35836],[115.21349,4.3582],[115.19086,4.36533],[115.18461,4.37203],[115.17615,4.36888],[115.15876,4.37468],[115.15542,4.38195],[115.14789,4.38399],[115.14286,4.37536],[115.10941,4.37038],[115.10853,4.37753],[115.10043,4.38353],[115.09206,4.38459],[115.09006,4.38842],[115.1039,4.41087],[115.10433,4.41677],[115.09082,4.43591],[115.09357,4.45282],[115.098,4.45589],[115.09615,4.46226],[115.09862,4.4703],[115.09139,4.48078],[115.09487,4.49187],[115.09191,4.49186],[115.08091,4.50958],[115.07971,4.5184],[115.08361,4.52142],[115.08435,4.53329],[115.07499,4.54427],[115.07262,4.55397],[115.06924,4.55489],[115.07349,4.56051],[115.06969,4.56863],[115.07033,4.57797],[115.06421,4.58307],[115.06195,4.5941],[115.05693,4.59549],[115.05031,4.60531],[115.04663,4.61715],[115.04135,4.62074],[115.04361,4.62303],[115.03925,4.633],[115.0512,4.64798],[115.05124,4.65067],[115.04704,4.65111],[115.04743,4.65531],[115.0425,4.65304],[115.04299,4.65872],[115.03983,4.65854],[115.03989,4.66737],[115.04687,4.6679],[115.04152,4.67165],[115.04337,4.67537]]],[[[115.15675,4.85124],[115.15342,4.85032],[115.15238,4.85303],[115.15776,4.85416],[115.15675,4.85124]]],[[[115.09765,5.03674],[115.09892,5.04125],[115.12281,5.04377],[115.13079,5.04173],[115.09765,5.03674]]],[[[115.12171,4.79522],[115.12196,4.79806],[115.12954,4.79885],[115.12634,4.79472],[115.12171,4.79522]]],[[[115.11342,5.01179],[115.11982,5.01271],[115.12861,4.99341],[115.09289,4.9942],[115.07602,5.01103],[115.07612,5.01876],[115.08125,5.01904],[115.09798,5.01045],[115.11342,5.01179]]],[[[115.09204,4.81507],[115.09365,4.81692],[115.09726,4.81448],[115.09572,4.81177],[115.09204,4.81507]]],[[[114.86918,4.33475],[114.81309,4.2556],[114.8157,4.24898],[114.82923,4.25996],[114.83538,4.25917],[114.85263,4.27877],[114.85664,4.27832],[114.85723,4.26805],[114.84225,4.24282],[114.8319,4.21759],[114.81089,4.19578],[114.81304,4.18846],[114.80463,4.18464],[114.79547,4.16571],[114.79405,4.16113],[114.79864,4.15673],[114.80556,4.16321],[114.81156,4.15855],[114.80033,4.13682],[114.79339,4.13178],[114.79439,4.1245],[114.77559,4.11779],[114.77181,4.10739],[114.75764,4.09526],[114.72385,4.04834],[114.70308,4.03068],[114.67755,4.01621],[114.65555,4.00813],[114.61191,4.00286],[114.60977,4.00494],[114.61604,4.01273],[114.62599,4.02068],[114.63259,4.02209],[114.63633,4.03371],[114.61956,4.0357],[114.6086,4.04612],[114.5873,4.047],[114.58361,4.04988],[114.57878,4.06394],[114.57014,4.07504],[114.56657,4.07891],[114.55549,4.07983],[114.55251,4.08427],[114.55585,4.09358],[114.5495,4.10321],[114.54427,4.10422],[114.54802,4.1106],[114.54525,4.12523],[114.52835,4.1351],[114.51772,4.14671],[114.5052,4.14217],[114.49369,4.1466],[114.49555,4.15228],[114.4823,4.17136],[114.47743,4.1915],[114.4592,4.22067],[114.46193,4.22307],[114.46118,4.22993],[114.45332,4.24498],[114.45678,4.26267],[114.44995,4.2785],[114.44164,4.27862],[114.43691,4.27158],[114.43592,4.27469],[114.43073,4.27157],[114.42179,4.25272],[114.40896,4.25742],[114.4027,4.26326],[114.39825,4.26099],[114.383,4.26495],[114.37191,4.26384],[114.36511,4.25556],[114.34807,4.25904],[114.32433,4.25686],[114.31651,4.26363],[114.32402,4.31877],[114.33347,4.34863],[114.30707,4.36586],[114.3161,4.3931],[114.30802,4.4181],[114.2965,4.4406],[114.28419,4.45468],[114.28494,4.4632],[114.26041,4.50674],[114.21329,4.53569],[114.19894,4.53089],[114.19028,4.54655],[114.16303,4.5736],[114.07593,4.58396],[114.07595,4.58722],[114.12954,4.58718],[114.17854,4.59149],[114.19093,4.5721],[114.19646,4.57058],[114.20575,4.55568],[114.21206,4.55107],[114.23514,4.55476],[114.23703,4.56507],[114.23379,4.5733],[114.24531,4.57695],[114.26359,4.56363],[114.27979,4.54319],[114.26526,4.5626],[114.24558,4.57772],[114.23378,4.57459],[114.23602,4.55914],[114.23386,4.55488],[114.20948,4.55466],[114.2065,4.5611],[114.21176,4.56265],[114.21226,4.56626],[114.20521,4.5634],[114.18368,4.58971],[114.2473,4.59743],[114.31088,4.61493],[114.31269,4.61159],[114.30859,4.61003],[114.31552,4.61121],[114.3173,4.61457],[114.31421,4.61597],[114.42598,4.65682],[114.47313,4.67966],[114.51361,4.70402],[114.59442,4.76956],[114.59812,4.76808],[114.58838,4.76328],[114.58224,4.75437],[114.57896,4.73864],[114.56434,4.73525],[114.55756,4.72672],[114.56771,4.72624],[114.56646,4.71541],[114.57045,4.7131],[114.56905,4.70873],[114.56392,4.70678],[114.56212,4.70935],[114.55544,4.70868],[114.55316,4.70147],[114.55497,4.69657],[114.5611,4.70509],[114.56574,4.70034],[114.57084,4.71028],[114.56695,4.72237],[114.57387,4.72562],[114.58596,4.72063],[114.58569,4.7245],[114.5754,4.7282],[114.57053,4.72612],[114.56512,4.73164],[114.5823,4.73737],[114.58611,4.75129],[114.59868,4.75352],[114.60896,4.75085],[114.61626,4.75599],[114.61715,4.75938],[114.58943,4.75555],[114.58929,4.7598],[114.6043,4.76434],[114.6236,4.78568],[114.62376,4.78233],[114.63042,4.78223],[114.62913,4.78467],[114.6414,4.80107],[114.64913,4.7944],[114.65426,4.7948],[114.65782,4.80435],[114.67196,4.80207],[114.67267,4.80424],[114.65705,4.80486],[114.65528,4.79893],[114.64887,4.79556],[114.64241,4.8061],[114.63702,4.80647],[114.62603,4.79071],[114.61833,4.79042],[114.60502,4.7766],[114.59887,4.77233],[114.59989,4.77607],[114.68055,4.84693],[114.76691,4.90184],[114.81047,4.93535],[114.81608,4.94581],[114.81994,4.94337],[114.82815,4.94816],[114.83172,4.95591],[114.8397,4.95666],[114.84684,4.96626],[114.85441,4.97067],[114.85583,4.96809],[114.85892,4.9681],[114.85876,4.97145],[114.86661,4.96993],[114.86814,4.97303],[114.87508,4.97434],[114.87558,4.98066],[114.88303,4.9781],[114.93562,5.00184],[115.0542,5.04485],[115.05947,5.04577],[115.06117,5.03882],[115.06681,5.03742],[115.09302,5.03994],[115.06622,5.01925],[115.06319,4.99991],[115.05511,4.99899],[115.04147,5.00397],[115.04146,5.01042],[115.04644,5.0179],[115.04425,5.02073],[115.03937,5.01943],[115.03158,5.006],[115.03021,4.98886],[115.02489,4.98834],[115.03125,4.98565],[115.034,4.98029],[115.02718,4.98641],[115.02303,4.98433],[115.0228,4.9748],[115.03629,4.9769],[115.03514,4.97278],[115.04568,4.97306],[115.04366,4.96599],[115.03132,4.96258],[115.03545,4.95603],[115.02571,4.94853],[115.02198,4.95058],[115.01605,4.93004],[114.99911,4.9076],[114.95683,4.87218],[114.95078,4.87641],[114.94986,4.88465],[114.93547,4.88499],[114.91883,4.86742],[114.91445,4.87127],[114.90266,4.86209],[114.89653,4.85099],[114.87934,4.84527],[114.88299,4.84323],[114.88347,4.83781],[114.88023,4.83239],[114.86987,4.83442],[114.86734,4.8214],[114.86263,4.82383],[114.85841,4.82253],[114.85951,4.81893],[114.85321,4.81683],[114.84654,4.81941],[114.84475,4.81656],[114.84273,4.80625],[114.84734,4.80935],[114.84591,4.81528],[114.84809,4.81644],[114.85664,4.81461],[114.86452,4.81933],[114.87395,4.81519],[114.86952,4.82786],[114.87142,4.83043],[114.88031,4.82749],[114.8929,4.83292],[114.89169,4.83835],[114.88876,4.83909],[114.89066,4.84131],[114.91015,4.84974],[114.91808,4.85929],[114.92834,4.865],[114.92781,4.86938],[114.94408,4.88023],[114.94808,4.87691],[114.94645,4.86583],[114.95586,4.85195],[114.95332,4.84498],[114.98107,4.83991],[114.98234,4.84507],[114.9875,4.83916],[114.97121,4.80813],[114.95821,4.81317],[114.95004,4.81146],[114.94833,4.81453],[114.9458,4.81269],[114.93383,4.81594],[114.91462,4.80898],[114.89766,4.81634],[114.87462,4.80468],[114.86757,4.80001],[114.86665,4.79406],[114.84738,4.78338],[114.83686,4.76025],[114.82513,4.74563],[114.78987,4.73045],[114.77859,4.73179],[114.77704,4.7282],[114.77686,4.72301],[114.78593,4.71607],[114.78386,4.70535],[114.77808,4.70188],[114.77955,4.68987],[114.78517,4.69126],[114.78669,4.68058],[114.79185,4.67777],[114.79638,4.68091],[114.80178,4.67884],[114.79692,4.66452],[114.80007,4.65665],[114.79903,4.63979],[114.80314,4.6296],[114.80774,4.62657],[114.80941,4.59674],[114.81672,4.59478],[114.81782,4.59113],[114.81534,4.58668],[114.81782,4.5777],[114.81527,4.56315],[114.81959,4.55704],[114.8175,4.55543],[114.82014,4.53879],[114.81764,4.47686],[114.8214,4.46987],[114.82085,4.45951],[114.82668,4.44788],[114.82617,4.43556],[114.82904,4.42963],[114.84687,4.4204],[114.85003,4.42331],[114.86318,4.42085],[114.87694,4.42631],[114.88344,4.42304],[114.88215,4.4016],[114.87763,4.39392],[114.88095,4.38382],[114.88011,4.37072],[114.86918,4.33475]],[[114.67738,4.80591],[114.67737,4.80697],[114.67324,4.80457],[114.67738,4.80591]]],[[[115.0817,4.77217],[115.07734,4.77074],[115.07232,4.77421],[115.07322,4.77627],[115.07973,4.77392],[115.08605,4.77876],[115.08875,4.77762],[115.0817,4.77217]]],[[[115.04644,4.88932],[115.04411,4.89524],[115.05258,4.89604],[115.05029,4.88998],[115.04644,4.88932]]],[[[115.03327,4.73094],[115.0289,4.73415],[115.02785,4.74135],[115.03299,4.7424],[115.03425,4.74962],[115.04477,4.75249],[115.04555,4.75017],[115.03759,4.74912],[115.04147,4.74062],[115.033,4.73867],[115.03327,4.73094]]],[[[115.03794,4.89715],[115.03548,4.9014],[115.04098,4.91018],[115.04408,4.90401],[115.03794,4.89715]]],[[[115.03438,4.88271],[115.03796,4.88736],[115.04028,4.88453],[115.03438,4.88271]]],[[[115.03653,4.75942],[115.04024,4.75534],[115.03843,4.75489],[115.03653,4.75942]]],[[[114.98756,4.85206],[114.98382,4.85032],[114.98119,4.84249],[114.97207,4.84336],[114.96801,4.84718],[114.96716,4.85584],[114.96704,4.84992],[114.96222,4.85076],[114.96443,4.85342],[114.96054,4.85392],[114.95788,4.86161],[114.96174,4.8628],[114.95929,4.86484],[114.96992,4.87621],[114.99966,4.89485],[115.02065,4.92145],[115.02468,4.90369],[115.01865,4.90212],[114.99124,4.87809],[114.98751,4.8674],[114.99079,4.85385],[114.98756,4.85206]]],[[[114.906,4.86118],[114.91087,4.86559],[114.91422,4.86174],[114.91115,4.85877],[114.89986,4.85538],[114.906,4.86118]]],[[[114.88551,4.84426],[114.89243,4.84892],[114.89295,4.84737],[114.88551,4.84426]]]]}}]}