{"type":"FeatureCollection","features":[{"type":"Feature","properties":{"ISO_A3":"BTN","WB_A3":"BTN","WB_NAME":"Bhutan","WB_REGION":"SAS"},"geometry":{"type":"MultiPolygon","coordinates":[[[[90.47822,28.05004],[90.48529,28.05121],[90.50759,28.06617],[90.52553,28.0603],[90.53075,28.05523],[90.55686,28.05052],[90.56929,28.04139],[90.57551,28.0301],[90.58005,28.03023],[90.58178,28.02533],[90.587,28.02352],[90.61556,28.04726],[90.63553,28.04692],[90.65211,28.05658],[90.66197,28.05704],[90.66977,28.06138],[90.67048,28.06567],[90.68271,28.07607],[90.69723,28.07969],[90.70376,28.07103],[90.72541,28.06881],[90.7275,28.06179],[90.7407,28.05436],[90.76283,28.04676],[90.77243,28.05189],[90.781,28.04171],[90.80167,28.04911],[90.81876,28.04732],[90.82247,28.04268],[90.82776,28.04234],[90.83691,28.04884],[90.85271,28.04633],[90.85296,28.05287],[90.85593,28.05347],[90.8642,28.05168],[90.87042,28.04576],[90.89385,28.04086],[90.90009,28.03673],[90.89502,28.02943],[90.90614,28.02566],[90.91842,28.03079],[90.9186,28.03809],[90.92738,28.04379],[90.94639,28.03277],[90.94568,28.02572],[90.952,28.0178],[90.96918,28.00926],[90.97605,28.00222],[90.98922,28.00551],[90.99002,28.01582],[90.99852,28.02244],[91.02063,28.02184],[91.0221,28.02457],[91.02565,28.02399],[91.02844,28.01625],[91.04129,28.00631],[91.05028,28.00742],[91.05498,27.99891],[91.06976,27.99197],[91.07379,27.99493],[91.07506,28.00434],[91.09137,27.99754],[91.10043,28.00028],[91.11158,27.99226],[91.13267,27.99554],[91.14954,27.99022],[91.15638,27.98492],[91.17398,27.98789],[91.1833,27.99271],[91.19142,27.98637],[91.20427,27.98518],[91.21592,27.99171],[91.22365,27.99014],[91.22929,27.98176],[91.25012,27.97049],[91.25545,27.97664],[91.25915,27.97666],[91.26348,27.98745],[91.27063,27.98861],[91.27444,27.99495],[91.27395,28.00952],[91.28022,28.01337],[91.28253,28.02101],[91.29032,28.0295],[91.29862,28.0276],[91.3073,28.03184],[91.3082,28.03989],[91.31202,28.04202],[91.31167,28.04757],[91.30656,28.05233],[91.30869,28.0603],[91.32873,28.06164],[91.33458,28.06622],[91.33888,28.0657],[91.34181,28.06273],[91.34258,28.05019],[91.36195,28.04924],[91.38144,28.03285],[91.39801,28.03072],[91.40989,28.0193],[91.42373,28.01939],[91.43138,28.01498],[91.43349,28.00496],[91.43905,28.00284],[91.44622,28.01001],[91.46585,28.00635],[91.46505,27.99698],[91.46902,27.99503],[91.47534,27.97982],[91.48346,27.97818],[91.49174,27.96542],[91.48395,27.94393],[91.49426,27.93803],[91.50082,27.93957],[91.50973,27.93692],[91.52861,27.92243],[91.53505,27.92354],[91.54761,27.9194],[91.55471,27.89817],[91.56842,27.89716],[91.57805,27.90539],[91.59185,27.90807],[91.60971,27.89453],[91.62517,27.89232],[91.62382,27.88674],[91.6189,27.88445],[91.62101,27.86688],[91.61179,27.85879],[91.6015,27.86459],[91.59392,27.85603],[91.58536,27.86203],[91.57553,27.86412],[91.5699,27.84766],[91.5572,27.85581],[91.55373,27.85406],[91.55338,27.84939],[91.56913,27.81811],[91.57835,27.81136],[91.58711,27.81754],[91.59882,27.81806],[91.60533,27.82334],[91.61467,27.8217],[91.62774,27.81141],[91.63432,27.80415],[91.63906,27.7744],[91.64469,27.76988],[91.64155,27.75195],[91.63496,27.74674],[91.63919,27.73661],[91.63746,27.72993],[91.63241,27.71726],[91.6271,27.7161],[91.62972,27.70074],[91.62372,27.69557],[91.60757,27.6909],[91.60501,27.68427],[91.59734,27.68086],[91.59426,27.67011],[91.57233,27.65975],[91.56302,27.639],[91.56212,27.63077],[91.56493,27.62595],[91.5839,27.60895],[91.57173,27.59674],[91.56609,27.58357],[91.57258,27.57955],[91.5732,27.57305],[91.58036,27.57014],[91.584,27.56418],[91.58383,27.55494],[91.58905,27.55221],[91.59508,27.54204],[91.61195,27.54151],[91.62383,27.51388],[91.64664,27.5006],[91.6519,27.48328],[91.6613,27.48551],[91.66965,27.49204],[91.68345,27.49475],[91.68514,27.50047],[91.69712,27.5053],[91.69985,27.5013],[91.70981,27.49773],[91.71711,27.49843],[91.71338,27.47547],[91.72908,27.46932],[91.74819,27.4722],[91.75118,27.47558],[91.76605,27.4743],[91.76773,27.46528],[91.77871,27.46541],[91.80662,27.47615],[91.82508,27.46794],[91.83006,27.46865],[91.84353,27.4779],[91.84856,27.48663],[91.85554,27.48165],[91.86335,27.48316],[91.8721,27.47073],[91.88597,27.47493],[91.89676,27.4709],[91.92278,27.47388],[91.93094,27.4652],[91.9357,27.46589],[91.94257,27.46071],[91.96109,27.46005],[91.97201,27.4664],[91.97952,27.46342],[91.98761,27.46643],[91.99401,27.47911],[92.00717,27.47602],[92.01594,27.48001],[92.01946,27.47753],[92.02272,27.46333],[92.02233,27.44624],[92.02702,27.44047],[92.04151,27.43674],[92.04391,27.42654],[92.03916,27.42426],[92.03739,27.41796],[92.05436,27.40357],[92.0549,27.38556],[92.04856,27.37632],[92.04774,27.36245],[92.05211,27.35242],[92.06179,27.34312],[92.0649,27.32734],[92.0882,27.30468],[92.09948,27.30295],[92.12318,27.28644],[92.12435,27.27706],[92.12045,27.27153],[92.09272,27.26902],[92.07282,27.27808],[92.04674,27.26927],[92.03767,27.25799],[92.03857,27.25485],[92.05934,27.25226],[92.07196,27.23297],[92.06925,27.21584],[92.06209,27.21059],[92.05707,27.18856],[92.05192,27.1841],[92.03622,27.18026],[92.02672,27.16803],[92.03607,27.13739],[92.02317,27.10941],[92.02999,27.10014],[92.03122,27.07999],[92.03864,27.06941],[92.03847,27.06054],[92.04511,27.05165],[92.05168,27.05201],[92.08192,27.04024],[92.07765,27.01817],[92.09539,27.01141],[92.10339,27.00401],[92.10766,26.98923],[92.10432,26.9868],[92.10523,26.97974],[92.12081,26.97075],[92.12132,26.96102],[92.11276,26.95105],[92.11811,26.94289],[92.11475,26.93377],[92.11694,26.92693],[92.11378,26.9103],[92.11671,26.90712],[92.11718,26.89758],[92.1157,26.89374],[92.10461,26.88724],[92.10365,26.86927],[92.05652,26.84962],[92.01877,26.85332],[91.98706,26.86082],[91.97375,26.87283],[91.9712,26.88418],[91.89378,26.91964],[91.85935,26.91339],[91.82479,26.8639],[91.72428,26.8139],[91.71077,26.81531],[91.69533,26.80906],[91.62927,26.82283],[91.59279,26.80574],[91.50298,26.7927],[91.46806,26.80498],[91.41436,26.84056],[91.38022,26.79436],[91.34141,26.78228],[91.30494,26.78904],[91.283,26.8009],[91.23951,26.81403],[91.14921,26.8125],[91.10151,26.82411],[91.0556,26.78126],[90.99553,26.79069],[90.95707,26.78285],[90.962,26.78761],[90.82217,26.77636],[90.74236,26.7744],[90.72527,26.76866],[90.6997,26.76936],[90.67869,26.78585],[90.64624,26.77818],[90.63383,26.79486],[90.58576,26.8035],[90.54656,26.81659],[90.41755,26.90485],[90.35536,26.90106],[90.34741,26.88605],[90.34489,26.8736],[90.30217,26.84989],[90.24787,26.85977],[90.21976,26.84955],[90.20042,26.83501],[90.18391,26.79936],[90.18626,26.78855],[90.19513,26.78121],[90.19013,26.76792],[90.04495,26.72981],[90.01644,26.73213],[89.96857,26.72199],[89.90212,26.72284],[89.86496,26.73566],[89.85926,26.73482],[89.8662,26.72125],[89.86257,26.70211],[89.81071,26.71115],[89.77169,26.7022],[89.76878,26.71163],[89.75898,26.71899],[89.76023,26.72598],[89.75126,26.73419],[89.72338,26.72343],[89.71661,26.73028],[89.71055,26.73072],[89.70041,26.73807],[89.68904,26.73306],[89.67684,26.7398],[89.67069,26.73952],[89.66997,26.73249],[89.66038,26.7197],[89.6558,26.71804],[89.63461,26.72581],[89.62301,26.72534],[89.61702,26.72888],[89.62229,26.73875],[89.63872,26.74772],[89.64448,26.76052],[89.65259,26.76882],[89.6501,26.77642],[89.64427,26.77739],[89.64011,26.78205],[89.63181,26.78318],[89.62154,26.77833],[89.61406,26.7862],[89.60061,26.78746],[89.59215,26.7928],[89.5659,26.79974],[89.55982,26.81263],[89.5488,26.80981],[89.53288,26.81477],[89.51888,26.81116],[89.5144,26.8139],[89.49669,26.80171],[89.46864,26.80437],[89.45009,26.81845],[89.45053,26.83094],[89.44041,26.84124],[89.42366,26.8356],[89.41401,26.84038],[89.39014,26.84191],[89.38382,26.85912],[89.37919,26.8623],[89.32653,26.84533],[89.32443,26.85032],[89.31899,26.85161],[89.27254,26.82757],[89.26321,26.81553],[89.2215,26.82168],[89.19249,26.81351],[89.17672,26.82111],[89.14124,26.81182],[89.1311,26.8121],[89.12462,26.82224],[89.10998,26.82787],[89.1021,26.83576],[89.10423,26.86369],[89.09266,26.87158],[89.0956,26.89095],[89.0757,26.89779],[89.07233,26.90156],[89.04447,26.89413],[89.0458,26.9118],[89.04185,26.9264],[89.02663,26.92474],[89.01591,26.93822],[88.99724,26.92545],[88.97932,26.91855],[88.94524,26.93283],[88.95406,26.94915],[88.95234,26.96878],[88.92198,26.99318],[88.89248,26.96139],[88.88471,26.95776],[88.88391,26.95396],[88.87416,26.95394],[88.87129,26.96275],[88.87406,26.98464],[88.86933,26.99454],[88.87965,27.03572],[88.87677,27.04713],[88.88121,27.06163],[88.87524,27.06993],[88.87578,27.08992],[88.87108,27.10167],[88.87166,27.1088],[88.8498,27.10834],[88.83874,27.11612],[88.83454,27.11471],[88.81136,27.12702],[88.80358,27.13892],[88.78482,27.13459],[88.74647,27.14185],[88.7518,27.15041],[88.75985,27.1531],[88.7575,27.16518],[88.76478,27.17786],[88.77261,27.18244],[88.78073,27.18463],[88.78675,27.18269],[88.78959,27.18563],[88.78916,27.1941],[88.80017,27.20951],[88.8033,27.21973],[88.80254,27.24744],[88.83359,27.26434],[88.86565,27.26771],[88.87731,27.26428],[88.88604,27.27051],[88.90991,27.27483],[88.91528,27.27019],[88.92133,27.27257],[88.9456,27.26522],[88.95237,27.25896],[88.95335,27.24802],[88.96183,27.23926],[88.96357,27.23314],[88.98142,27.21727],[88.99096,27.21329],[89.00183,27.22316],[89.01479,27.22916],[89.02625,27.2293],[89.03652,27.23527],[89.06488,27.23903],[89.07192,27.25511],[89.0684,27.27623],[89.07071,27.28603],[89.09917,27.2987],[89.1105,27.31095],[89.15294,27.32081],[89.15383,27.33074],[89.16156,27.34196],[89.16135,27.35882],[89.16773,27.35981],[89.17036,27.36345],[89.17219,27.37073],[89.17824,27.37523],[89.178,27.38259],[89.16645,27.39503],[89.16626,27.40635],[89.1573,27.41702],[89.15723,27.4224],[89.14583,27.4266],[89.13584,27.43828],[89.13706,27.4415],[89.11753,27.44161],[89.11731,27.45079],[89.11095,27.45534],[89.10996,27.46476],[89.10144,27.46653],[89.09595,27.47315],[89.09943,27.48774],[89.09667,27.50247],[89.10506,27.50599],[89.11017,27.5181],[89.10366,27.52339],[89.10665,27.53599],[89.11621,27.54372],[89.12802,27.54249],[89.13631,27.55281],[89.15152,27.55699],[89.16207,27.5764],[89.16186,27.58106],[89.15043,27.58678],[89.15256,27.59146],[89.14598,27.60234],[89.12709,27.61454],[89.13358,27.62874],[89.12969,27.63126],[89.13084,27.63664],[89.14168,27.6419],[89.13949,27.6487],[89.15446,27.65605],[89.17566,27.67317],[89.18153,27.67388],[89.17708,27.68178],[89.18502,27.68724],[89.18369,27.69431],[89.19289,27.701],[89.19679,27.72017],[89.21856,27.72327],[89.22886,27.73085],[89.22817,27.73434],[89.22075,27.7378],[89.22687,27.74692],[89.21932,27.76056],[89.22662,27.78394],[89.23125,27.78384],[89.23576,27.79258],[89.23558,27.8009],[89.24525,27.80186],[89.26823,27.81394],[89.26573,27.82283],[89.26753,27.82724],[89.2738,27.82784],[89.28284,27.8378],[89.29084,27.84056],[89.29528,27.85044],[89.30836,27.85676],[89.33049,27.8533],[89.33915,27.86254],[89.35981,27.87194],[89.3704,27.87303],[89.37542,27.88315],[89.391,27.89228],[89.3936,27.90535],[89.39888,27.90935],[89.39907,27.91881],[89.41381,27.92656],[89.41021,27.93449],[89.4164,27.93628],[89.42047,27.94426],[89.43455,27.9474],[89.43459,27.95098],[89.43942,27.95393],[89.43902,27.96436],[89.45286,27.97729],[89.45373,28.00887],[89.4682,28.01363],[89.47203,28.02252],[89.46126,28.03046],[89.46158,28.0356],[89.47461,28.04415],[89.47473,28.04936],[89.48429,28.05861],[89.48395,28.0618],[89.49599,28.06898],[89.49763,28.07432],[89.50611,28.08048],[89.5077,28.09142],[89.51209,28.09444],[89.52081,28.09003],[89.53493,28.08849],[89.54775,28.1034],[89.55339,28.10595],[89.55085,28.11508],[89.55385,28.1188],[89.57004,28.11913],[89.58228,28.13954],[89.59086,28.14597],[89.59319,28.152],[89.59689,28.15144],[89.59674,28.16382],[89.60987,28.16896],[89.62859,28.16563],[89.6429,28.17328],[89.64398,28.17009],[89.65816,28.16829],[89.65997,28.17177],[89.66923,28.17097],[89.6751,28.18063],[89.68339,28.1839],[89.70938,28.1796],[89.71947,28.17072],[89.74105,28.18684],[89.75081,28.1893],[89.7553,28.18656],[89.75981,28.18966],[89.76492,28.18711],[89.7827,28.20773],[89.77471,28.21243],[89.7689,28.22318],[89.78536,28.22871],[89.79407,28.24774],[89.79905,28.2472],[89.80583,28.2376],[89.81966,28.24073],[89.82748,28.23705],[89.83768,28.22569],[89.86214,28.22903],[89.86906,28.22216],[89.87072,28.2147],[89.88864,28.20065],[89.88703,28.19663],[89.89633,28.18862],[89.89769,28.18234],[89.90561,28.18019],[89.91524,28.18717],[89.92674,28.18522],[89.94013,28.19046],[89.94113,28.18596],[89.93428,28.17429],[89.93467,28.16909],[89.94133,28.17296],[89.94639,28.16813],[89.95338,28.17366],[89.95403,28.18171],[89.95877,28.18833],[89.97958,28.19316],[89.99694,28.17949],[90.00047,28.17155],[90.01265,28.16921],[90.01596,28.16579],[90.02418,28.15538],[90.0251,28.14233],[90.04011,28.13669],[90.05449,28.15471],[90.07069,28.15675],[90.08879,28.14683],[90.09356,28.14082],[90.09897,28.14066],[90.10946,28.15361],[90.11331,28.16384],[90.12239,28.17037],[90.12387,28.17648],[90.11963,28.18781],[90.1199,28.19328],[90.123,28.19419],[90.16103,28.19212],[90.18697,28.17505],[90.18981,28.17001],[90.18736,28.16341],[90.21003,28.14794],[90.24675,28.15338],[90.25392,28.14414],[90.2574,28.14461],[90.26628,28.15499],[90.29207,28.16213],[90.29696,28.15587],[90.29492,28.14897],[90.30664,28.13313],[90.32885,28.13092],[90.3406,28.11272],[90.34887,28.10554],[90.35333,28.106],[90.36151,28.09726],[90.36798,28.0754],[90.37628,28.0632],[90.39,28.06258],[90.40709,28.07109],[90.41765,28.06601],[90.42447,28.06778],[90.44416,28.06274],[90.45034,28.04997],[90.45573,28.04732],[90.47822,28.05004]]]]}},{"type":"Feature","properties":{"ISO_A3":"","WB_A3":"","WB_NAME":"Doklam","WB_REGION":"","STATUS":"non-determined","AREA_ID":"doklam","CLAIMANTS":"BTN,CHN"},"geometry":{"type":"MultiPolygon","coordinates":[[[[88.92067,27.32731],[88.93014,27.33618],[88.93709,27.33671],[88.95873,27.31255],[88.97096,27.30532],[88.98096,27.31564],[89.00488,27.32698],[88.99634,27.34678],[88.9896,27.34723],[88.97757,27.35734],[88.98062,27.36355],[88.97655,27.37114],[88.97517,27.38703],[88.97015,27.39827],[88.96453,27.40244],[88.97967,27.42035],[88.97557,27.42965],[88.97633,27.43748],[88.98489,27.44344],[88.99213,27.46052],[88.98824,27.47376],[88.978,27.4872],[88.98866,27.49299],[88.99421,27.50051],[89.00582,27.49791],[89.00765,27.50239],[88.99625,27.51698],[89.00235,27.52964],[89.03769,27.54609],[89.04038,27.54985],[89.03366,27.55379],[89.0317,27.55886],[89.03799,27.56744],[89.0336,27.58046],[89.03637,27.58808],[89.0429,27.58831],[89.05264,27.59994],[89.06222,27.60143],[89.07194,27.609],[89.09132,27.60968],[89.10564,27.60539],[89.10884,27.61199],[89.11971,27.61775],[89.13129,27.61363],[89.13496,27.6078],[89.14598,27.60234],[89.15256,27.59146],[89.15043,27.58678],[89.16186,27.58106],[89.16122,27.57321],[89.15152,27.55699],[89.13631,27.55281],[89.12802,27.54249],[89.11621,27.54372],[89.10665,27.53599],[89.10366,27.52339],[89.11017,27.5181],[89.10506,27.50599],[89.09667,27.50247],[89.09943,27.48774],[89.09595,27.47315],[89.10144,27.46653],[89.10996,27.46476],[89.11095,27.45534],[89.11731,27.45079],[89.11753,27.44161],[89.13706,27.4415],[89.13584,27.43828],[89.14583,27.4266],[89.15723,27.4224],[89.1573,27.41702],[89.16626,27.40635],[89.16645,27.39503],[89.178,27.38259],[89.17824,27.37523],[89.17219,27.37073],[89.17036,27.36345],[89.16773,27.35981],[89.16135,27.35882],[89.16156,27.34196],[89.15383,27.33074],[89.15294,27.32081],[89.1105,27.31095],[89.09917,27.2987],[89.07071,27.28603],[89.0684,27.27623],[89.07192,27.25511],[89.06488,27.23903],[89.03652,27.23527],[89.02625,27.2293],[89.01479,27.22916],[89.00183,27.22316],[88.99096,27.21329],[88.98142,27.21727],[88.96357,27.23314],[88.96183,27.23926],[88.95335,27.24802],[88.95237,27.25896],[88.9456,27.26522],[88.92133,27.27257],[88.91528,27.27019],[88.907,27.27503],[88.91456,27.29186],[88.90876,27.30497],[88.91964,27.31982],[88.92067,27.32731]]]]}}]}