{"type":"FeatureCollection","features":[{"type":"Feature","properties":{"ISO_A3":"BWA","WB_A3":"BWA","WB_NAME":"Botswana","WB_REGION":"AFE,SSF"},"geometry":{"type":"MultiPolygon","coordinates":[[[[23.70869,-18.43405],[23.71439,-18.43632],[23.72175,-18.43347],[23.7235,-18.42881],[23.73054,-18.42897],[23.75518,-18.40382],[23.76125,-18.40618],[23.7644,-18.39782],[23.76847,-18.39772],[23.77574,-18.38732],[23.7781,-18.38883],[23.78669,-18.38477],[23.79577,-18.37412],[23.79306,-18.36552],[23.80618,-18.35562],[23.8038,-18.35144],[23.80844,-18.35337],[23.80362,-18.33954],[23.82197,-18.33048],[23.82914,-18.33195],[23.83314,-18.32936],[23.83324,-18.32397],[23.84276,-18.32608],[23.84098,-18.32356],[23.84588,-18.32244],[23.85131,-18.31378],[23.84919,-18.30963],[23.85108,-18.30264],[23.8648,-18.30282],[23.86152,-18.29584],[23.87072,-18.29063],[23.87102,-18.28254],[23.87816,-18.27307],[23.88199,-18.27552],[23.89569,-18.26293],[23.90285,-18.26627],[23.90871,-18.26021],[23.91066,-18.26357],[23.91539,-18.26321],[23.9175,-18.25684],[23.92498,-18.25627],[23.92646,-18.24954],[23.93111,-18.25065],[23.93405,-18.23581],[23.91978,-18.22396],[23.93214,-18.20411],[23.94267,-18.20358],[23.9426,-18.20077],[23.95845,-18.19001],[23.95639,-18.18615],[23.96026,-18.18391],[23.96336,-18.19073],[23.97004,-18.1889],[23.97484,-18.19133],[23.97563,-18.1872],[23.98211,-18.18492],[23.98011,-18.18138],[23.99033,-18.17416],[23.98923,-18.16531],[23.99236,-18.16982],[23.99575,-18.16756],[23.9976,-18.16967],[23.99864,-18.16332],[24.00564,-18.1665],[24.00916,-18.15429],[24.01549,-18.15291],[24.01322,-18.15032],[24.01526,-18.14692],[24.01991,-18.15069],[24.02212,-18.14394],[24.02386,-18.14777],[24.03057,-18.14659],[24.029,-18.14053],[24.04926,-18.13726],[24.04838,-18.13433],[24.05296,-18.1345],[24.05802,-18.12651],[24.05409,-18.12379],[24.05815,-18.12101],[24.05761,-18.11777],[24.05503,-18.11887],[24.05604,-18.11208],[24.09158,-18.12044],[24.09933,-18.1126],[24.10379,-18.11284],[24.10474,-18.10922],[24.10797,-18.11056],[24.11487,-18.10318],[24.11251,-18.10093],[24.11796,-18.10087],[24.11726,-18.0982],[24.12736,-18.087],[24.13194,-18.08341],[24.13559,-18.0854],[24.14285,-18.07616],[24.14911,-18.07462],[24.1645,-18.04813],[24.17307,-18.04808],[24.17382,-18.04325],[24.16734,-18.04],[24.16856,-18.03642],[24.17757,-18.03744],[24.17952,-18.04101],[24.18743,-18.03403],[24.18976,-18.02592],[24.19395,-18.02665],[24.19454,-18.02349],[24.1916,-18.02266],[24.19556,-18.01845],[24.1976,-18.02165],[24.1997,-18.01826],[24.21021,-18.01663],[24.21355,-18.02049],[24.23449,-18.02355],[24.23706,-18.02658],[24.24391,-18.02465],[24.248,-18.01786],[24.27501,-18.0128],[24.28267,-18.02078],[24.2861,-18.03115],[24.29595,-18.03586],[24.29376,-18.03094],[24.30235,-18.01746],[24.30317,-18.0075],[24.30973,-18.00101],[24.32412,-17.99726],[24.32966,-17.99272],[24.35221,-17.96602],[24.35179,-17.96316],[24.3604,-17.9621],[24.37201,-17.94925],[24.38321,-17.95071],[24.38879,-17.94761],[24.39058,-17.95514],[24.39959,-17.95861],[24.40351,-17.95676],[24.40401,-17.95123],[24.40797,-17.95079],[24.4193,-17.9597],[24.42014,-17.95361],[24.42359,-17.95182],[24.44385,-17.96499],[24.44836,-17.97295],[24.45191,-17.97045],[24.45025,-17.96581],[24.45726,-17.9638],[24.45545,-17.97411],[24.45938,-17.98106],[24.45474,-17.98326],[24.45552,-17.98591],[24.46564,-17.98941],[24.47097,-18.00624],[24.48717,-18.01552],[24.48407,-18.0178],[24.48549,-18.02301],[24.48186,-18.02512],[24.4852,-18.02819],[24.4818,-18.03404],[24.48319,-18.03791],[24.48733,-18.03632],[24.49437,-18.04432],[24.49808,-18.04155],[24.49888,-18.05529],[24.50769,-18.06586],[24.51176,-18.06243],[24.50878,-18.05705],[24.51089,-18.05564],[24.51868,-18.0633],[24.52239,-18.05784],[24.5217,-18.05157],[24.53139,-18.05517],[24.52876,-18.05928],[24.53429,-18.06022],[24.53254,-18.06277],[24.53579,-18.06386],[24.53629,-18.06915],[24.54113,-18.06465],[24.54488,-18.07009],[24.54992,-18.06956],[24.54906,-18.06612],[24.55359,-18.06897],[24.55876,-18.06647],[24.56636,-18.07158],[24.57351,-18.06957],[24.57453,-18.07363],[24.57906,-18.07025],[24.578,-18.06561],[24.58266,-18.06173],[24.58173,-18.05779],[24.59769,-18.04937],[24.59748,-18.0426],[24.60136,-18.04252],[24.59903,-18.03555],[24.60617,-18.03633],[24.60854,-18.03357],[24.60817,-18.02805],[24.61448,-18.01788],[24.61636,-17.99542],[24.62937,-17.9945],[24.62722,-17.98408],[24.6365,-17.97793],[24.64122,-17.98015],[24.64634,-17.97817],[24.64902,-17.9687],[24.65567,-17.96775],[24.6636,-17.96007],[24.66577,-17.94976],[24.67028,-17.95154],[24.67514,-17.94568],[24.68117,-17.94831],[24.68229,-17.9446],[24.68625,-17.94488],[24.69434,-17.93687],[24.69573,-17.94452],[24.69923,-17.94288],[24.7064,-17.93355],[24.70847,-17.92192],[24.71909,-17.92283],[24.72035,-17.91471],[24.72475,-17.91565],[24.72626,-17.90713],[24.72364,-17.90425],[24.73006,-17.89876],[24.73166,-17.89245],[24.73526,-17.89198],[24.73559,-17.88793],[24.7396,-17.88836],[24.73863,-17.8856],[24.74621,-17.8864],[24.75054,-17.89683],[24.75737,-17.89493],[24.76504,-17.88728],[24.76816,-17.88856],[24.77056,-17.88175],[24.77379,-17.88288],[24.77132,-17.87191],[24.77736,-17.87655],[24.79292,-17.87037],[24.79649,-17.87532],[24.8198,-17.85401],[24.82306,-17.8471],[24.83282,-17.8496],[24.84879,-17.84716],[24.84908,-17.85021],[24.85472,-17.85018],[24.88845,-17.82897],[24.90022,-17.83048],[24.91069,-17.81027],[24.91677,-17.81503],[24.9217,-17.81153],[24.92532,-17.81407],[24.92784,-17.80867],[24.93114,-17.81797],[24.93455,-17.81841],[24.93881,-17.81133],[24.95371,-17.8015],[24.95283,-17.79673],[24.96156,-17.78778],[24.97476,-17.78824],[24.98234,-17.7932],[24.98003,-17.79824],[24.9651,-17.80273],[24.96712,-17.81009],[24.98011,-17.8122],[24.98102,-17.81556],[24.97495,-17.82003],[24.97703,-17.82605],[24.9947,-17.82937],[24.99793,-17.81734],[25.00573,-17.81623],[25.00942,-17.81914],[25.00938,-17.8259],[25.00407,-17.82475],[25.00012,-17.83185],[25.00443,-17.83748],[25.01364,-17.83823],[25.04423,-17.81144],[25.05328,-17.80768],[25.05922,-17.81096],[25.06176,-17.82395],[25.05952,-17.82978],[25.05359,-17.82798],[25.04922,-17.8305],[25.0536,-17.83573],[25.06625,-17.84099],[25.11383,-17.82661],[25.11826,-17.82371],[25.12937,-17.80179],[25.14394,-17.80797],[25.1563,-17.78274],[25.16252,-17.77825],[25.17675,-17.77969],[25.22224,-17.79356],[25.2372,-17.79154],[25.2561,-17.7949],[25.26281,-17.79129],[25.26466,-17.81662],[25.2464,-17.85094],[25.23975,-17.87199],[25.23881,-17.88948],[25.24315,-17.89716],[25.23745,-17.91297],[25.25144,-17.93918],[25.26524,-17.9486],[25.28184,-17.9907],[25.28081,-18.00619],[25.28648,-18.02264],[25.29768,-18.04273],[25.31291,-18.05952],[25.3189,-18.0781],[25.35521,-18.09085],[25.36382,-18.09874],[25.36559,-18.11182],[25.37083,-18.11793],[25.39338,-18.1216],[25.41563,-18.15321],[25.42479,-18.17467],[25.44098,-18.19927],[25.44802,-18.22068],[25.45444,-18.22539],[25.45753,-18.24308],[25.46539,-18.25953],[25.49107,-18.29856],[25.52244,-18.3832],[25.56995,-18.43025],[25.60355,-18.4778],[25.61042,-18.48369],[25.64782,-18.4967],[25.65582,-18.52021],[25.66342,-18.52589],[25.66967,-18.54168],[25.69305,-18.57399],[25.71655,-18.59175],[25.73514,-18.59549],[25.75892,-18.60578],[25.78239,-18.62479],[25.78841,-18.64285],[25.7901,-18.66313],[25.80338,-18.68557],[25.79255,-18.69405],[25.79163,-18.70106],[25.79015,-18.71991],[25.79576,-18.75425],[25.80585,-18.79008],[25.81937,-18.80854],[25.8251,-18.83748],[25.84989,-18.84924],[25.85354,-18.85406],[25.86882,-18.85904],[25.92366,-18.89916],[25.9395,-18.90126],[25.95125,-18.91279],[25.96742,-18.94095],[25.97469,-18.96093],[25.98477,-18.97333],[25.99677,-19.03152],[25.97472,-19.05284],[25.9654,-19.06668],[25.96146,-19.09034],[25.96453,-19.10792],[25.97462,-19.13125],[25.99203,-19.14746],[26.04179,-19.21061],[26.04348,-19.23657],[26.06126,-19.26204],[26.0722,-19.27207],[26.07411,-19.29217],[26.09098,-19.32448],[26.09773,-19.34746],[26.10847,-19.36177],[26.12608,-19.42793],[26.13088,-19.42858],[26.14173,-19.43818],[26.15338,-19.50151],[26.1582,-19.50765],[26.15926,-19.52148],[26.16999,-19.54602],[26.18464,-19.55029],[26.20355,-19.56155],[26.21574,-19.56312],[26.23696,-19.58185],[26.24607,-19.58482],[26.31208,-19.57588],[26.32363,-19.59226],[26.3584,-19.61476],[26.34787,-19.62147],[26.33765,-19.63526],[26.32862,-19.65123],[26.32795,-19.66405],[26.34038,-19.66704],[26.35342,-19.67586],[26.38774,-19.66924],[26.39156,-19.67104],[26.39421,-19.68255],[26.40595,-19.69522],[26.41339,-19.72217],[26.43335,-19.74513],[26.44793,-19.75197],[26.49414,-19.75791],[26.51171,-19.76751],[26.53326,-19.76995],[26.53599,-19.77787],[26.54566,-19.78435],[26.56209,-19.78174],[26.56167,-19.78471],[26.57364,-19.79183],[26.58331,-19.80407],[26.59966,-19.85082],[26.61884,-19.88122],[26.62201,-19.88296],[26.63206,-19.87562],[26.64289,-19.87282],[26.70276,-19.88771],[26.70207,-19.89473],[26.72003,-19.93239],[26.72649,-19.93989],[26.75375,-19.93666],[26.79505,-19.94721],[26.82868,-19.96227],[26.85139,-19.96177],[26.88201,-19.97573],[26.90087,-19.97988],[26.93375,-19.99913],[26.98027,-20.0149],[27.00578,-20.00808],[27.04033,-20.00883],[27.08467,-20.03265],[27.0947,-20.05202],[27.11274,-20.06581],[27.14353,-20.07967],[27.15502,-20.08083],[27.18301,-20.07632],[27.206,-20.08187],[27.2149,-20.09049],[27.2242,-20.11149],[27.23365,-20.12023],[27.24642,-20.14358],[27.25055,-20.16788],[27.26411,-20.19442],[27.26619,-20.2141],[27.27324,-20.22204],[27.27819,-20.22319],[27.28468,-20.23365],[27.29199,-20.26734],[27.2895,-20.2797],[27.30021,-20.29627],[27.29885,-20.30417],[27.30447,-20.33086],[27.29613,-20.35889],[27.29846,-20.42577],[27.28544,-20.48527],[27.28866,-20.49906],[27.36284,-20.46858],[27.3787,-20.47767],[27.4337,-20.48204],[27.4714,-20.46749],[27.54489,-20.48262],[27.57676,-20.49421],[27.60321,-20.48008],[27.62186,-20.47923],[27.64668,-20.49866],[27.67529,-20.49366],[27.6831,-20.4867],[27.69484,-20.48998],[27.72343,-20.51268],[27.73039,-20.52256],[27.72659,-20.53406],[27.73021,-20.54198],[27.72658,-20.54802],[27.72913,-20.55572],[27.72474,-20.56662],[27.71865,-20.57219],[27.7218,-20.5779],[27.71977,-20.58472],[27.71381,-20.58669],[27.71362,-20.59213],[27.70326,-20.60317],[27.70516,-20.624],[27.70859,-20.6261],[27.70382,-20.63905],[27.70632,-20.64795],[27.70321,-20.6573],[27.71271,-20.67976],[27.71593,-20.67934],[27.7161,-20.6835],[27.72536,-20.69186],[27.72365,-20.69578],[27.73298,-20.70391],[27.7291,-20.71421],[27.73318,-20.71515],[27.72718,-20.72027],[27.72851,-20.73191],[27.7333,-20.74074],[27.72986,-20.74751],[27.7328,-20.75918],[27.72581,-20.77813],[27.73059,-20.79455],[27.71799,-20.79699],[27.71978,-20.80707],[27.71265,-20.83055],[27.71767,-20.83803],[27.69338,-20.86614],[27.69336,-20.88369],[27.7002,-20.89452],[27.70168,-20.90554],[27.69694,-20.91105],[27.69513,-20.9258],[27.68952,-20.93305],[27.69761,-20.94723],[27.70957,-20.95635],[27.70963,-20.96678],[27.70053,-20.98274],[27.70108,-20.99074],[27.7069,-21.00065],[27.69571,-21.00493],[27.7003,-21.01277],[27.698,-21.01632],[27.70143,-21.02083],[27.70437,-21.03848],[27.69825,-21.04707],[27.68518,-21.05103],[27.68951,-21.0678],[27.69518,-21.0735],[27.69328,-21.08772],[27.6984,-21.0896],[27.69848,-21.09655],[27.70306,-21.10193],[27.71371,-21.1049],[27.71587,-21.11215],[27.72415,-21.11624],[27.72833,-21.1279],[27.74708,-21.14331],[27.74891,-21.15182],[27.77962,-21.16005],[27.78333,-21.17216],[27.78899,-21.17793],[27.80532,-21.17551],[27.81691,-21.19288],[27.81351,-21.19897],[27.82758,-21.20661],[27.83494,-21.22194],[27.85724,-21.24548],[27.86878,-21.27037],[27.88481,-21.28107],[27.88534,-21.29167],[27.90493,-21.30193],[27.92247,-21.33535],[27.91802,-21.34242],[27.92055,-21.36228],[27.93086,-21.37744],[27.94409,-21.3874],[27.95768,-21.41348],[27.95121,-21.43041],[27.966,-21.4398],[27.96865,-21.449],[27.97829,-21.45808],[27.97575,-21.46179],[27.96263,-21.46234],[27.95722,-21.47401],[27.96109,-21.47782],[27.98278,-21.48363],[27.98172,-21.49089],[27.97485,-21.49432],[27.97304,-21.49978],[27.97503,-21.50554],[27.97113,-21.51888],[27.97671,-21.52394],[27.98421,-21.51587],[28.00208,-21.51627],[28.00165,-21.52082],[27.99435,-21.52521],[27.99437,-21.52864],[28.00468,-21.54218],[28.00805,-21.55906],[28.01836,-21.57391],[28.04422,-21.57956],[28.06937,-21.57894],[28.08166,-21.5843],[28.10039,-21.57878],[28.14642,-21.59393],[28.16845,-21.59481],[28.2001,-21.60338],[28.25428,-21.59439],[28.28729,-21.5925],[28.2928,-21.58929],[28.31397,-21.59702],[28.33113,-21.59781],[28.34897,-21.60778],[28.36674,-21.60303],[28.41301,-21.63302],[28.4457,-21.64126],[28.45981,-21.65551],[28.50039,-21.66854],[28.51645,-21.66469],[28.54109,-21.64191],[28.55467,-21.64429],[28.57007,-21.63152],[28.57995,-21.6301],[28.59878,-21.64452],[28.64914,-21.65358],[28.6672,-21.67583],[28.74817,-21.70219],[28.77786,-21.7163],[28.79817,-21.73318],[28.82256,-21.733],[28.83674,-21.73741],[28.86199,-21.75614],[28.86814,-21.75515],[28.87993,-21.76005],[28.89394,-21.76058],[28.9615,-21.77576],[28.98437,-21.76896],[28.99955,-21.77113],[29.00829,-21.78951],[29.06403,-21.80325],[29.07693,-21.8184],[29.05943,-21.83398],[29.04127,-21.85715],[29.02834,-21.88321],[29.02115,-21.91113],[29.02063,-21.94699],[29.02703,-21.97507],[29.03922,-22.00144],[29.05674,-22.02506],[29.09146,-22.05334],[29.11892,-22.06635],[29.14102,-22.07266],[29.17159,-22.07621],[29.19468,-22.07514],[29.21735,-22.0709],[29.24718,-22.05991],[29.26487,-22.07231],[29.27058,-22.07999],[29.28772,-22.12151],[29.32843,-22.15417],[29.35856,-22.1898],[29.3753,-22.19547],[29.3569,-22.20066],[29.35311,-22.19895],[29.35231,-22.19247],[29.34644,-22.19207],[29.342,-22.19996],[29.33374,-22.20461],[29.32582,-22.19755],[29.32334,-22.18814],[29.31855,-22.18689],[29.28568,-22.18596],[29.27759,-22.19261],[29.27081,-22.19304],[29.26652,-22.18951],[29.25665,-22.19298],[29.2406,-22.18279],[29.21649,-22.17829],[29.19247,-22.18493],[29.16684,-22.20686],[29.1523,-22.21526],[29.10644,-22.21267],[29.08114,-22.22106],[29.03608,-22.21681],[29.03123,-22.22001],[29.0297,-22.22806],[29.01932,-22.22653],[29.01447,-22.23054],[29.01419,-22.25449],[29.00553,-22.26147],[29.00337,-22.27413],[28.99804,-22.27951],[28.98363,-22.28448],[28.97779,-22.29114],[28.97677,-22.30021],[28.96596,-22.30804],[28.96442,-22.34769],[28.97277,-22.36478],[28.97216,-22.37694],[28.95444,-22.40183],[28.94502,-22.43175],[28.92256,-22.45753],[28.90997,-22.46112],[28.89738,-22.45227],[28.88069,-22.44723],[28.8625,-22.44946],[28.83105,-22.46461],[28.82998,-22.46989],[28.8343,-22.47744],[28.83241,-22.48801],[28.77824,-22.49982],[28.73504,-22.50532],[28.70732,-22.51567],[28.70134,-22.52007],[28.69992,-22.52629],[28.68581,-22.53213],[28.67122,-22.53337],[28.65862,-22.54929],[28.64616,-22.55645],[28.61789,-22.56279],[28.56444,-22.55844],[28.54944,-22.56735],[28.54408,-22.57582],[28.53278,-22.57825],[28.51328,-22.58934],[28.50785,-22.58785],[28.49966,-22.57874],[28.47794,-22.56992],[28.45573,-22.57281],[28.44396,-22.56777],[28.42699,-22.57381],[28.40868,-22.56901],[28.38459,-22.56945],[28.36098,-22.57447],[28.34755,-22.57121],[28.33953,-22.57429],[28.33904,-22.58106],[28.32645,-22.59658],[28.30826,-22.60845],[28.27736,-22.61564],[28.26885,-22.63771],[28.25309,-22.64741],[28.24765,-22.65549],[28.21776,-22.6645],[28.21088,-22.66323],[28.19476,-22.67964],[28.18178,-22.68639],[28.15874,-22.7211],[28.16344,-22.73848],[28.16296,-22.7552],[28.14899,-22.77155],[28.12176,-22.78425],[28.10994,-22.80074],[28.09567,-22.81322],[28.07362,-22.82214],[28.06848,-22.82762],[28.04272,-22.83202],[28.03984,-22.84362],[28.04766,-22.85976],[28.04492,-22.87082],[28.05077,-22.88147],[28.04507,-22.9013],[28.03679,-22.91358],[28.02766,-22.91778],[28.01399,-22.93086],[27.99422,-22.93685],[27.96179,-22.95958],[27.94794,-22.96076],[27.94058,-22.9559],[27.93513,-22.96286],[27.94271,-22.99254],[27.93723,-23.01583],[27.94345,-23.03492],[27.93505,-23.05277],[27.92571,-23.05807],[27.92113,-23.06696],[27.88336,-23.089],[27.85478,-23.09942],[27.84813,-23.10491],[27.83257,-23.10907],[27.81576,-23.10532],[27.81221,-23.10933],[27.81427,-23.11645],[27.81906,-23.1195],[27.81914,-23.12731],[27.80687,-23.13563],[27.78133,-23.14306],[27.77874,-23.13902],[27.78001,-23.13276],[27.77443,-23.13066],[27.76561,-23.13568],[27.76513,-23.14172],[27.78225,-23.15589],[27.78585,-23.16667],[27.78436,-23.17291],[27.77035,-23.17964],[27.75951,-23.18987],[27.75976,-23.19503],[27.75135,-23.20474],[27.7524,-23.21774],[27.74255,-23.22991],[27.73616,-23.23314],[27.72592,-23.23278],[27.72328,-23.22865],[27.71497,-23.22882],[27.70464,-23.20458],[27.68989,-23.19629],[27.67315,-23.20004],[27.65958,-23.22216],[27.65398,-23.22139],[27.64946,-23.22566],[27.63931,-23.22598],[27.62259,-23.21846],[27.61233,-23.21947],[27.60421,-23.21573],[27.59895,-23.21851],[27.59703,-23.22467],[27.59647,-23.23427],[27.60134,-23.24786],[27.5917,-23.25697],[27.58225,-23.25764],[27.57279,-23.26533],[27.57632,-23.28057],[27.57347,-23.29428],[27.56041,-23.31402],[27.57095,-23.32644],[27.56397,-23.3485],[27.53836,-23.36639],[27.53724,-23.37503],[27.52888,-23.38536],[27.50525,-23.38803],[27.49678,-23.38427],[27.49295,-23.38692],[27.44163,-23.38472],[27.44153,-23.39248],[27.43517,-23.39762],[27.42815,-23.4253],[27.42244,-23.42662],[27.41032,-23.42449],[27.40116,-23.41196],[27.41073,-23.39677],[27.41076,-23.39155],[27.40669,-23.38882],[27.38817,-23.38983],[27.37739,-23.39932],[27.37283,-23.40984],[27.38095,-23.42012],[27.37551,-23.42295],[27.37538,-23.42607],[27.34942,-23.42589],[27.34801,-23.42343],[27.3568,-23.41018],[27.3558,-23.39905],[27.3371,-23.40037],[27.32527,-23.40642],[27.32617,-23.41426],[27.31227,-23.43435],[27.31542,-23.43479],[27.313,-23.44033],[27.31704,-23.44549],[27.31121,-23.44637],[27.31384,-23.44994],[27.30553,-23.45334],[27.30234,-23.4631],[27.29356,-23.45998],[27.28706,-23.46246],[27.28342,-23.47135],[27.26799,-23.4778],[27.25731,-23.47355],[27.25183,-23.47854],[27.24666,-23.47861],[27.23593,-23.48641],[27.23382,-23.4958],[27.22608,-23.49705],[27.22365,-23.49336],[27.22637,-23.48508],[27.19218,-23.4987],[27.19414,-23.51517],[27.20814,-23.52075],[27.21092,-23.52581],[27.20478,-23.52698],[27.20088,-23.53052],[27.2021,-23.53313],[27.18786,-23.53312],[27.17194,-23.52199],[27.16565,-23.52517],[27.16465,-23.53659],[27.16102,-23.53757],[27.15433,-23.53467],[27.15382,-23.52974],[27.14665,-23.52384],[27.1345,-23.52415],[27.1328,-23.52778],[27.13923,-23.52932],[27.13508,-23.53302],[27.13427,-23.5431],[27.14011,-23.55345],[27.14752,-23.5515],[27.15424,-23.56745],[27.15048,-23.56783],[27.1508,-23.57195],[27.14517,-23.57511],[27.12984,-23.57438],[27.13152,-23.56996],[27.11693,-23.56356],[27.11295,-23.57066],[27.10823,-23.57043],[27.10762,-23.59447],[27.10099,-23.59825],[27.09944,-23.60305],[27.08418,-23.59877],[27.07966,-23.60001],[27.07995,-23.6075],[27.08482,-23.60977],[27.07821,-23.61436],[27.07384,-23.61498],[27.07122,-23.60921],[27.06088,-23.61162],[27.06418,-23.62712],[27.06883,-23.6257],[27.08107,-23.64298],[27.07858,-23.64827],[27.08134,-23.65552],[27.07695,-23.6539],[27.07475,-23.65624],[27.0781,-23.65895],[27.0711,-23.67035],[27.06323,-23.67189],[27.04522,-23.68297],[27.03637,-23.68217],[27.03097,-23.67569],[27.03665,-23.65706],[27.03107,-23.66022],[27.02279,-23.65721],[27.02073,-23.65473],[27.02592,-23.65133],[27.02583,-23.64472],[27.02013,-23.64428],[27.01179,-23.63811],[27.00178,-23.64542],[26.99977,-23.65281],[26.99544,-23.65312],[27.00262,-23.66467],[26.99858,-23.67812],[27.00147,-23.68902],[26.97205,-23.70198],[26.9748,-23.71267],[26.97044,-23.7163],[26.97071,-23.72788],[26.96767,-23.72924],[26.96206,-23.74613],[26.96542,-23.75508],[26.96286,-23.76346],[26.96557,-23.76871],[26.96426,-23.7777],[26.95376,-23.79024],[26.95371,-23.80439],[26.94925,-23.81356],[26.949,-23.82331],[26.95854,-23.8307],[26.95163,-23.84094],[26.94016,-23.84388],[26.93261,-23.85095],[26.93429,-23.85672],[26.95118,-23.86258],[26.9554,-23.87353],[26.94265,-23.88713],[26.94267,-23.90322],[26.92788,-23.92225],[26.93162,-23.93616],[26.93201,-23.95564],[26.91522,-23.97063],[26.91103,-23.98784],[26.91244,-24.0105],[26.9091,-24.02908],[26.89057,-24.05155],[26.88572,-24.08803],[26.88319,-24.09313],[26.86359,-24.09952],[26.86138,-24.10328],[26.86048,-24.10834],[26.86752,-24.12385],[26.86157,-24.13775],[26.87384,-24.14669],[26.87916,-24.15977],[26.8781,-24.16724],[26.86546,-24.17247],[26.86452,-24.178],[26.86774,-24.18991],[26.88008,-24.19159],[26.88066,-24.18814],[26.88305,-24.18925],[26.87978,-24.20067],[26.87353,-24.20633],[26.871,-24.21365],[26.86141,-24.21752],[26.86024,-24.22171],[26.86463,-24.23373],[26.86265,-24.23794],[26.8669,-24.24261],[26.86608,-24.25119],[26.85925,-24.25341],[26.84465,-24.27377],[26.82655,-24.27215],[26.81701,-24.28456],[26.80136,-24.28848],[26.80346,-24.29583],[26.801,-24.30014],[26.79052,-24.30114],[26.7869,-24.30645],[26.78364,-24.30089],[26.77634,-24.29989],[26.77568,-24.30411],[26.76567,-24.30462],[26.76276,-24.3094],[26.75217,-24.31341],[26.74735,-24.3126],[26.74744,-24.30687],[26.74259,-24.30436],[26.73275,-24.30442],[26.72911,-24.31319],[26.71942,-24.31707],[26.7202,-24.31947],[26.70412,-24.32141],[26.70061,-24.33454],[26.69391,-24.33804],[26.68902,-24.33671],[26.68375,-24.34214],[26.67566,-24.34381],[26.67666,-24.34814],[26.66525,-24.362],[26.67005,-24.36738],[26.66455,-24.37931],[26.65858,-24.38053],[26.6574,-24.38416],[26.64638,-24.38146],[26.63176,-24.39598],[26.6254,-24.39357],[26.6172,-24.39826],[26.61119,-24.40707],[26.58777,-24.41058],[26.58172,-24.42895],[26.5675,-24.43609],[26.5597,-24.45361],[26.55243,-24.45147],[26.54604,-24.46564],[26.54264,-24.46301],[26.53868,-24.46481],[26.53692,-24.47416],[26.50988,-24.48772],[26.51057,-24.50336],[26.50161,-24.50946],[26.50004,-24.52304],[26.4896,-24.53916],[26.48882,-24.54864],[26.48194,-24.55607],[26.48183,-24.56812],[26.47054,-24.59006],[26.44898,-24.61266],[26.44128,-24.61202],[26.43298,-24.6188],[26.42608,-24.61825],[26.42189,-24.63429],[26.40879,-24.64564],[26.39315,-24.63672],[26.18742,-24.68718],[26.00789,-24.72389],[25.96432,-24.74857],[25.91713,-24.74448],[25.91144,-24.75258],[25.85829,-24.75582],[25.84771,-24.75388],[25.85221,-24.7757],[25.84539,-24.77915],[25.843,-24.7906],[25.8636,-24.80878],[25.85863,-24.82166],[25.85986,-24.82676],[25.86585,-24.82324],[25.87375,-24.82881],[25.87683,-24.85708],[25.88134,-24.85848],[25.88319,-24.87622],[25.88877,-24.88192],[25.88454,-24.88785],[25.87661,-24.88899],[25.87704,-24.89857],[25.88178,-24.9023],[25.87328,-24.9053],[25.88122,-24.91512],[25.87039,-24.92197],[25.86242,-24.92266],[25.72939,-25.2564],[25.70188,-25.28834],[25.69068,-25.37416],[25.66371,-25.46778],[25.58154,-25.63782],[25.56405,-25.64855],[25.55883,-25.64884],[25.53365,-25.66595],[25.51398,-25.68407],[25.49534,-25.69049],[25.48886,-25.68853],[25.48083,-25.69574],[25.46802,-25.69675],[25.45509,-25.71005],[25.44293,-25.7159],[25.42742,-25.72937],[25.38716,-25.74411],[25.36805,-25.75729],[25.35072,-25.76232],[25.34521,-25.76824],[25.33587,-25.77106],[25.31614,-25.77227],[25.29994,-25.76578],[25.26099,-25.76888],[25.22425,-25.76385],[25.21982,-25.76639],[25.20315,-25.75865],[25.17558,-25.76667],[25.16834,-25.76587],[25.16073,-25.75993],[25.15091,-25.76026],[25.14341,-25.75664],[25.12052,-25.76406],[25.10958,-25.75593],[25.10937,-25.7488],[25.1018,-25.74741],[25.10232,-25.74122],[25.0866,-25.74128],[25.07839,-25.73066],[25.07111,-25.73685],[25.06226,-25.73633],[25.05101,-25.72589],[25.04364,-25.72578],[25.03799,-25.72139],[25.02377,-25.73141],[25.01846,-25.73109],[25.01486,-25.7253],[25.00435,-25.72796],[25.00041,-25.73035],[25.00405,-25.73562],[25.00286,-25.74001],[24.98838,-25.74683],[24.9845,-25.75434],[24.97608,-25.75372],[24.96649,-25.76648],[24.95508,-25.76097],[24.95197,-25.76235],[24.95116,-25.77239],[24.93304,-25.77786],[24.92836,-25.78791],[24.92096,-25.79011],[24.91498,-25.78451],[24.91218,-25.78572],[24.91336,-25.79657],[24.90418,-25.8028],[24.8982,-25.80262],[24.89611,-25.81099],[24.88522,-25.80703],[24.87658,-25.80934],[24.8688,-25.80528],[24.84382,-25.80959],[24.83167,-25.81523],[24.82519,-25.81162],[24.8162,-25.81618],[24.81522,-25.81113],[24.81195,-25.81141],[24.81055,-25.81827],[24.80344,-25.81881],[24.79602,-25.82517],[24.78606,-25.8173],[24.77732,-25.81973],[24.76171,-25.81117],[24.7522,-25.81463],[24.74301,-25.81282],[24.72759,-25.80393],[24.71354,-25.80512],[24.69595,-25.81129],[24.6845,-25.82382],[24.67361,-25.81756],[24.66296,-25.81778],[24.6412,-25.8077],[24.61162,-25.80154],[24.58837,-25.7888],[24.57918,-25.77793],[24.57027,-25.7728],[24.54263,-25.7714],[24.49087,-25.7506],[24.47206,-25.74707],[24.46818,-25.73748],[24.45817,-25.74274],[24.44924,-25.73435],[24.44548,-25.73342],[24.44368,-25.73956],[24.44014,-25.73988],[24.4347,-25.73361],[24.43188,-25.73552],[24.43286,-25.74353],[24.42989,-25.74903],[24.42229,-25.75084],[24.40677,-25.74617],[24.40343,-25.76059],[24.39934,-25.76249],[24.39171,-25.75466],[24.37919,-25.76476],[24.35689,-25.75809],[24.34969,-25.74936],[24.33907,-25.74458],[24.32342,-25.72999],[24.32251,-25.72481],[24.32802,-25.71327],[24.32539,-25.71016],[24.31572,-25.71392],[24.30265,-25.71383],[24.28517,-25.72583],[24.27833,-25.71512],[24.29176,-25.70415],[24.28819,-25.69353],[24.27801,-25.69754],[24.2734,-25.70477],[24.26088,-25.70713],[24.26149,-25.69278],[24.24938,-25.68588],[24.2476,-25.68238],[24.25125,-25.67398],[24.23864,-25.67145],[24.22752,-25.65734],[24.22716,-25.64434],[24.21514,-25.64402],[24.20639,-25.63152],[24.19889,-25.62796],[24.19503,-25.62144],[24.18844,-25.62002],[24.1703,-25.63098],[24.16009,-25.63004],[24.15667,-25.62663],[24.1632,-25.6155],[24.1597,-25.60968],[24.15437,-25.60796],[24.14042,-25.6141],[24.14002,-25.62655],[24.11587,-25.63119],[24.10622,-25.62979],[24.09591,-25.63329],[24.0869,-25.64263],[24.07988,-25.63866],[24.07867,-25.63192],[24.0687,-25.63],[24.0642,-25.63708],[24.06696,-25.64907],[24.05886,-25.65164],[24.05182,-25.65101],[24.03353,-25.63496],[24.02881,-25.63418],[24.02458,-25.64515],[24.00437,-25.65039],[24.00355,-25.63327],[24.01284,-25.62577],[24.00387,-25.62022],[23.98323,-25.62156],[23.97674,-25.61569],[23.9689,-25.61462],[23.96182,-25.62314],[23.95166,-25.62187],[23.95163,-25.63463],[23.94668,-25.63829],[23.92796,-25.63806],[23.92067,-25.6305],[23.90362,-25.62669],[23.90291,-25.61714],[23.90681,-25.60514],[23.8821,-25.59416],[23.87961,-25.57677],[23.87013,-25.57232],[23.84583,-25.57092],[23.83819,-25.56551],[23.84369,-25.55287],[23.83646,-25.54162],[23.82901,-25.54231],[23.8203,-25.5507],[23.80968,-25.54612],[23.80493,-25.53341],[23.82169,-25.51679],[23.82162,-25.51331],[23.80933,-25.50829],[23.78611,-25.5124],[23.77653,-25.50339],[23.76198,-25.50104],[23.76449,-25.49089],[23.75193,-25.4816],[23.75871,-25.46837],[23.73366,-25.45809],[23.72921,-25.44633],[23.72287,-25.44621],[23.71272,-25.45771],[23.70357,-25.46245],[23.7014,-25.44922],[23.69578,-25.44513],[23.68733,-25.44383],[23.68067,-25.44742],[23.66704,-25.44189],[23.66836,-25.43475],[23.67689,-25.42667],[23.66846,-25.41623],[23.66033,-25.41547],[23.6574,-25.42795],[23.65164,-25.43165],[23.6385,-25.43235],[23.63412,-25.42525],[23.63361,-25.41225],[23.62929,-25.40774],[23.61282,-25.40444],[23.61094,-25.40101],[23.62058,-25.38879],[23.61584,-25.38367],[23.60678,-25.38161],[23.59915,-25.39503],[23.59005,-25.39665],[23.58404,-25.38965],[23.58467,-25.37597],[23.56882,-25.37021],[23.55737,-25.3718],[23.55969,-25.35464],[23.53594,-25.353],[23.52463,-25.34014],[23.49826,-25.35268],[23.49571,-25.34744],[23.49969,-25.32859],[23.49565,-25.31974],[23.48199,-25.30891],[23.47987,-25.2998],[23.47623,-25.2979],[23.46283,-25.30113],[23.45841,-25.29833],[23.45898,-25.29207],[23.46735,-25.28191],[23.46693,-25.27715],[23.44995,-25.27486],[23.44208,-25.27713],[23.42177,-25.31161],[23.4129,-25.31562],[23.40317,-25.30689],[23.36849,-25.30332],[23.36245,-25.28787],[23.3552,-25.28483],[23.33539,-25.28748],[23.32533,-25.29229],[23.31424,-25.28125],[23.29657,-25.29384],[23.28952,-25.2904],[23.28581,-25.28025],[23.27826,-25.2738],[23.26029,-25.27943],[23.24698,-25.27537],[23.23736,-25.28059],[23.21161,-25.27353],[23.18659,-25.27934],[23.17413,-25.28815],[23.16582,-25.30337],[23.14757,-25.30309],[23.13613,-25.31664],[23.13137,-25.3177],[23.11189,-25.30313],[23.1051,-25.30494],[23.09712,-25.31124],[23.08997,-25.31246],[23.08491,-25.32871],[23.07607,-25.33192],[23.05799,-25.32452],[23.05391,-25.31824],[23.06169,-25.3024],[23.06116,-25.29403],[23.05721,-25.2895],[23.05202,-25.29007],[23.03088,-25.3129],[23.0103,-25.29706],[23.00587,-25.30358],[23.01296,-25.3291],[23.01037,-25.33629],[23.00397,-25.33952],[22.9865,-25.33806],[22.97704,-25.34068],[22.97269,-25.34741],[22.97654,-25.36957],[22.9706,-25.38046],[22.91882,-25.41238],[22.90958,-25.42267],[22.89782,-25.45605],[22.88559,-25.46857],[22.88844,-25.4773],[22.90055,-25.48129],[22.9002,-25.48687],[22.89287,-25.48827],[22.86278,-25.47962],[22.85128,-25.48425],[22.84655,-25.48989],[22.84656,-25.49453],[22.86053,-25.50755],[22.85202,-25.52127],[22.85255,-25.53553],[22.84009,-25.54474],[22.82768,-25.5711],[22.8146,-25.57917],[22.81429,-25.58281],[22.84779,-25.60595],[22.8535,-25.61507],[22.84443,-25.62219],[22.83156,-25.62072],[22.80098,-25.63208],[22.80172,-25.6411],[22.80857,-25.65113],[22.82999,-25.65753],[22.83021,-25.66227],[22.82139,-25.67795],[22.82114,-25.69099],[22.80026,-25.72256],[22.794,-25.72682],[22.76937,-25.73297],[22.7648,-25.75001],[22.76366,-25.77874],[22.7598,-25.78821],[22.73822,-25.7877],[22.73451,-25.79383],[22.75095,-25.8063],[22.77686,-25.81479],[22.78171,-25.82308],[22.78097,-25.82979],[22.77118,-25.8417],[22.73546,-25.85746],[22.74118,-25.87536],[22.73686,-25.88267],[22.71765,-25.88726],[22.71182,-25.89397],[22.7185,-25.90601],[22.74889,-25.91698],[22.74805,-25.92287],[22.73562,-25.93083],[22.72668,-25.94142],[22.72365,-25.9506],[22.7292,-25.97919],[22.724,-26.01598],[22.70864,-26.02015],[22.67844,-26.01308],[22.66891,-26.01398],[22.66386,-26.02558],[22.67184,-26.04422],[22.67037,-26.05999],[22.67301,-26.07335],[22.63161,-26.09474],[22.62898,-26.1022],[22.63657,-26.11512],[22.62808,-26.12314],[22.60818,-26.12813],[22.60486,-26.13573],[22.60472,-26.14915],[22.59901,-26.15155],[22.58789,-26.14171],[22.57797,-26.1421],[22.57745,-26.19179],[22.5635,-26.20549],[22.55779,-26.22063],[22.55361,-26.22411],[22.53057,-26.22672],[22.51594,-26.21695],[22.49502,-26.21044],[22.4745,-26.19974],[22.46621,-26.20506],[22.46054,-26.22172],[22.45353,-26.22781],[22.44315,-26.22908],[22.41978,-26.22415],[22.41556,-26.23637],[22.39826,-26.24828],[22.40503,-26.26239],[22.40317,-26.27216],[22.38536,-26.28509],[22.36303,-26.28543],[22.36702,-26.30997],[22.36685,-26.31826],[22.36256,-26.32569],[22.35184,-26.32729],[22.33638,-26.32046],[22.32518,-26.32229],[22.31747,-26.32903],[22.31185,-26.34183],[22.30579,-26.34403],[22.28585,-26.33956],[22.24703,-26.34702],[22.24163,-26.35072],[22.23776,-26.35797],[22.23785,-26.37133],[22.19295,-26.39545],[22.19013,-26.40108],[22.19863,-26.41386],[22.20012,-26.4249],[22.1815,-26.43889],[22.18113,-26.44838],[22.18531,-26.45858],[22.18154,-26.47016],[22.16034,-26.48294],[22.15943,-26.49244],[22.16535,-26.49899],[22.16365,-26.50823],[22.13305,-26.52625],[22.133,-26.54429],[22.10793,-26.54912],[22.09874,-26.57022],[22.08124,-26.57691],[22.07725,-26.58124],[22.06966,-26.6075],[22.04885,-26.63455],[22.03178,-26.63356],[22.0158,-26.63696],[22.00064,-26.6481],[21.98562,-26.64994],[21.94902,-26.66996],[21.92864,-26.66481],[21.88356,-26.67063],[21.82349,-26.65976],[21.80746,-26.67051],[21.78714,-26.67619],[21.76944,-26.69462],[21.7705,-26.70419],[21.78718,-26.72179],[21.7848,-26.75071],[21.79295,-26.7697],[21.79156,-26.77613],[21.78426,-26.78424],[21.78176,-26.80018],[21.7713,-26.80308],[21.7642,-26.81177],[21.74217,-26.82445],[21.69606,-26.86025],[21.6767,-26.85367],[21.66017,-26.86443],[21.64719,-26.8629],[21.62591,-26.86611],[21.60472,-26.84587],[21.5947,-26.84115],[21.57721,-26.83953],[21.5612,-26.84932],[21.54117,-26.84264],[21.52905,-26.85964],[21.52164,-26.86021],[21.49465,-26.8482],[21.48584,-26.84114],[21.4622,-26.84056],[21.44001,-26.82716],[21.40138,-26.82206],[21.37615,-26.8304],[21.33172,-26.8258],[21.31322,-26.84336],[21.29638,-26.84912],[21.28786,-26.84797],[21.27048,-26.8373],[21.26256,-26.83739],[21.24863,-26.84494],[21.22097,-26.84375],[21.19189,-26.85331],[21.17625,-26.86665],[21.15369,-26.86744],[21.13496,-26.87344],[21.12426,-26.86912],[21.11555,-26.8594],[21.07749,-26.8482],[21.05954,-26.85149],[21.04116,-26.84648],[21.01048,-26.84632],[20.98623,-26.82555],[20.97758,-26.81119],[20.97138,-26.80688],[20.96191,-26.80655],[20.94572,-26.81351],[20.90849,-26.79735],[20.89917,-26.79623],[20.88364,-26.79778],[20.84346,-26.81864],[20.81999,-26.81966],[20.8172,-26.84078],[20.81299,-26.84334],[20.79267,-26.84025],[20.78583,-26.84229],[20.77338,-26.85885],[20.76474,-26.86523],[20.72844,-26.86581],[20.71462,-26.86984],[20.70841,-26.87468],[20.69939,-26.89695],[20.6856,-26.90708],[20.68679,-26.89899],[20.6768,-26.86208],[20.68028,-26.85182],[20.68486,-26.84847],[20.68245,-26.83987],[20.65578,-26.83436],[20.64436,-26.82787],[20.64255,-26.82359],[20.65041,-26.8095],[20.636,-26.79398],[20.62225,-26.78631],[20.6372,-26.76933],[20.63738,-26.76524],[20.62579,-26.74925],[20.63467,-26.72544],[20.62123,-26.71406],[20.61447,-26.68633],[20.61667,-26.67769],[20.63322,-26.66916],[20.63499,-26.66522],[20.62908,-26.64308],[20.63336,-26.61877],[20.63224,-26.59246],[20.62818,-26.57952],[20.61016,-26.56016],[20.60968,-26.53496],[20.60481,-26.51438],[20.61118,-26.49941],[20.61743,-26.44398],[20.62713,-26.43486],[20.64663,-26.43512],[20.6765,-26.39823],[20.69143,-26.39865],[20.69542,-26.39428],[20.69858,-26.38245],[20.69749,-26.36891],[20.72143,-26.33276],[20.74414,-26.3175],[20.75865,-26.28802],[20.78647,-26.2741],[20.79106,-26.2688],[20.79304,-26.25811],[20.80342,-26.24762],[20.81609,-26.21442],[20.81527,-26.19212],[20.81924,-26.18244],[20.82355,-26.17568],[20.84421,-26.16148],[20.86208,-26.13414],[20.86221,-26.12977],[20.85625,-26.12306],[20.84124,-26.12455],[20.83762,-26.11823],[20.82079,-26.10533],[20.82088,-26.10112],[20.83856,-26.08911],[20.84163,-26.08119],[20.84018,-26.07775],[20.82455,-26.06938],[20.81888,-26.05852],[20.833,-26.04621],[20.83578,-26.03818],[20.83243,-26.02391],[20.8161,-26.00799],[20.82976,-25.98363],[20.83113,-25.97228],[20.83793,-25.96389],[20.83855,-25.95235],[20.80294,-25.92098],[20.79768,-25.90064],[20.8106,-25.89166],[20.81254,-25.87149],[20.80416,-25.86251],[20.78519,-25.85943],[20.78142,-25.85151],[20.78891,-25.83263],[20.78564,-25.8205],[20.78912,-25.80478],[20.78221,-25.80093],[20.77682,-25.80264],[20.76711,-25.80893],[20.75859,-25.8225],[20.75197,-25.82607],[20.74018,-25.8238],[20.73924,-25.81546],[20.7429,-25.807],[20.76364,-25.78797],[20.76233,-25.77931],[20.7522,-25.77185],[20.73926,-25.77324],[20.73063,-25.77026],[20.73097,-25.75112],[20.71986,-25.72216],[20.7082,-25.70843],[20.67687,-25.68763],[20.67416,-25.67206],[20.68699,-25.65038],[20.68654,-25.63488],[20.67393,-25.62957],[20.6596,-25.63847],[20.65572,-25.63911],[20.65039,-25.63433],[20.66402,-25.60499],[20.69279,-25.60151],[20.69724,-25.59434],[20.67134,-25.55204],[20.64866,-25.53298],[20.63077,-25.5287],[20.62801,-25.52063],[20.62881,-25.51272],[20.63933,-25.50373],[20.64213,-25.49723],[20.63397,-25.47723],[20.63587,-25.47326],[20.66525,-25.47001],[20.67409,-25.46127],[20.67226,-25.45024],[20.66484,-25.44596],[20.65693,-25.44672],[20.64385,-25.46209],[20.62246,-25.46137],[20.61662,-25.444],[20.63185,-25.43246],[20.62835,-25.42306],[20.60288,-25.42856],[20.59841,-25.42058],[20.60472,-25.40396],[20.60208,-25.39625],[20.59218,-25.39032],[20.57883,-25.39584],[20.56382,-25.39291],[20.54948,-25.36791],[20.54006,-25.34379],[20.54728,-25.3223],[20.53909,-25.31909],[20.52077,-25.32505],[20.51345,-25.31484],[20.51657,-25.30778],[20.53948,-25.29512],[20.54194,-25.29009],[20.52465,-25.28633],[20.52149,-25.27651],[20.50184,-25.27361],[20.49237,-25.26219],[20.48665,-25.26063],[20.49817,-25.22839],[20.49233,-25.22349],[20.4763,-25.22427],[20.47137,-25.22781],[20.46693,-25.22518],[20.46169,-25.21307],[20.44455,-25.19393],[20.45161,-25.18605],[20.46264,-25.18212],[20.46721,-25.17492],[20.46844,-25.15805],[20.46037,-25.15113],[20.43941,-25.15866],[20.42942,-25.15161],[20.42775,-25.14778],[20.43179,-25.13921],[20.42384,-25.127],[20.42945,-25.11834],[20.42155,-25.10699],[20.41052,-25.10268],[20.41444,-25.08606],[20.39169,-25.07507],[20.37918,-25.06294],[20.38515,-25.04928],[20.38572,-25.03648],[20.35727,-25.02506],[20.34818,-25.00883],[20.32922,-25.00559],[20.32102,-24.98946],[20.3142,-24.98499],[20.29634,-24.98046],[20.28587,-24.96901],[20.28819,-24.95918],[20.2857,-24.95253],[20.27512,-24.9491],[20.26303,-24.92561],[20.23502,-24.91362],[20.21746,-24.91635],[20.20344,-24.89589],[20.19596,-24.897],[20.19225,-24.90552],[20.1826,-24.91128],[20.15452,-24.88152],[20.13839,-24.87875],[20.12163,-24.88308],[20.11676,-24.88009],[20.11105,-24.86525],[20.08779,-24.85123],[20.08994,-24.83082],[20.07159,-24.83062],[20.067,-24.82695],[20.06513,-24.81647],[20.03711,-24.80763],[20.02808,-24.78826],[20.00316,-24.77093],[19.99935,-24.76233],[19.99918,-21.99986],[20.99874,-22.00034],[20.99877,-18.31733],[21.453,-18.31734],[23.09837,-18.00082],[23.29687,-18.00079],[23.29624,-18.00602],[23.30201,-18.00181],[23.30927,-18.0036],[23.30427,-18.01203],[23.31346,-18.01773],[23.31695,-18.02376],[23.3087,-18.03251],[23.30929,-18.03927],[23.32098,-18.03821],[23.32181,-18.04969],[23.33467,-18.05159],[23.32956,-18.05668],[23.32404,-18.05396],[23.32038,-18.05945],[23.32413,-18.06394],[23.32082,-18.0685],[23.32463,-18.07084],[23.32219,-18.07559],[23.32642,-18.07865],[23.32409,-18.08204],[23.33049,-18.08386],[23.33282,-18.08814],[23.3391,-18.08569],[23.34553,-18.09635],[23.3478,-18.09562],[23.34937,-18.09908],[23.34701,-18.1015],[23.3526,-18.10428],[23.35069,-18.11016],[23.35823,-18.11259],[23.35798,-18.11767],[23.36571,-18.11938],[23.36289,-18.12142],[23.36621,-18.12276],[23.36529,-18.12901],[23.38081,-18.13792],[23.37961,-18.14522],[23.38446,-18.16399],[23.39014,-18.16181],[23.39065,-18.16632],[23.40297,-18.1747],[23.40477,-18.18846],[23.39853,-18.19229],[23.40237,-18.19642],[23.39947,-18.19727],[23.39696,-18.20734],[23.40261,-18.20864],[23.4022,-18.204],[23.40657,-18.20603],[23.41049,-18.20361],[23.41966,-18.21337],[23.42225,-18.20885],[23.42038,-18.20598],[23.42451,-18.20414],[23.42703,-18.20986],[23.43356,-18.20858],[23.43812,-18.21466],[23.44525,-18.21276],[23.45061,-18.22],[23.44697,-18.22387],[23.45075,-18.22674],[23.45304,-18.23611],[23.4603,-18.23582],[23.46847,-18.24265],[23.46698,-18.24573],[23.47121,-18.24659],[23.47668,-18.24154],[23.48195,-18.24435],[23.48815,-18.24146],[23.50133,-18.24283],[23.49803,-18.25436],[23.50426,-18.25484],[23.50131,-18.25761],[23.5065,-18.26207],[23.503,-18.2657],[23.51992,-18.26818],[23.52006,-18.27212],[23.52473,-18.27434],[23.52354,-18.28534],[23.52681,-18.28403],[23.52808,-18.29228],[23.5341,-18.2969],[23.52797,-18.3122],[23.53114,-18.31985],[23.53553,-18.31933],[23.5369,-18.32722],[23.54488,-18.33018],[23.55099,-18.33701],[23.55797,-18.33606],[23.55286,-18.34666],[23.55354,-18.35834],[23.56347,-18.3659],[23.56091,-18.37387],[23.55374,-18.37312],[23.55036,-18.38908],[23.5606,-18.39167],[23.56422,-18.41408],[23.55936,-18.41755],[23.55392,-18.43398],[23.55485,-18.44009],[23.56228,-18.44889],[23.57162,-18.45449],[23.56971,-18.46283],[23.57313,-18.46792],[23.56727,-18.47827],[23.57069,-18.48265],[23.58262,-18.49012],[23.58629,-18.48939],[23.59313,-18.49627],[23.596,-18.49431],[23.60091,-18.49866],[23.61524,-18.5012],[23.62823,-18.4946],[23.62997,-18.48995],[23.64464,-18.4799],[23.65708,-18.47877],[23.66486,-18.47175],[23.67496,-18.45288],[23.67907,-18.45173],[23.67879,-18.4467],[23.687,-18.43313],[23.69603,-18.43417],[23.70293,-18.43046],[23.70869,-18.43405]]]]}}]}