{"type":"FeatureCollection","features":[{"type":"Feature","properties":{"ISO_A3":"CAF","WB_A3":"CAF","WB_NAME":"Central African Republic","WB_REGION":"AFW,SSF"},"geometry":{"type":"MultiPolygon","coordinates":[[[[19.047,8.57492],[19.04644,8.59247],[19.0587,8.60479],[19.06749,8.61954],[19.06652,8.6371],[19.07969,8.63757],[19.08379,8.645],[19.09198,8.64715],[19.10416,8.66198],[19.12212,8.66918],[19.12315,8.67377],[19.11258,8.67931],[19.105,8.68667],[19.10262,8.69704],[19.08512,8.70971],[19.07875,8.71276],[19.06196,8.71313],[19.03753,8.72746],[19.02062,8.74509],[19.01279,8.76169],[18.9745,8.77623],[18.95871,8.78869],[18.95525,8.80192],[18.94474,8.81168],[18.9327,8.81209],[18.91809,8.80427],[18.91123,8.80802],[18.9052,8.8187],[18.9083,8.84179],[18.90384,8.85267],[18.89205,8.85555],[18.88384,8.85338],[18.87148,8.84351],[18.86772,8.85106],[18.86172,8.8514],[18.85967,8.85818],[18.86507,8.8617],[18.8611,8.86855],[18.86124,8.87835],[18.87648,8.88339],[18.88049,8.88946],[18.8812,8.90332],[18.89278,8.90411],[18.90108,8.89813],[18.9037,8.90737],[18.90817,8.90804],[18.90818,8.91936],[18.91242,8.92313],[18.91699,8.92178],[18.91737,8.92699],[18.93075,8.92828],[18.93805,8.9338],[18.95206,8.9317],[18.95445,8.93539],[18.95931,8.93475],[18.96185,8.94304],[18.97313,8.94246],[18.97164,8.94995],[18.978,8.94997],[18.98182,8.9556],[18.98027,8.96133],[18.9867,8.97735],[18.99556,8.9807],[19.00215,8.97748],[19.00721,8.98182],[19.01439,8.98232],[19.01638,8.98958],[19.02441,8.99605],[19.0324,8.99793],[19.04516,8.99336],[19.04777,8.99817],[19.05499,8.99898],[19.06004,9.00611],[19.06768,9.00185],[19.07162,9.00325],[19.07122,9.01373],[19.07987,9.01974],[19.08397,9.01935],[19.0868,9.01029],[19.08953,9.01176],[19.09235,9.00762],[19.11279,9.00588],[19.11426,9.00928],[19.1257,9.00859],[19.13254,9.01313],[19.15138,9.00795],[19.1649,9.01043],[19.16817,9.02001],[19.17442,9.02178],[19.17462,9.02692],[19.17939,9.02381],[19.19365,9.02554],[19.20681,9.0318],[19.22065,9.02702],[19.2223,9.03111],[19.23151,9.0281],[19.23894,9.0308],[19.24643,9.02532],[19.24886,9.02922],[19.25841,9.02921],[19.26193,9.01633],[19.29988,9.00885],[19.3084,9.00929],[19.31777,9.01526],[19.3316,9.01552],[19.33322,9.02096],[19.33978,9.02032],[19.3431,9.01462],[19.34775,9.0163],[19.35411,9.01149],[19.35615,9.01304],[19.35196,9.01824],[19.35737,9.02138],[19.35961,9.02859],[19.3724,9.02486],[19.37525,9.02071],[19.39021,9.01381],[19.39317,9.01621],[19.39321,9.02316],[19.4007,9.02786],[19.40533,9.02331],[19.41754,9.02811],[19.41757,9.02266],[19.42073,9.02195],[19.43184,9.02842],[19.44927,9.02242],[19.44891,9.01584],[19.44366,9.01052],[19.4445,9.00816],[19.45275,9.00789],[19.46213,9.01008],[19.4654,9.01768],[19.47572,9.01724],[19.48087,9.01054],[19.48601,9.0153],[19.48712,9.02253],[19.49504,9.01622],[19.49984,9.0286],[19.50292,9.02948],[19.50981,9.01866],[19.51797,9.01919],[19.52315,9.0258],[19.52648,9.02451],[19.5274,9.01881],[19.53684,9.01594],[19.53832,9.01902],[19.54167,9.0182],[19.54677,9.03215],[19.56163,9.02988],[19.60731,9.03984],[19.62491,9.03779],[19.62931,9.02178],[19.63323,9.02055],[19.64764,9.02404],[19.65451,9.03398],[19.66878,9.02948],[19.67493,9.03508],[19.68373,9.03638],[19.68765,9.03331],[19.685,9.03165],[19.68578,9.02755],[19.6895,9.02705],[19.69622,9.03492],[19.70811,9.03496],[19.71608,9.04032],[19.71745,9.04659],[19.72418,9.05104],[19.74005,9.04738],[19.75362,9.0542],[19.76426,9.05178],[19.77173,9.06285],[19.78929,9.06085],[19.79454,9.05484],[19.80688,9.05527],[19.80957,9.05844],[19.81952,9.05962],[19.82894,9.06796],[19.83267,9.06659],[19.83276,9.05711],[19.8381,9.05532],[19.83922,9.05094],[19.84336,9.05104],[19.85112,9.0538],[19.84963,9.05595],[19.86484,9.06969],[19.87434,9.07199],[19.88313,9.06233],[19.88941,9.06377],[19.90147,9.07888],[19.91282,9.07622],[19.91941,9.08197],[19.92307,9.07782],[19.92227,9.06636],[19.92999,9.06518],[19.93659,9.07214],[19.92589,9.0788],[19.92962,9.09045],[19.96952,9.10495],[19.97565,9.09683],[19.98697,9.09996],[19.99582,9.11282],[20.00096,9.1137],[20.00964,9.10222],[20.02035,9.10581],[20.021,9.11328],[20.01195,9.11526],[20.01302,9.12743],[20.02505,9.13321],[20.03263,9.12532],[20.03478,9.13005],[20.04414,9.13449],[20.04226,9.13997],[20.04765,9.1463],[20.05394,9.14435],[20.05801,9.14646],[20.073,9.13386],[20.08452,9.13256],[20.09459,9.14259],[20.09519,9.14913],[20.08903,9.15443],[20.08945,9.15766],[20.09912,9.15988],[20.10873,9.15591],[20.11109,9.1464],[20.1298,9.14487],[20.13003,9.13225],[20.13385,9.13802],[20.15237,9.13706],[20.16313,9.14185],[20.16716,9.13758],[20.17272,9.14119],[20.19257,9.13678],[20.19689,9.14056],[20.19739,9.15024],[20.21282,9.15718],[20.22822,9.14473],[20.23718,9.14821],[20.24135,9.14563],[20.2412,9.1409],[20.24737,9.13837],[20.24464,9.13186],[20.26165,9.12348],[20.28218,9.1209],[20.29477,9.12699],[20.30508,9.11751],[20.31181,9.1217],[20.32529,9.1229],[20.32764,9.12983],[20.33274,9.13154],[20.33758,9.1286],[20.33849,9.1216],[20.34662,9.11982],[20.36239,9.12673],[20.36429,9.13859],[20.36917,9.14203],[20.37241,9.13636],[20.38209,9.13838],[20.38669,9.1478],[20.39641,9.1542],[20.39895,9.15451],[20.39787,9.14883],[20.4161,9.15412],[20.4218,9.15373],[20.4254,9.14741],[20.43773,9.15178],[20.44172,9.14968],[20.4445,9.15155],[20.4439,9.15672],[20.45378,9.16595],[20.4552,9.18233],[20.45996,9.18676],[20.45904,9.19085],[20.46337,9.19254],[20.46115,9.19679],[20.4653,9.20586],[20.46394,9.21182],[20.46751,9.21355],[20.47746,9.21074],[20.48666,9.22636],[20.49266,9.22905],[20.49774,9.22532],[20.51499,9.22318],[20.51866,9.22563],[20.51384,9.23404],[20.51583,9.23902],[20.50893,9.24553],[20.51204,9.25063],[20.50616,9.25418],[20.50633,9.26407],[20.49553,9.28671],[20.49026,9.29044],[20.49072,9.29522],[20.4999,9.30405],[20.50504,9.30372],[20.50851,9.29883],[20.51079,9.30292],[20.51655,9.29865],[20.52417,9.29964],[20.52769,9.31124],[20.52314,9.32579],[20.53101,9.33569],[20.54938,9.34216],[20.55156,9.34143],[20.55011,9.33265],[20.56696,9.32704],[20.56842,9.33177],[20.57772,9.33173],[20.57782,9.33671],[20.57116,9.33567],[20.57095,9.33856],[20.57589,9.34013],[20.57519,9.34394],[20.58325,9.34412],[20.58471,9.33858],[20.58809,9.33757],[20.58648,9.3344],[20.59128,9.33216],[20.59689,9.32121],[20.59763,9.31389],[20.61,9.31754],[20.61511,9.3134],[20.61829,9.31686],[20.62046,9.31374],[20.62695,9.31672],[20.64596,9.31108],[20.65213,9.31543],[20.65997,9.3143],[20.66594,9.32081],[20.66019,9.32911],[20.65608,9.32842],[20.65299,9.33511],[20.65814,9.34489],[20.651,9.35678],[20.65178,9.3632],[20.65675,9.36751],[20.65441,9.37805],[20.65982,9.38218],[20.66291,9.39384],[20.66958,9.39917],[20.67609,9.39876],[20.68302,9.40276],[20.69614,9.39676],[20.70117,9.40109],[20.70193,9.39099],[20.71314,9.40604],[20.71793,9.406],[20.72233,9.40043],[20.72856,9.40159],[20.73055,9.39768],[20.73599,9.3983],[20.73749,9.40432],[20.74374,9.40645],[20.74473,9.39945],[20.74778,9.39847],[20.75014,9.40176],[20.75391,9.39943],[20.76211,9.40208],[20.76315,9.40706],[20.7687,9.40902],[20.76968,9.41456],[20.76525,9.42128],[20.76598,9.42852],[20.774,9.42767],[20.77807,9.42954],[20.77797,9.43298],[20.78302,9.42871],[20.78848,9.43893],[20.79411,9.43796],[20.79653,9.44389],[20.80094,9.44466],[20.80391,9.43986],[20.81142,9.43789],[20.82058,9.42783],[20.82742,9.43],[20.82995,9.43512],[20.82732,9.44521],[20.83018,9.44835],[20.82591,9.45514],[20.82916,9.46533],[20.84036,9.48258],[20.84718,9.48513],[20.85639,9.48059],[20.86885,9.48259],[20.86414,9.49933],[20.87405,9.50794],[20.87854,9.52357],[20.8927,9.51813],[20.90292,9.53427],[20.90796,9.52358],[20.91624,9.51753],[20.92039,9.52395],[20.92022,9.53874],[20.91319,9.54097],[20.91204,9.54555],[20.92429,9.54745],[20.9263,9.56826],[20.92934,9.5723],[20.93886,9.57044],[20.94585,9.56143],[20.95046,9.5605],[20.95423,9.56848],[20.95638,9.59019],[20.94899,9.60887],[20.95143,9.61977],[20.96309,9.62138],[20.98223,9.61359],[20.99381,9.62895],[20.99029,9.63645],[20.96975,9.63687],[20.96513,9.64307],[20.97033,9.64619],[20.98509,9.64147],[20.99458,9.64589],[20.99643,9.65156],[20.99337,9.656],[20.98137,9.66011],[20.9778,9.67084],[20.98024,9.67245],[20.99638,9.66171],[21.00644,9.66784],[21.00297,9.67093],[20.9904,9.6717],[20.98437,9.67871],[20.98473,9.68128],[21.00093,9.68236],[21.00204,9.69075],[20.98693,9.69331],[20.98019,9.70113],[20.97004,9.70381],[20.96575,9.7112],[20.96807,9.71848],[20.9761,9.71932],[20.98504,9.70738],[21.00852,9.70368],[21.00765,9.70891],[20.99811,9.71715],[20.98983,9.73693],[20.99314,9.74743],[20.99989,9.74716],[21.00813,9.73584],[21.01411,9.73629],[21.01722,9.72982],[21.03055,9.73135],[21.03639,9.74012],[21.03933,9.73793],[21.04166,9.74158],[21.03731,9.75217],[21.03289,9.75195],[21.03686,9.75716],[21.02417,9.7577],[21.02182,9.76385],[21.02262,9.76839],[21.03289,9.77882],[21.04657,9.78295],[21.05151,9.78055],[21.04798,9.77444],[21.04985,9.77049],[21.06811,9.76483],[21.07867,9.77816],[21.10278,9.78572],[21.11607,9.8011],[21.12074,9.80103],[21.11135,9.82144],[21.12381,9.82745],[21.11932,9.83245],[21.12092,9.84165],[21.13414,9.85031],[21.1333,9.85631],[21.14005,9.86455],[21.14662,9.86635],[21.15492,9.87927],[21.17284,9.88387],[21.17497,9.89278],[21.17952,9.89513],[21.18347,9.89574],[21.18517,9.89146],[21.19229,9.89674],[21.19268,9.90047],[21.20238,9.9018],[21.20253,9.90564],[21.20834,9.91057],[21.20704,9.9175],[21.20034,9.9204],[21.20483,9.93867],[21.20962,9.93483],[21.21249,9.93815],[21.21248,9.95239],[21.21798,9.95681],[21.22961,9.95673],[21.24281,9.96672],[21.24361,9.97386],[21.25183,9.97494],[21.24925,9.98593],[21.25425,9.99515],[21.26506,9.99837],[21.26729,9.99048],[21.28622,9.98414],[21.28354,9.98226],[21.28601,9.97571],[21.29903,9.96958],[21.30781,9.9867],[21.32106,9.98532],[21.32385,9.98253],[21.3171,9.97716],[21.32172,9.97021],[21.33348,9.97438],[21.33792,9.96397],[21.34921,9.96238],[21.35569,9.97008],[21.35754,9.98798],[21.36073,9.99042],[21.3652,9.98776],[21.36658,9.98146],[21.3712,9.98236],[21.37371,9.98811],[21.38433,9.98832],[21.38969,9.99249],[21.39798,10.01749],[21.40752,10.02114],[21.40224,10.0312],[21.40429,10.04052],[21.41218,10.05203],[21.42285,10.05787],[21.42468,10.04911],[21.43112,10.05375],[21.43366,10.05106],[21.44048,10.06504],[21.43928,10.07137],[21.43401,10.07537],[21.43539,10.08301],[21.44574,10.09136],[21.45077,10.09012],[21.45335,10.09325],[21.44795,10.09878],[21.45275,10.10966],[21.44365,10.12749],[21.449,10.13034],[21.45621,10.12728],[21.46212,10.13307],[21.47057,10.15019],[21.46514,10.15672],[21.47421,10.16608],[21.47787,10.16842],[21.47861,10.16506],[21.48531,10.16672],[21.48982,10.16395],[21.48799,10.17687],[21.49106,10.19447],[21.49423,10.18999],[21.49953,10.18957],[21.51232,10.1966],[21.51418,10.20881],[21.52225,10.22024],[21.53605,10.22479],[21.54311,10.23222],[21.55855,10.21256],[21.57888,10.21953],[21.5868,10.21596],[21.58803,10.21164],[21.61507,10.22407],[21.61744,10.23134],[21.62337,10.23437],[21.6373,10.22855],[21.63716,10.23614],[21.64342,10.23261],[21.64728,10.23999],[21.65229,10.234],[21.67698,10.23968],[21.67113,10.25192],[21.66281,10.25253],[21.66039,10.2561],[21.66128,10.25887],[21.67776,10.26279],[21.68051,10.26629],[21.6729,10.2787],[21.67713,10.2816],[21.67625,10.284],[21.68554,10.28512],[21.68576,10.28148],[21.69608,10.28365],[21.69692,10.28628],[21.7043,10.28199],[21.70957,10.28388],[21.71534,10.29111],[21.71251,10.2942],[21.71413,10.2989],[21.72778,10.30801],[21.72873,10.31749],[21.73242,10.31662],[21.73911,10.32237],[21.7345,10.32535],[21.73561,10.33297],[21.72301,10.34513],[21.723,10.35904],[21.72652,10.36209],[21.73133,10.35502],[21.73542,10.35751],[21.73865,10.36386],[21.736,10.36694],[21.73719,10.36935],[21.74048,10.36786],[21.73475,10.37548],[21.73826,10.38203],[21.73643,10.38631],[21.73996,10.39184],[21.74748,10.39235],[21.74801,10.39778],[21.76098,10.40685],[21.77478,10.42301],[21.75022,10.42934],[21.75822,10.44819],[21.74709,10.45763],[21.75028,10.46604],[21.74493,10.47121],[21.73324,10.47451],[21.73025,10.48132],[21.71441,10.49471],[21.71258,10.51258],[21.71572,10.52061],[21.71984,10.52124],[21.71595,10.52561],[21.71613,10.53263],[21.72598,10.53659],[21.7302,10.54308],[21.7234,10.55008],[21.72778,10.55319],[21.72941,10.56472],[21.73271,10.56576],[21.72351,10.5806],[21.72617,10.58379],[21.72313,10.5984],[21.73078,10.60657],[21.72738,10.62913],[21.73257,10.64286],[21.73051,10.65236],[21.73816,10.66015],[21.74746,10.66156],[21.75112,10.64881],[21.74781,10.64481],[21.75251,10.64151],[21.7581,10.64456],[21.75945,10.65024],[21.76415,10.64637],[21.76506,10.65225],[21.77498,10.65631],[21.78276,10.66406],[21.7865,10.68181],[21.78464,10.68456],[21.7894,10.68981],[21.78691,10.70005],[21.78104,10.70686],[21.78458,10.7143],[21.78751,10.71426],[21.78379,10.71826],[21.79132,10.729],[21.78804,10.73057],[21.78895,10.73454],[21.7823,10.74499],[21.78256,10.7522],[21.78539,10.75221],[21.78293,10.7622],[21.79177,10.76549],[21.79323,10.77214],[21.78491,10.7814],[21.78567,10.79698],[21.79762,10.79777],[21.80607,10.80976],[21.81078,10.80715],[21.81358,10.82563],[21.82638,10.83955],[21.83325,10.83639],[21.83813,10.83983],[21.83646,10.8477],[21.83998,10.85061],[21.86335,10.84132],[21.88261,10.84669],[21.88538,10.8507],[21.88212,10.85449],[21.88917,10.86595],[21.89396,10.86099],[21.90313,10.85908],[21.91104,10.86857],[21.91679,10.86778],[21.91988,10.8706],[21.91547,10.88218],[21.91856,10.88349],[21.91846,10.88855],[21.93887,10.883],[21.9523,10.88602],[21.95799,10.88375],[21.95489,10.8884],[21.96288,10.89498],[21.97086,10.88555],[21.97616,10.89665],[21.98147,10.89873],[21.98029,10.90362],[21.98275,10.90556],[21.98925,10.9064],[21.99038,10.90246],[22.0058,10.9054],[22.00398,10.91231],[22.00932,10.91621],[22.0093,10.92169],[22.01302,10.92176],[22.01944,10.92953],[22.02925,10.92798],[22.03785,10.93542],[22.05227,10.93161],[22.05207,10.92658],[22.05913,10.92368],[22.06022,10.91556],[22.06753,10.91293],[22.075,10.91307],[22.07336,10.91593],[22.08352,10.922],[22.08713,10.91827],[22.08796,10.92117],[22.09273,10.92031],[22.09324,10.92553],[22.09727,10.92774],[22.10046,10.92876],[22.1026,10.92506],[22.10563,10.92934],[22.11205,10.92903],[22.1113,10.93463],[22.11391,10.93578],[22.11552,10.93171],[22.12166,10.93467],[22.12228,10.93043],[22.1281,10.93203],[22.12802,10.92773],[22.13399,10.92911],[22.13324,10.92135],[22.13937,10.92548],[22.13789,10.92193],[22.14236,10.91771],[22.1447,10.92037],[22.14303,10.92408],[22.14536,10.92567],[22.14961,10.92265],[22.15167,10.91561],[22.14964,10.91263],[22.16286,10.90936],[22.15796,10.90333],[22.16182,10.90014],[22.17585,10.90188],[22.18241,10.90317],[22.18252,10.90938],[22.18656,10.90968],[22.18876,10.91431],[22.19116,10.91262],[22.19465,10.91593],[22.19823,10.91254],[22.19867,10.91599],[22.20504,10.91736],[22.21259,10.91536],[22.21616,10.92099],[22.21861,10.91839],[22.22987,10.92113],[22.23157,10.92709],[22.23779,10.92627],[22.23863,10.93484],[22.24421,10.93193],[22.25098,10.93618],[22.25467,10.93447],[22.26043,10.9425],[22.27035,10.93812],[22.27209,10.93139],[22.27644,10.93105],[22.28634,10.93422],[22.28908,10.93897],[22.29541,10.93711],[22.3154,10.9459],[22.31785,10.94831],[22.31568,10.95182],[22.31897,10.95174],[22.32263,10.9583],[22.32733,10.95403],[22.33162,10.95777],[22.34184,10.9555],[22.34232,10.95853],[22.36599,10.95493],[22.37385,10.96067],[22.37672,10.96988],[22.38276,10.96197],[22.38796,10.962],[22.38872,10.96495],[22.40125,10.96896],[22.40016,10.97189],[22.40594,10.97402],[22.41189,10.96937],[22.42103,10.96968],[22.43725,10.9929],[22.44255,10.99173],[22.44238,10.99564],[22.45571,10.99504],[22.45801,11.00047],[22.47019,11.00662],[22.4847,11.00154],[22.48977,11.00296],[22.49067,11.00826],[22.49458,11.01074],[22.49751,11.0113],[22.49796,11.00834],[22.50174,11.01267],[22.52351,11.01793],[22.52274,11.0146],[22.53173,11.00496],[22.53592,11.00578],[22.54118,10.99963],[22.55647,11.00283],[22.56053,11.00087],[22.56388,11.01022],[22.5802,11.01752],[22.58086,11.01253],[22.58798,11.01544],[22.59288,11.00768],[22.61656,11.00567],[22.62506,10.99791],[22.64419,11.00076],[22.66515,10.98986],[22.67619,10.99023],[22.68286,10.9828],[22.6863,10.98738],[22.6922,10.98841],[22.69594,10.98496],[22.69952,10.98585],[22.69883,10.98093],[22.7067,10.97823],[22.70728,10.97513],[22.71698,10.98056],[22.71906,10.97721],[22.72371,10.98241],[22.73382,10.9806],[22.74259,10.97283],[22.74563,10.97474],[22.74731,10.97106],[22.7505,10.9733],[22.75993,10.95972],[22.76206,10.949],[22.77271,10.9509],[22.79666,10.94571],[22.81141,10.94997],[22.82113,10.94177],[22.83382,10.93943],[22.84615,10.94247],[22.8555,10.93678],[22.86794,10.93757],[22.87213,10.93471],[22.87681,10.93733],[22.87838,10.90134],[22.90633,10.87472],[22.91947,10.85155],[22.97686,10.78002],[23.00172,10.70647],[23.01461,10.70649],[23.04404,10.69465],[23.07902,10.66593],[23.13374,10.63496],[23.14882,10.6218],[23.16394,10.59015],[23.18741,10.57591],[23.20619,10.5551],[23.24317,10.5353],[23.26953,10.49769],[23.29415,10.4873],[23.67019,9.8918],[23.69625,9.67155],[23.63017,9.55964],[23.62802,9.5485],[23.63579,9.54757],[23.64401,9.54024],[23.63971,9.53266],[23.64027,9.50804],[23.63558,9.50146],[23.62935,9.4779],[23.64114,9.44305],[23.64554,9.45019],[23.65443,9.45364],[23.65683,9.45826],[23.66734,9.45777],[23.67158,9.45695],[23.67034,9.45232],[23.67628,9.43648],[23.67106,9.434],[23.65794,9.40275],[23.64773,9.40008],[23.64793,9.38072],[23.63836,9.37754],[23.64135,9.36723],[23.63641,9.35675],[23.63979,9.35278],[23.63948,9.34059],[23.6336,9.33018],[23.63979,9.31742],[23.64433,9.31455],[23.64485,9.30802],[23.64935,9.30557],[23.64919,9.29908],[23.65765,9.2857],[23.64804,9.26778],[23.63612,9.2739],[23.6258,9.27244],[23.61262,9.25013],[23.60876,9.22504],[23.59193,9.22226],[23.58909,9.213],[23.5596,9.19325],[23.55093,9.18176],[23.53493,9.17655],[23.5326,9.17966],[23.52022,9.17791],[23.51721,9.18509],[23.5003,9.18876],[23.49782,9.17771],[23.486,9.17136],[23.4861,9.15644],[23.46871,9.14072],[23.46979,9.12661],[23.46536,9.11943],[23.46618,9.11358],[23.47001,9.11164],[23.46968,9.09581],[23.46367,9.09047],[23.45833,9.07795],[23.45408,9.05533],[23.45792,9.05279],[23.45773,9.04296],[23.45526,9.03831],[23.44864,9.03588],[23.44098,9.02023],[23.45926,9.00884],[23.46119,9.00452],[23.4569,8.98718],[23.47426,8.98645],[23.47895,8.98199],[23.48132,8.98394],[23.48787,8.97983],[23.48781,8.97164],[23.51245,8.96798],[23.5226,8.96266],[23.53573,8.96642],[23.54335,8.98297],[23.54853,8.98369],[23.54972,9.00161],[23.56061,9.01384],[23.57276,9.01862],[23.58311,9.00184],[23.58989,9.00049],[23.58315,8.98379],[23.58533,8.97481],[23.58123,8.96318],[23.57523,8.95318],[23.56894,8.94977],[23.57209,8.93764],[23.58333,8.93107],[23.58554,8.92607],[23.58249,8.92237],[23.58924,8.91685],[23.58847,8.91262],[23.57335,8.90175],[23.57254,8.89565],[23.57634,8.89163],[23.57054,8.8855],[23.57171,8.88152],[23.56679,8.87469],[23.56986,8.87002],[23.55598,8.85996],[23.55359,8.85229],[23.54034,8.8467],[23.52738,8.83219],[23.52308,8.83559],[23.51806,8.83457],[23.51601,8.82954],[23.51794,8.82078],[23.50547,8.81303],[23.51295,8.79758],[23.50624,8.78773],[23.50471,8.77452],[23.50683,8.7684],[23.52394,8.75516],[23.5165,8.72335],[23.51894,8.72117],[23.53168,8.72432],[23.54445,8.72252],[23.54728,8.71705],[23.561,8.71498],[23.56756,8.72875],[23.57344,8.72911],[23.57768,8.73592],[23.5808,8.74955],[23.59529,8.75061],[23.60996,8.74598],[23.61649,8.75123],[23.62275,8.75062],[23.6238,8.75392],[23.63799,8.74997],[23.65499,8.73128],[23.65919,8.73259],[23.66922,8.72759],[23.6755,8.72895],[23.67905,8.72535],[23.6831,8.72981],[23.70059,8.73101],[23.70986,8.72527],[23.71187,8.72766],[23.71571,8.72605],[23.73104,8.71337],[23.73585,8.71268],[23.7439,8.72212],[23.75857,8.73057],[23.76981,8.72357],[23.77323,8.71307],[23.787,8.70547],[23.79357,8.70718],[23.80712,8.71838],[23.81595,8.72052],[23.82194,8.71833],[23.82937,8.72301],[23.86219,8.72447],[23.87073,8.72296],[23.87385,8.71583],[23.88155,8.71567],[23.88768,8.71877],[23.88667,8.72373],[23.88987,8.72492],[23.89619,8.71868],[23.9113,8.7203],[23.91536,8.7311],[23.93073,8.72765],[23.93332,8.73083],[23.94142,8.72466],[23.95554,8.73125],[23.96256,8.72827],[23.96107,8.72234],[23.96436,8.72021],[23.97639,8.72088],[23.98212,8.71122],[23.98973,8.71123],[23.99464,8.70179],[23.99976,8.7007],[24.00262,8.70353],[24.00371,8.70005],[24.00813,8.69987],[24.01447,8.70306],[24.01524,8.70795],[24.03225,8.7086],[24.03845,8.70259],[24.04824,8.70481],[24.05375,8.69881],[24.05814,8.70158],[24.06559,8.69598],[24.08343,8.69223],[24.08786,8.68766],[24.11427,8.69169],[24.11889,8.68663],[24.12859,8.68922],[24.13049,8.68529],[24.14267,8.6828],[24.1564,8.70087],[24.16552,8.706],[24.19962,8.69088],[24.20042,8.68723],[24.21654,8.69243],[24.23036,8.70357],[24.25559,8.70507],[24.26194,8.70161],[24.26037,8.69513],[24.23966,8.66381],[24.23859,8.65752],[24.22364,8.64077],[24.22739,8.63885],[24.22639,8.62802],[24.2501,8.60005],[24.25678,8.57439],[24.24003,8.56442],[24.23408,8.56476],[24.22847,8.54737],[24.21616,8.54413],[24.2166,8.53581],[24.20449,8.53156],[24.20981,8.52243],[24.20369,8.50414],[24.18972,8.49076],[24.17207,8.48665],[24.1645,8.47855],[24.16438,8.47397],[24.1695,8.47024],[24.16501,8.43575],[24.167,8.42431],[24.15894,8.41167],[24.16085,8.40713],[24.14931,8.39246],[24.15472,8.38609],[24.15541,8.36983],[24.16707,8.36172],[24.1812,8.3349],[24.1796,8.32496],[24.18871,8.32775],[24.20795,8.31244],[24.21211,8.31611],[24.21587,8.31386],[24.22382,8.29688],[24.23283,8.28673],[24.23839,8.28559],[24.24692,8.29061],[24.25677,8.2805],[24.26337,8.2823],[24.27042,8.27618],[24.30206,8.26544],[24.32437,8.27016],[24.33899,8.26892],[24.34255,8.26162],[24.3521,8.25735],[24.35838,8.24636],[24.3821,8.25401],[24.39187,8.27168],[24.40568,8.27272],[24.41659,8.27917],[24.4425,8.27882],[24.44865,8.27215],[24.45543,8.28129],[24.46072,8.27942],[24.46975,8.26796],[24.48034,8.27436],[24.4909,8.25301],[24.49558,8.23444],[24.50766,8.23772],[24.51329,8.23558],[24.51388,8.22352],[24.5175,8.2187],[24.52086,8.2172],[24.52738,8.22087],[24.53601,8.21304],[24.53656,8.20765],[24.54103,8.20619],[24.5497,8.2102],[24.55692,8.1999],[24.56661,8.19885],[24.57435,8.20853],[24.5894,8.20988],[24.59574,8.21648],[24.61273,8.22434],[24.62839,8.2154],[24.63354,8.22579],[24.65681,8.21804],[24.67071,8.22151],[24.67978,8.20725],[24.68953,8.20518],[24.6934,8.20766],[24.71083,8.20568],[24.72379,8.21147],[24.74132,8.20252],[24.7496,8.18341],[24.75824,8.18194],[24.76649,8.18794],[24.78643,8.18155],[24.79403,8.19147],[24.8031,8.19624],[24.81313,8.1845],[24.83685,8.18301],[24.84139,8.17007],[24.85552,8.17743],[24.85903,8.17613],[24.85975,8.16679],[24.86852,8.1555],[24.86589,8.15],[24.87987,8.14482],[24.88207,8.12716],[24.88992,8.1129],[24.88099,8.09476],[24.89719,8.07653],[24.89687,8.06488],[24.90228,8.06029],[24.9019,8.0467],[24.90821,8.03688],[24.91731,8.03534],[24.93069,8.03707],[24.93942,8.04276],[24.94269,8.02846],[24.9474,8.02607],[24.94965,8.01943],[24.95671,8.01666],[24.95366,8.00516],[24.96078,7.99821],[24.96356,7.98313],[24.98469,7.97217],[24.99118,7.96467],[25.00154,7.96631],[25.01001,7.95614],[25.02246,7.95204],[25.02919,7.95402],[25.04715,7.9383],[25.0552,7.9247],[25.06646,7.91957],[25.07452,7.90275],[25.08382,7.89582],[25.10646,7.89653],[25.10912,7.90391],[25.12303,7.90542],[25.12604,7.90923],[25.14175,7.90604],[25.14499,7.90912],[25.17203,7.91381],[25.17599,7.91225],[25.17732,7.90508],[25.18285,7.89868],[25.19765,7.89171],[25.19912,7.88411],[25.20408,7.88028],[25.21016,7.87862],[25.21442,7.88242],[25.21882,7.88115],[25.2217,7.87172],[25.23469,7.85805],[25.23442,7.85192],[25.24685,7.83922],[25.24863,7.82975],[25.25539,7.8229],[25.25713,7.81095],[25.26501,7.80858],[25.26552,7.79965],[25.28084,7.80592],[25.28768,7.79706],[25.28243,7.78181],[25.28474,7.75661],[25.27818,7.73617],[25.27886,7.70816],[25.28749,7.6919],[25.29849,7.68702],[25.29579,7.67241],[25.28995,7.66845],[25.28417,7.66898],[25.2871,7.65633],[25.28276,7.64829],[25.27222,7.64051],[25.25604,7.63989],[25.24849,7.63333],[25.24144,7.63193],[25.239,7.63682],[25.22886,7.63418],[25.2252,7.63049],[25.2271,7.62488],[25.22436,7.61786],[25.21477,7.61831],[25.20518,7.61263],[25.2006,7.60561],[25.18614,7.60157],[25.1787,7.58734],[25.16782,7.58676],[25.16921,7.57484],[25.18118,7.57064],[25.1836,7.56568],[25.17954,7.56191],[25.19373,7.54721],[25.19536,7.53679],[25.18657,7.52874],[25.19848,7.50721],[25.19478,7.49469],[25.20312,7.49401],[25.20841,7.48718],[25.2205,7.49112],[25.23659,7.47966],[25.24533,7.47992],[25.25132,7.48416],[25.25847,7.47997],[25.26596,7.48255],[25.2745,7.47454],[25.28568,7.47214],[25.2842,7.46374],[25.28778,7.45237],[25.29725,7.44699],[25.29981,7.43894],[25.30825,7.43725],[25.30781,7.43205],[25.31173,7.42678],[25.323,7.4295],[25.33711,7.42652],[25.33513,7.40898],[25.34527,7.39262],[25.34386,7.37758],[25.35375,7.36641],[25.35477,7.34873],[25.37055,7.34103],[25.37632,7.34233],[25.38731,7.3318],[25.39382,7.33262],[25.3998,7.34523],[25.40352,7.34239],[25.41152,7.34556],[25.41429,7.33365],[25.43001,7.31821],[25.43474,7.31842],[25.43694,7.31054],[25.45277,7.30634],[25.45721,7.28635],[25.46358,7.28173],[25.47358,7.28313],[25.47672,7.27538],[25.48627,7.26824],[25.49611,7.27518],[25.50024,7.2744],[25.50786,7.26403],[25.51075,7.26455],[25.51433,7.27161],[25.52355,7.27739],[25.53567,7.27845],[25.54863,7.25606],[25.56472,7.26074],[25.57179,7.25174],[25.57257,7.24062],[25.58839,7.23904],[25.59778,7.23291],[25.60036,7.22133],[25.60915,7.21872],[25.61141,7.21284],[25.62393,7.22207],[25.63428,7.21324],[25.64143,7.21156],[25.65001,7.2146],[25.65272,7.20432],[25.6738,7.19474],[25.68684,7.19182],[25.69963,7.19587],[25.71009,7.18984],[25.7137,7.18042],[25.71855,7.17811],[25.71883,7.17316],[25.72185,7.17234],[25.732,7.18139],[25.74461,7.18196],[25.75017,7.18066],[25.75427,7.1753],[25.75478,7.16595],[25.7773,7.16013],[25.78569,7.15384],[25.80443,7.15234],[25.82012,7.15485],[25.82731,7.14607],[25.82512,7.12005],[25.83778,7.10691],[25.85249,7.10501],[25.86623,7.10988],[25.89422,7.09673],[25.90521,7.08532],[25.90064,7.07184],[25.90633,7.06432],[25.9119,7.06293],[25.91557,7.06563],[25.93253,7.06187],[25.93709,7.04272],[25.94374,7.03998],[25.955,7.04008],[25.96289,7.03567],[25.97325,7.04171],[25.98252,7.03765],[25.98783,7.01636],[26.00539,7.00722],[26.01221,7.01151],[26.01709,6.99728],[26.02127,6.99535],[26.02719,7.00424],[26.04035,7.00512],[26.04768,6.9974],[26.04932,6.98722],[26.03985,6.96565],[26.04533,6.95509],[26.05213,6.95011],[26.05246,6.94459],[26.04933,6.93948],[26.03891,6.93435],[26.03879,6.92547],[26.05284,6.92461],[26.05753,6.92054],[26.0552,6.9164],[26.05647,6.90471],[26.07517,6.90014],[26.07932,6.90462],[26.08835,6.89909],[26.0776,6.8808],[26.08184,6.8693],[26.08224,6.85068],[26.085,6.83876],[26.08714,6.83514],[26.09553,6.83343],[26.10501,6.81193],[26.10901,6.81103],[26.1187,6.81704],[26.13076,6.81433],[26.14383,6.82094],[26.15128,6.82073],[26.15839,6.81243],[26.17229,6.8122],[26.17748,6.80063],[26.17119,6.79297],[26.1703,6.78581],[26.17455,6.78093],[26.18587,6.77785],[26.19465,6.76459],[26.20532,6.76044],[26.20291,6.75239],[26.20701,6.74709],[26.21296,6.74374],[26.23695,6.74354],[26.24139,6.73915],[26.2556,6.74261],[26.26255,6.73525],[26.25532,6.73206],[26.25498,6.70941],[26.25765,6.70752],[26.27406,6.70105],[26.29195,6.70345],[26.29692,6.70686],[26.31635,6.70277],[26.32549,6.70601],[26.3306,6.70312],[26.33467,6.69248],[26.3506,6.69714],[26.35384,6.69409],[26.36405,6.69453],[26.36437,6.68448],[26.37048,6.67949],[26.38328,6.67678],[26.38385,6.66317],[26.38708,6.65986],[26.40187,6.66106],[26.41215,6.65594],[26.41658,6.64278],[26.40623,6.62932],[26.40799,6.62166],[26.40323,6.6164],[26.39455,6.61426],[26.38232,6.60256],[26.37782,6.59599],[26.37678,6.57802],[26.37166,6.57744],[26.36968,6.58285],[26.3536,6.5812],[26.3483,6.56959],[26.35318,6.56037],[26.35319,6.55117],[26.3497,6.54178],[26.33013,6.53713],[26.3292,6.5189],[26.32106,6.50962],[26.32492,6.50246],[26.32383,6.49832],[26.28888,6.48285],[26.31272,6.44998],[26.31383,6.42071],[26.30596,6.41112],[26.29503,6.40701],[26.29463,6.4042],[26.31188,6.37427],[26.31901,6.37624],[26.33625,6.36042],[26.35039,6.3574],[26.36083,6.34788],[26.3644,6.33738],[26.37135,6.33855],[26.39189,6.30639],[26.42581,6.30145],[26.43557,6.30476],[26.4355,6.29633],[26.43904,6.293],[26.45145,6.29397],[26.47941,6.27706],[26.4849,6.26772],[26.47145,6.23477],[26.47693,6.21874],[26.49146,6.22086],[26.50389,6.21597],[26.51321,6.23083],[26.5211,6.23558],[26.53228,6.22848],[26.53707,6.20714],[26.53278,6.18679],[26.52523,6.17029],[26.51488,6.15464],[26.49491,6.14579],[26.4832,6.13127],[26.47267,6.12693],[26.45895,6.11527],[26.4492,6.07453],[26.45779,6.07279],[26.48187,6.10155],[26.51814,6.11577],[26.52432,6.10472],[26.53927,6.09705],[26.54198,6.08906],[26.53815,6.08216],[26.54089,6.07577],[26.53956,6.06307],[26.54417,6.05854],[26.55352,6.05676],[26.5601,6.0337],[26.58686,6.02648],[26.60311,6.03252],[26.61583,6.02671],[26.62149,6.01616],[26.63191,6.0122],[26.6432,6.01468],[26.6563,6.00666],[26.66306,5.99827],[26.68884,6.01848],[26.70217,6.01537],[26.71059,6.01885],[26.72162,6.0181],[26.72168,6.00438],[26.7294,6.00108],[26.75887,6.00773],[26.76553,6.0028],[26.7718,6.00335],[26.77543,5.99441],[26.77971,5.99241],[26.78742,5.99476],[26.80198,5.97509],[26.8241,5.9889],[26.83201,5.9729],[26.83035,5.95685],[26.82504,5.9482],[26.83138,5.946],[26.83325,5.94168],[26.83067,5.93273],[26.83258,5.90272],[26.83666,5.89713],[26.84592,5.89873],[26.85728,5.89219],[26.87068,5.89139],[26.88026,5.89691],[26.89466,5.89492],[26.91785,5.90146],[26.92277,5.90035],[26.93203,5.8934],[26.92818,5.88602],[26.93283,5.86965],[26.94142,5.87014],[26.96683,5.857],[26.9821,5.86167],[26.99956,5.86055],[27.0007,5.84908],[27.00822,5.84876],[27.01105,5.84402],[27.01954,5.84432],[27.03617,5.8219],[27.04616,5.82043],[27.04773,5.80618],[27.05845,5.80481],[27.07352,5.79512],[27.08845,5.80538],[27.09521,5.80447],[27.10536,5.80855],[27.10756,5.80163],[27.11809,5.8008],[27.12348,5.78981],[27.13679,5.78535],[27.13911,5.77708],[27.16115,5.77697],[27.16397,5.77386],[27.16211,5.76977],[27.15452,5.76319],[27.1633,5.74525],[27.18332,5.74566],[27.19734,5.74136],[27.19644,5.73363],[27.20058,5.72441],[27.21287,5.7126],[27.21683,5.70373],[27.22332,5.70065],[27.22141,5.67657],[27.22459,5.66598],[27.21611,5.65046],[27.23052,5.64417],[27.22997,5.63464],[27.22375,5.62761],[27.23224,5.61018],[27.23738,5.60756],[27.23749,5.60101],[27.24771,5.59903],[27.25851,5.60508],[27.27188,5.59985],[27.2886,5.60002],[27.29214,5.59546],[27.28775,5.58703],[27.28624,5.57289],[27.27968,5.56569],[27.29425,5.55409],[27.28732,5.54721],[27.28754,5.54143],[27.27909,5.52589],[27.27277,5.52295],[27.25865,5.5059],[27.24168,5.44862],[27.24362,5.43202],[27.23845,5.42246],[27.24728,5.41595],[27.24406,5.40122],[27.25698,5.36751],[27.25159,5.33887],[27.27542,5.31418],[27.27494,5.30763],[27.28505,5.28519],[27.28076,5.27787],[27.28168,5.27379],[27.28656,5.27077],[27.287,5.26603],[27.30472,5.25733],[27.31144,5.25707],[27.30836,5.24717],[27.31433,5.24329],[27.31527,5.23576],[27.3208,5.23043],[27.32114,5.21964],[27.34593,5.20143],[27.35251,5.20146],[27.35552,5.20629],[27.36819,5.20131],[27.3626,5.19002],[27.36695,5.18057],[27.38634,5.18454],[27.39027,5.17658],[27.42033,5.14316],[27.41808,5.13214],[27.42277,5.11673],[27.44242,5.0944],[27.45193,5.08923],[27.46136,5.08878],[27.46386,5.0851],[27.45857,5.05063],[27.45591,5.04291],[27.44814,5.0349],[27.45065,5.02557],[27.44591,5.018],[27.44125,5.03086],[27.44145,5.04505],[27.44842,5.05896],[27.44047,5.0755],[27.42525,5.08418],[27.37453,5.10114],[27.36853,5.1082],[27.36139,5.10745],[27.35196,5.11364],[27.34273,5.11454],[27.31945,5.13145],[27.30495,5.12995],[27.27933,5.13928],[27.26411,5.15023],[27.23012,5.15286],[27.22506,5.16104],[27.2207,5.15934],[27.21177,5.16717],[27.2032,5.16881],[27.18555,5.18578],[27.16882,5.19126],[27.16666,5.19506],[27.14406,5.20357],[27.14119,5.20146],[27.13472,5.20761],[27.12333,5.20453],[27.10834,5.20917],[27.09614,5.20631],[27.08625,5.20874],[27.0545,5.19659],[27.04979,5.19798],[27.046,5.19644],[27.04872,5.19388],[27.04632,5.19129],[27.0429,5.19391],[27.01987,5.18515],[27.02138,5.17619],[27.01203,5.18009],[27.00627,5.17485],[27.00332,5.17676],[26.99639,5.16969],[26.98151,5.16671],[26.98191,5.16453],[26.97678,5.16593],[26.97482,5.16111],[26.96496,5.15917],[26.96168,5.15159],[26.95709,5.15419],[26.94437,5.14337],[26.9331,5.14198],[26.92925,5.1354],[26.93118,5.12492],[26.92413,5.12593],[26.91855,5.1187],[26.91805,5.10969],[26.91175,5.10388],[26.91184,5.09603],[26.90508,5.09435],[26.90514,5.08552],[26.90802,5.08258],[26.89851,5.07499],[26.88712,5.07847],[26.88417,5.07211],[26.88684,5.06723],[26.88515,5.06141],[26.88003,5.05842],[26.88195,5.04545],[26.86862,5.04193],[26.86989,5.0378],[26.86605,5.03656],[26.85802,5.04128],[26.85331,5.03899],[26.84676,5.04439],[26.84085,5.05781],[26.83302,5.05671],[26.82535,5.06074],[26.82024,5.04908],[26.80381,5.04848],[26.80122,5.0532],[26.8038,5.0571],[26.79862,5.05792],[26.79951,5.06077],[26.79122,5.05874],[26.78733,5.07415],[26.77861,5.07516],[26.78547,5.08303],[26.7815,5.08953],[26.77797,5.08516],[26.77045,5.0903],[26.76938,5.08623],[26.76556,5.08763],[26.77115,5.108],[26.7674,5.10898],[26.76685,5.10554],[26.76011,5.10295],[26.75407,5.10676],[26.75374,5.10276],[26.75063,5.10288],[26.7455,5.10772],[26.72555,5.09984],[26.72708,5.10337],[26.7207,5.10667],[26.71768,5.10189],[26.71998,5.096],[26.71657,5.09635],[26.71728,5.10044],[26.70987,5.10651],[26.70354,5.09731],[26.69001,5.09149],[26.68574,5.0937],[26.68711,5.09799],[26.68057,5.10085],[26.67752,5.09965],[26.68003,5.09427],[26.67721,5.08692],[26.6601,5.07994],[26.63698,5.0933],[26.63902,5.08721],[26.63673,5.08509],[26.62732,5.08608],[26.63154,5.07346],[26.6283,5.06791],[26.61996,5.06953],[26.62115,5.08129],[26.61343,5.08193],[26.61896,5.0888],[26.61417,5.0928],[26.5912,5.07812],[26.58896,5.08516],[26.5819,5.08825],[26.58337,5.08183],[26.57115,5.08234],[26.56839,5.06864],[26.56301,5.06691],[26.55111,5.082],[26.55267,5.07444],[26.5444,5.06919],[26.55019,5.06504],[26.54956,5.06073],[26.54249,5.06066],[26.54383,5.05633],[26.53976,5.05515],[26.53654,5.0487],[26.53415,5.05014],[26.53969,5.06981],[26.53527,5.07428],[26.52791,5.06712],[26.52999,5.06378],[26.52532,5.05506],[26.52151,5.0556],[26.52388,5.04847],[26.52087,5.04684],[26.51461,5.04863],[26.51126,5.05582],[26.50938,5.05059],[26.50023,5.04793],[26.49976,5.05689],[26.49077,5.05932],[26.48584,5.048],[26.47867,5.05154],[26.478,5.05694],[26.48231,5.06196],[26.47984,5.06518],[26.46973,5.06215],[26.46736,5.06986],[26.46552,5.06354],[26.46128,5.06143],[26.45128,5.0685],[26.44806,5.07638],[26.4563,5.08359],[26.4522,5.08515],[26.45161,5.09942],[26.44891,5.10076],[26.43803,5.09319],[26.43526,5.09495],[26.44063,5.10733],[26.43573,5.11674],[26.43345,5.1182],[26.42795,5.11365],[26.42112,5.11703],[26.41747,5.1151],[26.42023,5.12736],[26.41066,5.1238],[26.4136,5.12955],[26.41251,5.13619],[26.40235,5.13626],[26.40223,5.12996],[26.39648,5.12364],[26.39534,5.13139],[26.38853,5.13175],[26.3933,5.13826],[26.38823,5.15002],[26.38141,5.15254],[26.36773,5.14266],[26.3597,5.14511],[26.34891,5.16086],[26.33982,5.14799],[26.33554,5.15188],[26.32557,5.15244],[26.32137,5.14016],[26.31467,5.15426],[26.30758,5.1556],[26.31053,5.15133],[26.29785,5.14157],[26.29946,5.15228],[26.29551,5.15496],[26.2928,5.16377],[26.27894,5.16132],[26.28557,5.17051],[26.28054,5.17174],[26.27723,5.17671],[26.25255,5.1743],[26.24886,5.1773],[26.25682,5.19298],[26.2507,5.19281],[26.25061,5.20098],[26.24302,5.20164],[26.23864,5.19001],[26.23593,5.18695],[26.23347,5.18853],[26.22962,5.20543],[26.2339,5.20826],[26.23463,5.21367],[26.22877,5.2092],[26.22079,5.21142],[26.21639,5.1941],[26.21258,5.21219],[26.20624,5.21486],[26.21734,5.21826],[26.20832,5.22319],[26.2059,5.24207],[26.20031,5.24513],[26.19725,5.24285],[26.19561,5.23189],[26.18601,5.22368],[26.18269,5.22697],[26.18922,5.23169],[26.1847,5.23726],[26.1847,5.24792],[26.16439,5.23614],[26.15705,5.23824],[26.15698,5.25437],[26.16147,5.25667],[26.15684,5.2616],[26.14279,5.26076],[26.13588,5.26738],[26.12912,5.26757],[26.13312,5.25749],[26.1236,5.24767],[26.11439,5.24455],[26.1159,5.23866],[26.10821,5.23594],[26.1041,5.24623],[26.09214,5.24582],[26.08721,5.23928],[26.09586,5.23476],[26.0935,5.21251],[26.09001,5.20926],[26.08625,5.21802],[26.07689,5.22092],[26.06592,5.21749],[26.06677,5.2101],[26.06139,5.1956],[26.04699,5.20894],[26.05017,5.21571],[26.04844,5.22554],[26.04384,5.22328],[26.03586,5.20861],[26.02473,5.21301],[26.00829,5.21058],[26.00473,5.21366],[26.00782,5.22926],[26.00482,5.23588],[25.99494,5.23917],[25.99122,5.22851],[25.98666,5.22542],[25.98071,5.24641],[25.9745,5.24715],[25.97157,5.24019],[25.96537,5.23603],[25.9567,5.21481],[25.9552,5.2059],[25.96233,5.19916],[25.95623,5.19562],[25.94802,5.20529],[25.93534,5.21043],[25.93027,5.20963],[25.9222,5.20049],[25.91246,5.20664],[25.90289,5.20514],[25.90397,5.19427],[25.91006,5.1899],[25.91354,5.17983],[25.90029,5.16865],[25.89474,5.20282],[25.88337,5.20428],[25.87568,5.21106],[25.88188,5.21469],[25.88298,5.22216],[25.88004,5.22481],[25.87232,5.22287],[25.8626,5.22624],[25.8428,5.21723],[25.83898,5.20117],[25.82803,5.1916],[25.82636,5.20157],[25.81951,5.20086],[25.81865,5.20741],[25.81363,5.21334],[25.81415,5.22275],[25.81086,5.22346],[25.80438,5.21779],[25.80001,5.22141],[25.806,5.2288],[25.81392,5.25153],[25.80505,5.25119],[25.79002,5.24006],[25.78135,5.24093],[25.78119,5.24501],[25.78975,5.24926],[25.79365,5.2563],[25.79203,5.26951],[25.78453,5.2786],[25.77965,5.27942],[25.76517,5.26924],[25.76956,5.26292],[25.77526,5.26663],[25.78082,5.26394],[25.78112,5.25932],[25.77285,5.25336],[25.76659,5.25343],[25.75963,5.24705],[25.7392,5.24125],[25.74079,5.2529],[25.73586,5.27149],[25.73202,5.27203],[25.72745,5.26773],[25.71537,5.27057],[25.70621,5.30277],[25.67652,5.3066],[25.66842,5.31602],[25.66034,5.30769],[25.65632,5.30881],[25.65902,5.32591],[25.64963,5.3315],[25.6352,5.32924],[25.63149,5.31797],[25.63719,5.31118],[25.63678,5.30643],[25.62976,5.30474],[25.62353,5.30905],[25.61714,5.32385],[25.6004,5.32209],[25.59455,5.32596],[25.60434,5.33898],[25.61552,5.34147],[25.62234,5.34952],[25.6126,5.35376],[25.58974,5.3488],[25.58811,5.35406],[25.57774,5.36018],[25.5815,5.37078],[25.57866,5.37836],[25.57072,5.38145],[25.54906,5.3788],[25.5319,5.39189],[25.52809,5.38523],[25.53053,5.37611],[25.54362,5.36375],[25.53706,5.35706],[25.51825,5.35505],[25.49866,5.34384],[25.48938,5.35751],[25.48096,5.36405],[25.47618,5.36281],[25.47053,5.35576],[25.4725,5.35091],[25.46972,5.34465],[25.46112,5.34074],[25.44576,5.34416],[25.44101,5.33674],[25.43477,5.34147],[25.42839,5.32405],[25.42519,5.32521],[25.41864,5.32113],[25.4242,5.31308],[25.42215,5.31067],[25.40642,5.30894],[25.40336,5.31113],[25.39642,5.3242],[25.39933,5.33301],[25.39016,5.33833],[25.38841,5.33533],[25.393,5.333],[25.38577,5.31598],[25.36918,5.31346],[25.36314,5.31531],[25.35638,5.30809],[25.35953,5.29837],[25.36419,5.30405],[25.37365,5.30246],[25.37651,5.29187],[25.36273,5.27877],[25.35733,5.28409],[25.34999,5.28294],[25.33521,5.26199],[25.329,5.20763],[25.30811,5.19145],[25.31607,5.16362],[25.326,5.15009],[25.34848,5.15235],[25.34158,5.13001],[25.34367,5.10958],[25.32022,5.07376],[25.32604,5.04296],[25.31331,5.03144],[25.26621,5.02481],[25.24968,5.02704],[25.23746,5.01447],[25.22234,5.01036],[25.20987,5.01509],[25.19907,5.01428],[25.19061,5.00544],[25.19094,4.99881],[25.16939,5.00182],[25.1641,5.00689],[25.16119,5.02209],[25.15149,5.03055],[25.14187,5.01679],[25.12089,5.01183],[25.12523,5.00573],[25.12344,4.98741],[25.11668,4.98863],[25.09692,4.97853],[25.08908,4.98034],[25.0857,4.97773],[25.08366,4.96751],[25.07334,4.9571],[25.07308,4.94503],[25.06295,4.92664],[25.04897,4.93008],[25.04383,4.94216],[25.02726,4.9558],[25.01358,4.96034],[25.00393,4.95702],[24.99616,4.95829],[24.99027,4.97283],[24.98553,4.97685],[24.95589,4.98781],[24.9207,4.97492],[24.91761,4.96048],[24.91066,4.95147],[24.87288,4.94963],[24.86538,4.95559],[24.85927,4.9503],[24.86195,4.93683],[24.84869,4.92485],[24.81388,4.92935],[24.79745,4.92563],[24.78136,4.89539],[24.77482,4.89341],[24.76589,4.89606],[24.7689,4.90565],[24.76611,4.91112],[24.75813,4.90891],[24.75121,4.89705],[24.74442,4.8989],[24.72457,4.89489],[24.72007,4.89942],[24.72043,4.90931],[24.71442,4.9126],[24.68887,4.91245],[24.67639,4.90851],[24.66115,4.91816],[24.66048,4.9277],[24.6694,4.93476],[24.67322,4.95059],[24.67185,4.9682],[24.65795,4.97544],[24.63158,4.97566],[24.62606,4.99645],[24.62648,5.00903],[24.61755,5.02517],[24.61065,5.02908],[24.56857,5.03317],[24.55032,5.05139],[24.5472,5.06836],[24.53324,5.08342],[24.51544,5.0832],[24.50144,5.09289],[24.46338,5.10455],[24.44285,5.09515],[24.44403,5.08644],[24.45312,5.07587],[24.45326,5.06637],[24.44761,5.05667],[24.44004,5.0566],[24.42053,5.07834],[24.42015,5.08905],[24.41614,5.09592],[24.40228,5.10614],[24.37965,5.11352],[24.37501,5.11216],[24.36455,5.09769],[24.36162,5.07137],[24.34692,5.06773],[24.34069,5.05921],[24.3444,5.05056],[24.35727,5.0446],[24.36872,5.04637],[24.37836,5.05337],[24.38572,5.05286],[24.39706,5.04247],[24.39511,5.03165],[24.37456,5.02011],[24.3654,5.00864],[24.35551,5.00608],[24.33533,5.01127],[24.3228,5.00175],[24.29311,5.00283],[24.28139,4.99591],[24.26634,4.97282],[24.27583,4.95107],[24.26719,4.93538],[24.25288,4.93346],[24.24423,4.93554],[24.24111,4.93766],[24.24659,4.95308],[24.24084,4.95702],[24.2288,4.95795],[24.21249,4.95221],[24.17792,4.9275],[24.16432,4.89831],[24.14928,4.89226],[24.13735,4.89473],[24.1178,4.91726],[24.11144,4.91877],[24.0796,4.90435],[24.0706,4.89557],[24.04997,4.88561],[24.0512,4.87024],[24.03324,4.86158],[24.01397,4.86174],[24.00035,4.87431],[23.9948,4.87293],[23.98578,4.877],[23.97834,4.87432],[23.96371,4.87543],[23.95671,4.86412],[23.95704,4.85361],[23.95282,4.84796],[23.96134,4.83794],[23.96113,4.81799],[23.95428,4.81001],[23.93849,4.8172],[23.91509,4.81959],[23.90642,4.82993],[23.89535,4.83011],[23.89139,4.83327],[23.87215,4.81848],[23.85297,4.81407],[23.84956,4.81704],[23.84739,4.82828],[23.83918,4.83492],[23.8331,4.83481],[23.80024,4.81205],[23.77932,4.78645],[23.75492,4.78345],[23.71274,4.78654],[23.67403,4.76444],[23.66753,4.76711],[23.64497,4.76409],[23.63528,4.76665],[23.61479,4.75807],[23.59465,4.76223],[23.58955,4.76064],[23.57866,4.74527],[23.57705,4.73729],[23.56464,4.73695],[23.55853,4.72045],[23.54676,4.71499],[23.53695,4.69996],[23.52158,4.69299],[23.50175,4.67742],[23.46004,4.67802],[23.44714,4.66196],[23.42874,4.6529],[23.42583,4.6379],[23.42975,4.60308],[23.42727,4.597],[23.42009,4.59298],[23.39423,4.59513],[23.37956,4.59107],[23.37238,4.59618],[23.36982,4.6073],[23.35539,4.61524],[23.3489,4.61598],[23.32949,4.60803],[23.32441,4.60884],[23.31311,4.61412],[23.29253,4.63581],[23.27486,4.63376],[23.26966,4.65691],[23.26232,4.67164],[23.25271,4.67583],[23.23224,4.67378],[23.22512,4.68489],[23.20612,4.70104],[23.19527,4.72417],[23.17165,4.74092],[23.15993,4.74143],[23.11789,4.71492],[23.1052,4.71157],[23.07759,4.71964],[23.06017,4.73703],[23.0341,4.75007],[23.01239,4.75513],[23.00684,4.76197],[22.99847,4.79065],[22.98168,4.82754],[22.97453,4.83603],[22.963,4.8379],[22.93781,4.81498],[22.92906,4.81342],[22.91128,4.81903],[22.90262,4.81677],[22.89454,4.81052],[22.88417,4.79144],[22.88644,4.77065],[22.89564,4.76488],[22.89787,4.75671],[22.89043,4.74828],[22.87931,4.74444],[22.86841,4.73576],[22.86584,4.71817],[22.85896,4.70832],[22.84588,4.70037],[22.83956,4.69986],[22.82219,4.72373],[22.80491,4.72812],[22.7916,4.72424],[22.77975,4.71089],[22.77381,4.68522],[22.75587,4.6558],[22.73235,4.62692],[22.73576,4.62255],[22.72854,4.59683],[22.73215,4.59268],[22.72969,4.583],[22.73187,4.55988],[22.72449,4.54612],[22.7141,4.53736],[22.70356,4.52077],[22.70454,4.47736],[22.67892,4.46645],[22.67611,4.47463],[22.66435,4.48331],[22.6626,4.49188],[22.64799,4.49433],[22.63953,4.48611],[22.61705,4.4917],[22.60872,4.48179],[22.59287,4.47759],[22.59665,4.43269],[22.59348,4.42251],[22.58,4.41519],[22.5825,4.39333],[22.5952,4.39247],[22.59501,4.38524],[22.60635,4.38777],[22.61632,4.37153],[22.61229,4.37013],[22.61327,4.36609],[22.59818,4.36192],[22.60053,4.35315],[22.59786,4.34933],[22.5754,4.34428],[22.56269,4.32612],[22.56114,4.31129],[22.5453,4.28962],[22.53896,4.25807],[22.53948,4.25444],[22.55269,4.24324],[22.54958,4.21767],[22.5107,4.18859],[22.50132,4.17267],[22.48949,4.16723],[22.48799,4.15801],[22.47012,4.14883],[22.45105,4.13304],[22.4324,4.12858],[22.40653,4.13158],[22.36981,4.1214],[22.34233,4.12616],[22.31581,4.12419],[22.29915,4.11454],[22.25295,4.11608],[22.21917,4.13298],[22.19827,4.13467],[22.17873,4.15253],[22.15869,4.156],[22.1522,4.16298],[22.15224,4.17017],[22.12874,4.19614],[22.1,4.21536],[22.04808,4.22048],[22.02852,4.22828],[22.00294,4.24862],[21.97741,4.23946],[21.95999,4.23999],[21.95462,4.23352],[21.94499,4.23448],[21.93126,4.24254],[21.90303,4.24175],[21.87651,4.25066],[21.85778,4.2466],[21.84355,4.25416],[21.80853,4.28687],[21.78457,4.29576],[21.77253,4.29222],[21.76289,4.29397],[21.75209,4.29879],[21.7462,4.30822],[21.73618,4.31192],[21.71521,4.30534],[21.70474,4.29341],[21.69285,4.30792],[21.68341,4.29929],[21.67651,4.29973],[21.66409,4.30889],[21.65048,4.31308],[21.606,4.28317],[21.58186,4.27524],[21.56612,4.25647],[21.55028,4.25217],[21.51923,4.2617],[21.51161,4.25988],[21.47788,4.26446],[21.45233,4.28789],[21.44371,4.29177],[21.42968,4.29232],[21.39065,4.28116],[21.35871,4.28125],[21.30886,4.31847],[21.30055,4.33464],[21.28309,4.34331],[21.27634,4.34351],[21.26666,4.33739],[21.25171,4.33638],[21.24143,4.32402],[21.23947,4.30605],[21.22575,4.29344],[21.21491,4.29139],[21.19296,4.31053],[21.16963,4.31064],[21.15058,4.32721],[21.12666,4.33524],[21.11007,4.34688],[21.10435,4.35253],[21.10111,4.37503],[21.08175,4.39401],[21.04955,4.40734],[21.02025,4.41238],[20.99754,4.42935],[20.94582,4.44532],[20.92102,4.44042],[20.90096,4.44501],[20.88587,4.45321],[20.87416,4.45036],[20.84218,4.45254],[20.8348,4.44303],[20.82452,4.4415],[20.79267,4.42167],[20.73127,4.43238],[20.70141,4.42972],[20.68711,4.42469],[20.64863,4.41882],[20.63927,4.42064],[20.60792,4.4122],[20.57968,4.41799],[20.52733,4.45043],[20.51636,4.47261],[20.49937,4.48617],[20.48262,4.5106],[20.47118,4.51363],[20.46656,4.51861],[20.46311,4.54061],[20.4491,4.56515],[20.46327,4.60323],[20.45942,4.62069],[20.44358,4.64221],[20.43065,4.64858],[20.40398,4.67537],[20.40238,4.68517],[20.39194,4.69574],[20.38796,4.71939],[20.35979,4.75889],[20.34592,4.77046],[20.31291,4.77364],[20.30411,4.77789],[20.28636,4.77656],[20.27633,4.77905],[20.2545,4.79253],[20.2194,4.81946],[20.20415,4.84253],[20.19571,4.87227],[20.18203,4.88606],[20.12441,4.90394],[20.10325,4.90262],[20.06961,4.92435],[20.04658,4.93407],[20.0378,4.95157],[20.00832,4.9715],[19.95973,4.98202],[19.92892,4.97771],[19.91355,4.9843],[19.8656,5.02856],[19.85776,5.04099],[19.85325,5.05658],[19.85301,5.07158],[19.83108,5.09579],[19.81774,5.10263],[19.79252,5.10307],[19.78215,5.11324],[19.77437,5.1163],[19.73795,5.12475],[19.72745,5.12429],[19.68189,5.14475],[19.64191,5.14115],[19.61126,5.13175],[19.59469,5.13691],[19.58039,5.14601],[19.53275,5.14909],[19.51979,5.14514],[19.51178,5.13741],[19.50166,5.13598],[19.48155,5.12184],[19.47185,5.12241],[19.46074,5.12822],[19.42596,5.13026],[19.38992,5.11268],[19.37023,5.09534],[19.35669,5.07302],[19.34329,5.06132],[19.31105,5.0481],[19.28429,5.02789],[19.24862,5.018],[19.2295,5.00393],[19.2139,4.9717],[19.21104,4.95653],[19.19172,4.93989],[19.18174,4.93878],[19.17019,4.94738],[19.15078,4.94842],[19.1143,4.94113],[19.10463,4.93589],[19.0949,4.91987],[19.08045,4.90894],[19.07223,4.8974],[19.06205,4.86056],[19.05024,4.83364],[19.03777,4.81786],[19.03035,4.80226],[19.01665,4.7905],[19.02006,4.78175],[19.01862,4.76621],[19.01167,4.76336],[19.00338,4.75032],[18.96832,4.72941],[18.95616,4.71155],[18.93702,4.69845],[18.94014,4.68824],[18.92078,4.65146],[18.91408,4.64893],[18.89848,4.64986],[18.88971,4.64611],[18.88606,4.64069],[18.88289,4.61737],[18.87771,4.60928],[18.86059,4.60221],[18.82972,4.58006],[18.81405,4.52849],[18.81645,4.52301],[18.81077,4.51068],[18.80552,4.46906],[18.7824,4.42353],[18.76118,4.40163],[18.73313,4.38386],[18.72307,4.37171],[18.69671,4.3637],[18.6517,4.36345],[18.62253,4.35619],[18.60199,4.37022],[18.59348,4.3584],[18.56435,4.34316],[18.54614,4.32384],[18.54358,4.31424],[18.5498,4.29595],[18.57198,4.25021],[18.5737,4.2379],[18.59034,4.22116],[18.59765,4.19163],[18.62048,4.14008],[18.63436,4.09018],[18.64524,4.06408],[18.64711,4.02175],[18.65881,3.98965],[18.65073,3.95929],[18.64382,3.94617],[18.62511,3.93732],[18.61771,3.93039],[18.59804,3.89513],[18.6006,3.87969],[18.59235,3.84809],[18.59502,3.82616],[18.5925,3.81257],[18.57853,3.77966],[18.58037,3.76159],[18.58898,3.73636],[18.59255,3.65945],[18.60066,3.6391],[18.60503,3.61526],[18.60304,3.60086],[18.60765,3.5678],[18.60517,3.54198],[18.60761,3.52186],[18.62601,3.49191],[18.62582,3.47123],[18.61873,3.47523],[18.60751,3.47277],[18.59449,3.48434],[18.58592,3.50236],[18.58659,3.51289],[18.58141,3.52224],[18.57389,3.52722],[18.55236,3.56388],[18.54103,3.60965],[18.50203,3.64142],[18.49512,3.64327],[18.487,3.65344],[18.47835,3.65077],[18.47406,3.64595],[18.47007,3.63289],[18.45118,3.62873],[18.4547,3.61298],[18.4518,3.6023],[18.43882,3.59472],[18.43236,3.60824],[18.42668,3.60956],[18.41316,3.60068],[18.41276,3.59574],[18.41858,3.58712],[18.41248,3.58025],[18.38344,3.5846],[18.36775,3.60129],[18.36878,3.60694],[18.35785,3.61255],[18.35275,3.61264],[18.34161,3.5977],[18.33135,3.59674],[18.32607,3.58789],[18.32209,3.5869],[18.2925,3.58612],[18.28034,3.59366],[18.2706,3.5917],[18.26511,3.58608],[18.26407,3.55776],[18.23331,3.49354],[18.20702,3.48561],[18.17799,3.4825],[18.17256,3.48395],[18.1675,3.4929],[18.16939,3.51953],[18.15199,3.54854],[18.14027,3.55609],[18.13545,3.56379],[18.12686,3.56162],[18.09479,3.57169],[18.08131,3.56949],[18.0635,3.57222],[18.0386,3.56458],[18.02249,3.54941],[17.99218,3.55377],[17.98498,3.54936],[17.98118,3.54258],[17.97239,3.54111],[17.96851,3.5492],[17.95244,3.55976],[17.94999,3.57844],[17.94163,3.58638],[17.94232,3.59821],[17.93772,3.6047],[17.92587,3.59742],[17.92071,3.58474],[17.89371,3.55404],[17.87878,3.55876],[17.86407,3.53856],[17.85031,3.52973],[17.84852,3.54829],[17.84096,3.57264],[17.82944,3.57601],[17.8269,3.5819],[17.83348,3.5956],[17.83049,3.60164],[17.8342,3.61204],[17.83018,3.62386],[17.8247,3.62799],[17.80816,3.62975],[17.78898,3.62649],[17.76154,3.63923],[17.74987,3.64071],[17.73112,3.65422],[17.70551,3.63291],[17.70056,3.63266],[17.68271,3.64711],[17.66859,3.64111],[17.65748,3.64274],[17.64776,3.64019],[17.62422,3.64363],[17.59866,3.64186],[17.59112,3.66208],[17.575,3.66863],[17.55775,3.66835],[17.54817,3.6871],[17.53097,3.69501],[17.50746,3.69141],[17.49045,3.70659],[17.46949,3.70773],[17.45381,3.70142],[17.44446,3.68582],[17.40451,3.67339],[17.38797,3.66125],[17.38454,3.64344],[17.37147,3.63573],[17.36535,3.61761],[17.36379,3.58719],[17.35871,3.58031],[17.35092,3.57733],[17.33569,3.57828],[17.33122,3.58178],[17.33033,3.60209],[17.32276,3.61278],[17.31078,3.60999],[17.29073,3.61828],[17.28053,3.61516],[17.27179,3.61801],[17.24616,3.60734],[17.24418,3.59943],[17.24638,3.58667],[17.244,3.58231],[17.23377,3.57783],[17.21438,3.57345],[17.19397,3.57333],[17.18043,3.56747],[17.16878,3.56993],[17.15237,3.57873],[17.12274,3.56585],[17.11019,3.56455],[17.10189,3.56909],[17.09413,3.56899],[17.08158,3.5564],[17.05935,3.54903],[17.04168,3.53069],[17.03246,3.513],[17.02867,3.51263],[17.02479,3.51985],[17.00977,3.52684],[17.00161,3.53433],[17.00064,3.54019],[16.99334,3.5433],[16.97955,3.53874],[16.97446,3.53998],[16.94051,3.55771],[16.93226,3.55649],[16.92032,3.54402],[16.89824,3.53443],[16.86806,3.53316],[16.8579,3.51381],[16.84358,3.51685],[16.83048,3.52608],[16.81876,3.52558],[16.80287,3.54574],[16.79465,3.54868],[16.77716,3.5434],[16.75662,3.55934],[16.74413,3.55757],[16.728,3.54969],[16.69645,3.54926],[16.68274,3.54131],[16.66624,3.5438],[16.63747,3.53014],[16.61591,3.50458],[16.58666,3.48669],[16.58391,3.47283],[16.5879,3.45981],[16.58416,3.44405],[16.58952,3.41234],[16.58798,3.40111],[16.57756,3.37905],[16.58509,3.36234],[16.5839,3.35753],[16.56913,3.32593],[16.52582,3.27474],[16.52415,3.26652],[16.53549,3.24509],[16.52884,3.23278],[16.53084,3.22615],[16.52578,3.21798],[16.52971,3.21242],[16.53006,3.20368],[16.51573,3.19245],[16.51193,3.18182],[16.50039,3.16976],[16.50499,3.16113],[16.50567,3.14905],[16.51127,3.14307],[16.50586,3.12039],[16.50519,3.10121],[16.5079,3.09138],[16.5336,3.07626],[16.53733,3.06974],[16.53463,3.05297],[16.50557,3.03102],[16.50557,3.02078],[16.49803,3.01007],[16.50266,2.99862],[16.49208,2.99124],[16.49088,2.98612],[16.50229,2.96942],[16.49805,2.94133],[16.4923,2.93431],[16.48565,2.93221],[16.48279,2.92546],[16.50344,2.90571],[16.5173,2.88575],[16.51858,2.87744],[16.50927,2.83203],[16.19025,2.22303],[16.18193,2.23217],[16.16014,2.2453],[16.15899,2.25347],[16.16755,2.26936],[16.16406,2.27634],[16.16422,2.28752],[16.14445,2.33216],[16.14443,2.35462],[16.12261,2.37281],[16.10176,2.42202],[16.0961,2.43176],[16.08641,2.43712],[16.08224,2.45419],[16.07276,2.46241],[16.07525,2.46991],[16.08188,2.47434],[16.08477,2.49472],[16.07314,2.50905],[16.06462,2.52799],[16.06509,2.53313],[16.06862,2.5371],[16.0685,2.54529],[16.07947,2.56316],[16.08425,2.58262],[16.08152,2.60062],[16.06569,2.63887],[16.0659,2.64946],[16.07138,2.65653],[16.07061,2.67364],[16.08194,2.69015],[16.08082,2.70034],[16.08347,2.70373],[16.0799,2.70794],[16.07089,2.706],[16.05671,2.71371],[16.05655,2.72002],[16.06164,2.72585],[16.0564,2.72808],[16.05702,2.73192],[16.06308,2.73322],[16.06339,2.73919],[16.05958,2.74711],[16.06115,2.75538],[16.055,2.75958],[16.05025,2.78534],[16.04662,2.78672],[16.04832,2.79595],[16.06751,2.80402],[16.07838,2.81235],[16.08099,2.8227],[16.0871,2.82526],[16.08974,2.8325],[16.08698,2.8366],[16.08836,2.84179],[16.08518,2.84118],[16.08364,2.86555],[16.08073,2.86702],[16.07284,2.88757],[16.07396,2.89192],[16.07143,2.89258],[16.07506,2.89707],[16.07075,2.90064],[16.06866,2.91218],[16.05668,2.91943],[16.05493,2.92574],[16.05163,2.92708],[16.05279,2.93822],[16.04598,2.94572],[16.04444,2.95244],[16.03896,2.95461],[16.03785,2.96226],[16.03253,2.96582],[16.03193,2.97875],[16.02845,2.98487],[16.02275,2.98341],[16.02089,2.98784],[16.00791,2.98906],[16.0054,2.9986],[16.00192,2.99878],[16.00271,3.00706],[15.9985,3.01099],[15.98674,3.00517],[15.97709,3.00618],[15.96958,2.99517],[15.95659,3.00716],[15.95107,3.01703],[15.94412,3.01902],[15.9319,3.04023],[15.92152,3.04297],[15.91461,3.05642],[15.91401,3.06572],[15.90933,3.06878],[15.90977,3.07348],[15.90261,3.07696],[15.89901,3.08918],[15.89701,3.08787],[15.89231,3.09295],[15.89214,3.09825],[15.88762,3.1023],[15.87912,3.10517],[15.86641,3.10404],[15.85996,3.11413],[15.85159,3.11612],[15.84495,3.11108],[15.83676,3.11567],[15.82238,3.10366],[15.80895,3.1075],[15.80236,3.09834],[15.49108,3.4613],[15.45515,3.4953],[15.24727,3.71389],[15.10251,3.95465],[15.07346,4.01951],[15.09756,4.03003],[15.13113,4.03515],[15.14239,4.04488],[15.17018,4.05218],[15.17727,4.05776],[15.17118,4.07136],[15.15802,4.07411],[15.14528,4.06815],[15.13974,4.07205],[15.14117,4.07998],[15.13197,4.09592],[15.13241,4.10558],[15.12719,4.1107],[15.12082,4.11121],[15.11781,4.12056],[15.108,4.12051],[15.10713,4.13034],[15.0992,4.1403],[15.0993,4.14879],[15.10747,4.15504],[15.10378,4.16106],[15.10317,4.17544],[15.10752,4.17865],[15.10633,4.18187],[15.09939,4.18],[15.09718,4.19049],[15.10028,4.20021],[15.09636,4.20068],[15.09435,4.21234],[15.10141,4.21897],[15.09292,4.22866],[15.09486,4.23383],[15.08922,4.23522],[15.08805,4.24325],[15.09406,4.24555],[15.0923,4.25793],[15.09498,4.26525],[15.08699,4.2699],[15.09081,4.2753],[15.09059,4.28287],[15.08753,4.28563],[15.09077,4.29097],[15.08613,4.2971],[15.08701,4.30102],[15.07731,4.31158],[15.0782,4.31433],[15.0761,4.31619],[15.0742,4.31385],[15.06591,4.32216],[15.0642,4.32877],[15.06028,4.32762],[15.05687,4.34019],[15.04817,4.34688],[15.0466,4.35182],[15.0425,4.35258],[15.04047,4.35747],[15.04407,4.36326],[15.03621,4.37505],[15.03118,4.37171],[15.03121,4.36735],[15.02404,4.37118],[15.0204,4.38576],[15.01274,4.39376],[15.01746,4.39754],[15.01147,4.40611],[15.01372,4.41493],[15.00815,4.42417],[15.00085,4.42189],[14.99323,4.42567],[14.98161,4.42593],[14.98144,4.43419],[14.96739,4.43962],[14.96035,4.44014],[14.95559,4.43654],[14.9482,4.43992],[14.94298,4.43838],[14.94195,4.44974],[14.93553,4.45022],[14.93436,4.45347],[14.90694,4.46697],[14.88987,4.4688],[14.879,4.47842],[14.88218,4.48098],[14.87146,4.48998],[14.871,4.49659],[14.85159,4.50216],[14.85074,4.51458],[14.8276,4.51588],[14.82853,4.52416],[14.823,4.52698],[14.81512,4.52793],[14.81097,4.52432],[14.79671,4.54635],[14.78469,4.55311],[14.78356,4.56114],[14.77576,4.56545],[14.77225,4.57351],[14.7646,4.57606],[14.76543,4.58199],[14.75213,4.58359],[14.75246,4.58816],[14.74569,4.59368],[14.74007,4.60632],[14.73663,4.60625],[14.73394,4.61221],[14.72965,4.61214],[14.73078,4.63032],[14.71837,4.64728],[14.72144,4.66262],[14.71785,4.67575],[14.71961,4.67953],[14.71632,4.6835],[14.72169,4.69019],[14.71663,4.70523],[14.71814,4.74001],[14.71462,4.74683],[14.70877,4.74828],[14.70992,4.75539],[14.70157,4.75999],[14.70004,4.7642],[14.71227,4.77302],[14.71346,4.78575],[14.71713,4.78655],[14.71306,4.79854],[14.71703,4.80569],[14.7164,4.81588],[14.71366,4.81612],[14.71032,4.83375],[14.70624,4.84087],[14.70341,4.8403],[14.70578,4.84908],[14.70365,4.85875],[14.70995,4.85879],[14.71252,4.86806],[14.69913,4.89031],[14.69847,4.90486],[14.6942,4.91432],[14.68719,4.92424],[14.6806,4.92654],[14.68028,4.93086],[14.68967,4.93932],[14.68679,4.94512],[14.69204,4.94977],[14.6934,4.96074],[14.69014,4.96994],[14.69304,4.97285],[14.68398,4.9768],[14.6813,4.98775],[14.67728,4.98775],[14.6747,4.99191],[14.67983,5.00201],[14.67497,5.01063],[14.68154,5.01197],[14.67637,5.01898],[14.68788,5.02234],[14.68387,5.03127],[14.6838,5.04179],[14.68033,5.04492],[14.68188,5.05682],[14.6727,5.07431],[14.67314,5.08497],[14.68901,5.09303],[14.68908,5.10008],[14.69363,5.09916],[14.6641,5.19985],[14.65377,5.20541],[14.64941,5.21557],[14.63938,5.21557],[14.62038,5.22333],[14.60685,5.22176],[14.60421,5.22506],[14.59494,5.22497],[14.59056,5.23057],[14.58115,5.23361],[14.57663,5.23196],[14.55106,5.256],[14.54692,5.25596],[14.53402,5.26762],[14.52783,5.27505],[14.52606,5.28411],[14.54288,5.30248],[14.54918,5.30435],[14.54998,5.30954],[14.54657,5.31041],[14.54835,5.31482],[14.54272,5.31657],[14.55276,5.32665],[14.5503,5.33478],[14.5624,5.35414],[14.56121,5.36972],[14.56672,5.37811],[14.5716,5.37981],[14.57331,5.38867],[14.57112,5.39091],[14.57393,5.39541],[14.57198,5.40326],[14.57769,5.40274],[14.58093,5.40805],[14.58662,5.4098],[14.59373,5.40835],[14.59984,5.41575],[14.59759,5.43151],[14.60469,5.45275],[14.59851,5.45983],[14.6023,5.46527],[14.6068,5.46453],[14.61531,5.47842],[14.61811,5.47861],[14.61312,5.48974],[14.6166,5.49088],[14.61776,5.49812],[14.62993,5.51213],[14.61043,5.53354],[14.60282,5.56906],[14.59121,5.58233],[14.58991,5.58854],[14.59104,5.60734],[14.60678,5.64312],[14.60556,5.65844],[14.62598,5.70923],[14.62355,5.75337],[14.62045,5.76404],[14.62247,5.78146],[14.62003,5.78956],[14.6239,5.80389],[14.61858,5.81608],[14.62145,5.82264],[14.6126,5.85353],[14.61974,5.88723],[14.61201,5.9066],[14.60002,5.92287],[14.58765,5.92317],[14.56865,5.90408],[14.56017,5.90116],[14.54863,5.90272],[14.51216,5.89427],[14.49746,5.90571],[14.49694,5.91008],[14.4867,5.91925],[14.48311,5.93742],[14.47345,5.94643],[14.46381,5.97195],[14.43241,5.99958],[14.42513,6.0198],[14.42612,6.02567],[14.42131,6.02648],[14.41566,6.03266],[14.417,6.04931],[14.42089,6.05378],[14.42679,6.07527],[14.42163,6.08266],[14.42368,6.08538],[14.43318,6.08413],[14.44331,6.08721],[14.44822,6.09421],[14.46269,6.09466],[14.46819,6.09804],[14.46971,6.1043],[14.47993,6.11008],[14.48437,6.11905],[14.49036,6.11901],[14.50407,6.13111],[14.51048,6.14802],[14.52554,6.16138],[14.52963,6.17064],[14.5398,6.17412],[14.5459,6.18324],[14.56262,6.19489],[14.56766,6.19714],[14.57864,6.1927],[14.73852,6.25044],[14.81209,6.36563],[14.80049,6.40135],[14.85473,6.5047],[14.9404,6.70024],[14.9599,6.75158],[15.00451,6.76196],[15.01543,6.76931],[15.03975,6.76097],[15.05698,6.77069],[15.05994,6.78178],[15.06515,6.78822],[15.06758,6.81744],[15.07632,6.82521],[15.0866,6.8522],[15.0903,6.85501],[15.08966,6.86307],[15.10745,6.88997],[15.11035,6.90624],[15.11675,6.91541],[15.11919,6.92693],[15.14038,6.94698],[15.13865,6.95251],[15.13489,6.95329],[15.13659,6.96051],[15.13306,6.97123],[15.13837,6.9972],[15.14205,7.00213],[15.13996,7.01189],[15.14277,7.02635],[15.15206,7.033],[15.15182,7.04208],[15.15852,7.04414],[15.15831,7.058],[15.16662,7.06704],[15.16795,7.07488],[15.17286,7.07042],[15.18,7.07356],[15.18831,7.06894],[15.19258,7.07491],[15.19099,7.08224],[15.20595,7.08616],[15.21344,7.09834],[15.21023,7.10273],[15.21723,7.10124],[15.22097,7.112],[15.21389,7.12316],[15.22232,7.12661],[15.21955,7.13228],[15.22081,7.13898],[15.21075,7.14296],[15.20606,7.17703],[15.22366,7.19931],[15.2231,7.20748],[15.23365,7.21624],[15.22281,7.22147],[15.22234,7.22449],[15.21121,7.22395],[15.2139,7.23066],[15.2188,7.23146],[15.2159,7.23384],[15.21946,7.24448],[15.23035,7.24708],[15.23622,7.25394],[15.24293,7.26692],[15.24359,7.27485],[15.25987,7.28066],[15.26152,7.28632],[15.26777,7.28858],[15.28424,7.30704],[15.28828,7.30765],[15.29286,7.31587],[15.29736,7.31457],[15.31553,7.3278],[15.33273,7.34186],[15.33599,7.34915],[15.34769,7.35415],[15.37254,7.37638],[15.3778,7.37717],[15.38736,7.39455],[15.39995,7.39847],[15.41926,7.41383],[15.4231,7.41802],[15.42256,7.42732],[15.43248,7.43309],[15.43602,7.44009],[15.43764,7.45307],[15.45338,7.45605],[15.45549,7.46973],[15.45967,7.47337],[15.45807,7.47785],[15.45576,7.47439],[15.45766,7.4811],[15.47408,7.48918],[15.47641,7.49935],[15.49108,7.51016],[15.48782,7.5172],[15.49355,7.52363],[15.49308,7.52772],[15.54348,7.5111],[15.72008,7.51745],[15.72049,7.5112],[15.71736,7.50993],[15.72998,7.48869],[15.72915,7.48473],[15.73604,7.47677],[15.74617,7.47697],[15.75033,7.46534],[15.75508,7.46489],[15.75615,7.45874],[15.77166,7.46757],[15.78305,7.46157],[15.7924,7.45603],[15.79929,7.44344],[15.80511,7.44775],[15.82325,7.44611],[15.83658,7.45446],[15.87149,7.46025],[15.87671,7.46398],[15.90306,7.46948],[15.9146,7.47563],[15.91703,7.48032],[15.93259,7.48478],[15.96996,7.48707],[15.97309,7.49323],[15.98331,7.49268],[15.98706,7.49969],[16.00498,7.50832],[16.01266,7.51617],[16.01224,7.52332],[16.02081,7.52969],[16.0335,7.53131],[16.035,7.56133],[16.04639,7.57569],[16.05412,7.57539],[16.05653,7.58096],[16.07806,7.58911],[16.08572,7.58815],[16.09221,7.59202],[16.09812,7.59023],[16.10307,7.59438],[16.10461,7.59087],[16.11157,7.59326],[16.11786,7.58864],[16.12154,7.59221],[16.12536,7.58701],[16.13343,7.59579],[16.16011,7.59352],[16.17466,7.61112],[16.18997,7.6181],[16.19842,7.61668],[16.20218,7.61068],[16.20935,7.61179],[16.21846,7.60583],[16.22919,7.60582],[16.23445,7.60987],[16.25004,7.6134],[16.25037,7.62259],[16.25581,7.62679],[16.25815,7.62465],[16.27049,7.62669],[16.27192,7.63088],[16.28693,7.6385],[16.28534,7.64345],[16.29557,7.65414],[16.30775,7.6507],[16.32626,7.66197],[16.33546,7.66363],[16.34185,7.66127],[16.3477,7.66805],[16.35453,7.66431],[16.36357,7.66886],[16.37213,7.66834],[16.37988,7.67503],[16.38569,7.67295],[16.39024,7.68355],[16.39932,7.6824],[16.40242,7.69057],[16.40501,7.69033],[16.40514,7.69674],[16.42458,7.71654],[16.42535,7.7208],[16.41601,7.72335],[16.41221,7.73516],[16.40915,7.73589],[16.4105,7.74254],[16.4168,7.74522],[16.41928,7.75045],[16.40622,7.77344],[16.41957,7.78356],[16.43167,7.81002],[16.4481,7.80375],[16.45216,7.79423],[16.44754,7.78864],[16.45931,7.78646],[16.47485,7.79199],[16.47862,7.7895],[16.48816,7.79642],[16.48668,7.80832],[16.48905,7.81267],[16.50368,7.82207],[16.50357,7.82755],[16.50867,7.83283],[16.50604,7.84612],[16.50798,7.84849],[16.5244,7.84817],[16.53376,7.85379],[16.53662,7.85916],[16.55289,7.85889],[16.55518,7.8622],[16.55145,7.86683],[16.55312,7.87241],[16.56176,7.87091],[16.56918,7.87587],[16.57832,7.87472],[16.58524,7.88298],[16.59193,7.88551],[16.59205,7.88014],[16.58704,7.87347],[16.59108,7.86917],[16.57869,7.85757],[16.58099,7.85316],[16.57858,7.8497],[16.58215,7.83674],[16.58656,7.83249],[16.58139,7.82687],[16.58225,7.81796],[16.58482,7.81758],[16.58723,7.80959],[16.59057,7.80982],[16.59162,7.80379],[16.58629,7.80189],[16.59194,7.78152],[16.59042,7.77258],[16.60568,7.76201],[16.62087,7.76593],[16.62351,7.76257],[16.63754,7.75971],[16.66273,7.73993],[16.66399,7.73517],[16.65604,7.72397],[16.65555,7.71778],[16.65893,7.70998],[16.65931,7.67179],[16.67017,7.6699],[16.67452,7.65965],[16.6824,7.65294],[16.68403,7.64023],[16.70615,7.64135],[16.72274,7.63549],[16.7305,7.63875],[16.74267,7.63301],[16.74865,7.62332],[16.77436,7.60908],[16.79093,7.58706],[16.79058,7.5636],[16.8034,7.55328],[16.80935,7.53676],[16.82693,7.53819],[16.83849,7.5336],[16.8423,7.54199],[16.85106,7.5398],[16.85943,7.54471],[16.86037,7.55749],[16.86649,7.56226],[16.8776,7.56488],[16.88512,7.56318],[16.88627,7.55959],[16.88257,7.55938],[16.882,7.55644],[16.89284,7.55201],[16.90658,7.56474],[16.90147,7.57488],[16.88875,7.57529],[16.88654,7.57909],[16.89536,7.59346],[16.90063,7.59608],[16.90182,7.60298],[16.89218,7.61053],[16.89374,7.62091],[16.91553,7.61019],[16.92257,7.60993],[16.92149,7.62176],[16.92402,7.62647],[16.93622,7.63016],[16.94052,7.63869],[16.95155,7.64508],[16.96276,7.63158],[16.97305,7.63244],[16.97724,7.64228],[16.98472,7.63794],[16.99747,7.64056],[17.00382,7.63613],[17.03538,7.63874],[17.0402,7.642],[17.03518,7.65114],[17.0398,7.65782],[17.05865,7.6532],[17.07239,7.66369],[17.08775,7.66464],[17.07733,7.68865],[17.08247,7.69114],[17.08358,7.6992],[17.09123,7.70109],[17.09628,7.69283],[17.10979,7.69314],[17.12228,7.66585],[17.14492,7.67205],[17.15522,7.6718],[17.15284,7.68149],[17.16403,7.692],[17.15899,7.70319],[17.16298,7.71387],[17.1687,7.7179],[17.17709,7.71367],[17.18301,7.72201],[17.20179,7.72209],[17.20548,7.73118],[17.21341,7.73421],[17.20738,7.74701],[17.22001,7.75801],[17.22037,7.7679],[17.22358,7.77094],[17.23279,7.76818],[17.23749,7.7531],[17.25056,7.74923],[17.25565,7.75165],[17.26167,7.7669],[17.25608,7.78806],[17.2648,7.78903],[17.26797,7.79716],[17.27476,7.79597],[17.27696,7.81018],[17.29379,7.81063],[17.29729,7.83099],[17.30475,7.83159],[17.32393,7.82531],[17.3332,7.83044],[17.33436,7.84175],[17.33826,7.84567],[17.34892,7.84337],[17.36099,7.85575],[17.37499,7.84776],[17.38201,7.85053],[17.38499,7.85935],[17.39772,7.84691],[17.40099,7.84839],[17.40106,7.87277],[17.4172,7.86433],[17.42004,7.86851],[17.41368,7.87037],[17.4136,7.87627],[17.42161,7.88244],[17.43085,7.88379],[17.42863,7.87228],[17.44198,7.87208],[17.44668,7.88176],[17.44072,7.88674],[17.4423,7.8909],[17.45491,7.8881],[17.4622,7.90175],[17.47255,7.89962],[17.47989,7.89039],[17.49474,7.88321],[17.50265,7.87219],[17.51,7.87186],[17.51872,7.88335],[17.52081,7.89507],[17.53509,7.89077],[17.53226,7.90529],[17.53683,7.91468],[17.53385,7.9241],[17.54949,7.93092],[17.56228,7.92217],[17.56333,7.91453],[17.57136,7.91647],[17.57842,7.92983],[17.58895,7.93725],[17.59936,7.9364],[17.60633,7.92898],[17.61389,7.93243],[17.628,7.94686],[17.63772,7.94782],[17.64319,7.94448],[17.65625,7.96126],[17.65222,7.97588],[17.66092,7.98488],[17.68401,7.9834],[17.69687,7.97097],[17.71407,7.98275],[17.72499,7.97889],[17.9272,7.9547],[18.03333,8.01528],[18.58706,8.04598],[18.60011,8.05399],[18.60767,8.05328],[18.61954,8.05918],[18.62278,8.07438],[18.63326,8.07998],[18.63532,8.1091],[18.63213,8.11773],[18.63394,8.12455],[18.6313,8.14201],[18.64123,8.16347],[18.65563,8.18134],[18.65702,8.19016],[18.67389,8.21333],[18.67862,8.21181],[18.69169,8.22397],[18.71048,8.22897],[18.73356,8.24015],[18.7491,8.24169],[18.78668,8.25422],[18.7885,8.25746],[18.80242,8.2624],[18.81021,8.27408],[18.83351,8.28986],[18.83525,8.29756],[18.84317,8.30537],[18.84279,8.31271],[18.85191,8.32452],[18.84938,8.34555],[18.85284,8.34855],[18.85907,8.34634],[18.85952,8.34253],[18.87049,8.34287],[18.87164,8.34504],[18.86751,8.34704],[18.87234,8.35053],[18.87176,8.35775],[18.88235,8.35871],[18.88256,8.36424],[18.88777,8.36568],[18.89256,8.36232],[18.89694,8.37286],[18.90206,8.37275],[18.90077,8.37729],[18.90603,8.37851],[18.9049,8.38693],[18.91053,8.38831],[18.9116,8.38458],[18.91413,8.38838],[18.91886,8.38724],[18.92179,8.39335],[18.91933,8.39727],[18.92469,8.39889],[18.92382,8.40253],[18.91571,8.4049],[18.91539,8.40843],[18.92273,8.41344],[18.91786,8.42045],[18.92115,8.42584],[18.92929,8.42584],[18.9296,8.43762],[18.93495,8.43764],[18.93571,8.4479],[18.94103,8.44878],[18.94141,8.45207],[18.94595,8.45153],[18.94863,8.45863],[18.9542,8.45769],[18.95636,8.46648],[18.96251,8.46265],[18.96538,8.46443],[18.96298,8.46825],[18.96596,8.46979],[18.96624,8.46686],[18.96979,8.46682],[18.96973,8.47683],[18.9733,8.47965],[18.97006,8.48449],[18.97685,8.48359],[18.97689,8.49025],[18.97908,8.49134],[18.9835,8.48657],[18.98381,8.49311],[18.98701,8.49134],[18.99157,8.49373],[18.989,8.50237],[18.99471,8.50483],[18.98499,8.50919],[18.99313,8.52201],[18.99637,8.51994],[18.99506,8.51498],[18.99959,8.514],[19.00055,8.51774],[19.01043,8.51651],[19.01079,8.52237],[19.02105,8.51924],[19.01926,8.52184],[19.02597,8.522],[19.02799,8.52854],[19.03522,8.52963],[19.0349,8.53393],[19.03936,8.53561],[19.03124,8.54183],[19.03382,8.5438],[19.03596,8.54097],[19.04334,8.55392],[19.04183,8.56413],[19.047,8.57492]]]]}}]}