{"type":"FeatureCollection","features":[{"type":"Feature","properties":{"ISO_A3":"CIV","WB_A3":"CIV","WB_NAME":"Côte d'Ivoire","WB_REGION":"AFW,SSF"},"geometry":{"type":"MultiPolygon","coordinates":[[[[-6.93682,10.35525],[-6.93248,10.3566],[-6.92123,10.35148],[-6.92,10.35524],[-6.91588,10.35559],[-6.90111,10.34425],[-6.89204,10.34996],[-6.87936,10.3503],[-6.87455,10.3438],[-6.86065,10.34337],[-6.85771,10.34464],[-6.86024,10.34702],[-6.85844,10.34838],[-6.85479,10.34514],[-6.85012,10.35267],[-6.84187,10.35656],[-6.83652,10.35526],[-6.83586,10.3604],[-6.82373,10.36432],[-6.81861,10.3766],[-6.80742,10.38546],[-6.79718,10.38234],[-6.78984,10.36976],[-6.73699,10.35726],[-6.73257,10.35857],[-6.71428,10.34275],[-6.6816,10.33748],[-6.65992,10.35986],[-6.6437,10.36407],[-6.64817,10.37093],[-6.65026,10.38572],[-6.64313,10.38562],[-6.65462,10.39829],[-6.63979,10.40607],[-6.62955,10.42302],[-6.62619,10.43642],[-6.62771,10.44067],[-6.64272,10.44258],[-6.63874,10.4512],[-6.64045,10.45347],[-6.65799,10.4546],[-6.66823,10.46745],[-6.6759,10.46683],[-6.66996,10.48428],[-6.68147,10.48792],[-6.67812,10.49389],[-6.68032,10.49932],[-6.67262,10.50742],[-6.68082,10.51843],[-6.68236,10.52704],[-6.67657,10.53668],[-6.66905,10.53226],[-6.65943,10.53536],[-6.6678,10.5463],[-6.66852,10.55307],[-6.66492,10.5571],[-6.66935,10.56923],[-6.66163,10.58978],[-6.6758,10.59921],[-6.67226,10.61116],[-6.66631,10.61503],[-6.66975,10.6211],[-6.66792,10.62694],[-6.65418,10.63351],[-6.64399,10.63431],[-6.64407,10.64045],[-6.65493,10.6406],[-6.65482,10.64506],[-6.65041,10.65831],[-6.63934,10.66631],[-6.64201,10.67236],[-6.6159,10.67115],[-6.6072,10.6561],[-6.60601,10.63845],[-6.60031,10.6357],[-6.59623,10.62768],[-6.58878,10.62209],[-6.56638,10.62093],[-6.54555,10.60565],[-6.53921,10.59129],[-6.51029,10.58163],[-6.50602,10.5776],[-6.47512,10.57731],[-6.44736,10.57235],[-6.42719,10.56132],[-6.41921,10.57685],[-6.39768,10.59753],[-6.39592,10.60305],[-6.41052,10.64893],[-6.41609,10.6986],[-6.39241,10.70814],[-6.34297,10.68778],[-6.33643,10.68887],[-6.31823,10.68313],[-6.24683,10.74081],[-6.2219,10.72862],[-6.21138,10.72664],[-6.21602,10.71536],[-6.22862,10.70304],[-6.22446,10.68399],[-6.23036,10.67749],[-6.23299,10.66841],[-6.23095,10.6591],[-6.21442,10.65852],[-6.21133,10.65042],[-6.1955,10.64012],[-6.18511,10.64109],[-6.18321,10.63407],[-6.1931,10.62628],[-6.21625,10.62444],[-6.22285,10.61635],[-6.22022,10.60079],[-6.20568,10.60223],[-6.21335,10.58506],[-6.20585,10.58797],[-6.20634,10.577],[-6.22151,10.55458],[-6.23607,10.55031],[-6.24196,10.54482],[-6.24786,10.53023],[-6.24418,10.52104],[-6.23267,10.51672],[-6.21941,10.52791],[-6.21502,10.52727],[-6.20068,10.51453],[-6.20361,10.50507],[-6.2009,10.50159],[-6.19331,10.49762],[-6.18088,10.501],[-6.17276,10.49906],[-6.16175,10.49014],[-6.16054,10.48554],[-6.17031,10.48282],[-6.18487,10.47027],[-6.18618,10.4587],[-6.18522,10.44786],[-6.18091,10.44008],[-6.16014,10.42868],[-6.15582,10.41771],[-6.1615,10.4086],[-6.1714,10.41421],[-6.18003,10.4127],[-6.18126,10.39747],[-6.18753,10.3875],[-6.18034,10.37697],[-6.15977,10.36548],[-6.17079,10.36306],[-6.17653,10.3552],[-6.18435,10.35158],[-6.19241,10.33994],[-6.19075,10.33283],[-6.17758,10.32038],[-6.18325,10.31771],[-6.18603,10.30593],[-6.18967,10.30242],[-6.19392,10.30362],[-6.19602,10.31272],[-6.20651,10.31647],[-6.21744,10.31315],[-6.23307,10.3015],[-6.21621,10.28635],[-6.21549,10.2686],[-6.21793,10.2638],[-6.20359,10.25815],[-6.19171,10.25934],[-6.18854,10.2551],[-6.19599,10.23999],[-6.17821,10.22486],[-6.15885,10.21981],[-6.13057,10.20504],[-6.10612,10.20332],[-6.09678,10.20708],[-6.06561,10.20196],[-6.05513,10.2041],[-6.03337,10.19368],[-5.98437,10.19651],[-5.98437,10.20683],[-5.95877,10.2373],[-5.95461,10.26102],[-5.95651,10.27234],[-5.92488,10.27694],[-5.90212,10.26157],[-5.88757,10.26346],[-5.88057,10.28063],[-5.89184,10.299],[-5.88732,10.3068],[-5.87285,10.31552],[-5.87579,10.33344],[-5.87208,10.34169],[-5.87358,10.35572],[-5.86983,10.35962],[-5.87178,10.36795],[-5.86671,10.37801],[-5.85317,10.37426],[-5.84264,10.3783],[-5.83636,10.38659],[-5.82381,10.39251],[-5.81864,10.40571],[-5.80754,10.41879],[-5.7845,10.43485],[-5.76601,10.43972],[-5.7527,10.42942],[-5.70229,10.43182],[-5.67496,10.4501],[-5.66933,10.46176],[-5.66284,10.46428],[-5.6478,10.45573],[-5.63484,10.45915],[-5.61632,10.4507],[-5.59906,10.45607],[-5.59472,10.45337],[-5.57479,10.45513],[-5.56007,10.46343],[-5.5544,10.46068],[-5.54745,10.45097],[-5.54261,10.45052],[-5.51791,10.43171],[-5.50633,10.42796],[-5.50975,10.4244],[-5.49944,10.42268],[-5.49984,10.41077],[-5.48838,10.40522],[-5.48389,10.38386],[-5.4804,10.38301],[-5.48326,10.37888],[-5.47518,10.37316],[-5.46605,10.37612],[-5.45867,10.35532],[-5.45944,10.35101],[-5.46473,10.35211],[-5.45299,10.34037],[-5.44101,10.3409],[-5.43618,10.33344],[-5.43766,10.32199],[-5.43337,10.31818],[-5.42237,10.32303],[-5.41679,10.31869],[-5.41647,10.30641],[-5.40774,10.30416],[-5.40309,10.29609],[-5.39504,10.29716],[-5.38399,10.28981],[-5.37661,10.29595],[-5.37264,10.29438],[-5.36858,10.28441],[-5.36287,10.28247],[-5.35514,10.28803],[-5.35214,10.30281],[-5.34928,10.30492],[-5.32265,10.29045],[-5.31107,10.30166],[-5.30594,10.30049],[-5.29978,10.30639],[-5.29429,10.30352],[-5.29136,10.30711],[-5.29214,10.3131],[-5.29895,10.31503],[-5.28952,10.32033],[-5.28441,10.31908],[-5.28043,10.31085],[-5.27004,10.30783],[-5.27113,10.3121],[-5.26408,10.31398],[-5.25684,10.30544],[-5.24758,10.31238],[-5.22739,10.31478],[-5.22219,10.31443],[-5.21122,10.3065],[-5.19792,10.32144],[-5.19413,10.31906],[-5.19909,10.3116],[-5.19845,10.30739],[-5.18163,10.298],[-5.18178,10.29466],[-5.18503,10.29428],[-5.18693,10.29983],[-5.19145,10.29352],[-5.18889,10.28793],[-5.17638,10.29373],[-5.17281,10.29355],[-5.16951,10.28777],[-5.15594,10.28638],[-5.14871,10.28933],[-5.13652,10.30258],[-5.13189,10.30322],[-5.1299,10.31074],[-5.12212,10.30091],[-5.11244,10.30782],[-5.11003,10.30601],[-5.11216,10.29863],[-5.12043,10.28306],[-5.10457,10.27889],[-5.09814,10.27207],[-5.10617,10.26399],[-5.11895,10.25781],[-5.11933,10.24535],[-5.10556,10.23747],[-5.11528,10.22547],[-5.12187,10.20442],[-5.11781,10.20344],[-5.09805,10.21201],[-5.09031,10.21746],[-5.08735,10.22452],[-5.08197,10.22257],[-5.07854,10.21066],[-5.08115,10.19299],[-5.08879,10.1828],[-5.09698,10.18263],[-5.10473,10.17613],[-5.09496,10.17292],[-5.06886,10.18224],[-5.06062,10.18081],[-5.06472,10.17132],[-5.06379,10.16332],[-5.06904,10.15396],[-5.06965,10.13901],[-5.05847,10.13377],[-5.0426,10.13381],[-5.03668,10.1215],[-5.04887,10.11762],[-5.05533,10.12561],[-5.06228,10.122],[-5.07015,10.12327],[-5.0735,10.1126],[-5.06866,10.1062],[-5.06039,10.10782],[-5.04693,10.10428],[-5.04142,10.10872],[-5.03812,10.10787],[-5.04027,10.10109],[-5.05515,10.08937],[-5.05564,10.08341],[-5.0522,10.08297],[-5.04577,10.08693],[-5.03661,10.08189],[-5.02425,10.09788],[-5.00792,10.1017],[-4.99926,10.10723],[-5.00324,10.08912],[-5.01377,10.07876],[-5.01514,10.0726],[-5.00525,10.06331],[-4.99053,10.06324],[-4.98689,10.059],[-4.98737,10.05241],[-4.97315,10.04818],[-4.96986,10.03359],[-4.96223,10.02591],[-4.96367,10.01862],[-4.96007,10.00942],[-4.96372,10.00637],[-4.97536,10.00793],[-4.98435,10.01366],[-4.98614,10.01003],[-4.9819,10.00693],[-4.98692,9.9887],[-4.97895,9.97944],[-4.9603,9.97601],[-4.96014,9.96662],[-4.94074,9.95473],[-4.94727,9.9462],[-4.96244,9.9475],[-4.96401,9.94498],[-4.95767,9.93086],[-4.95687,9.92088],[-4.96896,9.91393],[-4.97005,9.8989],[-4.96652,9.89182],[-4.95479,9.88325],[-4.94359,9.88099],[-4.93089,9.86885],[-4.92708,9.87156],[-4.93094,9.87863],[-4.92827,9.88401],[-4.91062,9.8912],[-4.89881,9.88589],[-4.89757,9.87668],[-4.88636,9.8818],[-4.87514,9.87627],[-4.87397,9.87006],[-4.87153,9.87453],[-4.86525,9.87484],[-4.8511,9.86865],[-4.8397,9.8721],[-4.82515,9.86576],[-4.82693,9.85329],[-4.82439,9.8478],[-4.81505,9.84232],[-4.79897,9.84451],[-4.79686,9.83963],[-4.78612,9.83573],[-4.78234,9.83093],[-4.79075,9.81944],[-4.79201,9.80188],[-4.79078,9.79426],[-4.78361,9.78812],[-4.78383,9.78149],[-4.81377,9.78816],[-4.81658,9.78345],[-4.80491,9.77067],[-4.79675,9.77308],[-4.79244,9.76791],[-4.7929,9.75877],[-4.77885,9.75233],[-4.78094,9.74228],[-4.77498,9.7368],[-4.76595,9.73886],[-4.76385,9.74479],[-4.76919,9.74933],[-4.762,9.7555],[-4.7464,9.75405],[-4.73322,9.74704],[-4.73458,9.739],[-4.72097,9.72886],[-4.72087,9.72093],[-4.70607,9.69141],[-4.69141,9.68419],[-4.69157,9.68002],[-4.68771,9.67747],[-4.66072,9.68875],[-4.65655,9.68686],[-4.65173,9.69793],[-4.65073,9.71026],[-4.6439,9.71347],[-4.63535,9.70597],[-4.62064,9.70302],[-4.6125,9.72514],[-4.59204,9.71186],[-4.58275,9.69446],[-4.57732,9.69118],[-4.56085,9.69378],[-4.54289,9.71895],[-4.55387,9.74152],[-4.54611,9.74924],[-4.53333,9.75254],[-4.51541,9.75144],[-4.50335,9.7393],[-4.50277,9.72601],[-4.51957,9.70496],[-4.52095,9.67574],[-4.51721,9.66383],[-4.5048,9.64656],[-4.48446,9.65289],[-4.47606,9.6502],[-4.45645,9.65238],[-4.4294,9.66411],[-4.41498,9.65439],[-4.40873,9.64449],[-4.40893,9.62261],[-4.40035,9.60352],[-4.38966,9.59599],[-4.37403,9.59192],[-4.36883,9.59813],[-4.36992,9.61742],[-4.36085,9.62311],[-4.34096,9.62542],[-4.32677,9.60569],[-4.31276,9.59686],[-4.30891,9.59908],[-4.31163,9.60122],[-4.30902,9.60481],[-4.30387,9.60461],[-4.30149,9.60808],[-4.30004,9.61577],[-4.29397,9.61802],[-4.29063,9.62316],[-4.2914,9.6301],[-4.28355,9.64099],[-4.28771,9.65415],[-4.28165,9.66071],[-4.28687,9.67263],[-4.27476,9.67772],[-4.27375,9.68227],[-4.27494,9.68681],[-4.28062,9.68819],[-4.28088,9.69616],[-4.27177,9.69352],[-4.2702,9.69824],[-4.27405,9.70734],[-4.26729,9.70917],[-4.26549,9.7152],[-4.26988,9.7297],[-4.25886,9.73283],[-4.25769,9.7371],[-4.27234,9.73567],[-4.27672,9.74066],[-4.26861,9.74963],[-4.26625,9.7603],[-4.26205,9.75982],[-4.26188,9.75578],[-4.25535,9.7565],[-4.24755,9.76474],[-4.22517,9.7681],[-4.22285,9.77208],[-4.21609,9.76925],[-4.21173,9.77337],[-4.20367,9.77144],[-4.18907,9.7748],[-4.18428,9.7834],[-4.1776,9.78688],[-4.17522,9.7948],[-4.16139,9.81341],[-4.15359,9.81508],[-4.13862,9.82577],[-4.13449,9.83827],[-4.12733,9.84717],[-4.12139,9.84621],[-4.10594,9.82443],[-4.07427,9.80921],[-4.05835,9.80837],[-4.05137,9.80311],[-4.03551,9.82222],[-4.0344,9.83153],[-4.02759,9.8355],[-4.01795,9.839],[-3.98511,9.82939],[-3.97239,9.83366],[-3.96593,9.84117],[-3.97172,9.84276],[-3.97565,9.84946],[-3.97151,9.85134],[-3.96773,9.87509],[-3.9623,9.87475],[-3.95636,9.87922],[-3.95319,9.87438],[-3.94162,9.87692],[-3.93109,9.87405],[-3.92467,9.88169],[-3.91219,9.88299],[-3.89592,9.90573],[-3.84743,9.90374],[-3.83458,9.89945],[-3.83011,9.90256],[-3.81117,9.90181],[-3.80326,9.89476],[-3.78135,9.924],[-3.77589,9.92688],[-3.71429,9.93599],[-3.66767,9.92841],[-3.64723,9.94108],[-3.64262,9.95302],[-3.63775,9.95625],[-3.61829,9.95848],[-3.5992,9.93456],[-3.57116,9.94008],[-3.53946,9.93786],[-3.52411,9.93124],[-3.47292,9.93588],[-3.45396,9.92979],[-3.44655,9.93051],[-3.42975,9.91774],[-3.42363,9.92553],[-3.41386,9.92957],[-3.37762,9.92322],[-3.35986,9.90475],[-3.34748,9.90153],[-3.31468,9.91169],[-3.30954,9.91023],[-3.31764,9.87057],[-3.28609,9.85872],[-3.27692,9.84885],[-3.27045,9.84639],[-3.26246,9.86501],[-3.25157,9.86995],[-3.23955,9.88485],[-3.23574,9.89684],[-3.22395,9.89703],[-3.21486,9.90196],[-3.19762,9.93289],[-3.18921,9.9355],[-3.19332,9.88658],[-3.18502,9.83891],[-3.17779,9.8335],[-3.16036,9.84387],[-3.15383,9.85139],[-3.13176,9.84284],[-3.10345,9.82048],[-3.09184,9.80995],[-3.09517,9.7904],[-3.09003,9.7648],[-3.05671,9.72549],[-3.00544,9.74305],[-2.96865,9.65031],[-2.94474,9.61804],[-2.94298,9.59849],[-2.9346,9.58264],[-2.93531,9.57576],[-2.82387,9.45125],[-2.8154,9.45],[-2.78302,9.41863],[-2.77322,9.41659],[-2.76785,9.4105],[-2.75811,9.41151],[-2.75201,9.42472],[-2.73295,9.44011],[-2.72821,9.44912],[-2.72483,9.44968],[-2.6872,9.49167],[-2.68391,9.48626],[-2.68987,9.45514],[-2.68881,9.43398],[-2.67634,9.4039],[-2.6738,9.38314],[-2.68067,9.36228],[-2.7036,9.33956],[-2.71953,9.33503],[-2.72115,9.31312],[-2.71738,9.29908],[-2.70938,9.28988],[-2.69149,9.28435],[-2.68571,9.28755],[-2.67034,9.27436],[-2.65907,9.26031],[-2.6571,9.25344],[-2.66586,9.23888],[-2.69366,9.22568],[-2.69542,9.22039],[-2.7149,9.2058],[-2.72082,9.18154],[-2.73341,9.16009],[-2.74741,9.15235],[-2.76445,9.15021],[-2.77369,9.14154],[-2.77239,9.13351],[-2.76622,9.12459],[-2.76073,9.09331],[-2.76531,9.08113],[-2.78018,9.06291],[-2.77369,9.0483],[-2.76438,9.04055],[-2.76548,9.03607],[-2.72919,9.02939],[-2.72373,9.03281],[-2.692,9.02408],[-2.67676,9.02438],[-2.662,9.01722],[-2.65468,9.00692],[-2.65841,8.98463],[-2.6515,8.9438],[-2.64327,8.93429],[-2.61896,8.92275],[-2.61663,8.91099],[-2.62336,8.87889],[-2.60893,8.84926],[-2.5984,8.83557],[-2.59753,8.82511],[-2.62272,8.80805],[-2.63016,8.79429],[-2.61243,8.78205],[-2.60329,8.78738],[-2.58435,8.7865],[-2.49619,8.30204],[-2.49303,8.20648],[-2.55141,8.14564],[-2.5566,8.14692],[-2.56001,8.14339],[-2.56532,8.14949],[-2.57599,8.1447],[-2.5897,8.15194],[-2.60858,8.15161],[-2.61426,8.13744],[-2.62682,8.12379],[-2.62926,8.11587],[-2.62619,8.10194],[-2.59775,8.05728],[-2.60468,8.03043],[-2.61987,8.02286],[-2.62779,8.02957],[-2.67962,8.02039],[-2.70674,7.98216],[-2.73083,7.9582],[-2.74678,7.92271],[-2.75761,7.92849],[-2.76836,7.94892],[-2.78142,7.95218],[-2.7912,7.86263],[-2.79465,7.85598],[-2.81734,7.83704],[-2.83105,7.82001],[-2.82673,7.80553],[-2.84803,7.7839],[-2.84917,7.76337],[-2.86,7.74918],[-2.9119,7.62966],[-2.92215,7.61221],[-2.93084,7.49471],[-2.94565,7.45224],[-2.94748,7.43122],[-2.96993,7.33174],[-2.9753,7.26992],[-2.9528,7.23772],[-3.02382,7.14177],[-3.03189,7.07181],[-3.04826,7.06942],[-3.0876,7.05271],[-3.23227,6.82032],[-3.22949,6.80915],[-3.23191,6.78123],[-3.23552,6.77633],[-3.21214,6.7547],[-3.21738,6.74653],[-3.20925,6.73358],[-3.20992,6.72793],[-3.21575,6.72633],[-3.2168,6.71484],[-3.22164,6.70572],[-3.23106,6.7004],[-3.22838,6.68946],[-3.23254,6.68642],[-3.23089,6.6811],[-3.23589,6.67454],[-3.23461,6.66773],[-3.24363,6.66543],[-3.24674,6.66085],[-3.25488,6.64594],[-3.26074,6.62396],[-3.26009,6.61713],[-3.24453,6.60543],[-3.23327,6.60111],[-3.2362,6.54139],[-3.18196,6.32985],[-3.17406,6.31293],[-3.16991,6.28297],[-3.17569,6.25282],[-3.17372,6.2506],[-3.15451,6.25152],[-3.10274,6.15313],[-3.07381,5.985],[-3.02003,5.85688],[-3.02676,5.70917],[-2.95397,5.71602],[-2.96646,5.64087],[-2.95954,5.63678],[-2.9485,5.63757],[-2.9338,5.62003],[-2.9274,5.61932],[-2.91994,5.62793],[-2.90562,5.62907],[-2.90203,5.63211],[-2.89872,5.63024],[-2.88383,5.63658],[-2.88334,5.64022],[-2.87863,5.63956],[-2.87553,5.64396],[-2.87177,5.64383],[-2.85775,5.65706],[-2.85581,5.65399],[-2.8589,5.6501],[-2.83648,5.63997],[-2.82221,5.62639],[-2.81646,5.6259],[-2.81379,5.62905],[-2.80876,5.62718],[-2.80339,5.61931],[-2.79453,5.62247],[-2.79111,5.62753],[-2.78994,5.62328],[-2.78619,5.62501],[-2.78942,5.61696],[-2.78452,5.61395],[-2.77528,5.61547],[-2.77887,5.60678],[-2.77458,5.60305],[-2.7658,5.60332],[-2.76074,5.59774],[-2.76778,5.55526],[-2.75677,5.48349],[-2.74847,5.43661],[-2.72435,5.384],[-2.72415,5.34281],[-2.72661,5.34093],[-2.7384,5.34746],[-2.75705,5.34428],[-2.76499,5.35669],[-2.76973,5.35594],[-2.77023,5.35176],[-2.77609,5.34786],[-2.77625,5.34188],[-2.77084,5.33559],[-2.77487,5.33611],[-2.7778,5.33143],[-2.77193,5.32874],[-2.76618,5.31725],[-2.76679,5.30516],[-2.77,5.29424],[-2.78163,5.29477],[-2.78589,5.28682],[-2.78095,5.27661],[-2.76965,5.26862],[-2.77927,5.2641],[-2.77561,5.26485],[-2.77231,5.25846],[-2.76542,5.25915],[-2.76474,5.2551],[-2.75473,5.25331],[-2.75317,5.24888],[-2.76076,5.25018],[-2.75544,5.24173],[-2.76224,5.24574],[-2.76557,5.23767],[-2.76463,5.23519],[-2.75947,5.23559],[-2.76107,5.22947],[-2.7568,5.21828],[-2.76368,5.21833],[-2.76341,5.21366],[-2.75702,5.20042],[-2.74799,5.20195],[-2.74938,5.19416],[-2.74111,5.1749],[-2.74572,5.16683],[-2.73656,5.16091],[-2.74134,5.15764],[-2.73924,5.15065],[-2.73442,5.14861],[-2.73252,5.15196],[-2.73026,5.15065],[-2.72723,5.1401],[-2.72359,5.14069],[-2.72794,5.13609],[-2.72739,5.13205],[-2.73124,5.13475],[-2.73143,5.12981],[-2.7378,5.12871],[-2.73992,5.12007],[-2.73761,5.11932],[-2.74221,5.11374],[-2.75451,5.11674],[-2.7577,5.10085],[-2.76534,5.10455],[-2.76556,5.10894],[-2.78002,5.1122],[-2.78599,5.10952],[-2.78675,5.11692],[-2.79062,5.10664],[-2.80085,5.10713],[-2.80554,5.11128],[-2.80772,5.10632],[-2.81223,5.10654],[-2.81452,5.11328],[-2.81684,5.11169],[-2.81482,5.10632],[-2.81804,5.10554],[-2.83144,5.1214],[-2.8348,5.12154],[-2.84024,5.11245],[-2.83816,5.10973],[-2.84287,5.10768],[-2.85274,5.11102],[-2.86346,5.12311],[-2.868,5.12237],[-2.87713,5.12775],[-2.88334,5.12405],[-2.88996,5.12697],[-2.89108,5.11967],[-2.89604,5.12259],[-2.92899,5.12134],[-2.9364,5.12621],[-2.94123,5.12535],[-2.93915,5.13079],[-2.92398,5.12872],[-2.86586,5.14779],[-2.85506,5.14882],[-2.85493,5.1688],[-2.86534,5.18453],[-2.87048,5.18647],[-2.8836,5.1857],[-2.88758,5.18067],[-2.90751,5.1741],[-2.94172,5.17062],[-2.94159,5.17887],[-2.95689,5.20053],[-2.96036,5.20027],[-2.95972,5.19666],[-2.94609,5.16985],[-2.93477,5.15902],[-2.93362,5.15128],[-2.93735,5.14174],[-2.94609,5.14136],[-2.95432,5.13659],[-2.95972,5.12267],[-2.96975,5.11571],[-2.98492,5.12241],[-2.99598,5.13195],[-3.00652,5.12615],[-3.01629,5.13362],[-3.02606,5.13427],[-3.02735,5.14046],[-3.03506,5.13259],[-3.03931,5.1335],[-3.04201,5.13762],[-3.05075,5.14007],[-3.05924,5.15025],[-3.05949,5.14767],[-3.06978,5.14651],[-3.0829,5.14896],[-3.08778,5.14548],[-3.10784,5.14522],[-3.11041,5.14612],[-3.10604,5.14973],[-3.11144,5.15076],[-3.13073,5.14689],[-3.13252,5.14418],[-3.14384,5.14843],[-3.14847,5.1639],[-3.15259,5.16403],[-3.15645,5.17035],[-3.15632,5.18195],[-3.16442,5.18298],[-3.16237,5.19097],[-3.16442,5.19342],[-3.16738,5.19252],[-3.16738,5.18169],[-3.16082,5.17395],[-3.16622,5.17357],[-3.17599,5.1773],[-3.18088,5.18452],[-3.19811,5.19702],[-3.21097,5.20075],[-3.21715,5.2121],[-3.20532,5.22319],[-3.20777,5.23659],[-3.19607,5.24098],[-3.19157,5.24897],[-3.18244,5.25284],[-3.17769,5.28275],[-3.16908,5.30802],[-3.13115,5.33356],[-3.13192,5.34438],[-3.14157,5.35753],[-3.17348,5.37338],[-3.18119,5.36165],[-3.19816,5.34901],[-3.21772,5.35777],[-3.24498,5.36098],[-3.25039,5.35995],[-3.25527,5.34899],[-3.26941,5.34279],[-3.2667,5.32036],[-3.25821,5.3049],[-3.27505,5.28762],[-3.28303,5.29612],[-3.28637,5.29431],[-3.28842,5.28684],[-3.29498,5.28168],[-3.28931,5.26673],[-3.29625,5.2546],[-3.29149,5.24494],[-3.283,5.24198],[-3.26088,5.24263],[-3.25831,5.24611],[-3.24982,5.2438],[-3.2578,5.24147],[-3.26191,5.23515],[-3.27503,5.23579],[-3.27785,5.22754],[-3.28633,5.21929],[-3.2871,5.2131],[-3.29508,5.21361],[-3.29469,5.21052],[-3.29996,5.20871],[-3.29275,5.20072],[-3.29661,5.19763],[-3.32156,5.19929],[-3.3231,5.20754],[-3.32902,5.20509],[-3.3267,5.19168],[-3.33133,5.19232],[-3.33635,5.20096],[-3.33982,5.20147],[-3.33891,5.19374],[-3.35216,5.19076],[-3.34778,5.18703],[-3.33389,5.1851],[-3.33183,5.18149],[-3.31949,5.18756],[-3.31833,5.18189],[-3.32386,5.17699],[-3.32386,5.1708],[-3.31177,5.16603],[-3.30276,5.15469],[-3.28502,5.15548],[-3.28077,5.1489],[-3.28629,5.1275],[-3.49152,5.16205],[-3.5841,5.17048],[-3.71243,5.18891],[-3.80503,5.20762],[-3.88736,5.23626],[-3.95475,5.24724],[-3.97765,5.25481],[-4.00207,5.25129],[-4.01958,5.2657],[-4.01881,5.26815],[-4.0111,5.26868],[-4.01331,5.28298],[-4.0101,5.28531],[-4.01293,5.28659],[-4.00985,5.29149],[-4.02684,5.30384],[-4.02325,5.30823],[-4.00346,5.31496],[-4.00216,5.30929],[-3.99582,5.30733],[-3.99845,5.316],[-3.99369,5.31898],[-3.98905,5.31202],[-3.97889,5.31062],[-3.97042,5.31682],[-3.96591,5.31257],[-3.9618,5.31464],[-3.95691,5.31233],[-3.95162,5.30654],[-3.95279,5.31466],[-3.94225,5.31609],[-3.9398,5.313],[-3.94147,5.30862],[-3.93479,5.31185],[-3.93144,5.3116],[-3.93118,5.30825],[-3.94467,5.2983],[-3.94363,5.29418],[-3.94966,5.28102],[-3.96688,5.27867],[-3.95941,5.26941],[-3.93781,5.26879],[-3.93884,5.2715],[-3.95607,5.27121],[-3.95685,5.27534],[-3.94528,5.27677],[-3.94194,5.28193],[-3.93654,5.28117],[-3.93409,5.27615],[-3.92638,5.27693],[-3.92652,5.28466],[-3.93437,5.29316],[-3.92679,5.29665],[-3.91303,5.29268],[-3.91443,5.28855],[-3.91263,5.28469],[-3.90504,5.28186],[-3.90438,5.27335],[-3.88998,5.27221],[-3.89899,5.27581],[-3.90041,5.28006],[-3.8779,5.27893],[-3.881,5.28705],[-3.88408,5.28318],[-3.88589,5.2873],[-3.89643,5.2869],[-3.90492,5.28882],[-3.90544,5.2914],[-3.91212,5.28881],[-3.91264,5.29422],[-3.89594,5.30082],[-3.8877,5.29903],[-3.88154,5.30265],[-3.87073,5.30202],[-3.86687,5.29571],[-3.87844,5.29595],[-3.86532,5.29249],[-3.87303,5.29222],[-3.87033,5.29042],[-3.86223,5.29339],[-3.8549,5.28838],[-3.86325,5.28566],[-3.86568,5.27779],[-3.86286,5.27728],[-3.86171,5.2836],[-3.85926,5.2827],[-3.85194,5.28941],[-3.84487,5.28916],[-3.84897,5.27859],[-3.85449,5.27446],[-3.8496,5.27279],[-3.84717,5.28117],[-3.83908,5.28788],[-3.83419,5.28338],[-3.83675,5.27409],[-3.83122,5.27784],[-3.83149,5.28557],[-3.81876,5.28224],[-3.82042,5.2745],[-3.80808,5.28303],[-3.79972,5.28123],[-3.79637,5.27453],[-3.80228,5.27375],[-3.80227,5.26602],[-3.79688,5.26706],[-3.79508,5.27093],[-3.78865,5.26784],[-3.78658,5.26191],[-3.7817,5.26179],[-3.78119,5.26592],[-3.77398,5.26412],[-3.76959,5.24879],[-3.74335,5.24031],[-3.74489,5.23722],[-3.74103,5.23774],[-3.73743,5.23155],[-3.71916,5.22809],[-3.72128,5.22013],[-3.71838,5.21881],[-3.71518,5.22977],[-3.72304,5.24626],[-3.72922,5.25038],[-3.72537,5.25735],[-3.72757,5.27359],[-3.71164,5.28701],[-3.7114,5.30248],[-3.7352,5.30941],[-3.74164,5.3143],[-3.74165,5.32668],[-3.7481,5.33827],[-3.76662,5.34057],[-3.75648,5.35579],[-3.76189,5.36764],[-3.77798,5.37536],[-3.7862,5.36968],[-3.80062,5.38048],[-3.81169,5.38318],[-3.81837,5.37891],[-3.8127,5.3726],[-3.79855,5.36618],[-3.80067,5.36323],[-3.81714,5.36877],[-3.80137,5.36179],[-3.79561,5.36253],[-3.79288,5.35781],[-3.78619,5.35588],[-3.77099,5.33721],[-3.75722,5.33181],[-3.75256,5.30965],[-3.72696,5.29885],[-3.72412,5.28777],[-3.73825,5.27564],[-3.75291,5.27472],[-3.76963,5.28191],[-3.78532,5.277],[-3.78918,5.27944],[-3.78584,5.28589],[-3.79099,5.2931],[-3.79999,5.29219],[-3.81157,5.29565],[-3.81454,5.30081],[-3.81391,5.31138],[-3.81802,5.31343],[-3.82085,5.30892],[-3.82471,5.31059],[-3.82523,5.31574],[-3.82535,5.31059],[-3.82213,5.30634],[-3.81802,5.30673],[-3.81698,5.30183],[-3.83138,5.3004],[-3.83266,5.29782],[-3.83678,5.30026],[-3.83756,5.30632],[-3.84527,5.30038],[-3.84348,5.30631],[-3.85582,5.30668],[-3.85661,5.32034],[-3.84736,5.32139],[-3.83937,5.31521],[-3.8368,5.31702],[-3.83938,5.32191],[-3.85688,5.32447],[-3.8602,5.30874],[-3.86483,5.3095],[-3.86728,5.31388],[-3.87152,5.31091],[-3.87461,5.31361],[-3.87436,5.32057],[-3.88222,5.32804],[-3.87796,5.31902],[-3.88027,5.31605],[-3.8952,5.32776],[-3.89753,5.33768],[-3.89497,5.34452],[-3.8906,5.34607],[-3.89755,5.3516],[-3.90668,5.35146],[-3.90397,5.34554],[-3.90781,5.33303],[-3.90189,5.33059],[-3.91372,5.32438],[-3.92722,5.32772],[-3.92686,5.34215],[-3.93714,5.33621],[-3.9298,5.33055],[-3.93198,5.32487],[-3.95357,5.32033],[-3.96928,5.33087],[-3.97982,5.32725],[-3.98664,5.33123],[-4.00193,5.32102],[-4.01713,5.33763],[-4.01827,5.32963],[-4.01054,5.31779],[-4.02197,5.31352],[-4.02635,5.31699],[-4.03153,5.33528],[-4.03874,5.34172],[-4.04288,5.35795],[-4.04828,5.35433],[-4.0448,5.35176],[-4.04388,5.3399],[-4.03808,5.3345],[-4.02982,5.31389],[-4.04022,5.30356],[-4.0653,5.30919],[-4.07161,5.31524],[-4.07534,5.31123],[-4.06864,5.30635],[-4.07082,5.30093],[-4.07647,5.29924],[-4.08316,5.30026],[-4.09398,5.30965],[-4.10657,5.30641],[-4.11249,5.30859],[-4.12215,5.31579],[-4.12192,5.3328],[-4.12604,5.33563],[-4.12795,5.32558],[-4.12564,5.32403],[-4.12999,5.31681],[-4.12755,5.31707],[-4.1287,5.31217],[-4.12175,5.306],[-4.13513,5.31074],[-4.15158,5.30736],[-4.15853,5.30979],[-4.16215,5.31958],[-4.16793,5.31674],[-4.1647,5.30927],[-4.18475,5.30768],[-4.18552,5.30433],[-4.19891,5.31345],[-4.20688,5.3106],[-4.21961,5.31457],[-4.23322,5.30166],[-4.24131,5.29803],[-4.23729,5.27912],[-4.24027,5.29082],[-4.24541,5.28875],[-4.24593,5.2921],[-4.25364,5.29169],[-4.24967,5.30111],[-4.2542,5.31244],[-4.26795,5.30932],[-4.26848,5.31834],[-4.27659,5.32387],[-4.29097,5.31275],[-4.29973,5.32111],[-4.32417,5.3239],[-4.3271,5.31023],[-4.33467,5.30531],[-4.33505,5.2999],[-4.34492,5.2906],[-4.34799,5.28247],[-4.35778,5.28877],[-4.36266,5.28657],[-4.36756,5.29493],[-4.3848,5.29683],[-4.38969,5.30055],[-4.38894,5.30906],[-4.38405,5.30997],[-4.38895,5.31679],[-4.39384,5.31472],[-4.39434,5.31034],[-4.39948,5.31084],[-4.39715,5.3026],[-4.40717,5.29974],[-4.40588,5.2951],[-4.40973,5.29303],[-4.41128,5.29612],[-4.41358,5.28916],[-4.42591,5.28539],[-4.43285,5.28602],[-4.43312,5.29053],[-4.42901,5.28912],[-4.42233,5.29313],[-4.4244,5.29893],[-4.42928,5.29505],[-4.43751,5.29941],[-4.42236,5.30628],[-4.42919,5.31284],[-4.43638,5.30766],[-4.44448,5.30971],[-4.4455,5.30429],[-4.45114,5.30028],[-4.45578,5.30143],[-4.45679,5.29576],[-4.45721,5.30813],[-4.45373,5.30853],[-4.454,5.31226],[-4.46069,5.31573],[-4.46287,5.31327],[-4.4608,5.30761],[-4.46788,5.30759],[-4.46516,5.3027],[-4.46683,5.29883],[-4.46888,5.29805],[-4.47069,5.3032],[-4.47762,5.29623],[-4.48368,5.30446],[-4.48134,5.29416],[-4.48557,5.28667],[-4.47258,5.2867],[-4.46488,5.29188],[-4.45882,5.28287],[-4.4578,5.28596],[-4.45252,5.28391],[-4.46253,5.27513],[-4.45494,5.27553],[-4.44851,5.27129],[-4.44953,5.26871],[-4.46932,5.26738],[-4.47447,5.27072],[-4.47884,5.26955],[-4.47805,5.26169],[-4.49351,5.27364],[-4.52022,5.26172],[-4.52459,5.26248],[-4.52512,5.26931],[-4.53386,5.26993],[-4.53851,5.27713],[-4.54159,5.27597],[-4.54081,5.26953],[-4.54878,5.27157],[-4.55137,5.27826],[-4.55729,5.28263],[-4.55707,5.29474],[-4.56117,5.29009],[-4.56478,5.29318],[-4.56273,5.29885],[-4.56608,5.2991],[-4.56546,5.31019],[-4.56829,5.31069],[-4.57095,5.29342],[-4.55804,5.27245],[-4.55547,5.27232],[-4.55674,5.26485],[-4.56239,5.26483],[-4.56858,5.27281],[-4.56821,5.28002],[-4.57089,5.26881],[-4.58143,5.26929],[-4.59453,5.26411],[-4.60019,5.26615],[-4.59891,5.26912],[-4.60753,5.26961],[-4.60417,5.26292],[-4.60684,5.25261],[-4.59732,5.2516],[-4.59603,5.248],[-4.60554,5.24617],[-4.61223,5.24989],[-4.61865,5.24703],[-4.61956,5.25077],[-4.61443,5.25542],[-4.61585,5.258],[-4.62768,5.26003],[-4.63102,5.2568],[-4.63668,5.25781],[-4.64283,5.25006],[-4.64951,5.25172],[-4.65078,5.24579],[-4.66248,5.2455],[-4.66671,5.24227],[-4.67623,5.24366],[-4.67702,5.24959],[-4.67958,5.247],[-4.67955,5.23631],[-4.69756,5.24038],[-4.69784,5.24798],[-4.69988,5.24386],[-4.71377,5.24485],[-4.71714,5.25515],[-4.72125,5.25617],[-4.72603,5.26543],[-4.72,5.26635],[-4.71754,5.26236],[-4.7164,5.26842],[-4.70597,5.26214],[-4.70559,5.26471],[-4.69891,5.26383],[-4.69453,5.26049],[-4.69093,5.26128],[-4.6912,5.2672],[-4.68838,5.26837],[-4.6714,5.26416],[-4.66678,5.26753],[-4.66872,5.27203],[-4.67321,5.26905],[-4.67542,5.27742],[-4.6781,5.27149],[-4.68377,5.27379],[-4.68071,5.28566],[-4.69046,5.2761],[-4.68548,5.28951],[-4.67535,5.29856],[-4.67472,5.30449],[-4.66831,5.31146],[-4.66667,5.32178],[-4.69115,5.29542],[-4.69462,5.29567],[-4.6987,5.28226],[-4.70385,5.28508],[-4.70023,5.27916],[-4.70124,5.27014],[-4.71127,5.27307],[-4.70833,5.27759],[-4.71026,5.28042],[-4.71205,5.27578],[-4.71925,5.2755],[-4.71901,5.28117],[-4.72491,5.2778],[-4.72493,5.28438],[-4.73495,5.28242],[-4.73651,5.28757],[-4.74086,5.27956],[-4.74511,5.28368],[-4.746,5.27981],[-4.75089,5.2807],[-4.75165,5.27837],[-4.74574,5.27839],[-4.74804,5.27529],[-4.73751,5.27893],[-4.73159,5.2774],[-4.73055,5.27109],[-4.7344,5.2703],[-4.73091,5.26207],[-4.73347,5.25871],[-4.72471,5.25023],[-4.72495,5.24508],[-4.72828,5.24043],[-4.73382,5.24389],[-4.73947,5.24246],[-4.74151,5.23575],[-4.74742,5.23625],[-4.75309,5.24332],[-4.75693,5.23558],[-4.76645,5.23749],[-4.76643,5.23285],[-4.79226,5.22891],[-4.79263,5.22298],[-4.79788,5.21807],[-4.79635,5.20734],[-4.79976,5.19951],[-4.80592,5.19691],[-4.80948,5.18363],[-4.8173,5.17549],[-4.82381,5.16014],[-4.81712,5.16029],[-4.81611,5.16467],[-4.81109,5.16263],[-4.81599,5.17008],[-4.81177,5.17667],[-4.8083,5.17681],[-4.80724,5.16393],[-4.80299,5.16175],[-4.79863,5.16498],[-4.7958,5.16357],[-4.79707,5.15828],[-4.79038,5.15689],[-4.78063,5.16361],[-4.7795,5.17019],[-4.77344,5.16299],[-4.76572,5.16082],[-4.75237,5.16704],[-4.7426,5.1663],[-4.73541,5.16941],[-4.72409,5.16635],[-4.72462,5.17189],[-4.72925,5.17368],[-4.72708,5.1791],[-4.72437,5.17343],[-4.71923,5.17396],[-4.72387,5.18039],[-4.7226,5.18375],[-4.69997,5.18213],[-4.68958,5.19054],[-4.6869,5.19673],[-4.67739,5.19727],[-4.67408,5.20991],[-4.65766,5.21987],[-4.64583,5.22055],[-4.63991,5.21605],[-4.62448,5.21326],[-4.61652,5.21856],[-4.61137,5.21484],[-4.60572,5.21743],[-4.59595,5.21617],[-4.59079,5.21141],[-4.58872,5.20291],[-4.56942,5.19561],[-4.55645,5.20041],[-4.55993,5.2053],[-4.5517,5.20339],[-4.52214,5.20643],[-4.52318,5.209],[-4.53629,5.21077],[-4.57124,5.2054],[-4.57845,5.20783],[-4.5827,5.21169],[-4.58092,5.2202],[-4.57669,5.22523],[-4.57103,5.2219],[-4.5623,5.22939],[-4.56114,5.22618],[-4.55458,5.22439],[-4.54365,5.22467],[-4.538,5.22649],[-4.54225,5.2288],[-4.53455,5.23591],[-4.53262,5.23192],[-4.53608,5.22894],[-4.53145,5.22805],[-4.52689,5.22145],[-4.52656,5.22613],[-4.52014,5.22885],[-4.51758,5.23556],[-4.51192,5.23171],[-4.50833,5.23558],[-4.50793,5.22914],[-4.50061,5.23212],[-4.48132,5.23217],[-4.4574,5.22436],[-4.44739,5.23379],[-4.44018,5.2302],[-4.4258,5.23462],[-4.41849,5.24327],[-4.41732,5.24056],[-4.40627,5.24046],[-4.39805,5.24641],[-4.39564,5.25853],[-4.38033,5.25534],[-4.36826,5.26026],[-4.36054,5.25899],[-4.35258,5.26184],[-4.34228,5.25632],[-4.33098,5.26176],[-4.31605,5.25599],[-4.28005,5.25581],[-4.26888,5.26292],[-4.26106,5.27467],[-4.25514,5.27197],[-4.2248,5.27255],[-4.21171,5.28224],[-4.20979,5.29062],[-4.20376,5.2945],[-4.20247,5.29167],[-4.19733,5.29348],[-4.16723,5.28916],[-4.15952,5.29175],[-4.159,5.28788],[-4.16337,5.28762],[-4.16337,5.28414],[-4.15771,5.28415],[-4.15924,5.27796],[-4.15487,5.27668],[-4.15257,5.28867],[-4.13998,5.2932],[-4.1338,5.28857],[-4.13363,5.2655],[-4.12861,5.26435],[-4.07874,5.27101],[-4.07963,5.26586],[-4.07641,5.26238],[-4.07552,5.27076],[-4.06562,5.27129],[-4.06484,5.26537],[-4.05121,5.26578],[-4.04863,5.26114],[-4.04349,5.25986],[-4.04092,5.26193],[-4.03166,5.25898],[-4.02009,5.26209],[-4.00335,5.24704],[-4.0072,5.24291],[-4.05477,5.24102],[-4.25683,5.21565],[-4.54163,5.18718],[-4.63569,5.17509],[-4.7639,5.15361],[-4.95971,5.14015],[-4.95509,5.14326],[-4.95097,5.14044],[-4.95318,5.14726],[-4.95101,5.15345],[-4.93227,5.16046],[-4.93177,5.16498],[-4.94,5.16766],[-4.94178,5.16121],[-4.94589,5.16158],[-4.94973,5.15552],[-4.94376,5.17821],[-4.95669,5.20291],[-4.95575,5.23203],[-4.96559,5.25441],[-4.96511,5.26704],[-4.92706,5.30504],[-4.92777,5.3272],[-4.9215,5.33791],[-4.87057,5.37041],[-4.86241,5.3926],[-4.84767,5.40849],[-4.83945,5.41058],[-4.82838,5.407],[-4.82005,5.41334],[-4.83956,5.44472],[-4.85398,5.45241],[-4.8524,5.48153],[-4.85526,5.49338],[-4.86393,5.50881],[-4.88715,5.53476],[-4.8948,5.55303],[-4.87533,5.57706],[-4.87437,5.60051],[-4.8793,5.61158],[-4.87509,5.62267],[-4.87149,5.62359],[-4.84815,5.60981],[-4.83646,5.60824],[-4.82927,5.61212],[-4.81827,5.63187],[-4.79337,5.64702],[-4.78633,5.66083],[-4.79708,5.68425],[-4.81475,5.69734],[-4.8225,5.70942],[-4.82615,5.72281],[-4.82884,5.72126],[-4.81784,5.69913],[-4.79837,5.68322],[-4.78762,5.66031],[-4.79645,5.64611],[-4.81956,5.63264],[-4.82953,5.61328],[-4.83595,5.61004],[-4.84746,5.61118],[-4.86789,5.62411],[-4.87509,5.62422],[-4.87995,5.61596],[-4.87567,5.60257],[-4.87763,5.57396],[-4.89238,5.56206],[-4.89633,5.54994],[-4.8865,5.53167],[-4.85836,5.49723],[-4.85341,5.47534],[-4.85722,5.45935],[-4.8541,5.45034],[-4.84161,5.44484],[-4.83811,5.43467],[-4.82211,5.41565],[-4.82197,5.41179],[-4.82685,5.40804],[-4.84614,5.41133],[-4.86178,5.39827],[-4.8725,5.37143],[-4.87865,5.36523],[-4.90356,5.35343],[-4.92459,5.33842],[-4.93111,5.32564],[-4.92773,5.3156],[-4.93014,5.30529],[-4.96756,5.26729],[-4.96751,5.25415],[-4.96012,5.23227],[-4.96159,5.2083],[-4.94863,5.17227],[-4.94925,5.16789],[-4.95797,5.15974],[-4.96413,5.15805],[-4.96736,5.16165],[-4.96567,5.15675],[-4.97643,5.14487],[-5.00007,5.14621],[-5.00599,5.14864],[-5.00832,5.15353],[-5.00552,5.16256],[-4.99628,5.16452],[-4.99412,5.17367],[-5.00121,5.18112],[-4.99545,5.18707],[-4.99958,5.19401],[-4.99407,5.19867],[-4.9897,5.19739],[-4.98701,5.20152],[-4.98844,5.20641],[-4.98407,5.20681],[-4.99258,5.21439],[-5.0008,5.21398],[-5.00879,5.21936],[-5.01034,5.22387],[-5.01239,5.21948],[-5.02317,5.21622],[-5.035,5.21902],[-5.05091,5.21201],[-5.06068,5.21211],[-5.06528,5.20449],[-5.07042,5.20344],[-5.08612,5.20919],[-5.08583,5.19979],[-5.08353,5.20405],[-5.07928,5.20045],[-5.09171,5.19152],[-5.10765,5.19147],[-5.1066,5.18761],[-5.10288,5.18698],[-5.10787,5.18168],[-5.12229,5.18975],[-5.11433,5.19325],[-5.1146,5.19583],[-5.12899,5.19449],[-5.12848,5.19733],[-5.1402,5.19967],[-5.13493,5.20439],[-5.13779,5.21288],[-5.16064,5.20868],[-5.17042,5.21264],[-5.17324,5.20941],[-5.17559,5.21932],[-5.19344,5.21655],[-5.20357,5.20969],[-5.21564,5.20707],[-5.23108,5.21307],[-5.23161,5.21827],[-5.23391,5.21461],[-5.24689,5.21482],[-5.24878,5.20451],[-5.25751,5.20254],[-5.26048,5.2073],[-5.27077,5.21139],[-5.26925,5.215],[-5.27608,5.22116],[-5.28508,5.22331],[-5.28841,5.22111],[-5.28894,5.22626],[-5.2838,5.22628],[-5.28433,5.22834],[-5.29665,5.2252],[-5.295,5.23139],[-5.30438,5.22955],[-5.30902,5.23417],[-5.31003,5.23056],[-5.29935,5.22622],[-5.29947,5.2239],[-5.31489,5.22359],[-5.32007,5.23413],[-5.31416,5.2357],[-5.31482,5.23879],[-5.31649,5.24033],[-5.32366,5.23309],[-5.32881,5.23462],[-5.32833,5.24363],[-5.33452,5.25134],[-5.34092,5.24397],[-5.32981,5.2292],[-5.33341,5.22983],[-5.33366,5.22726],[-5.32749,5.22548],[-5.31561,5.21122],[-5.31611,5.20529],[-5.3238,5.20127],[-5.3314,5.20601],[-5.33615,5.20496],[-5.3297,5.19777],[-5.33792,5.19671],[-5.34033,5.18769],[-5.33711,5.1877],[-5.33251,5.19416],[-5.32148,5.19755],[-5.31786,5.19279],[-5.3237,5.19268],[-5.3294,5.18747],[-5.32836,5.18425],[-5.31859,5.18171],[-5.31759,5.1888],[-5.30975,5.1878],[-5.31055,5.19553],[-5.29861,5.19905],[-5.29526,5.19713],[-5.30244,5.19221],[-5.30137,5.18087],[-5.31984,5.17153],[-5.32265,5.16637],[-5.32134,5.16071],[-5.32981,5.15913],[-5.33082,5.1532],[-5.33467,5.15319],[-5.33267,5.16633],[-5.32705,5.17486],[-5.32964,5.18154],[-5.33013,5.1751],[-5.33398,5.17483],[-5.33581,5.18152],[-5.33861,5.17481],[-5.33588,5.16658],[-5.34602,5.16397],[-5.34802,5.16841],[-5.34924,5.16498],[-5.34215,5.15999],[-5.33753,5.16181],[-5.33827,5.15317],[-5.34302,5.15084],[-5.3444,5.14233],[-5.35366,5.14487],[-5.35362,5.13483],[-5.35722,5.13417],[-5.3724,5.14171],[-5.37357,5.14583],[-5.3827,5.14631],[-5.37656,5.15406],[-5.37582,5.16231],[-5.38043,5.1592],[-5.37875,5.15612],[-5.38708,5.15067],[-5.38712,5.16149],[-5.38291,5.16898],[-5.38654,5.17669],[-5.38651,5.16897],[-5.39275,5.15632],[-5.38976,5.14629],[-5.39349,5.14756],[-5.39802,5.15527],[-5.39649,5.15837],[-5.40098,5.15784],[-5.40702,5.16297],[-5.40333,5.168],[-5.39897,5.16828],[-5.39898,5.1715],[-5.40308,5.17019],[-5.39647,5.18735],[-5.40701,5.18872],[-5.40722,5.17713],[-5.40979,5.17609],[-5.40925,5.16991],[-5.41233,5.16926],[-5.41152,5.16011],[-5.41562,5.15649],[-5.41022,5.15561],[-5.39862,5.14419],[-5.39757,5.13801],[-5.40065,5.138],[-5.39806,5.13234],[-5.39369,5.13081],[-5.39192,5.13842],[-5.38626,5.13857],[-5.3829,5.13176],[-5.37649,5.13552],[-5.37172,5.13064],[-5.37696,5.12328],[-5.3523,5.12388],[-5.34563,5.12713],[-5.34236,5.12216],[-5.38129,5.1145],[-5.39566,5.10788],[-5.39385,5.10647],[-5.31065,5.11863],[-5.29138,5.11741],[-5.22692,5.1282],[-5.11158,5.13889],[-5.10902,5.14148],[-5.18559,5.1389],[-5.25572,5.13325],[-5.26447,5.13837],[-5.28941,5.1406],[-5.322,5.12966],[-5.33255,5.13542],[-5.3354,5.14198],[-5.32207,5.14795],[-5.31152,5.14567],[-5.30178,5.15163],[-5.29688,5.14766],[-5.28867,5.14975],[-5.29318,5.15437],[-5.29281,5.15849],[-5.28603,5.16522],[-5.28561,5.158],[-5.2679,5.16361],[-5.25683,5.1563],[-5.23396,5.15625],[-5.22834,5.16658],[-5.22318,5.15977],[-5.21496,5.15941],[-5.20005,5.15985],[-5.20032,5.1632],[-5.19595,5.16102],[-5.17849,5.16637],[-5.17671,5.17127],[-5.18543,5.16596],[-5.18995,5.17457],[-5.1889,5.16685],[-5.1975,5.16553],[-5.2015,5.16964],[-5.19726,5.17107],[-5.19754,5.17532],[-5.21348,5.17835],[-5.21118,5.18352],[-5.19178,5.18255],[-5.21531,5.18672],[-5.21789,5.18993],[-5.21533,5.19252],[-5.22253,5.19442],[-5.2274,5.19144],[-5.2305,5.19633],[-5.235,5.19657],[-5.23993,5.2084],[-5.23607,5.20739],[-5.23464,5.20288],[-5.22898,5.20213],[-5.22845,5.19853],[-5.22449,5.20382],[-5.21431,5.19561],[-5.2133,5.20038],[-5.20185,5.19772],[-5.20046,5.20275],[-5.19685,5.20096],[-5.18968,5.20819],[-5.17916,5.21055],[-5.16704,5.20054],[-5.16191,5.20301],[-5.1592,5.19838],[-5.14968,5.19687],[-5.14929,5.19339],[-5.14312,5.19418],[-5.13923,5.18299],[-5.12793,5.18457],[-5.13098,5.17632],[-5.1289,5.16872],[-5.12016,5.1694],[-5.12092,5.16605],[-5.11553,5.16555],[-5.11579,5.16774],[-5.11194,5.16762],[-5.11193,5.16466],[-5.10011,5.16573],[-5.09242,5.17348],[-5.08343,5.173],[-5.07755,5.1832],[-5.06498,5.19161],[-5.05521,5.18997],[-5.04918,5.19231],[-5.04596,5.19077],[-5.04711,5.18793],[-5.04211,5.19001],[-5.03361,5.18604],[-5.01947,5.18557],[-5.02304,5.17667],[-5.02134,5.16586],[-5.02815,5.16545],[-5.02788,5.16197],[-5.01322,5.15725],[-5.01229,5.14759],[-5.01549,5.14423],[-5.07766,5.13798],[-5.09127,5.13535],[-5.09229,5.13277],[-5.02228,5.13828],[-4.99927,5.13629],[-5.19556,5.12341],[-5.33811,5.10925],[-5.57923,5.08077],[-5.6126,5.0751],[-5.62824,5.06898],[-5.77071,5.05036],[-5.85461,5.03428],[-5.92205,5.01184],[-5.93126,5.00549],[-5.97409,4.99461],[-5.98021,4.98377],[-6.0046,4.97881],[-6.00795,4.97483],[-6.02364,4.96937],[-6.07065,4.96288],[-6.0679,4.97536],[-6.07285,4.98723],[-6.08797,4.99489],[-6.10954,4.99473],[-6.12262,4.99852],[-6.12798,5.00472],[-6.12372,5.00934],[-6.12474,5.01218],[-6.13532,5.02999],[-6.14709,5.03841],[-6.15274,5.03908],[-6.16308,5.05226],[-6.17781,5.06044],[-6.20837,5.0607],[-6.21626,5.10683],[-6.21511,5.13721],[-6.21879,5.14676],[-6.22048,5.20162],[-6.24911,5.20329],[-6.25012,5.2069],[-6.26141,5.21107],[-6.26764,5.225],[-6.2658,5.23555],[-6.24759,5.25814],[-6.23909,5.26273],[-6.23932,5.26891],[-6.24214,5.26919],[-6.24634,5.27899],[-6.26316,5.28022],[-6.2792,5.29234],[-6.276,5.30237],[-6.28823,5.32092],[-6.30587,5.32561],[-6.31279,5.32976],[-6.31379,5.33569],[-6.32997,5.33769],[-6.34431,5.34999],[-6.34411,5.36595],[-6.33095,5.378],[-6.33413,5.386],[-6.34876,5.38864],[-6.35131,5.39522],[-6.35906,5.38718],[-6.37007,5.39298],[-6.37034,5.39015],[-6.36086,5.38341],[-6.35157,5.39303],[-6.35018,5.38787],[-6.33978,5.38615],[-6.34159,5.38423],[-6.33594,5.38253],[-6.33429,5.37724],[-6.34642,5.36596],[-6.34572,5.34922],[-6.34202,5.34444],[-6.33229,5.33577],[-6.31919,5.33507],[-6.30588,5.32187],[-6.30228,5.32366],[-6.30016,5.32043],[-6.28936,5.31985],[-6.28024,5.30565],[-6.28091,5.28794],[-6.26959,5.27858],[-6.24957,5.27411],[-6.24586,5.27049],[-6.24603,5.26045],[-6.2654,5.23787],[-6.27047,5.22476],[-6.26168,5.20824],[-6.24963,5.20162],[-6.2332,5.19948],[-6.22189,5.20188],[-6.217,5.08571],[-6.21613,5.07773],[-6.20924,5.06894],[-6.21074,5.04835],[-6.20357,5.04355],[-6.1838,5.04089],[-6.17337,5.04793],[-6.16118,5.04659],[-6.14699,5.03185],[-6.10504,4.96625],[-6.09246,4.96646],[-6.08786,4.96064],[-6.07966,4.95726],[-6.08073,4.94748],[-6.08511,4.94364],[-6.11368,4.92741],[-6.14608,4.91686],[-6.16744,4.90395],[-6.17618,4.90231],[-6.18418,4.89282],[-6.19885,4.88438],[-6.22916,4.8791],[-6.23534,4.87488],[-6.2351,4.87024],[-6.24976,4.86438],[-6.26903,4.86149],[-6.2918,4.85175],[-6.31685,4.84675],[-6.35003,4.83168],[-6.39345,4.82464],[-6.40785,4.8171],[-6.43895,4.80987],[-6.44359,4.80615],[-6.44528,4.80049],[-6.44246,4.79868],[-6.44748,4.79342],[-6.58496,4.76481],[-6.58909,4.7598],[-6.60066,4.7552],[-6.60145,4.74696],[-6.6084,4.74467],[-6.60892,4.74158],[-6.6129,4.74262],[-6.60967,4.74699],[-6.61636,4.74431],[-6.62136,4.746],[-6.61716,4.73555],[-6.62435,4.73326],[-6.62938,4.72671],[-6.69916,4.7093],[-6.70302,4.70686],[-6.70317,4.6981],[-6.70665,4.69438],[-6.85231,4.67603],[-6.91192,4.66385],[-6.92158,4.65396],[-6.91673,4.64441],[-6.91815,4.64184],[-6.95569,4.62326],[-6.96574,4.61131],[-6.98195,4.60105],[-6.98197,4.59461],[-6.99919,4.58744],[-7.00126,4.58152],[-7.01334,4.57743],[-7.01477,4.57254],[-7.02364,4.56767],[-7.02521,4.55866],[-7.03086,4.55532],[-7.03062,4.54914],[-7.05092,4.54417],[-7.05813,4.53826],[-7.18528,4.52081],[-7.19557,4.51426],[-7.19583,4.5104],[-7.23825,4.49079],[-7.2434,4.48603],[-7.24806,4.46749],[-7.30151,4.45305],[-7.30974,4.44727],[-7.32005,4.43055],[-7.35243,4.41786],[-7.35835,4.41182],[-7.3572,4.40898],[-7.39485,4.39347],[-7.40514,4.38331],[-7.47194,4.36347],[-7.52844,4.36166],[-7.52484,4.36474],[-7.52547,4.36964],[-7.53047,4.37455],[-7.53638,4.37327],[-7.56202,4.3893],[-7.56496,4.39833],[-7.56249,4.41121],[-7.53844,4.43642],[-7.54138,4.44171],[-7.55857,4.44832],[-7.56562,4.45632],[-7.56315,4.47256],[-7.55194,4.48903],[-7.55551,4.50167],[-7.55164,4.51068],[-7.56393,4.53029],[-7.56327,4.54138],[-7.55607,4.54265],[-7.56028,4.55735],[-7.55744,4.56508],[-7.57307,4.58315],[-7.57037,4.58894],[-7.55957,4.59047],[-7.5561,4.5942],[-7.54733,4.61145],[-7.55399,4.61971],[-7.55576,4.63621],[-7.56331,4.65118],[-7.57525,4.65223],[-7.57228,4.66112],[-7.55904,4.66663],[-7.57056,4.68573],[-7.56836,4.68998],[-7.55912,4.68983],[-7.55667,4.69472],[-7.55767,4.70761],[-7.56227,4.71819],[-7.55914,4.74035],[-7.56425,4.75299],[-7.56269,4.7633],[-7.56692,4.76666],[-7.5606,4.78211],[-7.56636,4.78766],[-7.58177,4.79105],[-7.59332,4.80022],[-7.59327,4.82136],[-7.58221,4.82752],[-7.59206,4.85125],[-7.58394,4.85948],[-7.58445,4.86309],[-7.59119,4.86481],[-7.58966,4.87262],[-7.59242,4.8769],[-7.58908,4.88176],[-7.60075,4.89017],[-7.60036,4.89937],[-7.59763,4.89961],[-7.59602,4.90638],[-7.58324,4.91255],[-7.56726,4.90882],[-7.5612,4.92367],[-7.5478,4.92498],[-7.54483,4.91943],[-7.53944,4.91741],[-7.52704,4.92161],[-7.52802,4.92792],[-7.53754,4.93852],[-7.53863,4.95008],[-7.53454,4.95566],[-7.54598,4.9675],[-7.56034,4.97284],[-7.56037,4.9765],[-7.54698,4.98736],[-7.54197,5.00137],[-7.55541,5.01906],[-7.55373,5.03102],[-7.54877,5.03542],[-7.54628,5.04351],[-7.55211,5.05109],[-7.55114,5.05993],[-7.55516,5.06182],[-7.55527,5.06898],[-7.56196,5.07875],[-7.56097,5.08338],[-7.55219,5.08708],[-7.54907,5.09454],[-7.53955,5.09701],[-7.53721,5.10138],[-7.53303,5.10062],[-7.53007,5.10781],[-7.51843,5.11362],[-7.51288,5.10836],[-7.51442,5.09831],[-7.50831,5.09595],[-7.49826,5.11015],[-7.5004,5.1155],[-7.4964,5.12102],[-7.48799,5.12181],[-7.48457,5.12737],[-7.48332,5.13981],[-7.47464,5.15201],[-7.47122,5.16611],[-7.47155,5.18279],[-7.47691,5.19132],[-7.47006,5.20125],[-7.48399,5.21344],[-7.48476,5.22047],[-7.47886,5.23197],[-7.46701,5.23537],[-7.46409,5.24174],[-7.4676,5.25318],[-7.46542,5.25869],[-7.47722,5.26344],[-7.47684,5.27847],[-7.47276,5.28312],[-7.46279,5.27575],[-7.45156,5.28776],[-7.44031,5.28876],[-7.43042,5.29822],[-7.41476,5.29922],[-7.4217,5.28442],[-7.42735,5.28376],[-7.42754,5.27982],[-7.42011,5.27658],[-7.4223,5.26599],[-7.42786,5.26094],[-7.42699,5.25881],[-7.41542,5.26039],[-7.40529,5.27478],[-7.40501,5.28277],[-7.39068,5.29237],[-7.39575,5.30914],[-7.39354,5.31464],[-7.38551,5.31708],[-7.38527,5.32013],[-7.3767,5.31965],[-7.36861,5.3348],[-7.37788,5.33701],[-7.38432,5.3434],[-7.38193,5.37433],[-7.37633,5.38654],[-7.38651,5.38463],[-7.39097,5.36904],[-7.39815,5.36449],[-7.40463,5.36617],[-7.40639,5.37078],[-7.42618,5.38638],[-7.43051,5.3952],[-7.4305,5.40492],[-7.44506,5.42175],[-7.45023,5.43244],[-7.449,5.43706],[-7.43909,5.44464],[-7.43616,5.43429],[-7.42252,5.42932],[-7.42081,5.43238],[-7.41723,5.44895],[-7.42455,5.46429],[-7.42422,5.47626],[-7.41903,5.48558],[-7.40999,5.48501],[-7.40436,5.4939],[-7.4041,5.50249],[-7.39303,5.50589],[-7.39185,5.51096],[-7.40567,5.5223],[-7.39946,5.52455],[-7.39078,5.52104],[-7.38418,5.52342],[-7.38204,5.5278],[-7.38126,5.5326],[-7.39938,5.54615],[-7.3937,5.55874],[-7.3962,5.57987],[-7.39095,5.58367],[-7.37533,5.58058],[-7.37362,5.58254],[-7.38256,5.59899],[-7.37556,5.61396],[-7.37692,5.62244],[-7.38028,5.62688],[-7.39711,5.63367],[-7.39632,5.6394],[-7.40961,5.65355],[-7.41169,5.67148],[-7.42076,5.6821],[-7.41671,5.68909],[-7.41843,5.69426],[-7.43098,5.69587],[-7.43021,5.71071],[-7.43526,5.71334],[-7.43493,5.73734],[-7.44439,5.75508],[-7.42868,5.77284],[-7.43263,5.7881],[-7.44014,5.79065],[-7.44397,5.80232],[-7.43927,5.8055],[-7.43215,5.82247],[-7.43227,5.83957],[-7.42342,5.83975],[-7.42516,5.84534],[-7.43503,5.84286],[-7.44302,5.85028],[-7.44748,5.86212],[-7.45387,5.8569],[-7.46653,5.86284],[-7.47322,5.84503],[-7.47064,5.83587],[-7.47626,5.82741],[-7.47741,5.81182],[-7.48483,5.81255],[-7.49764,5.82141],[-7.50064,5.81979],[-7.50088,5.82589],[-7.50367,5.82459],[-7.50642,5.82745],[-7.50697,5.83429],[-7.52331,5.83776],[-7.51321,5.84533],[-7.51354,5.85171],[-7.5178,5.85624],[-7.52696,5.85745],[-7.53658,5.84641],[-7.54519,5.84724],[-7.54366,5.8386],[-7.54934,5.83117],[-7.55371,5.8422],[-7.56029,5.84818],[-7.564,5.86369],[-7.57689,5.8657],[-7.57341,5.87032],[-7.56787,5.87091],[-7.55832,5.86573],[-7.55544,5.86855],[-7.58199,5.89721],[-7.59489,5.8992],[-7.60111,5.88872],[-7.60825,5.89779],[-7.61467,5.89762],[-7.61669,5.90767],[-7.62069,5.90558],[-7.63566,5.91054],[-7.64186,5.90802],[-7.65058,5.91898],[-7.65987,5.91376],[-7.66286,5.91498],[-7.6588,5.93634],[-7.66468,5.94595],[-7.66317,5.95265],[-7.66747,5.95317],[-7.67539,5.94363],[-7.68027,5.9305],[-7.68881,5.92897],[-7.68346,5.9149],[-7.67657,5.90761],[-7.68765,5.89817],[-7.71526,5.91805],[-7.71783,5.92401],[-7.73029,5.93357],[-7.73602,5.93628],[-7.74148,5.93261],[-7.75205,5.94806],[-7.76458,5.95373],[-7.76538,5.97579],[-7.78751,5.98058],[-7.79359,5.98929],[-7.79266,6.00005],[-7.78383,6.00393],[-7.78444,6.01056],[-7.79111,6.01476],[-7.78851,6.0223],[-7.77076,6.0304],[-7.77011,6.03566],[-7.80112,6.05931],[-7.79144,6.07092],[-7.79417,6.08235],[-7.80254,6.09355],[-7.81092,6.0928],[-7.8124,6.0843],[-7.83071,6.09751],[-7.83894,6.08691],[-7.8372,6.08255],[-7.85154,6.07611],[-7.84673,6.09215],[-7.85594,6.09409],[-7.85199,6.10459],[-7.85409,6.11611],[-7.85349,6.12895],[-7.85035,6.13342],[-7.85172,6.15259],[-7.83418,6.16355],[-7.84041,6.16836],[-7.84143,6.17297],[-7.83684,6.18314],[-7.8444,6.18642],[-7.84416,6.19224],[-7.82539,6.19074],[-7.82328,6.19617],[-7.83776,6.20666],[-7.85792,6.2327],[-7.88236,6.24783],[-7.88592,6.25548],[-7.89116,6.25435],[-7.89439,6.25787],[-7.90411,6.27569],[-7.90162,6.28236],[-7.90464,6.28554],[-7.91211,6.28384],[-7.91493,6.27318],[-7.92082,6.29308],[-7.93187,6.28127],[-7.94911,6.30017],[-7.9595,6.28556],[-7.96502,6.28623],[-7.97449,6.29989],[-7.98043,6.29391],[-7.98228,6.30125],[-7.98789,6.30079],[-7.99252,6.29611],[-7.99631,6.29988],[-7.99862,6.31457],[-8.00762,6.32236],[-8.03868,6.31389],[-8.04426,6.31503],[-8.05219,6.30584],[-8.06556,6.30882],[-8.0798,6.30079],[-8.08967,6.30786],[-8.09676,6.30308],[-8.10139,6.29328],[-8.11253,6.29344],[-8.13072,6.28265],[-8.13661,6.28528],[-8.146,6.28077],[-8.16275,6.28446],[-8.16362,6.28102],[-8.17541,6.27968],[-8.17713,6.28897],[-8.18909,6.2944],[-8.19071,6.30312],[-8.20077,6.31013],[-8.20471,6.30608],[-8.20984,6.30563],[-8.21311,6.31145],[-8.2222,6.3076],[-8.24462,6.3261],[-8.25253,6.32128],[-8.25889,6.3257],[-8.26393,6.32203],[-8.28347,6.32398],[-8.2859,6.32969],[-8.26844,6.33581],[-8.27244,6.3415],[-8.28343,6.34123],[-8.28537,6.35336],[-8.29984,6.35535],[-8.30602,6.3492],[-8.31387,6.36044],[-8.31839,6.35952],[-8.33365,6.37269],[-8.33939,6.3723],[-8.34319,6.37861],[-8.35217,6.36566],[-8.35836,6.36665],[-8.36391,6.3641],[-8.3642,6.36087],[-8.37479,6.36712],[-8.3755,6.36127],[-8.38259,6.36249],[-8.38706,6.35913],[-8.38941,6.3505],[-8.39773,6.35405],[-8.40512,6.36814],[-8.41459,6.37016],[-8.38542,6.38328],[-8.38496,6.38661],[-8.3942,6.39694],[-8.39592,6.40265],[-8.39321,6.40968],[-8.40273,6.4216],[-8.40326,6.43182],[-8.40637,6.4335],[-8.40896,6.42591],[-8.41257,6.42859],[-8.41248,6.43246],[-8.4058,6.43872],[-8.39631,6.44338],[-8.40598,6.44752],[-8.41639,6.45773],[-8.42659,6.46053],[-8.43456,6.46858],[-8.44353,6.49856],[-8.45822,6.50361],[-8.46328,6.50397],[-8.46629,6.50071],[-8.45656,6.4732],[-8.46228,6.46289],[-8.47237,6.45713],[-8.47457,6.44021],[-8.48234,6.435],[-8.5,6.44039],[-8.51156,6.44989],[-8.52573,6.47117],[-8.53025,6.48516],[-8.55282,6.50073],[-8.56925,6.50082],[-8.5708,6.5038],[-8.57736,6.50468],[-8.58772,6.49917],[-8.59674,6.50272],[-8.5981,6.50647],[-8.60198,6.506],[-8.59597,6.52671],[-8.58726,6.52892],[-8.58278,6.52311],[-8.57225,6.52372],[-8.56939,6.53992],[-8.55701,6.55252],[-8.55984,6.55646],[-8.56406,6.55452],[-8.56996,6.55735],[-8.56304,6.57123],[-8.55615,6.56712],[-8.54957,6.56759],[-8.54755,6.56237],[-8.54157,6.56111],[-8.53932,6.56853],[-8.53329,6.57359],[-8.531,6.57841],[-8.53567,6.58733],[-8.53461,6.60153],[-8.54048,6.60992],[-8.53026,6.61355],[-8.52472,6.60575],[-8.52675,6.59854],[-8.51777,6.60052],[-8.51194,6.59636],[-8.50753,6.60498],[-8.50966,6.61634],[-8.49949,6.62135],[-8.4943,6.6169],[-8.49532,6.61215],[-8.48835,6.61385],[-8.48594,6.61943],[-8.49098,6.62759],[-8.48745,6.63277],[-8.47906,6.63152],[-8.47499,6.63909],[-8.47121,6.63371],[-8.46625,6.63384],[-8.46616,6.6411],[-8.45895,6.63874],[-8.45216,6.64295],[-8.45522,6.65058],[-8.45414,6.66166],[-8.44398,6.66758],[-8.43672,6.6594],[-8.43287,6.66351],[-8.43102,6.67704],[-8.42784,6.67778],[-8.42471,6.67307],[-8.41927,6.67546],[-8.41164,6.6869],[-8.4059,6.68524],[-8.40909,6.6926],[-8.40628,6.70143],[-8.41198,6.70478],[-8.41174,6.70896],[-8.40802,6.71556],[-8.39924,6.71432],[-8.39167,6.71806],[-8.3957,6.72794],[-8.39057,6.72787],[-8.38361,6.72254],[-8.37885,6.73006],[-8.38732,6.73113],[-8.38655,6.73845],[-8.37991,6.74106],[-8.37566,6.73815],[-8.37334,6.74878],[-8.36949,6.75011],[-8.36742,6.74581],[-8.36049,6.75152],[-8.36032,6.75904],[-8.3642,6.76185],[-8.35935,6.76812],[-8.3492,6.76543],[-8.34788,6.75989],[-8.34319,6.76181],[-8.34863,6.77941],[-8.34851,6.79733],[-8.33925,6.79778],[-8.32948,6.80409],[-8.33131,6.81647],[-8.32628,6.81274],[-8.32029,6.81547],[-8.32178,6.82287],[-8.32901,6.82883],[-8.32992,6.83682],[-8.31829,6.84271],[-8.31038,6.85601],[-8.31304,6.8601],[-8.30931,6.86382],[-8.31354,6.86705],[-8.31969,6.85706],[-8.32956,6.8711],[-8.3261,6.87594],[-8.32954,6.87407],[-8.33661,6.88612],[-8.33458,6.89109],[-8.32517,6.89694],[-8.32738,6.90425],[-8.31366,6.90347],[-8.30828,6.91192],[-8.31797,6.92486],[-8.32149,6.95218],[-8.32444,6.95665],[-8.32167,6.9596],[-8.32733,6.97009],[-8.31102,6.97447],[-8.3091,6.97806],[-8.30712,6.97404],[-8.30291,6.9771],[-8.30201,6.98247],[-8.29618,6.98372],[-8.29145,6.989],[-8.28725,6.98987],[-8.28487,6.9871],[-8.28774,6.99635],[-8.2857,7.00145],[-8.27888,7.00082],[-8.27489,7.00457],[-8.28289,7.01213],[-8.27924,7.0182],[-8.28987,7.01867],[-8.29321,7.0224],[-8.28968,7.03198],[-8.29945,7.06182],[-8.30375,7.06506],[-8.29881,7.07259],[-8.30358,7.07556],[-8.30385,7.08491],[-8.30735,7.08772],[-8.30206,7.09529],[-8.30547,7.10015],[-8.30351,7.10808],[-8.29628,7.12115],[-8.29619,7.12646],[-8.29993,7.13013],[-8.29776,7.13415],[-8.30339,7.13591],[-8.28266,7.15263],[-8.28056,7.16225],[-8.28527,7.17049],[-8.28221,7.18321],[-8.29075,7.18568],[-8.29114,7.18159],[-8.29622,7.18324],[-8.29442,7.18502],[-8.30019,7.19098],[-8.30748,7.19097],[-8.30675,7.19434],[-8.31669,7.19789],[-8.31863,7.2036],[-8.32668,7.20696],[-8.33182,7.20339],[-8.3392,7.21109],[-8.3359,7.212],[-8.33575,7.21596],[-8.34044,7.21985],[-8.34052,7.22658],[-8.34465,7.22795],[-8.3464,7.22529],[-8.34935,7.22845],[-8.34696,7.23116],[-8.36531,7.24053],[-8.36587,7.24703],[-8.36932,7.24748],[-8.3622,7.25483],[-8.36352,7.25859],[-8.35755,7.26249],[-8.35585,7.27203],[-8.36127,7.27793],[-8.36494,7.27648],[-8.36592,7.28975],[-8.3703,7.29022],[-8.37652,7.29928],[-8.37659,7.30446],[-8.39555,7.32797],[-8.39417,7.34047],[-8.396,7.34849],[-8.39932,7.34976],[-8.39685,7.35819],[-8.39945,7.37812],[-8.39719,7.39241],[-8.40096,7.41301],[-8.40604,7.42095],[-8.41389,7.42564],[-8.41454,7.43149],[-8.41399,7.43758],[-8.40847,7.44262],[-8.40585,7.45889],[-8.40941,7.4642],[-8.41109,7.48542],[-8.41634,7.48966],[-8.41534,7.49916],[-8.4235,7.50986],[-8.42324,7.52789],[-8.42574,7.53453],[-8.43242,7.53732],[-8.45189,7.53098],[-8.46329,7.54091],[-8.47256,7.55664],[-8.45304,7.57324],[-8.44374,7.58551],[-8.43207,7.59341],[-8.40752,7.62332],[-8.39765,7.62796],[-8.38093,7.61972],[-8.38386,7.6022],[-8.3822,7.59309],[-8.36907,7.59351],[-8.35456,7.58742],[-8.35246,7.59052],[-8.34004,7.59175],[-8.33168,7.59802],[-8.33041,7.60757],[-8.31948,7.60688],[-8.30792,7.61219],[-8.29798,7.58501],[-8.26029,7.57366],[-8.22921,7.55214],[-8.21871,7.53872],[-8.21034,7.5369],[-8.20666,7.54007],[-8.20569,7.5484],[-8.18305,7.56144],[-8.18089,7.57007],[-8.17073,7.58388],[-8.18491,7.60822],[-8.17088,7.62654],[-8.16887,7.63523],[-8.17182,7.64026],[-8.15551,7.65541],[-8.14622,7.65577],[-8.1436,7.65974],[-8.14791,7.67508],[-8.14446,7.68638],[-8.13681,7.69232],[-8.13382,7.70321],[-8.11661,7.72375],[-8.11559,7.73476],[-8.1057,7.75304],[-8.10629,7.76318],[-8.10108,7.76637],[-8.10455,7.7813],[-8.09386,7.80058],[-8.1075,7.81473],[-8.11129,7.83753],[-8.1246,7.83499],[-8.12573,7.8479],[-8.13447,7.8603],[-8.13485,7.88311],[-8.12404,7.88964],[-8.11499,7.90094],[-8.11752,7.91364],[-8.11123,7.91719],[-8.11405,7.92568],[-8.10655,7.93295],[-8.10413,7.94203],[-8.09402,7.94986],[-8.09266,7.97144],[-8.08054,7.98893],[-8.08044,7.99669],[-8.07799,8.00048],[-8.06767,8.00214],[-8.06752,8.02605],[-8.06278,8.02875],[-8.06212,8.03702],[-8.04922,8.04648],[-8.04136,8.04567],[-8.03424,8.0378],[-8.03186,8.03982],[-8.02411,8.03548],[-8.01468,8.03704],[-8.00769,8.03417],[-8.01028,8.04248],[-8.00312,8.04245],[-7.99838,8.0476],[-7.98221,8.03505],[-7.98869,8.0275],[-7.98719,8.02393],[-7.98184,8.02338],[-7.98107,8.01728],[-7.96966,8.02403],[-7.96047,8.01965],[-7.95843,8.02123],[-7.94741,8.01181],[-7.94396,8.01705],[-7.95,8.03263],[-7.94368,8.04891],[-7.95571,8.05403],[-7.95869,8.05088],[-7.96607,8.06666],[-7.97083,8.06995],[-7.97268,8.0771],[-7.97045,8.07906],[-7.97461,8.08664],[-7.98645,8.09082],[-7.99327,8.09801],[-7.99681,8.09884],[-8.00149,8.09485],[-8.01258,8.10161],[-8.01295,8.10824],[-8.00707,8.12083],[-8.00023,8.12097],[-7.99273,8.12812],[-7.99668,8.13577],[-7.99447,8.15163],[-7.99757,8.15553],[-7.99325,8.17574],[-7.98182,8.19159],[-7.98706,8.19746],[-7.99738,8.19777],[-8.0014,8.19176],[-8.01259,8.18764],[-8.01643,8.18124],[-8.01989,8.18201],[-8.02606,8.19101],[-8.02475,8.19332],[-8.03469,8.19463],[-8.03352,8.18048],[-8.04139,8.18182],[-8.04567,8.17146],[-8.04422,8.16772],[-8.05278,8.1601],[-8.05216,8.15582],[-8.05747,8.15862],[-8.06781,8.15745],[-8.07633,8.16177],[-8.07913,8.16948],[-8.08922,8.17724],[-8.09554,8.17732],[-8.10033,8.18194],[-8.10967,8.18386],[-8.11465,8.17969],[-8.14099,8.1904],[-8.15182,8.18469],[-8.16345,8.18765],[-8.16515,8.18396],[-8.17374,8.18491],[-8.18473,8.20757],[-8.19196,8.20773],[-8.19581,8.2159],[-8.20413,8.21231],[-8.20577,8.22319],[-8.2228,8.23082],[-8.22621,8.22833],[-8.23134,8.2328],[-8.24304,8.23422],[-8.24046,8.2455],[-8.24371,8.25005],[-8.23794,8.2676],[-8.22242,8.2762],[-8.22383,8.27936],[-8.21765,8.2962],[-8.22863,8.32214],[-8.21501,8.35958],[-8.21952,8.37384],[-8.23035,8.38605],[-8.23061,8.39887],[-8.22602,8.4034],[-8.23801,8.41562],[-8.23412,8.42215],[-8.24095,8.43074],[-8.23977,8.44459],[-8.23459,8.45507],[-8.23807,8.45951],[-8.23602,8.46418],[-8.23012,8.46778],[-8.22456,8.46413],[-8.21465,8.46381],[-8.21804,8.46993],[-8.21591,8.47418],[-8.20629,8.47569],[-8.19433,8.48843],[-8.18767,8.50005],[-8.1902,8.50097],[-8.18892,8.50658],[-8.17841,8.50535],[-8.17557,8.5007],[-8.16729,8.50261],[-8.15997,8.49273],[-8.1574,8.49613],[-8.14902,8.49608],[-8.15083,8.48588],[-8.14701,8.48449],[-8.14747,8.48779],[-8.13754,8.48967],[-8.13727,8.49653],[-8.13204,8.49571],[-8.12886,8.48874],[-8.11988,8.48557],[-8.11771,8.48948],[-8.1097,8.48909],[-8.11081,8.48356],[-8.0991,8.48662],[-8.0992,8.49145],[-8.0942,8.49185],[-8.08906,8.51024],[-8.08595,8.50958],[-8.08436,8.50364],[-8.07016,8.50025],[-8.06282,8.51107],[-8.05764,8.50515],[-8.05113,8.50745],[-8.0477,8.50154],[-8.03809,8.49793],[-8.03169,8.49683],[-8.01797,8.50106],[-8.01398,8.49429],[-8.00453,8.48988],[-8.00169,8.49643],[-7.98772,8.48831],[-7.98183,8.49073],[-7.97654,8.48909],[-7.97634,8.50258],[-7.96925,8.50029],[-7.96407,8.50486],[-7.95769,8.49623],[-7.95562,8.50064],[-7.94525,8.49899],[-7.93131,8.50982],[-7.9269,8.49794],[-7.90783,8.49094],[-7.9098,8.48668],[-7.9153,8.48852],[-7.91082,8.47455],[-7.90554,8.47128],[-7.90651,8.46301],[-7.90987,8.46215],[-7.91093,8.47124],[-7.91324,8.47107],[-7.91285,8.46717],[-7.91803,8.46452],[-7.92177,8.45379],[-7.90698,8.45582],[-7.90434,8.45357],[-7.90847,8.44175],[-7.90528,8.43971],[-7.89732,8.44192],[-7.88764,8.43588],[-7.88159,8.44025],[-7.88111,8.42069],[-7.87674,8.4272],[-7.86636,8.42324],[-7.85682,8.42554],[-7.85146,8.43041],[-7.83856,8.42653],[-7.82349,8.44302],[-7.82241,8.44616],[-7.82869,8.44855],[-7.82577,8.45826],[-7.83535,8.4734],[-7.82848,8.47598],[-7.82712,8.48072],[-7.82986,8.48429],[-7.82643,8.49551],[-7.81837,8.4939],[-7.81176,8.484],[-7.7986,8.48645],[-7.79533,8.47755],[-7.78624,8.47478],[-7.7792,8.46146],[-7.77757,8.44993],[-7.76813,8.43639],[-7.76311,8.4188],[-7.75567,8.40853],[-7.75646,8.39829],[-7.74128,8.37766],[-7.71794,8.38144],[-7.69738,8.375],[-7.68507,8.37914],[-7.68159,8.37514],[-7.66499,8.38285],[-7.66012,8.374],[-7.64854,8.37781],[-7.645,8.37497],[-7.63825,8.37628],[-7.63843,8.38053],[-7.64793,8.38729],[-7.64937,8.40107],[-7.65481,8.40415],[-7.65592,8.40934],[-7.66187,8.4079],[-7.66885,8.42365],[-7.67287,8.42565],[-7.67758,8.44092],[-7.67059,8.45046],[-7.67368,8.46496],[-7.67103,8.46991],[-7.66394,8.47252],[-7.6638,8.48582],[-7.65893,8.49662],[-7.69851,8.56613],[-7.68064,8.58767],[-7.67807,8.60342],[-7.67164,8.61803],[-7.68898,8.64713],[-7.73269,8.65884],[-7.755,8.69573],[-7.75191,8.71384],[-7.76147,8.7309],[-7.77643,8.73154],[-7.7913,8.74191],[-7.78666,8.75942],[-7.78823,8.76753],[-7.7933,8.76535],[-7.80868,8.76819],[-7.81638,8.76649],[-7.82209,8.75949],[-7.8316,8.75994],[-7.83073,8.76858],[-7.8357,8.77209],[-7.84449,8.7734],[-7.84869,8.77804],[-7.85357,8.77461],[-7.86371,8.77536],[-7.86912,8.78874],[-7.87653,8.79136],[-7.8828,8.78844],[-7.89561,8.78915],[-7.89699,8.78149],[-7.91096,8.77452],[-7.93211,8.77699],[-7.93886,8.78546],[-7.94946,8.79008],[-7.95113,8.809],[-7.96053,8.81459],[-7.96733,8.82582],[-7.97069,8.82539],[-7.97455,8.83102],[-7.96893,8.84003],[-7.95507,8.84198],[-7.9557,8.84531],[-7.95166,8.84911],[-7.93764,8.84905],[-7.93312,8.87602],[-7.92501,8.88401],[-7.94214,8.89045],[-7.94237,8.90046],[-7.91651,8.93638],[-7.92614,8.94419],[-7.92954,8.95863],[-7.92728,8.9678],[-7.93471,8.98162],[-7.92712,8.99566],[-7.89875,9.01203],[-7.89868,9.02519],[-7.88377,9.03074],[-7.86821,9.02924],[-7.85617,9.03342],[-7.8484,9.04412],[-7.84869,9.05802],[-7.84026,9.06622],[-7.82215,9.0636],[-7.8054,9.07392],[-7.77725,9.07442],[-7.76695,9.07302],[-7.75088,9.0653],[-7.73733,9.06423],[-7.72656,9.07282],[-7.73168,9.08218],[-7.78229,9.10634],[-7.79947,9.12809],[-7.80564,9.13144],[-7.80746,9.14324],[-7.81909,9.15032],[-7.82324,9.15688],[-7.82344,9.16889],[-7.82036,9.17324],[-7.82403,9.17646],[-7.84958,9.17935],[-7.85503,9.16882],[-7.87027,9.15904],[-7.88253,9.16152],[-7.90536,9.17888],[-7.9145,9.18981],[-7.91671,9.20634],[-7.91978,9.20879],[-7.91839,9.22286],[-7.91135,9.22988],[-7.90924,9.2391],[-7.90582,9.23925],[-7.89474,9.2717],[-7.89059,9.27276],[-7.88876,9.28192],[-7.88343,9.28277],[-7.88893,9.2846],[-7.88159,9.29283],[-7.87634,9.29371],[-7.88048,9.31212],[-7.87736,9.32002],[-7.88249,9.33153],[-7.87971,9.33807],[-7.88164,9.33999],[-7.87595,9.34802],[-7.87674,9.35614],[-7.86876,9.36276],[-7.87289,9.36637],[-7.86001,9.37575],[-7.86374,9.38203],[-7.86134,9.38178],[-7.85606,9.39222],[-7.85562,9.40751],[-7.85117,9.41204],[-7.85271,9.41465],[-7.84911,9.42152],[-7.89095,9.41906],[-7.91798,9.42124],[-7.92382,9.41361],[-7.95484,9.41009],[-7.97486,9.39851],[-7.9966,9.3982],[-8.00641,9.40269],[-8.01337,9.39589],[-8.0222,9.39792],[-8.03545,9.39579],[-8.0384,9.40642],[-8.04325,9.40778],[-8.04946,9.41643],[-8.05208,9.41542],[-8.06525,9.42617],[-8.06687,9.42434],[-8.07764,9.43722],[-8.08597,9.44004],[-8.09183,9.45432],[-8.09677,9.45735],[-8.09809,9.46264],[-8.10097,9.4612],[-8.10501,9.4761],[-8.11374,9.48194],[-8.11485,9.48768],[-8.11751,9.48722],[-8.12409,9.50716],[-8.12875,9.5076],[-8.12439,9.52405],[-8.14003,9.52978],[-8.13773,9.54524],[-8.14359,9.54916],[-8.13961,9.55679],[-8.14286,9.56237],[-8.137,9.56253],[-8.13505,9.57499],[-8.14405,9.59015],[-8.14002,9.60835],[-8.1332,9.61364],[-8.14102,9.62201],[-8.14508,9.62196],[-8.14456,9.62558],[-8.14059,9.62776],[-8.13517,9.62224],[-8.1319,9.62389],[-8.13387,9.62864],[-8.12473,9.63281],[-8.12129,9.64055],[-8.12386,9.64261],[-8.1152,9.65357],[-8.11854,9.66005],[-8.12667,9.66541],[-8.11936,9.66668],[-8.11818,9.66973],[-8.1252,9.67837],[-8.12282,9.68866],[-8.1269,9.68771],[-8.12762,9.69104],[-8.12355,9.69258],[-8.12459,9.69913],[-8.1121,9.70601],[-8.11502,9.70907],[-8.11148,9.71423],[-8.11698,9.72002],[-8.11681,9.73],[-8.11343,9.73305],[-8.12222,9.7416],[-8.11108,9.75286],[-8.1214,9.75831],[-8.12086,9.76056],[-8.10187,9.76306],[-8.1102,9.77527],[-8.11232,9.79113],[-8.09702,9.79319],[-8.11174,9.8056],[-8.10971,9.80996],[-8.09841,9.80514],[-8.09551,9.80875],[-8.09486,9.82406],[-8.09771,9.82613],[-8.09234,9.83348],[-8.09522,9.83661],[-8.09713,9.83305],[-8.10145,9.83847],[-8.09634,9.84403],[-8.09763,9.85323],[-8.09487,9.85994],[-8.10286,9.87325],[-8.12337,9.86964],[-8.13141,9.86364],[-8.13899,9.86898],[-8.13967,9.88483],[-8.13629,9.88671],[-8.13144,9.87911],[-8.12785,9.88009],[-8.12072,9.90137],[-8.12305,9.90638],[-8.13329,9.9104],[-8.1283,9.91505],[-8.13212,9.91756],[-8.15177,9.90945],[-8.16132,9.92993],[-8.14789,9.93666],[-8.14702,9.94031],[-8.16362,9.94679],[-8.16349,9.95024],[-8.16128,9.95293],[-8.14447,9.94929],[-8.12878,9.95924],[-8.11807,9.95636],[-8.11212,9.96201],[-8.11483,9.97969],[-8.12113,9.97998],[-8.13086,9.97056],[-8.13484,9.9706],[-8.14401,9.97511],[-8.14711,9.98346],[-8.1455,9.98756],[-8.13086,9.99584],[-8.1269,10.01061],[-8.12859,10.01457],[-8.1228,10.01973],[-8.1211,10.03088],[-8.12396,10.03451],[-8.11817,10.05277],[-8.11947,10.05646],[-8.11115,10.05827],[-8.10176,10.06543],[-8.09134,10.06197],[-8.07711,10.06259],[-8.07955,10.07237],[-8.06424,10.06999],[-8.05306,10.07974],[-8.03573,10.08441],[-8.02907,10.09317],[-8.02445,10.09078],[-8.02057,10.09161],[-8.02066,10.09465],[-8.00881,10.09732],[-8.01336,10.10715],[-8.01352,10.12038],[-8.00915,10.1305],[-8.01424,10.13469],[-8.00711,10.14213],[-7.9978,10.14303],[-7.9945,10.14673],[-7.99127,10.15483],[-7.99263,10.164],[-7.98702,10.17307],[-7.98125,10.17113],[-7.97301,10.16126],[-7.93927,10.15186],[-7.92685,10.15953],[-7.92244,10.15872],[-7.91903,10.16278],[-7.92032,10.1685],[-7.90706,10.17117],[-7.90272,10.18936],[-7.89404,10.1988],[-7.87436,10.20427],[-7.87317,10.20165],[-7.85513,10.19915],[-7.85507,10.20295],[-7.84981,10.20541],[-7.85363,10.20703],[-7.85312,10.21091],[-7.84673,10.2082],[-7.83871,10.21491],[-7.83692,10.21169],[-7.83468,10.2134],[-7.83558,10.21884],[-7.83034,10.22468],[-7.83083,10.22904],[-7.82211,10.22919],[-7.82089,10.2339],[-7.81411,10.23607],[-7.81481,10.24191],[-7.81002,10.24203],[-7.81143,10.23811],[-7.80671,10.23633],[-7.80459,10.24056],[-7.8075,10.24249],[-7.803,10.24803],[-7.79816,10.24846],[-7.8004,10.25941],[-7.79364,10.26334],[-7.79417,10.26685],[-7.789,10.26612],[-7.79307,10.26915],[-7.78776,10.27386],[-7.7872,10.27988],[-7.78391,10.27774],[-7.76901,10.2827],[-7.76497,10.28688],[-7.76559,10.29361],[-7.75839,10.29301],[-7.76138,10.29821],[-7.76,10.30212],[-7.74904,10.30494],[-7.75758,10.31237],[-7.76518,10.30717],[-7.77269,10.31141],[-7.76998,10.31688],[-7.75031,10.32335],[-7.75325,10.34458],[-7.74104,10.34736],[-7.73058,10.34407],[-7.72301,10.34624],[-7.72122,10.34968],[-7.71838,10.36486],[-7.72347,10.37226],[-7.73679,10.37054],[-7.73932,10.37335],[-7.73212,10.3749],[-7.71821,10.38695],[-7.7182,10.39581],[-7.71468,10.4006],[-7.70732,10.4014],[-7.70166,10.39842],[-7.68597,10.40259],[-7.67444,10.41956],[-7.66994,10.41671],[-7.66209,10.43008],[-7.63906,10.44577],[-7.6274,10.46086],[-7.62307,10.46143],[-7.60862,10.44746],[-7.59597,10.41896],[-7.58457,10.42415],[-7.56207,10.42225],[-7.5561,10.41761],[-7.55475,10.40799],[-7.55132,10.40594],[-7.53982,10.41632],[-7.54326,10.428],[-7.5252,10.44549],[-7.52998,10.45023],[-7.52944,10.45507],[-7.52486,10.45841],[-7.513,10.46006],[-7.49801,10.45592],[-7.48649,10.45675],[-7.45711,10.44992],[-7.4586,10.4466],[-7.45513,10.44311],[-7.44978,10.4448],[-7.44665,10.44206],[-7.44922,10.43752],[-7.44489,10.4342],[-7.44756,10.43115],[-7.44029,10.42558],[-7.43969,10.42085],[-7.45317,10.41229],[-7.44733,10.40823],[-7.44937,10.40472],[-7.45346,10.40533],[-7.44634,10.39648],[-7.44956,10.39302],[-7.44727,10.38786],[-7.44294,10.38797],[-7.44045,10.37349],[-7.43389,10.37164],[-7.43533,10.36409],[-7.42681,10.35868],[-7.42831,10.35483],[-7.42362,10.35225],[-7.42425,10.34966],[-7.4285,10.34988],[-7.42897,10.3443],[-7.43494,10.34509],[-7.43539,10.34204],[-7.42628,10.34254],[-7.42413,10.33567],[-7.41618,10.34512],[-7.40407,10.34586],[-7.3911,10.35122],[-7.38645,10.34795],[-7.37127,10.34762],[-7.35783,10.32931],[-7.36067,10.3047],[-7.35856,10.28987],[-7.36361,10.27341],[-7.37358,10.2668],[-7.3834,10.26567],[-7.38792,10.25786],[-7.38259,10.25765],[-7.37719,10.24518],[-7.3719,10.24454],[-7.36809,10.25007],[-7.36633,10.24395],[-7.36128,10.24106],[-7.35402,10.24383],[-7.35099,10.24056],[-7.34566,10.24255],[-7.34593,10.2391],[-7.33991,10.23576],[-7.32622,10.23893],[-7.31518,10.25186],[-7.30382,10.2519],[-7.29896,10.25655],[-7.28736,10.25747],[-7.27892,10.26504],[-7.27379,10.26446],[-7.26853,10.25809],[-7.15007,10.25066],[-7.1357,10.24263],[-7.1224,10.22333],[-7.1099,10.21357],[-7.08096,10.20676],[-7.08019,10.19946],[-7.07589,10.19586],[-7.08639,10.16505],[-7.08032,10.16081],[-7.07065,10.16006],[-7.06364,10.15013],[-7.05643,10.15327],[-7.03298,10.14609],[-7.02908,10.14186],[-7.02088,10.1448],[-7.0158,10.14904],[-7.01386,10.15676],[-7.00928,10.15599],[-7.00788,10.1603],[-6.99516,10.16885],[-6.98584,10.18604],[-6.97941,10.21769],[-7.01368,10.23995],[-7.01587,10.245],[-7.01175,10.24897],[-7.01252,10.26271],[-7.00179,10.27232],[-7.0012,10.27825],[-6.99739,10.27815],[-6.98668,10.28716],[-6.98274,10.30465],[-6.97637,10.30822],[-6.97186,10.30504],[-6.96362,10.31288],[-6.96091,10.31806],[-6.96266,10.32609],[-6.95235,10.33129],[-6.94766,10.33858],[-6.94636,10.34952],[-6.9413,10.34884],[-6.93682,10.35525]]],[[[-3.10602,5.09086],[-3.27832,5.12364],[-3.28257,5.12879],[-3.28192,5.1315],[-3.27395,5.12854],[-3.26753,5.13692],[-3.26148,5.13499],[-3.23796,5.14389],[-3.22433,5.14158],[-3.21224,5.13178],[-3.19527,5.13192],[-3.19398,5.12754],[-3.19218,5.13037],[-3.18318,5.13012],[-3.17958,5.13644],[-3.17598,5.13682],[-3.17598,5.1318],[-3.18138,5.13012],[-3.18086,5.12754],[-3.17752,5.1278],[-3.17623,5.12342],[-3.17401,5.12616],[-3.16903,5.11787],[-3.16363,5.12084],[-3.16557,5.13528],[-3.16312,5.13489],[-3.16119,5.13193],[-3.14358,5.12781],[-3.14808,5.1211],[-3.14538,5.11749],[-3.12995,5.11118],[-3.1266,5.11415],[-3.10916,5.11664],[-3.10602,5.09086]]],[[[-3.16981,5.1425],[-3.1657,5.15242],[-3.16506,5.14611],[-3.16981,5.1425]]],[[[-3.25801,5.13963],[-3.24748,5.15743],[-3.23771,5.16155],[-3.20633,5.15564],[-3.20581,5.14739],[-3.1963,5.14404],[-3.23693,5.14647],[-3.25801,5.13963]]],[[[-3.25287,5.15072],[-3.25288,5.15717],[-3.24992,5.16],[-3.25287,5.15072]]],[[[-3.27678,5.13047],[-3.28103,5.1355],[-3.2773,5.14787],[-3.26393,5.14788],[-3.25802,5.1618],[-3.25236,5.16387],[-3.25352,5.14917],[-3.25724,5.14389],[-3.27215,5.1395],[-3.27678,5.13047]]],[[[-3.27242,5.15432],[-3.27088,5.16103],[-3.27782,5.16631],[-3.27487,5.1716],[-3.26317,5.17031],[-3.26072,5.16696],[-3.26213,5.15794],[-3.27242,5.15432]]],[[[-3.27499,5.15806],[-3.27834,5.16309],[-3.27422,5.16257],[-3.27268,5.15948],[-3.27499,5.15806]]],[[[-3.28066,5.1752],[-3.28889,5.18319],[-3.284,5.18319],[-3.28066,5.1752]]],[[[-3.28219,5.15999],[-3.3038,5.16784],[-3.30277,5.1739],[-3.29943,5.17674],[-3.29274,5.17649],[-3.28991,5.17236],[-3.28254,5.17374],[-3.28438,5.16437],[-3.28219,5.15999]]],[[[-3.29659,5.1565],[-3.29814,5.15831],[-3.29454,5.1596],[-3.29376,5.15676],[-3.29659,5.1565]]],[[[-3.30508,5.16926],[-3.3092,5.17738],[-3.30393,5.17545],[-3.30508,5.16926]]],[[[-3.72714,5.23414],[-3.73152,5.2411],[-3.72921,5.24432],[-3.72419,5.24111],[-3.72393,5.23595],[-3.72714,5.23414]]],[[[-3.73563,5.23413],[-3.74361,5.24431],[-3.76882,5.24982],[-3.77142,5.2707],[-3.76345,5.27432],[-3.73348,5.26945],[-3.73563,5.23413]]],[[[-3.77733,5.26476],[-3.77965,5.26798],[-3.77553,5.26747],[-3.77733,5.26476]]],[[[-3.90187,5.31112],[-3.90483,5.31692],[-3.90033,5.3128],[-3.90187,5.31112]]],[[[-3.91884,5.31187],[-3.93505,5.31816],[-3.92683,5.32101],[-3.91988,5.31935],[-3.91641,5.31665],[-3.91884,5.31187]]],[[[-4.12553,5.26745],[-4.13107,5.26937],[-4.13238,5.28303],[-4.1302,5.28922],[-4.1248,5.29091],[-4.11348,5.28784],[-4.08572,5.2915],[-4.07568,5.28855],[-4.05229,5.29297],[-4.03582,5.28681],[-4.03068,5.28785],[-4.03838,5.28062],[-4.04145,5.26979],[-4.04493,5.27829],[-4.05329,5.27789],[-4.05716,5.28278],[-4.06589,5.27658],[-4.0695,5.28134],[-4.07039,5.27515],[-4.12553,5.26745]]],[[[-4.32356,5.2824],[-4.32949,5.28625],[-4.32898,5.2896],[-4.32411,5.29864],[-4.3164,5.29891],[-4.31316,5.28861],[-4.31946,5.28821],[-4.32356,5.2824]]],[[[-4.63146,5.22806],[-4.63198,5.23141],[-4.62838,5.2318],[-4.63146,5.22806]]],[[[-4.64661,5.22377],[-4.64893,5.22389],[-4.64715,5.23085],[-4.64097,5.23061],[-4.64661,5.22377]]],[[[-4.69946,5.1842],[-4.71952,5.18711],[-4.72673,5.1916],[-4.73829,5.1868],[-4.74655,5.20095],[-4.74605,5.20507],[-4.71135,5.2053],[-4.70493,5.21034],[-4.70443,5.21472],[-4.69801,5.21629],[-4.68947,5.19595],[-4.69946,5.1842]]],[[[-4.74656,5.20559],[-4.74503,5.2092],[-4.74323,5.2074],[-4.74656,5.20559]]],[[[-4.96255,5.14452],[-4.96731,5.14618],[-4.96797,5.15237],[-4.95487,5.15653],[-4.96255,5.14452]]],[[[-5.12634,5.1717],[-5.12956,5.17323],[-5.12867,5.17581],[-5.12623,5.17556],[-5.12634,5.1717]]],[[[-5.30966,5.19952],[-5.31072,5.2066],[-5.30787,5.20017],[-5.30966,5.19952]]],[[[-5.34898,5.13085],[-5.35309,5.13148],[-5.35003,5.1369],[-5.34617,5.13434],[-5.34898,5.13085]]],[[[-6.08013,4.96705],[-6.10065,4.97229],[-6.11636,4.98948],[-6.11443,4.99192],[-6.10827,4.99009],[-6.09594,4.99261],[-6.07953,4.98803],[-6.07213,4.97589],[-6.07457,4.97642],[-6.08013,4.96705]]],[[[-6.0976,4.96571],[-6.10478,4.96703],[-6.10579,4.97102],[-6.0976,4.96571]]],[[[-6.12874,5.00627],[-6.13256,5.01427],[-6.13769,5.01661],[-6.13854,5.02795],[-6.12475,5.01037],[-6.12874,5.00627]]],[[[-6.13998,5.02151],[-6.14264,5.02899],[-6.13932,5.02563],[-6.13998,5.02151]]],[[[-6.19329,5.04389],[-6.20099,5.04586],[-6.2093,5.05323],[-6.20929,5.05607],[-6.20479,5.05772],[-6.19453,5.0551],[-6.1791,5.05903],[-6.16476,5.04931],[-6.17401,5.05012],[-6.1838,5.04218],[-6.19329,5.04389]]],[[[-6.245,5.26147],[-6.24369,5.26842],[-6.23997,5.26712],[-6.245,5.26147]]],[[[-7.55537,4.3782],[-7.55023,4.37845],[-7.54613,4.3738],[-7.55537,4.3782]]],[[[-7.56352,4.54304],[-7.562,4.54368],[-7.5584,4.54186],[-7.56352,4.54304]]],[[[-7.56453,4.38746],[-7.56793,4.39111],[-7.56984,4.39731],[-7.56453,4.38746]]]]}}]}