{"type":"FeatureCollection","features":[{"type":"Feature","properties":{"ISO_A3":"CMR","WB_A3":"CMR","WB_NAME":"Cameroon","WB_REGION":"AFW,SSF"},"geometry":{"type":"MultiPolygon","coordinates":[[[[9.70473,6.51213],[9.70843,6.51782],[9.71086,6.54093],[9.72329,6.57583],[9.72772,6.59997],[9.73972,6.62356],[9.74002,6.6348],[9.74528,6.64884],[9.75129,6.65265],[9.75361,6.65891],[9.75379,6.67482],[9.75051,6.67869],[9.76505,6.67925],[9.76517,6.69095],[9.75663,6.69594],[9.76061,6.70271],[9.76243,6.71197],[9.7603,6.71672],[9.76395,6.72289],[9.76849,6.74908],[9.76791,6.75683],[9.76411,6.76024],[9.77013,6.76555],[9.77909,6.79409],[9.78445,6.78992],[9.79224,6.78912],[9.79443,6.78499],[9.80227,6.78477],[9.80649,6.79031],[9.81622,6.78123],[9.82529,6.78273],[9.84477,6.77887],[9.8521,6.78089],[9.86119,6.77624],[9.92619,6.83159],[9.95971,6.86748],[9.99609,6.89791],[10.01261,6.90382],[10.01829,6.92035],[10.03092,6.92326],[10.0549,6.94429],[10.08947,6.98232],[10.11893,7.00576],[10.15053,7.03838],[10.16232,7.03524],[10.15831,7.02081],[10.17644,7.01313],[10.16603,7.00195],[10.17077,6.99364],[10.16906,6.99139],[10.17383,6.98606],[10.1785,6.98608],[10.17832,6.97124],[10.18117,6.96793],[10.17218,6.94178],[10.21554,6.88935],[10.46259,6.91883],[10.46852,6.91808],[10.47431,6.90515],[10.49009,6.8988],[10.49461,6.91347],[10.51795,6.92466],[10.52954,6.92533],[10.53313,6.9369],[10.54141,6.93989],[10.54088,6.96002],[10.54336,6.97006],[10.55075,6.97586],[10.552,6.9933],[10.55629,7.00329],[10.55515,7.01385],[10.56109,7.03666],[10.55763,7.05433],[10.56041,7.0582],[10.55922,7.08516],[10.56404,7.08528],[10.56096,7.09062],[10.56588,7.12395],[10.56491,7.14091],[10.5679,7.15584],[10.57331,7.16099],[10.5801,7.15793],[10.58477,7.14945],[10.59425,7.14796],[10.59843,7.14042],[10.59922,7.11898],[10.60559,7.10671],[10.60437,7.09519],[10.59619,7.07582],[10.62386,7.05012],[10.65305,7.04275],[10.65737,7.05154],[10.67327,7.04333],[10.67987,7.03784],[10.67913,7.02365],[10.68309,7.01687],[10.70092,7.01259],[10.7084,6.99914],[10.72041,6.98865],[10.73341,6.9913],[10.73811,6.98884],[10.74699,6.97617],[10.74745,6.96947],[10.75796,6.96414],[10.76404,6.95618],[10.77947,6.96708],[10.79006,6.96009],[10.79942,6.96193],[10.81048,6.94987],[10.83839,6.93761],[10.84123,6.93027],[10.84,6.92275],[10.82164,6.87624],[10.82313,6.86687],[10.81752,6.8634],[10.8141,6.85518],[10.81926,6.84869],[10.81627,6.84377],[10.83669,6.81238],[10.84553,6.8104],[10.84738,6.80594],[10.85318,6.8104],[10.87658,6.79568],[10.88668,6.77229],[10.89581,6.76237],[10.89966,6.76256],[10.9022,6.7729],[10.90984,6.76688],[10.91383,6.75776],[10.9115,6.73865],[10.91631,6.70903],[10.92705,6.70377],[10.9447,6.68751],[10.94815,6.69537],[10.96449,6.69138],[10.96575,6.68736],[10.97339,6.69111],[10.98621,6.68693],[10.99172,6.69082],[10.99372,6.6874],[11.00591,6.69449],[11.03014,6.71445],[11.05338,6.70787],[11.058,6.71544],[11.06945,6.70933],[11.08409,6.68961],[11.09632,6.6796],[11.09816,6.67287],[11.09362,6.65881],[11.09299,6.62308],[11.09089,6.62183],[11.09347,6.61941],[11.09262,6.60413],[11.09601,6.59948],[11.09355,6.59664],[11.09638,6.58866],[11.093,6.57118],[11.09609,6.55342],[11.09493,6.52645],[11.09775,6.51983],[11.11431,6.51407],[11.12995,6.5285],[11.13702,6.53026],[11.13826,6.51081],[11.14472,6.50415],[11.16747,6.5002],[11.18102,6.50912],[11.19002,6.50924],[11.1906,6.51272],[11.19804,6.51038],[11.1991,6.51827],[11.19474,6.53093],[11.19742,6.53773],[11.20929,6.53418],[11.21137,6.53829],[11.21949,6.53761],[11.22194,6.54007],[11.22497,6.53383],[11.23607,6.53282],[11.23838,6.52523],[11.24514,6.52148],[11.25164,6.52869],[11.25748,6.52512],[11.26475,6.53585],[11.27056,6.53783],[11.28077,6.53697],[11.28391,6.53213],[11.29584,6.52835],[11.3098,6.51662],[11.31083,6.51103],[11.3178,6.5049],[11.32263,6.50863],[11.33057,6.50284],[11.33639,6.50783],[11.34598,6.50003],[11.3537,6.50099],[11.35463,6.50357],[11.35883,6.50187],[11.35824,6.50612],[11.34944,6.51103],[11.35336,6.52379],[11.36319,6.52718],[11.37703,6.52227],[11.38401,6.52456],[11.38594,6.52907],[11.42719,6.53053],[11.42788,6.53471],[11.41816,6.53701],[11.41807,6.54253],[11.43426,6.54804],[11.43349,6.55599],[11.42761,6.55606],[11.42552,6.57624],[11.42777,6.57842],[11.4219,6.58706],[11.41497,6.58924],[11.41691,6.59808],[11.42308,6.59644],[11.42422,6.60128],[11.43396,6.5992],[11.44048,6.60309],[11.44636,6.59942],[11.46292,6.61136],[11.47239,6.6022],[11.48124,6.60231],[11.48294,6.59797],[11.49558,6.59965],[11.50318,6.61058],[11.50784,6.60985],[11.50887,6.61333],[11.51715,6.61186],[11.52048,6.61499],[11.51778,6.62816],[11.52447,6.63617],[11.52547,6.64563],[11.53385,6.64645],[11.53549,6.65005],[11.53254,6.656],[11.55298,6.66438],[11.55471,6.66913],[11.54746,6.67896],[11.55318,6.68439],[11.54781,6.69187],[11.54609,6.70108],[11.55341,6.70755],[11.55029,6.71444],[11.55683,6.71769],[11.55608,6.7222],[11.57409,6.72398],[11.57306,6.73201],[11.58401,6.73373],[11.58569,6.73925],[11.58117,6.75474],[11.57374,6.76164],[11.57524,6.76849],[11.56943,6.7718],[11.57057,6.78207],[11.57653,6.79278],[11.5824,6.79272],[11.58663,6.7979],[11.59264,6.79846],[11.59484,6.80339],[11.5867,6.81565],[11.57775,6.81769],[11.58045,6.82633],[11.57942,6.84189],[11.57198,6.8457],[11.57036,6.84997],[11.55491,6.85292],[11.55313,6.85913],[11.56645,6.87503],[11.5626,6.8814],[11.57129,6.8907],[11.56992,6.89518],[11.57307,6.89628],[11.57324,6.90141],[11.5793,6.90229],[11.5842,6.90829],[11.59073,6.90522],[11.5926,6.90792],[11.59845,6.90657],[11.60798,6.91623],[11.60431,6.93434],[11.60994,6.93664],[11.60761,6.94134],[11.61202,6.94033],[11.62453,6.95167],[11.61821,6.97644],[11.63006,6.98391],[11.63084,6.98947],[11.64787,6.99052],[11.65768,6.98647],[11.65614,6.99739],[11.66994,6.99809],[11.67212,7.00615],[11.67519,7.00451],[11.67996,7.00757],[11.6786,7.01508],[11.69249,7.02499],[11.71212,7.03226],[11.71546,7.03624],[11.71223,7.03992],[11.71941,7.04721],[11.73703,7.05021],[11.7726,7.04233],[11.77899,7.04591],[11.78655,7.06159],[11.78669,7.06838],[11.79549,7.07182],[11.80372,7.08261],[11.81762,7.07652],[11.82744,7.06742],[11.83357,7.07366],[11.83114,7.08169],[11.83764,7.08809],[11.84094,7.08458],[11.84593,7.08764],[11.85009,7.07984],[11.856,7.08207],[11.86709,7.07496],[11.86615,7.0806],[11.86991,7.0846],[11.86742,7.09033],[11.8777,7.09641],[11.88084,7.10721],[11.86672,7.12772],[11.8603,7.14387],[11.86116,7.15124],[11.86567,7.15679],[11.85658,7.16764],[11.85913,7.17546],[11.86573,7.18176],[11.85618,7.19292],[11.86007,7.20556],[11.85653,7.21536],[11.86714,7.22102],[11.86431,7.22728],[11.86859,7.22984],[11.86813,7.23399],[11.88137,7.24493],[11.88082,7.24836],[11.8732,7.2508],[11.87003,7.24899],[11.85521,7.25489],[11.84756,7.25284],[11.84193,7.26667],[11.84534,7.27415],[11.85382,7.27614],[11.86064,7.2925],[11.86016,7.2998],[11.86404,7.30008],[11.87501,7.31722],[11.88067,7.31658],[11.88092,7.32136],[11.88582,7.32439],[11.88007,7.33612],[11.88211,7.3407],[11.87931,7.34742],[11.88529,7.35294],[11.88194,7.35744],[11.88354,7.36322],[11.89092,7.36254],[11.9058,7.38233],[11.91468,7.386],[11.91984,7.38452],[11.92839,7.39441],[11.92461,7.41244],[11.92708,7.42015],[11.92316,7.42524],[11.93126,7.43834],[11.91539,7.45248],[11.91429,7.46666],[11.93183,7.48596],[11.95177,7.48802],[11.95972,7.48589],[11.95954,7.49282],[11.96607,7.49503],[11.9715,7.50215],[11.98621,7.50895],[11.99288,7.50862],[11.9954,7.51216],[12.00145,7.51074],[12.00869,7.52193],[12.01936,7.522],[12.02507,7.52734],[12.0154,7.5359],[12.01495,7.54251],[12.00893,7.54547],[12.01462,7.56357],[12.00426,7.57993],[12.01193,7.59221],[12.00475,7.60514],[12.01071,7.61447],[12.0081,7.62281],[12.01181,7.63091],[12.00343,7.63818],[12.00738,7.64857],[11.9964,7.6675],[11.99754,7.67611],[12.00034,7.67923],[12.00692,7.67546],[12.01465,7.67771],[12.01772,7.6826],[12.01561,7.68937],[12.01997,7.69463],[12.01827,7.69704],[12.02403,7.69833],[12.02399,7.70541],[12.02811,7.70784],[12.03036,7.71597],[12.03754,7.71832],[12.03829,7.73236],[12.04351,7.73624],[12.05033,7.73434],[12.05403,7.74038],[12.05358,7.75206],[12.06323,7.75773],[12.057,7.76925],[12.06984,7.78416],[12.06824,7.78916],[12.07245,7.79884],[12.07749,7.80027],[12.16243,7.90296],[12.163,7.91318],[12.17507,7.92844],[12.17929,7.92867],[12.18407,7.93692],[12.19472,7.94122],[12.19168,7.9458],[12.19403,7.95173],[12.18984,7.95601],[12.20626,7.96673],[12.20962,7.98255],[12.2145,7.98261],[12.20095,8.00727],[12.20395,8.01866],[12.19875,8.03724],[12.20151,8.04934],[12.19945,8.06972],[12.1936,8.08114],[12.19114,8.09725],[12.19262,8.1081],[12.20008,8.12069],[12.21973,8.13144],[12.23216,8.15615],[12.24979,8.1732],[12.24379,8.38656],[12.25286,8.41698],[12.2602,8.42485],[12.25958,8.44149],[12.26748,8.44816],[12.28354,8.44622],[12.2856,8.44351],[12.29355,8.44505],[12.3022,8.44143],[12.31056,8.42653],[12.3395,8.43032],[12.33301,8.44799],[12.34235,8.45992],[12.34804,8.45781],[12.35203,8.46543],[12.36234,8.46904],[12.37989,8.484],[12.39526,8.47676],[12.39579,8.48874],[12.40177,8.49265],[12.41015,8.49167],[12.40714,8.50149],[12.41149,8.50812],[12.43077,8.50434],[12.43785,8.51347],[12.44589,8.51668],[12.44937,8.52767],[12.46165,8.53723],[12.45998,8.55002],[12.44696,8.56816],[12.44481,8.58167],[12.44676,8.60189],[12.43712,8.60983],[12.43213,8.61942],[12.44478,8.61785],[12.46508,8.62217],[12.47001,8.62989],[12.47797,8.63156],[12.48774,8.6428],[12.50633,8.64189],[12.52237,8.6313],[12.53808,8.63156],[12.54338,8.62343],[12.54856,8.62184],[12.54752,8.61302],[12.56593,8.60721],[12.57188,8.60139],[12.59484,8.59635],[12.59276,8.59112],[12.59782,8.59065],[12.60292,8.599],[12.61467,8.59942],[12.62008,8.60422],[12.61036,8.6079],[12.602,8.60707],[12.60125,8.61248],[12.60736,8.61911],[12.60591,8.63395],[12.61156,8.63906],[12.63112,8.63663],[12.63577,8.64101],[12.63222,8.64503],[12.63539,8.64885],[12.64207,8.64607],[12.65407,8.65313],[12.67263,8.6474],[12.68546,8.6533],[12.68885,8.66198],[12.70146,8.66923],[12.69643,8.67915],[12.70239,8.68439],[12.7026,8.69061],[12.71066,8.70239],[12.70418,8.71825],[12.7118,8.73428],[12.70924,8.74047],[12.71531,8.74244],[12.71553,8.75847],[12.72018,8.76238],[12.73004,8.76207],[12.73493,8.75881],[12.7582,8.76037],[12.76749,8.74913],[12.77584,8.74786],[12.77998,8.74376],[12.78458,8.74555],[12.79274,8.76882],[12.79239,8.78309],[12.81253,8.80123],[12.80915,8.81094],[12.81016,8.81968],[12.81922,8.82968],[12.81518,8.83701],[12.8089,8.83762],[12.80942,8.84093],[12.80396,8.84673],[12.80564,8.84905],[12.80027,8.85435],[12.80358,8.86328],[12.8113,8.86904],[12.80709,8.87505],[12.80787,8.88942],[12.81081,8.88881],[12.81899,8.89642],[12.81795,8.90315],[12.81097,8.90531],[12.80591,8.91789],[12.81435,8.92357],[12.82279,8.97169],[12.86528,9.01752],[12.88776,9.07254],[12.88631,9.08127],[12.8914,9.08785],[12.88874,9.10295],[12.90093,9.11615],[12.89269,9.12808],[12.89698,9.1329],[12.89591,9.13641],[12.88444,9.14844],[12.88637,9.15984],[12.89371,9.16487],[12.89288,9.17379],[12.88831,9.17792],[12.89309,9.18254],[12.89342,9.19059],[12.89839,9.19433],[12.90233,9.20432],[12.89958,9.20767],[12.9009,9.22102],[12.90845,9.22254],[12.90848,9.23167],[12.91662,9.24861],[12.91209,9.26267],[12.91612,9.2711],[12.91404,9.27727],[12.91761,9.27889],[12.91883,9.28611],[12.90943,9.29899],[12.91469,9.31178],[12.91381,9.3238],[12.92494,9.33854],[12.92345,9.34146],[12.91286,9.3518],[12.90085,9.35487],[12.89076,9.35318],[12.8788,9.34565],[12.87388,9.34619],[12.8615,9.35617],[12.85458,9.36782],[12.84729,9.37188],[12.85121,9.37371],[12.86112,9.36832],[12.86839,9.36893],[12.87047,9.37361],[12.86852,9.37958],[12.8747,9.38376],[12.87871,9.3938],[12.88872,9.39809],[12.8899,9.39552],[12.89733,9.3965],[12.90581,9.40281],[12.9147,9.40457],[12.91885,9.41008],[12.92486,9.40793],[12.93597,9.41547],[12.93968,9.41496],[12.95136,9.43749],[12.96183,9.4403],[12.97368,9.45637],[12.97441,9.46809],[12.98405,9.4665],[13.00653,9.48139],[13.01084,9.48961],[13.02682,9.49755],[13.03463,9.50656],[13.04943,9.50511],[13.05944,9.50979],[13.06106,9.51373],[13.06831,9.51495],[13.08601,9.51099],[13.09347,9.52463],[13.10527,9.52253],[13.12532,9.52641],[13.15209,9.53945],[13.16301,9.53781],[13.16739,9.54289],[13.17561,9.54347],[13.19055,9.55815],[13.20528,9.55463],[13.21,9.5577],[13.22208,9.58183],[13.22712,9.58256],[13.22862,9.58745],[13.22535,9.59888],[13.23575,9.62178],[13.22976,9.63955],[13.23349,9.64297],[13.22836,9.64879],[13.23654,9.65982],[13.23485,9.66355],[13.23718,9.66673],[13.2305,9.67844],[13.23335,9.68612],[13.2473,9.69146],[13.24673,9.69533],[13.25138,9.69784],[13.24715,9.71109],[13.25237,9.71741],[13.24885,9.72196],[13.25964,9.73849],[13.25929,9.74614],[13.25594,9.74961],[13.2566,9.76271],[13.26072,9.76465],[13.26031,9.77509],[13.27292,9.79206],[13.28729,9.802],[13.29112,9.81291],[13.30151,9.82436],[13.2968,9.83397],[13.27558,9.84674],[13.27459,9.85023],[13.2497,9.8574],[13.24369,9.86301],[13.24612,9.8726],[13.24433,9.87842],[13.23833,9.88295],[13.24019,9.8888],[13.23704,9.89215],[13.23681,9.91113],[13.24865,9.92567],[13.25347,9.92708],[13.2547,9.92463],[13.2602,9.92874],[13.26496,9.92684],[13.26934,9.92934],[13.27043,9.93566],[13.28185,9.93862],[13.27715,9.94366],[13.28237,9.94715],[13.2869,9.96313],[13.28367,9.9653],[13.28785,9.97968],[13.27794,9.99012],[13.25258,9.99663],[13.24745,10.00371],[13.251,10.01591],[13.24769,10.0214],[13.25032,10.03043],[13.24854,10.03557],[13.28635,10.04586],[13.29727,10.05892],[13.29742,10.08647],[13.30647,10.09302],[13.30483,10.096],[13.32264,10.10937],[13.34314,10.11873],[13.34477,10.10749],[13.35899,10.10743],[13.36623,10.11343],[13.36463,10.11601],[13.37137,10.11843],[13.38274,10.11856],[13.39846,10.11299],[13.4006,10.12296],[13.39675,10.13696],[13.42115,10.12039],[13.42347,10.12229],[13.43271,10.11984],[13.4357,10.1428],[13.42793,10.14525],[13.42457,10.15601],[13.44622,10.15889],[13.45594,10.17041],[13.4645,10.16913],[13.46426,10.17662],[13.46879,10.18145],[13.47093,10.19234],[13.48346,10.19319],[13.48606,10.19994],[13.5019,10.21343],[13.50351,10.22071],[13.49685,10.23608],[13.50331,10.24596],[13.50067,10.25369],[13.50408,10.25854],[13.51687,10.26486],[13.52175,10.27292],[13.51827,10.28704],[13.53579,10.3267],[13.54127,10.36108],[13.5406,10.37409],[13.52522,10.3989],[13.51879,10.43686],[13.52005,10.45505],[13.52914,10.46244],[13.52809,10.47681],[13.5338,10.47657],[13.53994,10.48178],[13.53792,10.49786],[13.53341,10.49986],[13.54147,10.51295],[13.55166,10.51005],[13.56135,10.51589],[13.57088,10.50895],[13.57984,10.51666],[13.58872,10.51865],[13.59441,10.52568],[13.5824,10.54827],[13.56824,10.55919],[13.5738,10.56746],[13.57442,10.58481],[13.56496,10.60335],[13.56397,10.60721],[13.56731,10.61047],[13.56418,10.62077],[13.57888,10.62133],[13.57772,10.65512],[13.58913,10.66509],[13.58784,10.67456],[13.5818,10.67497],[13.57955,10.68689],[13.58459,10.69319],[13.60484,10.69506],[13.61387,10.70532],[13.62669,10.71147],[13.62709,10.71679],[13.62234,10.72103],[13.62789,10.72605],[13.63257,10.74737],[13.63603,10.74481],[13.63927,10.74919],[13.6436,10.74807],[13.64655,10.75632],[13.64555,10.76859],[13.65578,10.77646],[13.65563,10.78086],[13.64881,10.78304],[13.64849,10.7863],[13.63845,10.78701],[13.65051,10.81292],[13.65378,10.8156],[13.66591,10.81209],[13.67232,10.81441],[13.67543,10.83392],[13.68383,10.84729],[13.70053,10.84739],[13.70348,10.85841],[13.71676,10.86306],[13.72045,10.89826],[13.72449,10.90212],[13.73011,10.92409],[13.71168,10.94263],[13.7104,10.95989],[13.71127,10.96359],[13.72378,10.96633],[13.73049,10.97877],[13.73132,10.99965],[13.73534,11.00605],[13.76093,11.00178],[13.7924,11.00471],[13.79846,11.01444],[13.79632,11.02201],[13.81259,11.04902],[13.81536,11.06564],[13.82051,11.06753],[13.82439,11.06483],[13.8302,11.07904],[13.83904,11.08026],[13.84098,11.08647],[13.84591,11.08578],[13.85611,11.09567],[13.86004,11.09516],[13.85697,11.10172],[13.86178,11.10644],[13.85869,11.11072],[13.86487,11.11437],[13.8682,11.12272],[13.88124,11.1349],[13.87566,11.14077],[13.87977,11.15124],[13.88898,11.15979],[13.90092,11.16223],[13.90829,11.16846],[13.91301,11.18061],[13.91126,11.18606],[13.91612,11.19421],[13.92585,11.19736],[13.93425,11.20643],[13.94525,11.23978],[13.9513,11.24421],[13.95337,11.25718],[13.96452,11.2732],[13.96566,11.3],[13.97579,11.31085],[14.00393,11.30611],[14.04954,11.28405],[14.0719,11.2776],[14.07345,11.27105],[14.08674,11.26783],[14.09713,11.27799],[14.10166,11.27625],[14.10765,11.26674],[14.11417,11.26464],[14.11639,11.25818],[14.14536,11.25102],[14.15573,11.24214],[14.16286,11.24718],[14.17857,11.23977],[14.1923,11.24286],[14.2021,11.25533],[14.21737,11.26071],[14.22999,11.27634],[14.23912,11.29619],[14.27382,11.30668],[14.33903,11.34163],[14.41893,11.40479],[14.43036,11.42106],[14.44745,11.42071],[14.4715,11.42793],[14.47973,11.44159],[14.49403,11.45077],[14.51562,11.47443],[14.55447,11.4847],[14.57139,11.49746],[14.59392,11.50323],[14.61602,11.51646],[14.62331,11.5437],[14.62838,11.55375],[14.63492,11.55831],[14.6451,11.57822],[14.64285,11.59743],[14.65007,11.60961],[14.64246,11.63501],[14.64196,11.65614],[14.62425,11.66689],[14.62267,11.67494],[14.60806,11.68241],[14.60713,11.68985],[14.59815,11.70394],[14.58246,11.70218],[14.56682,11.71071],[14.55327,11.7124],[14.54721,11.7243],[14.55495,11.73119],[14.56973,11.73615],[14.57506,11.74997],[14.58277,11.75055],[14.58697,11.75628],[14.5995,11.76083],[14.60578,11.7733],[14.61394,11.77928],[14.61591,11.78661],[14.61159,11.78882],[14.60633,11.7991],[14.61101,11.82577],[14.6058,11.83742],[14.61561,11.85578],[14.60369,11.86928],[14.61919,11.88302],[14.62806,11.90412],[14.643,11.91185],[14.63404,11.93263],[14.65422,11.95607],[14.65641,11.96245],[14.65194,11.96899],[14.64441,11.97239],[14.63845,11.9851],[14.63306,12.001],[14.63247,12.01987],[14.6231,12.03046],[14.62224,12.04182],[14.62432,12.05041],[14.63115,12.05846],[14.65318,12.06354],[14.65065,12.07319],[14.64013,12.08063],[14.63603,12.09303],[14.65263,12.11133],[14.651,12.11403],[14.65597,12.11606],[14.65631,12.13097],[14.65257,12.1364],[14.67387,12.15489],[14.678,12.16421],[14.67654,12.17081],[14.67323,12.17646],[14.6637,12.18062],[14.66715,12.18736],[14.65998,12.19746],[14.64741,12.19415],[14.64064,12.19599],[14.63891,12.19133],[14.63064,12.19416],[14.62664,12.19129],[14.63009,12.18461],[14.62795,12.18223],[14.61342,12.18586],[14.61543,12.1919],[14.59895,12.19401],[14.59753,12.19662],[14.60904,12.20114],[14.60267,12.21315],[14.5941,12.21584],[14.59203,12.21944],[14.59498,12.22123],[14.59465,12.22725],[14.59009,12.22961],[14.57372,12.22726],[14.56908,12.23203],[14.54964,12.23619],[14.5481,12.23995],[14.55504,12.24587],[14.5594,12.2596],[14.54961,12.25769],[14.5434,12.27253],[14.54784,12.27946],[14.54642,12.28181],[14.52563,12.29158],[14.52068,12.29753],[14.51177,12.29646],[14.51511,12.30519],[14.51054,12.3155],[14.52077,12.31462],[14.52056,12.32653],[14.49657,12.33157],[14.49207,12.33769],[14.48391,12.34048],[14.48758,12.34704],[14.48226,12.35258],[14.47642,12.34607],[14.46382,12.36037],[14.44699,12.34971],[14.4439,12.35056],[14.44355,12.3629],[14.43075,12.37019],[14.4203,12.3613],[14.39838,12.36732],[14.37903,12.35838],[14.36862,12.36429],[14.34874,12.36429],[14.3317,12.37543],[14.3258,12.37557],[14.31774,12.36974],[14.31461,12.36224],[14.30746,12.35848],[14.29978,12.36252],[14.30225,12.36499],[14.30079,12.36886],[14.29218,12.3725],[14.29,12.36833],[14.29752,12.36113],[14.29067,12.35483],[14.28502,12.3614],[14.28575,12.36684],[14.28263,12.37057],[14.27312,12.37358],[14.25952,12.36794],[14.24597,12.36796],[14.22349,12.36177],[14.21749,12.36719],[14.2225,12.37332],[14.21983,12.37604],[14.19787,12.38701],[14.18702,12.40702],[14.17408,12.40955],[14.17398,12.41423],[14.17962,12.41797],[14.17584,12.42909],[14.18408,12.42764],[14.18802,12.43627],[14.19199,12.43334],[14.19463,12.4361],[14.18858,12.44033],[14.18857,12.44425],[14.19706,12.44818],[14.19458,12.45164],[14.18536,12.44736],[14.18155,12.44874],[14.18393,12.45329],[14.1764,12.47756],[14.17739,12.48081],[14.18781,12.48187],[14.19271,12.49964],[14.20001,12.50148],[14.20325,12.53817],[14.08333,13.08333],[14.46667,13.08333],[14.54713,12.92837],[14.53403,12.92066],[14.5218,12.89881],[14.52308,12.88974],[14.5289,12.88071],[14.55445,12.86661],[14.56622,12.83737],[14.54771,12.79869],[14.54833,12.78763],[14.55396,12.77776],[14.55877,12.77519],[14.56918,12.78585],[14.57606,12.78162],[14.57986,12.75658],[14.58597,12.74846],[14.59215,12.74572],[14.60433,12.75307],[14.61951,12.77454],[14.62418,12.77108],[14.62552,12.7652],[14.62294,12.75563],[14.61571,12.74906],[14.61748,12.74316],[14.63366,12.74295],[14.65328,12.72582],[14.66141,12.72288],[14.69682,12.72876],[14.71969,12.72064],[14.72476,12.7137],[14.72442,12.70552],[14.71862,12.69686],[14.70731,12.6885],[14.70306,12.67954],[14.70465,12.66557],[14.71147,12.65875],[14.72233,12.6586],[14.72862,12.66321],[14.73378,12.6838],[14.74413,12.68921],[14.7617,12.67745],[14.76148,12.65384],[14.76433,12.64283],[14.77058,12.63485],[14.78269,12.63259],[14.79616,12.64057],[14.8064,12.63583],[14.82472,12.64001],[14.83223,12.63363],[14.8367,12.62357],[14.83848,12.60397],[14.8543,12.57635],[14.8476,12.51843],[14.85626,12.50579],[14.85889,12.49153],[14.84646,12.48012],[14.8433,12.47318],[14.84436,12.4639],[14.84847,12.45529],[14.85874,12.45325],[14.86542,12.46943],[14.87169,12.47037],[14.87875,12.45991],[14.8746,12.43765],[14.88909,12.42187],[14.90859,12.38448],[14.90911,12.37724],[14.8997,12.35062],[14.90103,12.34417],[14.91069,12.33453],[14.90963,12.32974],[14.89237,12.31003],[14.90565,12.27929],[14.9021,12.26648],[14.89219,12.25308],[14.89237,12.24714],[14.90386,12.22884],[14.89207,12.20398],[14.89582,12.19755],[14.90789,12.19329],[14.91191,12.18674],[14.90735,12.18012],[14.88838,12.17557],[14.88474,12.16349],[14.91182,12.14583],[14.91911,12.12853],[14.92571,12.12746],[14.96007,12.0973],[14.97735,12.10039],[14.98877,12.10817],[14.99961,12.12139],[15.00755,12.12211],[15.03198,12.11056],[15.03612,12.10136],[15.03702,12.07783],[15.05202,12.07042],[15.06075,12.05731],[15.05737,12.03753],[15.03766,12.03391],[15.05902,12.0064],[15.06739,12.00295],[15.07973,12.0053],[15.08479,12.00165],[15.08595,11.99065],[15.07609,11.97559],[15.07005,11.97518],[15.06333,11.98049],[15.0571,11.98083],[15.04659,11.96595],[15.06313,11.93662],[15.05625,11.91941],[15.04061,11.91359],[15.04073,11.89614],[15.04895,11.88007],[15.04889,11.86006],[15.05551,11.84974],[15.06103,11.84459],[15.06598,11.84474],[15.07647,11.85433],[15.07741,11.8587],[15.09284,11.85228],[15.09795,11.83018],[15.09758,11.81534],[15.10656,11.80462],[15.11576,11.80165],[15.12232,11.79289],[15.12196,11.78844],[15.11283,11.77909],[15.09149,11.77548],[15.07998,11.76502],[15.08414,11.75511],[15.09661,11.74927],[15.10546,11.73235],[15.10278,11.72948],[15.07886,11.73569],[15.06611,11.72081],[15.06413,11.71231],[15.07141,11.70313],[15.07351,11.69401],[15.08153,11.68885],[15.0747,11.67109],[15.08345,11.66493],[15.08483,11.66016],[15.07704,11.6464],[15.08694,11.63737],[15.08575,11.62524],[15.09982,11.61494],[15.0991,11.58884],[15.10172,11.58472],[15.12965,11.57432],[15.14404,11.56148],[15.14005,11.5555],[15.13862,11.53464],[15.13019,11.52531],[15.13274,11.5132],[15.12334,11.51139],[15.10759,11.50201],[15.10825,11.49117],[15.09666,11.48967],[15.10095,11.4787],[15.08934,11.46689],[15.08195,11.4496],[15.07377,11.44972],[15.07829,11.44342],[15.07152,11.43761],[15.0681,11.42042],[15.05932,11.4168],[15.06177,11.4069],[15.05617,11.40193],[15.06902,11.36825],[15.04874,11.34765],[15.07063,11.32968],[15.07383,11.32253],[15.06353,11.31156],[15.05517,11.28771],[15.04821,11.28094],[15.05966,11.27114],[15.06588,11.25096],[15.06624,11.24121],[15.05819,11.23146],[15.06742,11.20292],[15.08434,11.174],[15.09486,11.16791],[15.09825,11.1544],[15.0964,11.10875],[15.09849,11.1011],[15.10789,11.09562],[15.11,11.09016],[15.10258,11.08018],[15.10092,11.06893],[15.09425,11.06226],[15.09726,11.04611],[15.09262,11.03362],[15.08255,11.03434],[15.06934,11.02644],[15.05403,11.02689],[15.05289,11.03024],[15.04856,11.03088],[15.04545,11.02395],[15.05257,11.01922],[15.05331,11.01522],[15.04611,11.0038],[15.05694,10.99075],[15.06099,10.97218],[15.07937,10.95805],[15.07882,10.939],[15.08395,10.93434],[15.08711,10.92382],[15.09297,10.8972],[15.09078,10.88401],[15.09703,10.87324],[15.09711,10.86821],[15.09116,10.8661],[15.073,10.84764],[15.07239,10.8297],[15.06769,10.82271],[15.07875,10.78364],[15.09051,10.77022],[15.09206,10.75861],[15.10297,10.74066],[15.1141,10.72462],[15.12884,10.7106],[15.13044,10.7035],[15.12806,10.69945],[15.13815,10.68659],[15.13425,10.67055],[15.15252,10.64883],[15.15368,10.63534],[15.16095,10.62399],[15.15395,10.60502],[15.14184,10.59023],[15.14712,10.56013],[15.14503,10.54165],[15.16365,10.52292],[15.18931,10.51344],[15.1997,10.49974],[15.21432,10.4991],[15.21995,10.48986],[15.24368,10.47423],[15.24362,10.45102],[15.25052,10.43585],[15.27351,10.41658],[15.28017,10.4043],[15.2792,10.36722],[15.28936,10.35413],[15.28857,10.3425],[15.30085,10.33681],[15.30535,10.30778],[15.31445,10.30775],[15.3452,10.29764],[15.34922,10.29456],[15.35773,10.27171],[15.36917,10.26774],[15.37852,10.2575],[15.38108,10.24735],[15.39494,10.24924],[15.39734,10.23616],[15.40502,10.23244],[15.40996,10.21612],[15.44127,10.1961],[15.45343,10.17488],[15.45603,10.16103],[15.46431,10.1531],[15.46714,10.14348],[15.47866,10.12759],[15.4889,10.12348],[15.48928,10.11689],[15.50245,10.09863],[15.53042,10.10025],[15.55211,10.08017],[15.55898,10.06645],[15.58041,10.06918],[15.58943,10.05028],[15.61586,10.04608],[15.68148,10.00581],[15.68927,9.99831],[15.53054,9.95814],[15.41547,9.93781],[15.36265,9.96494],[15.24643,9.99392],[15.21576,9.98982],[15.21005,9.9958],[15.19757,9.99802],[15.17598,9.99045],[15.1501,9.99873],[15.1146,9.99048],[15.10449,9.96912],[15.06452,9.95072],[15.06038,9.95034],[15.02691,9.97061],[15.00271,9.9709],[14.95276,9.98605],[14.79894,9.93731],[14.48305,10.00242],[14.47203,10.00795],[14.4639,10.00345],[14.21518,10.00787],[14.20857,9.99891],[14.1743,9.90496],[14.13345,9.83115],[14.0232,9.73637],[13.9989,9.69674],[13.97627,9.64521],[13.99884,9.62783],[14.03506,9.61918],[14.03694,9.61263],[14.0412,9.61165],[14.04195,9.6039],[14.06798,9.57241],[14.06544,9.56808],[14.07111,9.56488],[14.07553,9.55612],[14.08807,9.55473],[14.09858,9.54108],[14.10315,9.51975],[14.12541,9.50522],[14.14903,9.50404],[14.15443,9.5004],[14.16027,9.49144],[14.17683,9.47793],[14.17968,9.46676],[14.19034,9.45676],[14.19154,9.44988],[14.19577,9.44789],[14.2061,9.45031],[14.21327,9.43641],[14.22759,9.42699],[14.24343,9.39215],[14.26309,9.36506],[14.27452,9.36175],[14.30433,9.37168],[14.32039,9.34295],[14.32891,9.3361],[14.3392,9.30988],[14.37316,9.29415],[14.37528,9.27429],[14.37161,9.26852],[14.37139,9.25947],[14.36775,9.25905],[14.36759,9.24164],[14.3617,9.23837],[14.36228,9.23032],[14.35586,9.22925],[14.35702,9.22026],[14.34831,9.21631],[14.3467,9.20713],[14.3495,9.20034],[14.3581,9.19739],[14.35664,9.19087],[14.36437,9.18003],[14.3905,9.1664],[14.39151,9.1602],[14.3972,9.15972],[14.4078,9.14175],[14.41248,9.14175],[14.4686,9.11146],[14.47104,9.09699],[14.48292,9.0797],[14.49064,9.05822],[14.58971,8.99842],[14.84159,8.81111],[14.85344,8.81103],[14.85376,8.81827],[14.86225,8.81429],[14.87222,8.82215],[14.87675,8.81599],[14.8801,8.81966],[14.89657,8.81251],[14.90005,8.80973],[14.90357,8.79339],[14.92254,8.77845],[14.92151,8.77449],[14.90914,8.7661],[14.90996,8.76139],[14.92266,8.75096],[14.94904,8.75433],[14.95456,8.74661],[14.97039,8.74252],[14.98498,8.73152],[14.98617,8.72735],[14.98929,8.72751],[14.98871,8.71669],[14.983,8.70688],[14.98511,8.70441],[14.98122,8.70031],[14.9812,8.68645],[15.01612,8.68511],[15.03177,8.67417],[15.06363,8.67949],[15.10901,8.65935],[15.10932,8.64324],[15.11758,8.63152],[15.15094,8.60586],[15.15409,8.57387],[15.16661,8.55578],[15.17778,8.52699],[15.20006,8.51225],[15.39314,8.09841],[15.39396,8.04651],[15.45235,7.88755],[15.50638,7.79752],[15.58798,7.77814],[15.59145,7.76629],[15.58348,7.74618],[15.58372,7.74177],[15.58752,7.7401],[15.58488,7.72331],[15.58941,7.7211],[15.58665,7.70922],[15.58934,7.67881],[15.58458,7.671],[15.58589,7.66763],[15.57435,7.65749],[15.57977,7.65092],[15.58064,7.64186],[15.57647,7.63689],[15.57557,7.62714],[15.5684,7.61695],[15.56149,7.61292],[15.56055,7.60395],[15.56674,7.59646],[15.56164,7.58527],[15.55584,7.58279],[15.55013,7.57259],[15.53977,7.56792],[15.5361,7.56031],[15.52189,7.54763],[15.51637,7.54779],[15.51048,7.53414],[15.49401,7.52944],[15.49355,7.52363],[15.48782,7.5172],[15.49108,7.51016],[15.47641,7.49935],[15.47408,7.48918],[15.45766,7.4811],[15.45576,7.47439],[15.45807,7.47785],[15.45967,7.47337],[15.45549,7.46973],[15.45338,7.45605],[15.43764,7.45307],[15.43602,7.44009],[15.43248,7.43309],[15.42256,7.42732],[15.4231,7.41802],[15.41926,7.41383],[15.39995,7.39847],[15.38736,7.39455],[15.3778,7.37717],[15.37254,7.37638],[15.34769,7.35415],[15.33599,7.34915],[15.33273,7.34186],[15.31553,7.3278],[15.29736,7.31457],[15.29286,7.31587],[15.28828,7.30765],[15.28424,7.30704],[15.26777,7.28858],[15.26152,7.28632],[15.25987,7.28066],[15.24359,7.27485],[15.24293,7.26692],[15.23622,7.25394],[15.23035,7.24708],[15.21946,7.24448],[15.2159,7.23384],[15.2188,7.23146],[15.2139,7.23066],[15.21121,7.22395],[15.22234,7.22449],[15.22281,7.22147],[15.23365,7.21624],[15.2231,7.20748],[15.22366,7.19931],[15.20606,7.17703],[15.21075,7.14296],[15.22081,7.13898],[15.21955,7.13228],[15.22232,7.12661],[15.21389,7.12316],[15.22097,7.112],[15.21723,7.10124],[15.21023,7.10273],[15.21344,7.09834],[15.20595,7.08616],[15.19099,7.08224],[15.19258,7.07491],[15.18831,7.06894],[15.18,7.07356],[15.17286,7.07042],[15.16795,7.07488],[15.16662,7.06704],[15.15831,7.058],[15.15852,7.04414],[15.15182,7.04208],[15.15206,7.033],[15.14277,7.02635],[15.13996,7.01189],[15.14205,7.00213],[15.13837,6.9972],[15.13306,6.97123],[15.13659,6.96051],[15.13489,6.95329],[15.13865,6.95251],[15.14038,6.94698],[15.11919,6.92693],[15.11675,6.91541],[15.11035,6.90624],[15.10745,6.88997],[15.08966,6.86307],[15.0903,6.85501],[15.0866,6.8522],[15.07632,6.82521],[15.06758,6.81744],[15.06515,6.78822],[15.05994,6.78178],[15.05698,6.77069],[15.03975,6.76097],[15.01543,6.76931],[15.00451,6.76196],[14.9599,6.75158],[14.9404,6.70024],[14.85473,6.5047],[14.80049,6.40135],[14.81209,6.36563],[14.73852,6.25044],[14.57864,6.1927],[14.56766,6.19714],[14.56262,6.19489],[14.5459,6.18324],[14.5398,6.17412],[14.52963,6.17064],[14.52554,6.16138],[14.51048,6.14802],[14.50407,6.13111],[14.49036,6.11901],[14.48437,6.11905],[14.47993,6.11008],[14.46971,6.1043],[14.46819,6.09804],[14.46269,6.09466],[14.44822,6.09421],[14.44331,6.08721],[14.43318,6.08413],[14.42368,6.08538],[14.42163,6.08266],[14.42679,6.07527],[14.42089,6.05378],[14.417,6.04931],[14.41566,6.03266],[14.42131,6.02648],[14.42612,6.02567],[14.42513,6.0198],[14.43241,5.99958],[14.46381,5.97195],[14.47345,5.94643],[14.48311,5.93742],[14.4867,5.91925],[14.49694,5.91008],[14.49746,5.90571],[14.51216,5.89427],[14.54863,5.90272],[14.56017,5.90116],[14.56865,5.90408],[14.58765,5.92317],[14.60002,5.92287],[14.61201,5.9066],[14.61974,5.88723],[14.6126,5.85353],[14.62145,5.82264],[14.61858,5.81608],[14.6239,5.80389],[14.62003,5.78956],[14.62247,5.78146],[14.62045,5.76404],[14.62355,5.75337],[14.62598,5.70923],[14.60556,5.65844],[14.60678,5.64312],[14.59104,5.60734],[14.58991,5.58854],[14.59121,5.58233],[14.60282,5.56906],[14.61043,5.53354],[14.62993,5.51213],[14.61776,5.49812],[14.6166,5.49088],[14.61312,5.48974],[14.61811,5.47861],[14.61531,5.47842],[14.6068,5.46453],[14.6023,5.46527],[14.59851,5.45983],[14.60469,5.45275],[14.59759,5.43151],[14.59984,5.41575],[14.59373,5.40835],[14.58662,5.4098],[14.58093,5.40805],[14.57769,5.40274],[14.57198,5.40326],[14.57393,5.39541],[14.57112,5.39091],[14.57331,5.38867],[14.5716,5.37981],[14.56672,5.37811],[14.56121,5.36972],[14.5624,5.35414],[14.5503,5.33478],[14.55276,5.32665],[14.54272,5.31657],[14.54835,5.31482],[14.54657,5.31041],[14.54998,5.30954],[14.54918,5.30435],[14.54288,5.30248],[14.52599,5.28617],[14.5267,5.27755],[14.53402,5.26762],[14.54692,5.25596],[14.55106,5.256],[14.57663,5.23196],[14.58115,5.23361],[14.59056,5.23057],[14.59494,5.22497],[14.60421,5.22506],[14.60685,5.22176],[14.62038,5.22333],[14.63938,5.21557],[14.64941,5.21557],[14.65377,5.20541],[14.6641,5.19985],[14.69363,5.09916],[14.68908,5.10008],[14.68901,5.09303],[14.67314,5.08497],[14.6727,5.07431],[14.68188,5.05682],[14.68033,5.04492],[14.6838,5.04179],[14.68387,5.03127],[14.68788,5.02234],[14.67637,5.01898],[14.68154,5.01197],[14.67497,5.01063],[14.67983,5.00201],[14.6747,4.99191],[14.67728,4.98775],[14.6813,4.98775],[14.68398,4.9768],[14.69304,4.97285],[14.69014,4.96994],[14.6934,4.96074],[14.69204,4.94977],[14.68679,4.94512],[14.68967,4.93932],[14.68028,4.93086],[14.6806,4.92654],[14.68719,4.92424],[14.6942,4.91432],[14.69847,4.90486],[14.69913,4.89031],[14.71252,4.86806],[14.70995,4.85879],[14.70365,4.85875],[14.70578,4.84908],[14.70341,4.8403],[14.70624,4.84087],[14.71032,4.83375],[14.71366,4.81612],[14.7164,4.81588],[14.71703,4.80569],[14.71306,4.79854],[14.71713,4.78655],[14.71346,4.78575],[14.71227,4.77302],[14.70004,4.7642],[14.70157,4.75999],[14.70992,4.75539],[14.70877,4.74828],[14.71462,4.74683],[14.71814,4.74001],[14.71663,4.70523],[14.72169,4.69019],[14.71632,4.6835],[14.71961,4.67953],[14.71785,4.67575],[14.72144,4.66262],[14.71837,4.64728],[14.73078,4.63032],[14.72965,4.61214],[14.73394,4.61221],[14.73663,4.60625],[14.74007,4.60632],[14.74569,4.59368],[14.75246,4.58816],[14.75213,4.58359],[14.76543,4.58199],[14.7646,4.57606],[14.77225,4.57351],[14.77576,4.56545],[14.78356,4.56114],[14.78469,4.55311],[14.79671,4.54635],[14.81097,4.52432],[14.81512,4.52793],[14.823,4.52698],[14.82853,4.52416],[14.8276,4.51588],[14.85074,4.51458],[14.85159,4.50216],[14.871,4.49659],[14.87146,4.48998],[14.88218,4.48098],[14.879,4.47842],[14.88987,4.4688],[14.90694,4.46697],[14.93436,4.45347],[14.93553,4.45022],[14.94195,4.44974],[14.94298,4.43838],[14.9482,4.43992],[14.95559,4.43654],[14.96035,4.44014],[14.96739,4.43962],[14.98144,4.43419],[14.98161,4.42593],[14.99323,4.42567],[15.00085,4.42189],[15.00815,4.42417],[15.01372,4.41493],[15.01147,4.40611],[15.01746,4.39754],[15.01274,4.39376],[15.0204,4.38576],[15.02404,4.37118],[15.03121,4.36735],[15.03118,4.37171],[15.03621,4.37505],[15.04407,4.36326],[15.04047,4.35747],[15.0425,4.35258],[15.0466,4.35182],[15.04817,4.34688],[15.05687,4.34019],[15.06028,4.32762],[15.0642,4.32877],[15.06591,4.32216],[15.0742,4.31385],[15.0761,4.31619],[15.0782,4.31433],[15.07731,4.31158],[15.08701,4.30102],[15.08613,4.2971],[15.09077,4.29097],[15.08753,4.28563],[15.09059,4.28287],[15.09081,4.2753],[15.08699,4.2699],[15.09498,4.26525],[15.0923,4.25793],[15.09406,4.24555],[15.08805,4.24325],[15.08922,4.23522],[15.09486,4.23383],[15.09292,4.22866],[15.10141,4.21897],[15.09435,4.21234],[15.09636,4.20068],[15.10028,4.20021],[15.09718,4.19049],[15.09939,4.18],[15.10633,4.18187],[15.10752,4.17865],[15.10317,4.17544],[15.10378,4.16106],[15.10747,4.15504],[15.0993,4.14879],[15.0992,4.1403],[15.10713,4.13034],[15.108,4.12051],[15.11781,4.12056],[15.12082,4.11121],[15.12719,4.1107],[15.13241,4.10558],[15.13197,4.09592],[15.14117,4.07998],[15.13974,4.07205],[15.14528,4.06815],[15.15802,4.07411],[15.17118,4.07136],[15.17727,4.05776],[15.17018,4.05218],[15.14239,4.04488],[15.13113,4.03515],[15.09756,4.03003],[15.07346,4.01951],[15.10251,3.95465],[15.24727,3.71389],[15.45515,3.4953],[15.49108,3.4613],[15.80236,3.09834],[15.80895,3.1075],[15.82238,3.10366],[15.83676,3.11567],[15.84495,3.11108],[15.85159,3.11612],[15.85996,3.11413],[15.86641,3.10404],[15.87912,3.10517],[15.88762,3.1023],[15.89214,3.09825],[15.89231,3.09295],[15.89701,3.08787],[15.89901,3.08918],[15.90261,3.07696],[15.90977,3.07348],[15.90933,3.06878],[15.91401,3.06572],[15.91461,3.05642],[15.92152,3.04297],[15.9319,3.04023],[15.94412,3.01902],[15.95107,3.01703],[15.95659,3.00716],[15.96958,2.99517],[15.97709,3.00618],[15.98674,3.00517],[15.9985,3.01099],[16.00271,3.00706],[16.00192,2.99878],[16.0054,2.9986],[16.00791,2.98906],[16.02089,2.98784],[16.02275,2.98341],[16.02845,2.98487],[16.03193,2.97875],[16.03253,2.96582],[16.03785,2.96226],[16.03896,2.95461],[16.04444,2.95244],[16.04598,2.94572],[16.05279,2.93822],[16.05163,2.92708],[16.05493,2.92574],[16.05668,2.91943],[16.06866,2.91218],[16.07075,2.90064],[16.07506,2.89707],[16.07143,2.89258],[16.07396,2.89192],[16.07284,2.88757],[16.08364,2.86555],[16.08518,2.84118],[16.08836,2.84179],[16.08698,2.8366],[16.08974,2.8325],[16.0871,2.82526],[16.08099,2.8227],[16.07838,2.81235],[16.06751,2.80402],[16.04832,2.79595],[16.04662,2.78672],[16.05025,2.78534],[16.055,2.75958],[16.06115,2.75538],[16.05958,2.74711],[16.06339,2.73919],[16.06308,2.73322],[16.05702,2.73192],[16.0564,2.72808],[16.06164,2.72585],[16.05655,2.72002],[16.05671,2.71371],[16.07089,2.706],[16.0799,2.70794],[16.08347,2.70373],[16.08082,2.70034],[16.08194,2.69015],[16.07061,2.67364],[16.07138,2.65653],[16.0659,2.64946],[16.06569,2.63887],[16.08152,2.60062],[16.08425,2.58262],[16.07947,2.56316],[16.0685,2.54529],[16.06862,2.5371],[16.06509,2.53313],[16.06462,2.52799],[16.07314,2.50905],[16.08477,2.49472],[16.08188,2.47434],[16.07525,2.46991],[16.07276,2.46241],[16.08224,2.45419],[16.08641,2.43712],[16.0961,2.43176],[16.10176,2.42202],[16.12261,2.37281],[16.14443,2.35462],[16.14445,2.33216],[16.16422,2.28752],[16.16406,2.27634],[16.16755,2.26936],[16.15899,2.25347],[16.16014,2.2453],[16.18652,2.22858],[16.19371,2.21697],[16.19388,2.21358],[16.18152,2.19983],[16.16143,2.19382],[16.15552,2.18406],[16.14585,2.17703],[16.13715,2.18095],[16.13491,2.19605],[16.13154,2.19817],[16.0967,2.20252],[16.0843,2.19859],[16.08151,2.19285],[16.08365,2.17589],[16.08155,2.14933],[16.07597,2.12528],[16.08533,2.10466],[16.08603,2.09818],[16.08248,2.09247],[16.08472,2.0882],[16.08084,2.08099],[16.06715,2.07715],[16.06005,2.07145],[16.0587,2.06623],[16.06701,2.05799],[16.0782,2.05369],[16.08001,2.04146],[16.0756,2.03251],[16.05083,2.01061],[16.05092,1.99993],[16.05666,1.98474],[16.04805,1.97705],[16.07186,1.9522],[16.08267,1.91787],[16.07994,1.91341],[16.08472,1.89412],[16.09209,1.88767],[16.1055,1.89342],[16.10998,1.89114],[16.10422,1.87529],[16.10963,1.85152],[16.12187,1.81775],[16.13605,1.80055],[16.14123,1.7667],[16.13433,1.74217],[16.14617,1.71707],[16.14769,1.7008],[16.14499,1.69223],[16.13612,1.68799],[16.12043,1.70391],[16.09125,1.69758],[16.08051,1.69206],[16.07108,1.67338],[16.05588,1.65577],[16.05227,1.6589],[16.02958,1.65944],[16.0231,1.66771],[16.01935,1.68],[16.02372,1.71046],[16.0156,1.71471],[16.01541,1.72042],[16.03113,1.75176],[16.02877,1.76287],[16.02111,1.7658],[15.9615,1.76626],[15.93221,1.78049],[15.91386,1.78187],[15.91066,1.78811],[15.91209,1.79441],[15.90563,1.79774],[15.89001,1.79347],[15.88266,1.78625],[15.87961,1.7882],[15.87973,1.79656],[15.86804,1.82912],[15.8594,1.83288],[15.843,1.83194],[15.82574,1.85034],[15.81142,1.85297],[15.80247,1.85879],[15.79146,1.87097],[15.78133,1.89155],[15.75851,1.91374],[15.74427,1.92011],[15.72653,1.91349],[15.7163,1.92476],[15.68549,1.936],[15.6688,1.92864],[15.61471,1.93944],[15.58458,1.95402],[15.57264,1.94943],[15.56077,1.9502],[15.54425,1.96551],[15.53643,1.9654],[15.53506,1.96059],[15.52588,1.95766],[15.51949,1.96403],[15.48447,1.98317],[15.46991,1.97132],[15.45634,1.97053],[15.42593,1.95893],[15.41053,1.94255],[15.39942,1.94191],[15.36959,1.92791],[15.34877,1.91312],[15.34354,1.91294],[15.33218,1.93188],[15.33529,1.94385],[15.32431,1.93438],[15.31293,1.93393],[15.30606,1.93741],[15.3036,1.94246],[15.30746,1.95372],[15.3058,1.96827],[15.28598,1.99317],[15.27119,1.99764],[15.25664,2.01037],[15.24515,2.00846],[15.24429,2.01403],[15.25217,2.02052],[15.24926,2.02904],[15.23729,2.03329],[15.22686,2.03241],[15.20695,2.03976],[15.18542,2.02866],[15.17511,2.01664],[15.1698,2.01949],[15.1625,2.04194],[15.1472,2.04004],[15.14293,2.01323],[15.13432,2.00816],[15.12375,2.0138],[15.11705,2.01224],[15.10621,1.98323],[15.07326,1.98435],[15.0699,1.98823],[15.07261,1.99708],[15.07082,2.00092],[15.06214,2.00413],[15.04282,1.97782],[15.03436,1.98561],[15.0281,2.00222],[15.01906,2.0085],[15.00115,2.01389],[14.99804,2.02191],[14.98356,2.03672],[14.98015,2.03649],[14.97414,2.02725],[14.97025,2.00897],[14.94655,2.00174],[14.91653,2.0002],[14.8933,2.01608],[14.88913,2.02206],[14.89082,2.02732],[14.90294,2.03505],[14.9126,2.04813],[14.9143,2.05416],[14.91137,2.06357],[14.88934,2.06707],[14.8776,2.07331],[14.87694,2.10417],[14.87169,2.11192],[14.85634,2.10577],[14.86449,2.08882],[14.86114,2.08071],[14.84173,2.08586],[14.82752,2.06796],[14.80825,2.05954],[14.79042,2.07544],[14.77168,2.06319],[14.76284,2.06844],[14.77121,2.08299],[14.77004,2.09627],[14.75917,2.1009],[14.74357,2.08994],[14.73563,2.09247],[14.73709,2.09757],[14.74916,2.09899],[14.75024,2.10979],[14.7295,2.12099],[14.72466,2.12722],[14.71888,2.12801],[14.71477,2.12315],[14.7244,2.10986],[14.72276,2.10607],[14.70858,2.11234],[14.69771,2.11236],[14.69537,2.12415],[14.68303,2.1367],[14.66864,2.13566],[14.65588,2.13006],[14.64353,2.13391],[14.63938,2.14154],[14.64543,2.14727],[14.64476,2.15649],[14.63985,2.16082],[14.62422,2.1626],[14.6181,2.16954],[14.61547,2.18158],[14.61012,2.18615],[14.60862,2.19559],[14.59551,2.2069],[14.59372,2.2008],[14.58194,2.18786],[14.58397,2.18525],[14.57668,2.1747],[14.57195,2.17907],[14.56599,2.17644],[14.56246,2.17848],[14.55533,2.17139],[14.55052,2.1728],[14.54164,2.16838],[14.53747,2.17083],[14.53814,2.16752],[14.5304,2.1664],[14.5279,2.16196],[14.52567,2.16605],[14.51212,2.1631],[14.50834,2.16675],[14.49702,2.16798],[14.49296,2.16049],[14.48731,2.16173],[14.48124,2.15854],[14.47744,2.14777],[14.46051,2.15055],[14.46244,2.13469],[14.45232,2.12573],[14.44454,2.12583],[14.44637,2.13218],[14.44124,2.13386],[14.44037,2.13861],[14.44141,2.14469],[14.44686,2.1478],[14.44214,2.15161],[14.44234,2.15981],[14.43016,2.16859],[14.41938,2.16838],[14.41895,2.17821],[14.41199,2.18042],[14.41137,2.18558],[14.40219,2.18328],[14.40055,2.17988],[14.39392,2.18045],[14.38201,2.18896],[14.37066,2.18463],[14.36465,2.18576],[14.36159,2.1925],[14.355,2.19106],[14.34615,2.18001],[14.33767,2.17607],[14.32727,2.17775],[14.32282,2.16985],[14.31593,2.17138],[14.30123,2.16463],[14.2946,2.17222],[13.29673,2.1722],[13.29873,2.18319],[13.2857,2.19041],[13.29013,2.19465],[13.29357,2.19356],[13.29725,2.20306],[13.30173,2.20176],[13.30557,2.20696],[13.29643,2.2181],[13.29967,2.22751],[13.28895,2.23193],[13.28335,2.24251],[13.28597,2.2486],[13.28058,2.25188],[13.27019,2.24116],[13.26832,2.2441],[13.27332,2.24879],[13.25922,2.25383],[13.25784,2.25592],[13.26271,2.25951],[13.26038,2.26413],[13.25386,2.2658],[13.24659,2.2744],[13.2363,2.26852],[13.22999,2.27001],[13.22816,2.26374],[13.21961,2.26133],[13.20966,2.26437],[13.20764,2.25999],[13.20236,2.26162],[13.20084,2.26885],[13.19233,2.26297],[13.18998,2.26612],[13.19113,2.27059],[13.18637,2.27182],[13.18649,2.27612],[13.19414,2.27426],[13.19274,2.28344],[13.18049,2.28258],[13.17751,2.27871],[13.1618,2.28215],[13.15667,2.2864],[13.15179,2.2802],[13.14797,2.28294],[13.13984,2.28104],[13.11053,2.2687],[13.11433,2.26225],[13.10572,2.25796],[13.10414,2.25397],[13.09648,2.25591],[13.09741,2.2502],[13.08953,2.24439],[13.08386,2.24485],[13.08457,2.24078],[13.07395,2.24576],[13.07364,2.25146],[13.06497,2.24677],[13.06033,2.24886],[13.05989,2.24405],[13.05359,2.2396],[13.04964,2.24314],[13.04732,2.239],[13.03995,2.2411],[13.03264,2.23751],[13.03237,2.24728],[13.02868,2.25018],[13.02787,2.24694],[13.02243,2.24538],[13.01483,2.25305],[13.01341,2.24982],[13.00511,2.24909],[12.99743,2.25233],[12.99395,2.24852],[12.99205,2.25196],[12.98521,2.24825],[12.98019,2.25012],[12.96782,2.24297],[12.95804,2.24688],[12.94086,2.24484],[12.93176,2.25536],[12.92288,2.2533],[12.91677,2.25533],[12.91253,2.24953],[12.91477,2.24471],[12.90904,2.24487],[12.90741,2.24139],[12.89608,2.23637],[12.88508,2.23873],[12.8856,2.24521],[12.88035,2.24492],[12.87768,2.24869],[12.87162,2.24431],[12.8688,2.22984],[12.8663,2.23394],[12.85853,2.22894],[12.85061,2.23327],[12.85024,2.23818],[12.8392,2.24276],[12.82337,2.24253],[12.82316,2.25485],[12.81651,2.25935],[12.81587,2.25381],[12.81034,2.24897],[12.80593,2.24782],[12.79536,2.25308],[12.79208,2.25096],[12.79116,2.24093],[12.77917,2.23581],[12.77875,2.23314],[12.75,2.22915],[12.74268,2.22322],[12.73379,2.22659],[12.73315,2.23177],[12.70839,2.22965],[12.70513,2.23435],[12.68613,2.24481],[12.66864,2.24502],[12.6638,2.24231],[12.65471,2.24469],[12.65026,2.2413],[12.64523,2.24449],[12.62556,2.24597],[12.61898,2.25168],[12.61242,2.25241],[12.6083,2.259],[12.59145,2.2557],[12.58254,2.26347],[12.58396,2.26747],[12.57238,2.27155],[12.54718,2.25895],[12.52946,2.25748],[12.49166,2.26203],[12.47279,2.2537],[12.45404,2.25293],[12.37905,2.26532],[12.30481,2.2849],[12.28749,2.27815],[12.28551,2.271],[12.27843,2.26327],[12.26661,2.2585],[12.25797,2.26251],[12.25354,2.25553],[12.24897,2.25655],[12.24614,2.25256],[12.24121,2.25251],[12.22034,2.2642],[12.21285,2.27927],[12.20772,2.28222],[12.19814,2.27956],[12.17017,2.28495],[12.15632,2.27621],[12.14741,2.27611],[12.13207,2.28412],[12.12264,2.29449],[12.10823,2.28176],[12.09391,2.28017],[12.09079,2.28468],[12.07486,2.28508],[12.07082,2.28914],[12.06654,2.28626],[12.06337,2.28904],[12.05143,2.2879],[12.04803,2.29037],[12.04863,2.28516],[12.03785,2.28434],[12.01339,2.29397],[12.00689,2.28549],[12.00163,2.28766],[11.98652,2.2854],[11.98144,2.29176],[11.97179,2.2879],[11.96678,2.29123],[11.96055,2.28531],[11.9503,2.28929],[11.93332,2.28161],[11.9217,2.29042],[11.91836,2.28947],[11.91759,2.28313],[11.91136,2.28028],[11.90186,2.28162],[11.90001,2.28488],[11.89384,2.28492],[11.88892,2.27972],[11.88012,2.28459],[11.86837,2.28419],[11.86534,2.27138],[11.86141,2.27444],[11.85532,2.27305],[11.85382,2.28136],[11.84026,2.27647],[11.83435,2.2828],[11.82729,2.28487],[11.82068,2.27672],[11.80558,2.27842],[11.80178,2.27617],[11.79413,2.28121],[11.79156,2.27896],[11.79348,2.27596],[11.78546,2.27675],[11.78585,2.2716],[11.76629,2.27485],[11.75681,2.27127],[11.75043,2.27439],[11.75318,2.28397],[11.75019,2.28388],[11.74952,2.27727],[11.7469,2.27858],[11.7442,2.28782],[11.7468,2.29747],[11.73195,2.29346],[11.72262,2.30238],[11.71027,2.30152],[11.7005,2.31914],[11.66817,2.31482],[11.66591,2.3185],[11.65677,2.31693],[11.65095,2.31464],[11.649,2.30494],[11.62833,2.30492],[11.61087,2.2959],[11.60042,2.30683],[11.58762,2.30991],[11.55594,2.30679],[11.55577,2.30289],[11.54935,2.29721],[11.5384,2.30006],[11.53492,2.29653],[11.52151,2.30428],[11.5158,2.3008],[11.50311,2.30337],[11.48948,2.29579],[11.48427,2.29595],[11.47453,2.30418],[11.45671,2.30422],[11.45304,2.30358],[11.45189,2.30024],[11.45675,2.29591],[11.45169,2.29173],[11.44349,2.2922],[11.4436,2.29806],[11.43719,2.30139],[11.41802,2.29436],[11.39876,2.29905],[11.39482,2.3035],[11.38824,2.30102],[11.38329,2.29446],[11.38056,2.29648],[11.37287,2.29447],[11.36488,2.28704],[11.37276,2.28271],[11.3723,2.27705],[11.37935,2.27588],[11.37976,2.2724],[11.37302,2.26503],[11.37902,2.26067],[11.37389,2.25652],[11.37333,2.25083],[11.37692,2.25013],[11.37903,2.24505],[11.36871,2.23887],[11.36305,2.24823],[11.36117,2.2472],[11.35843,2.23013],[11.3541,2.23088],[11.35064,2.22451],[11.36163,2.21924],[11.35453,2.21626],[11.35958,2.21008],[11.35566,2.20315],[11.36101,2.19854],[11.35353,2.19049],[11.35235,2.18339],[11.35925,2.17222],[11.25168,2.17222],[11.22282,2.17682],[11.18696,2.1915],[11.16486,2.17653],[11.14966,2.17222],[10.18664,2.17222],[10.17749,2.16158],[10.17528,2.16428],[10.16278,2.16423],[10.15949,2.17528],[10.15028,2.17142],[10.14604,2.17482],[10.14448,2.17087],[10.11958,2.15793],[10.11139,2.16746],[10.09251,2.16315],[10.05976,2.16618],[10.04983,2.17194],[10.04884,2.18417],[10.04405,2.1669],[10.03397,2.16379],[10.01638,2.17269],[9.98854,2.18061],[9.98613,2.17745],[9.96014,2.19095],[9.95017,2.19087],[9.93912,2.19933],[9.92836,2.19858],[9.92519,2.20619],[9.9143,2.20429],[9.91207,2.19832],[9.90547,2.19756],[9.89582,2.2232],[9.88617,2.22307],[9.88756,2.22958],[9.88514,2.23185],[9.86715,2.23688],[9.86315,2.24289],[9.84957,2.24521],[9.84216,2.27564],[9.83627,2.28338],[9.83409,2.29111],[9.83704,2.2991],[9.84883,2.29652],[9.85114,2.29149],[9.87266,2.28877],[9.83871,2.30142],[9.83795,2.31096],[9.84231,2.32643],[9.83118,2.34552],[9.82285,2.35016],[9.82068,2.36692],[9.82466,2.37388],[9.81982,2.42493],[9.82636,2.43163],[9.82752,2.44117],[9.82292,2.46592],[9.82497,2.47391],[9.8173,2.50795],[9.82308,2.5131],[9.82475,2.52083],[9.82324,2.56724],[9.82465,2.57317],[9.83055,2.57858],[9.83916,2.61029],[9.84766,2.67396],[9.86217,2.70154],[9.8609,2.72087],[9.865,2.72113],[9.87629,2.73582],[9.87888,2.77088],[9.8907,2.79871],[9.89467,2.80077],[9.88278,2.84512],[9.88535,2.84718],[9.89127,2.88224],[9.89756,2.88301],[9.90064,2.89461],[9.8981,2.91756],[9.90375,2.9307],[9.90646,2.95235],[9.90992,2.9539],[9.91391,2.97529],[9.92521,2.98714],[9.92624,2.99513],[9.92906,2.995],[9.93137,3.0008],[9.95087,3.00903],[9.95665,3.01934],[9.96282,3.03712],[9.96373,3.05607],[9.96784,3.05852],[9.96503,3.07837],[9.97427,3.08352],[9.97517,3.08713],[9.92373,3.21015],[9.92386,3.21221],[9.92835,3.2104],[9.92732,3.20705],[9.93463,3.20318],[9.93654,3.18874],[9.94576,3.17867],[9.95523,3.15804],[9.94832,3.17584],[9.94847,3.19014],[9.93361,3.20885],[9.92399,3.21556],[9.89352,3.27231],[9.89609,3.27256],[9.90774,3.25115],[9.91363,3.24741],[9.92415,3.24714],[9.93724,3.25499],[9.94494,3.26594],[9.96907,3.27997],[9.9814,3.30136],[10.03196,3.32786],[10.04378,3.34692],[10.04919,3.3701],[10.05664,3.37501],[10.0578,3.38123],[10.05114,3.39383],[10.0523,3.39899],[10.0636,3.40568],[10.07438,3.41752],[10.06761,3.44254],[10.07024,3.46817],[10.06582,3.48597],[10.06873,3.49237],[10.07601,3.49539],[10.06626,3.49229],[10.06458,3.48508],[10.06893,3.47115],[10.06607,3.4428],[10.07272,3.41933],[10.05076,3.39925],[10.05062,3.38945],[10.056,3.38248],[10.05523,3.37759],[10.04868,3.37166],[10.03453,3.3352],[10.01811,3.32774],[10.00168,3.3141],[9.97923,3.30522],[9.96741,3.2859],[9.94649,3.27084],[9.92725,3.26647],[9.91571,3.26855],[9.90518,3.26173],[9.89917,3.27385],[9.89995,3.29035],[9.89047,3.30737],[9.80437,3.40799],[9.73284,3.48101],[9.65168,3.54024],[9.68145,3.55247],[9.69301,3.56187],[9.70866,3.56598],[9.74486,3.59315],[9.75412,3.61093],[9.78313,3.62689],[9.81598,3.62957],[9.83983,3.6164],[9.84265,3.61163],[9.85598,3.60607],[9.87241,3.60593],[9.87754,3.60322],[9.88883,3.60849],[9.91372,3.61246],[9.91989,3.61645],[9.91886,3.61993],[9.9607,3.6253],[9.96943,3.63367],[9.98509,3.63817],[9.99883,3.64937],[10.0067,3.68906],[10.0144,3.69601],[10.02546,3.71804],[10.0333,3.72409],[10.04333,3.74754],[10.05863,3.7675],[10.0671,3.7729],[10.07429,3.77212],[10.10047,3.78278],[10.11333,3.80004],[10.12621,3.8052],[10.13573,3.82127],[10.13544,3.82759],[10.14173,3.83506],[10.14676,3.85104],[10.16396,3.85604],[10.16902,3.85484],[10.17672,3.83908],[10.17935,3.82436],[10.18254,3.82825],[10.17404,3.85971],[10.15268,3.86624],[10.15088,3.85954],[10.14099,3.85259],[10.14033,3.84099],[10.1339,3.83481],[10.12928,3.81139],[10.12493,3.80685],[10.11154,3.80533],[10.11,3.80829],[10.10781,3.79927],[10.09304,3.78524],[10.05941,3.77678],[10.03988,3.75992],[10.03423,3.75064],[10.03524,3.74316],[10.01622,3.71354],[10.01441,3.70297],[10.00054,3.68932],[9.99627,3.65788],[9.97662,3.64295],[9.9376,3.62726],[9.92554,3.62843],[9.90706,3.62433],[9.88678,3.6112],[9.87421,3.61147],[9.85292,3.61755],[9.84112,3.62349],[9.83907,3.62916],[9.82214,3.63743],[9.80674,3.6359],[9.80675,3.63938],[9.79571,3.64016],[9.75952,3.62756],[9.73281,3.60103],[9.72152,3.59536],[9.67737,3.58715],[9.64222,3.58988],[9.63992,3.5953],[9.64889,3.58949],[9.65609,3.60044],[9.6589,3.5958],[9.66558,3.59669],[9.67096,3.59153],[9.67558,3.59346],[9.67815,3.59926],[9.68277,3.59862],[9.68547,3.60454],[9.68406,3.60674],[9.67636,3.60365],[9.67482,3.60584],[9.66022,3.64452],[9.65573,3.64453],[9.65817,3.63924],[9.65496,3.63937],[9.65253,3.65278],[9.64957,3.64195],[9.64496,3.65459],[9.64188,3.65356],[9.62702,3.68915],[9.61113,3.71752],[9.54831,3.81605],[9.55062,3.81812],[9.55845,3.81179],[9.56358,3.80393],[9.56678,3.78871],[9.5828,3.76704],[9.5896,3.76395],[9.59524,3.75054],[9.61063,3.73274],[9.61716,3.71932],[9.6296,3.7072],[9.63421,3.69095],[9.64511,3.68514],[9.64728,3.67083],[9.66535,3.64091],[9.66754,3.65148],[9.66228,3.65535],[9.66165,3.66257],[9.66909,3.66231],[9.6696,3.65767],[9.67447,3.65663],[9.67396,3.65148],[9.68037,3.65302],[9.68088,3.6458],[9.68883,3.64321],[9.69255,3.63445],[9.68818,3.63187],[9.68818,3.628],[9.70204,3.63444],[9.7,3.64759],[9.69461,3.64888],[9.6968,3.65197],[9.69258,3.67699],[9.69553,3.67905],[9.69694,3.6686],[9.70502,3.66563],[9.70335,3.65957],[9.71027,3.65699],[9.72053,3.6437],[9.72822,3.64189],[9.72951,3.6455],[9.7231,3.64628],[9.72362,3.66252],[9.72824,3.66613],[9.72389,3.67284],[9.72787,3.68057],[9.71184,3.68806],[9.7103,3.69425],[9.70133,3.70405],[9.7148,3.70507],[9.71993,3.69733],[9.72904,3.69629],[9.72802,3.70235],[9.72109,3.70507],[9.72186,3.70996],[9.71417,3.7208],[9.71892,3.72079],[9.72648,3.71022],[9.73187,3.71073],[9.72751,3.71383],[9.72983,3.71911],[9.73239,3.71924],[9.73264,3.7124],[9.74689,3.71871],[9.74189,3.72413],[9.73291,3.71975],[9.73227,3.72594],[9.73779,3.73032],[9.73472,3.73573],[9.73639,3.74063],[9.74858,3.7365],[9.74857,3.73366],[9.755,3.74177],[9.75794,3.73056],[9.76397,3.73429],[9.76653,3.72875],[9.77346,3.72926],[9.77564,3.72178],[9.77591,3.73312],[9.77321,3.73673],[9.77039,3.73287],[9.77039,3.73673],[9.77297,3.74782],[9.77656,3.74859],[9.77592,3.75168],[9.77297,3.74988],[9.77401,3.762],[9.76401,3.77825],[9.76351,3.79166],[9.75966,3.79553],[9.76377,3.79771],[9.76275,3.80287],[9.76839,3.79681],[9.77224,3.79912],[9.78127,3.79764],[9.78636,3.80169],[9.79278,3.79911],[9.78199,3.78945],[9.77942,3.79048],[9.77994,3.79525],[9.77686,3.79538],[9.77814,3.79061],[9.77249,3.7901],[9.77441,3.78004],[9.77543,3.77592],[9.78646,3.77127],[9.78735,3.76508],[9.77863,3.76534],[9.78234,3.754],[9.79004,3.75502],[9.79555,3.74084],[9.80209,3.74496],[9.80492,3.74366],[9.79554,3.73362],[9.78566,3.73105],[9.78476,3.72796],[9.77834,3.72899],[9.77871,3.71559],[9.7755,3.71095],[9.77076,3.71508],[9.77294,3.71856],[9.76666,3.72024],[9.76536,3.70967],[9.76883,3.7067],[9.77178,3.70915],[9.77101,3.71327],[9.7746,3.71043],[9.77345,3.7076],[9.75317,3.70323],[9.75136,3.69305],[9.75778,3.69446],[9.76021,3.69111],[9.76958,3.69368],[9.77151,3.7009],[9.77973,3.70605],[9.78321,3.71842],[9.79425,3.72756],[9.79617,3.72691],[9.78499,3.70785],[9.78602,3.70424],[9.79372,3.71016],[9.79925,3.72356],[9.80104,3.71969],[9.80425,3.72007],[9.80501,3.71092],[9.81579,3.7046],[9.80529,3.72691],[9.80696,3.73928],[9.82005,3.73746],[9.81953,3.72896],[9.82363,3.72586],[9.8289,3.72792],[9.83377,3.71992],[9.84274,3.71475],[9.83762,3.72636],[9.8307,3.73359],[9.82582,3.73217],[9.81659,3.74417],[9.81609,3.74958],[9.80685,3.7514],[9.80878,3.75629],[9.79736,3.76378],[9.80417,3.77357],[9.80328,3.78182],[9.81278,3.77962],[9.81072,3.77331],[9.81328,3.7724],[9.81558,3.76093],[9.81597,3.76969],[9.8197,3.77317],[9.82227,3.77497],[9.82804,3.7702],[9.83048,3.77187],[9.83138,3.77715],[9.82638,3.77677],[9.8301,3.78051],[9.82895,3.78309],[9.82458,3.78103],[9.82356,3.78438],[9.81843,3.78413],[9.81715,3.7898],[9.82511,3.7983],[9.81908,3.80192],[9.82281,3.80372],[9.83195,3.80082],[9.83422,3.79056],[9.83845,3.79017],[9.84164,3.79291],[9.84077,3.79932],[9.83307,3.80319],[9.83667,3.80938],[9.84052,3.80538],[9.84435,3.80589],[9.84764,3.8111],[9.85849,3.8051],[9.86241,3.80899],[9.85516,3.81374],[9.8567,3.81864],[9.84682,3.8153],[9.85291,3.82554],[9.85153,3.8285],[9.84156,3.81659],[9.83258,3.81918],[9.83425,3.82536],[9.84003,3.82665],[9.82721,3.83903],[9.83286,3.84509],[9.82927,3.84934],[9.83338,3.85218],[9.83467,3.85862],[9.82439,3.8509],[9.82158,3.86044],[9.81427,3.8638],[9.82147,3.85124],[9.82028,3.84677],[9.82311,3.8478],[9.82464,3.84368],[9.8172,3.84098],[9.81873,3.83775],[9.82207,3.83878],[9.82001,3.83234],[9.82206,3.82808],[9.81513,3.82963],[9.80886,3.84137],[9.80925,3.84833],[9.79965,3.87335],[9.80813,3.88365],[9.8062,3.88675],[9.80081,3.8816],[9.80266,3.89842],[9.79476,3.896],[9.79686,3.89205],[9.78991,3.89186],[9.79285,3.90372],[9.79788,3.90678],[9.80305,3.90537],[9.80413,3.90021],[9.80879,3.90454],[9.81623,3.9053],[9.81064,3.92055],[9.81185,3.92278],[9.81714,3.92106],[9.81191,3.93158],[9.80368,3.93032],[9.8024,3.93741],[9.79445,3.93871],[9.79187,3.93188],[9.78365,3.92415],[9.76906,3.92686],[9.77403,3.93911],[9.76708,3.94089],[9.76836,3.94612],[9.7747,3.95561],[9.78163,3.95677],[9.79779,3.94863],[9.82115,3.94603],[9.83886,3.93983],[9.85324,3.94767],[9.86146,3.95708],[9.86508,3.97795],[9.86278,3.99317],[9.85945,3.99755],[9.84687,4.00144],[9.84807,4.01962],[9.84152,4.03676],[9.82125,4.04529],[9.83641,4.05906],[9.85105,4.0673],[9.86877,4.0696],[9.87982,4.08183],[9.89479,4.07952],[9.9091,4.09005],[9.92706,4.08101],[9.94642,4.08929],[9.96164,4.07817],[9.94735,4.09001],[9.92398,4.0823],[9.90936,4.09198],[9.89446,4.08427],[9.87982,4.08377],[9.86261,4.07141],[9.84329,4.06847],[9.82357,4.05482],[9.81996,4.04323],[9.84126,4.03263],[9.84226,4.00788],[9.84559,4.00015],[9.85919,3.99562],[9.86213,3.98518],[9.86172,3.96068],[9.83783,3.94137],[9.82398,3.94886],[9.80062,3.9525],[9.79819,3.95765],[9.78086,3.96463],[9.76546,3.96052],[9.75544,3.94996],[9.74363,3.95023],[9.73747,3.95591],[9.73221,3.95385],[9.73464,3.94714],[9.72412,3.94857],[9.71642,3.9536],[9.71323,3.96217],[9.7154,3.9711],[9.70751,3.97693],[9.71025,3.98094],[9.72661,3.97796],[9.71619,3.98738],[9.7259,3.99228],[9.72288,3.99232],[9.72212,3.99762],[9.71572,4.00106],[9.71444,4.00553],[9.70876,4.00621],[9.70543,4.01188],[9.70287,4.01291],[9.70312,4.00569],[9.69721,4.00854],[9.69786,4.01627],[9.69414,4.02014],[9.68927,4.02118],[9.689,4.01525],[9.68361,4.01409],[9.67758,4.0168],[9.67334,4.01088],[9.66578,4.02764],[9.6663,4.03254],[9.66976,4.02764],[9.67566,4.02815],[9.67721,4.03343],[9.67156,4.03653],[9.68544,4.04606],[9.6961,4.05881],[9.69624,4.07247],[9.70599,4.0686],[9.72347,4.08766],[9.72322,4.09488],[9.72862,4.10068],[9.73973,4.10779],[9.75019,4.10904],[9.75934,4.1428],[9.75243,4.17271],[9.76632,4.1959],[9.76916,4.20905],[9.76263,4.22349],[9.77632,4.22055],[9.79189,4.22287],[9.77462,4.22278],[9.78434,4.23688],[9.78859,4.24951],[9.78376,4.25761],[9.79683,4.26845],[9.81325,4.25966],[9.81672,4.26108],[9.8175,4.27397],[9.82997,4.28091],[9.82716,4.29407],[9.83526,4.30978],[9.83721,4.32602],[9.85687,4.34121],[9.86241,4.35693],[9.875,4.36542],[9.86847,4.38038],[9.87568,4.39791],[9.88122,4.40512],[9.88558,4.40563],[9.89816,4.39955],[9.90036,4.41412],[9.90486,4.41953],[9.92978,4.41988],[9.9686,4.45051],[9.95858,4.44679],[9.94983,4.4352],[9.92952,4.42117],[9.90461,4.42172],[9.89795,4.4146],[9.89611,4.40007],[9.88481,4.40718],[9.87582,4.40177],[9.86745,4.38167],[9.87398,4.36491],[9.86318,4.35977],[9.85829,4.34508],[9.83592,4.32602],[9.83385,4.30927],[9.82639,4.29793],[9.8292,4.28092],[9.81772,4.27723],[9.81467,4.26185],[9.79914,4.26935],[9.78835,4.26536],[9.7823,4.2575],[9.78563,4.24616],[9.78408,4.23868],[9.77444,4.22696],[9.76006,4.22401],[9.76595,4.20931],[9.76556,4.20183],[9.75206,4.18406],[9.74912,4.17232],[9.75309,4.15119],[9.74503,4.14873],[9.75408,4.14951],[9.75742,4.14486],[9.75741,4.13997],[9.74995,4.1294],[9.74918,4.12038],[9.74198,4.11691],[9.73675,4.11857],[9.7055,4.09515],[9.69767,4.09258],[9.69434,4.0962],[9.70026,4.11295],[9.69898,4.12352],[9.71116,4.12776],[9.70194,4.13177],[9.69578,4.12919],[9.69249,4.12324],[9.6767,4.12131],[9.65854,4.12523],[9.65058,4.1215],[9.63839,4.13741],[9.62847,4.13518],[9.6247,4.12602],[9.61726,4.11934],[9.62597,4.12468],[9.63203,4.13536],[9.63941,4.13542],[9.64981,4.12073],[9.67497,4.118],[9.68601,4.12237],[9.69346,4.12004],[9.69448,4.11334],[9.68214,4.10007],[9.68072,4.09208],[9.68367,4.07816],[9.69059,4.07145],[9.692,4.06629],[9.68879,4.06333],[9.65271,4.05885],[9.65143,4.06607],[9.64181,4.06659],[9.64399,4.07381],[9.63983,4.07612],[9.64104,4.06659],[9.64989,4.06375],[9.65296,4.05189],[9.64796,4.05086],[9.64371,4.04158],[9.63357,4.03849],[9.62523,4.04314],[9.62549,4.05706],[9.61407,4.0612],[9.60971,4.06739],[9.60098,4.06598],[9.59867,4.06817],[9.59841,4.05799],[9.6056,4.05811],[9.60328,4.05399],[9.60572,4.05038],[9.60456,4.04238],[9.61136,4.04135],[9.61303,4.03825],[9.60943,4.03722],[9.60892,4.03052],[9.612,4.03232],[9.61212,4.02098],[9.59761,4.0157],[9.59478,4.01094],[9.57596,4.01885],[9.58323,4.021],[9.58375,4.02873],[9.5781,4.02771],[9.57707,4.02204],[9.56899,4.03235],[9.57272,4.03725],[9.57657,4.03609],[9.57606,4.04292],[9.5812,4.04601],[9.57941,4.0522],[9.58428,4.05349],[9.5848,4.05684],[9.57736,4.06587],[9.58292,4.06693],[9.57473,4.06536],[9.583,4.05632],[9.57735,4.05323],[9.57299,4.0553],[9.56837,4.0584],[9.57351,4.06149],[9.57351,4.06553],[9.56953,4.0651],[9.56156,4.05376],[9.56438,4.04912],[9.5622,4.04654],[9.55603,4.04268],[9.55527,4.04912],[9.55142,4.04951],[9.55385,4.04474],[9.54961,4.02979],[9.545,4.05016],[9.53396,4.05455],[9.53448,4.05997],[9.52138,4.05778],[9.51291,4.06088],[9.50957,4.05869],[9.50919,4.0623],[9.51946,4.06745],[9.52397,4.07957],[9.51986,4.08898],[9.51729,4.08241],[9.5033,4.08628],[9.50754,4.09208],[9.5173,4.09285],[9.51448,4.09839],[9.50767,4.09685],[9.51012,4.10587],[9.5037,4.10459],[9.50139,4.11104],[9.50486,4.11542],[9.50152,4.11929],[9.50294,4.12341],[9.49421,4.12819],[9.49036,4.12445],[9.4892,4.12832],[9.4919,4.13064],[9.47547,4.13348],[9.4711,4.12846],[9.47444,4.12807],[9.47315,4.1224],[9.47649,4.11814],[9.46956,4.12201],[9.45954,4.11699],[9.45441,4.12035],[9.44542,4.11906],[9.44747,4.11571],[9.44284,4.10527],[9.45799,4.09405],[9.45246,4.09276],[9.44721,4.1014],[9.4336,4.10437],[9.43334,4.09896],[9.44181,4.09418],[9.44027,4.09251],[9.43026,4.09986],[9.42923,4.09329],[9.42486,4.08968],[9.43025,4.08594],[9.42332,4.07924],[9.41792,4.08118],[9.4133,4.07576],[9.40124,4.08866],[9.38968,4.08351],[9.38506,4.08583],[9.38583,4.075],[9.3771,4.07656],[9.37427,4.07256],[9.3758,4.05851],[9.37118,4.05877],[9.35526,4.0464],[9.35448,4.03634],[9.33189,4.03971],[9.33099,4.03455],[9.31905,4.03236],[9.3152,4.02746],[9.31682,4.01943],[9.32123,4.01676],[9.31956,4.0147],[9.31237,4.01419],[9.29478,4.00053],[9.28951,3.98622],[9.28566,3.98352],[9.28578,3.97578],[9.28052,3.97204],[9.27051,3.97759],[9.2664,3.9763],[9.27037,3.96367],[9.25536,3.96238],[9.25086,3.95439],[9.25201,3.94807],[9.24174,3.94215],[9.2325,3.95105],[9.2343,3.95633],[9.23045,3.96316],[9.21967,3.9611],[9.21736,3.96987],[9.22404,3.97812],[9.22122,3.98031],[9.21505,3.97503],[9.21684,3.95273],[9.21248,3.9517],[9.2112,3.95698],[9.20632,3.96033],[9.20452,3.96498],[9.20953,3.96833],[9.20863,3.97477],[9.21133,3.97735],[9.20684,3.99385],[9.21159,4.00184],[9.2012,4.01113],[9.17604,4.00907],[9.17424,4.01152],[9.16063,4.0074],[9.15062,4.00792],[9.14805,4.01475],[9.1365,4.01514],[9.13239,4.01398],[9.12841,4.00676],[9.12417,4.00625],[9.12109,4.01218],[9.1139,4.01024],[9.10338,4.01579],[9.09542,4.02894],[9.08181,4.04003],[9.04381,4.06014],[9.03098,4.06298],[9.02661,4.06955],[9.0166,4.06723],[9.01608,4.06994],[9.01223,4.06968],[9.01249,4.07613],[9.00171,4.07819],[8.98861,4.09418],[8.97731,4.09701],[8.97847,4.10475],[8.9845,4.10836],[8.98822,4.11687],[8.98617,4.14987],[8.99888,4.17707],[8.994,4.18945],[8.99657,4.19422],[8.98604,4.20969],[8.98664,4.21811],[8.97525,4.22799],[8.97204,4.2396],[8.9488,4.25481],[8.95471,4.25532],[8.9565,4.25971],[8.94777,4.2588],[8.94378,4.25475],[8.94203,4.25618],[8.9478,4.26686],[8.94212,4.25867],[8.9347,4.25788],[8.92966,4.27363],[8.9149,4.28677],[8.91477,4.29915],[8.91952,4.30482],[8.92324,4.32287],[8.91861,4.34505],[8.91617,4.35175],[8.89742,4.36335],[8.88573,4.38578],[8.90461,4.35884],[8.91232,4.35781],[8.9154,4.36206],[8.91309,4.3725],[8.92105,4.38063],[8.9172,4.38707],[8.91685,4.4138],[8.91385,4.41543],[8.91231,4.43322],[8.91565,4.43271],[8.91873,4.4438],[8.92194,4.44431],[8.92091,4.45205],[8.92618,4.45359],[8.92875,4.46056],[8.9344,4.46223],[8.94994,4.48247],[8.95302,4.49124],[8.95122,4.50181],[8.95944,4.50387],[8.96163,4.49859],[8.96433,4.49975],[8.97027,4.51479],[8.9764,4.52038],[8.96856,4.51883],[8.96471,4.52527],[8.97383,4.52605],[8.97601,4.53133],[8.97088,4.52837],[8.97011,4.53224],[8.96625,4.53146],[8.96497,4.53636],[8.97293,4.53778],[8.97036,4.54564],[8.96651,4.5459],[8.96856,4.54899],[8.96445,4.55673],[8.95829,4.55789],[8.9534,4.55441],[8.94659,4.55647],[8.95854,4.59721],[8.95841,4.6083],[8.96702,4.61526],[8.96959,4.62428],[8.9665,4.63176],[8.96869,4.64156],[8.95995,4.65393],[8.95982,4.66089],[8.95237,4.66012],[8.94081,4.66901],[8.92975,4.68345],[8.91999,4.68255],[8.91459,4.68796],[8.90877,4.68426],[8.90663,4.68538],[8.90855,4.68977],[8.90071,4.69428],[8.89249,4.69183],[8.89069,4.68641],[8.88247,4.68705],[8.87091,4.68202],[8.86962,4.68422],[8.86114,4.67764],[8.85086,4.68473],[8.85292,4.67274],[8.8438,4.67042],[8.8447,4.68305],[8.84148,4.69207],[8.84623,4.69594],[8.84084,4.69762],[8.83686,4.69027],[8.83904,4.70032],[8.85137,4.69968],[8.8542,4.69698],[8.8596,4.70213],[8.86268,4.69375],[8.86756,4.69272],[8.87502,4.6993],[8.8835,4.69969],[8.87476,4.70201],[8.86628,4.69672],[8.86383,4.70806],[8.85934,4.70987],[8.8596,4.70677],[8.85266,4.70381],[8.8452,4.70497],[8.8407,4.71811],[8.84314,4.72637],[8.84931,4.73049],[8.84494,4.73075],[8.8425,4.73874],[8.8452,4.74777],[8.84083,4.74828],[8.83749,4.73513],[8.82643,4.76014],[8.79481,4.77921],[8.79327,4.79081],[8.79918,4.7979],[8.79198,4.79648],[8.79005,4.80499],[8.79095,4.81234],[8.79738,4.81053],[8.80778,4.82201],[8.80637,4.82871],[8.7984,4.82949],[8.79827,4.83335],[8.81202,4.82897],[8.8079,4.84058],[8.81561,4.84496],[8.82513,4.84135],[8.82603,4.83826],[8.83155,4.84239],[8.84229,4.83758],[8.839,4.84548],[8.83027,4.84303],[8.8277,4.83903],[8.82435,4.84316],[8.81433,4.8456],[8.80739,4.84186],[8.80945,4.82988],[8.79814,4.83451],[8.7984,4.82781],[8.80534,4.82846],[8.80611,4.82046],[8.79737,4.8117],[8.78966,4.81247],[8.78928,4.797],[8.78093,4.79132],[8.77797,4.80138],[8.76396,4.81014],[8.75869,4.81864],[8.77205,4.8287],[8.77475,4.83515],[8.7687,4.85474],[8.77333,4.84108],[8.76858,4.82948],[8.75779,4.82702],[8.75342,4.83089],[8.74571,4.82766],[8.74468,4.82302],[8.73903,4.82044],[8.74135,4.8042],[8.72567,4.79942],[8.71719,4.79285],[8.71257,4.79491],[8.71026,4.78665],[8.69767,4.77801],[8.69613,4.77298],[8.6383,4.77966],[8.63753,4.77605],[8.62596,4.78068],[8.62647,4.78275],[8.60822,4.78751],[8.58766,4.78788],[8.5928,4.79871],[8.60359,4.80156],[8.63275,4.82426],[8.63403,4.83122],[8.62914,4.84643],[8.61821,4.8588],[8.60972,4.86305],[8.60625,4.86988],[8.60714,4.88509],[8.62409,4.90689],[8.64697,4.90948],[8.653,4.91606],[8.65351,4.9274],[8.64914,4.93539],[8.65183,4.94596],[8.66032,4.94429],[8.66815,4.95113],[8.66858,4.96569],[8.67974,4.97269],[8.68031,4.97957],[8.68622,4.98483],[8.69796,4.98729],[8.69398,4.99631],[8.68392,4.99915],[8.68447,5.00135],[8.69306,5.00654],[8.69562,5.01436],[8.7082,5.02286],[8.7119,5.03208],[8.71806,5.03163],[8.71937,5.03929],[8.72366,5.04229],[8.71972,5.05411],[8.7267,5.07362],[8.73934,5.0854],[8.74229,5.08488],[8.74868,5.1011],[8.78256,5.1128],[8.78493,5.12305],[8.79015,5.12434],[8.7971,5.13655],[8.80207,5.15615],[8.82099,5.18591],[8.81225,5.2205],[8.81585,5.26084],[8.81471,5.28408],[8.83165,5.32601],[8.84798,5.38542],[8.83931,5.39427],[8.83621,5.40372],[8.83766,5.4134],[8.83333,5.43067],[8.84389,5.45104],[8.8424,5.45501],[8.84843,5.46328],[8.85651,5.46295],[8.86667,5.47377],[8.86987,5.48071],[8.86864,5.48917],[8.8963,5.52208],[8.89873,5.53324],[8.9077,5.54196],[8.90719,5.54708],[8.91406,5.56039],[8.92152,5.56427],[8.91886,5.58205],[8.91495,5.5836],[8.90912,5.60907],[8.89967,5.62624],[8.8906,5.62829],[8.88642,5.63297],[8.88595,5.63981],[8.87223,5.64829],[8.86405,5.65972],[8.86078,5.6591],[8.85944,5.66561],[8.85412,5.67084],[8.84204,5.67947],[8.83784,5.67883],[8.8384,5.68971],[8.83576,5.69033],[8.83209,5.705],[8.83505,5.70647],[8.84272,5.69857],[8.84698,5.70445],[8.85529,5.70724],[8.85341,5.71771],[8.85902,5.71842],[8.86128,5.73044],[8.86986,5.73621],[8.86906,5.73985],[8.87472,5.7458],[8.87533,5.75171],[8.86939,5.75014],[8.87125,5.75508],[8.8678,5.75785],[8.8745,5.76532],[8.87304,5.76812],[8.88218,5.76911],[8.88379,5.77496],[8.88113,5.78491],[8.88384,5.79515],[8.87422,5.79889],[8.87413,5.80331],[8.87011,5.80318],[8.86561,5.79794],[8.86159,5.7997],[8.8607,5.80404],[8.84807,5.79461],[8.8507,5.80479],[8.84183,5.82605],[8.85552,5.82889],[8.86071,5.83603],[8.85837,5.84273],[8.88336,5.85927],[8.90383,5.8621],[8.90568,5.87439],[8.91426,5.89197],[8.91126,5.90082],[8.91343,5.90349],[8.92455,5.90333],[8.94273,5.91106],[9.05452,6.00029],[9.05642,6.00629],[9.0715,6.02063],[9.15345,6.09381],[9.16859,6.13264],[9.21125,6.1682],[9.26606,6.18406],[9.30722,6.26289],[9.32233,6.27672],[9.32398,6.28685],[9.33218,6.28768],[9.33134,6.29141],[9.33453,6.29209],[9.33865,6.31406],[9.33467,6.3202],[9.34411,6.33015],[9.34353,6.35028],[9.34742,6.35342],[9.35517,6.35088],[9.38215,6.33923],[9.41306,6.32028],[9.43245,6.31534],[9.44424,6.35927],[9.44525,6.38188],[9.45158,6.38641],[9.45159,6.39706],[9.45806,6.41291],[9.4559,6.42166],[9.46067,6.42803],[9.45795,6.43196],[9.4657,6.45469],[9.513,6.44298],[9.52758,6.44341],[9.5852,6.47595],[9.58279,6.49234],[9.5846,6.50247],[9.5969,6.52955],[9.63264,6.5186],[9.65029,6.52454],[9.65034,6.53044],[9.6652,6.51053],[9.69263,6.51444],[9.69875,6.50897],[9.70473,6.51213]],[[9.97538,4.08499],[9.96179,4.07815],[9.96736,4.07851],[9.97538,4.08499]],[[8.84235,4.8375],[8.8453,4.83646],[8.84517,4.84058],[8.85031,4.84226],[8.84993,4.83517],[8.85199,4.83517],[8.85224,4.84136],[8.84929,4.84303],[8.84235,4.8375]]],[[[10.16499,3.86003],[10.16794,3.86011],[10.16971,3.85684],[10.16499,3.86003]]],[[[10.04265,3.3477],[10.0447,3.35723],[10.0452,3.35259],[10.04265,3.3477]]],[[[10.03653,3.74368],[10.03538,3.74832],[10.03911,3.75734],[10.03653,3.74368]]],[[[10.0294,3.33172],[10.03273,3.33147],[10.03145,3.32876],[10.01862,3.3231],[10.0294,3.33172]]],[[[10.01373,3.32368],[10.01426,3.3213],[10.00732,3.31589],[10.01373,3.32368]]],[[[9.99151,3.64847],[9.99639,3.65337],[9.99665,3.64989],[9.99151,3.64847]]],[[[9.972,3.63741],[9.97662,3.63998],[9.97764,3.63766],[9.972,3.63741]]],[[[9.96445,3.27804],[9.96522,3.28204],[9.96753,3.28023],[9.96445,3.27804]]],[[[9.95582,3.63021],[9.96019,3.63407],[9.96635,3.63497],[9.95582,3.63021]]],[[[9.95316,3.27457],[9.96445,3.28281],[9.96265,3.27701],[9.95316,3.27457]]],[[[9.95479,3.62544],[9.94992,3.62673],[9.95942,3.62943],[9.95479,3.62544]]],[[[9.94692,3.17971],[9.93782,3.18745],[9.93693,3.19673],[9.94987,3.18563],[9.94692,3.17971]]],[[[9.92134,3.25823],[9.91262,3.2594],[9.9157,3.26481],[9.93981,3.26595],[9.93647,3.26041],[9.92134,3.25823]]],[[[9.92441,3.25024],[9.92005,3.25295],[9.92365,3.25655],[9.93442,3.255],[9.92441,3.25024]]],[[[9.92785,3.62225],[9.92528,3.62521],[9.92888,3.62508],[9.92785,3.62225]]],[[[9.92056,3.2474],[9.91312,3.25089],[9.91697,3.25308],[9.92133,3.25024],[9.92056,3.2474]]],[[[9.89781,3.61132],[9.90603,3.61814],[9.91604,3.62058],[9.91296,3.61478],[9.89781,3.61132]]],[[[9.87933,3.60528],[9.87574,3.60889],[9.88267,3.60798],[9.87933,3.60528]]],[[[9.86215,3.61097],[9.84547,3.61395],[9.84573,3.61743],[9.8601,3.61471],[9.86215,3.61097]]],[[[9.84087,2.26662],[9.83895,2.27074],[9.841,2.27126],[9.84087,2.26662]]],[[[9.83778,3.62079],[9.82547,3.62634],[9.82393,3.63021],[9.83778,3.62079]]],[[[9.82239,3.6306],[9.81932,3.6346],[9.82342,3.63408],[9.82239,3.6306]]],[[[9.81077,3.83364],[9.81475,3.82796],[9.81128,3.82216],[9.8082,3.82565],[9.81077,3.83364]]],[[[9.80582,3.74573],[9.8012,3.74728],[9.80069,3.75089],[9.80672,3.74805],[9.80582,3.74573]]],[[[9.77312,3.62922],[9.79853,3.63655],[9.80251,3.63384],[9.79673,3.62972],[9.77312,3.62922]]],[[[9.78358,3.85197],[9.79077,3.85286],[9.79616,3.84886],[9.79796,3.85131],[9.80026,3.84628],[9.7964,3.83687],[9.78858,3.83752],[9.78279,3.82502],[9.77971,3.82619],[9.77805,3.84011],[9.78358,3.85197]]],[[[9.76157,3.61866],[9.77004,3.62691],[9.77954,3.62883],[9.76157,3.61866]]],[[[9.77871,3.853],[9.77537,3.84733],[9.76908,3.84656],[9.77126,3.85146],[9.77871,3.853]]],[[[9.77514,3.87672],[9.77411,3.8793],[9.77771,3.88033],[9.77514,3.87672]]],[[[9.77207,3.89013],[9.77514,3.886],[9.7736,3.88291],[9.7677,3.88266],[9.7695,3.88975],[9.77207,3.89013]]],[[[9.75815,3.82337],[9.76302,3.81847],[9.77124,3.8213],[9.76591,3.81332],[9.77354,3.81794],[9.77457,3.81459],[9.76789,3.81086],[9.76532,3.81047],[9.76583,3.81326],[9.76353,3.8097],[9.75635,3.81873],[9.75815,3.82337]]],[[[9.75849,3.91721],[9.76491,3.91979],[9.769,3.90896],[9.75976,3.90226],[9.75412,3.9149],[9.75926,3.91489],[9.75849,3.91721]]],[[[9.76512,3.86668],[9.76858,3.8659],[9.76858,3.86074],[9.76512,3.86668]]],[[[9.76013,3.74113],[9.75898,3.75144],[9.75449,3.7499],[9.75642,3.76072],[9.75168,3.76176],[9.75398,3.75518],[9.75026,3.7566],[9.74975,3.7646],[9.74667,3.76383],[9.74527,3.76873],[9.75759,3.77104],[9.7636,3.74731],[9.76013,3.74113]]],[[[9.76307,3.87751],[9.76358,3.87493],[9.75074,3.86785],[9.75344,3.87416],[9.75999,3.87467],[9.75999,3.87906],[9.76307,3.87751]]],[[[9.76028,3.61995],[9.75746,3.62279],[9.76183,3.62279],[9.76028,3.61995]]],[[[9.75915,3.79372],[9.75325,3.80172],[9.75941,3.80455],[9.75915,3.79372]]],[[[9.7576,3.78715],[9.75517,3.78831],[9.75632,3.79115],[9.7576,3.78715]]],[[[9.75448,3.74242],[9.75372,3.74603],[9.75654,3.74564],[9.75448,3.74242]]],[[[9.75169,3.77632],[9.75067,3.77955],[9.75452,3.78212],[9.75169,3.77632]]],[[[9.74969,4.11986],[9.75072,4.12914],[9.75316,4.1294],[9.74968,4.11058],[9.73123,4.10786],[9.73636,4.11762],[9.74327,4.11549],[9.74969,4.11986]]],[[[9.75055,3.93656],[9.75273,3.93475],[9.74593,3.92582],[9.73641,3.92644],[9.75055,3.93656]]],[[[9.74662,3.852],[9.7506,3.84658],[9.74854,3.84297],[9.74098,3.85329],[9.74662,3.852]]],[[[9.74037,3.74192],[9.73781,3.75017],[9.74166,3.7481],[9.74936,3.75067],[9.74525,3.74513],[9.74166,3.74604],[9.74037,3.74192]]],[[[9.71969,3.87677],[9.73509,3.86941],[9.74228,3.87508],[9.74253,3.87056],[9.74792,3.8685],[9.74689,3.8654],[9.72892,3.86387],[9.7279,3.86967],[9.71687,3.876],[9.71969,3.87677]]],[[[9.73639,3.58916],[9.74051,3.60089],[9.74718,3.60166],[9.73639,3.58916]]],[[[9.73176,3.88346],[9.72638,3.88966],[9.73177,3.89636],[9.7387,3.89274],[9.73818,3.88862],[9.74486,3.88603],[9.73638,3.88307],[9.73599,3.87495],[9.73278,3.87444],[9.72842,3.88024],[9.73176,3.88346]]],[[[9.65067,3.56577],[9.64734,3.57544],[9.65453,3.57195],[9.6553,3.57479],[9.65966,3.57388],[9.65094,3.58098],[9.68943,3.58817],[9.70842,3.58841],[9.73435,3.59909],[9.7328,3.59239],[9.71868,3.58093],[9.70354,3.57991],[9.67967,3.56549],[9.66427,3.56782],[9.64618,3.55765],[9.64489,3.55971],[9.65067,3.56577]]],[[[9.72368,3.73884],[9.72125,3.74167],[9.726,3.74592],[9.73036,3.73973],[9.72368,3.73884]]],[[[9.72458,3.88553],[9.72646,3.88235],[9.71944,3.87883],[9.71944,3.88244],[9.72458,3.88553]]],[[[9.70195,3.84147],[9.71043,3.84649],[9.71962,3.84443],[9.72295,3.83673],[9.72177,3.83072],[9.70425,3.82935],[9.70002,3.83425],[9.70195,3.84147]]],[[[9.71797,3.65002],[9.71425,3.65531],[9.71413,3.66343],[9.71939,3.66201],[9.71797,3.65002]]],[[[9.71474,4.08277],[9.71577,4.08625],[9.71808,4.08457],[9.71474,4.08277]]],[[[9.69301,3.56638],[9.70174,3.5763],[9.71175,3.57565],[9.70584,3.56908],[9.69301,3.56638]]],[[[9.70596,3.72467],[9.69981,3.72854],[9.70674,3.72931],[9.7084,3.7257],[9.70596,3.72467]]],[[[9.68949,3.65843],[9.68551,3.66101],[9.68616,3.67235],[9.68899,3.67235],[9.69142,3.66487],[9.69244,3.6592],[9.68949,3.65843]]],[[[9.67485,3.97607],[9.66959,3.98303],[9.67024,3.98896],[9.67615,3.99025],[9.67718,3.99334],[9.68051,3.99153],[9.67667,4.00082],[9.6836,3.99901],[9.68218,3.99514],[9.68591,3.99359],[9.68577,3.98637],[9.6841,3.98302],[9.67666,3.98432],[9.67485,3.97607]]],[[[9.68002,3.69839],[9.67028,3.71026],[9.66862,3.72419],[9.66298,3.72754],[9.66337,3.73605],[9.67183,3.72186],[9.67107,3.73269],[9.6803,3.72392],[9.67914,3.71722],[9.68388,3.71154],[9.68285,3.70754],[9.67952,3.70935],[9.68003,3.70432],[9.68362,3.70277],[9.68002,3.69839]]],[[[9.66924,3.69621],[9.64205,3.7135],[9.63885,3.72189],[9.64052,3.72343],[9.64744,3.71363],[9.64578,3.71982],[9.64886,3.72033],[9.65745,3.70885],[9.66309,3.7082],[9.66463,3.70279],[9.66822,3.70253],[9.66924,3.69621]]],[[[9.65921,3.9949],[9.65408,4.00677],[9.65742,4.01179],[9.6632,4.00856],[9.65921,3.9949]]],[[[9.60827,3.85314],[9.61547,3.86628],[9.62728,3.8686],[9.63446,3.86214],[9.64087,3.84822],[9.64097,3.83623],[9.63634,3.83135],[9.64636,3.81315],[9.64379,3.80361],[9.65008,3.80438],[9.65084,3.80103],[9.64981,3.79355],[9.64583,3.79407],[9.64826,3.78505],[9.65404,3.78272],[9.65108,3.77937],[9.65761,3.76055],[9.65479,3.75977],[9.6539,3.76493],[9.65043,3.7639],[9.65081,3.75591],[9.65504,3.75178],[9.65273,3.74817],[9.64786,3.76133],[9.64555,3.76313],[9.64503,3.75308],[9.6426,3.76314],[9.63618,3.7625],[9.63375,3.76675],[9.6312,3.78686],[9.62541,3.77204],[9.62067,3.77914],[9.60977,3.78559],[9.60733,3.79539],[9.60451,3.79745],[9.60309,3.7883],[9.5989,3.79582],[9.60696,3.81279],[9.60492,3.82633],[9.6003,3.83304],[9.60827,3.85314]]],[[[9.64373,3.54979],[9.63988,3.55159],[9.6404,3.55482],[9.64373,3.54979]]],[[[9.63965,3.5788],[9.63939,3.58266],[9.64376,3.58382],[9.64427,3.5806],[9.63965,3.5788]]],[[[9.63501,3.55572],[9.62976,3.56153],[9.63322,3.56488],[9.63501,3.55572]]],[[[9.63099,4.02793],[9.62573,4.03128],[9.62689,4.03876],[9.62997,4.03798],[9.63099,4.02793]]],[[[9.5864,3.77671],[9.57025,3.79541],[9.57871,3.79335],[9.57948,3.78561],[9.58718,3.78096],[9.5864,3.77671]]],[[[9.56065,4.03068],[9.56091,4.04061],[9.5675,4.04327],[9.57016,4.05156],[9.5794,4.04679],[9.56528,4.03996],[9.56065,4.03068]]],[[[9.48265,4.11543],[9.48727,4.1104],[9.48034,4.1144],[9.48265,4.11543]]],[[[9.46147,3.90299],[9.47329,3.91098],[9.47637,3.90943],[9.46147,3.90299]]],[[[9.33584,3.91646],[9.31645,3.93168],[9.30105,3.9487],[9.29592,3.9634],[9.30866,3.94286],[9.34853,3.91439],[9.35888,3.90313],[9.37239,3.89672],[9.37625,3.9002],[9.38369,3.89736],[9.39037,3.89968],[9.39447,3.89323],[9.42758,3.88857],[9.40653,3.88588],[9.3783,3.8935],[9.33584,3.91646]]],[[[9.39095,4.05773],[9.38659,4.05386],[9.37991,4.0549],[9.39095,4.05773]]],[[[9.19066,3.97091],[9.19092,3.97942],[9.19349,3.98019],[9.19528,3.97761],[9.19066,3.97091]]],[[[8.93066,4.61448],[8.92526,4.62686],[8.9182,4.63408],[8.92745,4.63485],[8.92719,4.62866],[8.9304,4.62866],[8.9313,4.63382],[8.93721,4.63317],[8.9331,4.62273],[8.94492,4.62041],[8.94762,4.63408],[8.94569,4.64052],[8.94042,4.64362],[8.94723,4.65367],[8.95391,4.65496],[8.96072,4.64491],[8.96342,4.62634],[8.96715,4.62531],[8.95661,4.61784],[8.95353,4.59437],[8.94056,4.57877],[8.93439,4.57735],[8.92591,4.58277],[8.92462,4.58509],[8.93208,4.5954],[8.93259,4.59166],[8.94287,4.59128],[8.94586,4.59738],[8.94903,4.59772],[8.93066,4.61448]]],[[[8.94414,4.25445],[8.96524,4.24308],[8.9637,4.24192],[8.94414,4.25445]]],[[[8.95418,4.50516],[8.94788,4.50929],[8.94274,4.52321],[8.9457,4.53571],[8.95623,4.53688],[8.96188,4.53507],[8.96034,4.52901],[8.94827,4.53082],[8.9579,4.50903],[8.95418,4.50516]]],[[[8.94082,4.51083],[8.94005,4.51419],[8.94441,4.51238],[8.94082,4.51083]]],[[[8.9331,4.67249],[8.92812,4.6773],[8.93232,4.6792],[8.9331,4.67249]]],[[[8.92796,4.61525],[8.8997,4.63253],[8.89764,4.64065],[8.90663,4.64258],[8.90689,4.63459],[8.91139,4.62814],[8.92025,4.62183],[8.92513,4.62325],[8.92796,4.61525]]],[[[8.92102,4.63794],[8.91691,4.64697],[8.92616,4.64362],[8.92102,4.63794]]],[[[8.9154,4.38449],[8.90615,4.41131],[8.9082,4.41182],[8.9154,4.38449]]],[[[8.90666,4.41182],[8.90435,4.4242],[8.90653,4.42471],[8.90666,4.41182]]],[[[8.90152,4.45617],[8.89561,4.45926],[8.89843,4.46107],[8.90152,4.45617]]],[[[8.86423,4.64386],[8.86064,4.64747],[8.86192,4.65147],[8.86423,4.64386]]],[[[8.82695,4.7243],[8.82168,4.72739],[8.82631,4.73229],[8.80626,4.73873],[8.80523,4.75059],[8.79713,4.76142],[8.79456,4.7756],[8.80124,4.77173],[8.80279,4.76658],[8.81178,4.76245],[8.82065,4.74802],[8.81821,4.74299],[8.81256,4.74286],[8.81307,4.73951],[8.82232,4.74247],[8.82759,4.74003],[8.82695,4.7243]]],[[[8.80793,4.76619],[8.8033,4.77044],[8.80844,4.76967],[8.80793,4.76619]]],[[[8.79147,4.78746],[8.78967,4.7921],[8.79352,4.79455],[8.79147,4.78746]]],[[[8.78942,4.78372],[8.78286,4.78565],[8.78659,4.7921],[8.78942,4.78372]]],[[[8.77298,4.75368],[8.77632,4.76322],[8.7839,4.75806],[8.78274,4.75536],[8.77298,4.75368]]],[[[8.76193,4.75457],[8.75242,4.75973],[8.73314,4.75972],[8.72993,4.76243],[8.73082,4.76604],[8.73365,4.76823],[8.74804,4.76308],[8.75524,4.76463],[8.75601,4.76115],[8.76411,4.75831],[8.76193,4.75457]]],[[[8.72953,4.7886],[8.72156,4.79233],[8.72953,4.79582],[8.73724,4.79414],[8.72953,4.7886]]],[[[8.73339,4.7806],[8.7303,4.78125],[8.73056,4.78615],[8.73493,4.78331],[8.73339,4.7806]]],[[[8.73108,4.77622],[8.72722,4.78125],[8.72979,4.78125],[8.73108,4.77622]]],[[[8.72028,4.78769],[8.71617,4.79027],[8.72002,4.79259],[8.72028,4.78769]]],[[[8.71926,4.76603],[8.70667,4.76912],[8.72003,4.76835],[8.71926,4.76603]]],[[[8.69433,4.77053],[8.6897,4.77272],[8.69458,4.77247],[8.69433,4.77053]]],[[[8.62031,4.77656],[8.60694,4.78003],[8.60694,4.78299],[8.60052,4.78028],[8.6,4.78247],[8.61773,4.783],[8.62031,4.77656]]],[[[8.59667,4.77126],[8.57456,4.7804],[8.57584,4.7822],[8.59332,4.77564],[8.59667,4.77126]]],[[[8.59385,4.75927],[8.57148,4.77833],[8.58768,4.76648],[8.59359,4.76571],[8.59385,4.75927]]],[[[8.57738,4.78452],[8.57841,4.78968],[8.58021,4.7871],[8.57738,4.78452]]]]}}]}