{"type":"FeatureCollection","features":[{"type":"Feature","properties":{"ISO_A3":"COG","WB_A3":"COG","WB_NAME":"Congo","WB_REGION":"AFW,SSF"},"geometry":{"type":"MultiPolygon","coordinates":[[[[13.90704,-4.50111],[13.89107,-4.50909],[13.88419,-4.50653],[13.88019,-4.50882],[13.87018,-4.50344],[13.86994,-4.49865],[13.86364,-4.49911],[13.85538,-4.48851],[13.86047,-4.47175],[13.84706,-4.46826],[13.84568,-4.46307],[13.83673,-4.45576],[13.8354,-4.45375],[13.84409,-4.44273],[13.83626,-4.4381],[13.83529,-4.43091],[13.82459,-4.43099],[13.82307,-4.42509],[13.811,-4.42824],[13.80494,-4.42104],[13.79847,-4.41971],[13.79611,-4.42373],[13.78136,-4.42235],[13.77186,-4.42826],[13.76752,-4.43978],[13.75756,-4.44468],[13.75072,-4.44287],[13.74319,-4.4465],[13.73395,-4.44177],[13.72318,-4.45617],[13.72639,-4.46327],[13.7225,-4.46485],[13.72309,-4.47139],[13.71928,-4.47408],[13.72509,-4.47717],[13.72261,-4.48942],[13.73406,-4.50723],[13.73126,-4.51817],[13.73591,-4.52367],[13.72929,-4.52952],[13.73175,-4.54007],[13.73098,-4.55087],[13.72684,-4.55394],[13.73046,-4.56906],[13.72895,-4.58916],[13.71715,-4.61099],[13.7083,-4.61373],[13.71267,-4.62686],[13.71886,-4.63062],[13.71715,-4.63409],[13.71174,-4.63483],[13.70602,-4.64231],[13.69469,-4.64067],[13.6907,-4.65076],[13.69432,-4.65888],[13.70189,-4.66265],[13.70896,-4.67204],[13.72301,-4.67876],[13.72562,-4.68928],[13.72142,-4.69885],[13.72356,-4.70611],[13.71439,-4.71137],[13.69017,-4.70407],[13.67654,-4.70698],[13.67506,-4.71102],[13.68027,-4.72251],[13.69785,-4.74356],[13.69683,-4.7471],[13.68578,-4.75305],[13.68188,-4.76769],[13.67529,-4.76392],[13.67671,-4.76131],[13.67281,-4.75671],[13.6628,-4.75821],[13.66187,-4.75044],[13.65432,-4.74836],[13.64816,-4.73622],[13.64147,-4.73578],[13.63113,-4.74118],[13.6195,-4.7359],[13.62598,-4.74524],[13.63799,-4.75328],[13.63427,-4.75708],[13.62417,-4.75815],[13.62146,-4.76522],[13.62246,-4.78356],[13.60837,-4.7935],[13.61302,-4.80428],[13.60557,-4.81151],[13.58575,-4.81164],[13.57627,-4.79737],[13.56432,-4.79221],[13.55671,-4.78495],[13.55557,-4.77711],[13.55024,-4.77477],[13.54412,-4.75907],[13.53137,-4.75956],[13.529,-4.76564],[13.51692,-4.77153],[13.51502,-4.77728],[13.504,-4.77626],[13.49911,-4.78369],[13.50015,-4.78769],[13.49564,-4.7897],[13.49605,-4.80154],[13.50841,-4.8061],[13.51774,-4.80109],[13.52132,-4.80763],[13.51164,-4.8142],[13.51198,-4.82757],[13.49704,-4.83408],[13.49219,-4.83048],[13.48153,-4.84836],[13.47454,-4.84754],[13.46811,-4.85624],[13.45413,-4.85082],[13.44121,-4.8629],[13.42886,-4.86515],[13.41594,-4.86159],[13.41291,-4.86726],[13.41244,-4.87228],[13.42781,-4.88027],[13.4284,-4.89108],[13.43565,-4.89969],[13.43329,-4.91496],[13.4298,-4.91626],[13.42559,-4.90602],[13.41482,-4.89942],[13.40815,-4.89036],[13.39944,-4.88673],[13.37419,-4.86027],[13.37639,-4.8501],[13.38394,-4.84507],[13.38276,-4.83249],[13.37914,-4.8322],[13.37811,-4.81903],[13.38207,-4.81562],[13.37871,-4.8015],[13.35709,-4.79488],[13.3483,-4.78374],[13.3382,-4.78284],[13.33333,-4.7871],[13.3223,-4.78168],[13.3198,-4.78439],[13.31193,-4.78411],[13.30292,-4.78199],[13.29893,-4.77327],[13.28257,-4.7683],[13.27125,-4.75618],[13.27174,-4.75046],[13.26738,-4.74468],[13.24666,-4.73627],[13.23741,-4.72172],[13.23132,-4.72055],[13.22957,-4.71395],[13.21727,-4.70295],[13.20893,-4.69016],[13.19122,-4.67998],[13.18275,-4.66735],[13.18476,-4.65939],[13.18146,-4.64968],[13.17552,-4.64663],[13.17102,-4.62868],[13.15338,-4.62312],[13.14936,-4.61284],[13.14202,-4.60576],[13.14182,-4.59601],[13.13338,-4.58714],[13.1187,-4.58185],[13.10686,-4.59693],[13.10266,-4.59616],[13.10353,-4.61844],[13.09507,-4.6193],[13.10013,-4.62969],[13.09616,-4.63569],[13.10011,-4.63753],[13.09975,-4.65559],[13.10812,-4.66332],[13.11045,-4.673],[13.11025,-4.67687],[13.10272,-4.68399],[13.08016,-4.66183],[13.05776,-4.64836],[13.05484,-4.64518],[13.05976,-4.64376],[13.05894,-4.64083],[13.0416,-4.62335],[13.03353,-4.62202],[13.03122,-4.61538],[13.00749,-4.59031],[12.9811,-4.55439],[12.97058,-4.53509],[12.95626,-4.52388],[12.93868,-4.50176],[12.92964,-4.49619],[12.92589,-4.49703],[12.91473,-4.48484],[12.91533,-4.48076],[12.90782,-4.47846],[12.90655,-4.4736],[12.89874,-4.46975],[12.87571,-4.44492],[12.87175,-4.4457],[12.85322,-4.42988],[12.8434,-4.41503],[12.83333,-4.41809],[12.83333,-4.44267],[12.83097,-4.44283],[12.81041,-4.43394],[12.79604,-4.41294],[12.76868,-4.38815],[12.75854,-4.39328],[12.75673,-4.39767],[12.76086,-4.40055],[12.76424,-4.41382],[12.75865,-4.41733],[12.74868,-4.41525],[12.74702,-4.41792],[12.73317,-4.41223],[12.73085,-4.40457],[12.72404,-4.39766],[12.72131,-4.39905],[12.72295,-4.40579],[12.71975,-4.40781],[12.72181,-4.41145],[12.76737,-4.47421],[12.78125,-4.48836],[12.77987,-4.49294],[12.77173,-4.49407],[12.76762,-4.49875],[12.76757,-4.5057],[12.76325,-4.50664],[12.74158,-4.49179],[12.71043,-4.4778],[12.6963,-4.48152],[12.69294,-4.49245],[12.67709,-4.50059],[12.67814,-4.50358],[12.6723,-4.50969],[12.67501,-4.51969],[12.67321,-4.52938],[12.66932,-4.53197],[12.66459,-4.52931],[12.66195,-4.53386],[12.65475,-4.53206],[12.65953,-4.54083],[12.65665,-4.54488],[12.65172,-4.54205],[12.64828,-4.54558],[12.65016,-4.55224],[12.64522,-4.55215],[12.64312,-4.56007],[12.63776,-4.56337],[12.56363,-4.56337],[12.5575,-4.5746],[12.56078,-4.57816],[12.55909,-4.58225],[12.53682,-4.58782],[12.50303,-4.57603],[12.50406,-4.56818],[12.4863,-4.56482],[12.48236,-4.57208],[12.46543,-4.57644],[12.46844,-4.57885],[12.46674,-4.58197],[12.46331,-4.58113],[12.45267,-4.5895],[12.45034,-4.60252],[12.43794,-4.59767],[12.42302,-4.60896],[12.41477,-4.60311],[12.41008,-4.60915],[12.39159,-4.6103],[12.38795,-4.63592],[12.39133,-4.64212],[12.39798,-4.64519],[12.39538,-4.65737],[12.39872,-4.6663],[12.38444,-4.68004],[12.38279,-4.69177],[12.38691,-4.69705],[12.38136,-4.70391],[12.37394,-4.7044],[12.37126,-4.73483],[12.35952,-4.74372],[12.35889,-4.74897],[12.34698,-4.76364],[12.33848,-4.76719],[12.33919,-4.77758],[12.332,-4.78438],[12.33156,-4.7902],[12.31813,-4.80058],[12.30127,-4.80705],[12.30587,-4.79939],[12.29816,-4.79413],[12.28147,-4.80442],[12.27382,-4.79594],[12.26364,-4.79743],[12.24942,-4.81123],[12.24071,-4.81416],[12.23552,-4.80366],[12.24344,-4.79857],[12.23463,-4.79654],[12.22506,-4.80306],[12.21226,-4.80443],[12.20859,-4.80321],[12.20922,-4.79672],[12.19759,-4.79075],[12.16621,-4.8962],[12.08853,-4.95955],[12.02182,-5.02413],[12.01141,-5.02701],[12.01157,-5.03345],[11.96091,-4.95875],[11.89755,-4.88333],[11.88847,-4.85968],[11.82386,-4.78784],[11.82406,-4.77368],[11.83049,-4.77803],[11.82485,-4.77844],[11.82719,-4.78706],[11.83053,-4.78756],[11.83127,-4.78261],[11.83988,-4.79264],[11.84876,-4.788],[11.85318,-4.76995],[11.85157,-4.754],[11.84781,-4.74435],[11.83362,-4.72677],[11.79319,-4.69281],[11.78531,-4.68113],[11.78115,-4.66775],[11.78125,-4.66003],[11.78971,-4.65806],[11.79922,-4.6606],[11.81048,-4.65219],[11.82463,-4.62792],[11.82637,-4.61375],[11.82325,-4.60501],[11.80362,-4.57135],[11.78853,-4.55287],[11.74654,-4.50847],[11.70973,-4.47835],[11.71435,-4.47872],[11.71844,-4.47433],[11.73354,-4.49109],[11.745,-4.47655],[11.74317,-4.46677],[11.74814,-4.45799],[11.73772,-4.44927],[11.73362,-4.45264],[11.73934,-4.43665],[11.77852,-4.415],[11.78579,-4.40377],[11.80715,-4.38708],[11.82021,-4.38175],[11.82926,-4.36601],[11.83228,-4.35054],[11.87029,-4.32774],[11.88354,-4.30322],[11.8872,-4.28853],[11.89257,-4.28181],[11.90449,-4.28113],[11.90961,-4.27737],[11.9088,-4.26888],[11.89338,-4.25967],[11.89334,-4.24963],[11.91305,-4.23732],[11.92836,-4.21821],[11.94603,-4.21029],[11.95724,-4.18964],[11.96749,-4.18664],[11.98339,-4.18851],[11.98572,-4.19417],[11.98319,-4.20358],[11.99422,-4.20238],[11.99705,-4.20558],[12.02423,-4.20342],[12.03765,-4.19371],[12.04668,-4.17398],[12.05715,-4.16261],[12.06602,-4.13541],[12.09673,-4.11997],[12.10828,-4.12225],[12.11109,-4.12031],[12.11655,-4.10741],[12.11601,-4.09969],[12.12343,-4.09477],[12.11422,-4.1015],[12.11438,-4.10922],[12.10853,-4.1216],[12.098,-4.1174],[12.06525,-4.13413],[12.05637,-4.16094],[12.04438,-4.17489],[12.03637,-4.1932],[12.02524,-4.20148],[11.98729,-4.20202],[11.98485,-4.20087],[11.98776,-4.19082],[11.98236,-4.18594],[11.9685,-4.18381],[11.95646,-4.18733],[11.94525,-4.20823],[11.9263,-4.2159],[11.91457,-4.23281],[11.89281,-4.24422],[11.88913,-4.25428],[11.89133,-4.26045],[11.90578,-4.27071],[11.90665,-4.2761],[11.88859,-4.28183],[11.87461,-4.31639],[11.86414,-4.32879],[11.83316,-4.34487],[11.81916,-4.3748],[11.80846,-4.38404],[11.79227,-4.38829],[11.78233,-4.40661],[11.77364,-4.41476],[11.7634,-4.41943],[11.74774,-4.41923],[11.73727,-4.43292],[11.73649,-4.42893],[11.74939,-4.41266],[11.7346,-4.40241],[11.71741,-4.40299],[11.72105,-4.41714],[11.72797,-4.41609],[11.72979,-4.42175],[11.72492,-4.42382],[11.72328,-4.43078],[11.72857,-4.44004],[11.7255,-4.44082],[11.72579,-4.45125],[11.70372,-4.4503],[11.70195,-4.4561],[11.72124,-4.46929],[11.71688,-4.4697],[11.71587,-4.47331],[11.70996,-4.47307],[11.60728,-4.39051],[11.50974,-4.30378],[11.3963,-4.21411],[11.38896,-4.20679],[11.37323,-4.17979],[11.37524,-4.16819],[11.37292,-4.1633],[11.37572,-4.15582],[11.37287,-4.14501],[11.34364,-4.10852],[11.29039,-4.05946],[11.22637,-4.01018],[11.23253,-4.01042],[11.23793,-4.01736],[11.25333,-4.01796],[11.25947,-4.01189],[11.26845,-4.01264],[11.28714,-3.99803],[11.29454,-3.98448],[11.30586,-3.99591],[11.3037,-3.98198],[11.30687,-3.97738],[11.30543,-3.98306],[11.31327,-3.98391],[11.31069,-3.98083],[11.3191,-3.97297],[11.32255,-3.98576],[11.32995,-3.98813],[11.33491,-3.9857],[11.34116,-3.9893],[11.34309,-3.99452],[11.34607,-3.98593],[11.33219,-3.98211],[11.32683,-3.97254],[11.33167,-3.96016],[11.33603,-3.95963],[11.34029,-3.953],[11.34039,-3.94781],[11.34594,-3.94846],[11.3477,-3.94564],[11.33979,-3.94503],[11.34195,-3.93803],[11.34609,-3.9408],[11.35193,-3.93934],[11.35239,-3.93692],[11.34195,-3.93183],[11.34402,-3.92765],[11.33888,-3.92458],[11.33606,-3.92629],[11.3408,-3.93571],[11.33742,-3.93753],[11.3281,-3.93259],[11.32477,-3.93521],[11.32636,-3.9475],[11.32202,-3.94911],[11.3196,-3.95646],[11.31208,-3.94444],[11.30935,-3.94799],[11.31486,-3.96007],[11.31203,-3.96184],[11.30165,-3.95754],[11.29893,-3.94918],[11.29598,-3.94996],[11.29921,-3.95639],[11.2981,-3.97211],[11.28835,-3.97175],[11.28631,-3.97613],[11.2763,-3.97655],[11.27682,-3.97886],[11.28118,-3.97756],[11.27581,-3.98144],[11.27016,-3.98172],[11.2663,-3.97748],[11.26863,-3.98262],[11.28159,-3.98658],[11.27084,-3.99511],[11.27356,-4.00438],[11.26716,-4.01045],[11.25946,-4.00996],[11.25409,-4.01577],[11.23793,-4.01453],[11.22969,-4.00617],[11.22508,-4.00799],[11.15322,-3.96005],[11.15937,-3.94363],[11.16746,-3.94365],[11.17147,-3.93587],[11.17134,-3.92583],[11.18101,-3.92185],[11.18259,-3.89382],[11.19813,-3.88055],[11.19597,-3.87432],[11.19912,-3.86586],[11.20858,-3.86292],[11.2134,-3.84863],[11.2319,-3.82806],[11.22955,-3.81775],[11.21751,-3.79896],[11.21635,-3.78742],[11.20846,-3.77902],[11.21107,-3.77645],[11.22825,-3.784],[11.23885,-3.77231],[11.23717,-3.76492],[11.24777,-3.76198],[11.2507,-3.7523],[11.24883,-3.74664],[11.24438,-3.74441],[11.24468,-3.72767],[11.25053,-3.7237],[11.25313,-3.72498],[11.25474,-3.7215],[11.25828,-3.7237],[11.26204,-3.71884],[11.26293,-3.70056],[11.25834,-3.69751],[11.25792,-3.69089],[11.25421,-3.68797],[11.26419,-3.67692],[11.26506,-3.66807],[11.27143,-3.66711],[11.27579,-3.67223],[11.28084,-3.67276],[11.28739,-3.66375],[11.2984,-3.66431],[11.3079,-3.65624],[11.30916,-3.64975],[11.31724,-3.65022],[11.32066,-3.64399],[11.35444,-3.65611],[11.3567,-3.65009],[11.35252,-3.64625],[11.35646,-3.64304],[11.35591,-3.62907],[11.36219,-3.62279],[11.35829,-3.61932],[11.36838,-3.61417],[11.36743,-3.61055],[11.37309,-3.60252],[11.38152,-3.60398],[11.38376,-3.60128],[11.3803,-3.59552],[11.38231,-3.59375],[11.3862,-3.59507],[11.38889,-3.59188],[11.39964,-3.59838],[11.40496,-3.59834],[11.41006,-3.5912],[11.4209,-3.58853],[11.41807,-3.58525],[11.42389,-3.57836],[11.42295,-3.57488],[11.41302,-3.56896],[11.42806,-3.55577],[11.44103,-3.55338],[11.45062,-3.55663],[11.46501,-3.54877],[11.47031,-3.5393],[11.46889,-3.53567],[11.44437,-3.51511],[11.44355,-3.51026],[11.4406,-3.50946],[11.44389,-3.5039],[11.44887,-3.50638],[11.45363,-3.50364],[11.46601,-3.50862],[11.48407,-3.49382],[11.50105,-3.50569],[11.50574,-3.51497],[11.51791,-3.51608],[11.53079,-3.52337],[11.53724,-3.52331],[11.54185,-3.53143],[11.54981,-3.53161],[11.5533,-3.53586],[11.55093,-3.54136],[11.55842,-3.54831],[11.55852,-3.55244],[11.56789,-3.55367],[11.56949,-3.56374],[11.57694,-3.56381],[11.57729,-3.56873],[11.58098,-3.57014],[11.58517,-3.56814],[11.59002,-3.574],[11.58823,-3.5802],[11.59765,-3.58422],[11.60598,-3.59586],[11.61454,-3.59819],[11.6272,-3.61184],[11.63285,-3.61289],[11.64878,-3.62524],[11.65316,-3.63628],[11.64497,-3.65513],[11.64779,-3.65778],[11.6486,-3.66912],[11.65056,-3.67122],[11.65314,-3.66729],[11.65751,-3.67577],[11.65014,-3.69048],[11.64368,-3.69131],[11.64595,-3.69582],[11.64253,-3.69832],[11.64798,-3.70609],[11.64705,-3.71151],[11.65623,-3.71725],[11.65655,-3.7416],[11.66333,-3.74621],[11.66752,-3.74577],[11.67071,-3.73718],[11.68415,-3.7277],[11.69576,-3.73358],[11.69789,-3.7293],[11.70369,-3.72772],[11.69974,-3.72107],[11.70117,-3.71777],[11.71104,-3.71241],[11.71794,-3.71169],[11.72347,-3.71804],[11.72697,-3.71464],[11.73711,-3.72],[11.75196,-3.72],[11.75246,-3.72333],[11.75743,-3.72109],[11.77307,-3.70142],[11.7807,-3.69964],[11.78599,-3.68602],[11.79278,-3.69813],[11.8091,-3.70154],[11.8167,-3.71266],[11.82678,-3.71266],[11.83644,-3.70614],[11.83142,-3.69453],[11.83492,-3.6861],[11.83026,-3.68244],[11.83111,-3.66739],[11.84335,-3.67089],[11.85442,-3.67068],[11.86163,-3.66572],[11.86902,-3.66964],[11.87954,-3.66937],[11.88413,-3.66329],[11.8833,-3.65846],[11.90099,-3.64906],[11.90179,-3.64542],[11.89617,-3.64494],[11.87633,-3.62709],[11.86879,-3.62615],[11.868,-3.62928],[11.86033,-3.62366],[11.85572,-3.6275],[11.84802,-3.62126],[11.8353,-3.5894],[11.8368,-3.58502],[11.85094,-3.5751],[11.85202,-3.56569],[11.85509,-3.56404],[11.86408,-3.56881],[11.86889,-3.56608],[11.87473,-3.57136],[11.87826,-3.56719],[11.87244,-3.55746],[11.881,-3.5449],[11.88026,-3.54021],[11.88749,-3.53499],[11.88884,-3.52261],[11.89179,-3.52196],[11.88758,-3.51489],[11.88779,-3.4982],[11.89829,-3.4923],[11.89956,-3.48809],[11.89402,-3.47671],[11.89702,-3.47653],[11.90137,-3.46301],[11.92296,-3.44334],[11.92887,-3.44345],[11.93551,-3.45134],[11.9426,-3.45007],[11.93905,-3.44415],[11.93978,-3.43704],[11.94857,-3.431],[11.94405,-3.42668],[11.94469,-3.42262],[11.95025,-3.42365],[11.95513,-3.41735],[11.95443,-3.39977],[11.94244,-3.38553],[11.94065,-3.37303],[11.93768,-3.37571],[11.93041,-3.36959],[11.93712,-3.36193],[11.93389,-3.35415],[11.93747,-3.35065],[11.9382,-3.33991],[11.96065,-3.33196],[11.96335,-3.32026],[11.94628,-3.30773],[11.93649,-3.29482],[11.92199,-3.28557],[11.90715,-3.28287],[11.89136,-3.28948],[11.87929,-3.28645],[11.87696,-3.29036],[11.85747,-3.27753],[11.83789,-3.27552],[11.83347,-3.27267],[11.83374,-3.26654],[11.8283,-3.26244],[11.82365,-3.26329],[11.81977,-3.25689],[11.8162,-3.25917],[11.80918,-3.25458],[11.80836,-3.25733],[11.80067,-3.25477],[11.79993,-3.25046],[11.78945,-3.2418],[11.77895,-3.23785],[11.77975,-3.23205],[11.77745,-3.22828],[11.77397,-3.2287],[11.77276,-3.21659],[11.76378,-3.21244],[11.75999,-3.20485],[11.74964,-3.20557],[11.74221,-3.1975],[11.7319,-3.20043],[11.7308,-3.19578],[11.7184,-3.19473],[11.71778,-3.19167],[11.70676,-3.18847],[11.6959,-3.18027],[11.69367,-3.17234],[11.68642,-3.16694],[11.68415,-3.16005],[11.67106,-3.16132],[11.6618,-3.14949],[11.67834,-3.1425],[11.69374,-3.13058],[11.68816,-3.11638],[11.7088,-3.10292],[11.71506,-3.10468],[11.71561,-3.12337],[11.72304,-3.12741],[11.72905,-3.12494],[11.73608,-3.10884],[11.76187,-3.0946],[11.76989,-3.09753],[11.77352,-3.10806],[11.77884,-3.10774],[11.78319,-3.10149],[11.78321,-3.09364],[11.77176,-3.0908],[11.76939,-3.08374],[11.77335,-3.07973],[11.78656,-3.07658],[11.79669,-3.06552],[11.79671,-3.06193],[11.79022,-3.0515],[11.7915,-3.04843],[11.78444,-3.0461],[11.78433,-3.04207],[11.77721,-3.03838],[11.77662,-3.02806],[11.7686,-3.02442],[11.76584,-3.01704],[11.74629,-3.01311],[11.7433,-3.00921],[11.7316,-3.01155],[11.72784,-3.00583],[11.72231,-3.00549],[11.71876,-3.00925],[11.69357,-3.00444],[11.68239,-2.99744],[11.67611,-2.98577],[11.67356,-2.96897],[11.66264,-2.95186],[11.6606,-2.93595],[11.66456,-2.93037],[11.66442,-2.91502],[11.65377,-2.90519],[11.65117,-2.89831],[11.63832,-2.89356],[11.63596,-2.88855],[11.62228,-2.88226],[11.62237,-2.87787],[11.59424,-2.83621],[11.59018,-2.85811],[11.58346,-2.87197],[11.56774,-2.87597],[11.5482,-2.8714],[11.54508,-2.8634],[11.54778,-2.85781],[11.54084,-2.84628],[11.53283,-2.84257],[11.53416,-2.83695],[11.53879,-2.83514],[11.53836,-2.82959],[11.54159,-2.8285],[11.53824,-2.81785],[11.54576,-2.80229],[11.54378,-2.79707],[11.54733,-2.79052],[11.55166,-2.79001],[11.5476,-2.78483],[11.54806,-2.77628],[11.5522,-2.77591],[11.55638,-2.76477],[11.562,-2.75934],[11.57229,-2.75481],[11.57193,-2.75186],[11.57605,-2.75214],[11.57826,-2.73235],[11.57525,-2.73075],[11.57613,-2.72116],[11.58439,-2.71279],[11.57937,-2.70512],[11.5832,-2.7032],[11.58247,-2.69544],[11.58669,-2.69296],[11.59013,-2.68174],[11.59971,-2.67743],[11.59817,-2.67249],[11.60489,-2.67159],[11.60528,-2.66605],[11.60136,-2.66503],[11.59877,-2.65833],[11.60173,-2.65102],[11.5994,-2.64289],[11.60553,-2.63158],[11.60097,-2.63059],[11.59906,-2.62424],[11.59029,-2.61917],[11.58538,-2.60493],[11.5874,-2.60427],[11.5843,-2.5995],[11.58496,-2.59245],[11.57872,-2.58233],[11.57325,-2.5826],[11.56637,-2.57661],[11.56076,-2.5761],[11.55199,-2.55975],[11.55162,-2.54528],[11.54737,-2.53968],[11.5529,-2.52491],[11.54671,-2.52004],[11.54951,-2.51568],[11.54649,-2.50722],[11.54983,-2.50169],[11.54499,-2.4927],[11.54874,-2.48242],[11.55209,-2.48514],[11.55502,-2.48348],[11.55051,-2.47494],[11.55185,-2.46858],[11.54765,-2.4629],[11.54389,-2.4303],[11.53407,-2.4313],[11.53934,-2.41402],[11.53801,-2.40162],[11.5243,-2.39713],[11.52114,-2.3913],[11.52245,-2.38515],[11.51706,-2.38258],[11.52527,-2.3712],[11.53274,-2.36651],[11.53915,-2.37549],[11.54225,-2.36997],[11.54555,-2.36972],[11.54642,-2.37764],[11.54976,-2.37893],[11.56518,-2.37693],[11.57408,-2.37445],[11.58772,-2.36258],[11.59265,-2.36752],[11.57918,-2.37854],[11.57472,-2.38626],[11.57509,-2.38888],[11.58472,-2.38334],[11.59114,-2.38398],[11.58183,-2.3958],[11.58679,-2.39872],[11.59317,-2.39758],[11.60686,-2.38579],[11.60861,-2.38912],[11.60448,-2.40113],[11.6089,-2.40652],[11.62074,-2.39478],[11.61747,-2.40717],[11.62058,-2.41296],[11.63063,-2.40168],[11.63499,-2.40326],[11.63184,-2.4138],[11.63768,-2.41395],[11.64122,-2.41837],[11.63567,-2.42028],[11.63125,-2.43],[11.64953,-2.44069],[11.64751,-2.44576],[11.63537,-2.44693],[11.63634,-2.45771],[11.64179,-2.46045],[11.66909,-2.45965],[11.67129,-2.46846],[11.67809,-2.47299],[11.67771,-2.48409],[11.69056,-2.48138],[11.69826,-2.49476],[11.7061,-2.49433],[11.71306,-2.50381],[11.7156,-2.52535],[11.72279,-2.52664],[11.71736,-2.53101],[11.71817,-2.53425],[11.72393,-2.5356],[11.71793,-2.54214],[11.72283,-2.55038],[11.73339,-2.54719],[11.74877,-2.53581],[11.74905,-2.53233],[11.76203,-2.52011],[11.76361,-2.51631],[11.75697,-2.51452],[11.75495,-2.50697],[11.76172,-2.4832],[11.76936,-2.46537],[11.774,-2.46151],[11.77345,-2.45301],[11.78288,-2.44787],[11.79619,-2.45357],[11.8043,-2.45053],[11.80411,-2.45737],[11.81399,-2.45675],[11.82713,-2.43503],[11.83863,-2.43873],[11.84514,-2.43418],[11.85298,-2.43899],[11.86117,-2.43765],[11.86198,-2.43345],[11.87988,-2.4296],[11.88916,-2.42103],[11.8936,-2.40698],[11.89974,-2.4036],[11.89544,-2.38717],[11.89643,-2.37819],[11.90101,-2.37789],[11.90818,-2.3697],[11.91351,-2.37515],[11.9164,-2.37033],[11.92259,-2.37623],[11.92866,-2.37299],[11.9308,-2.36779],[11.93593,-2.36949],[11.93801,-2.37406],[11.94526,-2.37012],[11.95584,-2.35428],[11.95874,-2.35682],[11.96147,-2.3519],[11.95915,-2.34954],[11.96583,-2.34042],[11.97808,-2.33611],[11.98059,-2.34204],[11.98573,-2.34422],[11.98696,-2.34189],[12.03074,-2.40433],[12.04597,-2.41523],[12.11371,-2.42435],[12.51393,-2.42171],[12.51102,-2.40581],[12.50801,-2.40393],[12.51188,-2.39227],[12.50892,-2.3805],[12.51083,-2.37795],[12.50288,-2.37665],[12.50555,-2.3723],[12.49904,-2.36844],[12.50243,-2.36165],[12.50892,-2.35897],[12.51183,-2.35],[12.50686,-2.34662],[12.50323,-2.33696],[12.49208,-2.32984],[12.47788,-2.33967],[12.47212,-2.32979],[12.46825,-2.3291],[12.47659,-2.32155],[12.47503,-2.31671],[12.46915,-2.31702],[12.46437,-2.30746],[12.46936,-2.3047],[12.4692,-2.30165],[12.46252,-2.29599],[12.48191,-2.2836],[12.482,-2.27971],[12.4891,-2.27869],[12.48728,-2.26924],[12.49555,-2.2659],[12.49675,-2.26227],[12.49412,-2.26159],[12.48782,-2.24496],[12.49395,-2.24075],[12.49369,-2.23451],[12.49853,-2.23417],[12.50639,-2.22555],[12.50228,-2.21325],[12.48324,-2.212],[12.4977,-2.19834],[12.49681,-2.19216],[12.49916,-2.19141],[12.48899,-2.18529],[12.48808,-2.17633],[12.4822,-2.17522],[12.48277,-2.17286],[12.47645,-2.16922],[12.48381,-2.15354],[12.4948,-2.14891],[12.50456,-2.13414],[12.50121,-2.11911],[12.48883,-2.11468],[12.4807,-2.10523],[12.47433,-2.07364],[12.4449,-2.04388],[12.45818,-2.02387],[12.45754,-2.01543],[12.44508,-1.99035],[12.44789,-1.981],[12.45624,-1.97603],[12.45661,-1.96077],[12.46324,-1.94108],[12.44458,-1.91735],[12.44971,-1.89773],[12.44837,-1.88382],[12.44174,-1.87773],[12.44861,-1.86794],[12.46143,-1.87445],[12.45889,-1.88574],[12.46267,-1.88477],[12.46584,-1.89362],[12.47902,-1.89649],[12.48413,-1.90658],[12.48134,-1.90887],[12.48214,-1.91457],[12.49116,-1.91159],[12.49295,-1.9246],[12.49793,-1.92424],[12.50263,-1.91776],[12.50923,-1.92473],[12.51843,-1.91195],[12.52375,-1.91256],[12.52946,-1.90877],[12.53269,-1.9021],[12.52534,-1.88585],[12.51883,-1.88291],[12.51971,-1.87308],[12.51262,-1.87103],[12.51546,-1.8625],[12.52171,-1.86908],[12.52819,-1.85692],[12.5303,-1.86212],[12.54088,-1.85858],[12.55499,-1.8589],[12.56149,-1.85057],[12.56166,-1.84572],[12.56513,-1.84425],[12.56155,-1.83891],[12.57408,-1.83948],[12.57614,-1.84349],[12.57894,-1.83884],[12.58404,-1.83888],[12.58884,-1.83454],[12.57722,-1.82512],[12.57863,-1.82095],[12.58974,-1.82196],[12.60959,-1.81418],[12.61213,-1.82089],[12.62132,-1.81909],[12.62161,-1.83043],[12.62516,-1.83212],[12.63582,-1.82992],[12.64389,-1.8223],[12.64434,-1.81683],[12.65105,-1.81238],[12.659,-1.81672],[12.66041,-1.83172],[12.67124,-1.84097],[12.67744,-1.84171],[12.68528,-1.83516],[12.69273,-1.84904],[12.7059,-1.8423],[12.71148,-1.84422],[12.71217,-1.84764],[12.71717,-1.84643],[12.72505,-1.85895],[12.72402,-1.86262],[12.73307,-1.86482],[12.73106,-1.87199],[12.73998,-1.86994],[12.74984,-1.87543],[12.74653,-1.87868],[12.75017,-1.88131],[12.75141,-1.89215],[12.75604,-1.89369],[12.76588,-1.88318],[12.7687,-1.88312],[12.77118,-1.89407],[12.77439,-1.89506],[12.78038,-1.88928],[12.78894,-1.8901],[12.79082,-1.89283],[12.78549,-1.89372],[12.78232,-1.8999],[12.78918,-1.90095],[12.79329,-1.90883],[12.79927,-1.91171],[12.80363,-1.90858],[12.80882,-1.91056],[12.82083,-1.90236],[12.82174,-1.90797],[12.81793,-1.91424],[12.82095,-1.91707],[12.81403,-1.92186],[12.81544,-1.92799],[12.81166,-1.9306],[12.82277,-1.93227],[12.82213,-1.93909],[12.82725,-1.93752],[12.83699,-1.94549],[12.83735,-1.93797],[12.84557,-1.93898],[12.84482,-1.94363],[12.84989,-1.94771],[12.84525,-1.95195],[12.85139,-1.97135],[12.83881,-1.9752],[12.83753,-1.98243],[12.84278,-1.99475],[12.84872,-1.99487],[12.85045,-1.99895],[12.85369,-1.99788],[12.8582,-2.00166],[12.8564,-2.0088],[12.86409,-2.01444],[12.85854,-2.01655],[12.85906,-2.02047],[12.86686,-2.03083],[12.86321,-2.03637],[12.8658,-2.04414],[12.87708,-2.05051],[12.87323,-2.05315],[12.87544,-2.06526],[12.88009,-2.06426],[12.88299,-2.06714],[12.88196,-2.0715],[12.88633,-2.0737],[12.89067,-2.07086],[12.88912,-2.066],[12.89293,-2.06398],[12.8953,-2.07349],[12.90317,-2.07485],[12.90289,-2.08232],[12.89548,-2.08729],[12.89542,-2.0929],[12.89961,-2.09617],[12.89946,-2.10273],[12.90967,-2.10601],[12.90937,-2.11479],[12.91897,-2.11758],[12.92096,-2.12146],[12.92005,-2.12502],[12.90875,-2.12803],[12.89888,-2.13647],[12.89837,-2.14397],[12.89363,-2.14526],[12.896,-2.14976],[12.8996,-2.14963],[12.8985,-2.15325],[12.90587,-2.15772],[12.9067,-2.16289],[12.91805,-2.16827],[12.92817,-2.17995],[12.9239,-2.19216],[12.93429,-2.19489],[12.93557,-2.20229],[12.94274,-2.20175],[12.9495,-2.19516],[12.94907,-2.1833],[12.95877,-2.18287],[12.9613,-2.18897],[12.96445,-2.18602],[12.96584,-2.19276],[12.97423,-2.19671],[12.96879,-2.20702],[12.97362,-2.21358],[12.98253,-2.21459],[12.98841,-2.22449],[12.99192,-2.22331],[12.99285,-2.22613],[12.99653,-2.22379],[12.99895,-2.22689],[12.99588,-2.23381],[13.00796,-2.24215],[13.00319,-2.24703],[13.00809,-2.25066],[13.00577,-2.26286],[13.01475,-2.26491],[13.01509,-2.27192],[13.01849,-2.26835],[13.03239,-2.26989],[13.03671,-2.275],[13.04062,-2.27285],[13.04368,-2.27726],[13.04291,-2.29062],[13.02667,-2.29742],[13.02367,-2.2927],[13.01575,-2.29561],[13.01384,-2.30099],[13.01712,-2.31419],[13.02249,-2.31656],[13.01952,-2.31832],[13.02179,-2.32507],[13.01079,-2.33184],[13.01095,-2.34042],[13.00397,-2.34367],[13.00404,-2.34736],[13.01102,-2.35059],[13.01113,-2.35348],[13.00162,-2.35777],[12.99709,-2.36525],[13.00311,-2.36669],[13.01192,-2.36252],[13.01204,-2.35795],[13.0195,-2.34936],[13.01965,-2.33943],[13.02739,-2.32207],[13.03218,-2.32189],[13.04499,-2.32622],[13.05287,-2.33378],[13.0654,-2.33837],[13.07898,-2.34825],[13.08938,-2.34842],[13.09375,-2.35537],[13.11095,-2.34953],[13.11151,-2.35407],[13.12066,-2.35703],[13.12835,-2.36836],[13.13913,-2.37201],[13.15027,-2.36713],[13.15562,-2.37265],[13.16383,-2.37318],[13.1809,-2.36344],[13.18038,-2.36048],[13.1853,-2.36056],[13.19685,-2.35304],[13.1974,-2.34947],[13.20424,-2.35306],[13.20856,-2.34876],[13.23522,-2.37066],[13.24899,-2.37726],[13.27164,-2.3765],[13.28278,-2.38537],[13.30563,-2.39409],[13.31235,-2.39204],[13.32349,-2.39549],[13.33512,-2.39121],[13.33741,-2.39661],[13.3645,-2.41343],[13.3705,-2.42185],[13.37581,-2.42255],[13.37553,-2.4258],[13.39317,-2.42074],[13.40458,-2.42186],[13.40382,-2.41863],[13.41438,-2.41531],[13.42806,-2.42073],[13.44308,-2.41985],[13.44643,-2.41586],[13.45289,-2.42055],[13.48044,-2.42716],[13.48218,-2.43247],[13.48938,-2.43535],[13.50125,-2.41833],[13.50654,-2.40319],[13.51045,-2.40118],[13.51008,-2.3963],[13.51281,-2.3986],[13.51541,-2.39328],[13.52495,-2.39105],[13.53144,-2.38564],[13.53106,-2.38249],[13.53883,-2.37997],[13.53777,-2.37708],[13.55325,-2.37537],[13.55292,-2.37017],[13.56413,-2.36159],[13.56173,-2.35528],[13.56407,-2.35078],[13.57189,-2.34532],[13.58018,-2.34489],[13.58112,-2.34162],[13.58673,-2.34257],[13.59817,-2.33086],[13.60034,-2.33267],[13.60171,-2.33006],[13.60821,-2.33639],[13.61611,-2.33574],[13.61532,-2.3335],[13.61881,-2.33303],[13.62688,-2.32237],[13.62701,-2.30422],[13.63885,-2.29965],[13.72843,-2.19774],[13.72832,-2.19414],[13.72292,-2.19136],[13.7282,-2.16126],[13.73633,-2.14683],[13.74227,-2.14444],[13.74817,-2.13479],[13.74765,-2.12233],[13.75537,-2.11123],[13.75903,-2.09423],[13.76438,-2.08946],[13.77015,-2.09451],[13.77106,-2.11068],[13.7776,-2.11893],[13.77541,-2.12323],[13.77945,-2.13086],[13.78811,-2.13172],[13.80999,-2.15295],[13.81521,-2.16473],[13.8171,-2.18723],[13.8316,-2.20809],[13.83404,-2.22155],[13.84562,-2.23506],[13.84782,-2.25224],[13.86596,-2.26785],[13.87588,-2.2697],[13.87825,-2.28489],[13.88595,-2.29162],[13.88763,-2.30603],[13.88522,-2.31149],[13.88012,-2.31082],[13.87831,-2.31659],[13.88497,-2.31879],[13.89658,-2.33563],[13.90019,-2.33487],[13.90371,-2.3395],[13.91515,-2.34387],[13.92931,-2.34211],[13.93933,-2.35213],[13.93224,-2.35966],[13.93316,-2.36517],[13.92565,-2.36965],[13.91978,-2.36865],[13.91709,-2.36091],[13.90899,-2.36155],[13.90756,-2.37198],[13.89409,-2.39702],[13.87157,-2.4078],[13.86423,-2.42698],[13.86813,-2.43132],[13.86502,-2.45071],[13.86839,-2.45265],[13.86658,-2.46982],[13.87821,-2.48055],[13.8858,-2.47649],[13.90123,-2.49033],[13.91641,-2.49387],[13.93216,-2.48758],[13.93676,-2.49083],[13.94071,-2.4893],[13.94186,-2.47748],[13.94924,-2.47474],[13.9548,-2.46499],[13.95853,-2.464],[13.96567,-2.46837],[13.98595,-2.4656],[13.99477,-2.47454],[13.99593,-2.49129],[14.00333,-2.49861],[14.02145,-2.48776],[14.02886,-2.49099],[14.03387,-2.48832],[14.03659,-2.47667],[14.03951,-2.47498],[14.06122,-2.47273],[14.0644,-2.47564],[14.06401,-2.49002],[14.06849,-2.49575],[14.07236,-2.49817],[14.07991,-2.49648],[14.08186,-2.49223],[14.09189,-2.50022],[14.09508,-2.50785],[14.10392,-2.51148],[14.10745,-2.50951],[14.112,-2.49541],[14.10669,-2.49371],[14.11247,-2.47529],[14.12593,-2.46395],[14.12855,-2.45788],[14.13265,-2.46],[14.14237,-2.45826],[14.14396,-2.4512],[14.13991,-2.44816],[14.14217,-2.44177],[14.14598,-2.44252],[14.14753,-2.42837],[14.13943,-2.4237],[14.13818,-2.41657],[14.14854,-2.41212],[14.15199,-2.39502],[14.15488,-2.39212],[14.16291,-2.39201],[14.17095,-2.38118],[14.19095,-2.36506],[14.20401,-2.36],[14.21283,-2.36621],[14.22431,-2.36529],[14.23394,-2.35375],[14.24339,-2.35488],[14.24439,-2.35153],[14.25815,-2.34784],[14.25951,-2.33916],[14.25584,-2.33517],[14.2452,-2.33259],[14.24161,-2.32792],[14.2421,-2.32192],[14.23634,-2.32118],[14.23261,-2.30775],[14.22674,-2.30122],[14.22843,-2.29808],[14.20679,-2.29042],[14.19461,-2.27957],[14.1989,-2.26527],[14.19772,-2.24874],[14.18794,-2.24358],[14.16578,-2.2448],[14.15943,-2.23652],[14.15341,-2.23804],[14.1504,-2.22981],[14.15633,-2.22166],[14.16816,-2.2237],[14.19171,-2.20414],[14.19454,-2.20763],[14.20202,-2.20842],[14.2138,-2.20148],[14.21671,-2.20475],[14.22027,-2.19302],[14.23265,-2.19773],[14.22557,-2.17303],[14.21927,-2.16895],[14.22194,-2.16308],[14.21766,-2.15305],[14.21931,-2.14994],[14.21376,-2.14387],[14.22865,-2.13038],[14.22997,-2.13369],[14.24127,-2.13203],[14.24583,-2.13739],[14.25523,-2.13729],[14.25907,-2.14096],[14.26787,-2.13095],[14.27013,-2.11714],[14.25132,-2.1029],[14.25728,-2.09985],[14.26693,-2.06724],[14.27351,-2.05779],[14.26833,-2.04923],[14.26618,-2.0358],[14.2567,-2.02889],[14.24779,-2.0302],[14.23928,-2.0235],[14.24561,-2.00756],[14.24944,-2.00903],[14.25422,-2.00323],[14.25414,-1.99282],[14.2583,-1.98187],[14.25654,-1.97815],[14.26571,-1.9733],[14.27173,-1.97381],[14.27826,-1.96556],[14.29468,-1.97355],[14.30085,-1.97318],[14.30656,-1.96156],[14.3061,-1.95501],[14.30183,-1.9514],[14.31211,-1.93872],[14.33126,-1.9391],[14.33328,-1.94315],[14.33894,-1.94308],[14.3499,-1.93391],[14.35641,-1.93386],[14.36511,-1.92513],[14.37286,-1.93199],[14.38145,-1.92702],[14.38533,-1.9191],[14.39113,-1.9197],[14.39436,-1.92499],[14.39938,-1.92384],[14.4036,-1.91588],[14.41776,-1.91462],[14.43097,-1.90479],[14.43389,-1.89912],[14.43153,-1.87756],[14.41796,-1.87162],[14.42194,-1.86117],[14.42069,-1.84971],[14.42482,-1.85006],[14.42984,-1.84],[14.4289,-1.8265],[14.43516,-1.82438],[14.44094,-1.80449],[14.43865,-1.79227],[14.42538,-1.78619],[14.42275,-1.77652],[14.42833,-1.76165],[14.42577,-1.75299],[14.43673,-1.74965],[14.43644,-1.73588],[14.44192,-1.7255],[14.45178,-1.71852],[14.45278,-1.71326],[14.46518,-1.70961],[14.47608,-1.71191],[14.47935,-1.70104],[14.47845,-1.69688],[14.46438,-1.6936],[14.46121,-1.6782],[14.44916,-1.68659],[14.44176,-1.68795],[14.4282,-1.68113],[14.42258,-1.66156],[14.4265,-1.65035],[14.42252,-1.64314],[14.4124,-1.6448],[14.40196,-1.64111],[14.38907,-1.61502],[14.40356,-1.60939],[14.41228,-1.61193],[14.42184,-1.6085],[14.42693,-1.60449],[14.43252,-1.58821],[14.44214,-1.58387],[14.44263,-1.57323],[14.4485,-1.57031],[14.45933,-1.57293],[14.46179,-1.57079],[14.45945,-1.56187],[14.46533,-1.56039],[14.47466,-1.56386],[14.4797,-1.57313],[14.48747,-1.56385],[14.49,-1.56489],[14.49283,-1.55559],[14.48272,-1.54072],[14.47339,-1.53704],[14.47158,-1.53094],[14.46622,-1.52703],[14.46567,-1.51248],[14.47718,-1.50689],[14.48502,-1.50662],[14.48578,-1.49834],[14.47916,-1.49421],[14.4775,-1.48356],[14.48441,-1.47531],[14.48886,-1.47496],[14.49031,-1.45675],[14.50754,-1.44814],[14.51246,-1.43975],[14.517,-1.44132],[14.52117,-1.43235],[14.51525,-1.42512],[14.51535,-1.41243],[14.51081,-1.40958],[14.50882,-1.40223],[14.51393,-1.38567],[14.49673,-1.37817],[14.48688,-1.38433],[14.48008,-1.36797],[14.47152,-1.37109],[14.46319,-1.36967],[14.45892,-1.35736],[14.45609,-1.35708],[14.44824,-1.34441],[14.45346,-1.33776],[14.45784,-1.33931],[14.46462,-1.33351],[14.47232,-1.33575],[14.47746,-1.32575],[14.48416,-1.32257],[14.48797,-1.30664],[14.49573,-1.30479],[14.49248,-1.29809],[14.49579,-1.29403],[14.48852,-1.28943],[14.48941,-1.28558],[14.49586,-1.27769],[14.50298,-1.27564],[14.50494,-1.26929],[14.49566,-1.25714],[14.48962,-1.25509],[14.49478,-1.24535],[14.49291,-1.23829],[14.48271,-1.23011],[14.49331,-1.21861],[14.49977,-1.21733],[14.50066,-1.21294],[14.49178,-1.20049],[14.48507,-1.19988],[14.48448,-1.19191],[14.47976,-1.18862],[14.4748,-1.19154],[14.46853,-1.1906],[14.46689,-1.18021],[14.4629,-1.17509],[14.45725,-1.17582],[14.46206,-1.15919],[14.47117,-1.15634],[14.47114,-1.1489],[14.47665,-1.14457],[14.47528,-1.1365],[14.46861,-1.13489],[14.47138,-1.12502],[14.46529,-1.12016],[14.47032,-1.10851],[14.44576,-1.08756],[14.44661,-1.07621],[14.44322,-1.06847],[14.44655,-1.06365],[14.4446,-1.05701],[14.44797,-1.05004],[14.44153,-1.04843],[14.43942,-1.04346],[14.43019,-1.04583],[14.42382,-1.03958],[14.4267,-1.03171],[14.42101,-1.02367],[14.42377,-1.01927],[14.43309,-1.02144],[14.4322,-1.01286],[14.43677,-0.99792],[14.43367,-0.99623],[14.43266,-0.98868],[14.43926,-0.98509],[14.43397,-0.9766],[14.43469,-0.96106],[14.43026,-0.95242],[14.43646,-0.94936],[14.43866,-0.94431],[14.42846,-0.93182],[14.43003,-0.9206],[14.43492,-0.91451],[14.44329,-0.91209],[14.44617,-0.90138],[14.45459,-0.89359],[14.46057,-0.87659],[14.47947,-0.86793],[14.4799,-0.85331],[14.47691,-0.85267],[14.47397,-0.84389],[14.47851,-0.84243],[14.48212,-0.82973],[14.47415,-0.82975],[14.46847,-0.8178],[14.46365,-0.81442],[14.46618,-0.81193],[14.45502,-0.80442],[14.45459,-0.7998],[14.46681,-0.79156],[14.46799,-0.78377],[14.47246,-0.78322],[14.47054,-0.77563],[14.47683,-0.77096],[14.47207,-0.767],[14.46499,-0.75155],[14.4712,-0.74595],[14.4736,-0.73813],[14.48223,-0.73362],[14.48025,-0.72435],[14.49775,-0.71169],[14.49497,-0.70085],[14.49672,-0.69703],[14.50148,-0.69573],[14.50335,-0.68835],[14.50614,-0.68879],[14.51282,-0.67907],[14.51764,-0.67778],[14.51993,-0.66971],[14.52512,-0.66744],[14.52702,-0.65803],[14.52362,-0.65617],[14.5235,-0.64408],[14.5149,-0.63552],[14.52063,-0.63261],[14.5187,-0.62376],[14.52373,-0.6236],[14.52676,-0.6179],[14.51602,-0.61169],[14.51643,-0.60762],[14.50962,-0.59906],[14.49909,-0.5917],[14.50308,-0.57349],[14.49149,-0.57343],[14.48937,-0.56782],[14.48539,-0.56711],[14.48337,-0.55971],[14.47762,-0.55789],[14.47811,-0.55232],[14.47311,-0.55041],[14.47373,-0.54403],[14.46863,-0.53907],[14.46563,-0.52675],[14.45773,-0.51975],[14.44293,-0.52682],[14.43712,-0.52735],[14.42876,-0.5227],[14.43618,-0.51175],[14.43341,-0.49442],[14.43908,-0.48615],[14.43312,-0.48253],[14.42474,-0.4856],[14.41323,-0.47162],[14.40581,-0.48065],[14.39876,-0.47672],[14.39225,-0.47758],[14.39143,-0.47422],[14.38676,-0.47479],[14.37832,-0.46697],[14.37257,-0.46654],[14.36963,-0.47387],[14.35942,-0.47408],[14.35575,-0.45947],[14.34444,-0.45757],[14.34206,-0.45387],[14.3429,-0.44446],[14.33143,-0.44335],[14.32213,-0.43612],[14.30893,-0.43853],[14.30457,-0.43223],[14.29912,-0.43052],[14.29324,-0.43096],[14.29175,-0.43499],[14.28012,-0.44267],[14.28017,-0.44753],[14.27276,-0.44639],[14.27182,-0.45726],[14.25765,-0.4544],[14.25648,-0.44173],[14.25038,-0.44322],[14.23255,-0.43453],[14.21208,-0.43265],[14.20799,-0.44132],[14.20353,-0.44205],[14.1942,-0.43408],[14.19195,-0.42781],[14.18577,-0.4279],[14.18186,-0.4339],[14.17985,-0.43273],[14.16947,-0.42275],[14.17111,-0.4195],[14.16637,-0.41341],[14.1749,-0.39883],[14.17409,-0.39229],[14.18057,-0.38617],[14.17314,-0.38358],[14.17595,-0.36872],[14.17229,-0.36921],[14.16589,-0.36078],[14.1676,-0.35816],[14.16248,-0.3504],[14.16787,-0.33719],[14.15836,-0.32503],[14.16286,-0.32445],[14.15746,-0.3066],[14.15507,-0.30335],[14.15077,-0.30626],[14.14775,-0.30371],[14.14664,-0.29868],[14.15054,-0.29581],[14.15206,-0.28772],[14.14841,-0.28348],[14.1444,-0.28482],[14.13891,-0.27669],[14.1337,-0.27793],[14.13298,-0.27328],[14.13881,-0.26524],[14.1318,-0.2586],[14.12339,-0.25908],[14.12147,-0.25536],[14.1135,-0.25847],[14.11252,-0.26753],[14.10324,-0.27212],[14.09024,-0.25567],[14.09166,-0.25288],[14.08582,-0.24867],[14.08212,-0.25165],[14.07012,-0.24316],[14.06301,-0.24322],[14.05707,-0.24888],[14.05936,-0.2553],[14.05226,-0.25969],[14.04522,-0.2615],[14.04266,-0.25284],[14.03671,-0.25093],[14.03191,-0.25429],[14.015,-0.25131],[14.00298,-0.25575],[13.99737,-0.26286],[13.99218,-0.25704],[13.98873,-0.25842],[13.98955,-0.25056],[13.98398,-0.24923],[13.98118,-0.24016],[13.98238,-0.23276],[13.97064,-0.22291],[13.95979,-0.22576],[13.95956,-0.22235],[13.95449,-0.22108],[13.95517,-0.2235],[13.94938,-0.22586],[13.94444,-0.22266],[13.93987,-0.22411],[13.93414,-0.21204],[13.92301,-0.20638],[13.91364,-0.20792],[13.91443,-0.21266],[13.9092,-0.21572],[13.91459,-0.22176],[13.91248,-0.23005],[13.90616,-0.22552],[13.89334,-0.22811],[13.89342,-0.23807],[13.88848,-0.24059],[13.88422,-0.23566],[13.88506,-0.22806],[13.87443,-0.22507],[13.87648,-0.21993],[13.87296,-0.21434],[13.86699,-0.21454],[13.85862,-0.19982],[13.85258,-0.20239],[13.83643,-0.178],[13.82527,-0.17405],[13.81783,-0.15453],[13.82778,-0.14336],[13.83435,-0.15186],[13.84426,-0.15062],[13.84596,-0.14258],[13.86192,-0.12842],[13.86279,-0.1177],[13.87735,-0.11305],[13.87143,-0.09863],[13.87619,-0.08442],[13.88445,-0.08433],[13.88497,-0.08653],[13.90893,-0.07231],[13.91196,-0.07426],[13.91013,-0.07979],[13.91281,-0.08169],[13.91867,-0.0767],[13.91666,-0.065],[13.93827,-0.05162],[13.93689,-0.04165],[13.94174,-0.0357],[13.92787,-0.0292],[13.92819,-0.02478],[13.92088,-0.02007],[13.91933,-0.0148],[13.92675,-0.01339],[13.93485,0.00488],[13.94048,0.0034],[13.94584,0.01694],[13.94534,0.02561],[13.93038,0.02301],[13.92605,0.03153],[13.92521,0.04254],[13.92333,0.04448],[13.91817,0.04212],[13.91786,0.0463],[13.90971,0.05305],[13.91166,0.0716],[13.90536,0.08665],[13.90169,0.08669],[13.91207,0.10052],[13.90962,0.10632],[13.91468,0.10613],[13.91791,0.11258],[13.91805,0.12211],[13.91571,0.12324],[13.91807,0.12708],[13.90168,0.16183],[13.89462,0.16524],[13.89601,0.17743],[13.89006,0.1802],[13.892,0.18277],[13.88065,0.1933],[13.88183,0.19905],[13.87747,0.20194],[13.89246,0.20834],[13.88152,0.21922],[13.88767,0.22541],[13.89027,0.23989],[13.89241,0.2422],[13.89496,0.24],[13.90554,0.24878],[13.90457,0.2523],[13.91667,0.25874],[13.91549,0.26607],[13.92585,0.27152],[13.92456,0.2802],[13.93319,0.28246],[13.92849,0.28973],[13.92952,0.29348],[13.9314,0.29592],[13.93866,0.29368],[13.93225,0.3047],[13.94127,0.31129],[13.934,0.31678],[13.9434,0.3303],[13.94977,0.33129],[13.9475,0.33849],[13.95085,0.34327],[13.94612,0.34608],[13.94867,0.35391],[13.95632,0.3627],[13.9663,0.36368],[13.96996,0.37686],[13.97914,0.37739],[13.98844,0.38356],[13.98979,0.38785],[13.99355,0.38371],[14.00404,0.39094],[14.01821,0.3905],[14.02599,0.39636],[14.02762,0.40511],[14.04942,0.40972],[14.05016,0.41251],[14.06147,0.41564],[14.06084,0.41963],[14.06772,0.42281],[14.06623,0.43908],[14.07103,0.44146],[14.08053,0.46176],[14.08856,0.46634],[14.08116,0.47771],[14.0608,0.49059],[14.06046,0.49477],[14.07127,0.49681],[14.06929,0.50118],[14.07217,0.51209],[14.07852,0.51431],[14.08147,0.52668],[14.08706,0.52447],[14.09176,0.52944],[14.10075,0.54687],[14.10516,0.54806],[14.10606,0.55441],[14.11564,0.55777],[14.12482,0.55611],[14.13,0.56327],[14.14375,0.55345],[14.15237,0.55301],[14.16037,0.54636],[14.16816,0.54879],[14.17868,0.54188],[14.18629,0.54706],[14.19972,0.5501],[14.20072,0.54696],[14.20544,0.5474],[14.21049,0.53685],[14.21993,0.53305],[14.22316,0.53559],[14.22819,0.53356],[14.23137,0.54156],[14.23597,0.53917],[14.24371,0.54414],[14.2432,0.54921],[14.24759,0.55439],[14.25635,0.53709],[14.26287,0.54344],[14.28468,0.54404],[14.27935,0.55371],[14.27401,0.55469],[14.27906,0.56682],[14.28816,0.56768],[14.28926,0.58762],[14.2973,0.58541],[14.30424,0.59396],[14.31047,0.59278],[14.32328,0.59797],[14.32135,0.60503],[14.33318,0.60897],[14.3415,0.616],[14.3497,0.6121],[14.35142,0.62016],[14.35723,0.622],[14.35502,0.62691],[14.36438,0.63526],[14.36298,0.63778],[14.37738,0.63727],[14.37773,0.64336],[14.36979,0.64825],[14.36819,0.65407],[14.35674,0.66021],[14.35708,0.67307],[14.35364,0.67624],[14.36283,0.68959],[14.35971,0.69961],[14.36944,0.70534],[14.37504,0.70336],[14.37508,0.71253],[14.38539,0.72146],[14.39105,0.73346],[14.40124,0.73299],[14.40031,0.73834],[14.41236,0.74661],[14.41059,0.7536],[14.40594,0.75733],[14.40853,0.76289],[14.41674,0.76198],[14.41809,0.76897],[14.42539,0.77473],[14.42436,0.7794],[14.44567,0.79175],[14.45243,0.79271],[14.45657,0.78564],[14.46508,0.81975],[14.481,0.82388],[14.48477,0.82781],[14.4784,0.84199],[14.4808,0.8569],[14.47252,0.85663],[14.47183,0.86186],[14.45654,0.88147],[14.46045,0.88471],[14.47963,0.88549],[14.4857,0.8884],[14.48152,0.89748],[14.48559,0.90331],[14.49538,0.90754],[14.49439,0.91314],[14.49895,0.92187],[14.49651,0.92358],[14.49787,0.93077],[14.47366,0.94179],[14.45996,0.95876],[14.44497,0.96852],[14.44103,0.96595],[14.43011,0.97688],[14.43014,0.99108],[14.42342,0.99943],[14.41555,1.03455],[14.41129,1.03614],[14.40736,1.04347],[14.40083,1.06499],[14.40298,1.07607],[14.40011,1.09074],[14.3779,1.1191],[14.34422,1.15218],[14.33217,1.19779],[14.32317,1.20535],[14.31759,1.21654],[14.30296,1.22282],[14.30426,1.24682],[14.29809,1.25875],[14.30258,1.27289],[14.29771,1.29166],[14.30153,1.29502],[14.30286,1.30488],[14.29007,1.31006],[14.28901,1.32044],[14.28294,1.32436],[14.28439,1.33402],[14.25528,1.35756],[14.23756,1.35787],[14.22785,1.36953],[14.21466,1.36695],[14.20198,1.37168],[14.19882,1.3813],[14.19106,1.38678],[14.1868,1.39468],[14.18051,1.3971],[14.16028,1.39158],[14.12025,1.39526],[14.10822,1.38359],[14.10453,1.38337],[14.0988,1.37413],[14.0827,1.37974],[14.06868,1.37592],[14.06125,1.37898],[14.04503,1.39824],[14.04348,1.39532],[14.03834,1.396],[14.02328,1.41662],[14.02411,1.42781],[14.00883,1.43567],[13.99904,1.43134],[14.00147,1.42438],[13.99907,1.42059],[13.97942,1.41421],[13.96591,1.42163],[13.96341,1.41727],[13.9531,1.41937],[13.93891,1.41692],[13.93567,1.42071],[13.92704,1.41666],[13.8925,1.43444],[13.86637,1.42208],[13.85568,1.42708],[13.85588,1.4323],[13.85071,1.4337],[13.84415,1.42724],[13.83465,1.42492],[13.82776,1.43019],[13.82475,1.4275],[13.81371,1.42799],[13.81108,1.42949],[13.81179,1.43649],[13.80337,1.43337],[13.7997,1.4243],[13.80064,1.41826],[13.80489,1.42214],[13.80956,1.42072],[13.80655,1.41712],[13.811,1.41142],[13.80344,1.4057],[13.80037,1.40914],[13.79593,1.40528],[13.79575,1.40027],[13.80053,1.39673],[13.78813,1.39138],[13.78445,1.39483],[13.78234,1.3907],[13.78756,1.38477],[13.78292,1.38224],[13.79089,1.37546],[13.78571,1.36383],[13.77574,1.35984],[13.76749,1.36082],[13.75855,1.34856],[13.75736,1.35407],[13.75332,1.3541],[13.75174,1.35783],[13.74067,1.35727],[13.74131,1.3622],[13.74409,1.36096],[13.74582,1.36393],[13.73654,1.37046],[13.73027,1.36509],[13.72626,1.36726],[13.72792,1.36234],[13.72416,1.35763],[13.71575,1.35603],[13.71517,1.35281],[13.70934,1.35318],[13.70543,1.34769],[13.69989,1.34964],[13.69432,1.34565],[13.68911,1.35132],[13.6881,1.346],[13.68049,1.34863],[13.68091,1.35122],[13.67478,1.35247],[13.67047,1.34922],[13.66755,1.35253],[13.66133,1.35157],[13.6531,1.34334],[13.64933,1.34634],[13.64048,1.3431],[13.63711,1.34572],[13.63239,1.34302],[13.63424,1.3298],[13.6312,1.32664],[13.62826,1.32942],[13.6087,1.32863],[13.60342,1.32357],[13.60616,1.32111],[13.58872,1.31322],[13.58746,1.3038],[13.57673,1.29925],[13.5766,1.29041],[13.55305,1.27437],[13.5498,1.28055],[13.54804,1.27804],[13.5378,1.28305],[13.52709,1.27436],[13.50974,1.27116],[13.5149,1.26653],[13.51138,1.26358],[13.50447,1.27113],[13.50038,1.26996],[13.49893,1.27621],[13.49606,1.27677],[13.49302,1.26995],[13.49515,1.26455],[13.49285,1.26489],[13.47531,1.2703],[13.47409,1.27836],[13.46905,1.27608],[13.46509,1.27808],[13.45055,1.28701],[13.44438,1.29447],[13.43895,1.29275],[13.43939,1.28632],[13.43563,1.28731],[13.43895,1.29865],[13.43675,1.30028],[13.41848,1.29229],[13.41384,1.29813],[13.41137,1.29052],[13.40138,1.28853],[13.39783,1.27823],[13.37977,1.28785],[13.37212,1.2874],[13.37312,1.27419],[13.36954,1.27536],[13.36863,1.28112],[13.36386,1.27658],[13.36778,1.26904],[13.37496,1.26754],[13.37089,1.2632],[13.3481,1.26373],[13.34818,1.25753],[13.34344,1.25344],[13.33454,1.25871],[13.33547,1.26268],[13.33009,1.26077],[13.32223,1.26363],[13.3191,1.24926],[13.32354,1.24933],[13.32201,1.2428],[13.32445,1.23707],[13.3209,1.23563],[13.31629,1.23896],[13.31306,1.23678],[13.31318,1.22724],[13.30717,1.21881],[13.29843,1.2222],[13.29722,1.22929],[13.29067,1.22475],[13.28709,1.22923],[13.28045,1.22703],[13.28057,1.22274],[13.27131,1.22754],[13.261,1.22668],[13.26157,1.22093],[13.25902,1.21987],[13.25584,1.22753],[13.24453,1.22274],[13.21593,1.22524],[13.20102,1.21751],[13.1915,1.21648],[13.18306,1.22571],[13.15211,1.23617],[13.16475,1.25026],[13.16965,1.24636],[13.1788,1.24965],[13.17537,1.25925],[13.18157,1.26818],[13.181,1.27863],[13.18853,1.2916],[13.1933,1.28419],[13.20188,1.28402],[13.21036,1.28898],[13.22327,1.28406],[13.22752,1.28707],[13.22657,1.29885],[13.22919,1.30254],[13.24166,1.30219],[13.25767,1.31793],[13.2568,1.32252],[13.26257,1.33049],[13.25975,1.3374],[13.24604,1.33453],[13.24101,1.34084],[13.24198,1.34601],[13.25138,1.35083],[13.25271,1.35531],[13.24386,1.36173],[13.24361,1.3698],[13.25604,1.38576],[13.25523,1.38929],[13.24724,1.3914],[13.25074,1.40693],[13.2472,1.40681],[13.24589,1.41046],[13.24213,1.40715],[13.23923,1.40843],[13.23703,1.41562],[13.23014,1.41613],[13.23562,1.42457],[13.23488,1.43429],[13.22866,1.44318],[13.22679,1.43773],[13.22009,1.44225],[13.21851,1.44702],[13.22272,1.44988],[13.21982,1.45516],[13.22429,1.45891],[13.21356,1.46272],[13.21856,1.46863],[13.21879,1.47472],[13.21334,1.47941],[13.20603,1.47929],[13.20443,1.48724],[13.20129,1.48413],[13.18982,1.48709],[13.19639,1.49344],[13.19562,1.49683],[13.19213,1.49544],[13.19076,1.4978],[13.1943,1.51132],[13.18846,1.51213],[13.18828,1.52115],[13.18105,1.52451],[13.17553,1.53488],[13.17134,1.52516],[13.16775,1.52833],[13.15899,1.52316],[13.1475,1.54082],[13.15329,1.54643],[13.15195,1.54908],[13.14276,1.5482],[13.14241,1.55892],[13.13951,1.55997],[13.13792,1.55474],[13.12985,1.56116],[13.13127,1.56378],[13.13622,1.56111],[13.13919,1.56608],[13.13731,1.5793],[13.12537,1.58334],[13.13026,1.58971],[13.13577,1.58776],[13.14001,1.59122],[13.14304,1.58819],[13.14847,1.60065],[13.13878,1.60941],[13.1426,1.61061],[13.14024,1.61499],[13.14399,1.6155],[13.1456,1.61205],[13.14768,1.61459],[13.14987,1.6252],[13.1442,1.6259],[13.1442,1.63148],[13.14913,1.63647],[13.14193,1.64092],[13.14,1.65348],[13.14289,1.65537],[13.13829,1.6604],[13.13948,1.66647],[13.14327,1.66761],[13.13648,1.68108],[13.14017,1.68353],[13.13559,1.70262],[13.14739,1.71608],[13.1584,1.72327],[13.15934,1.72772],[13.15505,1.73133],[13.15863,1.74419],[13.16087,1.74106],[13.1631,1.74418],[13.17225,1.74331],[13.1726,1.75189],[13.17663,1.75094],[13.18333,1.75891],[13.17824,1.76806],[13.18191,1.77309],[13.17738,1.77846],[13.18266,1.78603],[13.18205,1.79327],[13.1848,1.79515],[13.18521,1.78979],[13.19094,1.79118],[13.19819,1.80007],[13.19928,1.80791],[13.19386,1.81785],[13.18999,1.81677],[13.19,1.82625],[13.20278,1.8393],[13.20328,1.85119],[13.19717,1.85442],[13.18679,1.87129],[13.17844,1.87042],[13.16888,1.877],[13.15972,1.87447],[13.15448,1.88841],[13.15828,1.886],[13.16009,1.88819],[13.15688,1.89018],[13.161,1.90387],[13.16701,1.90826],[13.16995,1.90686],[13.16847,1.89984],[13.17232,1.89981],[13.17654,1.90727],[13.18399,1.91015],[13.1817,1.91722],[13.18733,1.92251],[13.18867,1.93251],[13.19963,1.93331],[13.20338,1.94635],[13.21402,1.94539],[13.21305,1.95271],[13.21598,1.95572],[13.20711,1.9635],[13.20861,1.96844],[13.20544,1.97427],[13.21007,1.98605],[13.21491,1.98349],[13.21864,1.99024],[13.2261,1.99305],[13.23369,2.00424],[13.23638,2.00314],[13.23896,2.00676],[13.23456,2.01063],[13.23801,2.01111],[13.2397,2.01671],[13.24503,2.01978],[13.2504,2.01671],[13.25173,2.02621],[13.26331,2.02151],[13.26915,2.02665],[13.27337,2.02502],[13.27522,2.03437],[13.27991,2.03495],[13.28132,2.04009],[13.2883,2.04048],[13.28535,2.04531],[13.28343,2.04262],[13.27793,2.05246],[13.28127,2.05395],[13.28758,2.04792],[13.29033,2.04892],[13.28974,2.05608],[13.29736,2.06539],[13.29225,2.07985],[13.30131,2.09957],[13.30074,2.10933],[13.29396,2.10827],[13.29299,2.11574],[13.28959,2.1172],[13.29325,2.12546],[13.2851,2.13495],[13.29145,2.14087],[13.2954,2.1396],[13.29827,2.14414],[13.28813,2.1573],[13.29475,2.16275],[13.2941,2.16979],[13.29673,2.1722],[14.2946,2.17222],[14.30123,2.16463],[14.31593,2.17138],[14.32282,2.16985],[14.32727,2.17775],[14.33767,2.17607],[14.34615,2.18001],[14.355,2.19106],[14.36159,2.1925],[14.36465,2.18576],[14.37066,2.18463],[14.38201,2.18896],[14.39392,2.18045],[14.40055,2.17988],[14.40219,2.18328],[14.41137,2.18558],[14.41199,2.18042],[14.41895,2.17821],[14.41938,2.16838],[14.43016,2.16859],[14.44234,2.15981],[14.44214,2.15161],[14.44686,2.1478],[14.44141,2.14469],[14.44124,2.13386],[14.44637,2.13218],[14.44454,2.12583],[14.45232,2.12573],[14.46244,2.13469],[14.46051,2.15055],[14.47744,2.14777],[14.48124,2.15854],[14.48731,2.16173],[14.49296,2.16049],[14.49702,2.16798],[14.50834,2.16675],[14.51212,2.1631],[14.52567,2.16605],[14.5279,2.16196],[14.5304,2.1664],[14.53814,2.16752],[14.53747,2.17083],[14.54164,2.16838],[14.55052,2.1728],[14.55533,2.17139],[14.56246,2.17848],[14.56599,2.17644],[14.57195,2.17907],[14.57668,2.1747],[14.58397,2.18525],[14.58194,2.18786],[14.59372,2.2008],[14.59551,2.2069],[14.60862,2.19559],[14.61012,2.18615],[14.61547,2.18158],[14.6181,2.16954],[14.62422,2.1626],[14.63985,2.16082],[14.64476,2.15649],[14.64543,2.14727],[14.63938,2.14154],[14.64353,2.13391],[14.65588,2.13006],[14.66864,2.13566],[14.68303,2.1367],[14.69537,2.12415],[14.69771,2.11236],[14.70858,2.11234],[14.72276,2.10607],[14.7244,2.10986],[14.71477,2.12315],[14.71888,2.12801],[14.72466,2.12722],[14.7295,2.12099],[14.75024,2.10979],[14.74916,2.09899],[14.73709,2.09757],[14.73563,2.09247],[14.74357,2.08994],[14.75917,2.1009],[14.77004,2.09627],[14.77121,2.08299],[14.76284,2.06844],[14.77168,2.06319],[14.79042,2.07544],[14.80825,2.05954],[14.82752,2.06796],[14.84173,2.08586],[14.86114,2.08071],[14.86449,2.08882],[14.85634,2.10577],[14.87169,2.11192],[14.87694,2.10417],[14.8776,2.07331],[14.88934,2.06707],[14.91137,2.06357],[14.9143,2.05416],[14.9126,2.04813],[14.90294,2.03505],[14.89082,2.02732],[14.88913,2.02206],[14.8933,2.01608],[14.91653,2.0002],[14.94655,2.00174],[14.97025,2.00897],[14.97414,2.02725],[14.98015,2.03649],[14.98356,2.03672],[14.99804,2.02191],[15.00115,2.01389],[15.01906,2.0085],[15.0281,2.00222],[15.03436,1.98561],[15.04282,1.97782],[15.06214,2.00413],[15.07082,2.00092],[15.07261,1.99708],[15.0699,1.98823],[15.07326,1.98435],[15.10621,1.98323],[15.11705,2.01224],[15.12375,2.0138],[15.13432,2.00816],[15.14293,2.01323],[15.1472,2.04004],[15.1625,2.04194],[15.1698,2.01949],[15.17511,2.01664],[15.18542,2.02866],[15.20695,2.03976],[15.22686,2.03241],[15.23729,2.03329],[15.24926,2.02904],[15.25217,2.02052],[15.24429,2.01403],[15.24515,2.00846],[15.25664,2.01037],[15.27119,1.99764],[15.28598,1.99317],[15.3058,1.96827],[15.30746,1.95372],[15.3036,1.94246],[15.30606,1.93741],[15.31293,1.93393],[15.32431,1.93438],[15.33529,1.94385],[15.33218,1.93188],[15.34354,1.91294],[15.34877,1.91312],[15.36959,1.92791],[15.39942,1.94191],[15.41053,1.94255],[15.42593,1.95893],[15.45634,1.97053],[15.46991,1.97132],[15.48447,1.98317],[15.51949,1.96403],[15.52588,1.95766],[15.53506,1.96059],[15.53643,1.9654],[15.54425,1.96551],[15.56077,1.9502],[15.57264,1.94943],[15.58458,1.95402],[15.61471,1.93944],[15.6688,1.92864],[15.68549,1.936],[15.7163,1.92476],[15.72653,1.91349],[15.74427,1.92011],[15.74913,1.91928],[15.76459,1.90864],[15.78133,1.89155],[15.79146,1.87097],[15.80796,1.8546],[15.82574,1.85034],[15.843,1.83194],[15.8594,1.83288],[15.86804,1.82912],[15.87973,1.79656],[15.87961,1.7882],[15.88266,1.78625],[15.89001,1.79347],[15.90563,1.79774],[15.91209,1.79441],[15.91066,1.78811],[15.91386,1.78187],[15.93221,1.78049],[15.9615,1.76626],[16.02111,1.7658],[16.02877,1.76287],[16.03113,1.75176],[16.01541,1.72042],[16.0156,1.71471],[16.02372,1.71046],[16.02459,1.70381],[16.01977,1.68539],[16.02049,1.67403],[16.02958,1.65944],[16.05227,1.6589],[16.05588,1.65577],[16.07108,1.67338],[16.08322,1.69426],[16.12043,1.70391],[16.13143,1.69119],[16.14031,1.68808],[16.14769,1.7008],[16.14617,1.71707],[16.13433,1.74217],[16.14123,1.7667],[16.13605,1.80055],[16.1207,1.82026],[16.10453,1.87213],[16.10998,1.89114],[16.1055,1.89342],[16.09209,1.88767],[16.08472,1.89412],[16.07994,1.91341],[16.08267,1.91787],[16.07186,1.9522],[16.04805,1.97705],[16.05666,1.98474],[16.05092,1.99993],[16.05083,2.01061],[16.0756,2.03251],[16.08001,2.04146],[16.0782,2.05369],[16.06701,2.05799],[16.0587,2.06623],[16.06005,2.07145],[16.06715,2.07715],[16.08084,2.08099],[16.08472,2.0882],[16.08248,2.09247],[16.08603,2.09818],[16.08533,2.10466],[16.07597,2.12528],[16.0831,2.16594],[16.08151,2.19285],[16.0843,2.19859],[16.0967,2.20252],[16.13154,2.19817],[16.13491,2.19605],[16.13715,2.18095],[16.14585,2.17703],[16.15552,2.18406],[16.16143,2.19382],[16.17784,2.19684],[16.19388,2.21358],[16.19025,2.22303],[16.50927,2.83203],[16.51858,2.87744],[16.5173,2.88575],[16.50344,2.90571],[16.48279,2.92546],[16.48565,2.93221],[16.4923,2.93431],[16.49805,2.94133],[16.50229,2.96942],[16.49088,2.98612],[16.49208,2.99124],[16.50266,2.99862],[16.49803,3.01007],[16.50557,3.02078],[16.50557,3.03102],[16.53463,3.05297],[16.53733,3.06974],[16.5336,3.07626],[16.5079,3.09138],[16.50519,3.10121],[16.50586,3.12039],[16.51127,3.14307],[16.50567,3.14905],[16.50499,3.16113],[16.50039,3.16976],[16.51193,3.18182],[16.51573,3.19245],[16.53006,3.20368],[16.52971,3.21242],[16.52578,3.21798],[16.53084,3.22615],[16.52884,3.23278],[16.53549,3.24509],[16.52415,3.26652],[16.52582,3.27474],[16.56913,3.32593],[16.5839,3.35753],[16.58509,3.36234],[16.57756,3.37905],[16.58798,3.40111],[16.58952,3.41234],[16.58416,3.44405],[16.5879,3.45981],[16.58391,3.47283],[16.58666,3.48669],[16.61591,3.50458],[16.63747,3.53014],[16.66624,3.5438],[16.68274,3.54131],[16.69645,3.54926],[16.728,3.54969],[16.74413,3.55757],[16.75662,3.55934],[16.77716,3.5434],[16.79465,3.54868],[16.80287,3.54574],[16.81876,3.52558],[16.83048,3.52608],[16.84358,3.51685],[16.8579,3.51381],[16.86806,3.53316],[16.89824,3.53443],[16.92032,3.54402],[16.93226,3.55649],[16.94051,3.55771],[16.97446,3.53998],[16.97955,3.53874],[16.99334,3.5433],[17.00064,3.54019],[17.00161,3.53433],[17.00977,3.52684],[17.02479,3.51985],[17.02867,3.51263],[17.03246,3.513],[17.04168,3.53069],[17.05935,3.54903],[17.08158,3.5564],[17.09413,3.56899],[17.10189,3.56909],[17.11019,3.56455],[17.12274,3.56585],[17.15237,3.57873],[17.16878,3.56993],[17.18043,3.56747],[17.19397,3.57333],[17.21438,3.57345],[17.23377,3.57783],[17.244,3.58231],[17.24638,3.58667],[17.24418,3.59943],[17.24616,3.60734],[17.27179,3.61801],[17.28053,3.61516],[17.29073,3.61828],[17.31078,3.60999],[17.32276,3.61278],[17.33033,3.60209],[17.33122,3.58178],[17.33569,3.57828],[17.35092,3.57733],[17.35871,3.58031],[17.36379,3.58719],[17.36535,3.61761],[17.37147,3.63573],[17.38454,3.64344],[17.38797,3.66125],[17.40451,3.67339],[17.44446,3.68582],[17.45381,3.70142],[17.46949,3.70773],[17.49045,3.70659],[17.50746,3.69141],[17.53097,3.69501],[17.54817,3.6871],[17.55775,3.66835],[17.575,3.66863],[17.59112,3.66208],[17.59866,3.64186],[17.62422,3.64363],[17.64776,3.64019],[17.65748,3.64274],[17.66859,3.64111],[17.68271,3.64711],[17.70056,3.63266],[17.70551,3.63291],[17.73112,3.65422],[17.74987,3.64071],[17.76154,3.63923],[17.78898,3.62649],[17.80816,3.62975],[17.8247,3.62799],[17.83018,3.62386],[17.8342,3.61204],[17.83049,3.60164],[17.83348,3.5956],[17.8269,3.5819],[17.82944,3.57601],[17.84096,3.57264],[17.84852,3.54829],[17.85031,3.52973],[17.86407,3.53856],[17.87878,3.55876],[17.89371,3.55404],[17.92071,3.58474],[17.92587,3.59742],[17.93772,3.6047],[17.94232,3.59821],[17.94163,3.58638],[17.94999,3.57844],[17.95244,3.55976],[17.96851,3.5492],[17.97239,3.54111],[17.98118,3.54258],[17.98498,3.54936],[17.99218,3.55377],[18.02249,3.54941],[18.0386,3.56458],[18.0635,3.57222],[18.08131,3.56949],[18.09479,3.57169],[18.12686,3.56162],[18.13545,3.56379],[18.14027,3.55609],[18.15199,3.54854],[18.16939,3.51953],[18.1675,3.4929],[18.17256,3.48395],[18.17799,3.4825],[18.20702,3.48561],[18.23331,3.49354],[18.26407,3.55776],[18.26511,3.58608],[18.2706,3.5917],[18.28034,3.59366],[18.2925,3.58612],[18.32209,3.5869],[18.32607,3.58789],[18.33135,3.59674],[18.34161,3.5977],[18.35275,3.61264],[18.35785,3.61255],[18.36878,3.60694],[18.36775,3.60129],[18.38344,3.5846],[18.41248,3.58025],[18.41858,3.58712],[18.41276,3.59574],[18.41316,3.60068],[18.42668,3.60956],[18.43236,3.60824],[18.43882,3.59472],[18.4518,3.6023],[18.4547,3.61298],[18.45118,3.62873],[18.47007,3.63289],[18.47406,3.64595],[18.47835,3.65077],[18.487,3.65344],[18.49512,3.64327],[18.50203,3.64142],[18.54103,3.60965],[18.55236,3.56388],[18.57389,3.52722],[18.58141,3.52224],[18.58659,3.51289],[18.58592,3.50236],[18.59449,3.48434],[18.60751,3.47277],[18.61873,3.47523],[18.62582,3.47123],[18.63307,3.43335],[18.63782,3.42755],[18.63396,3.39878],[18.63798,3.38409],[18.63563,3.37012],[18.63851,3.32869],[18.6448,3.30466],[18.6464,3.26675],[18.64349,3.2543],[18.6499,3.23529],[18.64948,3.21862],[18.6344,3.20577],[18.62683,3.18079],[18.58479,3.10583],[18.56033,3.10029],[18.54028,3.06673],[18.52956,3.06348],[18.51827,3.03284],[18.52641,3.02066],[18.52317,3.00469],[18.50868,2.97792],[18.50617,2.96367],[18.49549,2.94661],[18.50028,2.92172],[18.50015,2.90461],[18.48834,2.8943],[18.4866,2.88867],[18.47261,2.8871],[18.46626,2.88337],[18.45346,2.86827],[18.44459,2.83133],[18.42868,2.79811],[18.42601,2.78353],[18.41759,2.76595],[18.42026,2.75526],[18.37861,2.69256],[18.36435,2.68423],[18.3549,2.66301],[18.34386,2.65334],[18.34482,2.62755],[18.32021,2.58967],[18.30404,2.57622],[18.30251,2.56577],[18.29448,2.54957],[18.28133,2.54497],[18.26357,2.52752],[18.25671,2.50264],[18.24781,2.48819],[18.24229,2.4656],[18.22441,2.44677],[18.20182,2.40588],[18.19148,2.37632],[18.18404,2.36952],[18.18472,2.34441],[18.18142,2.33634],[18.1338,2.2961],[18.1118,2.29136],[18.09327,2.26533],[18.09255,2.21662],[18.08618,2.19533],[18.09232,2.15961],[18.09685,2.14985],[18.09505,2.13555],[18.10281,2.12672],[18.09628,2.10511],[18.07987,2.08282],[18.07613,2.04321],[18.08028,2.02942],[18.0778,2.01341],[18.08349,1.98327],[18.09681,1.96423],[18.08904,1.93064],[18.07423,1.91002],[18.07058,1.88666],[18.05895,1.87803],[18.05187,1.82176],[18.05494,1.80887],[18.06734,1.79179],[18.07113,1.76199],[18.07845,1.74731],[18.07119,1.73689],[18.07128,1.73007],[18.08118,1.72441],[18.08586,1.69897],[18.09145,1.68801],[18.08366,1.66914],[18.08937,1.65709],[18.08727,1.645],[18.07352,1.62816],[18.07039,1.61748],[18.0741,1.58544],[18.07287,1.57778],[18.06651,1.56883],[18.0666,1.5625],[18.07265,1.55106],[18.07209,1.53544],[18.0547,1.49605],[18.05153,1.47362],[18.04089,1.44341],[18.00145,1.41131],[17.98804,1.38801],[17.98491,1.36988],[17.9766,1.35717],[17.97131,1.32926],[17.96464,1.31905],[17.96086,1.30096],[17.9495,1.28773],[17.95056,1.26827],[17.94041,1.2587],[17.94135,1.25253],[17.9507,1.23947],[17.95206,1.20038],[17.9486,1.18509],[17.94156,1.16458],[17.92907,1.14933],[17.92594,1.13011],[17.89922,1.11199],[17.8824,1.09608],[17.87738,1.08746],[17.87682,1.07606],[17.86125,1.05516],[17.86145,1.03458],[17.8496,1.01978],[17.85353,0.99727],[17.84418,0.97213],[17.83826,0.9294],[17.8437,0.9166],[17.84078,0.90776],[17.84711,0.89654],[17.84757,0.88733],[17.86481,0.87596],[17.87615,0.84864],[17.87324,0.83895],[17.86947,0.75809],[17.86643,0.74903],[17.87031,0.71873],[17.86493,0.70184],[17.877,0.68538],[17.87525,0.67208],[17.86837,0.65944],[17.8771,0.63626],[17.87329,0.57644],[17.88893,0.5542],[17.93174,0.53491],[17.94214,0.52178],[17.94768,0.50894],[17.95064,0.48995],[17.95892,0.48024],[17.95594,0.45501],[17.95784,0.4425],[17.95062,0.41855],[17.95181,0.40015],[17.95912,0.38043],[17.95598,0.37034],[17.93672,0.34395],[17.91801,0.32573],[17.89805,0.29915],[17.87341,0.28557],[17.86729,0.27136],[17.85401,0.25981],[17.83893,0.25561],[17.82637,0.22469],[17.81778,0.21383],[17.8158,0.19817],[17.80882,0.18987],[17.80834,0.17608],[17.77606,0.14432],[17.76811,0.11391],[17.76812,0.08784],[17.76187,0.06376],[17.76273,0.04783],[17.75712,0.03582],[17.75822,0.02426],[17.74847,-0.00645],[17.7505,-0.02252],[17.74845,-0.03266],[17.75169,-0.04151],[17.74558,-0.05029],[17.74046,-0.07163],[17.72587,-0.09531],[17.67641,-0.15208],[17.66933,-0.19771],[17.67707,-0.20469],[17.68183,-0.22924],[17.67089,-0.26782],[17.66994,-0.30166],[17.67281,-0.30698],[17.69733,-0.32544],[17.70163,-0.34104],[17.71376,-0.35148],[17.71889,-0.36209],[17.71156,-0.44237],[17.70263,-0.49312],[17.70631,-0.51529],[17.70654,-0.55977],[17.69646,-0.5661],[17.65733,-0.62027],[17.6325,-0.66604],[17.61392,-0.67815],[17.58589,-0.68661],[17.56714,-0.70486],[17.40496,-0.90163],[17.36271,-0.9318],[17.33676,-0.97465],[17.28727,-1.01992],[17.07182,-1.07121],[17.014,-1.11454],[16.90273,-1.21113],[16.79812,-1.329],[16.7215,-1.44834],[16.6493,-1.61285],[16.62279,-1.69882],[16.5668,-1.80048],[16.51358,-1.8721],[16.43024,-1.94837],[16.32831,-2.06317],[16.2693,-2.10072],[16.22789,-2.12235],[16.206,-2.14471],[16.17811,-2.2359],[16.1754,-2.34422],[16.18708,-2.43005],[16.23351,-2.60042],[16.22412,-2.6718],[16.20613,-2.70727],[16.19418,-2.75719],[16.19803,-2.79899],[16.17501,-2.8771],[16.17538,-2.9377],[16.1832,-2.9797],[16.19133,-2.9993],[16.19273,-3.01673],[16.19125,-3.02789],[16.185,-3.03814],[16.18216,-3.06111],[16.17189,-3.07786],[16.17115,-3.13084],[16.1881,-3.19406],[16.18468,-3.20984],[16.17794,-3.22042],[16.17918,-3.25644],[16.18886,-3.26852],[16.2103,-3.28105],[16.21624,-3.30302],[16.20764,-3.31973],[16.1934,-3.3731],[16.17624,-3.39778],[16.16561,-3.42007],[16.12382,-3.47258],[16.11716,-3.50419],[16.09186,-3.556],[16.05483,-3.60062],[16.0366,-3.63151],[16.02989,-3.65607],[16.01621,-3.67968],[15.99846,-3.72418],[15.97951,-3.75906],[15.96668,-3.77311],[15.95003,-3.81433],[15.92787,-3.85385],[15.91029,-3.92262],[15.8976,-3.94267],[15.88719,-3.95291],[15.81575,-3.97862],[15.77674,-3.98135],[15.68553,-3.99473],[15.58335,-4.02697],[15.55023,-4.04409],[15.51678,-4.07808],[15.50705,-4.09951],[15.49925,-4.1533],[15.49254,-4.163],[15.48196,-4.17052],[15.479,-4.19629],[15.48514,-4.21092],[15.474,-4.22981],[15.47393,-4.26992],[15.45957,-4.2938],[15.42991,-4.28936],[15.41706,-4.30589],[15.3979,-4.30808],[15.37849,-4.29838],[15.34984,-4.2762],[15.32748,-4.26876],[15.30097,-4.28494],[15.27439,-4.29489],[15.2555,-4.31479],[15.22253,-4.32079],[15.21921,-4.32618],[15.18639,-4.33683],[15.18395,-4.35501],[15.17513,-4.36575],[15.17583,-4.38744],[15.13772,-4.42584],[15.1359,-4.4335],[15.12678,-4.44232],[15.1201,-4.46102],[15.10215,-4.48654],[15.06739,-4.5157],[15.05379,-4.52285],[15.04266,-4.53785],[15.02869,-4.54134],[15.02592,-4.54808],[14.98913,-4.58856],[14.98678,-4.60301],[14.93329,-4.65457],[14.91097,-4.67202],[14.90178,-4.68411],[14.89104,-4.70459],[14.88437,-4.72889],[14.86781,-4.75744],[14.8638,-4.77904],[14.85108,-4.79163],[14.84395,-4.81258],[14.82491,-4.83079],[14.81172,-4.83737],[14.79604,-4.83915],[14.768,-4.84927],[14.7492,-4.86681],[14.73842,-4.87074],[14.70519,-4.90115],[14.68378,-4.91379],[14.66733,-4.91549],[14.64923,-4.92179],[14.61834,-4.91055],[14.60847,-4.90325],[14.58786,-4.90162],[14.58392,-4.89894],[14.58179,-4.8867],[14.55587,-4.86256],[14.52835,-4.86325],[14.503,-4.85574],[14.495,-4.84563],[14.49091,-4.8447],[14.47679,-4.84582],[14.46248,-4.86417],[14.43102,-4.88194],[14.41759,-4.89606],[14.4126,-4.88986],[14.40815,-4.87252],[14.39734,-4.86305],[14.39574,-4.85753],[14.39815,-4.84314],[14.4009,-4.84353],[14.40231,-4.81552],[14.39713,-4.8103],[14.39547,-4.80153],[14.39873,-4.79702],[14.40792,-4.7944],[14.41599,-4.7821],[14.41389,-4.77453],[14.40688,-4.76988],[14.40156,-4.77088],[14.41858,-4.75679],[14.41029,-4.73441],[14.40329,-4.72956],[14.40711,-4.71975],[14.40128,-4.71079],[14.4113,-4.69498],[14.41491,-4.69489],[14.41765,-4.68154],[14.41551,-4.67935],[14.42067,-4.66799],[14.41529,-4.66724],[14.41871,-4.64592],[14.41024,-4.64393],[14.4054,-4.63824],[14.3946,-4.63962],[14.38602,-4.62087],[14.38576,-4.60015],[14.37971,-4.59692],[14.37115,-4.58318],[14.36969,-4.57401],[14.35114,-4.5549],[14.35629,-4.54739],[14.35771,-4.5377],[14.36705,-4.53532],[14.38485,-4.52267],[14.39122,-4.52646],[14.39922,-4.51707],[14.40522,-4.51756],[14.40915,-4.51318],[14.41406,-4.51636],[14.42898,-4.51384],[14.43249,-4.50585],[14.42981,-4.50102],[14.43438,-4.49718],[14.4308,-4.49276],[14.43652,-4.491],[14.44162,-4.47987],[14.44549,-4.48136],[14.4539,-4.47549],[14.46102,-4.46667],[14.46438,-4.44836],[14.47361,-4.43975],[14.46702,-4.42852],[14.45204,-4.4245],[14.44443,-4.41886],[14.44304,-4.41326],[14.42901,-4.40582],[14.41462,-4.38913],[14.39453,-4.35661],[14.38314,-4.34628],[14.3836,-4.33671],[14.38768,-4.33114],[14.39753,-4.33026],[14.40082,-4.3268],[14.40883,-4.30588],[14.40561,-4.29638],[14.41438,-4.29033],[14.41293,-4.28498],[14.40206,-4.27857],[14.37923,-4.28764],[14.37284,-4.28157],[14.36809,-4.28294],[14.36388,-4.29263],[14.3575,-4.29257],[14.35091,-4.29688],[14.35646,-4.30784],[14.35021,-4.31728],[14.3276,-4.31146],[14.32179,-4.31951],[14.31335,-4.31369],[14.30805,-4.31867],[14.31245,-4.3225],[14.31027,-4.32876],[14.28795,-4.31898],[14.28157,-4.33172],[14.27606,-4.33053],[14.27658,-4.33442],[14.27355,-4.33274],[14.25885,-4.34041],[14.25876,-4.34914],[14.25192,-4.35746],[14.24174,-4.35596],[14.24099,-4.36307],[14.23609,-4.365],[14.23464,-4.36924],[14.22727,-4.36484],[14.22593,-4.36732],[14.21944,-4.36679],[14.21785,-4.373],[14.21565,-4.37074],[14.21073,-4.37963],[14.20364,-4.38271],[14.19973,-4.37768],[14.19223,-4.37805],[14.19319,-4.38787],[14.18978,-4.39138],[14.18436,-4.39021],[14.17657,-4.39739],[14.16432,-4.3997],[14.16009,-4.39589],[14.1606,-4.3923],[14.14904,-4.39067],[14.14459,-4.39748],[14.12543,-4.40503],[14.12053,-4.40374],[14.11085,-4.41029],[14.10352,-4.40846],[14.10219,-4.4136],[14.08961,-4.40841],[14.08563,-4.41039],[14.08331,-4.40584],[14.08542,-4.40054],[14.07736,-4.40564],[14.07068,-4.40389],[14.04996,-4.41],[14.04123,-4.4215],[14.03399,-4.41995],[14.03166,-4.4262],[14.02553,-4.42855],[14.02197,-4.42862],[14.015,-4.42166],[14.0143,-4.41534],[14.00957,-4.41704],[14.00791,-4.42261],[14.01757,-4.43414],[14.01667,-4.44018],[14.01129,-4.4388],[14.00609,-4.44257],[14.0029,-4.451],[14.00607,-4.45265],[14.00379,-4.45924],[13.99495,-4.4715],[13.98682,-4.47441],[13.98061,-4.46274],[13.97706,-4.46712],[13.97971,-4.48356],[13.96842,-4.49397],[13.97137,-4.50065],[13.95979,-4.49975],[13.95791,-4.50512],[13.94798,-4.51279],[13.94556,-4.51183],[13.94326,-4.51629],[13.92487,-4.50814],[13.91396,-4.51048],[13.90704,-4.50111]]],[[[11.82275,-4.3753],[11.82325,-4.37066],[11.82543,-4.37143],[11.82275,-4.3753]]],[[[11.78693,-4.40145],[11.79126,-4.39139],[11.79612,-4.38763],[11.80176,-4.388],[11.79282,-4.39885],[11.78693,-4.40145]]],[[[11.75162,-4.42579],[11.73792,-4.43511],[11.74877,-4.41974],[11.75801,-4.42087],[11.75162,-4.42579]]],[[[11.27843,-4.00205],[11.27585,-3.9969],[11.28021,-3.99663],[11.27843,-4.00205]]]]}}]}