{"type":"FeatureCollection","features":[{"type":"Feature","properties":{"ISO_A3":"COM","WB_A3":"COM","WB_NAME":"Comoros","WB_REGION":"AFE,SSF"},"geometry":{"type":"MultiPolygon","coordinates":[[[[44.52657,-12.29335],[44.53191,-12.31165],[44.52951,-12.33794],[44.53487,-12.34477],[44.52983,-12.37505],[44.52694,-12.38084],[44.51618,-12.3843],[44.49994,-12.38015],[44.49064,-12.37395],[44.49277,-12.35746],[44.48663,-12.34572],[44.47498,-12.33758],[44.45995,-12.32028],[44.43847,-12.31315],[44.42646,-12.29187],[44.40433,-12.28357],[44.3854,-12.25363],[44.33959,-12.23587],[44.33093,-12.24023],[44.31914,-12.23866],[44.2867,-12.22015],[44.2621,-12.21132],[44.25217,-12.20176],[44.22234,-12.18789],[44.20692,-12.17612],[44.20511,-12.16877],[44.23288,-12.16859],[44.23798,-12.17105],[44.24463,-12.18177],[44.27762,-12.18714],[44.28497,-12.18303],[44.28992,-12.19271],[44.30772,-12.19714],[44.31035,-12.19263],[44.31611,-12.19471],[44.31848,-12.18956],[44.31926,-12.19369],[44.32423,-12.19486],[44.33552,-12.18741],[44.35097,-12.18848],[44.37587,-12.18274],[44.39057,-12.17143],[44.40082,-12.15677],[44.4092,-12.15794],[44.41916,-12.15268],[44.42209,-12.13001],[44.43403,-12.11921],[44.43221,-12.11353],[44.41993,-12.10088],[44.42087,-12.0916],[44.44131,-12.08237],[44.45757,-12.06951],[44.4725,-12.07032],[44.49222,-12.09767],[44.49168,-12.10463],[44.4859,-12.11287],[44.48655,-12.11828],[44.49335,-12.12177],[44.49909,-12.13583],[44.50283,-12.16238],[44.51772,-12.18792],[44.52199,-12.21937],[44.52865,-12.2266],[44.52681,-12.23098],[44.53528,-12.25921],[44.52437,-12.28071],[44.52657,-12.29335]]],[[[44.20276,-12.16644],[44.19936,-12.16515],[44.20513,-12.16091],[44.20617,-12.16504],[44.20276,-12.16644]]],[[[43.78198,-12.30715],[43.78983,-12.30873],[43.80549,-12.32349],[43.81153,-12.32145],[43.83272,-12.32863],[43.84813,-12.34222],[43.85337,-12.34237],[43.86508,-12.36149],[43.86875,-12.36228],[43.87105,-12.37517],[43.86721,-12.38495],[43.86928,-12.39088],[43.86469,-12.39138],[43.85764,-12.38478],[43.8482,-12.38629],[43.82517,-12.37743],[43.81888,-12.37663],[43.81493,-12.38022],[43.81535,-12.37468],[43.78901,-12.37302],[43.78222,-12.36822],[43.77631,-12.3709],[43.77837,-12.37967],[43.77614,-12.37992],[43.77069,-12.36881],[43.75578,-12.36179],[43.75237,-12.36293],[43.75212,-12.35881],[43.74359,-12.36173],[43.7479,-12.36613],[43.74762,-12.36987],[43.745,-12.36766],[43.74315,-12.37101],[43.73507,-12.36156],[43.72053,-12.36085],[43.72246,-12.36782],[43.71459,-12.36881],[43.71412,-12.35863],[43.70284,-12.36102],[43.69997,-12.35753],[43.67661,-12.36412],[43.67207,-12.35598],[43.66432,-12.35968],[43.66329,-12.35516],[43.66014,-12.35592],[43.66778,-12.34849],[43.66705,-12.33766],[43.66299,-12.33713],[43.66407,-12.33146],[43.65206,-12.32213],[43.64537,-12.32325],[43.63989,-12.31962],[43.63621,-12.32166],[43.63491,-12.31856],[43.63858,-12.31897],[43.63887,-12.31407],[43.63574,-12.3111],[43.63487,-12.30143],[43.62224,-12.28565],[43.62487,-12.2836],[43.62629,-12.26248],[43.6313,-12.25684],[43.64414,-12.25664],[43.64863,-12.24984],[43.65464,-12.25206],[43.65623,-12.24897],[43.66093,-12.25183],[43.66064,-12.25672],[43.67166,-12.25459],[43.69573,-12.26063],[43.71612,-12.27103],[43.7342,-12.27099],[43.73888,-12.279],[43.7509,-12.28601],[43.75349,-12.29092],[43.77104,-12.29331],[43.77596,-12.30493],[43.78198,-12.30715]]],[[[43.73812,-12.38309],[43.74071,-12.38839],[43.73509,-12.38565],[43.73629,-12.38128],[43.73812,-12.38309]]],[[[43.71965,-12.40697],[43.72618,-12.41138],[43.72419,-12.41704],[43.71572,-12.40721],[43.71627,-12.40141],[43.71965,-12.40697]]],[[[43.70727,-12.41954],[43.70428,-12.41411],[43.70643,-12.40253],[43.70085,-12.39245],[43.70427,-12.39028],[43.7108,-12.39417],[43.7062,-12.39711],[43.70928,-12.4095],[43.70727,-12.41954]]],[[[43.67239,-12.42207],[43.66707,-12.41135],[43.66595,-12.39924],[43.67358,-12.39399],[43.67567,-12.39542],[43.6705,-12.40725],[43.67239,-12.42207]]],[[[43.65094,-12.41243],[43.65097,-12.40715],[43.66135,-12.40257],[43.65921,-12.41028],[43.65671,-12.4113],[43.65569,-12.40743],[43.65094,-12.41243]]],[[[43.64181,-12.40388],[43.63854,-12.40168],[43.64079,-12.39744],[43.64525,-12.39798],[43.64181,-12.40388]]],[[[43.3443,-11.36562],[43.35553,-11.36491],[43.37011,-11.37208],[43.38081,-11.37304],[43.38057,-11.37072],[43.39516,-11.37518],[43.39947,-11.39865],[43.40961,-11.40798],[43.41338,-11.43428],[43.41625,-11.43481],[43.4074,-11.47521],[43.4015,-11.47956],[43.3987,-11.48882],[43.39992,-11.50558],[43.40435,-11.50715],[43.40756,-11.51695],[43.40396,-11.53008],[43.4047,-11.56126],[43.40308,-11.57001],[43.39783,-11.57358],[43.39404,-11.59753],[43.3966,-11.60578],[43.39134,-11.6122],[43.40035,-11.63647],[43.3968,-11.63954],[43.39624,-11.64598],[43.40296,-11.66005],[43.40766,-11.66098],[43.42117,-11.67497],[43.42087,-11.68193],[43.42958,-11.68996],[43.43301,-11.70724],[43.43939,-11.71217],[43.43922,-11.7199],[43.44818,-11.72923],[43.45488,-11.74781],[43.45364,-11.75888],[43.4576,-11.77514],[43.45403,-11.78362],[43.46114,-11.79757],[43.46845,-11.82428],[43.47549,-11.82805],[43.48711,-11.85491],[43.49181,-11.85597],[43.49853,-11.87095],[43.51066,-11.87745],[43.51138,-11.88854],[43.51778,-11.89089],[43.51407,-11.8995],[43.49872,-11.90857],[43.50209,-11.91271],[43.49666,-11.92492],[43.48737,-11.92577],[43.48826,-11.9308],[43.47095,-11.93818],[43.45659,-11.93714],[43.43623,-11.92369],[43.42677,-11.90843],[43.42024,-11.90711],[43.39706,-11.88765],[43.38798,-11.87549],[43.38479,-11.86285],[43.35841,-11.85574],[43.33903,-11.85924],[43.31471,-11.85832],[43.28811,-11.84515],[43.2733,-11.82973],[43.26175,-11.79604],[43.25343,-11.78697],[43.24118,-11.78187],[43.24124,-11.77208],[43.238,-11.76794],[43.24039,-11.76151],[43.23209,-11.75167],[43.2332,-11.74163],[43.22957,-11.7362],[43.23211,-11.72823],[43.24611,-11.70539],[43.25082,-11.70464],[43.25645,-11.68226],[43.26657,-11.67305],[43.26536,-11.65681],[43.26249,-11.65576],[43.26111,-11.64674],[43.26352,-11.63748],[43.26046,-11.62483],[43.26074,-11.60113],[43.27051,-11.56306],[43.26675,-11.55943],[43.26678,-11.5329],[43.27859,-11.50257],[43.27115,-11.47959],[43.27175,-11.46697],[43.26402,-11.45069],[43.2708,-11.43064],[43.27221,-11.41261],[43.27936,-11.39617],[43.29588,-11.38596],[43.30193,-11.37775],[43.31445,-11.38039],[43.31683,-11.37538],[43.33748,-11.37125],[43.3443,-11.36562]]]]}}]}