{"type":"FeatureCollection","features":[{"type":"Feature","properties":{"ISO_A3":"CPV","WB_A3":"CPV","WB_NAME":"Cabo Verde","WB_REGION":"AFW,SSF"},"geometry":{"type":"MultiPolygon","coordinates":[[[[-22.79439,15.96756],[-22.80857,15.97426],[-22.82403,15.97606],[-22.87698,15.97328],[-22.88489,15.97927],[-22.89448,15.99438],[-22.9364,16.00637],[-22.95085,16.01396],[-22.95906,16.0229],[-22.96604,16.04292],[-22.95951,16.05612],[-22.96001,16.06615],[-22.95527,16.07109],[-22.95818,16.08278],[-22.94235,16.09851],[-22.93594,16.09689],[-22.9309,16.09925],[-22.90898,16.11889],[-22.90653,16.1269],[-22.909,16.13538],[-22.90614,16.14184],[-22.90707,16.15574],[-22.91604,16.1742],[-22.92287,16.17787],[-22.918,16.18422],[-22.91871,16.18885],[-22.91539,16.18966],[-22.91454,16.19868],[-22.91004,16.20181],[-22.91972,16.21073],[-22.91724,16.21539],[-22.91961,16.22696],[-22.91378,16.23023],[-22.90885,16.23015],[-22.90893,16.22422],[-22.89287,16.21767],[-22.89256,16.21278],[-22.88612,16.2082],[-22.86181,16.20236],[-22.83116,16.20315],[-22.80351,16.21059],[-22.79504,16.21646],[-22.79222,16.22885],[-22.7885,16.23016],[-22.78898,16.22527],[-22.78233,16.22648],[-22.78175,16.22108],[-22.76387,16.21904],[-22.74807,16.21041],[-22.7286,16.20877],[-22.72777,16.20543],[-22.72189,16.2038],[-22.71498,16.20579],[-22.71013,16.20068],[-22.70562,16.20226],[-22.7093,16.19656],[-22.70901,16.19348],[-22.70473,16.19222],[-22.70801,16.18576],[-22.705,16.17677],[-22.67302,16.14534],[-22.67089,16.13016],[-22.6754,16.12781],[-22.67706,16.11878],[-22.67002,16.10544],[-22.66745,16.08537],[-22.67292,16.07065],[-22.68045,16.06235],[-22.68102,16.05076],[-22.69224,16.03985],[-22.69904,16.04005],[-22.70098,16.03386],[-22.70525,16.03447],[-22.71582,16.02511],[-22.72884,16.02217],[-22.78209,15.99045],[-22.78882,15.98344],[-22.79439,15.96756]]],[[[-22.99039,16.81445],[-22.98605,16.82555],[-22.97903,16.83175],[-22.9597,16.83649],[-22.95183,16.84468],[-22.94307,16.84079],[-22.93721,16.84264],[-22.9247,16.8483],[-22.91888,16.85505],[-22.9112,16.84843],[-22.90965,16.84097],[-22.90672,16.84241],[-22.90314,16.83849],[-22.88931,16.83446],[-22.89274,16.82047],[-22.89625,16.81951],[-22.89719,16.81191],[-22.90121,16.80755],[-22.90041,16.80196],[-22.89431,16.79823],[-22.88762,16.77982],[-22.8794,16.77094],[-22.88319,16.76087],[-22.88935,16.76236],[-22.89507,16.75973],[-22.89874,16.75197],[-22.8929,16.74301],[-22.89351,16.73657],[-22.89896,16.7342],[-22.89283,16.7219],[-22.89166,16.71187],[-22.88016,16.69703],[-22.88056,16.6839],[-22.87243,16.67135],[-22.88708,16.65397],[-22.88553,16.64497],[-22.89484,16.64128],[-22.90024,16.63324],[-22.89848,16.61755],[-22.88804,16.60142],[-22.88543,16.59398],[-22.88741,16.59126],[-22.90856,16.59673],[-22.91993,16.58529],[-22.92837,16.58792],[-22.92894,16.6183],[-22.9359,16.63356],[-22.9445,16.63927],[-22.94556,16.65085],[-22.94837,16.65172],[-22.93832,16.66173],[-22.93617,16.67334],[-22.93871,16.68722],[-22.94962,16.696],[-22.96916,16.69994],[-22.9814,16.69416],[-22.9884,16.70014],[-22.98237,16.7105],[-22.97584,16.71237],[-22.98313,16.71976],[-22.98724,16.72977],[-22.98635,16.73441],[-22.97854,16.74067],[-22.98177,16.74347],[-22.97767,16.74737],[-22.97786,16.75303],[-22.97909,16.75585],[-22.98658,16.75578],[-22.99042,16.76527],[-22.98687,16.77149],[-22.99454,16.79364],[-22.99374,16.80925],[-22.99039,16.81445]]],[[[-22.92433,16.16395],[-22.93142,16.16659],[-22.93657,16.17582],[-22.92466,16.17052],[-22.92433,16.16395]]],[[[-23.21189,15.28401],[-23.19981,15.29546],[-23.1958,15.30554],[-23.19785,15.31093],[-23.19203,15.31304],[-23.1867,15.31065],[-23.18302,15.31365],[-23.18633,15.32636],[-23.18014,15.33067],[-23.17993,15.33556],[-23.17618,15.332],[-23.17556,15.3235],[-23.17088,15.32046],[-23.16399,15.32104],[-23.16314,15.32826],[-23.15932,15.33164],[-23.15759,15.3175],[-23.14265,15.30979],[-23.13335,15.30846],[-23.12438,15.31382],[-23.11509,15.31378],[-23.10538,15.29791],[-23.10569,15.28864],[-23.10053,15.2771],[-23.10548,15.26752],[-23.09776,15.25189],[-23.09861,15.24338],[-23.0951,15.23697],[-23.09507,15.22127],[-23.08898,15.19531],[-23.09291,15.19064],[-23.08828,15.17807],[-23.09104,15.17546],[-23.08844,15.16763],[-23.09531,15.16474],[-23.10035,15.15194],[-23.1089,15.14491],[-23.11574,15.13944],[-23.12844,15.13661],[-23.13525,15.12895],[-23.14477,15.12603],[-23.1492,15.11891],[-23.1566,15.11652],[-23.18711,15.11906],[-23.20561,15.12648],[-23.21623,15.14079],[-23.22941,15.14607],[-23.23386,15.16585],[-23.23288,15.18621],[-23.22738,15.21793],[-23.21644,15.22474],[-23.21557,15.24277],[-23.22117,15.25816],[-23.22992,15.25795],[-23.23028,15.26683],[-23.22488,15.27023],[-23.22589,15.27795],[-23.21189,15.28401]]],[[[-23.45874,14.97328],[-23.46076,14.9673],[-23.45604,14.95988],[-23.46563,14.95296],[-23.46344,14.94719],[-23.47027,14.94197],[-23.47355,14.92803],[-23.47918,14.9223],[-23.48007,14.90736],[-23.48337,14.90642],[-23.48381,14.91067],[-23.49859,14.90982],[-23.50547,14.91738],[-23.50942,14.91528],[-23.51167,14.90418],[-23.51958,14.90152],[-23.54465,14.90614],[-23.55323,14.90359],[-23.55741,14.90932],[-23.57128,14.90764],[-23.57848,14.91168],[-23.58981,14.90743],[-23.59091,14.91064],[-23.60845,14.91623],[-23.62427,14.91077],[-23.6269,14.91961],[-23.64363,14.92449],[-23.66009,14.93772],[-23.67447,14.94064],[-23.7036,14.96524],[-23.71288,14.98146],[-23.7195,14.9813],[-23.7267,14.98693],[-23.72783,14.99055],[-23.71959,14.99301],[-23.71606,14.99887],[-23.71507,15.00323],[-23.71781,15.00559],[-23.71479,15.01275],[-23.72835,15.02581],[-23.73364,15.02627],[-23.74013,15.03499],[-23.74946,15.03087],[-23.75378,15.0429],[-23.76421,15.05309],[-23.7644,15.05849],[-23.77278,15.06427],[-23.77916,15.06256],[-23.78128,15.07134],[-23.77343,15.07406],[-23.77829,15.08519],[-23.77567,15.09236],[-23.76993,15.09511],[-23.7705,15.11004],[-23.76596,15.12156],[-23.77003,15.1238],[-23.76971,15.12727],[-23.76547,15.12747],[-23.76045,15.13563],[-23.76378,15.14263],[-23.76076,15.15004],[-23.76656,15.15193],[-23.76758,15.16275],[-23.76384,15.16476],[-23.77042,15.17669],[-23.76346,15.18148],[-23.76417,15.18715],[-23.75629,15.1999],[-23.75367,15.22379],[-23.74237,15.23469],[-23.74226,15.25064],[-23.7497,15.25808],[-23.75658,15.25857],[-23.75946,15.26968],[-23.75906,15.27842],[-23.75347,15.28014],[-23.75394,15.28349],[-23.76296,15.29186],[-23.77222,15.29328],[-23.77316,15.30101],[-23.76971,15.30122],[-23.77073,15.30355],[-23.76117,15.30482],[-23.75965,15.31559],[-23.76625,15.31944],[-23.75801,15.31935],[-23.7568,15.33036],[-23.74482,15.33315],[-23.74181,15.33979],[-23.72369,15.32846],[-23.71272,15.33473],[-23.70283,15.328],[-23.69793,15.33058],[-23.68718,15.32102],[-23.6818,15.31151],[-23.68378,15.30382],[-23.69054,15.3034],[-23.68733,15.29718],[-23.69128,15.28947],[-23.68877,15.27289],[-23.68103,15.25926],[-23.67316,15.254],[-23.66482,15.25362],[-23.65651,15.2463],[-23.63939,15.24449],[-23.63192,15.23126],[-23.61529,15.22702],[-23.60991,15.21575],[-23.60186,15.21049],[-23.6015,15.20276],[-23.59722,15.20354],[-23.58674,15.18169],[-23.57641,15.17356],[-23.57633,15.17047],[-23.57064,15.17013],[-23.57405,15.16042],[-23.55887,15.15519],[-23.55751,15.15212],[-23.54244,15.15512],[-23.53787,15.14938],[-23.52694,15.14422],[-23.52858,15.13777],[-23.52439,15.13073],[-23.50139,15.12417],[-23.50193,15.11412],[-23.49812,15.10489],[-23.49012,15.08883],[-23.48088,15.08114],[-23.48201,15.07572],[-23.47478,15.06936],[-23.47391,15.06319],[-23.46553,15.05955],[-23.46201,15.05315],[-23.44763,15.04739],[-23.44679,15.04315],[-23.45513,15.04254],[-23.45202,15.03743],[-23.44307,15.0419],[-23.43857,15.01878],[-23.4362,15.02035],[-23.43112,15.01654],[-23.4367,15.00644],[-23.4339,15.00402],[-23.43652,15.00193],[-23.43221,14.99567],[-23.43103,14.98487],[-23.43458,14.98252],[-23.43874,14.98711],[-23.44389,14.98628],[-23.44818,14.97928],[-23.45874,14.97328]]],[[[-24.35631,16.67082],[-24.34207,16.68027],[-24.33515,16.67889],[-24.33455,16.67373],[-24.31923,16.67122],[-24.31052,16.6639],[-24.30822,16.65666],[-24.30131,16.654],[-24.29994,16.64755],[-24.28651,16.64338],[-24.28609,16.63527],[-24.28241,16.63162],[-24.27148,16.63248],[-24.26737,16.63785],[-24.26074,16.63955],[-24.25244,16.63598],[-24.23746,16.63784],[-24.22748,16.64543],[-24.21707,16.64491],[-24.2049,16.63728],[-24.19946,16.63861],[-24.17745,16.63065],[-24.16184,16.61571],[-24.15107,16.61248],[-24.13843,16.61226],[-24.12873,16.62106],[-24.12382,16.62095],[-24.11334,16.61527],[-24.0625,16.61003],[-24.04283,16.59962],[-24.04246,16.59359],[-24.03901,16.59226],[-24.03568,16.5832],[-24.0258,16.5837],[-24.01519,16.57931],[-24.008,16.56994],[-24.00886,16.56583],[-24.016,16.55281],[-24.0242,16.54894],[-24.03712,16.55003],[-24.03799,16.55416],[-24.04355,16.55719],[-24.05052,16.55536],[-24.05315,16.55784],[-24.06847,16.55034],[-24.08074,16.55064],[-24.0884,16.55577],[-24.09458,16.55264],[-24.10283,16.55468],[-24.10447,16.55174],[-24.1159,16.55486],[-24.12712,16.57162],[-24.14628,16.57548],[-24.159,16.58183],[-24.16636,16.58966],[-24.2325,16.59299],[-24.24548,16.58094],[-24.2599,16.58074],[-24.27199,16.56584],[-24.27855,16.564],[-24.28419,16.55236],[-24.28418,16.54361],[-24.29008,16.54111],[-24.2956,16.51879],[-24.304,16.50938],[-24.30847,16.49451],[-24.30742,16.48368],[-24.3161,16.48302],[-24.31532,16.47934],[-24.32287,16.48529],[-24.32693,16.48136],[-24.32446,16.49574],[-24.33138,16.51694],[-24.3337,16.52263],[-24.34099,16.52607],[-24.34662,16.53412],[-24.35093,16.55039],[-24.35863,16.55332],[-24.35804,16.56721],[-24.36458,16.57733],[-24.38374,16.58156],[-24.39645,16.58867],[-24.4163,16.60192],[-24.41965,16.61084],[-24.42561,16.61414],[-24.42573,16.64503],[-24.42018,16.65114],[-24.41752,16.65033],[-24.41584,16.6561],[-24.39738,16.65845],[-24.38389,16.66883],[-24.37106,16.66957],[-24.36683,16.6663],[-24.35631,16.67082]]],[[[-24.39986,15.03051],[-24.36997,15.05127],[-24.33153,15.04381],[-24.3283,15.03598],[-24.31351,15.03271],[-24.3081,15.02107],[-24.30256,15.01868],[-24.29932,15.01324],[-24.29896,14.99985],[-24.29293,14.99463],[-24.29151,14.98148],[-24.28634,14.97164],[-24.29011,14.95598],[-24.28189,14.92551],[-24.28199,14.90723],[-24.27761,14.88659],[-24.28397,14.86478],[-24.30851,14.83894],[-24.31594,14.83722],[-24.32638,14.82782],[-24.34874,14.81727],[-24.36201,14.81407],[-24.39773,14.81422],[-24.4141,14.81775],[-24.42985,14.82836],[-24.44866,14.84916],[-24.46132,14.85304],[-24.47593,14.87161],[-24.49645,14.88213],[-24.50203,14.89197],[-24.50041,14.91745],[-24.50368,14.92083],[-24.49807,14.94832],[-24.4871,14.96956],[-24.48606,14.97908],[-24.47766,14.98362],[-24.47748,14.98774],[-24.46864,14.99614],[-24.447,15.01237],[-24.43822,15.01536],[-24.43337,15.02187],[-24.42405,15.0264],[-24.41241,15.02524],[-24.39986,15.03051]]],[[[-24.58443,16.60716],[-24.59948,16.60978],[-24.60363,16.61936],[-24.60103,16.62499],[-24.59168,16.62501],[-24.58335,16.62955],[-24.57353,16.62441],[-24.57486,16.61413],[-24.57962,16.60736],[-24.58443,16.60716]]],[[[-24.64352,14.96711],[-24.64537,14.9688],[-24.63524,14.97321],[-24.63476,14.98067],[-24.63224,14.98142],[-24.63099,14.97484],[-24.63336,14.97576],[-24.6334,14.97216],[-24.64142,14.96529],[-24.64352,14.96711]]],[[[-24.67882,16.66243],[-24.68345,16.66609],[-24.67898,16.67119],[-24.66469,16.66021],[-24.65843,16.6474],[-24.6696,16.65152],[-24.67882,16.66243]]],[[[-24.71577,14.80906],[-24.7251,14.81576],[-24.73762,14.83326],[-24.74031,14.82904],[-24.74728,14.83375],[-24.74762,14.83967],[-24.74377,14.83989],[-24.74407,14.84942],[-24.74777,14.85075],[-24.74482,14.85407],[-24.74656,14.86438],[-24.73223,14.86759],[-24.73098,14.8735],[-24.7349,14.87817],[-24.72593,14.88787],[-24.72118,14.88628],[-24.7193,14.88935],[-24.71377,14.8862],[-24.70418,14.89216],[-24.69572,14.8904],[-24.69192,14.89963],[-24.68453,14.89672],[-24.68159,14.89978],[-24.67743,14.89253],[-24.6728,14.89171],[-24.6767,14.88686],[-24.6796,14.88792],[-24.67855,14.87478],[-24.67459,14.87293],[-24.66733,14.85896],[-24.66969,14.84881],[-24.665,14.84194],[-24.6695,14.84198],[-24.66838,14.83528],[-24.66988,14.83066],[-24.67387,14.82967],[-24.67477,14.81976],[-24.68793,14.81436],[-24.69076,14.80924],[-24.70115,14.80303],[-24.70497,14.80449],[-24.70361,14.80756],[-24.70672,14.81008],[-24.71577,14.80906]]],[[[-24.68447,14.97706],[-24.6805,14.97625],[-24.67949,14.97186],[-24.68321,14.97035],[-24.68381,14.96392],[-24.69365,14.96003],[-24.69461,14.9697],[-24.68447,14.97706]]],[[[-24.76527,16.76174],[-24.78562,16.76994],[-24.79093,16.78467],[-24.77544,16.806],[-24.74857,16.79503],[-24.74421,16.77953],[-24.73517,16.77583],[-24.73011,16.76316],[-24.72233,16.75406],[-24.71061,16.75148],[-24.69156,16.75732],[-24.68357,16.75517],[-24.68338,16.74925],[-24.69058,16.73954],[-24.69711,16.74039],[-24.70089,16.73721],[-24.74152,16.73637],[-24.74458,16.73705],[-24.74606,16.74737],[-24.76527,16.76174]]],[[[-24.99326,16.88717],[-24.9951,16.89015],[-24.99196,16.89642],[-24.99882,16.90499],[-24.99092,16.90568],[-24.98979,16.9116],[-24.97669,16.91044],[-24.96857,16.9195],[-24.96511,16.91779],[-24.96569,16.91419],[-24.96194,16.91467],[-24.96144,16.9108],[-24.94519,16.90536],[-24.93712,16.90875],[-24.93814,16.91391],[-24.93208,16.91772],[-24.9319,16.9217],[-24.92039,16.92287],[-24.91293,16.9201],[-24.9041,16.90842],[-24.90686,16.90021],[-24.913,16.90104],[-24.90971,16.89689],[-24.91419,16.8905],[-24.91176,16.87992],[-24.88656,16.86215],[-24.87481,16.86074],[-24.8662,16.86516],[-24.86061,16.86265],[-24.85947,16.85749],[-24.86811,16.84986],[-24.8649,16.83824],[-24.85944,16.83612],[-24.86356,16.81479],[-24.87309,16.81077],[-24.8997,16.81001],[-24.91561,16.79704],[-24.96812,16.78611],[-24.97404,16.78321],[-24.97543,16.77794],[-24.98372,16.77699],[-25.02305,16.79965],[-25.04357,16.80641],[-25.05374,16.80509],[-25.05996,16.81159],[-25.06263,16.82462],[-25.07247,16.8296],[-25.08574,16.82677],[-25.07744,16.84034],[-25.08198,16.84141],[-25.08407,16.84581],[-25.07683,16.84806],[-25.07223,16.85342],[-25.07243,16.86063],[-25.06649,16.86573],[-25.06144,16.86285],[-25.05633,16.86589],[-25.05652,16.87336],[-25.05353,16.87784],[-25.04979,16.87767],[-25.05068,16.8818],[-25.04361,16.88044],[-25.04264,16.88301],[-25.0369,16.88218],[-25.0323,16.88742],[-25.02615,16.88697],[-25.02091,16.87739],[-25.00729,16.87482],[-24.99279,16.88098],[-24.98937,16.8879],[-24.99326,16.88717]]],[[[-25.0165,17.17083],[-25.0172,17.15365],[-25.00141,17.12749],[-24.99051,17.12004],[-24.98513,17.12244],[-24.98304,17.11701],[-24.96833,17.11557],[-24.96504,17.10988],[-24.96352,17.08978],[-24.98699,17.06117],[-24.9865,17.05679],[-25.02437,17.03193],[-25.04062,17.02642],[-25.04188,17.02154],[-25.07296,17.01784],[-25.08478,17.01358],[-25.09777,16.99992],[-25.10637,16.99588],[-25.12426,16.97365],[-25.12693,16.97393],[-25.13253,16.96265],[-25.1493,16.95778],[-25.16545,16.93385],[-25.18043,16.91982],[-25.19705,16.91675],[-25.20568,16.90935],[-25.2174,16.91461],[-25.22813,16.91225],[-25.24943,16.92235],[-25.26602,16.92262],[-25.29773,16.90692],[-25.30518,16.9111],[-25.31811,16.93181],[-25.31802,16.94108],[-25.30975,16.95364],[-25.31102,16.96163],[-25.32065,16.97639],[-25.31837,16.99285],[-25.32116,17.00936],[-25.33137,17.02103],[-25.34914,17.02452],[-25.36033,17.04599],[-25.35818,17.06142],[-25.35059,17.07192],[-25.34279,17.07598],[-25.34327,17.08281],[-25.33775,17.0865],[-25.33756,17.0928],[-25.29778,17.10896],[-25.27715,17.10943],[-25.2603,17.1219],[-25.2414,17.12354],[-25.22563,17.13499],[-25.22729,17.1435],[-25.21846,17.14201],[-25.21388,17.14519],[-25.2142,17.15369],[-25.20605,17.15091],[-25.19847,17.15921],[-25.18644,17.15743],[-25.17569,17.16068],[-25.16664,17.1682],[-25.16755,17.17194],[-25.16027,17.17651],[-25.14123,17.17827],[-25.11994,17.1912],[-25.09711,17.19614],[-25.09354,17.20486],[-25.08926,17.20482],[-25.0872,17.1963],[-25.06668,17.18593],[-25.04666,17.17892],[-25.02231,17.17662],[-25.0165,17.17083]]]]}}]}