{"type":"FeatureCollection","features":[{"type":"Feature","properties":{"ISO_A3":"CRI","WB_A3":"CRI","WB_NAME":"Costa Rica","WB_REGION":"LCN"},"geometry":{"type":"MultiPolygon","coordinates":[[[[-84.66934,9.8767],[-84.68086,9.88272],[-84.69308,9.88063],[-84.69485,9.88824],[-84.69901,9.88776],[-84.70204,9.88185],[-84.70868,9.87855],[-84.69938,9.87113],[-84.6971,9.86379],[-84.70533,9.8744],[-84.72267,9.88392],[-84.72342,9.88869],[-84.73118,9.89287],[-84.72996,9.90007],[-84.72517,9.90004],[-84.72326,9.91213],[-84.71598,9.91286],[-84.70851,9.92208],[-84.70268,9.91934],[-84.69603,9.92251],[-84.69288,9.92893],[-84.69661,9.93281],[-84.71729,9.92935],[-84.73617,9.94236],[-84.73575,9.94699],[-84.74052,9.95217],[-84.73588,9.96023],[-84.74183,9.96905],[-84.76776,9.9776],[-84.78645,9.98017],[-84.80983,9.98033],[-84.83144,9.97467],[-84.84989,9.97479],[-84.85117,9.97686],[-84.81919,9.98],[-84.81397,9.98293],[-84.78748,9.98069],[-84.78332,9.98157],[-84.78146,9.98697],[-84.77107,9.9869],[-84.77105,9.9896],[-84.75391,9.98884],[-84.75803,9.99376],[-84.76324,9.99135],[-84.77119,10.00789],[-84.77665,10.00741],[-84.77539,10.00135],[-84.77827,9.99841],[-84.78684,9.99846],[-84.79353,10.00881],[-84.79588,10.00638],[-84.80159,10.00771],[-84.80604,10.00336],[-84.81044,10.00545],[-84.81708,10.00343],[-84.81816,9.99828],[-84.82638,9.99319],[-84.83046,10.00442],[-84.83866,10.00306],[-84.85391,10.01578],[-84.85346,10.0244],[-84.85605,10.02597],[-84.86805,10.01819],[-84.87102,10.02155],[-84.88077,10.02097],[-84.89049,10.02528],[-84.89186,10.03367],[-84.90172,10.03605],[-84.90046,10.03102],[-84.89682,10.03048],[-84.89737,10.02687],[-84.9084,10.02797],[-84.90953,10.03403],[-84.91552,10.03304],[-84.91874,10.03783],[-84.91754,10.0422],[-84.90764,10.04626],[-84.91329,10.05711],[-84.91138,10.07037],[-84.91689,10.06216],[-84.91682,10.05327],[-84.92739,10.04574],[-84.93207,10.04577],[-84.93358,10.05415],[-84.93062,10.07023],[-84.93391,10.07055],[-84.94249,10.05721],[-84.94523,10.06092],[-84.94186,10.06064],[-84.94079,10.0645],[-84.94452,10.07122],[-84.94651,10.06479],[-84.95486,10.05956],[-84.9577,10.06319],[-84.96809,10.06428],[-84.96598,10.06865],[-84.95456,10.06639],[-84.94644,10.07535],[-84.93863,10.07672],[-84.95925,10.08522],[-84.96195,10.09001],[-84.97649,10.09203],[-85.00216,10.10288],[-85.01607,10.12447],[-85.02488,10.12839],[-85.02487,10.13135],[-85.04381,10.13726],[-85.04896,10.14554],[-85.05235,10.14401],[-85.05115,10.14864],[-85.06102,10.15024],[-85.0615,10.15823],[-85.05835,10.16259],[-85.06183,10.16674],[-85.05985,10.17214],[-85.06803,10.17373],[-85.0724,10.18355],[-85.08281,10.18155],[-85.08439,10.17756],[-85.09076,10.17824],[-85.09373,10.18225],[-85.10375,10.18012],[-85.10351,10.17651],[-85.11963,10.1779],[-85.13254,10.17127],[-85.13416,10.16097],[-85.14402,10.16464],[-85.14398,10.17108],[-85.1406,10.17235],[-85.14213,10.17699],[-85.1333,10.17462],[-85.13743,10.18032],[-85.15435,10.17758],[-85.15151,10.17408],[-85.15541,10.17346],[-85.16033,10.1771],[-85.15978,10.1825],[-85.166,10.18627],[-85.16991,10.18539],[-85.17176,10.17948],[-85.17381,10.18464],[-85.17694,10.18402],[-85.18293,10.18134],[-85.17022,10.17689],[-85.17284,10.17266],[-85.19234,10.17431],[-85.19256,10.18075],[-85.19765,10.17756],[-85.2066,10.1807],[-85.20381,10.19228],[-85.20784,10.19282],[-85.20852,10.18715],[-85.2136,10.18589],[-85.2115,10.18872],[-85.21354,10.1962],[-85.21014,10.20017],[-85.21229,10.20255],[-85.21696,10.20067],[-85.21127,10.20665],[-85.21398,10.21024],[-85.22129,10.20539],[-85.21718,10.19596],[-85.2167,10.18849],[-85.21983,10.18747],[-85.22707,10.19602],[-85.22715,10.20375],[-85.23451,10.21435],[-85.2254,10.21456],[-85.22941,10.2187],[-85.22843,10.23132],[-85.22504,10.23388],[-85.22736,10.23595],[-85.22894,10.23287],[-85.2319,10.23933],[-85.23528,10.23986],[-85.23624,10.24648],[-85.24082,10.24904],[-85.21427,10.27556],[-85.21242,10.2807],[-85.20396,10.28169],[-85.20443,10.28993],[-85.21144,10.29306],[-85.2141,10.30545],[-85.2134,10.31317],[-85.20398,10.32368],[-85.20799,10.33151],[-85.20622,10.3372],[-85.21172,10.33558],[-85.20489,10.3242],[-85.21079,10.31535],[-85.21391,10.31549],[-85.21538,10.30983],[-85.20965,10.28764],[-85.21826,10.2828],[-85.22901,10.26714],[-85.23421,10.26742],[-85.23319,10.26381],[-85.24493,10.25782],[-85.25052,10.25849],[-85.2505,10.26236],[-85.25581,10.26728],[-85.25086,10.26726],[-85.24953,10.27382],[-85.25242,10.26881],[-85.25736,10.26806],[-85.25709,10.27128],[-85.26007,10.27194],[-85.26075,10.26705],[-85.25221,10.25979],[-85.28285,10.2691],[-85.28453,10.2713],[-85.27823,10.28286],[-85.27934,10.29266],[-85.28776,10.30069],[-85.30398,10.30748],[-85.30781,10.32167],[-85.31638,10.32493],[-85.33979,10.32557],[-85.35714,10.31651],[-85.35685,10.32269],[-85.35983,10.32567],[-85.37284,10.32535],[-85.3788,10.32925],[-85.37645,10.33155],[-85.37348,10.32664],[-85.36867,10.32688],[-85.3707,10.33745],[-85.36651,10.34245],[-85.37561,10.34379],[-85.38475,10.33765],[-85.40114,10.33838],[-85.40721,10.34588],[-85.40664,10.35917],[-85.40786,10.34691],[-85.41479,10.34541],[-85.40812,10.34666],[-85.40321,10.33916],[-85.39568,10.33642],[-85.38475,10.33662],[-85.36963,10.34298],[-85.36717,10.34078],[-85.37213,10.33617],[-85.36958,10.32765],[-85.37231,10.32676],[-85.37645,10.33245],[-85.37983,10.33131],[-85.37829,10.32718],[-85.37129,10.32354],[-85.35971,10.32348],[-85.35651,10.31354],[-85.33565,10.32194],[-85.31328,10.31976],[-85.30789,10.30595],[-85.28625,10.29063],[-85.2855,10.28445],[-85.29035,10.27726],[-85.29347,10.27779],[-85.29652,10.26827],[-85.28966,10.26128],[-85.2847,10.26357],[-85.2668,10.25549],[-85.26085,10.24889],[-85.25668,10.25002],[-85.2489,10.24586],[-85.24595,10.2376],[-85.25314,10.23248],[-85.26224,10.23228],[-85.25211,10.23016],[-85.24792,10.23426],[-85.25137,10.20654],[-85.24755,10.20669],[-85.24343,10.19997],[-85.2506,10.17244],[-85.24827,10.17011],[-85.2494,10.15414],[-85.27209,10.14163],[-85.28483,10.14183],[-85.29109,10.13967],[-85.29189,10.13504],[-85.29892,10.1343],[-85.29268,10.13298],[-85.29272,10.12654],[-85.28596,10.12676],[-85.28615,10.12178],[-85.27065,10.11998],[-85.26875,10.11147],[-85.26096,10.10808],[-85.25776,10.09982],[-85.25439,10.098],[-85.24266,10.10334],[-85.23984,10.09611],[-85.22868,10.09168],[-85.2282,10.08446],[-85.21961,10.08583],[-85.21885,10.0826],[-85.21042,10.07947],[-85.21446,10.07743],[-85.21425,10.06854],[-85.21737,10.0683],[-85.21948,10.06251],[-85.2143,10.05965],[-85.21795,10.05683],[-85.21695,10.05413],[-85.2068,10.05252],[-85.19683,10.04435],[-85.1966,10.04023],[-85.20247,10.03485],[-85.20355,10.02803],[-85.20071,10.02479],[-85.20579,10.02276],[-85.19086,10.01959],[-85.19205,10.01547],[-85.18204,10.01593],[-85.1848,10.01105],[-85.17765,10.0105],[-85.17015,10.00453],[-85.1652,10.00734],[-85.16157,10.005],[-85.16024,10.00988],[-85.15478,10.00985],[-85.15249,10.00237],[-85.14444,10.00129],[-85.14187,9.9951],[-85.13165,9.9868],[-85.12718,9.97389],[-85.1225,9.97412],[-85.12174,9.96999],[-85.11746,9.96894],[-85.11289,9.97252],[-85.10953,9.96992],[-85.11163,9.96659],[-85.10355,9.97015],[-85.09501,9.96469],[-85.08875,9.96749],[-85.07812,9.96305],[-85.07655,9.96587],[-85.05262,9.9696],[-85.05311,9.97449],[-85.0389,9.95947],[-85.0254,9.95784],[-85.02209,9.94623],[-85.01664,9.94581],[-85.01252,9.93845],[-84.98863,9.93573],[-84.97407,9.93796],[-84.97119,9.94168],[-84.9655,9.93765],[-84.96002,9.94148],[-84.94836,9.93484],[-84.9372,9.9331],[-84.93206,9.92456],[-84.9205,9.92372],[-84.92069,9.91445],[-84.91426,9.90333],[-84.92779,9.90148],[-84.93262,9.897],[-84.93843,9.8821],[-84.93341,9.87498],[-84.92176,9.86898],[-84.92077,9.86112],[-84.90909,9.85873],[-84.90886,9.85461],[-84.92264,9.85173],[-84.92841,9.84262],[-84.93229,9.84535],[-84.94159,9.83343],[-84.93732,9.83108],[-84.93262,9.83479],[-84.92912,9.83309],[-84.92204,9.82274],[-84.89496,9.83417],[-84.86422,9.82831],[-84.86814,9.8237],[-84.87581,9.82336],[-84.87907,9.82016],[-84.87873,9.81346],[-84.8886,9.81339],[-84.89922,9.81784],[-84.91392,9.81316],[-84.90786,9.8072],[-84.90202,9.80665],[-84.90185,9.79806],[-84.92353,9.79261],[-84.92218,9.78101],[-84.93013,9.77488],[-84.92995,9.76315],[-84.9357,9.75726],[-84.94113,9.76116],[-84.95401,9.75699],[-84.95576,9.74669],[-84.95114,9.73817],[-84.95535,9.7284],[-84.97299,9.73147],[-84.97891,9.74052],[-84.9854,9.74069],[-84.98564,9.74404],[-84.99134,9.746],[-84.97988,9.75148],[-84.98048,9.7605],[-84.98867,9.7581],[-84.99366,9.7495],[-85.01059,9.74006],[-85.01704,9.72542],[-85.01543,9.71317],[-85.00141,9.71283],[-84.99496,9.70571],[-85.00751,9.68994],[-85.03508,9.68288],[-85.03951,9.67969],[-85.04137,9.6721],[-85.0549,9.66767],[-85.06796,9.65434],[-85.07379,9.63312],[-85.0781,9.62812],[-85.07818,9.61421],[-85.09236,9.58646],[-85.09244,9.57075],[-85.10895,9.5662],[-85.11237,9.559],[-85.11664,9.56134],[-85.11428,9.56494],[-85.12033,9.57322],[-85.12629,9.57518],[-85.13358,9.57251],[-85.13304,9.5756],[-85.14286,9.58339],[-85.14325,9.60709],[-85.14649,9.60891],[-85.14707,9.62025],[-85.20105,9.674],[-85.20395,9.69115],[-85.21517,9.70461],[-85.21913,9.71777],[-85.22828,9.73018],[-85.21763,9.72699],[-85.22594,9.73056],[-85.22875,9.73907],[-85.23499,9.73795],[-85.22924,9.73245],[-85.25829,9.75391],[-85.2741,9.75953],[-85.26494,9.77314],[-85.26065,9.77364],[-85.25434,9.78855],[-85.25861,9.79166],[-85.2685,9.78862],[-85.26698,9.77985],[-85.26205,9.77931],[-85.26259,9.77519],[-85.29155,9.80059],[-85.2892,9.8029],[-85.28519,9.8003],[-85.28606,9.80739],[-85.29256,9.80652],[-85.30487,9.81277],[-85.30528,9.80916],[-85.3216,9.81762],[-85.33434,9.81588],[-85.33084,9.82311],[-85.33323,9.82978],[-85.3475,9.83462],[-85.34851,9.8403],[-85.35397,9.84058],[-85.3545,9.83736],[-85.36865,9.84065],[-85.37472,9.84686],[-85.39807,9.85303],[-85.40249,9.85254],[-85.40564,9.84779],[-85.4264,9.85304],[-85.42651,9.85742],[-85.43052,9.8595],[-85.45338,9.8627],[-85.45551,9.87341],[-85.45749,9.87096],[-85.45386,9.87043],[-85.45583,9.86631],[-85.45325,9.86192],[-85.46002,9.85938],[-85.46279,9.85024],[-85.46539,9.84999],[-85.48587,9.85872],[-85.48337,9.86747],[-85.49101,9.8715],[-85.50899,9.86037],[-85.50868,9.87171],[-85.52112,9.88065],[-85.52944,9.87927],[-85.53648,9.87376],[-85.54791,9.87407],[-85.56036,9.88056],[-85.56778,9.87686],[-85.57465,9.88153],[-85.58919,9.88326],[-85.59436,9.89076],[-85.60659,9.8872],[-85.61618,9.89214],[-85.62476,9.89101],[-85.62865,9.89464],[-85.6294,9.90121],[-85.64132,9.9095],[-85.65225,9.90633],[-85.65253,9.90117],[-85.66863,9.90394],[-85.6694,9.90717],[-85.66342,9.90766],[-85.66119,9.91306],[-85.66115,9.92311],[-85.66861,9.94118],[-85.67547,9.9483],[-85.67596,9.95693],[-85.68113,9.96262],[-85.67644,9.96531],[-85.67316,9.97341],[-85.6846,9.97346],[-85.69947,9.99323],[-85.72824,10.01667],[-85.73184,10.02493],[-85.74235,10.03141],[-85.75125,10.05],[-85.77016,10.06862],[-85.76924,10.07171],[-85.78775,10.09382],[-85.78695,10.09935],[-85.79342,10.10685],[-85.79325,10.11871],[-85.80021,10.13497],[-85.7998,10.14089],[-85.79719,10.14166],[-85.7992,10.16074],[-85.80103,10.15958],[-85.80452,10.16462],[-85.80804,10.1636],[-85.80132,10.15121],[-85.80419,10.14813],[-85.80861,10.14995],[-85.80922,10.16103],[-85.81826,10.17833],[-85.83639,10.20082],[-85.83682,10.22453],[-85.84936,10.24674],[-85.85295,10.26092],[-85.84835,10.27457],[-85.85104,10.28475],[-85.8461,10.28332],[-85.84691,10.27611],[-85.83988,10.27737],[-85.83725,10.28509],[-85.84347,10.29117],[-85.85156,10.28527],[-85.85349,10.29211],[-85.84528,10.29633],[-85.8402,10.3071],[-85.82908,10.31187],[-85.83102,10.31703],[-85.82227,10.32447],[-85.82369,10.32834],[-85.82656,10.3268],[-85.82848,10.33519],[-85.83706,10.33767],[-85.84253,10.33562],[-85.83411,10.324],[-85.83492,10.31807],[-85.83909,10.31448],[-85.84218,10.32557],[-85.85733,10.34573],[-85.87033,10.34899],[-85.87512,10.35533],[-85.86584,10.36625],[-85.85361,10.36736],[-85.85307,10.37084],[-85.84617,10.37275],[-85.84444,10.38279],[-85.83792,10.38689],[-85.83463,10.39693],[-85.82851,10.39742],[-85.82599,10.4085],[-85.82117,10.40951],[-85.8199,10.40126],[-85.81444,10.39931],[-85.8001,10.40454],[-85.79067,10.42048],[-85.79423,10.44343],[-85.78566,10.43644],[-85.77889,10.43822],[-85.77247,10.44824],[-85.77114,10.45442],[-85.77516,10.45817],[-85.77978,10.47533],[-85.78629,10.47651],[-85.78809,10.48219],[-85.79822,10.4836],[-85.79352,10.49213],[-85.79637,10.49614],[-85.79872,10.49511],[-85.80077,10.50118],[-85.79856,10.50169],[-85.79892,10.50929],[-85.80685,10.51177],[-85.80436,10.51743],[-85.79056,10.51763],[-85.78923,10.52304],[-85.78192,10.52946],[-85.7811,10.53718],[-85.77797,10.53846],[-85.779,10.54336],[-85.76846,10.54048],[-85.76549,10.5348],[-85.75275,10.52947],[-85.73472,10.54357],[-85.72091,10.54597],[-85.71331,10.55586],[-85.70683,10.55029],[-85.69953,10.5509],[-85.693,10.55564],[-85.69049,10.56543],[-85.69971,10.56959],[-85.69979,10.57233],[-85.68408,10.57017],[-85.68017,10.57234],[-85.67636,10.57954],[-85.67983,10.58999],[-85.67435,10.59242],[-85.67254,10.59022],[-85.66355,10.59134],[-85.66343,10.58773],[-85.65353,10.58859],[-85.65013,10.59128],[-85.64904,10.60391],[-85.64513,10.60273],[-85.64014,10.61289],[-85.62498,10.62442],[-85.6239,10.6324],[-85.629,10.62856],[-85.64211,10.63957],[-85.64991,10.64295],[-85.65694,10.64208],[-85.67405,10.63133],[-85.67396,10.62231],[-85.67791,10.61356],[-85.69096,10.60795],[-85.69668,10.60939],[-85.69667,10.61158],[-85.68859,10.61232],[-85.6853,10.62004],[-85.69088,10.62676],[-85.68302,10.63536],[-85.67965,10.63354],[-85.67272,10.63828],[-85.67101,10.64368],[-85.67935,10.64166],[-85.68455,10.64477],[-85.67904,10.65209],[-85.67332,10.65142],[-85.67092,10.66301],[-85.65398,10.66564],[-85.64614,10.67038],[-85.64455,10.6754],[-85.65251,10.67376],[-85.65684,10.69542],[-85.65526,10.69979],[-85.66194,10.71992],[-85.66315,10.74132],[-85.65784,10.76449],[-85.67687,10.79394],[-85.67296,10.79367],[-85.67347,10.79573],[-85.67917,10.80246],[-85.68803,10.80314],[-85.69456,10.79956],[-85.7047,10.80733],[-85.70913,10.80594],[-85.71329,10.80995],[-85.72267,10.81011],[-85.74401,10.81883],[-85.75969,10.80898],[-85.76141,10.80357],[-85.76518,10.80359],[-85.77583,10.81291],[-85.79225,10.81516],[-85.79587,10.82265],[-85.80159,10.82538],[-85.80208,10.83337],[-85.79164,10.83578],[-85.78405,10.84451],[-85.77949,10.8441],[-85.78404,10.84747],[-85.78244,10.8561],[-85.78896,10.85406],[-85.78999,10.85729],[-85.79312,10.85691],[-85.8041,10.84922],[-85.83381,10.85243],[-85.8411,10.85607],[-85.85427,10.85496],[-85.85736,10.86476],[-85.86969,10.87834],[-85.90341,10.88993],[-85.90821,10.89651],[-85.91603,10.89886],[-85.94709,10.88995],[-85.94655,10.89343],[-85.91731,10.90441],[-85.91233,10.91006],[-85.89956,10.91027],[-85.87969,10.92218],[-85.86482,10.92612],[-85.86126,10.93513],[-85.86398,10.9412],[-85.88481,10.94965],[-85.84727,10.9441],[-85.81598,10.94346],[-85.81548,10.93934],[-85.81118,10.937],[-85.81956,10.92956],[-85.81764,10.92105],[-85.80696,10.91791],[-85.79643,10.90885],[-85.78875,10.90753],[-85.78168,10.91498],[-85.78987,10.91965],[-85.79986,10.9318],[-85.79074,10.93138],[-85.78773,10.93304],[-85.78889,10.93678],[-85.78462,10.93784],[-85.77951,10.93417],[-85.77858,10.93842],[-85.77271,10.93943],[-85.76568,10.93553],[-85.75863,10.93898],[-85.73464,10.93837],[-85.72918,10.93384],[-85.72735,10.93692],[-85.71993,10.93354],[-85.72373,10.92814],[-85.72246,10.9217],[-85.71347,10.92063],[-85.71144,10.93634],[-85.70467,10.93476],[-85.70072,10.94428],[-85.69903,10.94247],[-85.70297,10.93527],[-85.69893,10.93577],[-85.69693,10.94581],[-85.69991,10.94943],[-85.70565,10.94881],[-85.71528,10.95375],[-85.70719,10.95449],[-85.70181,10.9631],[-85.69177,10.96318],[-85.68901,10.96639],[-85.68987,10.97825],[-85.70939,10.9889],[-85.7104,10.99689],[-85.7247,11.00623],[-85.74059,11.01068],[-85.75127,11.01742],[-85.75393,11.0243],[-85.74652,11.02758],[-85.74493,11.03376],[-85.73607,11.03205],[-85.73474,11.03797],[-85.73865,11.03773],[-85.74019,11.04392],[-85.73626,11.04674],[-85.727,11.04876],[-85.7231,11.04617],[-85.71768,11.03171],[-85.71235,11.02679],[-85.70765,11.02909],[-85.68862,11.02656],[-85.67398,11.03333],[-85.66362,11.04617],[-85.67305,11.06631],[-85.68217,11.06788],[-85.68605,11.07513],[-85.69304,11.07889],[-85.60984,11.21968],[-85.56043,11.21019],[-85.52215,11.1677],[-85.4966,11.15754],[-85.424,11.12906],[-85.35747,11.12608],[-85.22761,11.06253],[-84.91091,10.94394],[-84.68086,11.08463],[-84.66634,11.07228],[-84.60599,11.03838],[-84.57468,11.05107],[-84.56442,11.03296],[-84.48579,11.00057],[-84.4503,10.96056],[-84.4206,10.95488],[-84.39982,10.97498],[-84.37635,10.97736],[-84.3587,10.9955],[-84.34197,10.97474],[-84.34759,10.9667],[-84.35043,10.95038],[-84.33637,10.94596],[-84.3317,10.93116],[-84.32268,10.91793],[-84.31645,10.91627],[-84.30991,10.92176],[-84.30682,10.91671],[-84.29222,10.9118],[-84.28481,10.89473],[-84.25616,10.89053],[-84.24302,10.88417],[-84.23905,10.87734],[-84.22569,10.87411],[-84.21939,10.8641],[-84.21535,10.83796],[-84.21977,10.82581],[-84.23609,10.8202],[-84.23661,10.81383],[-84.22943,10.81192],[-84.22279,10.80116],[-84.20565,10.79715],[-84.20828,10.79151],[-84.20249,10.78183],[-84.19179,10.78964],[-84.16533,10.78518],[-84.14038,10.78767],[-84.13247,10.7829],[-84.13202,10.77168],[-84.12775,10.76573],[-84.11461,10.76585],[-84.1062,10.77423],[-84.1014,10.77413],[-84.08068,10.75867],[-84.06314,10.76319],[-84.06202,10.77237],[-84.05668,10.77785],[-84.04957,10.77866],[-84.04159,10.77095],[-84.0358,10.77144],[-84.03168,10.78725],[-84.02824,10.7916],[-84.02091,10.79156],[-84.00471,10.76398],[-83.97178,10.74506],[-83.96668,10.72891],[-83.9356,10.7195],[-83.93515,10.71051],[-83.93119,10.70759],[-83.88921,10.72183],[-83.87152,10.71641],[-83.86341,10.71745],[-83.84046,10.74383],[-83.82199,10.74921],[-83.81222,10.74606],[-83.8007,10.75453],[-83.79291,10.76922],[-83.78264,10.7719],[-83.7619,10.76908],[-83.75984,10.77508],[-83.72465,10.78522],[-83.71389,10.79278],[-83.6967,10.7872],[-83.67006,10.79765],[-83.66065,10.81814],[-83.67504,10.85318],[-83.66763,10.8761],[-83.6683,10.88939],[-83.68302,10.89792],[-83.67665,10.90249],[-83.67775,10.91296],[-83.68866,10.93436],[-83.69697,10.93467],[-83.69767,10.9402],[-83.6852,10.93807],[-83.68335,10.93513],[-83.67711,10.93595],[-83.67324,10.93388],[-83.67567,10.92598],[-83.66708,10.93035],[-83.64591,10.91524],[-83.62229,10.88068],[-83.60565,10.79353],[-83.61762,10.83772],[-83.61787,10.82123],[-83.63014,10.85486],[-83.61459,10.80427],[-83.61134,10.80481],[-83.60962,10.80122],[-83.60597,10.78606],[-83.60103,10.78661],[-83.61802,10.86913],[-83.58881,10.805],[-83.59613,10.76168],[-83.60962,10.7559],[-83.6155,10.74339],[-83.62353,10.73827],[-83.63745,10.72154],[-83.64136,10.72202],[-83.65005,10.7338],[-83.65655,10.73232],[-83.65818,10.72587],[-83.66713,10.72155],[-83.66954,10.72938],[-83.68231,10.73082],[-83.70305,10.74969],[-83.71584,10.75267],[-83.71503,10.74971],[-83.70197,10.74571],[-83.68308,10.72978],[-83.67215,10.72962],[-83.6679,10.72025],[-83.6614,10.72134],[-83.65472,10.73183],[-83.64769,10.73163],[-83.64318,10.72188],[-83.65508,10.71302],[-83.64369,10.72046],[-83.63561,10.71989],[-83.61186,10.74429],[-83.60881,10.75307],[-83.59299,10.76093],[-83.58659,10.7736],[-83.58895,10.79032],[-83.58613,10.79549],[-83.57687,10.74845],[-83.57566,10.72837],[-83.57746,10.72501],[-83.58039,10.73271],[-83.57955,10.72628],[-83.57429,10.72066],[-83.57463,10.72941],[-83.57118,10.72248],[-83.55406,10.66803],[-83.52377,10.59334],[-83.52316,10.58227],[-83.5055,10.53914],[-83.50863,10.53989],[-83.51222,10.54965],[-83.51298,10.54733],[-83.51032,10.53988],[-83.50628,10.53759],[-83.50685,10.53012],[-83.45492,10.4288],[-83.42836,10.39217],[-83.44888,10.42138],[-83.49603,10.51012],[-83.50479,10.53168],[-83.50358,10.5438],[-83.51561,10.56636],[-83.5179,10.57536],[-83.51288,10.56716],[-83.45684,10.45789],[-83.39024,10.35692],[-83.39847,10.34501],[-83.39625,10.34309],[-83.38956,10.35382],[-83.38643,10.35257],[-83.35671,10.31674],[-83.35472,10.30646],[-83.34856,10.29708],[-83.34241,10.29184],[-83.35423,10.30722],[-83.35166,10.31161],[-83.27846,10.22302],[-83.2809,10.21913],[-83.27145,10.20632],[-83.26995,10.19678],[-83.27369,10.19256],[-83.26824,10.19347],[-83.26936,10.20634],[-83.27884,10.22018],[-83.27493,10.22072],[-83.2193,10.14718],[-83.18814,10.11519],[-83.13502,10.04161],[-83.10608,10.00856],[-83.09643,10.00231],[-83.07743,9.99921],[-83.07763,10.01003],[-83.06428,10.01462],[-83.06167,10.01348],[-83.06216,10.00884],[-83.04918,10.01162],[-83.02625,10.0021],[-83.02594,9.99386],[-83.02126,9.99157],[-83.02864,9.98869],[-83.03039,9.97709],[-83.02144,9.95834],[-82.89905,9.80293],[-82.86972,9.76032],[-82.8525,9.74341],[-82.83949,9.74065],[-82.83816,9.73627],[-82.83244,9.73437],[-82.82699,9.7344],[-82.81435,9.7494],[-82.80873,9.74468],[-82.81462,9.72893],[-82.81457,9.72017],[-82.79751,9.68651],[-82.78274,9.66648],[-82.76476,9.65485],[-82.74582,9.65894],[-82.72601,9.64385],[-82.71901,9.64517],[-82.71744,9.6426],[-82.69404,9.63756],[-82.68654,9.64352],[-82.67741,9.63532],[-82.66623,9.63138],[-82.66052,9.63167],[-82.64757,9.63946],[-82.64184,9.63601],[-82.62652,9.63634],[-82.61845,9.63044],[-82.61982,9.61601],[-82.61732,9.6119],[-82.5915,9.58651],[-82.56678,9.57425],[-82.56677,9.5628],[-82.55252,9.5501],[-82.55428,9.54134],[-82.55987,9.53937],[-82.57994,9.55809],[-82.59345,9.56035],[-82.60289,9.55842],[-82.60405,9.55012],[-82.59814,9.53568],[-82.60534,9.52021],[-82.60359,9.50812],[-82.60725,9.50332],[-82.61593,9.49874],[-82.63154,9.50261],[-82.63436,9.49428],[-82.64446,9.49498],[-82.65397,9.50379],[-82.65584,9.512],[-82.6596,9.51165],[-82.66077,9.50402],[-82.66606,9.4985],[-82.67028,9.49921],[-82.67275,9.5039],[-82.66782,9.51013],[-82.67545,9.50719],[-82.68883,9.50883],[-82.69153,9.51259],[-82.69083,9.52128],[-82.69987,9.5255],[-82.70139,9.52938],[-82.692,9.53313],[-82.69083,9.53889],[-82.70116,9.54229],[-82.70221,9.55391],[-82.70468,9.55626],[-82.70902,9.55462],[-82.70832,9.54217],[-82.71595,9.5491],[-82.72417,9.55133],[-82.72757,9.5538],[-82.72464,9.5606],[-82.72837,9.56692],[-82.74157,9.56608],[-82.74728,9.57835],[-82.74557,9.58481],[-82.75513,9.58306],[-82.76202,9.57773],[-82.76246,9.58284],[-82.7675,9.58738],[-82.78123,9.58284],[-82.78218,9.59155],[-82.79337,9.60337],[-82.80901,9.59519],[-82.81532,9.59816],[-82.81912,9.60514],[-82.82998,9.60885],[-82.83243,9.61787],[-82.85121,9.61449],[-82.85618,9.61804],[-82.85921,9.61586],[-82.86166,9.5949],[-82.87451,9.59427],[-82.87708,9.59165],[-82.87817,9.57783],[-82.88525,9.56435],[-82.88102,9.56263],[-82.88102,9.55635],[-82.87691,9.55327],[-82.86823,9.55367],[-82.86709,9.54585],[-82.87405,9.53831],[-82.8728,9.52523],[-82.8644,9.51832],[-82.85652,9.51986],[-82.8531,9.51666],[-82.85692,9.51295],[-82.85475,9.51175],[-82.8475,9.51404],[-82.84818,9.50975],[-82.84225,9.50496],[-82.84399,9.5],[-82.93611,9.47314],[-82.93611,9.07838],[-82.92756,9.07483],[-82.91341,9.08296],[-82.89907,9.08486],[-82.89522,9.08895],[-82.88727,9.08744],[-82.88682,9.07963],[-82.87977,9.07011],[-82.87876,9.06213],[-82.86854,9.05494],[-82.86119,9.05652],[-82.85521,9.04616],[-82.84,9.04006],[-82.83582,9.0341],[-82.8301,9.03569],[-82.81668,9.02909],[-82.81358,9.0235],[-82.81592,9.01904],[-82.80438,9.01636],[-82.80112,9.00426],[-82.78301,9.00542],[-82.75595,8.99618],[-82.74057,8.98501],[-82.73678,8.97626],[-82.73802,8.96402],[-82.717,8.94824],[-82.71179,8.92518],[-82.7122,8.92238],[-82.74361,8.91008],[-82.74876,8.90599],[-82.74706,8.89961],[-82.75138,8.89292],[-82.75973,8.88618],[-82.76816,8.88542],[-82.77333,8.87834],[-82.7823,8.87497],[-82.79928,8.8767],[-82.80885,8.8734],[-82.81315,8.86399],[-82.81937,8.8608],[-82.8478,8.85399],[-82.85518,8.85606],[-82.85667,8.85273],[-82.86145,8.85207],[-82.88416,8.82953],[-82.8837,8.82351],[-82.87692,8.82291],[-82.87736,8.81983],[-82.86335,8.8139],[-82.86623,8.80535],[-82.89034,8.79115],[-82.8852,8.77481],[-82.89259,8.77194],[-82.89854,8.7755],[-82.90977,8.77413],[-82.91881,8.76541],[-82.91598,8.76016],[-82.90957,8.75891],[-82.91319,8.75386],[-82.91875,8.75296],[-82.91623,8.74088],[-82.90883,8.736],[-82.90631,8.73725],[-82.89919,8.72773],[-82.89231,8.72681],[-82.88992,8.72233],[-82.89149,8.71129],[-82.88056,8.69745],[-82.86726,8.69695],[-82.86215,8.68821],[-82.86447,8.67949],[-82.85834,8.6756],[-82.85712,8.66696],[-82.84333,8.65526],[-82.83032,8.6362],[-82.82895,8.61446],[-82.8363,8.61516],[-82.83829,8.6127],[-82.82816,8.60554],[-82.82704,8.59944],[-82.83394,8.59311],[-82.82217,8.56708],[-82.83889,8.54612],[-82.83149,8.50514],[-82.839,8.48028],[-82.86823,8.43963],[-82.9151,8.42871],[-82.93095,8.43502],[-82.93552,8.42391],[-82.95351,8.41406],[-82.95413,8.40788],[-82.96719,8.39828],[-82.96927,8.3866],[-82.98349,8.37309],[-82.9884,8.37552],[-83.00344,8.36517],[-83.00424,8.3594],[-83.01196,8.35494],[-83.01721,8.35628],[-83.02012,8.35123],[-83.02834,8.35262],[-83.04619,8.3432],[-83.04593,8.33646],[-83.05158,8.33564],[-83.04622,8.31868],[-83.03742,8.31882],[-83.02378,8.31222],[-83.02403,8.30543],[-83.01207,8.29824],[-83.00827,8.29889],[-83.00402,8.29387],[-83.00516,8.29001],[-82.99522,8.2814],[-82.98957,8.27094],[-82.98021,8.28639],[-82.97524,8.28821],[-82.96809,8.27856],[-82.95724,8.28102],[-82.95198,8.26729],[-82.94363,8.27125],[-82.94143,8.26891],[-82.93795,8.25186],[-82.92994,8.2401],[-82.93608,8.21098],[-82.92887,8.21011],[-82.91774,8.19576],[-82.91245,8.19848],[-82.91027,8.19643],[-82.91265,8.17659],[-82.90323,8.17578],[-82.9096,8.16767],[-82.90732,8.16362],[-82.91003,8.15748],[-82.90896,8.14722],[-82.90628,8.14022],[-82.90313,8.13935],[-82.90102,8.12838],[-82.88583,8.10841],[-82.89077,8.1003],[-82.88454,8.0776],[-82.89674,8.06341],[-82.89522,8.05525],[-82.89088,8.0518],[-82.89866,8.04381],[-82.90289,8.04071],[-82.91486,8.05701],[-82.91211,8.07725],[-82.9059,8.07651],[-82.90037,8.08362],[-82.89863,8.0978],[-82.90154,8.11196],[-82.92292,8.14896],[-82.93185,8.17778],[-82.9725,8.2407],[-82.98329,8.2525],[-83.02299,8.27755],[-83.04611,8.29727],[-83.10966,8.33146],[-83.1449,8.36631],[-83.14383,8.38332],[-83.1405,8.38926],[-83.13203,8.40142],[-83.11062,8.41364],[-83.10274,8.43816],[-83.09207,8.45135],[-83.10646,8.48142],[-83.13668,8.51706],[-83.15121,8.54815],[-83.14603,8.54638],[-83.13163,8.51657],[-83.1181,8.50274],[-83.12137,8.50967],[-83.11554,8.50919],[-83.11666,8.524],[-83.1112,8.51875],[-83.1023,8.51939],[-83.10618,8.52418],[-83.10219,8.52859],[-83.106,8.53887],[-83.11758,8.54988],[-83.11139,8.55443],[-83.11045,8.54812],[-83.10414,8.55343],[-83.09455,8.55143],[-83.08083,8.54171],[-83.09015,8.55145],[-83.10804,8.55651],[-83.11373,8.55647],[-83.11707,8.55169],[-83.13417,8.55546],[-83.13577,8.56292],[-83.14564,8.56982],[-83.15289,8.57056],[-83.15191,8.58035],[-83.14027,8.58196],[-83.13732,8.58507],[-83.13825,8.59086],[-83.13358,8.58895],[-83.11316,8.59345],[-83.12072,8.60242],[-83.13082,8.60301],[-83.13339,8.60055],[-83.14084,8.61416],[-83.1752,8.64617],[-83.18709,8.64404],[-83.18253,8.63917],[-83.1771,8.63907],[-83.17574,8.62891],[-83.18114,8.62231],[-83.19606,8.62828],[-83.20291,8.62708],[-83.20371,8.63106],[-83.21095,8.6287],[-83.22448,8.64138],[-83.23276,8.64004],[-83.23515,8.62934],[-83.24307,8.6329],[-83.25383,8.65731],[-83.27168,8.6563],[-83.27481,8.65989],[-83.27998,8.6596],[-83.28904,8.65826],[-83.2947,8.65371],[-83.30022,8.66708],[-83.30673,8.6736],[-83.31968,8.67404],[-83.328,8.68004],[-83.32958,8.68544],[-83.32597,8.68624],[-83.32612,8.69062],[-83.33177,8.70346],[-83.32867,8.70503],[-83.32898,8.71275],[-83.32355,8.71433],[-83.32017,8.71178],[-83.31633,8.71901],[-83.31765,8.72338],[-83.31249,8.72625],[-83.29928,8.72491],[-83.29542,8.73099],[-83.29885,8.7256],[-83.30317,8.72592],[-83.30501,8.7299],[-83.32676,8.73157],[-83.32957,8.72563],[-83.34073,8.72878],[-83.34647,8.73634],[-83.35113,8.7367],[-83.35331,8.73244],[-83.37055,8.73748],[-83.37632,8.74865],[-83.38252,8.7459],[-83.38145,8.74089],[-83.38995,8.73427],[-83.39044,8.7304],[-83.39424,8.7363],[-83.39798,8.73447],[-83.40188,8.73715],[-83.41692,8.7207],[-83.43279,8.71326],[-83.43751,8.72224],[-83.44348,8.72478],[-83.45563,8.72213],[-83.46446,8.72645],[-83.46765,8.72038],[-83.4784,8.72108],[-83.48423,8.70275],[-83.48133,8.6935],[-83.47513,8.69573],[-83.46979,8.68997],[-83.47516,8.68919],[-83.4705,8.68822],[-83.46699,8.67866],[-83.45767,8.67794],[-83.45607,8.67087],[-83.45063,8.67026],[-83.44592,8.66231],[-83.43426,8.66006],[-83.43224,8.64746],[-83.43588,8.63043],[-83.42648,8.61813],[-83.41519,8.61202],[-83.39655,8.59127],[-83.38616,8.58438],[-83.37659,8.5847],[-83.37342,8.57532],[-83.35117,8.57623],[-83.32106,8.5616],[-83.3197,8.5504],[-83.31033,8.54157],[-83.30724,8.54391],[-83.30489,8.53954],[-83.30101,8.54046],[-83.28958,8.53384],[-83.29069,8.52468],[-83.28466,8.53245],[-83.2882,8.54093],[-83.28329,8.54121],[-83.29133,8.50124],[-83.28438,8.48479],[-83.27711,8.48097],[-83.27147,8.46787],[-83.2835,8.44565],[-83.27203,8.43026],[-83.27933,8.41888],[-83.28044,8.41011],[-83.27708,8.38695],[-83.29071,8.37489],[-83.43697,8.43571],[-83.46936,8.44452],[-83.51259,8.44875],[-83.54075,8.44367],[-83.54565,8.44029],[-83.56635,8.44209],[-83.5696,8.44387],[-83.56755,8.44775],[-83.57003,8.45095],[-83.58897,8.45945],[-83.59255,8.47334],[-83.60742,8.49152],[-83.64772,8.52138],[-83.64982,8.52497],[-83.64714,8.52569],[-83.64332,8.52058],[-83.64244,8.52451],[-83.65806,8.53908],[-83.66121,8.54576],[-83.66449,8.54556],[-83.65081,8.52672],[-83.68929,8.56539],[-83.69465,8.57282],[-83.6874,8.5721],[-83.69364,8.57695],[-83.69121,8.58057],[-83.69948,8.57935],[-83.70494,8.58305],[-83.71426,8.5835],[-83.71609,8.58658],[-83.72098,8.58306],[-83.73153,8.59342],[-83.73526,8.62584],[-83.72857,8.63104],[-83.73188,8.64209],[-83.71394,8.64839],[-83.71607,8.67439],[-83.71054,8.67855],[-83.71007,8.6855],[-83.69408,8.6936],[-83.67262,8.69658],[-83.67077,8.69119],[-83.66585,8.69058],[-83.65476,8.69645],[-83.64914,8.70653],[-83.64789,8.73101],[-83.63308,8.74167],[-83.61835,8.74563],[-83.61761,8.75002],[-83.62334,8.75487],[-83.63783,8.75387],[-83.64022,8.74394],[-83.64568,8.76708],[-83.63642,8.77487],[-83.63303,8.77167],[-83.61229,8.76731],[-83.61634,8.77192],[-83.61676,8.77655],[-83.61353,8.77812],[-83.60281,8.76222],[-83.6024,8.75888],[-83.60913,8.75973],[-83.61067,8.75728],[-83.60162,8.75837],[-83.59713,8.76458],[-83.60123,8.77666],[-83.59873,8.78981],[-83.58971,8.79618],[-83.58142,8.79585],[-83.57154,8.78845],[-83.56456,8.79043],[-83.55548,8.78804],[-83.55123,8.79039],[-83.55087,8.79503],[-83.54699,8.79557],[-83.54926,8.78757],[-83.53503,8.78779],[-83.52745,8.79673],[-83.52839,8.8011],[-83.52124,8.8166],[-83.52547,8.82945],[-83.5317,8.83224],[-83.52457,8.84865],[-83.52146,8.84931],[-83.52202,8.85446],[-83.51835,8.84907],[-83.51291,8.84744],[-83.5052,8.85728],[-83.49327,8.85478],[-83.48436,8.85806],[-83.49051,8.86652],[-83.48527,8.85818],[-83.49329,8.85632],[-83.50547,8.85908],[-83.51474,8.85052],[-83.51946,8.8586],[-83.51329,8.86572],[-83.50614,8.8683],[-83.50921,8.87489],[-83.50557,8.8735],[-83.50042,8.87804],[-83.5126,8.87847],[-83.51521,8.88129],[-83.52005,8.8895],[-83.51351,8.8983],[-83.51945,8.89543],[-83.52546,8.90376],[-83.53064,8.90385],[-83.52885,8.90747],[-83.53368,8.91181],[-83.54599,8.91314],[-83.55355,8.9203],[-83.56518,8.917],[-83.55773,8.92658],[-83.56111,8.92733],[-83.56946,8.91878],[-83.57657,8.93547],[-83.58292,8.9362],[-83.58041,8.94755],[-83.57392,8.94553],[-83.57472,8.94862],[-83.57731,8.94757],[-83.5789,8.95258],[-83.58561,8.95008],[-83.59743,8.95541],[-83.59762,8.96365],[-83.60153,8.96697],[-83.58086,8.97355],[-83.5751,8.9651],[-83.56238,8.96184],[-83.54442,8.94818],[-83.52577,8.9487],[-83.51509,8.93924],[-83.50912,8.93851],[-83.49587,8.9507],[-83.49602,8.95366],[-83.48407,8.94924],[-83.46961,8.9559],[-83.47015,8.95821],[-83.45019,8.95693],[-83.44375,8.96212],[-83.4303,8.96517],[-83.39166,8.95937],[-83.3893,8.9545],[-83.38074,8.95197],[-83.36987,8.95385],[-83.35677,8.94499],[-83.34236,8.94053],[-83.33608,8.94207],[-83.35608,8.94556],[-83.37091,8.95551],[-83.381,8.95236],[-83.38905,8.95566],[-83.39167,8.96002],[-83.41527,8.96463],[-83.42251,8.96304],[-83.42928,8.96763],[-83.45253,8.95782],[-83.4642,8.9598],[-83.48385,8.95452],[-83.49448,8.9565],[-83.51836,8.94463],[-83.52552,8.95063],[-83.54288,8.95038],[-83.55145,8.95367],[-83.56318,8.96453],[-83.57746,8.96984],[-83.57801,8.97447],[-83.58139,8.97574],[-83.60234,8.97212],[-83.60617,8.98162],[-83.59513,8.97745],[-83.59619,8.98027],[-83.591,8.97941],[-83.59104,8.98494],[-83.58664,8.9851],[-83.58692,8.98896],[-83.57941,8.98902],[-83.57918,8.99314],[-83.57426,8.99343],[-83.58027,9.00073],[-83.58881,9.00002],[-83.59039,9.00362],[-83.59741,9.00614],[-83.60623,9.02668],[-83.61009,9.02305],[-83.61166,9.0251],[-83.60845,9.0295],[-83.61006,9.03722],[-83.60748,9.03852],[-83.61994,9.04204],[-83.62752,9.05061],[-83.63893,9.05169],[-83.6546,9.06896],[-83.67749,9.08231],[-83.67678,9.09107],[-83.6807,9.09516],[-83.68744,9.09563],[-83.6867,9.10104],[-83.69404,9.1118],[-83.70496,9.1179],[-83.71621,9.13211],[-83.72284,9.13476],[-83.73019,9.14758],[-83.74799,9.15389],[-83.75692,9.15202],[-83.75871,9.16603],[-83.76724,9.18052],[-83.78174,9.1956],[-83.78874,9.1958],[-83.79476,9.20387],[-83.8041,9.20418],[-83.81062,9.21044],[-83.82165,9.21125],[-83.83012,9.21788],[-83.834,9.21708],[-83.84078,9.22282],[-83.84204,9.23375],[-83.86591,9.2539],[-83.86373,9.25771],[-83.86927,9.25503],[-83.91467,9.28981],[-83.92517,9.30582],[-83.93505,9.30947],[-83.93764,9.3088],[-83.93658,9.30559],[-83.99019,9.33179],[-83.98006,9.3293],[-83.97892,9.33176],[-83.99335,9.33782],[-84.00406,9.34648],[-84.00461,9.35059],[-84.01498,9.35051],[-84.01986,9.34596],[-84.03674,9.34942],[-84.08409,9.3696],[-84.11265,9.3745],[-84.11242,9.37759],[-84.08956,9.37265],[-84.09076,9.37585],[-84.10806,9.38355],[-84.11114,9.37979],[-84.11712,9.38154],[-84.11757,9.37407],[-84.12365,9.37299],[-84.12934,9.38658],[-84.13426,9.38538],[-84.13457,9.37727],[-84.14459,9.38143],[-84.14455,9.37679],[-84.1474,9.37638],[-84.14738,9.389],[-84.153,9.39371],[-84.16158,9.39698],[-84.17608,9.39492],[-84.17612,9.39981],[-84.16371,9.40327],[-84.16324,9.40842],[-84.16598,9.4102],[-84.16408,9.4151],[-84.16908,9.42304],[-84.16562,9.42796],[-84.16736,9.44828],[-84.17761,9.44947],[-84.17991,9.44559],[-84.17024,9.43693],[-84.17883,9.44084],[-84.1831,9.45444],[-84.20001,9.46008],[-84.20111,9.46792],[-84.20475,9.4684],[-84.22235,9.48685],[-84.2327,9.48977],[-84.23573,9.50061],[-84.24296,9.50478],[-84.2453,9.50995],[-84.24992,9.51025],[-84.25195,9.51542],[-84.27087,9.51839],[-84.27743,9.5084],[-84.28037,9.49658],[-84.29721,9.49864],[-84.31014,9.50415],[-84.3141,9.49607],[-84.32579,9.49366],[-84.32006,9.48985],[-84.31074,9.49174],[-84.30734,9.48842],[-84.30087,9.48964],[-84.26135,9.4774],[-84.24839,9.47791],[-84.24772,9.47508],[-84.25327,9.47336],[-84.2959,9.48506],[-84.32965,9.4904],[-84.32654,9.49421],[-84.33511,9.49597],[-84.33481,9.5006],[-84.34283,9.5035],[-84.34099,9.50735],[-84.34776,9.50328],[-84.35397,9.50616],[-84.35995,9.50427],[-84.36226,9.50725],[-84.36668,9.50574],[-84.3667,9.50265],[-84.33744,9.49599],[-84.33695,9.49393],[-84.34656,9.49616],[-84.34887,9.49408],[-84.39289,9.50632],[-84.39181,9.51018],[-84.40221,9.50845],[-84.40423,9.514],[-84.41382,9.51536],[-84.41015,9.52048],[-84.43065,9.51922],[-84.43248,9.51769],[-84.42447,9.51402],[-84.46122,9.52614],[-84.48376,9.52927],[-84.5355,9.51861],[-84.5504,9.53579],[-84.54481,9.53717],[-84.54658,9.54241],[-84.54895,9.54246],[-84.54543,9.54105],[-84.54624,9.53692],[-84.55512,9.53921],[-84.5948,9.56843],[-84.61806,9.58172],[-84.62526,9.59104],[-84.61988,9.599],[-84.62952,9.61322],[-84.64191,9.62207],[-84.65074,9.62213],[-84.66208,9.63328],[-84.65438,9.63992],[-84.6573,9.64947],[-84.66895,9.65226],[-84.6778,9.65026],[-84.67866,9.6576],[-84.6728,9.65899],[-84.66842,9.67376],[-84.67369,9.68152],[-84.67462,9.69686],[-84.67124,9.69748],[-84.66743,9.70466],[-84.66158,9.70604],[-84.65812,9.71799],[-84.65198,9.72284],[-84.65026,9.72876],[-84.63161,9.74099],[-84.63089,9.75052],[-84.6275,9.7523],[-84.62808,9.76183],[-84.63936,9.78251],[-84.63194,9.78594],[-84.63138,9.79109],[-84.62736,9.79119],[-84.62287,9.80069],[-84.63435,9.81133],[-84.64188,9.81292],[-84.64197,9.81705],[-84.63571,9.82164],[-84.6358,9.82679],[-84.64151,9.82799],[-84.64491,9.82428],[-84.6514,9.82432],[-84.65034,9.82766],[-84.65809,9.83364],[-84.66356,9.83059],[-84.67082,9.83321],[-84.64043,9.7972],[-84.63439,9.78737],[-84.64128,9.7864],[-84.66491,9.8239],[-84.67528,9.8332],[-84.67868,9.84203],[-84.70024,9.85982],[-84.69518,9.85965],[-84.67931,9.84448],[-84.67849,9.84975],[-84.68288,9.85416],[-84.69763,9.86108],[-84.69423,9.86544],[-84.69073,9.86401],[-84.68875,9.86759],[-84.68304,9.86768],[-84.68223,9.87296],[-84.66934,9.8767]],[[-83.34334,10.29022],[-83.34917,10.29276],[-83.3498,10.28844],[-83.36313,10.28843],[-83.34863,10.28871],[-83.34756,10.29232],[-83.34334,10.29022]],[[-85.40752,10.35994],[-85.41025,10.3629],[-85.40882,10.36896],[-85.41065,10.36161],[-85.40752,10.35994]]],[[[-83.14625,8.56261],[-83.15885,8.57052],[-83.16683,8.58697],[-83.17424,8.59285],[-83.17677,8.60443],[-83.16815,8.61349],[-83.1632,8.60772],[-83.15672,8.60686],[-83.15979,8.60092],[-83.15459,8.59682],[-83.15885,8.59319],[-83.1592,8.58701],[-83.16424,8.58543],[-83.15603,8.57518],[-83.15678,8.57131],[-83.14588,8.5657],[-83.14168,8.55529],[-83.14625,8.56261]]],[[[-83.47995,8.95197],[-83.48281,8.95427],[-83.47686,8.95559],[-83.47995,8.95197]]],[[[-83.48356,8.95014],[-83.48747,8.95346],[-83.48488,8.95412],[-83.48356,8.95014]]],[[[-83.51068,8.93888],[-83.51406,8.94015],[-83.51177,8.94622],[-83.49706,8.95417],[-83.49638,8.95018],[-83.51068,8.93888]]],[[[-83.53481,8.83197],[-83.53509,8.83505],[-83.54014,8.83451],[-83.54055,8.83785],[-83.54741,8.83755],[-83.53644,8.8438],[-83.53366,8.85322],[-83.52851,8.85699],[-83.52307,8.85651],[-83.53481,8.83197]]],[[[-83.64496,8.79206],[-83.65054,8.79485],[-83.64487,8.79876],[-83.63465,8.81737],[-83.63025,8.8174],[-83.62743,8.8218],[-83.61953,8.82108],[-83.60885,8.82991],[-83.59669,8.83167],[-83.60649,8.82594],[-83.60068,8.81001],[-83.60677,8.81087],[-83.61218,8.80723],[-83.6254,8.80894],[-83.62769,8.803],[-83.62297,8.79428],[-83.62422,8.78809],[-83.62926,8.78766],[-83.63373,8.77875],[-83.64231,8.78461],[-83.64496,8.79206]]],[[[-83.60239,8.86884],[-83.6032,8.85519],[-83.6043,8.86471],[-83.60239,8.86884]]],[[[-83.61762,8.93492],[-83.61992,8.93091],[-83.62188,8.93335],[-83.61762,8.93492]]],[[[-83.62087,8.91829],[-83.62438,8.92097],[-83.62187,8.92553],[-83.62087,8.91829]]],[[[-83.62275,8.96476],[-83.62293,8.9533],[-83.6274,8.96292],[-83.62275,8.96476]]],[[[-83.63063,9.01518],[-83.62752,8.9964],[-83.62984,8.99587],[-83.62918,8.97553],[-83.63151,8.97603],[-83.63097,9.00848],[-83.63392,9.02211],[-83.65853,9.05798],[-83.66001,9.06544],[-83.65625,9.06495],[-83.65086,9.05366],[-83.64046,9.04833],[-83.64198,9.0442],[-83.63063,9.01518]]],[[[-83.87642,8.71338],[-83.86789,8.71447],[-83.86781,8.70443],[-83.87424,8.69975],[-83.89056,8.7022],[-83.89345,8.70746],[-83.87642,8.71338]]],[[[-83.92668,9.2995],[-83.93138,9.3037],[-83.92802,9.30463],[-83.92668,9.2995]]],[[[-84.00008,9.33609],[-84.01906,9.34262],[-84.01127,9.34127],[-84.00008,9.33609]]],[[[-84.18249,9.44402],[-84.18652,9.44553],[-84.18566,9.45017],[-84.18249,9.44402]]],[[[-84.1903,9.44756],[-84.21737,9.45915],[-84.20675,9.4604],[-84.20152,9.45595],[-84.18801,9.45272],[-84.1903,9.44756]]],[[[-84.2322,9.46506],[-84.24534,9.47047],[-84.24551,9.47459],[-84.23329,9.47059],[-84.2322,9.46506]]],[[[-84.67404,9.63],[-84.66755,9.63035],[-84.66731,9.62803],[-84.6764,9.62642],[-84.67404,9.63]]],[[[-84.82803,9.82074],[-84.84191,9.82405],[-84.83372,9.82489],[-84.82594,9.82278],[-84.82803,9.82074]]],[[[-84.86027,9.81592],[-84.86414,9.81955],[-84.86049,9.82288],[-84.85009,9.82384],[-84.84855,9.82125],[-84.86027,9.81592]]],[[[-84.88819,9.83683],[-84.88999,9.83877],[-84.88011,9.84077],[-84.88279,9.84826],[-84.88031,9.85031],[-84.86783,9.85177],[-84.87646,9.8423],[-84.87336,9.83983],[-84.88819,9.83683]]],[[[-84.89151,9.76395],[-84.8954,9.76397],[-84.89924,9.77276],[-84.88653,9.771],[-84.89151,9.76395]]],[[[-84.89284,9.84021],[-84.89022,9.84431],[-84.88711,9.84339],[-84.89284,9.84021]]],[[[-84.90682,9.93085],[-84.91796,9.93491],[-84.91972,9.94522],[-84.90517,9.94423],[-84.90215,9.94962],[-84.9098,9.9525],[-84.90173,9.95413],[-84.8963,9.95036],[-84.89662,9.94083],[-84.89144,9.9377],[-84.89537,9.93271],[-84.90682,9.93085]]],[[[-84.90261,9.77381],[-84.90481,9.77601],[-84.90229,9.78385],[-84.89917,9.78473],[-84.89843,9.77752],[-84.90261,9.77381]]],[[[-84.92218,9.88354],[-84.92774,9.88873],[-84.92189,9.88934],[-84.92218,9.88354]]],[[[-84.96316,9.97963],[-84.98704,9.98376],[-85.00024,9.99196],[-85.01349,9.99307],[-85.01139,9.99602],[-84.99738,9.99336],[-84.99087,9.99525],[-84.98856,9.9906],[-84.96364,9.98491],[-84.95999,9.98656],[-84.96316,9.97963]]],[[[-85.02127,9.99556],[-85.04074,10.00019],[-85.0485,10.00577],[-85.01891,9.9998],[-85.02127,9.99556]]],[[[-85.0445,9.98024],[-85.07255,9.98221],[-85.07589,9.98905],[-85.06806,9.99416],[-85.05327,9.99124],[-85.04176,9.98138],[-85.0445,9.98024]]],[[[-85.07398,10.13667],[-85.075,10.13951],[-85.06328,10.14253],[-85.06252,10.13866],[-85.07398,10.13667]]],[[[-85.10744,10.10491],[-85.11678,10.10922],[-85.12888,10.10787],[-85.14879,10.12],[-85.15963,10.11758],[-85.16085,10.10857],[-85.153,10.0959],[-85.14625,10.09354],[-85.14207,10.09635],[-85.12661,10.09601],[-85.12651,10.08982],[-85.11221,10.09103],[-85.10203,10.09767],[-85.09971,10.09353],[-85.0936,10.09401],[-85.10107,10.08414],[-85.10836,10.08135],[-85.13883,10.07327],[-85.15962,10.07442],[-85.18219,10.08344],[-85.18998,10.10795],[-85.19814,10.11393],[-85.19342,10.12034],[-85.19032,10.11607],[-85.1817,10.1244],[-85.16296,10.12623],[-85.10483,10.10748],[-85.10744,10.10491]]],[[[-85.15753,10.03061],[-85.16502,10.03864],[-85.17698,10.03858],[-85.1694,10.04588],[-85.15222,10.04926],[-85.1498,10.04023],[-85.15753,10.03061]]],[[[-85.16792,10.16876],[-85.16282,10.1735],[-85.16297,10.17093],[-85.16792,10.16876]]],[[[-85.34373,10.31889],[-85.34841,10.31956],[-85.34058,10.32325],[-85.34373,10.31889]]],[[[-85.68848,10.63989],[-85.69081,10.64274],[-85.68898,10.64453],[-85.68611,10.64375],[-85.68848,10.63989]]],[[[-85.70759,11.04481],[-85.71147,11.04972],[-85.70704,11.04919],[-85.70759,11.04481]]],[[[-85.80333,10.44514],[-85.80514,10.4494],[-85.80045,10.44938],[-85.80333,10.44514]]],[[[-85.86774,10.84096],[-85.87244,10.84111],[-85.86955,10.84522],[-85.85625,10.84672],[-85.86774,10.84096]]],[[[-85.89501,10.86941],[-85.89786,10.87393],[-85.88756,10.87544],[-85.88744,10.8726],[-85.89501,10.86941]]],[[[-85.90758,10.85476],[-85.906,10.85978],[-85.90367,10.85514],[-85.90758,10.85476]]],[[[-85.91385,10.85221],[-85.91644,10.85647],[-85.92401,10.85327],[-85.92296,10.85701],[-85.91225,10.86187],[-85.90915,10.85309],[-85.91385,10.85221]]],[[[-87.06236,5.54962],[-87.05027,5.55143],[-87.05104,5.55607],[-87.04795,5.5571],[-87.0459,5.54988],[-87.04178,5.54756],[-87.03715,5.55143],[-87.03303,5.54937],[-87.02775,5.53235],[-87.03045,5.52694],[-87.03869,5.525],[-87.04589,5.51778],[-87.05155,5.5183],[-87.0639,5.51056],[-87.06738,5.51172],[-87.07419,5.49922],[-87.09465,5.51842],[-87.08269,5.53957],[-87.05722,5.54344],[-87.06236,5.54962]]]]}}]}