{"type":"FeatureCollection","features":[{"type":"Feature","properties":{"ISO_A3":"CYP","WB_A3":"CYP","WB_NAME":"Cyprus","WB_REGION":"ECS"},"geometry":{"type":"MultiPolygon","coordinates":[[[[33.99944,35.06826],[33.982,35.06755],[33.96572,35.07515],[33.95266,35.07478],[33.93164,35.06748],[33.90819,35.07087],[33.90225,35.07713],[33.91113,35.0807],[33.91655,35.08677],[33.90585,35.09805],[33.90185,35.09582],[33.89962,35.09815],[33.89366,35.11427],[33.88599,35.11596],[33.88394,35.12361],[33.8724,35.12373],[33.86679,35.10112],[33.87349,35.08244],[33.86232,35.07213],[33.84087,35.06226],[33.81947,35.07283],[33.79593,35.05836],[33.79126,35.04923],[33.78145,35.04607],[33.77349,35.04863],[33.7643,35.03939],[33.73778,35.05621],[33.71229,35.04105],[33.71198,35.03795],[33.70529,35.03864],[33.70794,35.0453],[33.70314,35.04715],[33.70912,35.048],[33.71663,35.07012],[33.70545,35.07558],[33.69266,35.06559],[33.67711,35.0625],[33.6737,35.04819],[33.67915,35.03967],[33.6615,35.03869],[33.65479,35.04121],[33.64106,35.03854],[33.62955,35.04122],[33.62193,35.04995],[33.60839,35.05195],[33.59472,35.03975],[33.58625,35.03851],[33.57319,35.0493],[33.56681,35.04873],[33.56503,35.05188],[33.57005,35.05843],[33.56886,35.06345],[33.56161,35.06714],[33.55725,35.07398],[33.54242,35.07492],[33.53591,35.08261],[33.51136,35.07039],[33.49624,35.07064],[33.48485,35.06237],[33.48428,35.0431],[33.47702,35.01177],[33.47402,35.00718],[33.45665,35.00286],[33.44914,35.00565],[33.45285,35.02012],[33.45011,35.02263],[33.46428,35.03074],[33.47689,35.04814],[33.47981,35.06289],[33.47401,35.08712],[33.46859,35.10122],[33.45616,35.11302],[33.45062,35.12471],[33.42867,35.14597],[33.42763,35.15339],[33.41997,35.16085],[33.41043,35.16308],[33.41838,35.17425],[33.40609,35.18577],[33.4047,35.20051],[33.38641,35.20257],[33.37368,35.19161],[33.37182,35.17962],[33.36765,35.17639],[33.37235,35.17755],[33.37446,35.18936],[33.38608,35.19511],[33.39918,35.18672],[33.40307,35.18286],[33.39963,35.17425],[33.40123,35.16119],[33.409,35.15569],[33.41517,35.15696],[33.42135,35.15078],[33.41691,35.14196],[33.41812,35.13776],[33.42897,35.12749],[33.44166,35.12252],[33.44579,35.11483],[33.45452,35.10884],[33.45434,35.10385],[33.44457,35.09569],[33.44507,35.08803],[33.46481,35.05027],[33.44277,35.03386],[33.43958,35.02235],[33.44199,35.00877],[33.42894,35.0065],[33.43051,34.99961],[33.44257,34.98786],[33.45236,34.99137],[33.45274,34.99998],[33.46259,35.00313],[33.47558,35.00029],[33.4924,35.00579],[33.49551,35.01017],[33.48773,35.03586],[33.49035,35.04838],[33.49363,35.04941],[33.49973,35.04562],[33.50611,35.04635],[33.50647,35.0253],[33.52088,35.01581],[33.54786,35.01436],[33.5556,35.0195],[33.56856,35.02233],[33.57004,35.02542],[33.56614,35.03327],[33.57515,35.03931],[33.58161,35.0345],[33.58491,35.02093],[33.58977,35.01804],[33.60969,35.02395],[33.63286,35.02131],[33.64569,35.01647],[33.65643,35.00644],[33.67253,35.00843],[33.6861,35.00108],[33.69367,34.99984],[33.69524,35.00289],[33.70242,34.99873],[33.70128,34.97847],[33.68115,34.97335],[33.66454,34.96509],[33.65054,34.95206],[33.64342,34.93951],[33.63544,34.87633],[33.63926,34.86552],[33.60784,34.8333],[33.60319,34.81584],[33.58328,34.82044],[33.55086,34.81892],[33.54258,34.81536],[33.52424,34.79796],[33.50112,34.78765],[33.49545,34.77714],[33.47115,34.77595],[33.42842,34.76377],[33.41527,34.75096],[33.39377,34.74718],[33.36972,34.73081],[33.34668,34.73088],[33.32422,34.7186],[33.28814,34.72409],[33.27363,34.71603],[33.27174,34.70858],[33.26193,34.70564],[33.19471,34.70603],[33.15146,34.71277],[33.11815,34.70574],[33.09231,34.6942],[33.06212,34.68548],[33.04188,34.66968],[33.03317,34.66814],[33.02446,34.66159],[33.02104,34.65542],[33.01653,34.65465],[33.01606,34.64771],[33.00735,34.6481],[33.00673,34.64488],[33.01404,34.64349],[32.9788,34.64151],[32.96908,34.63909],[32.96317,34.6323],[32.95411,34.63713],[32.95269,34.65102],[32.96371,34.65851],[32.96914,34.65456],[32.99008,34.65559],[32.98738,34.67051],[32.98961,34.67999],[32.95551,34.68401],[32.94031,34.67337],[32.93362,34.66438],[32.92798,34.66822],[32.93077,34.67061],[32.91547,34.67391],[32.90953,34.66372],[32.90617,34.66337],[32.88922,34.66813],[32.8621,34.68697],[32.85819,34.70485],[32.82585,34.70576],[32.81876,34.69621],[32.80374,34.69257],[32.79246,34.67677],[32.78616,34.67939],[32.77329,34.67855],[32.76664,34.68288],[32.75987,34.68151],[32.75499,34.65103],[32.74503,34.64642],[32.72247,34.64958],[32.71782,34.64739],[32.71659,34.6416],[32.70291,34.64015],[32.68298,34.65013],[32.66026,34.65328],[32.6319,34.66502],[32.61136,34.66791],[32.59294,34.68199],[32.57237,34.68795],[32.5549,34.69792],[32.54744,34.69673],[32.54244,34.70005],[32.53156,34.69757],[32.51065,34.70815],[32.49387,34.70372],[32.48698,34.71024],[32.47764,34.71187],[32.47198,34.71994],[32.45042,34.73347],[32.43391,34.73507],[32.43326,34.73905],[32.42576,34.74287],[32.41602,34.75554],[32.4014,34.75367],[32.40645,34.76577],[32.4007,34.78579],[32.39334,34.79],[32.39332,34.81454],[32.39186,34.82199],[32.38875,34.82184],[32.39068,34.83406],[32.38814,34.84047],[32.38014,34.84801],[32.37234,34.849],[32.36105,34.85755],[32.34952,34.8562],[32.33782,34.87696],[32.33346,34.87693],[32.33184,34.88425],[32.31627,34.89945],[32.3164,34.90305],[32.32524,34.90953],[32.3251,34.92597],[32.32055,34.92929],[32.31339,34.94621],[32.30228,34.94987],[32.3022,34.95874],[32.3097,34.9575],[32.31341,34.96214],[32.30895,34.97266],[32.31372,34.98168],[32.3122,34.99478],[32.30867,35.00581],[32.30493,35.00527],[32.29545,35.01858],[32.2889,35.01674],[32.29058,35.02112],[32.27592,35.03658],[32.27538,35.04467],[32.27177,35.04671],[32.27341,35.05494],[32.26905,35.07085],[32.27366,35.07987],[32.27326,35.08989],[32.27849,35.09905],[32.28751,35.10527],[32.30295,35.09174],[32.3011,35.08851],[32.30521,35.08288],[32.31525,35.07857],[32.32282,35.0709],[32.33441,35.06711],[32.3379,35.06097],[32.34573,35.05972],[32.35644,35.04873],[32.37774,35.04177],[32.40307,35.03959],[32.43052,35.04563],[32.45731,35.05899],[32.48747,35.08328],[32.50886,35.11343],[32.52401,35.14446],[32.53743,35.14978],[32.552,35.17553],[32.55575,35.17581],[32.55891,35.17055],[32.57143,35.16931],[32.5909,35.17747],[32.60216,35.16749],[32.61218,35.16588],[32.61689,35.16764],[32.63441,35.18857],[32.65301,35.1954],[32.66429,35.1917],[32.67055,35.19313],[32.67307,35.188],[32.69693,35.18331],[32.69227,35.16803],[32.69693,35.15399],[32.69474,35.14681],[32.69811,35.142],[32.69534,35.13363],[32.68825,35.12974],[32.6902,35.12772],[32.70618,35.12415],[32.72777,35.12759],[32.75025,35.1172],[32.78535,35.11725],[32.79044,35.11004],[32.79078,35.09986],[32.79881,35.09616],[32.80617,35.08513],[32.8204,35.07885],[32.83474,35.08079],[32.8458,35.07748],[32.86346,35.08154],[32.87311,35.07944],[32.87012,35.09047],[32.87178,35.09818],[32.88859,35.10228],[32.89866,35.09845],[32.91013,35.08466],[32.92205,35.0821],[32.9366,35.08512],[32.96268,35.09785],[32.97407,35.11263],[32.99781,35.11927],[33.00126,35.12461],[33.03536,35.14671],[33.06289,35.14288],[33.07517,35.13389],[33.09763,35.13853],[33.12306,35.13773],[33.13163,35.14337],[33.13323,35.14965],[33.15036,35.15831],[33.15767,35.16985],[33.16371,35.1718],[33.16508,35.1773],[33.17046,35.17927],[33.18588,35.17983],[33.18966,35.17467],[33.19832,35.17328],[33.20237,35.16878],[33.21068,35.16957],[33.21185,35.1746],[33.22814,35.16478],[33.23315,35.16543],[33.23946,35.15378],[33.25385,35.15132],[33.26321,35.13666],[33.27742,35.13836],[33.29016,35.13089],[33.29218,35.1408],[33.29711,35.14659],[33.29504,35.15058],[33.30187,35.15854],[33.31316,35.1647],[33.31585,35.17145],[33.3208,35.17199],[33.321,35.18051],[33.34756,35.18094],[33.34961,35.17652],[33.35575,35.17761],[33.35605,35.17423],[33.35667,35.17784],[33.34863,35.17949],[33.3501,35.18328],[33.31967,35.18201],[33.32033,35.17271],[33.3139,35.17468],[33.30513,35.1681],[33.28858,35.1653],[33.26794,35.17432],[33.2642,35.17014],[33.25298,35.1713],[33.24092,35.17985],[33.20773,35.19233],[33.15856,35.19843],[33.14587,35.19349],[33.14168,35.18559],[33.12476,35.17393],[33.11976,35.16341],[33.11519,35.16355],[33.10775,35.1567],[33.10403,35.15745],[33.09909,35.16808],[33.09397,35.17164],[33.06777,35.17328],[33.03999,35.16564],[33.01603,35.15537],[33.01083,35.14817],[32.99518,35.13964],[32.98114,35.12198],[32.96599,35.11574],[32.95567,35.10372],[32.92996,35.10116],[32.91919,35.09688],[32.89668,35.10742],[32.88441,35.10826],[32.86162,35.10175],[32.86116,35.08391],[32.85377,35.08113],[32.83687,35.08167],[32.82128,35.09713],[32.80989,35.10211],[32.79786,35.11303],[32.79375,35.12172],[32.7728,35.12967],[32.75646,35.12956],[32.74861,35.14054],[32.7212,35.14297],[32.71407,35.14966],[32.70925,35.15022],[32.70587,35.15568],[32.71007,35.18324],[32.72883,35.1785],[32.73884,35.18019],[32.74261,35.17403],[32.78271,35.16203],[32.79462,35.1519],[32.81529,35.14693],[32.82469,35.1409],[32.85471,35.14929],[32.86596,35.15843],[32.88191,35.1623],[32.89723,35.17426],[32.91035,35.19458],[32.92191,35.22054],[32.93861,35.28582],[32.93954,35.30715],[32.93482,35.32129],[32.93512,35.34184],[32.93308,35.3484],[32.92413,35.3534],[32.92049,35.38835],[32.92316,35.39143],[32.92016,35.40377],[32.94685,35.39093],[32.96788,35.38683],[32.99204,35.36872],[33.02404,35.36563],[33.03095,35.36794],[33.04882,35.35843],[33.06576,35.35508],[33.09838,35.35416],[33.10435,35.35672],[33.11283,35.36828],[33.11879,35.36352],[33.13008,35.36364],[33.15234,35.35487],[33.17115,35.35138],[33.18307,35.35033],[33.19406,35.35751],[33.20442,35.35775],[33.21633,35.35657],[33.22385,35.35078],[33.24202,35.34483],[33.25551,35.34622],[33.25584,35.35007],[33.27589,35.34476],[33.28877,35.3482],[33.30192,35.342],[33.33202,35.34192],[33.33452,35.33806],[33.34642,35.3352],[33.37464,35.33434],[33.37748,35.33832],[33.38311,35.33457],[33.40694,35.33308],[33.40946,35.33577],[33.41916,35.33175],[33.43516,35.33337],[33.43737,35.33632],[33.44552,35.3341],[33.45996,35.33713],[33.48,35.3323],[33.49256,35.33456],[33.49698,35.33878],[33.51517,35.33909],[33.53152,35.34583],[33.56759,35.34657],[33.60092,35.35681],[33.6191,35.35505],[33.63669,35.3592],[33.64766,35.35722],[33.65901,35.36409],[33.66339,35.36253],[33.67533,35.36593],[33.69991,35.37787],[33.70909,35.38758],[33.71821,35.38907],[33.72485,35.39545],[33.73113,35.39567],[33.75291,35.4089],[33.7639,35.40947],[33.77116,35.41418],[33.78747,35.41189],[33.80256,35.41462],[33.82073,35.41154],[33.85182,35.413],[33.88079,35.42063],[33.88902,35.42699],[33.89999,35.42562],[33.91227,35.42836],[33.91858,35.43101],[33.92019,35.43524],[33.93683,35.43511],[33.94033,35.43868],[33.94724,35.43914],[33.9517,35.44463],[33.96361,35.44274],[33.97747,35.44584],[33.98825,35.455],[34.0065,35.45729],[34.02771,35.47022],[34.03397,35.46875],[34.03526,35.47156],[34.04818,35.47428],[34.05454,35.48039],[34.07413,35.48896],[34.07544,35.49306],[34.12145,35.50279],[34.12906,35.50798],[34.14127,35.5265],[34.15123,35.53116],[34.15498,35.54037],[34.16697,35.54334],[34.17144,35.54792],[34.17255,35.55922],[34.17636,35.56201],[34.18579,35.5614],[34.19075,35.55698],[34.20617,35.55734],[34.20907,35.56194],[34.21275,35.55625],[34.21778,35.5562],[34.21766,35.55851],[34.23005,35.55672],[34.24303,35.56185],[34.24657,35.56759],[34.24908,35.56693],[34.24946,35.57103],[34.25887,35.56952],[34.26619,35.57484],[34.27246,35.57388],[34.27313,35.57644],[34.29106,35.57625],[34.30538,35.58689],[34.31263,35.58758],[34.32281,35.59441],[34.32448,35.60081],[34.3374,35.60195],[34.34671,35.61264],[34.3478,35.62162],[34.35602,35.62358],[34.35637,35.62615],[34.36927,35.62575],[34.37315,35.63174],[34.38423,35.63573],[34.40688,35.63482],[34.41424,35.64193],[34.42023,35.64212],[34.42156,35.64634],[34.42755,35.64691],[34.42824,35.65024],[34.43999,35.65563],[34.45526,35.65609],[34.4563,35.65248],[34.4626,35.65253],[34.4813,35.65975],[34.48947,35.65849],[34.50493,35.66909],[34.503,35.67503],[34.51122,35.67698],[34.50992,35.67443],[34.51425,35.67039],[34.52481,35.67141],[34.53138,35.67737],[34.53831,35.67741],[34.54449,35.68761],[34.58149,35.69496],[34.58745,35.69386],[34.57697,35.68179],[34.57821,35.67278],[34.57247,35.669],[34.57456,35.6551],[34.57092,35.65399],[34.57033,35.64796],[34.56301,35.6442],[34.5628,35.64112],[34.53728,35.63978],[34.52901,35.63539],[34.51228,35.63303],[34.49799,35.62601],[34.49587,35.62193],[34.46668,35.61753],[34.42502,35.59285],[34.42287,35.5871],[34.42519,35.5845],[34.41518,35.57897],[34.40929,35.55681],[34.40015,35.55563],[34.37881,35.53995],[34.35798,35.53504],[34.35506,35.52981],[34.34844,35.52847],[34.32619,35.51343],[34.30035,35.4893],[34.28417,35.47984],[34.24631,35.46944],[34.22005,35.45635],[34.18344,35.44425],[34.14419,35.4224],[34.08227,35.36965],[34.07576,35.35147],[34.07513,35.33991],[34.06352,35.32729],[34.01484,35.3209],[34.00857,35.32082],[33.99799,35.32733],[33.98477,35.32359],[33.97538,35.32495],[33.95583,35.31573],[33.94159,35.30376],[33.92846,35.27945],[33.92184,35.27642],[33.91543,35.26387],[33.90482,35.25316],[33.90044,35.19717],[33.91334,35.16148],[33.92082,35.15847],[33.9368,35.13317],[33.94702,35.12435],[33.9584,35.12118],[33.96199,35.10676],[33.98619,35.07804],[33.99362,35.07194],[33.99831,35.07228],[33.99944,35.06826]],[[33.35607,35.17402],[33.36568,35.17461],[33.36722,35.176],[33.35607,35.17402]]],[[[33.89924,35.07433],[33.90368,35.06647],[33.91285,35.06426],[33.9627,35.07258],[33.98201,35.05806],[33.99134,35.05892],[34.00424,35.06541],[34.0156,35.05518],[34.02834,35.04916],[34.05161,35.02429],[34.05479,35.01604],[34.06488,35.01133],[34.06155,35.0075],[34.06399,35.0026],[34.07876,34.98628],[34.06983,34.98353],[34.07301,34.97631],[34.07691,34.97576],[34.07665,34.96779],[34.08284,34.96388],[34.08537,34.96617],[34.08764,34.96127],[34.08586,34.9564],[34.07932,34.95749],[34.08077,34.96082],[34.07785,34.96393],[34.07034,34.96258],[34.06748,34.95901],[34.04983,34.97034],[34.03176,34.97307],[34.01503,34.98336],[34.00535,34.9837],[34.00188,34.9809],[33.97137,34.98821],[33.95887,34.98715],[33.95727,34.9837],[33.94786,34.98017],[33.90625,34.97317],[33.90154,34.97025],[33.90156,34.96473],[33.86002,34.97377],[33.84026,34.97178],[33.83459,34.97461],[33.84613,34.98509],[33.85488,34.98458],[33.85364,35.00242],[33.83648,35.00324],[33.82748,35.00861],[33.82669,35.03161],[33.82079,35.03799],[33.79193,35.0485],[33.79656,35.05748],[33.81933,35.07109],[33.82944,35.06854],[33.83986,35.06118],[33.84786,35.06297],[33.87422,35.08129],[33.89317,35.06792],[33.89924,35.07433]]],[[[33.7753,34.99551],[33.78513,34.99572],[33.79069,34.98986],[33.7785,34.98792],[33.76723,34.99197],[33.76,35.00092],[33.7753,34.99551]]],[[[33.74451,35.0121],[33.73444,35.01208],[33.73826,35.02194],[33.74983,35.02246],[33.7493,35.01323],[33.74451,35.0121]]],[[[33.74616,34.97837],[33.74254,34.98072],[33.74905,34.98199],[33.74616,34.97837]]],[[[33.74699,34.98465],[33.74879,34.98238],[33.74051,34.98349],[33.74366,34.98751],[33.74699,34.98465]]],[[[32.62797,35.18935],[32.61639,35.17385],[32.60484,35.17194],[32.59837,35.1768],[32.61176,35.18011],[32.62109,35.19119],[32.62641,35.19249],[32.62797,35.18935]]]]}},{"type":"Feature","properties":{"ISO_A3":"","WB_A3":"","WB_NAME":"UN Buffer Zone","WB_REGION":"","STATUS":"non-determined","AREA_ID":"un-buffer-zone","CLAIMANTS":"CYP"},"geometry":{"type":"MultiPolygon","coordinates":[[[[33.99944,35.06826],[34.00424,35.06541],[33.99134,35.05892],[33.98201,35.05806],[33.9627,35.07258],[33.91285,35.06426],[33.90368,35.06647],[33.89924,35.07433],[33.90225,35.07713],[33.90819,35.07087],[33.92522,35.06745],[33.95266,35.07478],[33.96572,35.07515],[33.982,35.06755],[33.99944,35.06826]]],[[[33.35605,35.17423],[33.35575,35.17761],[33.34961,35.17652],[33.34756,35.18094],[33.321,35.18051],[33.3208,35.17199],[33.31585,35.17145],[33.31316,35.1647],[33.30187,35.15854],[33.29504,35.15058],[33.29711,35.14659],[33.29218,35.1408],[33.29016,35.13089],[33.27742,35.13836],[33.26321,35.13666],[33.25385,35.15132],[33.23946,35.15378],[33.23315,35.16543],[33.22814,35.16478],[33.21185,35.1746],[33.21068,35.16957],[33.20237,35.16878],[33.19832,35.17328],[33.18966,35.17467],[33.18588,35.17983],[33.17046,35.17927],[33.16508,35.1773],[33.16371,35.1718],[33.15767,35.16985],[33.15036,35.15831],[33.13323,35.14965],[33.13163,35.14337],[33.12306,35.13773],[33.09763,35.13853],[33.07517,35.13389],[33.06289,35.14288],[33.03536,35.14671],[33.00126,35.12461],[32.99781,35.11927],[32.97407,35.11263],[32.96268,35.09785],[32.9366,35.08512],[32.92205,35.0821],[32.91013,35.08466],[32.89866,35.09845],[32.88859,35.10228],[32.87178,35.09818],[32.87012,35.09047],[32.87311,35.07944],[32.86346,35.08154],[32.8458,35.07748],[32.83474,35.08079],[32.8204,35.07885],[32.80617,35.08513],[32.79881,35.09616],[32.79078,35.09986],[32.79044,35.11004],[32.78535,35.11725],[32.75025,35.1172],[32.72777,35.12759],[32.70618,35.12415],[32.68825,35.12974],[32.69534,35.13363],[32.69811,35.142],[32.69474,35.14681],[32.69693,35.15399],[32.69227,35.16803],[32.69693,35.18331],[32.70921,35.18359],[32.70587,35.15568],[32.71582,35.14546],[32.73477,35.14043],[32.74861,35.14054],[32.75646,35.12956],[32.7728,35.12967],[32.79375,35.12172],[32.79786,35.11303],[32.80989,35.10211],[32.82128,35.09713],[32.83687,35.08167],[32.85377,35.08113],[32.86116,35.08391],[32.86314,35.08836],[32.86162,35.10175],[32.88441,35.10826],[32.89668,35.10742],[32.91919,35.09688],[32.92996,35.10116],[32.95567,35.10372],[32.96599,35.11574],[32.98114,35.12198],[33.00173,35.14479],[33.03319,35.16363],[33.06777,35.17328],[33.09397,35.17164],[33.09909,35.16808],[33.10403,35.15745],[33.10775,35.1567],[33.11519,35.16355],[33.11976,35.16341],[33.12476,35.17393],[33.14168,35.18559],[33.14587,35.19349],[33.15856,35.19843],[33.20773,35.19233],[33.24092,35.17985],[33.25298,35.1713],[33.2642,35.17014],[33.26794,35.17432],[33.28858,35.1653],[33.30513,35.1681],[33.3139,35.17468],[33.32033,35.17271],[33.31967,35.18201],[33.3501,35.18328],[33.34863,35.17949],[33.35667,35.17784],[33.35605,35.17423]]],[[[33.35607,35.17402],[33.36722,35.176],[33.36568,35.17461],[33.35607,35.17402]]],[[[33.36765,35.17639],[33.37182,35.17962],[33.37368,35.19161],[33.38641,35.20257],[33.4047,35.20051],[33.40609,35.18577],[33.41838,35.17425],[33.41043,35.16308],[33.41997,35.16085],[33.42763,35.15339],[33.42867,35.14597],[33.45062,35.12471],[33.45616,35.11302],[33.46859,35.10122],[33.47981,35.06289],[33.47689,35.04814],[33.46428,35.03074],[33.45011,35.02263],[33.45285,35.02012],[33.44914,35.00565],[33.45665,35.00286],[33.47402,35.00718],[33.48428,35.0431],[33.48485,35.06237],[33.49036,35.0678],[33.50307,35.07158],[33.51136,35.07039],[33.53591,35.08261],[33.54242,35.07492],[33.55725,35.07398],[33.56161,35.06714],[33.56886,35.06345],[33.57005,35.05843],[33.56503,35.05188],[33.56681,35.04873],[33.57319,35.0493],[33.58625,35.03851],[33.59472,35.03975],[33.60839,35.05195],[33.61476,35.0519],[33.62193,35.04995],[33.62955,35.04122],[33.64106,35.03854],[33.65479,35.04121],[33.67095,35.03852],[33.67915,35.03967],[33.67785,35.04181],[33.69987,35.03274],[33.70422,35.02985],[33.70403,35.02615],[33.69698,35.02062],[33.69811,35.01401],[33.7117,35.00852],[33.71349,35.00355],[33.71017,34.99644],[33.69524,35.00289],[33.69367,34.99984],[33.6861,35.00108],[33.67253,35.00843],[33.65643,35.00644],[33.64569,35.01647],[33.63286,35.02131],[33.60969,35.02395],[33.58977,35.01804],[33.58491,35.02093],[33.58161,35.0345],[33.57515,35.03931],[33.56614,35.03327],[33.57004,35.02542],[33.56856,35.02233],[33.5556,35.0195],[33.54786,35.01436],[33.52088,35.01581],[33.50647,35.0253],[33.50611,35.04635],[33.49973,35.04562],[33.49363,35.04941],[33.49035,35.04838],[33.48773,35.03586],[33.49551,35.01017],[33.4924,35.00579],[33.47558,35.00029],[33.46259,35.00313],[33.45274,34.99998],[33.45236,34.99137],[33.44257,34.98786],[33.43051,34.99961],[33.42894,35.0065],[33.44199,35.00877],[33.43958,35.02235],[33.44277,35.03386],[33.46481,35.05027],[33.44507,35.08803],[33.44457,35.09569],[33.45434,35.10385],[33.45452,35.10884],[33.44579,35.11483],[33.44166,35.12252],[33.42897,35.12749],[33.41812,35.13776],[33.41691,35.14196],[33.42135,35.15078],[33.41517,35.15696],[33.409,35.15569],[33.40123,35.16119],[33.39963,35.17425],[33.40307,35.18286],[33.39918,35.18672],[33.38608,35.19511],[33.37446,35.18936],[33.37235,35.17755],[33.36765,35.17639]]],[[[32.63119,35.1888],[32.63441,35.18857],[32.61689,35.16764],[32.61218,35.16588],[32.60216,35.16749],[32.5909,35.17747],[32.59847,35.17872],[32.60484,35.17194],[32.61639,35.17385],[32.62797,35.18935],[32.63119,35.1888]]]]}}]}