{"type":"FeatureCollection","features":[{"type":"Feature","properties":{"ISO_A3":"CZE","WB_A3":"CZE","WB_NAME":"Czech Republic","WB_REGION":"ECS"},"geometry":{"type":"MultiPolygon","coordinates":[[[[18.63216,49.7186],[18.65355,49.70846],[18.65854,49.71083],[18.6672,49.70921],[18.66824,49.70344],[18.69365,49.7066],[18.70652,49.70445],[18.71149,49.6997],[18.70931,49.69677],[18.71523,49.69537],[18.71918,49.68381],[18.73548,49.68241],[18.74153,49.67642],[18.75115,49.67689],[18.76416,49.68462],[18.76677,49.68226],[18.78063,49.68537],[18.79495,49.67913],[18.80458,49.67888],[18.80852,49.6753],[18.81009,49.67105],[18.80663,49.66525],[18.80929,49.65753],[18.80634,49.65129],[18.82052,49.62324],[18.8193,49.61765],[18.82426,49.61447],[18.82321,49.60402],[18.82929,49.59494],[18.83908,49.59532],[18.8318,49.58467],[18.83718,49.56322],[18.85925,49.55057],[18.85745,49.53793],[18.8441,49.53409],[18.84467,49.5282],[18.83728,49.52375],[18.84302,49.51853],[18.85092,49.51714],[18.80758,49.51508],[18.79975,49.50933],[18.77917,49.505],[18.75422,49.48844],[18.7355,49.49022],[18.72039,49.50011],[18.71019,49.5025],[18.68792,49.50072],[18.68486,49.50492],[18.67644,49.50764],[18.66439,49.50233],[18.64233,49.50078],[18.63953,49.49622],[18.63153,49.49872],[18.61553,49.49525],[18.60281,49.49708],[18.60192,49.50686],[18.59725,49.51025],[18.55292,49.50311],[18.54575,49.5005],[18.54164,49.49269],[18.53547,49.49089],[18.53425,49.48489],[18.54794,49.46786],[18.53525,49.46353],[18.53272,49.45811],[18.52481,49.45647],[18.52297,49.44922],[18.50531,49.44289],[18.50092,49.43581],[18.49206,49.43478],[18.49014,49.43217],[18.49469,49.42978],[18.48194,49.42392],[18.47644,49.41669],[18.47542,49.40842],[18.45669,49.40317],[18.44939,49.39744],[18.44994,49.3935],[18.42894,49.39369],[18.41297,49.39889],[18.40367,49.39669],[18.40892,49.38989],[18.41531,49.367],[18.40842,49.36036],[18.39817,49.35681],[18.40425,49.35022],[18.39533,49.34872],[18.38803,49.34319],[18.37892,49.33056],[18.36606,49.32461],[18.32667,49.31819],[18.30108,49.31003],[18.30314,49.30592],[18.29697,49.30439],[18.27225,49.30214],[18.24684,49.29469],[18.20425,49.29347],[18.18403,49.287],[18.18594,49.28092],[18.18272,49.26875],[18.16256,49.26064],[18.16128,49.25508],[18.14719,49.24842],[18.14775,49.23544],[18.14461,49.22925],[18.15631,49.22947],[18.15267,49.21961],[18.15483,49.21619],[18.14811,49.21483],[18.14939,49.20508],[18.13089,49.18892],[18.12992,49.16844],[18.13672,49.16103],[18.11878,49.15275],[18.11814,49.1443],[18.10675,49.13419],[18.12117,49.11875],[18.11378,49.1185],[18.11028,49.11356],[18.11594,49.09214],[18.09689,49.06742],[18.09386,49.06928],[18.09119,49.06667],[18.09058,49.06272],[18.09539,49.0593],[18.08244,49.05128],[18.08206,49.04619],[18.071,49.03811],[18.03725,49.02636],[18.02972,49.02683],[18.02447,49.02122],[18.00731,49.02133],[17.99092,49.0285],[17.97458,49.02256],[17.95128,49.02503],[17.92425,49.01983],[17.91389,49.01092],[17.91208,49.00581],[17.91447,48.99642],[17.90411,48.98458],[17.89967,48.96919],[17.90303,48.96417],[17.88892,48.94408],[17.88531,48.92767],[17.86889,48.92258],[17.84703,48.92761],[17.78131,48.92528],[17.78267,48.91669],[17.76206,48.90703],[17.75033,48.89875],[17.73669,48.88083],[17.71875,48.87331],[17.70425,48.86136],[17.68247,48.86078],[17.6685,48.85422],[17.63297,48.85489],[17.62053,48.84672],[17.62094,48.84203],[17.60178,48.84086],[17.59572,48.82911],[17.58889,48.82519],[17.57114,48.82372],[17.55458,48.83156],[17.54825,48.82744],[17.55533,48.82269],[17.55303,48.81975],[17.54589,48.81631],[17.53939,48.81886],[17.52853,48.81217],[17.51994,48.81278],[17.51578,48.81814],[17.51703,48.8255],[17.51222,48.81969],[17.50808,48.82031],[17.477,48.84156],[17.45319,48.84675],[17.44261,48.83814],[17.43594,48.84061],[17.42703,48.82631],[17.41847,48.82931],[17.40269,48.82044],[17.39788,48.8138],[17.37847,48.81919],[17.36389,48.81356],[17.34703,48.82633],[17.32856,48.8335],[17.31786,48.84564],[17.30606,48.84364],[17.27211,48.86175],[17.2535,48.86219],[17.24206,48.86836],[17.21678,48.87108],[17.202,48.87814],[17.19228,48.87469],[17.15314,48.84436],[17.11492,48.83325],[17.10819,48.82875],[17.10519,48.82375],[17.10594,48.80783],[17.09324,48.79868],[17.08867,48.78553],[17.07203,48.78044],[17.06039,48.77153],[17.04328,48.76425],[17.04006,48.7535],[17.03028,48.74753],[17.02533,48.73808],[17.01575,48.73031],[17.01078,48.71661],[16.99778,48.70883],[16.99733,48.69175],[16.98161,48.68364],[16.97641,48.6749],[16.96914,48.67006],[16.96697,48.65497],[16.96942,48.64853],[16.95731,48.62494],[16.94019,48.61654],[16.9187,48.62266],[16.92834,48.63816],[16.92056,48.64532],[16.91925,48.65122],[16.92333,48.66941],[16.91047,48.67566],[16.91824,48.69417],[16.91074,48.70707],[16.90408,48.70988],[16.90232,48.71268],[16.90606,48.71409],[16.90234,48.71778],[16.8854,48.71667],[16.87917,48.72301],[16.86941,48.71249],[16.84089,48.71172],[16.83427,48.71651],[16.82726,48.71109],[16.80602,48.71217],[16.80607,48.70907],[16.79978,48.7063],[16.79964,48.70936],[16.7898,48.71384],[16.77578,48.71201],[16.75328,48.721],[16.74726,48.73215],[16.73946,48.73051],[16.72885,48.73323],[16.72856,48.73665],[16.72378,48.73821],[16.70115,48.7365],[16.68259,48.72802],[16.67381,48.74249],[16.68086,48.74993],[16.6775,48.76692],[16.67462,48.77157],[16.66453,48.775],[16.66307,48.78131],[16.64425,48.78579],[16.63454,48.78576],[16.6306,48.78043],[16.59358,48.78267],[16.59353,48.78692],[16.58177,48.79218],[16.56469,48.79395],[16.54072,48.81429],[16.51863,48.79825],[16.51613,48.80266],[16.48467,48.80162],[16.46446,48.8099],[16.45902,48.80809],[16.46196,48.80451],[16.44868,48.79938],[16.44773,48.79059],[16.43523,48.77658],[16.43926,48.77432],[16.43499,48.76563],[16.42279,48.76203],[16.40434,48.74052],[16.3941,48.73642],[16.39042,48.73903],[16.37945,48.72917],[16.35977,48.72806],[16.35144,48.73364],[16.35726,48.73782],[16.34974,48.74216],[16.34616,48.74077],[16.34379,48.74505],[16.33622,48.7323],[16.32988,48.73124],[16.31035,48.73383],[16.30531,48.73865],[16.27789,48.74151],[16.26831,48.74133],[16.26304,48.737],[16.1547,48.74845],[16.14986,48.74319],[16.10265,48.74542],[16.06492,48.75462],[16.05281,48.76103],[15.99433,48.77935],[15.96886,48.7967],[15.95954,48.79847],[15.94959,48.80527],[15.95195,48.81394],[15.9598,48.8198],[15.95827,48.82307],[15.94802,48.82237],[15.94667,48.82754],[15.94069,48.8275],[15.94063,48.81987],[15.93465,48.81909],[15.92422,48.82443],[15.93085,48.83312],[15.91821,48.83882],[15.89349,48.83458],[15.8908,48.83844],[15.89423,48.84143],[15.89683,48.83868],[15.90515,48.83917],[15.89728,48.8486],[15.893,48.84864],[15.88806,48.842],[15.88277,48.84338],[15.87969,48.84822],[15.88084,48.85476],[15.87389,48.8606],[15.87502,48.85514],[15.86293,48.85274],[15.85827,48.85724],[15.84481,48.85885],[15.84113,48.86103],[15.85166,48.866],[15.85091,48.86905],[15.83957,48.87756],[15.82758,48.87105],[15.77953,48.87488],[15.76307,48.85792],[15.75115,48.85214],[15.70909,48.86068],[15.68967,48.85567],[15.65268,48.88281],[15.64237,48.8866],[15.63032,48.88504],[15.61959,48.89561],[15.61243,48.89826],[15.57786,48.89589],[15.55985,48.9042],[15.51339,48.91412],[15.5054,48.92132],[15.50201,48.93597],[15.48009,48.94359],[15.46939,48.95065],[15.4559,48.94528],[15.45052,48.94979],[15.42327,48.95222],[15.40341,48.96344],[15.39367,48.96521],[15.38793,48.97272],[15.36698,48.98188],[15.33223,48.98483],[15.32173,48.97613],[15.31209,48.98075],[15.30569,48.97792],[15.29102,48.98432],[15.29341,48.98944],[15.28948,48.99274],[15.27778,48.99462],[15.27577,48.98584],[15.28182,48.98075],[15.27188,48.96639],[15.26714,48.9672],[15.26907,48.95828],[15.26192,48.95759],[15.26005,48.95391],[15.24639,48.95952],[15.23854,48.95757],[15.22444,48.96014],[15.20001,48.95221],[15.18924,48.94302],[15.177,48.94769],[15.16047,48.94181],[15.15538,48.94614],[15.16973,48.96277],[15.1683,48.96716],[15.15946,48.9721],[15.16204,48.97771],[15.15109,48.98095],[15.15297,48.98452],[15.15665,48.98425],[15.15864,48.98992],[15.15628,48.9933],[15.13418,48.99991],[15.12192,48.99726],[15.10731,48.99882],[15.10256,48.99384],[15.06442,48.99974],[15.06728,49.00625],[15.06542,49.01422],[15.0525,49.01529],[15.0408,49.01149],[15.02172,49.02047],[15.00427,49.01242],[14.99513,49.01471],[14.99062,49.00985],[15.00081,49.00296],[14.99506,48.99007],[14.98451,48.98658],[14.97619,48.971],[14.97648,48.95582],[14.98651,48.93592],[14.97901,48.92803],[14.99001,48.91587],[14.99291,48.90403],[14.98891,48.89102],[14.98346,48.89096],[14.98382,48.87475],[14.97294,48.87466],[14.97414,48.85485],[14.98445,48.84601],[14.98452,48.84239],[14.97206,48.84227],[14.96826,48.83679],[14.96959,48.82383],[14.9574,48.81168],[14.9605,48.80452],[14.9553,48.80136],[14.95691,48.79982],[14.95323,48.7952],[14.95557,48.79291],[14.95342,48.78954],[14.98012,48.77915],[14.97933,48.77235],[14.95579,48.75808],[14.95226,48.76175],[14.94009,48.76129],[14.93188,48.76656],[14.92048,48.76858],[14.9062,48.767],[14.89295,48.77239],[14.88808,48.77008],[14.88128,48.78011],[14.86937,48.78105],[14.86226,48.77711],[14.85114,48.77731],[14.84254,48.78397],[14.82928,48.78049],[14.82553,48.78386],[14.8083,48.77745],[14.80638,48.77148],[14.81077,48.76734],[14.81149,48.76145],[14.80049,48.74739],[14.80812,48.73388],[14.79468,48.72998],[14.78039,48.71492],[14.75704,48.70933],[14.75566,48.70347],[14.73657,48.69894],[14.72785,48.68841],[14.72714,48.6792],[14.71235,48.65011],[14.71781,48.64956],[14.72211,48.63823],[14.71409,48.61744],[14.72113,48.60237],[14.70599,48.59089],[14.70619,48.5851],[14.66344,48.58195],[14.65384,48.60407],[14.64594,48.60989],[14.63067,48.60317],[14.62635,48.60451],[14.61822,48.62026],[14.61206,48.62741],[14.60715,48.62856],[14.5898,48.61764],[14.5809,48.61691],[14.56434,48.6085],[14.56206,48.60334],[14.55354,48.60584],[14.54756,48.61364],[14.52454,48.61546],[14.51623,48.6198],[14.50398,48.61723],[14.4952,48.62234],[14.49247,48.63333],[14.47651,48.63955],[14.47007,48.64821],[14.45828,48.64347],[14.44376,48.64344],[14.45594,48.62554],[14.4473,48.61981],[14.4486,48.61424],[14.44178,48.60028],[14.43547,48.59804],[14.43034,48.58853],[14.41543,48.59251],[14.38578,48.59192],[14.38774,48.58324],[14.39312,48.57737],[14.38808,48.57188],[14.37613,48.56919],[14.36849,48.56983],[14.36584,48.57584],[14.3579,48.57348],[14.3524,48.56889],[14.35311,48.56247],[14.33319,48.55182],[14.3271,48.55407],[14.32404,48.56408],[14.29501,48.56839],[14.27885,48.57424],[14.27137,48.58115],[14.23928,48.57794],[14.22819,48.58522],[14.19526,48.59251],[14.18373,48.59375],[14.16353,48.58924],[14.16202,48.59291],[14.15449,48.59587],[14.14034,48.59467],[14.13283,48.5975],[14.11593,48.58917],[14.09558,48.59224],[14.09826,48.59778],[14.08624,48.60009],[14.07171,48.59965],[14.06648,48.59551],[14.06771,48.6061],[14.05423,48.60413],[14.04089,48.61742],[14.04552,48.61887],[14.04813,48.62737],[14.02297,48.63072],[14.01825,48.63691],[14.0113,48.63907],[14.02285,48.64557],[14.0246,48.65262],[14.05294,48.65266],[14.06028,48.66525],[14.0594,48.67375],[14.03473,48.67727],[14.02598,48.6839],[14.02537,48.68909],[14.01617,48.69189],[14.01817,48.69624],[14.01457,48.69648],[14.00984,48.70481],[14.00328,48.70858],[13.95896,48.71372],[13.95552,48.71494],[13.95454,48.71974],[13.94129,48.72199],[13.91019,48.7475],[13.8761,48.76662],[13.85514,48.7714],[13.83113,48.77081],[13.8131,48.77402],[13.80381,48.78101],[13.80832,48.7835],[13.81462,48.79769],[13.78798,48.82556],[13.79288,48.83014],[13.76879,48.83142],[13.76421,48.83512],[13.76563,48.83754],[13.75031,48.85783],[13.75095,48.86609],[13.73749,48.87932],[13.73777,48.88462],[13.72945,48.88655],[13.71629,48.87821],[13.70209,48.88171],[13.68965,48.87833],[13.67151,48.88008],[13.66801,48.88785],[13.66969,48.89048],[13.66134,48.89446],[13.65555,48.89357],[13.63795,48.91919],[13.63805,48.92567],[13.62253,48.93888],[13.6311,48.94699],[13.62143,48.94887],[13.60701,48.94132],[13.5904,48.95285],[13.59228,48.96228],[13.58013,48.97075],[13.56956,48.96646],[13.56324,48.97045],[13.54805,48.96687],[13.52931,48.97404],[13.51601,48.9688],[13.50707,48.96918],[13.50823,48.94216],[13.49838,48.94129],[13.48443,48.94819],[13.48354,48.95138],[13.46845,48.95475],[13.45946,48.9626],[13.42728,48.97205],[13.42451,48.97738],[13.40276,48.98719],[13.40229,48.99434],[13.40945,49.0032],[13.40027,49.01589],[13.40583,49.02375],[13.39965,49.03704],[13.3919,49.0414],[13.39707,49.04421],[13.39714,49.05086],[13.37549,49.05876],[13.37175,49.06627],[13.34654,49.08199],[13.34467,49.08857],[13.28913,49.11869],[13.27659,49.1205],[13.23629,49.11368],[13.2056,49.12217],[13.18255,49.13471],[13.17032,49.14398],[13.17687,49.16431],[13.1704,49.1739],[13.16264,49.17445],[13.12965,49.19678],[13.10998,49.20314],[13.11409,49.21831],[13.08784,49.22788],[13.08896,49.23497],[13.08092,49.2473],[13.06047,49.25024],[13.05563,49.2638],[13.034,49.26394],[13.02558,49.27879],[13.03019,49.28715],[13.029,49.30438],[13.00556,49.3073],[13.0019,49.31373],[12.97261,49.33389],[12.94292,49.34417],[12.91951,49.34344],[12.90619,49.34871],[12.88006,49.35042],[12.88108,49.34331],[12.88783,49.3339],[12.87693,49.33244],[12.85356,49.33824],[12.84351,49.34518],[12.83723,49.34073],[12.80327,49.34164],[12.78578,49.34545],[12.77878,49.34815],[12.77864,49.35521],[12.78241,49.3592],[12.77723,49.36388],[12.76853,49.3654],[12.75799,49.37517],[12.76105,49.38237],[12.75767,49.39486],[12.73309,49.40982],[12.71476,49.4142],[12.70872,49.42479],[12.67939,49.42612],[12.65582,49.43471],[12.65811,49.43945],[12.65553,49.44858],[12.65794,49.45031],[12.64859,49.46827],[12.63378,49.4764],[12.64367,49.48393],[12.64381,49.49454],[12.63993,49.49898],[12.64389,49.51104],[12.64425,49.5214],[12.64111,49.52765],[12.63234,49.53208],[12.62858,49.52704],[12.62078,49.52656],[12.58913,49.53782],[12.59488,49.54173],[12.57408,49.55986],[12.57099,49.56884],[12.57667,49.58633],[12.56403,49.59675],[12.5622,49.60907],[12.55693,49.61432],[12.56067,49.61958],[12.54576,49.62125],[12.52812,49.6181],[12.52692,49.62225],[12.53428,49.62611],[12.52424,49.62738],[12.52308,49.63444],[12.52806,49.64054],[12.51766,49.64373],[12.52591,49.65428],[12.52223,49.65977],[12.52983,49.66592],[12.52265,49.67696],[12.52169,49.68672],[12.49134,49.68599],[12.48517,49.68793],[12.48398,49.69414],[12.44245,49.70382],[12.42851,49.72162],[12.42569,49.73052],[12.41348,49.73211],[12.40574,49.74056],[12.4055,49.74864],[12.40058,49.75373],[12.40305,49.76189],[12.47262,49.78761],[12.47421,49.792],[12.46551,49.79493],[12.47053,49.8023],[12.46493,49.81119],[12.47341,49.81514],[12.47634,49.82485],[12.47307,49.83367],[12.4832,49.84194],[12.49792,49.83751],[12.49798,49.85696],[12.51243,49.85939],[12.51858,49.86901],[12.52161,49.88176],[12.53983,49.89126],[12.54847,49.89931],[12.55123,49.90945],[12.54757,49.92076],[12.50186,49.93038],[12.49299,49.93315],[12.49431,49.93681],[12.47838,49.93558],[12.47467,49.93868],[12.47011,49.94854],[12.48148,49.95831],[12.49055,49.95856],[12.49372,49.96938],[12.49925,49.97193],[12.48997,49.98171],[12.47658,49.98074],[12.46692,49.99287],[12.45383,49.99349],[12.4315,49.98445],[12.4314,49.98858],[12.42674,49.99018],[12.43537,49.99356],[12.43514,49.9987],[12.3974,50.00895],[12.40218,50.01452],[12.3866,50.01247],[12.37968,50.01398],[12.37507,50.01913],[12.36753,50.01743],[12.3623,50.02468],[12.34914,50.03197],[12.34719,50.03665],[12.33789,50.03966],[12.32888,50.0322],[12.32448,50.03387],[12.32555,50.03703],[12.31574,50.04607],[12.31923,50.04867],[12.31732,50.05336],[12.29904,50.0587],[12.27928,50.05519],[12.27273,50.06102],[12.26154,50.05824],[12.26082,50.06428],[12.27534,50.07654],[12.26533,50.07909],[12.24326,50.0969],[12.23226,50.09417],[12.22738,50.09761],[12.22865,50.1024],[12.20907,50.10232],[12.19963,50.11083],[12.20256,50.11534],[12.1963,50.12296],[12.19515,50.14322],[12.2035,50.15055],[12.20081,50.15277],[12.21145,50.15892],[12.21598,50.16819],[12.20849,50.16878],[12.20125,50.18868],[12.18887,50.19559],[12.1902,50.20076],[12.1828,50.19918],[12.18608,50.20305],[12.17959,50.2057],[12.1754,50.21292],[12.158,50.2138],[12.16387,50.21762],[12.15463,50.22866],[12.14537,50.23041],[12.15193,50.23449],[12.14947,50.23616],[12.1396,50.23055],[12.12703,50.23237],[12.10886,50.23797],[12.10667,50.24659],[12.09764,50.24646],[12.09059,50.25239],[12.1023,50.25552],[12.09779,50.26213],[12.12649,50.26958],[12.13998,50.27775],[12.1358,50.28381],[12.12297,50.29086],[12.11929,50.29873],[12.1262,50.30612],[12.12148,50.31047],[12.1049,50.31463],[12.10186,50.31766],[12.10479,50.32195],[12.11217,50.3206],[12.11382,50.31668],[12.12487,50.31531],[12.14677,50.32193],[12.18465,50.32211],[12.18285,50.31754],[12.18693,50.31167],[12.19971,50.30633],[12.19511,50.29333],[12.20214,50.28804],[12.20135,50.27292],[12.24705,50.26824],[12.25393,50.27102],[12.26588,50.25876],[12.26592,50.25021],[12.25497,50.25117],[12.25031,50.25478],[12.23916,50.24708],[12.26715,50.23181],[12.27467,50.23323],[12.28548,50.22589],[12.28522,50.22318],[12.29237,50.22156],[12.28248,50.21299],[12.28844,50.20402],[12.2746,50.19663],[12.2775,50.19171],[12.28929,50.18607],[12.29084,50.17662],[12.33216,50.17144],[12.3372,50.17358],[12.32701,50.17699],[12.32968,50.18626],[12.33633,50.1886],[12.33813,50.19276],[12.32345,50.20663],[12.32753,50.21019],[12.32887,50.21784],[12.33469,50.21735],[12.33114,50.22471],[12.33268,50.234],[12.32881,50.2358],[12.33268,50.23908],[12.33134,50.2424],[12.35121,50.23706],[12.3587,50.24381],[12.35036,50.25339],[12.35191,50.26098],[12.37073,50.28514],[12.39405,50.28962],[12.39938,50.29332],[12.40314,50.30074],[12.39835,50.30813],[12.40054,50.3161],[12.39847,50.32148],[12.40501,50.32408],[12.43106,50.32279],[12.4372,50.32787],[12.43495,50.33263],[12.44156,50.34142],[12.46933,50.35482],[12.48393,50.34709],[12.48934,50.3496],[12.49262,50.35605],[12.48771,50.36201],[12.48646,50.36974],[12.51257,50.39658],[12.54589,50.40084],[12.55824,50.39932],[12.58018,50.40713],[12.60324,50.40647],[12.61689,50.41574],[12.62626,50.41633],[12.64397,50.41065],[12.67571,50.41579],[12.68179,50.40963],[12.70713,50.39714],[12.70784,50.40824],[12.72984,50.42169],[12.73446,50.43235],[12.79485,50.44948],[12.81042,50.43111],[12.80723,50.4446],[12.81557,50.44872],[12.81926,50.45687],[12.8233,50.45882],[12.8946,50.4298],[12.90148,50.4236],[12.91222,50.42387],[12.9344,50.41291],[12.93626,50.40701],[12.94792,50.4043],[12.94039,50.40831],[12.9442,50.41262],[12.96357,50.41454],[12.98719,50.4215],[12.99499,50.43312],[13.01996,50.4468],[13.02374,50.45423],[13.01841,50.46701],[13.02236,50.48634],[13.03228,50.50045],[13.03153,50.50969],[13.04253,50.51157],[13.0561,50.50125],[13.0857,50.50028],[13.10093,50.50282],[13.13244,50.51863],[13.13802,50.51279],[13.13662,50.50648],[13.15335,50.50846],[13.1778,50.50298],[13.19682,50.5042],[13.19583,50.51655],[13.20742,50.52147],[13.20934,50.52973],[13.22204,50.54189],[13.22165,50.54597],[13.2294,50.55034],[13.22262,50.5628],[13.23507,50.56967],[13.23335,50.57929],[13.23728,50.57991],[13.23883,50.584],[13.24764,50.58714],[13.24771,50.59129],[13.25602,50.59542],[13.25997,50.59225],[13.28193,50.59127],[13.29084,50.5752],[13.32214,50.58115],[13.32509,50.58282],[13.3213,50.58952],[13.32284,50.59755],[13.31947,50.60172],[13.32597,50.60489],[13.32478,50.60854],[13.3325,50.60768],[13.36433,50.61809],[13.37779,50.62838],[13.37413,50.6326],[13.37109,50.65081],[13.38265,50.64491],[13.391,50.64685],[13.39317,50.6419],[13.40538,50.63462],[13.41348,50.62185],[13.41245,50.61818],[13.42708,50.61537],[13.42505,50.61279],[13.42999,50.61046],[13.44132,50.61115],[13.46473,50.60176],[13.47723,50.61516],[13.49366,50.62419],[13.49763,50.63196],[13.52417,50.63895],[13.52537,50.64922],[13.51706,50.64847],[13.51264,50.65372],[13.52666,50.66567],[13.53239,50.66861],[13.5395,50.66765],[13.53863,50.673],[13.54443,50.67703],[13.54043,50.68974],[13.52573,50.70094],[13.52522,50.70453],[13.53827,50.70572],[13.54488,50.71119],[13.55782,50.71478],[13.60238,50.71015],[13.6271,50.71628],[13.62498,50.72303],[13.64124,50.72897],[13.6654,50.73211],[13.69215,50.7185],[13.70695,50.71676],[13.71238,50.71993],[13.71353,50.72498],[13.72835,50.73381],[13.7403,50.72731],[13.75025,50.72936],[13.75829,50.73582],[13.76882,50.73291],[13.77786,50.73642],[13.79091,50.73271],[13.80723,50.73332],[13.82811,50.72416],[13.83417,50.72683],[13.84518,50.72532],[13.85747,50.72813],[13.86199,50.74275],[13.87781,50.73809],[13.89869,50.74506],[13.90091,50.75192],[13.88831,50.76522],[13.88738,50.77016],[13.90033,50.78485],[13.89638,50.78843],[13.89754,50.79179],[13.90403,50.79425],[13.92865,50.7885],[13.93711,50.78963],[13.95606,50.80067],[13.95392,50.80737],[13.99069,50.81999],[14.00343,50.8142],[14.00362,50.81029],[14.01648,50.81118],[14.0282,50.80464],[14.03384,50.80455],[14.03958,50.81038],[14.07366,50.81085],[14.07841,50.81248],[14.07909,50.81906],[14.0896,50.82615],[14.13318,50.8341],[14.16107,50.84748],[14.20062,50.85122],[14.21709,50.86024],[14.2232,50.85894],[14.23595,50.87581],[14.23334,50.88715],[14.25168,50.88789],[14.26586,50.89463],[14.2716,50.89547],[14.2833,50.89197],[14.2895,50.88594],[14.30474,50.88399],[14.34931,50.8928],[14.34839,50.89798],[14.35202,50.89935],[14.37448,50.89631],[14.38817,50.8994],[14.38627,50.91675],[14.4019,50.92373],[14.40072,50.933],[14.39674,50.93638],[14.38646,50.94076],[14.37402,50.93807],[14.36951,50.94206],[14.36075,50.94141],[14.34605,50.9485],[14.32144,50.95061],[14.31143,50.95391],[14.31699,50.96055],[14.30257,50.96536],[14.31647,50.97328],[14.32605,50.97233],[14.32888,50.97479],[14.32675,50.98074],[14.32977,50.98224],[14.32232,50.98542],[14.31192,50.98476],[14.28571,50.97689],[14.2585,50.98794],[14.25871,50.992],[14.26639,50.99927],[14.26044,51.00884],[14.28032,51.01419],[14.28205,51.01541],[14.27777,51.01897],[14.28638,51.0271],[14.28585,51.03141],[14.27393,51.03976],[14.28645,51.03852],[14.30155,51.05494],[14.31558,51.05556],[14.33485,51.03979],[14.34044,51.03847],[14.36202,51.04537],[14.38258,51.03855],[14.38338,51.02845],[14.40861,51.0188],[14.43203,51.02351],[14.45301,51.03576],[14.46536,51.03533],[14.47519,51.02965],[14.47448,51.0256],[14.49259,51.02347],[14.49427,51.03627],[14.4914,51.04294],[14.50046,51.04652],[14.5086,51.04275],[14.49852,51.0221],[14.53207,51.01662],[14.53979,51.01041],[14.53266,51.00577],[14.53476,51.0037],[14.56455,51.01015],[14.5664,51.00614],[14.57872,51.00034],[14.58153,50.99355],[14.5992,50.98656],[14.60067,50.97952],[14.59724,50.9699],[14.59316,50.96709],[14.59618,50.96273],[14.58538,50.95174],[14.58176,50.94238],[14.57285,50.93805],[14.56065,50.92523],[14.56439,50.91851],[14.58296,50.91404],[14.61706,50.92558],[14.62827,50.92555],[14.65021,50.93155],[14.65283,50.90541],[14.63663,50.89778],[14.63266,50.88334],[14.61882,50.86376],[14.61887,50.85775],[14.64714,50.84878],[14.66513,50.84914],[14.69,50.83793],[14.70885,50.84068],[14.72008,50.83227],[14.71608,50.8263],[14.71759,50.82326],[14.72666,50.82229],[14.73855,50.82864],[14.74738,50.82902],[14.74984,50.8243],[14.7588,50.82472],[14.76656,50.81943],[14.79102,50.82404],[14.79278,50.81998],[14.80024,50.82306],[14.80269,50.83662],[14.8106,50.85126],[14.82134,50.85937],[14.82503,50.86773],[14.82337,50.87056],[14.83116,50.87289],[14.85287,50.86866],[14.86375,50.87047],[14.86702,50.87721],[14.87437,50.87713],[14.89728,50.86735],[14.90017,50.87596],[14.90625,50.87545],[14.95813,50.86205],[14.98591,50.86915],[15.00194,50.86878],[14.999,50.88613],[14.99424,50.89161],[14.99618,50.90063],[15.0068,50.90723],[14.9982,50.90772],[14.99887,50.91286],[14.98946,50.92165],[15.01434,50.93982],[15.01537,50.94966],[15.01103,50.96236],[15.02172,50.96708],[15.00613,50.98645],[14.98892,50.97804],[14.96824,50.99001],[14.98543,51.01084],[14.99724,51.00921],[15.01472,51.01631],[15.01647,51.02181],[15.02414,51.02322],[15.03164,51.02103],[15.0356,51.01301],[15.05759,51.01296],[15.05772,51.02252],[15.061,51.02289],[15.07581,51.01729],[15.07738,51.01356],[15.106,51.01074],[15.10743,51.00831],[15.09687,51.00195],[15.1008,50.99418],[15.10514,50.99161],[15.12316,50.99295],[15.12803,50.99014],[15.13532,50.99164],[15.13311,50.99389],[15.13512,50.99932],[15.14437,51.01337],[15.17185,51.02003],[15.17587,50.99468],[15.17551,50.98868],[15.17155,50.98648],[15.19182,50.98054],[15.20003,50.98401],[15.19661,50.98834],[15.2037,50.99225],[15.23805,50.99861],[15.24232,50.99694],[15.23719,50.9946],[15.24279,50.98794],[15.23932,50.98595],[15.24846,50.97967],[15.27408,50.97955],[15.27721,50.97163],[15.27388,50.96291],[15.28503,50.95967],[15.29205,50.95354],[15.29004,50.94743],[15.26785,50.93251],[15.26971,50.92547],[15.2669,50.92075],[15.27684,50.89899],[15.27706,50.89102],[15.3098,50.86145],[15.33999,50.85666],[15.35836,50.84714],[15.36731,50.83802],[15.37213,50.82368],[15.37603,50.82127],[15.37005,50.81441],[15.3741,50.81089],[15.37262,50.80627],[15.36622,50.80182],[15.37246,50.79583],[15.37345,50.78482],[15.37037,50.78131],[15.37374,50.77808],[15.39213,50.77587],[15.40908,50.78682],[15.42083,50.80325],[15.43875,50.80906],[15.45023,50.80711],[15.45094,50.80407],[15.47522,50.79583],[15.48052,50.79083],[15.49365,50.78823],[15.51101,50.79081],[15.52431,50.777],[15.54567,50.78045],[15.56402,50.77612],[15.57874,50.77897],[15.60177,50.77682],[15.61644,50.77234],[15.6221,50.76519],[15.68026,50.75474],[15.68864,50.74279],[15.70571,50.73725],[15.72335,50.73979],[15.73978,50.73594],[15.75876,50.74335],[15.77922,50.74227],[15.78874,50.74674],[15.79146,50.75265],[15.81619,50.75533],[15.81969,50.74977],[15.83193,50.74269],[15.83019,50.72415],[15.85106,50.70822],[15.86337,50.68034],[15.86097,50.67445],[15.88479,50.67131],[15.88507,50.67534],[15.91953,50.6846],[15.9262,50.68076],[15.93317,50.68682],[15.95549,50.69133],[15.96716,50.69172],[15.99124,50.6829],[15.98957,50.67871],[15.9937,50.67339],[15.99889,50.67226],[15.99789,50.66862],[16.00432,50.65819],[16.00476,50.64831],[16.00092,50.64476],[16.00542,50.64251],[16.00898,50.63433],[16.02176,50.63018],[15.99838,50.62289],[15.98635,50.61476],[15.99159,50.61012],[16.0157,50.60611],[16.01979,50.60013],[16.02482,50.59861],[16.04262,50.61424],[16.05607,50.6097],[16.06759,50.63976],[16.08382,50.64651],[16.08828,50.65224],[16.09507,50.65301],[16.10367,50.66336],[16.11354,50.65956],[16.12584,50.66058],[16.1395,50.65078],[16.14839,50.65334],[16.16897,50.64584],[16.17695,50.63965],[16.17939,50.62865],[16.18419,50.6272],[16.21737,50.63335],[16.22052,50.63648],[16.22148,50.65151],[16.23175,50.66937],[16.23659,50.6712],[16.25836,50.66711],[16.27944,50.66822],[16.28409,50.66044],[16.30499,50.65906],[16.32212,50.6666],[16.34309,50.6615],[16.35121,50.64786],[16.36247,50.64832],[16.37303,50.63713],[16.37955,50.63651],[16.3804,50.63033],[16.39444,50.61872],[16.40565,50.61699],[16.41278,50.61012],[16.42248,50.60671],[16.44332,50.5865],[16.44491,50.57958],[16.41881,50.56864],[16.40464,50.56927],[16.404,50.56467],[16.41065,50.5564],[16.41054,50.54775],[16.3874,50.54177],[16.40178,50.52988],[16.37394,50.51638],[16.36036,50.50123],[16.34381,50.49583],[16.31902,50.50787],[16.31173,50.50619],[16.30943,50.49936],[16.31241,50.49412],[16.30157,50.48978],[16.29474,50.47969],[16.26851,50.48292],[16.26965,50.47958],[16.25871,50.48019],[16.2492,50.47395],[16.2557,50.46762],[16.24338,50.46306],[16.23354,50.46681],[16.23526,50.45992],[16.22396,50.46058],[16.22036,50.45788],[16.23022,50.45377],[16.23406,50.4487],[16.23045,50.44273],[16.22083,50.44625],[16.2197,50.45186],[16.2133,50.4518],[16.20517,50.44873],[16.19883,50.44178],[16.19867,50.43473],[16.19572,50.43212],[16.19829,50.42884],[16.20985,50.42679],[16.21411,50.41469],[16.21046,50.41124],[16.22093,50.40697],[16.23811,50.41408],[16.24162,50.40967],[16.25293,50.40564],[16.2519,50.39969],[16.24739,50.39619],[16.25072,50.39348],[16.26306,50.39356],[16.26776,50.37938],[16.27686,50.37621],[16.27863,50.36744],[16.29185,50.37027],[16.30183,50.38204],[16.30871,50.38313],[16.34181,50.37787],[16.34851,50.38066],[16.36065,50.37956],[16.36802,50.36696],[16.36589,50.35732],[16.36116,50.35365],[16.36217,50.34972],[16.37521,50.34227],[16.38323,50.32882],[16.39926,50.31919],[16.41108,50.3246],[16.43041,50.32508],[16.44938,50.30447],[16.46759,50.29047],[16.4662,50.28764],[16.48116,50.27563],[16.48121,50.27234],[16.489,50.2685],[16.48956,50.26448],[16.49775,50.25981],[16.50386,50.26087],[16.50809,50.25764],[16.50839,50.2529],[16.5139,50.25181],[16.51285,50.24739],[16.52241,50.23991],[16.53759,50.23891],[16.54832,50.22975],[16.55149,50.2228],[16.55729,50.22047],[16.55851,50.21008],[16.5617,50.20762],[16.55652,50.20349],[16.5544,50.19601],[16.56382,50.17977],[16.5582,50.17388],[16.56063,50.16472],[16.58552,50.15201],[16.58036,50.14881],[16.58461,50.14589],[16.58008,50.14241],[16.5946,50.14059],[16.60352,50.13401],[16.61307,50.13187],[16.61399,50.12508],[16.6252,50.12102],[16.6332,50.11163],[16.66085,50.10802],[16.6893,50.09846],[16.70604,50.09659],[16.72388,50.10526],[16.72937,50.11717],[16.74486,50.13457],[16.75495,50.13388],[16.78334,50.1456],[16.78162,50.15134],[16.79736,50.16566],[16.80068,50.18012],[16.81563,50.19216],[16.82285,50.18866],[16.82588,50.1946],[16.83608,50.19885],[16.83519,50.20242],[16.84739,50.20744],[16.86279,50.19824],[16.88276,50.19986],[16.88504,50.21308],[16.8965,50.21778],[16.898,50.22203],[16.91737,50.2262],[16.92698,50.22303],[16.95591,50.22252],[16.96585,50.22979],[16.96113,50.23528],[16.96323,50.23906],[16.97769,50.24433],[16.98278,50.23305],[16.99224,50.22681],[16.99891,50.21586],[17.01481,50.21945],[17.02832,50.22998],[17.01067,50.24272],[17.01081,50.24923],[17.00155,50.2564],[17.01656,50.26735],[17.01992,50.27857],[17.00824,50.29575],[17.00371,50.29631],[17.00094,50.30304],[16.99344,50.30235],[16.97306,50.30839],[16.96826,50.31593],[16.95552,50.31228],[16.94615,50.31539],[16.93431,50.33079],[16.93846,50.3331],[16.93609,50.34346],[16.92984,50.34582],[16.91551,50.36303],[16.91957,50.36898],[16.91505,50.38249],[16.91048,50.3849],[16.91097,50.38904],[16.89904,50.38958],[16.89287,50.39511],[16.86099,50.40812],[16.86052,50.41123],[16.86815,50.4159],[16.86945,50.42288],[16.87582,50.42819],[16.87557,50.43264],[16.88072,50.43617],[16.88116,50.44243],[16.89284,50.44337],[16.90791,50.44945],[16.92192,50.4405],[16.9634,50.42602],[16.97401,50.41775],[16.99828,50.42775],[17.01368,50.41855],[17.02428,50.42147],[17.0303,50.41511],[17.0375,50.41489],[17.05253,50.40696],[17.08097,50.40223],[17.08513,50.40579],[17.11075,50.40496],[17.1111,50.39369],[17.1224,50.39428],[17.14333,50.38041],[17.15721,50.38007],[17.18404,50.38996],[17.20375,50.38613],[17.19912,50.37509],[17.20114,50.36402],[17.21305,50.35755],[17.22326,50.34617],[17.24732,50.33207],[17.26366,50.32823],[17.28207,50.319],[17.31276,50.32048],[17.32781,50.3271],[17.34866,50.32835],[17.34821,50.32279],[17.34048,50.32268],[17.33751,50.31307],[17.34861,50.3118],[17.35368,50.30805],[17.34599,50.29783],[17.34472,50.29131],[17.34819,50.28744],[17.33773,50.28347],[17.34273,50.28097],[17.34788,50.26525],[17.35242,50.2638],[17.36304,50.26503],[17.36315,50.27964],[17.37332,50.28265],[17.38903,50.28276],[17.40083,50.27959],[17.40687,50.27393],[17.42067,50.27742],[17.43118,50.26306],[17.428,50.25964],[17.42968,50.25418],[17.43956,50.25163],[17.454,50.2563],[17.45709,50.25982],[17.45783,50.27009],[17.46349,50.26705],[17.49559,50.27509],[17.56318,50.27029],[17.58072,50.27792],[17.59146,50.27892],[17.60544,50.26712],[17.61728,50.26694],[17.65076,50.27776],[17.65974,50.28596],[17.686,50.29904],[17.68912,50.30186],[17.68693,50.32797],[17.71902,50.32027],[17.72883,50.30329],[17.75205,50.29952],[17.73417,50.2773],[17.72559,50.27226],[17.72495,50.25675],[17.76497,50.23639],[17.75654,50.22145],[17.75987,50.2169],[17.75847,50.20658],[17.74454,50.20267],[17.71745,50.20573],[17.70482,50.18501],[17.63157,50.17359],[17.62595,50.16935],[17.60446,50.17093],[17.59274,50.16001],[17.60626,50.14839],[17.61086,50.14003],[17.63929,50.13135],[17.65076,50.11063],[17.67666,50.10302],[17.68327,50.11731],[17.69708,50.11692],[17.73088,50.09717],[17.72922,50.08831],[17.75242,50.07432],[17.76305,50.05264],[17.77153,50.04844],[17.77313,50.04201],[17.77027,50.03563],[17.77512,50.03512],[17.77725,50.03058],[17.77129,50.02583],[17.77777,50.02012],[17.79504,50.0177],[17.79524,50.01429],[17.80419,50.01242],[17.82769,50.01131],[17.83686,50.00361],[17.82645,49.99407],[17.84292,49.98678],[17.85006,49.98691],[17.85257,49.9821],[17.86035,49.9809],[17.86849,49.97249],[17.88524,49.97928],[17.90914,49.9765],[17.92285,49.97874],[17.95405,50.00506],[17.97311,50.00861],[17.9826,50.00513],[17.98774,50.01221],[18.00464,50.01837],[18.00658,50.01143],[18.0353,50.01101],[18.04519,50.00614],[18.0409,50.01362],[18.04631,50.0159],[18.04293,50.02204],[18.04902,50.02742],[18.04439,50.0366],[18.02475,50.03877],[18.01312,50.03023],[18.00882,50.03129],[18.00431,50.0378],[18.00516,50.05349],[18.03362,50.06603],[18.04607,50.06259],[18.04983,50.05836],[18.06172,50.05918],[18.06379,50.05274],[18.06758,50.05312],[18.06598,50.04816],[18.08936,50.04412],[18.08492,50.03415],[18.10275,50.02274],[18.09329,50.01499],[18.10479,50.00091],[18.11697,49.99415],[18.13438,49.99743],[18.13607,49.9939],[18.14695,49.99161],[18.15384,49.98237],[18.16901,49.98644],[18.17201,49.99001],[18.16799,49.99852],[18.17313,50.00029],[18.19008,49.99878],[18.19321,49.99451],[18.20657,49.99794],[18.21358,49.98611],[18.21428,49.972],[18.22063,49.96886],[18.24151,49.97041],[18.27801,49.96347],[18.28184,49.95055],[18.2792,49.94006],[18.28969,49.92873],[18.29903,49.92874],[18.29911,49.92381],[18.31805,49.91567],[18.33087,49.92468],[18.3298,49.92983],[18.34148,49.92618],[18.34405,49.92942],[18.34083,49.93414],[18.3472,49.93555],[18.34743,49.93966],[18.33563,49.93972],[18.33451,49.94474],[18.33791,49.94588],[18.35639,49.94398],[18.36641,49.93736],[18.39139,49.93404],[18.43075,49.93817],[18.43268,49.92848],[18.44381,49.92365],[18.46115,49.92279],[18.46809,49.91549],[18.483,49.9108],[18.48511,49.90636],[18.53436,49.8996],[18.54706,49.90915],[18.53988,49.91206],[18.54303,49.92245],[18.54004,49.92584],[18.559,49.91799],[18.57292,49.92162],[18.5757,49.91041],[18.5737,49.90779],[18.58005,49.90555],[18.57205,49.89393],[18.57374,49.88952],[18.56567,49.88068],[18.58024,49.86679],[18.5991,49.86631],[18.60533,49.8621],[18.60388,49.85711],[18.58371,49.85231],[18.58945,49.84561],[18.56943,49.8344],[18.56893,49.82962],[18.58262,49.81776],[18.58489,49.80533],[18.5928,49.80222],[18.59268,49.79779],[18.59992,49.78867],[18.59763,49.78382],[18.61022,49.77101],[18.61484,49.75345],[18.62951,49.74654],[18.6263,49.73024],[18.62879,49.7257],[18.62575,49.72364],[18.63216,49.7186]]]]}}]}