{"type":"FeatureCollection","features":[{"type":"Feature","properties":{"ISO_A3":"DJI","WB_A3":"DJI","WB_NAME":"Djibouti","WB_REGION":"MEA"},"geometry":{"type":"MultiPolygon","coordinates":[[[[43.43594,12.465],[43.42553,12.47318],[43.43142,12.47476],[43.43594,12.465]]],[[[42.52459,11.54597],[42.52984,11.54443],[42.52077,11.53508],[42.52795,11.52111],[42.5584,11.50205],[42.5616,11.49474],[42.56656,11.4944],[42.58497,11.47948],[42.58809,11.48015],[42.60284,11.46611],[42.62347,11.46486],[42.63207,11.46751],[42.6395,11.48379],[42.68553,11.4754],[42.68678,11.48147],[42.69381,11.48436],[42.68818,11.48637],[42.6871,11.49074],[42.69054,11.50133],[42.67584,11.51087],[42.67036,11.51044],[42.6651,11.51478],[42.66715,11.51866],[42.6631,11.51914],[42.66019,11.52452],[42.66132,11.52994],[42.66547,11.53255],[42.67593,11.53135],[42.67602,11.53598],[42.67903,11.53601],[42.68584,11.54842],[42.69178,11.54165],[42.69622,11.54117],[42.70882,11.54938],[42.71757,11.54893],[42.72562,11.55492],[42.74597,11.5583],[42.75269,11.56749],[42.76683,11.5631],[42.78508,11.56723],[42.79182,11.5732],[42.79308,11.57991],[42.79779,11.57892],[42.79983,11.58537],[42.80425,11.58733],[42.82492,11.58337],[42.83375,11.59],[42.83561,11.58667],[42.84581,11.5843],[42.85101,11.58756],[42.85263,11.59813],[42.8612,11.58738],[42.8698,11.59027],[42.87167,11.58578],[42.88317,11.58457],[42.91055,11.59173],[42.9424,11.59453],[43.00566,11.59047],[43.0059,11.59279],[43.02758,11.59461],[43.05977,11.58697],[43.0621,11.58956],[43.05922,11.59083],[43.05971,11.59444],[43.07408,11.59454],[43.07616,11.597],[43.09164,11.58693],[43.09509,11.57922],[43.10111,11.57759],[43.11048,11.58344],[43.11805,11.58427],[43.12354,11.58379],[43.12487,11.57993],[43.1434,11.60272],[43.13699,11.6041],[43.13879,11.60797],[43.1346,11.61001],[43.14582,11.61227],[43.14967,11.62324],[43.15027,11.61204],[43.15629,11.60924],[43.15895,11.60205],[43.15399,11.60202],[43.15208,11.59505],[43.16056,11.57578],[43.17032,11.56245],[43.17024,11.55446],[43.17995,11.54731],[43.19057,11.52058],[43.20136,11.50828],[43.21497,11.5036],[43.21885,11.51071],[43.23592,11.49613],[43.24338,11.47247],[43.25101,11.4635],[43.25815,11.46107],[42.96722,10.99722],[42.95345,10.99271],[42.93557,10.99201],[42.92988,10.9835],[42.91563,10.9755],[42.91031,10.97658],[42.90632,10.97313],[42.90296,10.97484],[42.90153,10.9714],[42.89035,10.97023],[42.88313,10.9708],[42.87966,10.97501],[42.86818,10.96991],[42.8657,10.97199],[42.86818,10.97572],[42.86323,10.97611],[42.85839,10.98361],[42.85458,10.97933],[42.84583,10.9843],[42.83816,10.98244],[42.79007,10.98797],[42.78248,11.009],[42.78645,11.01866],[42.78326,11.03476],[42.77589,11.04142],[42.77055,11.05859],[42.76257,11.06152],[42.76081,11.07314],[42.75043,11.08055],[42.7466,11.07751],[42.74557,11.06933],[42.73925,11.06567],[42.73301,11.06993],[42.72129,11.06693],[42.7123,11.06058],[42.69514,11.05865],[42.69021,11.05517],[42.68395,11.06367],[42.66,11.08034],[42.65566,11.07765],[42.64763,11.09182],[42.63405,11.09622],[42.6279,11.09539],[42.61353,11.08334],[42.6099,11.08361],[42.60841,11.07153],[42.49508,11.03503],[42.42134,10.98261],[42.3649,10.9982],[42.35469,10.99703],[42.34588,11.00158],[42.32329,10.98971],[42.31608,10.99391],[42.2898,10.98956],[42.27679,10.97664],[42.19835,10.96491],[42.19458,10.96724],[42.19838,10.97362],[42.1779,10.97723],[42.16148,10.97913],[42.16081,10.97233],[42.15239,10.97744],[42.14996,10.97285],[42.1469,10.97326],[42.14524,10.97657],[42.15119,10.98012],[42.1484,10.98248],[42.13809,10.97959],[42.13402,10.97223],[42.10972,10.96936],[42.10596,10.9571],[42.09245,10.96158],[42.07661,10.95713],[42.07248,10.94916],[42.07328,10.93498],[42.07011,10.92781],[42.03092,10.92988],[42.00179,10.92096],[41.97581,10.93051],[41.96889,10.92358],[41.97052,10.91618],[41.9664,10.91398],[41.95546,10.91982],[41.9459,10.91312],[41.94282,10.92427],[41.93795,10.92719],[41.93802,10.9344],[41.95049,10.9401],[41.91493,10.94174],[41.88102,10.95198],[41.87397,10.95085],[41.87387,10.95361],[41.85763,10.95917],[41.81889,10.96467],[41.82143,10.96747],[41.81153,10.97269],[41.78779,10.97801],[41.79297,10.98204],[41.7859,10.98694],[41.78772,10.99764],[41.79601,11.00672],[41.80998,11.2778],[41.80255,11.36452],[41.77104,11.49576],[41.77797,11.51265],[41.78526,11.54579],[41.80135,11.57424],[41.79948,11.59358],[41.80383,11.60866],[41.80335,11.63133],[41.80968,11.63876],[41.81075,11.65912],[41.83524,11.73283],[41.89115,11.75632],[41.8975,11.79299],[41.94768,11.81126],[41.96699,11.83724],[41.97264,11.83925],[42.04156,11.93808],[42.06759,11.98132],[42.09328,12.00901],[42.12004,12.04727],[42.13723,12.07989],[42.14496,12.07071],[42.14964,12.07868],[42.15931,12.11704],[42.18199,12.14574],[42.24496,12.24656],[42.31509,12.30791],[42.33712,12.37925],[42.40428,12.46864],[42.46137,12.52691],[42.54137,12.49589],[42.58747,12.46013],[42.62345,12.42107],[42.70021,12.35548],[42.70195,12.36039],[42.69834,12.36661],[42.71756,12.38458],[42.73236,12.37981],[42.74918,12.38317],[42.75312,12.38821],[42.75159,12.39746],[42.75841,12.39805],[42.761,12.4045],[42.767,12.40512],[42.7626,12.41024],[42.79122,12.41681],[42.80354,12.4145],[42.82536,12.43434],[42.82549,12.44412],[42.81953,12.45501],[42.82062,12.46234],[42.8139,12.46671],[42.8101,12.47418],[42.80382,12.47264],[42.79706,12.47755],[42.79543,12.48588],[42.79901,12.49034],[42.80227,12.51015],[42.80713,12.51049],[42.80653,12.51608],[42.81255,12.51643],[42.81448,12.52436],[42.81937,12.52456],[42.82625,12.54229],[42.83132,12.54492],[42.84229,12.5415],[42.84916,12.55039],[42.85647,12.5479],[42.85989,12.54989],[42.86116,12.55752],[42.85565,12.5628],[42.86307,12.57065],[42.85872,12.57596],[42.86738,12.5822],[42.86546,12.59027],[42.88116,12.59473],[42.88981,12.61742],[42.90529,12.61645],[42.90987,12.6091],[42.91679,12.61137],[42.92846,12.62349],[42.94291,12.62332],[42.94971,12.62647],[42.96331,12.64386],[43.12159,12.70779],[43.12984,12.70519],[43.12774,12.71015],[43.13162,12.70839],[43.13685,12.71351],[43.135,12.69802],[43.14057,12.69059],[43.15411,12.64998],[43.20082,12.59182],[43.22268,12.55925],[43.23639,12.54852],[43.26117,12.50953],[43.28416,12.48185],[43.29491,12.46195],[43.2978,12.46184],[43.30099,12.45491],[43.3061,12.45442],[43.31899,12.46829],[43.31314,12.481],[43.31654,12.48154],[43.32577,12.47413],[43.32316,12.47205],[43.32183,12.45426],[43.32671,12.42956],[43.33366,12.40874],[43.33891,12.40748],[43.33763,12.40232],[43.34169,12.40209],[43.35557,12.38414],[43.3723,12.30592],[43.37474,12.27089],[43.38607,12.2604],[43.39626,12.24242],[43.39935,12.23033],[43.40846,12.21724],[43.40994,12.18943],[43.40725,12.17936],[43.4142,12.15635],[43.41105,12.15646],[43.40758,12.1688],[43.4039,12.16968],[43.40201,12.15769],[43.41355,12.15415],[43.41766,12.12377],[43.4168,12.09285],[43.41158,12.06783],[43.37333,11.98619],[43.36709,11.97907],[43.35663,11.97695],[43.30533,11.97909],[43.2908,11.95942],[43.23245,11.95958],[43.22543,11.95296],[43.20734,11.958],[43.2024,11.95411],[43.18254,11.95037],[43.14745,11.91575],[43.13918,11.90063],[43.13212,11.90006],[43.12147,11.88917],[43.11088,11.86965],[43.09632,11.85693],[43.08546,11.83921],[43.0732,11.83475],[43.05663,11.81107],[43.02084,11.80734],[43.01171,11.80342],[43.00173,11.80979],[42.99157,11.80482],[42.97901,11.8055],[42.96393,11.79393],[42.95959,11.78077],[42.9445,11.77074],[42.93873,11.77353],[42.93829,11.77881],[42.93426,11.77698],[42.93404,11.77144],[42.91985,11.78061],[42.90574,11.77947],[42.90127,11.78253],[42.88979,11.78013],[42.87798,11.78622],[42.87092,11.78578],[42.85899,11.77372],[42.83758,11.77059],[42.82541,11.75569],[42.81395,11.74968],[42.7826,11.74789],[42.77378,11.73945],[42.76312,11.71696],[42.75237,11.7049],[42.75004,11.68569],[42.74606,11.67742],[42.72134,11.66383],[42.69847,11.63352],[42.69111,11.60693],[42.6909,11.58504],[42.68414,11.5806],[42.68186,11.5726],[42.67846,11.57257],[42.68238,11.55638],[42.67127,11.55822],[42.66601,11.56294],[42.65974,11.56289],[42.65769,11.55811],[42.65162,11.56527],[42.63537,11.57158],[42.63305,11.56834],[42.64778,11.55649],[42.63942,11.55603],[42.60636,11.57392],[42.58687,11.56268],[42.57979,11.56546],[42.57583,11.57109],[42.57087,11.57027],[42.55559,11.58585],[42.54827,11.58579],[42.53725,11.59162],[42.53412,11.59121],[42.536,11.58569],[42.52655,11.59115],[42.51997,11.5813],[42.51333,11.57996],[42.51791,11.5782],[42.51625,11.57406],[42.51917,11.56906],[42.52932,11.57263],[42.52574,11.56461],[42.53311,11.55798],[42.53209,11.55462],[42.53816,11.54747],[42.52588,11.54839],[42.52459,11.54597]]],[[[43.2032,11.7104],[43.19849,11.71153],[43.21252,11.72502],[43.21028,11.72809],[43.19891,11.72725],[43.19811,11.73021],[43.21301,11.73069],[43.21283,11.71793],[43.2032,11.7104]]],[[[43.19532,11.71731],[43.19385,11.72103],[43.19217,11.71819],[43.1872,11.7188],[43.17803,11.72183],[43.17644,11.72517],[43.18583,11.72807],[43.20227,11.71868],[43.19532,11.71731]]],[[[43.19326,11.71176],[43.18982,11.71753],[43.19587,11.71254],[43.19326,11.71176]]],[[[43.18281,11.54913],[43.18905,11.55509],[43.19103,11.55047],[43.18281,11.54913]]],[[[43.15039,11.71135],[43.14933,11.71328],[43.16448,11.71621],[43.16319,11.7135],[43.15039,11.71135]]],[[[42.53724,11.53316],[42.5346,11.53713],[42.54217,11.53746],[42.53724,11.53316]]],[[[42.53274,11.54034],[42.52985,11.54199],[42.53297,11.54369],[42.53274,11.54034]]]]}}]}