{"type":"FeatureCollection","features":[{"type":"Feature","properties":{"ISO_A3":"DMA","WB_A3":"DMA","WB_NAME":"Dominica","WB_REGION":"LCN"},"geometry":{"type":"MultiPolygon","coordinates":[[[[-61.45431,15.63768],[-61.42346,15.63892],[-61.41843,15.63618],[-61.39004,15.59566],[-61.37543,15.59414],[-61.36369,15.6001],[-61.35418,15.59295],[-61.34219,15.59659],[-61.3345,15.59499],[-61.33453,15.59087],[-61.32765,15.58695],[-61.31264,15.58736],[-61.30283,15.58392],[-61.30571,15.573],[-61.29846,15.5669],[-61.29618,15.55323],[-61.29093,15.54546],[-61.28764,15.54132],[-61.27435,15.54173],[-61.27159,15.5381],[-61.27531,15.52137],[-61.26951,15.51709],[-61.2671,15.51965],[-61.25676,15.51764],[-61.25926,15.50349],[-61.24926,15.49272],[-61.24728,15.47468],[-61.24438,15.47453],[-61.24535,15.46809],[-61.24191,15.46704],[-61.24631,15.4645],[-61.2468,15.45445],[-61.25757,15.43625],[-61.25482,15.4316],[-61.25003,15.4331],[-61.247,15.41453],[-61.25452,15.40353],[-61.24205,15.40316],[-61.24087,15.39507],[-61.2517,15.39191],[-61.25227,15.38779],[-61.25204,15.38277],[-61.24489,15.38104],[-61.24491,15.37794],[-61.25103,15.37645],[-61.25243,15.36847],[-61.2493,15.34604],[-61.24105,15.33233],[-61.24584,15.31511],[-61.24514,15.28704],[-61.25259,15.28477],[-61.25989,15.25186],[-61.27097,15.24344],[-61.28344,15.24418],[-61.2893,15.24088],[-61.29299,15.24425],[-61.30651,15.24487],[-61.31361,15.23681],[-61.31594,15.2264],[-61.33058,15.2202],[-61.33063,15.21453],[-61.3341,15.21121],[-61.35482,15.2075],[-61.36621,15.21041],[-61.36061,15.23046],[-61.37313,15.24124],[-61.37781,15.2598],[-61.37348,15.28207],[-61.37885,15.29113],[-61.39073,15.29894],[-61.38879,15.31026],[-61.39545,15.32422],[-61.3927,15.33656],[-61.39637,15.36027],[-61.40415,15.36704],[-61.41342,15.38616],[-61.42506,15.39294],[-61.42767,15.41614],[-61.43775,15.43502],[-61.45044,15.44361],[-61.44692,15.45414],[-61.45402,15.46141],[-61.46958,15.49449],[-61.46709,15.50786],[-61.47961,15.53963],[-61.46265,15.55291],[-61.45625,15.57321],[-61.46321,15.58421],[-61.47757,15.58276],[-61.47805,15.58908],[-61.46314,15.59361],[-61.46137,15.59901],[-61.46625,15.62145],[-61.45908,15.63814],[-61.45431,15.63768]]]]}}]}