{"type":"FeatureCollection","features":[{"type":"Feature","properties":{"ISO_A3":"DNK","WB_A3":"DNK","WB_NAME":"Denmark","WB_REGION":"ECS"},"geometry":{"type":"MultiPolygon","coordinates":[[[[15.1907,55.31695],[15.18352,55.31901],[15.18668,55.32285],[15.19162,55.32284],[15.1907,55.31695]]],[[[14.71067,55.2197],[14.72331,55.23791],[14.75004,55.26383],[14.75468,55.2746],[14.75146,55.28663],[14.77137,55.29832],[14.77721,55.29718],[14.7786,55.28924],[14.80581,55.277],[14.81663,55.26395],[14.81642,55.25986],[14.82498,55.25231],[14.87526,55.23739],[14.88424,55.22818],[14.91831,55.22014],[14.93534,55.21106],[14.94654,55.20914],[14.96893,55.21491],[14.97655,55.21133],[14.98842,55.19443],[15.01998,55.17676],[15.04235,55.17163],[15.05978,55.16061],[15.08794,55.1506],[15.11743,55.14315],[15.13756,55.1439],[15.13978,55.13928],[15.1447,55.14082],[15.14557,55.13389],[15.15406,55.13312],[15.15314,55.12595],[15.15581,55.12339],[15.14708,55.11981],[15.14369,55.10778],[15.1486,55.10752],[15.14568,55.1042],[15.14834,55.09753],[15.15524,55.09291],[15.15323,55.08882],[15.15677,55.08241],[15.15116,55.07499],[15.13819,55.06886],[15.13836,55.05708],[15.12476,55.05376],[15.12362,55.04634],[15.10932,55.03764],[15.11443,55.03021],[15.12022,55.02764],[15.11729,55.01894],[15.1204,55.01433],[15.10947,55.0096],[15.08135,54.98734],[14.96375,55.0035],[14.94057,55.01309],[14.92586,55.01424],[14.86204,55.038],[14.84285,55.04207],[14.82947,55.0413],[14.79864,55.05276],[14.77634,55.05222],[14.74415,55.06329],[14.72575,55.07862],[14.70652,55.08241],[14.70157,55.08778],[14.68948,55.09198],[14.69839,55.09494],[14.6966,55.09763],[14.68215,55.09704],[14.68539,55.1026],[14.69942,55.10647],[14.70205,55.11339],[14.69886,55.12184],[14.70641,55.12877],[14.7038,55.14848],[14.70614,55.16463],[14.70098,55.19663],[14.71067,55.2197]]],[[[12.76018,55.60934],[12.75801,55.61571],[12.73885,55.62226],[12.73285,55.63215],[12.73582,55.6395],[12.73422,55.6437],[12.73846,55.65646],[12.74463,55.65952],[12.74212,55.66383],[12.75688,55.66717],[12.76209,55.67124],[12.77276,55.67079],[12.77878,55.66065],[12.78027,55.64224],[12.78383,55.63948],[12.78174,55.63227],[12.78386,55.62284],[12.78797,55.62214],[12.78861,55.61895],[12.78484,55.61747],[12.79503,55.60933],[12.76629,55.60535],[12.76018,55.60934]]],[[[12.77632,55.58824],[12.75756,55.59187],[12.72624,55.60948],[12.74359,55.60673],[12.77632,55.58824]]],[[[12.54905,55.97693],[12.52717,55.94198],[12.5269,55.9357],[12.52264,55.93446],[12.5176,55.92053],[12.5425,55.88747],[12.5478,55.88654],[12.54895,55.88273],[12.5458,55.88215],[12.54914,55.87607],[12.5701,55.85062],[12.57426,55.84967],[12.57239,55.84682],[12.57734,55.81105],[12.58687,55.80407],[12.59557,55.78836],[12.59229,55.77523],[12.60139,55.75918],[12.58423,55.74023],[12.58177,55.72866],[12.58508,55.72654],[12.58384,55.71717],[12.59381,55.71736],[12.60067,55.72032],[12.60332,55.72511],[12.62314,55.7164],[12.61133,55.709],[12.59779,55.71155],[12.60084,55.70636],[12.59227,55.70581],[12.6003,55.68931],[12.59481,55.67909],[12.56273,55.6627],[12.56572,55.66199],[12.54969,55.64179],[12.55363,55.64151],[12.56999,55.66259],[12.5795,55.66995],[12.5958,55.6777],[12.60558,55.68455],[12.6052,55.6871],[12.61037,55.68772],[12.6068,55.69047],[12.61183,55.69735],[12.62999,55.69706],[12.63038,55.69425],[12.62549,55.69262],[12.62867,55.68525],[12.62127,55.67999],[12.63022,55.67068],[12.63309,55.67202],[12.62509,55.68057],[12.63618,55.68463],[12.63828,55.67992],[12.63459,55.67717],[12.63941,55.67624],[12.641,55.67243],[12.63146,55.66891],[12.64207,55.65093],[12.65661,55.63866],[12.65508,55.63402],[12.67691,55.63238],[12.68145,55.62837],[12.68028,55.6099],[12.66972,55.60484],[12.67416,55.59467],[12.67989,55.5935],[12.66806,55.58316],[12.63317,55.5766],[12.61848,55.56568],[12.59648,55.55565],[12.57014,55.55769],[12.55911,55.56426],[12.55535,55.57405],[12.53895,55.57217],[12.52854,55.57594],[12.51202,55.59405],[12.50889,55.60782],[12.51173,55.61345],[12.54143,55.63384],[12.54129,55.63589],[12.53093,55.63158],[12.53115,55.63517],[12.5195,55.63686],[12.50724,55.63528],[12.5026,55.62486],[12.49719,55.62449],[12.49437,55.61905],[12.50457,55.61388],[12.50219,55.60999],[12.4963,55.60987],[12.49105,55.60016],[12.44736,55.60399],[12.43417,55.61204],[12.38539,55.61195],[12.39612,55.60561],[12.3761,55.59711],[12.3004,55.57612],[12.26277,55.558],[12.23442,55.53686],[12.19494,55.46961],[12.19507,55.46141],[12.19869,55.46124],[12.19918,55.45741],[12.19383,55.45344],[12.20128,55.44056],[12.21596,55.42727],[12.22478,55.42365],[12.30157,55.40066],[12.36484,55.39704],[12.40097,55.37476],[12.41664,55.36894],[12.42538,55.35913],[12.44501,55.3475],[12.44821,55.33271],[12.45517,55.32927],[12.44839,55.32298],[12.44521,55.30959],[12.44814,55.29889],[12.45499,55.29366],[12.45488,55.28828],[12.44378,55.27586],[12.43142,55.27267],[12.4143,55.26001],[12.39654,55.25374],[12.38501,55.25516],[12.36593,55.25206],[12.354,55.23579],[12.26043,55.24038],[12.15923,55.21334],[12.13912,55.19366],[12.11353,55.18229],[12.10764,55.17395],[12.10641,55.16624],[12.11232,55.14024],[12.0978,55.13388],[12.0784,55.1361],[12.08487,55.15471],[12.08522,55.16522],[12.09528,55.17162],[12.09598,55.17419],[12.0911,55.17676],[12.06477,55.17562],[12.04318,55.171],[12.02195,55.16138],[12.01106,55.14549],[12.03369,55.14194],[12.03984,55.1344],[12.0337,55.12657],[12.03467,55.12275],[12.05012,55.12543],[12.04834,55.12231],[12.05499,55.12004],[12.06072,55.12107],[12.0646,55.12911],[12.08063,55.13014],[12.09003,55.1269],[12.08736,55.12363],[12.10129,55.12268],[12.10199,55.12539],[12.11193,55.12396],[12.12758,55.12702],[12.12572,55.13121],[12.16373,55.1248],[12.18373,55.11066],[12.17991,55.1048],[12.17228,55.10194],[12.17002,55.08651],[12.15383,55.0755],[12.14955,55.07912],[12.13195,55.08165],[12.12279,55.07861],[12.12132,55.08358],[12.11168,55.08412],[12.10958,55.08855],[12.10059,55.08923],[12.10181,55.08465],[12.11664,55.08346],[12.11946,55.07841],[12.11727,55.07463],[12.12536,55.07393],[12.12177,55.06796],[12.12371,55.05955],[12.1305,55.0551],[12.12695,55.04861],[12.14419,55.04466],[12.13949,55.03865],[12.17119,55.00352],[12.16906,54.99579],[12.12079,54.99453],[12.11036,54.99095],[12.10159,54.98267],[12.09453,54.98173],[12.07673,54.96926],[12.05274,54.96228],[12.0333,54.96202],[12.0032,54.96752],[11.99628,54.96027],[12.001,54.96762],[11.96157,54.98563],[11.95455,54.99618],[11.91216,55.00476],[11.91909,54.99883],[11.91772,54.9954],[11.8954,54.99478],[11.88476,55.00182],[11.86418,55.00705],[11.85106,55.01684],[11.82969,55.02362],[11.81014,55.03752],[11.76592,55.04968],[11.72837,55.05527],[11.69988,55.06295],[11.67995,55.07197],[11.65772,55.07348],[11.62038,55.08288],[11.73741,55.06339],[11.74638,55.06409],[11.8003,55.04992],[11.81762,55.04234],[11.82873,55.0417],[11.83291,55.04724],[11.83002,55.05371],[11.81147,55.06593],[11.80878,55.07214],[11.77286,55.08539],[11.76839,55.08537],[11.7706,55.07865],[11.77954,55.07657],[11.77836,55.07463],[11.76062,55.07632],[11.75015,55.08322],[11.7502,55.09039],[11.74127,55.09379],[11.72007,55.11387],[11.71989,55.12438],[11.72304,55.12789],[11.73032,55.12645],[11.72741,55.11985],[11.74938,55.12077],[11.75814,55.11814],[11.76529,55.12131],[11.76779,55.12842],[11.78283,55.13256],[11.80804,55.12853],[11.81652,55.13058],[11.81805,55.13419],[11.81106,55.14921],[11.80039,55.15022],[11.79594,55.15366],[11.78693,55.15284],[11.78289,55.14627],[11.77277,55.14868],[11.77145,55.15217],[11.77477,55.15491],[11.77198,55.15664],[11.75431,55.15345],[11.74108,55.15619],[11.73544,55.15234],[11.71625,55.15623],[11.71327,55.1586],[11.71438,55.16831],[11.74314,55.17971],[11.73711,55.18318],[11.72318,55.18246],[11.74157,55.19601],[11.72007,55.20585],[11.6936,55.20861],[11.67154,55.20026],[11.67041,55.1967],[11.65462,55.18833],[11.65591,55.18087],[11.65346,55.1776],[11.65892,55.17222],[11.66471,55.17171],[11.67327,55.17934],[11.67908,55.17909],[11.67679,55.16838],[11.68011,55.16113],[11.6946,55.15697],[11.6969,55.15128],[11.71018,55.14919],[11.71227,55.14056],[11.67783,55.16054],[11.66183,55.16217],[11.64577,55.17635],[11.59517,55.19],[11.54904,55.18994],[11.5315,55.19569],[11.50306,55.19935],[11.45796,55.18695],[11.43996,55.18552],[11.40085,55.19039],[11.38955,55.18856],[11.39536,55.19588],[11.41638,55.19175],[11.41617,55.20303],[11.41345,55.20615],[11.39678,55.20828],[11.37895,55.19851],[11.37039,55.19765],[11.36504,55.19814],[11.35377,55.20835],[11.34081,55.20501],[11.341,55.20065],[11.33671,55.19996],[11.3305,55.20879],[11.31827,55.21031],[11.31265,55.19837],[11.31822,55.19404],[11.33349,55.19477],[11.332,55.19224],[11.31108,55.19443],[11.29484,55.19243],[11.28579,55.19862],[11.2577,55.20081],[11.24423,55.20811],[11.24795,55.2106],[11.23739,55.21797],[11.23958,55.221],[11.25083,55.22182],[11.23393,55.24416],[11.23875,55.24625],[11.24804,55.2439],[11.24693,55.2402],[11.27101,55.23784],[11.27395,55.23445],[11.28095,55.23535],[11.28074,55.23945],[11.28881,55.24724],[11.28903,55.25108],[11.28393,55.25207],[11.27421,55.24687],[11.26975,55.2394],[11.26503,55.23923],[11.25806,55.24666],[11.24502,55.246],[11.2401,55.25019],[11.24507,55.25881],[11.23691,55.27331],[11.23451,55.28642],[11.20222,55.29904],[11.17385,55.30583],[11.15652,55.31753],[11.12832,55.32776],[11.13723,55.33452],[11.13926,55.33064],[11.183,55.32513],[11.18891,55.32644],[11.19007,55.33128],[11.20377,55.33513],[11.20755,55.34249],[11.17872,55.35364],[11.16435,55.3539],[11.15697,55.35057],[11.15751,55.3439],[11.16343,55.33714],[11.14064,55.33113],[11.13817,55.3354],[11.12388,55.33706],[11.11025,55.34703],[11.09524,55.34793],[11.09385,55.35141],[11.11071,55.36828],[11.12625,55.36456],[11.15298,55.36819],[11.17607,55.37905],[11.20234,55.38229],[11.21507,55.39667],[11.21401,55.40181],[11.1951,55.41803],[11.20204,55.43353],[11.20314,55.44914],[11.17756,55.47572],[11.17786,55.4893],[11.17076,55.49967],[11.15069,55.50822],[11.14136,55.51504],[11.1366,55.52307],[11.12058,55.53154],[11.11523,55.52446],[11.12208,55.52178],[11.11159,55.51133],[11.09844,55.51028],[11.08061,55.51455],[11.08812,55.53261],[11.11384,55.5364],[11.13727,55.53548],[11.14774,55.54106],[11.15765,55.55702],[11.15799,55.56316],[11.14976,55.58636],[11.12732,55.61467],[11.10816,55.62435],[11.04107,55.64867],[11.00875,55.65445],[10.94349,55.65871],[10.9333,55.66322],[10.93172,55.66811],[10.93628,55.67317],[10.94264,55.67345],[10.97766,55.66687],[10.99952,55.66895],[11.07073,55.66149],[11.07815,55.6647],[11.09577,55.66363],[11.09639,55.66669],[11.08973,55.66937],[11.09035,55.67243],[11.10311,55.67375],[11.07626,55.68023],[11.07001,55.6779],[11.07459,55.67449],[11.07334,55.67221],[11.06053,55.68293],[11.02411,55.69762],[10.99462,55.72397],[10.96901,55.72912],[10.91671,55.72713],[10.88575,55.73453],[10.87299,55.74292],[10.89935,55.74354],[10.93008,55.74972],[10.95687,55.74955],[10.98442,55.74655],[11.04493,55.73147],[11.08373,55.73543],[11.12729,55.75184],[11.1469,55.75317],[11.15538,55.75058],[11.17785,55.75441],[11.18907,55.73577],[11.19701,55.73166],[11.21247,55.73202],[11.21921,55.73882],[11.21548,55.74119],[11.21645,55.7463],[11.22378,55.74744],[11.23022,55.74092],[11.2523,55.73002],[11.2673,55.73038],[11.2848,55.73864],[11.29157,55.74569],[11.29134,55.75325],[11.29706,55.75404],[11.29861,55.74555],[11.30562,55.74517],[11.30523,55.75004],[11.30953,55.75367],[11.34094,55.75474],[11.3706,55.76826],[11.37475,55.77305],[11.37458,55.77767],[11.38218,55.78674],[11.37578,55.79737],[11.37706,55.82219],[11.37026,55.83743],[11.35718,55.84332],[11.36048,55.84505],[11.37431,55.84043],[11.3763,55.83578],[11.39463,55.83043],[11.4462,55.84709],[11.46996,55.84841],[11.48526,55.84554],[11.50301,55.85248],[11.52071,55.87261],[11.52466,55.8879],[11.52578,55.91913],[11.51962,55.92976],[11.46898,55.94769],[11.37935,55.95266],[11.33335,55.96968],[11.2969,55.9751],[11.28914,55.98293],[11.28492,55.99658],[11.27689,56.00774],[11.27864,56.01027],[11.30031,55.99015],[11.38478,55.96664],[11.41917,55.96162],[11.48166,55.96037],[11.52215,55.9511],[11.59225,55.96155],[11.60987,55.94517],[11.63498,55.93849],[11.69999,55.94784],[11.7191,55.95344],[11.7386,55.96454],[11.77768,55.97691],[11.79156,55.9555],[11.79172,55.94807],[11.78834,55.9476],[11.78838,55.9526],[11.77919,55.95325],[11.76672,55.94396],[11.75639,55.94189],[11.74861,55.92311],[11.75263,55.90502],[11.73314,55.89823],[11.71058,55.90342],[11.71033,55.9129],[11.71483,55.91536],[11.71027,55.91854],[11.68972,55.91169],[11.67303,55.91436],[11.66552,55.89467],[11.66884,55.87999],[11.69472,55.872],[11.72543,55.84358],[11.73223,55.83581],[11.73553,55.8236],[11.7323,55.81865],[11.71541,55.80577],[11.71047,55.81038],[11.66276,55.81774],[11.64842,55.80768],[11.65503,55.80446],[11.64854,55.80268],[11.64516,55.79315],[11.61068,55.78415],[11.60969,55.77956],[11.63143,55.77154],[11.65366,55.77259],[11.67682,55.77821],[11.68399,55.78468],[11.69755,55.78569],[11.70215,55.79043],[11.71807,55.79047],[11.73212,55.79648],[11.73657,55.79493],[11.74475,55.78951],[11.74788,55.77653],[11.76122,55.76637],[11.75455,55.76197],[11.75011,55.76608],[11.75208,55.76972],[11.74059,55.76583],[11.74719,55.75755],[11.77014,55.752],[11.77012,55.74406],[11.71863,55.73514],[11.65796,55.73299],[11.65243,55.73117],[11.65776,55.72465],[11.65422,55.72353],[11.65635,55.71987],[11.6632,55.71942],[11.66256,55.71633],[11.66764,55.71531],[11.71202,55.72189],[11.73852,55.71991],[11.75739,55.7222],[11.75848,55.72556],[11.7671,55.72015],[11.77421,55.72469],[11.77143,55.72821],[11.76456,55.72892],[11.76343,55.73159],[11.76696,55.73283],[11.78029,55.72537],[11.79246,55.71262],[11.79122,55.70003],[11.80324,55.69727],[11.80722,55.69302],[11.80491,55.67681],[11.80813,55.67344],[11.81532,55.67427],[11.82891,55.68282],[11.82681,55.68635],[11.83177,55.69237],[11.83103,55.68185],[11.83683,55.68302],[11.83679,55.69763],[11.84351,55.71266],[11.85616,55.73041],[11.87311,55.73417],[11.87466,55.73741],[11.85688,55.73555],[11.85451,55.74241],[11.85601,55.75193],[11.84998,55.75075],[11.84829,55.7548],[11.85492,55.75702],[11.859,55.76277],[11.85764,55.77119],[11.86164,55.77795],[11.86406,55.79595],[11.87807,55.79989],[11.88043,55.80456],[11.87705,55.81268],[11.91311,55.81986],[11.9216,55.81611],[11.93425,55.81719],[11.9353,55.82119],[11.94343,55.82203],[11.95863,55.84598],[11.95953,55.85189],[11.95527,55.85973],[11.94367,55.8711],[11.93586,55.87193],[11.92886,55.87983],[11.93091,55.89141],[11.90366,55.91584],[11.90122,55.92064],[11.90674,55.93154],[11.90593,55.93588],[11.96464,55.9294],[11.98507,55.91312],[12.00585,55.91472],[12.02333,55.90784],[12.02714,55.90006],[12.00112,55.88034],[11.99958,55.87519],[12.00227,55.87273],[11.99778,55.8637],[12.00358,55.85824],[12.02853,55.85185],[12.03394,55.8418],[12.04237,55.84367],[12.04573,55.8563],[12.04898,55.85856],[12.06454,55.8606],[12.06417,55.87898],[12.05537,55.88548],[12.04605,55.90012],[12.04591,55.91911],[12.0225,55.94624],[12.01822,55.95869],[12.01107,55.95879],[12.01564,55.96131],[11.99842,55.96174],[11.99731,55.96722],[11.99019,55.96474],[11.9759,55.96644],[11.94827,55.95769],[11.93429,55.94965],[11.88655,55.94141],[11.87014,55.94394],[11.86583,55.94076],[11.85315,55.94504],[11.85116,55.9555],[11.84206,55.96628],[11.84855,55.96799],[11.85232,55.975],[11.85759,55.97757],[11.90268,55.99088],[11.92381,56.00115],[11.99687,56.02588],[12.05941,56.05775],[12.18026,56.10835],[12.28977,56.12873],[12.30812,56.12862],[12.31391,56.12452],[12.33255,56.12031],[12.3505,56.11942],[12.38708,56.1006],[12.40917,56.09927],[12.43802,56.0927],[12.45623,56.09463],[12.50141,56.09054],[12.54201,56.07881],[12.60557,56.04368],[12.62365,56.03994],[12.6225,56.03633],[12.6161,56.0362],[12.61566,56.0321],[12.6075,56.02733],[12.59744,56.01253],[12.56596,55.9968],[12.54905,55.97693]]],[[[11.54791,54.82863],[11.55463,54.82884],[11.56274,54.82368],[11.58953,54.82631],[11.61614,54.81229],[11.59398,54.82647],[11.59352,54.82968],[11.5758,54.83365],[11.56916,54.84096],[11.5637,54.84236],[11.56128,54.84625],[11.5641,54.85209],[11.5743,54.85187],[11.58307,54.85719],[11.61093,54.8484],[11.62984,54.85247],[11.63638,54.85745],[11.65153,54.85815],[11.65125,54.86405],[11.64377,54.86857],[11.64249,54.87269],[11.64827,54.8864],[11.64718,54.89001],[11.63621,54.89896],[11.63799,54.90251],[11.66013,54.901],[11.70775,54.87523],[11.71909,54.87215],[11.74412,54.87428],[11.73787,54.85751],[11.74971,54.83905],[11.77937,54.83133],[11.78963,54.83199],[11.78715,54.82513],[11.78058,54.8199],[11.78032,54.80966],[11.78634,54.80363],[11.79844,54.79899],[11.79984,54.79358],[11.81914,54.79057],[11.83648,54.77864],[11.85248,54.77288],[11.85662,54.76868],[11.85847,54.75724],[11.86837,54.75944],[11.85945,54.77118],[11.8623,54.77393],[11.84835,54.78348],[11.8368,54.78632],[11.83108,54.79644],[11.81175,54.79907],[11.79699,54.80697],[11.7946,54.81087],[11.807,54.81699],[11.81438,54.82732],[11.81363,54.83246],[11.80435,54.83627],[11.80701,54.84261],[11.80306,54.84654],[11.78268,54.85355],[11.75614,54.85518],[11.75673,54.86375],[11.75008,54.87056],[11.75682,54.88142],[11.74664,54.88524],[11.74049,54.89614],[11.75489,54.9117],[11.75613,54.9168],[11.74608,54.92932],[11.70743,54.93006],[11.70595,54.93458],[11.72038,54.94399],[11.73578,54.94134],[11.74018,54.94714],[11.73076,54.9494],[11.7433,54.96026],[11.7727,54.96049],[11.79646,54.94355],[11.80083,54.93602],[11.81456,54.93826],[11.81875,54.94406],[11.82273,54.94371],[11.82858,54.96048],[11.823,54.96343],[11.82307,54.96753],[11.83013,54.9666],[11.83855,54.95974],[11.86779,54.95137],[11.89564,54.97658],[11.87461,54.99399],[11.88356,54.9975],[11.89074,54.99515],[11.89851,54.97933],[11.8679,54.94983],[11.87768,54.94345],[11.87315,54.9392],[11.88907,54.93164],[11.8871,54.9258],[11.89057,54.92149],[11.91819,54.91583],[11.91846,54.92274],[11.92435,54.92414],[11.92434,54.93926],[11.93165,54.93575],[11.96702,54.93873],[11.98276,54.94894],[11.98419,54.9542],[11.99588,54.95974],[11.99392,54.9572],[11.99774,54.95387],[11.99714,54.94568],[12.00931,54.93373],[12.01941,54.93234],[12.03188,54.93824],[12.0651,54.93987],[12.08546,54.92806],[12.0869,54.92076],[12.07878,54.91042],[12.10497,54.90485],[12.12249,54.9086],[12.11618,54.91588],[12.10991,54.9165],[12.11899,54.9326],[12.1464,54.94145],[12.12489,54.94966],[12.12119,54.95789],[12.14647,54.96554],[12.14494,54.96832],[12.16341,54.97157],[12.1824,54.96766],[12.18329,54.97075],[12.16999,54.9794],[12.16802,54.98526],[12.19342,54.982],[12.20171,54.97809],[12.20609,54.96641],[12.23004,54.97426],[12.25517,54.97803],[12.26068,54.98213],[12.27753,54.9834],[12.28439,54.98074],[12.27514,54.97259],[12.27256,54.96459],[12.2674,54.96191],[12.27238,54.96074],[12.29038,54.96448],[12.31171,54.97853],[12.35319,54.98456],[12.3499,54.98718],[12.31447,54.98384],[12.29891,54.99003],[12.29777,54.98706],[12.28345,54.98149],[12.27053,54.99785],[12.28664,55.01666],[12.28036,55.01729],[12.27377,55.0256],[12.25412,55.03912],[12.23779,55.03644],[12.23251,55.04183],[12.23516,55.04881],[12.25282,55.05484],[12.2589,55.06049],[12.27217,55.05579],[12.28125,55.04037],[12.28829,55.03514],[12.31379,55.02738],[12.46262,55.02238],[12.52105,55.00783],[12.54704,54.97992],[12.55259,54.96568],[12.552,54.95696],[12.54302,54.9473],[12.52545,54.94348],[12.50856,54.94314],[12.44346,54.95908],[12.39548,54.96434],[12.3581,54.96404],[12.33919,54.9603],[12.28496,54.93925],[12.2429,54.91011],[12.23102,54.89524],[12.21099,54.88274],[12.18066,54.87806],[12.14315,54.88052],[12.12541,54.8956],[12.12494,54.89917],[12.14298,54.89551],[12.14213,54.90125],[12.10784,54.90198],[12.00671,54.91991],[11.99645,54.92751],[11.99398,54.9332],[11.99863,54.9418],[11.986,54.94865],[11.9718,54.94109],[11.96875,54.93805],[11.98045,54.93379],[11.97998,54.91843],[11.98996,54.89999],[12.00018,54.89562],[12.03232,54.89115],[12.04746,54.89182],[12.05793,54.88861],[12.07433,54.89328],[12.12064,54.88674],[12.12424,54.87137],[12.15636,54.84728],[12.16605,54.83441],[12.16065,54.82859],[12.13255,54.82098],[12.12729,54.80824],[12.11381,54.79811],[12.08823,54.79122],[12.06823,54.779],[12.05308,54.76432],[12.04316,54.75895],[12.02537,54.73142],[12.01502,54.72165],[11.99123,54.71009],[11.97326,54.69439],[11.96218,54.6698],[11.96082,54.65113],[11.97366,54.57881],[11.97112,54.55914],[11.91819,54.57427],[11.92226,54.58801],[11.91427,54.60588],[11.87289,54.64505],[11.86641,54.65648],[11.87749,54.67876],[11.87847,54.6895],[11.90004,54.70359],[11.91077,54.71743],[11.87089,54.7262],[11.86922,54.73072],[11.87476,54.73392],[11.87552,54.74159],[11.88427,54.74625],[11.87051,54.75836],[11.85816,54.75609],[11.86549,54.74695],[11.86518,54.7362],[11.847,54.7265],[11.83325,54.72606],[11.82085,54.73237],[11.81568,54.72173],[11.82285,54.71977],[11.80996,54.71584],[11.80726,54.71193],[11.81773,54.70656],[11.81579,54.70404],[11.83213,54.69739],[11.8537,54.69573],[11.85915,54.6915],[11.85868,54.68485],[11.84086,54.68296],[11.83891,54.68044],[11.85226,54.67526],[11.83928,54.66993],[11.84585,54.6658],[11.82791,54.66212],[11.82362,54.65761],[11.83364,54.65238],[11.83016,54.6499],[11.81831,54.65107],[11.81827,54.64736],[11.80902,54.64783],[11.80137,54.6425],[11.78501,54.64877],[11.73611,54.65104],[11.72834,54.65365],[11.73388,54.65724],[11.72692,54.66547],[11.72106,54.6638],[11.72035,54.65985],[11.72368,54.6567],[11.71055,54.652],[11.70445,54.65995],[11.69058,54.6641],[11.67009,54.66161],[11.66491,54.66698],[11.66038,54.66195],[11.6629,54.65985],[11.64906,54.65771],[11.63919,54.66229],[11.60717,54.65926],[11.58895,54.66452],[11.58301,54.66158],[11.59035,54.65886],[11.58137,54.65661],[11.56107,54.65902],[11.56009,54.6554],[11.56781,54.65178],[11.55009,54.651],[11.55043,54.64587],[11.5432,54.63974],[11.52192,54.63852],[11.51995,54.63523],[11.49654,54.63521],[11.46154,54.61146],[11.46226,54.60875],[11.48784,54.60118],[11.49073,54.59792],[11.50182,54.59897],[11.50828,54.59628],[11.5046,54.59392],[11.44666,54.61355],[11.40268,54.63506],[11.3504,54.65133],[11.34952,54.65532],[11.34375,54.65491],[11.32638,54.66409],[11.29733,54.68578],[11.25179,54.70585],[11.22672,54.70849],[11.19981,54.71808],[11.12372,54.73557],[11.05875,54.74643],[11.00356,54.76324],[10.96255,54.80387],[10.95641,54.81447],[10.95455,54.8309],[10.95854,54.83544],[10.96748,54.83684],[10.97042,54.83333],[10.96339,54.83472],[10.96233,54.83128],[10.96798,54.82889],[10.96824,54.82504],[10.9621,54.82655],[10.95796,54.82341],[10.95783,54.81624],[10.96203,54.8067],[10.97563,54.79456],[10.98558,54.79875],[10.99927,54.79763],[11.01328,54.80739],[11.00714,54.81313],[10.98838,54.81959],[11.00083,54.82015],[11.00992,54.81565],[11.02411,54.81541],[11.02917,54.8102],[11.04135,54.81],[11.04455,54.79867],[11.07074,54.79925],[11.07958,54.8073],[11.06728,54.81391],[11.06757,54.81955],[11.07961,54.81652],[11.08465,54.81093],[11.09267,54.81169],[11.09939,54.82143],[11.11241,54.82441],[11.10963,54.83061],[11.12827,54.83079],[11.10451,54.83466],[11.08991,54.8312],[11.08831,54.83456],[11.07968,54.83509],[11.07854,54.84754],[11.06922,54.84757],[11.067,54.85619],[11.05558,54.86304],[11.06117,54.86807],[11.04491,54.86719],[11.04553,54.875],[11.04226,54.8762],[11.03439,54.86993],[11.02822,54.87093],[11.03194,54.87855],[11.02965,54.88167],[11.02434,54.87766],[11.01756,54.87982],[11.01531,54.88805],[11.02743,54.9127],[11.06,54.92778],[11.06985,54.93786],[11.08743,54.94217],[11.08953,54.9397],[11.09718,54.94136],[11.12028,54.93648],[11.11131,54.94355],[11.11581,54.94872],[11.12983,54.94451],[11.12975,54.95143],[11.14365,54.94913],[11.15623,54.95557],[11.16731,54.9546],[11.17739,54.95993],[11.26446,54.95655],[11.28391,54.95016],[11.30457,54.93799],[11.31694,54.92469],[11.34609,54.92118],[11.3597,54.91439],[11.36409,54.89432],[11.38255,54.88333],[11.39731,54.87753],[11.41057,54.87624],[11.42089,54.87053],[11.43064,54.8702],[11.42645,54.86337],[11.43318,54.86067],[11.44768,54.86551],[11.46438,54.86261],[11.46922,54.85815],[11.46396,54.84468],[11.46656,54.84002],[11.48801,54.83762],[11.49249,54.83231],[11.54791,54.82863]]],[[[12.27684,55.06589],[12.2659,55.07564],[12.27499,55.07353],[12.27684,55.06589]]],[[[12.21571,55.03325],[12.19829,55.03989],[12.19029,55.03945],[12.18085,55.04679],[12.19551,55.04777],[12.21001,55.05746],[12.23659,55.06036],[12.22014,55.03373],[12.21571,55.03325]]],[[[12.10314,54.96733],[12.10107,54.97138],[12.11493,54.97991],[12.11151,54.98418],[12.1155,54.98761],[12.13006,54.98642],[12.11692,54.97714],[12.1171,54.97151],[12.10946,54.97248],[12.10314,54.96733]]],[[[12.10867,55.12581],[12.09729,55.12848],[12.09802,55.13081],[12.12136,55.12957],[12.10981,55.12853],[12.10867,55.12581]]],[[[12.07702,54.94685],[12.06098,54.95312],[12.09164,54.96014],[12.10414,54.95967],[12.09642,54.95257],[12.07553,54.94899],[12.07702,54.94685]]],[[[12.0693,55.13217],[12.05987,55.13271],[12.06371,55.13537],[12.0693,55.13217]]],[[[12.01333,55.87192],[12.00598,55.87866],[12.01128,55.87776],[12.01333,55.87192]]],[[[11.86743,54.72103],[11.85492,54.7258],[11.86462,54.72519],[11.86743,54.72103]]],[[[11.81551,55.74999],[11.78711,55.76385],[11.7754,55.77905],[11.77604,55.78239],[11.78123,55.78561],[11.79079,55.78547],[11.79919,55.79205],[11.80678,55.78448],[11.81866,55.78376],[11.82651,55.79908],[11.82135,55.80664],[11.82939,55.80838],[11.84029,55.79739],[11.84779,55.78067],[11.83425,55.76264],[11.83361,55.75648],[11.81551,55.74999]]],[[[11.8185,55.73559],[11.81059,55.73794],[11.81388,55.74213],[11.8185,55.73559]]],[[[11.69377,55.17133],[11.68736,55.17583],[11.69152,55.17779],[11.68924,55.1804],[11.69457,55.18976],[11.70135,55.19397],[11.70163,55.20139],[11.73231,55.19481],[11.72126,55.18379],[11.71752,55.1717],[11.7043,55.17469],[11.69377,55.17133]]],[[[11.71605,55.12369],[11.71304,55.13862],[11.71761,55.14672],[11.72297,55.1466],[11.72027,55.14307],[11.72834,55.13674],[11.71605,55.12369]]],[[[11.71574,56.19201],[11.7007,56.19375],[11.69544,56.19733],[11.69699,56.19972],[11.71501,56.19792],[11.71574,56.19201]]],[[[11.68054,55.18751],[11.67656,55.18836],[11.68039,55.19199],[11.68852,55.18964],[11.68054,55.18751]]],[[[11.54745,56.68728],[11.53187,56.69438],[11.52255,56.70815],[11.51171,56.71669],[11.52522,56.72372],[11.53658,56.72643],[11.56989,56.72293],[11.64964,56.7374],[11.65882,56.73528],[11.61535,56.71674],[11.58024,56.69045],[11.54745,56.68728]]],[[[11.53851,54.94665],[11.52599,54.95639],[11.51627,54.97171],[11.49822,54.97874],[11.49851,54.98335],[11.51772,54.99128],[11.54476,54.98918],[11.55562,54.98472],[11.56761,54.97371],[11.54264,54.95553],[11.53851,54.94665]]],[[[11.48348,54.88425],[11.47809,54.88692],[11.47598,54.89593],[11.48971,54.89873],[11.49036,54.90217],[11.50234,54.89462],[11.5172,54.89047],[11.51937,54.88607],[11.50644,54.88903],[11.48348,54.88425]]],[[[11.50939,54.62162],[11.50243,54.6233],[11.51182,54.62515],[11.51251,54.62207],[11.50939,54.62162]]],[[[11.48122,54.9053],[11.47262,54.91009],[11.47279,54.91291],[11.50482,54.91302],[11.4891,54.91052],[11.48122,54.9053]]],[[[11.40212,54.92098],[11.37319,54.93564],[11.36397,54.94915],[11.37713,54.94966],[11.38102,54.95534],[11.39687,54.95234],[11.40458,54.94732],[11.40933,54.94851],[11.40904,54.96594],[11.41295,54.96817],[11.42686,54.96238],[11.44748,54.96478],[11.45537,54.9627],[11.4712,54.94855],[11.4693,54.94295],[11.43334,54.94445],[11.40212,54.92098]]],[[[11.34758,55.02312],[11.34403,55.02331],[11.3435,55.02947],[11.36503,55.03917],[11.37439,55.03912],[11.3753,55.03552],[11.35619,55.02923],[11.34758,55.02312]]],[[[11.3668,54.95562],[11.35466,54.95752],[11.35016,54.96811],[11.35818,54.96809],[11.36742,54.9624],[11.3668,54.95562]]],[[[11.31059,54.96144],[11.30487,54.96258],[11.30221,54.97057],[11.3125,54.9714],[11.3183,54.9677],[11.31059,54.96144]]],[[[11.307,55.76461],[11.29364,55.76921],[11.28002,55.78509],[11.28197,55.79505],[11.29363,55.79227],[11.29504,55.78917],[11.29085,55.78361],[11.30362,55.77671],[11.30247,55.76879],[11.307,55.76461]]],[[[11.29455,54.96905],[11.29058,54.96964],[11.29212,54.97319],[11.29834,54.97295],[11.29455,54.96905]]],[[[11.21714,55.85438],[11.20524,55.86138],[11.16238,55.8688],[11.14044,55.87981],[11.13445,55.88001],[11.11472,55.89704],[11.08679,55.90328],[11.07884,55.91238],[11.07941,55.91877],[11.11709,55.91121],[11.11775,55.90659],[11.12281,55.9033],[11.14526,55.89702],[11.19873,55.867],[11.21358,55.86392],[11.21714,55.85438]]],[[[11.21105,55.18335],[11.17448,55.19835],[11.17045,55.23121],[11.17504,55.24138],[11.16954,55.24737],[11.17081,55.25016],[11.18672,55.24578],[11.18995,55.23932],[11.17911,55.23798],[11.17845,55.23124],[11.19621,55.21871],[11.19749,55.20947],[11.20666,55.19701],[11.19779,55.19461],[11.19852,55.19152],[11.20682,55.18778],[11.2132,55.18984],[11.21608,55.18531],[11.21105,55.18335]]],[[[10.88795,57.27048],[10.90102,57.27643],[10.9301,57.29903],[11.00852,57.30561],[11.02047,57.31221],[11.02186,57.31603],[11.03005,57.31859],[11.1105,57.31829],[11.13292,57.32136],[11.14656,57.32792],[11.17046,57.32367],[11.19837,57.32331],[11.20036,57.32097],[11.19607,57.30466],[11.19767,57.29182],[11.19398,57.28549],[11.19083,57.2881],[11.19444,57.29316],[11.19309,57.29831],[11.18237,57.30105],[11.18674,57.30687],[11.18518,57.30856],[11.17178,57.302],[11.17401,57.29966],[11.17084,57.29805],[11.15018,57.30071],[11.10977,57.2973],[11.08043,57.28882],[11.07404,57.28445],[11.07431,57.28086],[11.09125,57.27943],[11.09531,57.2718],[11.08674,57.25402],[11.0712,57.24224],[11.03432,57.24169],[11.06818,57.23896],[11.00612,57.21807],[10.97056,57.21518],[10.97396,57.22153],[10.96795,57.23263],[10.94759,57.23602],[10.94852,57.24036],[10.94282,57.24416],[10.91978,57.24631],[10.91395,57.24307],[10.87571,57.25274],[10.87004,57.25743],[10.87021,57.26537],[10.88795,57.27048]]],[[[11.15049,55.1396],[11.14259,55.1464],[11.13992,55.15516],[11.13323,55.15963],[11.15617,55.17024],[11.16693,55.17057],[11.1775,55.17563],[11.17945,55.16624],[11.16383,55.15884],[11.15049,55.1396]]],[[[11.0726,55.4737],[11.07764,55.47951],[11.07907,55.47667],[11.08822,55.47498],[11.0726,55.4737]]],[[[11.05669,54.83689],[11.05468,54.8409],[11.06175,54.84039],[11.05669,54.83689]]],[[[11.05502,54.84768],[11.04971,54.84803],[11.0533,54.85309],[11.05888,54.85376],[11.05502,54.84768]]],[[[10.99611,57.1989],[10.98809,57.20338],[10.98736,57.20723],[11.00204,57.21263],[11.01281,57.21092],[11.02714,57.21415],[11.03874,57.21051],[11.03928,57.20742],[11.03462,57.20417],[11.00193,57.20188],[10.99611,57.1989]]],[[[11.02031,54.82815],[11.01395,54.83864],[11.01614,54.85141],[11.02141,54.8503],[11.02344,54.84642],[11.021,54.8421],[11.02544,54.84203],[11.02099,54.83749],[11.02031,54.82815]]],[[[10.98078,57.21207],[10.98335,57.216],[10.99184,57.21587],[10.98078,57.21207]]],[[[10.1345,55.1609],[10.1333,55.16586],[10.11993,55.17571],[10.11315,55.18935],[10.10735,55.19004],[10.09998,55.18256],[10.09286,55.1839],[10.08819,55.17703],[10.08234,55.17567],[10.05371,55.17618],[10.01849,55.18147],[10.02063,55.18632],[10.01751,55.19556],[9.99213,55.20141],[9.98983,55.19874],[10.00526,55.18926],[9.99573,55.18396],[9.98463,55.18764],[9.98567,55.17534],[9.99424,55.17834],[9.99165,55.17298],[9.9975,55.16525],[10.01387,55.1582],[10.04382,55.13182],[10.02587,55.12032],[10.00493,55.1228],[9.97835,55.13237],[9.9773,55.13519],[9.98681,55.13998],[9.99101,55.14738],[9.99071,55.15301],[9.98167,55.16743],[9.98496,55.17406],[9.98371,55.18688],[9.98787,55.20119],[9.98095,55.21123],[9.96344,55.21867],[9.9285,55.21868],[9.91826,55.23118],[9.91096,55.23534],[9.88429,55.24514],[9.87753,55.24352],[9.86606,55.25231],[9.87684,55.25313],[9.87722,55.25018],[9.88875,55.24434],[9.89851,55.24977],[9.89772,55.25439],[9.8846,55.25909],[9.88093,55.26552],[9.88145,55.2691],[9.88815,55.26778],[9.89304,55.30564],[9.88709,55.32054],[9.87745,55.33162],[9.8759,55.34265],[9.89303,55.33522],[9.89823,55.33685],[9.89782,55.33948],[9.88196,55.34273],[9.87447,55.34919],[9.82868,55.35207],[9.78621,55.36349],[9.78731,55.37373],[9.8324,55.37932],[9.84134,55.3872],[9.83854,55.39311],[9.83005,55.39598],[9.81811,55.40605],[9.78853,55.41239],[9.7967,55.41554],[9.81733,55.41182],[9.82546,55.41343],[9.82806,55.41905],[9.82523,55.42393],[9.79253,55.43221],[9.74797,55.43377],[9.74104,55.43676],[9.74701,55.44262],[9.74574,55.44723],[9.73347,55.45345],[9.71684,55.46866],[9.71848,55.47173],[9.72364,55.47067],[9.78412,55.43995],[9.81191,55.43285],[9.82478,55.43443],[9.81929,55.44126],[9.80807,55.44338],[9.80328,55.45148],[9.79603,55.44986],[9.77727,55.45792],[9.77618,55.46011],[9.78096,55.46238],[9.79035,55.45835],[9.79064,55.46155],[9.77727,55.46957],[9.75761,55.46714],[9.74195,55.47325],[9.73552,55.47905],[9.7288,55.49331],[9.70197,55.49436],[9.69936,55.4995],[9.68233,55.50625],[9.6775,55.51396],[9.68548,55.51865],[9.6963,55.51808],[9.71916,55.50898],[9.74754,55.50664],[9.75482,55.50967],[9.75722,55.51733],[9.76798,55.52495],[9.76943,55.52981],[9.76884,55.53416],[9.75681,55.54295],[9.78164,55.54241],[9.80668,55.55172],[9.8361,55.55434],[9.84911,55.55003],[9.85234,55.54283],[9.84926,55.52569],[9.86233,55.51459],[9.90328,55.50905],[9.93173,55.50986],[9.949,55.51472],[9.99562,55.53791],[10.02337,55.54562],[10.03631,55.55691],[10.07713,55.56258],[10.075,55.5672],[10.07753,55.56897],[10.11427,55.57351],[10.1169,55.57835],[10.13765,55.57675],[10.17915,55.58891],[10.1927,55.58827],[10.1946,55.59145],[10.18795,55.59587],[10.20141,55.59215],[10.20761,55.59542],[10.20887,55.59963],[10.28472,55.60911],[10.28029,55.60493],[10.28448,55.5949],[10.28054,55.59174],[10.28285,55.58646],[10.28069,55.58264],[10.31374,55.58383],[10.31593,55.58842],[10.30349,55.59521],[10.30188,55.60112],[10.29782,55.60141],[10.30071,55.60676],[10.29834,55.61037],[10.29011,55.61481],[10.29053,55.6207],[10.3096,55.62242],[10.41789,55.58805],[10.45462,55.56636],[10.5378,55.53205],[10.56178,55.51612],[10.55378,55.51341],[10.53764,55.52206],[10.52727,55.53423],[10.50799,55.54356],[10.49136,55.54594],[10.49694,55.53819],[10.49101,55.53672],[10.494,55.53221],[10.48503,55.53385],[10.47204,55.53055],[10.47078,55.52698],[10.48429,55.52016],[10.48463,55.51119],[10.49119,55.50548],[10.50061,55.50408],[10.50433,55.50096],[10.50261,55.4974],[10.49349,55.49482],[10.48478,55.4971],[10.4798,55.49076],[10.48983,55.48756],[10.48797,55.48605],[10.46214,55.48879],[10.45462,55.48671],[10.45581,55.48234],[10.45226,55.4779],[10.44421,55.47966],[10.44283,55.47276],[10.43444,55.46517],[10.42418,55.46196],[10.42453,55.45914],[10.42968,55.45831],[10.43712,55.46463],[10.43643,55.45798],[10.43296,55.45546],[10.43558,55.45312],[10.42562,55.43941],[10.42777,55.43657],[10.43281,55.43894],[10.4449,55.43688],[10.44912,55.44144],[10.45956,55.44349],[10.46794,55.43852],[10.47515,55.43857],[10.49815,55.45109],[10.49616,55.45803],[10.49262,55.45974],[10.48808,55.4589],[10.48885,55.45556],[10.48012,55.4572],[10.49108,55.46091],[10.48289,55.47074],[10.4841,55.47316],[10.52621,55.46586],[10.54102,55.47579],[10.55842,55.47109],[10.55904,55.47518],[10.57351,55.47627],[10.58006,55.48233],[10.60402,55.48356],[10.60923,55.47862],[10.61374,55.47857],[10.62613,55.48941],[10.62433,55.49482],[10.61964,55.49616],[10.62039,55.50332],[10.61577,55.5062],[10.57059,55.51614],[10.56688,55.51939],[10.56825,55.52552],[10.587,55.53155],[10.59644,55.53027],[10.6017,55.52636],[10.60284,55.52123],[10.61307,55.51751],[10.62475,55.51607],[10.6287,55.51884],[10.62786,55.52576],[10.61832,55.52999],[10.62075,55.54507],[10.60551,55.5591],[10.60461,55.57012],[10.59855,55.57686],[10.59834,55.58275],[10.60044,55.58426],[10.61327,55.56642],[10.61734,55.56637],[10.6185,55.56174],[10.62736,55.55727],[10.63182,55.56695],[10.62887,55.57198],[10.62366,55.57166],[10.62357,55.57512],[10.63206,55.57821],[10.62846,55.58953],[10.61929,55.59733],[10.62039,55.60219],[10.61655,55.60787],[10.60428,55.6065],[10.58869,55.61259],[10.5884,55.61644],[10.59337,55.61637],[10.59892,55.61374],[10.59518,55.61071],[10.6001,55.60924],[10.61507,55.6102],[10.61919,55.61706],[10.65197,55.58922],[10.65831,55.57888],[10.67751,55.56249],[10.68168,55.55423],[10.70541,55.53879],[10.70392,55.52524],[10.71024,55.51491],[10.72124,55.50323],[10.73895,55.49529],[10.74938,55.48131],[10.74759,55.4766],[10.72444,55.47309],[10.71146,55.47532],[10.69036,55.46703],[10.67493,55.46468],[10.66581,55.45686],[10.66514,55.45175],[10.65344,55.44666],[10.6473,55.45071],[10.6343,55.45242],[10.63494,55.44601],[10.62683,55.44599],[10.61478,55.44884],[10.60166,55.45875],[10.58195,55.46195],[10.58091,55.45837],[10.55414,55.45398],[10.55845,55.4488],[10.55513,55.44475],[10.54297,55.4449],[10.54418,55.4413],[10.5763,55.42194],[10.58301,55.42646],[10.57476,55.45115],[10.58536,55.45691],[10.5997,55.45493],[10.60564,55.45127],[10.60573,55.44794],[10.64046,55.438],[10.6671,55.44993],[10.67088,55.44348],[10.68818,55.43709],[10.71299,55.41702],[10.72552,55.41531],[10.73034,55.40705],[10.74277,55.39803],[10.76304,55.38814],[10.77101,55.38034],[10.7717,55.37572],[10.79163,55.35878],[10.80846,55.33343],[10.81713,55.31178],[10.84083,55.29977],[10.86002,55.30072],[10.90591,55.31156],[10.94509,55.32493],[10.97254,55.33921],[10.98827,55.33934],[10.97777,55.33593],[10.979,55.33373],[10.97527,55.33097],[10.84293,55.2968],[10.85198,55.29188],[10.85201,55.28923],[10.83933,55.28686],[10.82989,55.28649],[10.82432,55.29221],[10.82692,55.29524],[10.82052,55.29765],[10.81684,55.29565],[10.79928,55.30436],[10.78853,55.30503],[10.78993,55.30117],[10.77828,55.29673],[10.77119,55.29863],[10.74813,55.29499],[10.78135,55.29502],[10.78858,55.2912],[10.79198,55.2868],[10.78702,55.27637],[10.78858,55.27122],[10.81546,55.23087],[10.80958,55.21994],[10.81255,55.20632],[10.80695,55.18156],[10.79082,55.1613],[10.791,55.15541],[10.78489,55.14884],[10.78582,55.1396],[10.77975,55.1338],[10.7787,55.12024],[10.77104,55.10882],[10.77347,55.10315],[10.75383,55.09319],[10.75143,55.07914],[10.74314,55.06824],[10.7068,55.05877],[10.68756,55.06288],[10.68467,55.0578],[10.65289,55.05541],[10.61386,55.06132],[10.61328,55.05236],[10.60548,55.05246],[10.6002,55.04895],[10.6061,55.04579],[10.63167,55.05468],[10.63694,55.05281],[10.63475,55.0481],[10.64288,55.0453],[10.64314,55.04069],[10.63852,55.03665],[10.65645,55.03359],[10.65944,55.02484],[10.65593,55.02092],[10.64806,55.01936],[10.63851,55.00361],[10.63872,54.99797],[10.62559,54.99277],[10.62406,54.98792],[10.62809,54.983],[10.65641,54.97839],[10.66736,54.98477],[10.67089,54.99472],[10.69191,54.99648],[10.68753,54.98783],[10.68895,54.97397],[10.66377,54.9733],[10.64999,54.96862],[10.66387,54.96134],[10.69959,54.95692],[10.70238,54.9492],[10.71866,54.94474],[10.72417,54.95401],[10.75668,54.97481],[10.7719,54.98176],[10.78927,54.98163],[10.80898,54.99402],[10.81269,55.00216],[10.82471,55.01172],[10.8304,55.02418],[10.84817,55.03724],[10.85063,55.04719],[10.8617,55.05983],[10.87663,55.10212],[10.89868,55.12432],[10.90259,55.13143],[10.90226,55.13848],[10.94062,55.16426],[10.95481,55.15699],[10.95598,55.15364],[10.93553,55.08224],[10.89804,55.01188],[10.89524,54.99501],[10.85833,54.96766],[10.83662,54.94084],[10.83471,54.93293],[10.8295,54.93096],[10.82711,54.91742],[10.81801,54.90807],[10.81451,54.88456],[10.77605,54.82852],[10.77403,54.81779],[10.75688,54.79063],[10.73604,54.74379],[10.7165,54.72691],[10.69283,54.72173],[10.68583,54.72362],[10.66812,54.73962],[10.67044,54.74215],[10.66672,54.74861],[10.6762,54.75309],[10.67554,54.75848],[10.66083,54.77789],[10.65853,54.79739],[10.64016,54.81455],[10.62696,54.82267],[10.60283,54.82965],[10.59864,54.83585],[10.64857,54.83057],[10.65896,54.8458],[10.66654,54.84659],[10.66315,54.85061],[10.67038,54.88048],[10.67336,54.88262],[10.68269,54.88261],[10.6885,54.8728],[10.70378,54.87182],[10.70344,54.87438],[10.7077,54.87535],[10.72777,54.87711],[10.71741,54.88418],[10.71158,54.89348],[10.71832,54.89518],[10.70684,54.89688],[10.70835,54.90634],[10.70504,54.90689],[10.6975,54.89675],[10.67678,54.90088],[10.67453,54.90553],[10.67634,54.91165],[10.68381,54.91487],[10.68503,54.9228],[10.69891,54.93029],[10.70507,54.93917],[10.71732,54.94463],[10.68946,54.94886],[10.68612,54.95403],[10.6649,54.95766],[10.65019,54.96797],[10.63164,54.96067],[10.63104,54.95683],[10.62161,54.94928],[10.61555,54.94795],[10.60196,54.95325],[10.57887,54.95458],[10.58264,54.94864],[10.55373,54.94325],[10.55521,54.94707],[10.56331,54.94927],[10.56235,54.95313],[10.55026,54.95123],[10.55043,54.96148],[10.53011,54.97159],[10.5252,54.97716],[10.52401,54.9928],[10.52947,54.99581],[10.51821,54.99825],[10.51335,55.00549],[10.51639,55.00904],[10.53328,55.00806],[10.54365,55.01689],[10.57299,55.02625],[10.57268,55.02958],[10.58247,55.03483],[10.59797,55.0377],[10.60495,55.04478],[10.60026,55.0486],[10.51169,55.02638],[10.4878,55.03142],[10.4748,55.04182],[10.4145,55.03933],[10.38627,55.0485],[10.38889,55.05333],[10.37559,55.06219],[10.37089,55.06199],[10.36096,55.05186],[10.35466,55.05026],[10.3405,55.05375],[10.31997,55.05359],[10.31804,55.05591],[10.32041,55.06024],[10.3176,55.06296],[10.29763,55.06638],[10.28247,55.08088],[10.25367,55.08784],[10.23916,55.09516],[10.23599,55.09391],[10.23084,55.10062],[10.20918,55.09341],[10.22199,55.0888],[10.22944,55.07682],[10.22462,55.07251],[10.21475,55.07082],[10.21349,55.06596],[10.21699,55.06388],[10.20726,55.05924],[10.19843,55.06227],[10.19556,55.07101],[10.18553,55.07879],[10.15966,55.07968],[10.13226,55.08967],[10.07517,55.07559],[10.07073,55.08498],[10.08183,55.09897],[10.08246,55.10588],[10.08811,55.10826],[10.10053,55.10507],[10.11626,55.11633],[10.13528,55.11756],[10.13852,55.12124],[10.1555,55.12134],[10.17218,55.12617],[10.17361,55.12911],[10.16252,55.13203],[10.14718,55.15062],[10.13364,55.15433],[10.1345,55.1609]]],[[[10.96364,57.20927],[10.95499,57.21081],[10.95489,57.21338],[10.96379,57.21221],[10.96364,57.20927]]],[[[10.95266,57.21597],[10.95051,57.21985],[10.96138,57.22019],[10.95266,57.21597]]],[[[10.38205,56.28573],[10.38923,56.27806],[10.3772,56.26974],[10.36208,56.27183],[10.34519,56.26267],[10.34712,56.25215],[10.34219,56.24913],[10.34879,56.24713],[10.3403,56.24121],[10.33918,56.23559],[10.3048,56.2252],[10.29275,56.21534],[10.28191,56.20034],[10.24476,56.18817],[10.22543,56.17223],[10.22485,56.16865],[10.23211,56.16602],[10.22878,56.16221],[10.22379,56.16393],[10.22413,56.16021],[10.2149,56.15876],[10.21406,56.15391],[10.21701,56.15285],[10.21437,56.14929],[10.21917,56.14848],[10.22418,56.15457],[10.22642,56.15302],[10.21945,56.1431],[10.2407,56.14775],[10.24684,56.15307],[10.24184,56.1544],[10.24653,56.15768],[10.2503,56.15355],[10.22805,56.1393],[10.2098,56.13525],[10.21506,56.12726],[10.22811,56.11971],[10.23582,56.1099],[10.23783,56.10117],[10.24812,56.09339],[10.25323,56.07438],[10.26141,56.05868],[10.27157,56.04731],[10.26701,56.02394],[10.28164,56.02006],[10.27141,56.01478],[10.25329,55.99167],[10.255,55.97398],[10.26635,55.95773],[10.25817,55.93092],[10.25775,55.91069],[10.23548,55.90605],[10.20798,55.88661],[10.19223,55.88548],[10.19513,55.86881],[10.20251,55.86438],[10.20388,55.8572],[10.19444,55.85383],[10.19182,55.84989],[10.19837,55.84086],[10.18804,55.83776],[10.16051,55.84558],[10.1393,55.85986],[10.14508,55.87056],[10.13579,55.87987],[10.13102,55.88042],[10.12881,55.87481],[10.11912,55.87054],[10.11372,55.8729],[10.11011,55.88215],[10.08284,55.88457],[10.03796,55.87574],[10.01699,55.87514],[9.99889,55.88016],[9.96881,55.8795],[9.96189,55.86675],[9.96616,55.86467],[9.96601,55.85865],[9.9333,55.86147],[9.91591,55.85788],[9.90965,55.8628],[9.89516,55.86623],[9.89556,55.86418],[9.87612,55.86022],[9.87491,55.8569],[9.86034,55.85687],[9.8735,55.85512],[9.86117,55.85316],[9.87613,55.85049],[9.89006,55.84271],[9.96762,55.83149],[9.9807,55.82704],[10.00522,55.82505],[10.02258,55.83681],[10.02076,55.82812],[10.01712,55.82815],[10.01647,55.82047],[10.03475,55.82378],[10.05333,55.82119],[10.05402,55.81299],[10.06592,55.8075],[10.01813,55.77948],[10.01585,55.77054],[10.01972,55.76206],[10.02844,55.75686],[10.07737,55.7526],[10.08215,55.745],[10.0563,55.746],[10.04483,55.74161],[10.03739,55.73463],[10.01646,55.73302],[10.00044,55.72739],[9.99975,55.71817],[10.01918,55.71545],[10.02869,55.69744],[10.00885,55.70158],[9.97513,55.69519],[9.92066,55.6928],[9.87971,55.68631],[9.86077,55.68081],[9.84952,55.67397],[9.81815,55.66881],[9.81241,55.67627],[9.78894,55.68104],[9.74565,55.68079],[9.71319,55.70288],[9.69958,55.70283],[9.68068,55.71101],[9.66573,55.71211],[9.57988,55.70435],[9.55729,55.71022],[9.55758,55.69882],[9.57561,55.6917],[9.5901,55.68996],[9.64048,55.69406],[9.65311,55.68964],[9.66539,55.69201],[9.67486,55.68914],[9.68652,55.68191],[9.688,55.67601],[9.69491,55.66931],[9.70389,55.66465],[9.71568,55.66548],[9.73797,55.6583],[9.74699,55.63213],[9.75251,55.62492],[9.77011,55.62264],[9.80598,55.62804],[9.85955,55.62473],[9.84645,55.6156],[9.79512,55.59469],[9.78736,55.57963],[9.77158,55.57077],[9.76791,55.55594],[9.75262,55.55988],[9.72924,55.55413],[9.7295,55.54388],[9.74222,55.52383],[9.74145,55.51871],[9.72699,55.51765],[9.67299,55.52769],[9.64109,55.50916],[9.62355,55.51309],[9.60861,55.51022],[9.6038,55.51985],[9.56779,55.52732],[9.56437,55.52452],[9.57081,55.51758],[9.58908,55.51672],[9.57525,55.51231],[9.56222,55.51672],[9.55771,55.51636],[9.55812,55.51405],[9.58063,55.50985],[9.58567,55.49984],[9.58405,55.49715],[9.53938,55.49633],[9.51191,55.50004],[9.49902,55.49791],[9.49648,55.49344],[9.50271,55.48663],[9.51485,55.48325],[9.54968,55.49091],[9.56683,55.49147],[9.57893,55.48604],[9.58884,55.48574],[9.60388,55.49565],[9.62467,55.49823],[9.62957,55.49398],[9.64484,55.49006],[9.69326,55.46086],[9.68568,55.45245],[9.65433,55.43662],[9.63577,55.43082],[9.60827,55.42917],[9.59876,55.42614],[9.59304,55.42015],[9.59629,55.41143],[9.61403,55.39444],[9.62185,55.39107],[9.61894,55.37726],[9.60277,55.36376],[9.60054,55.35719],[9.62646,55.35519],[9.64802,55.34048],[9.64616,55.33665],[9.64936,55.32613],[9.6323,55.31265],[9.626,55.31191],[9.62709,55.3096],[9.64374,55.31208],[9.65143,55.30154],[9.67027,55.28761],[9.65319,55.28591],[9.64316,55.2898],[9.62857,55.28949],[9.61127,55.27383],[9.58295,55.26987],[9.58279,55.25835],[9.57112,55.25789],[9.5643,55.25113],[9.54366,55.2502],[9.54139,55.24765],[9.5685,55.2474],[9.57193,55.25187],[9.58972,55.25754],[9.58493,55.26679],[9.58968,55.26997],[9.61168,55.27088],[9.62623,55.28323],[9.63748,55.28522],[9.64503,55.28044],[9.66053,55.28202],[9.66428,55.27816],[9.71288,55.26124],[9.71874,55.25071],[9.71188,55.24281],[9.71536,55.23715],[9.71239,55.23384],[9.69884,55.22803],[9.69177,55.2209],[9.69201,55.20835],[9.69631,55.19833],[9.69378,55.19451],[9.62854,55.17424],[9.62212,55.17876],[9.62156,55.18542],[9.62872,55.18538],[9.62945,55.17513],[9.63707,55.17561],[9.63801,55.17868],[9.62923,55.18935],[9.59169,55.19364],[9.5809,55.19049],[9.56147,55.17739],[9.55026,55.17577],[9.52773,55.16422],[9.49833,55.15628],[9.49693,55.15218],[9.5016,55.15012],[9.50543,55.13473],[9.51967,55.12955],[9.51941,55.12699],[9.49818,55.1267],[9.4744,55.13132],[9.46374,55.1244],[9.46005,55.11481],[9.47122,55.11464],[9.47752,55.11807],[9.48373,55.11459],[9.4963,55.11876],[9.50469,55.11143],[9.51986,55.10932],[9.53093,55.10184],[9.53838,55.09182],[9.55055,55.08861],[9.54976,55.07474],[9.50074,55.04511],[9.46553,55.04794],[9.45566,55.0426],[9.44226,55.0406],[9.42912,55.04283],[9.42775,55.03925],[9.42261,55.03798],[9.42381,55.02543],[9.45269,55.01623],[9.48211,55.01714],[9.4959,55.0144],[9.5277,55.02656],[9.57373,55.03429],[9.57609,55.04337],[9.60055,55.03877],[9.60696,55.03464],[9.61742,55.01922],[9.63002,55.0103],[9.65442,55.00571],[9.692,54.98796],[9.71297,54.99014],[9.73808,54.9873],[9.74009,54.97525],[9.75148,54.9652],[9.74959,54.95957],[9.75545,54.93981],[9.7548,54.92881],[9.76342,54.92581],[9.76312,54.92209],[9.76982,54.92333],[9.76988,54.92641],[9.76378,54.9331],[9.76487,54.9436],[9.7618,54.94618],[9.75958,54.96976],[9.75148,54.9771],[9.7598,54.98179],[9.77494,54.96979],[9.79227,54.96801],[9.81999,54.94145],[9.8273,54.93973],[9.82967,54.93626],[9.82671,54.93256],[9.87272,54.94185],[9.87322,54.94415],[9.8527,54.94173],[9.83725,54.94748],[9.8373,54.95016],[9.84803,54.95227],[9.83256,54.9575],[9.83893,54.96411],[9.85499,54.96579],[9.85284,54.96927],[9.8395,54.97013],[9.81966,54.97974],[9.78365,54.98292],[9.78063,54.98806],[9.78651,54.99251],[9.7763,54.99424],[9.77572,54.99885],[9.79386,55.00373],[9.79591,55.00615],[9.79088,55.01092],[9.69145,55.00781],[9.66402,55.02039],[9.6594,55.02412],[9.66014,55.02796],[9.69596,55.03673],[9.70354,55.03707],[9.7039,55.03182],[9.7146,55.03188],[9.71222,55.03586],[9.69779,55.03979],[9.70679,55.04435],[9.69675,55.04389],[9.68661,55.03768],[9.65005,55.03813],[9.63919,55.04242],[9.63932,55.05087],[9.65299,55.05464],[9.66475,55.06431],[9.6989,55.07743],[9.74187,55.08371],[9.77082,55.0802],[9.82091,55.06259],[9.83672,55.0507],[9.85313,55.04623],[9.86096,55.0367],[9.87901,55.02607],[9.90425,55.01858],[9.92699,55.0188],[9.94251,55.01535],[9.96503,55.00646],[9.9812,54.9934],[9.98611,54.99374],[9.98821,54.9886],[10.00244,54.97875],[10.02768,54.94678],[10.04556,54.9328],[10.04413,54.92077],[10.05086,54.90586],[10.05797,54.89735],[10.0661,54.89369],[10.07164,54.87648],[10.06489,54.87334],[10.02357,54.87267],[10.00651,54.86551],[9.98887,54.85221],[9.93299,54.85457],[9.90658,54.86463],[9.89015,54.86475],[9.86776,54.87657],[9.86917,54.88015],[9.89706,54.89595],[9.90589,54.89332],[9.91678,54.88364],[9.94682,54.87649],[9.95638,54.86745],[9.97125,54.86708],[9.9806,54.85906],[9.99295,54.85576],[9.99726,54.85944],[9.98762,54.87386],[9.94898,54.89274],[9.9176,54.90002],[9.91105,54.90545],[9.89244,54.90802],[9.88346,54.90412],[9.88024,54.89889],[9.86825,54.89936],[9.84452,54.89095],[9.82805,54.88953],[9.79467,54.89807],[9.7826,54.90609],[9.78471,54.91171],[9.77969,54.91635],[9.76994,54.91795],[9.76913,54.92231],[9.76334,54.92158],[9.76547,54.9167],[9.78203,54.91096],[9.78012,54.90431],[9.77496,54.90153],[9.75665,54.89691],[9.70921,54.90308],[9.70174,54.89532],[9.70497,54.88928],[9.72628,54.88877],[9.73201,54.88592],[9.74057,54.88023],[9.74171,54.86998],[9.75202,54.86287],[9.75822,54.86219],[9.76108,54.84886],[9.75157,54.83893],[9.7262,54.83485],[9.71923,54.84194],[9.70444,54.84664],[9.70759,54.84918],[9.70654,54.85226],[9.68087,54.85689],[9.66218,54.85417],[9.63743,54.86109],[9.6364,54.86622],[9.65634,54.87738],[9.6564,54.88097],[9.64752,54.88127],[9.64246,54.88412],[9.63837,54.89272],[9.62064,54.89524],[9.60744,54.90402],[9.58346,54.90555],[9.57451,54.90162],[9.57907,54.89443],[9.56799,54.88039],[9.55151,54.87688],[9.53913,54.88142],[9.53488,54.87926],[9.5364,54.87644],[9.52797,54.87763],[9.5199,54.87164],[9.50879,54.87118],[9.48433,54.84925],[9.46268,54.83883],[9.44936,54.83824],[9.42932,54.83166],[9.41659,54.8333],[9.41807,54.83805],[9.411,54.84209],[9.3829,54.83917],[9.37891,54.83306],[9.37478,54.83337],[9.37385,54.82115],[9.3432,54.80715],[9.34371,54.80025],[9.32946,54.80562],[9.29346,54.80892],[9.29494,54.80169],[9.28636,54.80432],[9.28421,54.80964],[9.26977,54.81203],[9.25008,54.80964],[9.23584,54.83122],[9.23528,54.83517],[9.2449,54.84386],[9.24029,54.84998],[9.1432,54.87301],[9.11114,54.87402],[9.09022,54.87021],[9.04757,54.87207],[9.01446,54.88653],[8.94763,54.90257],[8.89258,54.90486],[8.85975,54.89672],[8.84863,54.89734],[8.83746,54.90524],[8.82419,54.9068],[8.81889,54.904],[8.79914,54.90454],[8.77667,54.89531],[8.77718,54.89249],[8.75498,54.89687],[8.72811,54.89275],[8.68031,54.91055],[8.65977,54.90871],[8.63643,54.91141],[8.66043,54.96397],[8.66032,54.97601],[8.65889,54.98753],[8.63354,55.03279],[8.63392,55.03945],[8.6491,55.08815],[8.65973,55.0992],[8.67358,55.12587],[8.68561,55.13102],[8.68045,55.13331],[8.67952,55.13767],[8.68281,55.14549],[8.664,55.14851],[8.66441,55.15376],[8.67913,55.15764],[8.68007,55.15214],[8.69035,55.1528],[8.68718,55.15869],[8.69002,55.16715],[8.68666,55.16803],[8.68435,55.17738],[8.68747,55.1779],[8.68678,55.18097],[8.67704,55.19605],[8.68083,55.19734],[8.67719,55.20476],[8.66998,55.20961],[8.67186,55.226],[8.66736,55.22881],[8.67138,55.22984],[8.66796,55.237],[8.65873,55.23917],[8.66092,55.24813],[8.65799,55.24978],[8.66178,55.25312],[8.65568,55.25848],[8.66081,55.26131],[8.65942,55.26605],[8.65406,55.26424],[8.65043,55.26858],[8.64461,55.26793],[8.64368,55.271],[8.65619,55.27692],[8.65356,55.29536],[8.66994,55.32255],[8.67032,55.33177],[8.67368,55.33267],[8.66511,55.33636],[8.65737,55.34864],[8.65158,55.36808],[8.64013,55.3911],[8.6372,55.39122],[8.63241,55.39901],[8.63418,55.40209],[8.62366,55.41948],[8.62269,55.42664],[8.54377,55.45621],[8.51363,55.45148],[8.47344,55.45798],[8.46633,55.45103],[8.44959,55.45569],[8.44862,55.4603],[8.43172,55.46022],[8.42208,55.47196],[8.40981,55.47881],[8.41584,55.48268],[8.4149,55.48499],[8.3876,55.50073],[8.37751,55.51092],[8.35843,55.51902],[8.33875,55.53479],[8.31779,55.54569],[8.2951,55.56451],[8.29471,55.57322],[8.31095,55.57523],[8.3285,55.58176],[8.31603,55.57882],[8.31346,55.58664],[8.29252,55.59446],[8.26944,55.59573],[8.24868,55.58114],[8.245,55.57267],[8.23762,55.56903],[8.23745,55.55418],[8.24559,55.54219],[8.25244,55.53788],[8.27012,55.53466],[8.24684,55.52389],[8.23692,55.52357],[8.26144,55.51591],[8.27242,55.50753],[8.27524,55.5014],[8.30433,55.48953],[8.30497,55.47878],[8.29464,55.47667],[8.19443,55.52625],[8.07221,55.55893],[8.07211,55.56303],[8.09674,55.59266],[8.14917,55.68805],[8.16347,55.71888],[8.17688,55.77147],[8.17546,55.79553],[8.16116,55.84768],[8.15169,55.90626],[8.13966,55.9556],[8.13043,55.98012],[8.11607,55.99922],[8.13199,56.00253],[8.13023,55.99932],[8.13392,55.99807],[8.13334,55.9932],[8.14712,55.97946],[8.15722,55.95597],[8.17195,55.95044],[8.17183,55.94532],[8.16405,55.94629],[8.17103,55.93993],[8.16878,55.92788],[8.17546,55.92486],[8.17377,55.91844],[8.17618,55.91231],[8.16926,55.90548],[8.17473,55.90539],[8.17071,55.90152],[8.1841,55.8824],[8.18018,55.87418],[8.18508,55.86832],[8.19468,55.86685],[8.1968,55.86328],[8.17531,55.84598],[8.17643,55.82499],[8.18984,55.81765],[8.18695,55.8225],[8.18054,55.8245],[8.18183,55.8386],[8.1877,55.85195],[8.19748,55.85227],[8.2078,55.85951],[8.20489,55.86845],[8.20823,55.87206],[8.19515,55.8771],[8.19622,55.88018],[8.21263,55.88003],[8.20608,55.88844],[8.20774,55.89639],[8.23237,55.89526],[8.22795,55.88858],[8.24321,55.87689],[8.24857,55.88268],[8.26995,55.88422],[8.25212,55.88719],[8.25384,55.89283],[8.27217,55.88731],[8.27943,55.8766],[8.26095,55.8665],[8.26344,55.85499],[8.25883,55.84625],[8.26345,55.8427],[8.27256,55.84224],[8.28737,55.85334],[8.32762,55.86893],[8.33161,55.87561],[8.36046,55.89407],[8.37789,55.90069],[8.37805,55.90505],[8.39442,55.90807],[8.39528,55.91128],[8.38347,55.90866],[8.36197,55.91265],[8.36835,55.91332],[8.37008,55.91883],[8.37686,55.92245],[8.37561,55.92936],[8.38034,55.93348],[8.37489,55.94549],[8.36583,55.95556],[8.35342,55.96074],[8.36072,55.96129],[8.357,55.9655],[8.34391,55.96991],[8.34223,55.97464],[8.33766,55.97462],[8.31567,55.99153],[8.31122,56.01045],[8.30705,56.01401],[8.30908,56.02785],[8.30295,56.03832],[8.30238,56.04446],[8.30664,56.04935],[8.30398,56.05753],[8.24691,56.08536],[8.23336,56.08733],[8.23467,56.09092],[8.22933,56.09447],[8.16103,56.10683],[8.14136,56.11553],[8.12758,56.11684],[8.13941,56.11052],[8.14002,56.10361],[8.14496,56.09789],[8.13951,56.09593],[8.13149,56.08563],[8.13238,56.07667],[8.12687,56.05717],[8.12929,56.0513],[8.12467,56.03308],[8.13226,56.0106],[8.14328,56.00863],[8.1156,55.99973],[8.11121,56.00175],[8.09892,56.03904],[8.09792,56.06208],[8.10427,56.10438],[8.12685,56.19981],[8.1308,56.22826],[8.11741,56.37054],[8.13518,56.37041],[8.13803,56.36684],[8.13749,56.35992],[8.13362,56.35772],[8.13402,56.35017],[8.12875,56.34885],[8.13107,56.32813],[8.14713,56.33106],[8.1489,56.33465],[8.15311,56.33186],[8.16545,56.33668],[8.16869,56.33594],[8.1685,56.32352],[8.18916,56.32698],[8.20912,56.32033],[8.23674,56.32178],[8.2376,56.31295],[8.24498,56.30122],[8.23446,56.29731],[8.24708,56.28817],[8.27776,56.29706],[8.29445,56.31559],[8.28375,56.32142],[8.26157,56.32462],[8.24995,56.32954],[8.25035,56.33249],[8.25907,56.33446],[8.25307,56.34685],[8.2439,56.35036],[8.24089,56.35625],[8.22301,56.36254],[8.21877,56.36686],[8.20022,56.3711],[8.18922,56.37845],[8.16649,56.40493],[8.16309,56.41285],[8.16831,56.41673],[8.16566,56.43258],[8.14533,56.43244],[8.13155,56.43849],[8.12824,56.43181],[8.13107,56.42927],[8.1304,56.41826],[8.12372,56.41719],[8.13119,56.40367],[8.12298,56.39926],[8.13128,56.39983],[8.13587,56.3909],[8.12735,56.38981],[8.12835,56.38675],[8.13665,56.38706],[8.13024,56.38484],[8.12895,56.38035],[8.13203,56.37704],[8.12957,56.37344],[8.11483,56.37257],[8.12527,56.47071],[8.11607,56.51119],[8.11821,56.53545],[8.12614,56.56367],[8.16005,56.64456],[8.19775,56.69679],[8.21448,56.70919],[8.22129,56.70616],[8.22291,56.69891],[8.21701,56.69922],[8.21942,56.69539],[8.22591,56.69671],[8.22383,56.68441],[8.23015,56.68291],[8.20674,56.66766],[8.20471,56.66457],[8.21126,56.66282],[8.21558,56.65645],[8.20962,56.65244],[8.19564,56.65376],[8.18679,56.63322],[8.19978,56.63394],[8.23201,56.62582],[8.23347,56.62225],[8.22698,56.62157],[8.23193,56.61814],[8.22947,56.61339],[8.23148,56.6061],[8.25156,56.60021],[8.29243,56.59891],[8.30225,56.59525],[8.30701,56.58837],[8.28754,56.58736],[8.28319,56.58414],[8.28612,56.57647],[8.29624,56.56859],[8.29866,56.56348],[8.29473,56.56244],[8.29628,56.55425],[8.29981,56.55133],[8.30929,56.55253],[8.30549,56.55763],[8.30778,56.57198],[8.3304,56.57774],[8.35225,56.57542],[8.38837,56.57919],[8.47451,56.55693],[8.50762,56.54234],[8.51736,56.54161],[8.54318,56.55259],[8.55925,56.56647],[8.56218,56.57314],[8.56221,56.57741],[8.52893,56.5807],[8.52187,56.5881],[8.51536,56.5891],[8.51174,56.60009],[8.50239,56.60543],[8.49304,56.62767],[8.42417,56.66604],[8.39009,56.67407],[8.35538,56.67773],[8.35383,56.68669],[8.34861,56.69255],[8.3411,56.69635],[8.33275,56.70783],[8.31679,56.71542],[8.3113,56.72256],[8.30502,56.73482],[8.30137,56.75579],[8.28129,56.77002],[8.26678,56.77262],[8.26672,56.77582],[8.26157,56.77694],[8.25391,56.77523],[8.25052,56.71095],[8.24905,56.70325],[8.24424,56.69939],[8.23907,56.70191],[8.23886,56.71215],[8.23242,56.71954],[8.22093,56.72382],[8.22946,56.78482],[8.23659,56.80125],[8.26072,56.84364],[8.31466,56.90872],[8.35879,56.95556],[8.4034,56.97882],[8.446,57.01563],[8.46725,57.03902],[8.47844,57.04483],[8.49864,57.04504],[8.52708,57.06205],[8.55268,57.08237],[8.58895,57.11859],[8.5974,57.12093],[8.59923,57.12528],[8.60397,57.12261],[8.62087,57.12663],[8.71991,57.10372],[8.75381,57.09918],[8.81633,57.10723],[8.86852,57.11856],[8.97533,57.1578],[9.00643,57.15575],[9.02999,57.15873],[9.11145,57.14213],[9.1896,57.1382],[9.25886,57.14268],[9.31547,57.15356],[9.38006,57.15876],[9.41599,57.16953],[9.53124,57.22004],[9.56417,57.24371],[9.63267,57.30047],[9.67984,57.34478],[9.7031,57.3723],[9.7187,57.38245],[9.79445,57.47647],[9.83677,57.49847],[9.87107,57.52102],[9.89512,57.54108],[9.93427,57.58278],[9.95409,57.59313],[10.01621,57.58945],[10.05012,57.59173],[10.11917,57.58909],[10.16416,57.59432],[10.25107,57.61192],[10.32542,57.63638],[10.51882,57.72894],[10.54459,57.73849],[10.57274,57.74736],[10.59877,57.75113],[10.62798,57.75101],[10.64563,57.74426],[10.59827,57.71811],[10.59167,57.72037],[10.58753,57.71888],[10.59076,57.71602],[10.5771,57.71543],[10.56347,57.70996],[10.5267,57.6889],[10.45712,57.63493],[10.44367,57.62075],[10.42909,57.59582],[10.42532,57.57846],[10.42712,57.56973],[10.44128,57.54217],[10.46722,57.51832],[10.50724,57.4907],[10.50363,57.48947],[10.50494,57.48664],[10.52771,57.47407],[10.52525,57.47205],[10.52896,57.46996],[10.53607,57.46936],[10.54619,57.45029],[10.56104,57.44755],[10.55434,57.44072],[10.5497,57.44333],[10.54536,57.44185],[10.55287,57.43971],[10.55184,57.43793],[10.53946,57.43706],[10.5412,57.4332],[10.52827,57.43054],[10.52622,57.42698],[10.52813,57.41569],[10.52445,57.41292],[10.52458,57.40472],[10.51521,57.38461],[10.52256,57.34457],[10.52836,57.3358],[10.53578,57.33212],[10.52951,57.32938],[10.5274,57.32429],[10.54968,57.25744],[10.54748,57.22751],[10.5125,57.20911],[10.49631,57.20559],[10.49749,57.2037],[10.47657,57.19559],[10.44551,57.17341],[10.43103,57.15847],[10.42184,57.14603],[10.42745,57.14507],[10.42687,57.14213],[10.42398,57.14063],[10.42013,57.14451],[10.40298,57.12089],[10.37666,57.05845],[10.38175,57.05635],[10.37283,57.0503],[10.37555,57.04745],[10.35311,57.01185],[10.33571,56.99104],[10.33,56.98892],[10.28653,56.99322],[10.25861,56.98608],[10.21936,56.99056],[10.18071,57.00694],[10.17364,57.0134],[10.10939,57.04664],[10.07863,57.0551],[10.03914,57.07143],[10.02907,57.08099],[10.01376,57.08867],[9.99163,57.08782],[9.9755,57.08244],[9.96596,57.0774],[9.95372,57.05829],[9.94187,57.05428],[9.92123,57.05571],[9.9188,57.0524],[9.93937,57.04841],[9.95856,57.05467],[9.97419,57.06837],[9.99037,57.07593],[10.0102,57.07897],[10.02471,57.07667],[10.03767,57.06069],[10.05502,57.0512],[10.05634,57.04786],[10.06552,57.04868],[10.06419,57.04332],[10.07175,57.04491],[10.07616,57.04296],[10.074,57.04118],[10.09681,57.03433],[10.12178,57.0213],[10.13597,57.0094],[10.18554,56.98922],[10.23071,56.97918],[10.30539,56.98278],[10.29968,56.97349],[10.29917,56.96556],[10.28979,56.96553],[10.28422,56.96034],[10.28914,56.95338],[10.27165,56.93537],[10.26962,56.91696],[10.26349,56.90166],[10.26602,56.86578],[10.27647,56.80192],[10.28768,56.77517],[10.29702,56.7551],[10.30688,56.74373],[10.33341,56.72322],[10.33287,56.70786],[10.32694,56.70473],[10.30339,56.71035],[10.25412,56.71265],[10.22035,56.71964],[10.20404,56.71199],[10.19963,56.70486],[10.18073,56.70338],[10.16532,56.70954],[10.15794,56.71921],[10.13742,56.71838],[10.10409,56.70933],[10.1001,56.70015],[10.08294,56.69415],[10.07571,56.69358],[10.07236,56.6986],[10.06245,56.70188],[10.04282,56.69885],[10.03478,56.69418],[10.02454,56.69426],[10.01628,56.69011],[10.01443,56.68167],[9.98504,56.67845],[9.96378,56.66581],[9.95354,56.66551],[9.95363,56.65988],[9.93634,56.65642],[9.93511,56.65361],[9.85507,56.64996],[9.84568,56.6458],[9.82479,56.64658],[9.80186,56.63931],[9.84594,56.63671],[9.85864,56.64315],[9.92702,56.64586],[9.94058,56.64922],[9.95497,56.6486],[9.96769,56.65516],[9.98486,56.654],[9.9861,56.65681],[9.98266,56.65863],[9.99016,56.66113],[9.99071,56.66419],[10.00237,56.66538],[10.01276,56.67144],[10.01968,56.66947],[10.03139,56.67231],[10.03223,56.67768],[10.0505,56.69046],[10.0819,56.68226],[10.09883,56.68838],[10.11235,56.69722],[10.1126,56.70567],[10.11864,56.71304],[10.12458,56.70941],[10.13717,56.71006],[10.15284,56.70467],[10.16406,56.70635],[10.18583,56.6881],[10.20471,56.6819],[10.25271,56.69832],[10.26807,56.6983],[10.28512,56.69338],[10.30959,56.70094],[10.33427,56.70132],[10.35215,56.69383],[10.36333,56.66195],[10.35191,56.66092],[10.35015,56.65749],[10.35956,56.6474],[10.35825,56.63691],[10.34335,56.62299],[10.31993,56.61735],[10.29049,56.60537],[10.27894,56.5932],[10.28116,56.59049],[10.26438,56.58822],[10.25153,56.5785],[10.24506,56.5792],[10.24142,56.5672],[10.23413,56.55703],[10.21867,56.55206],[10.21693,56.53416],[10.22434,56.51974],[10.22416,56.50694],[10.22749,56.50255],[10.21324,56.47658],[10.20269,56.4722],[10.18325,56.47213],[10.1324,56.45775],[10.10803,56.46283],[10.11754,56.46365],[10.11598,56.46571],[10.08366,56.46791],[10.07523,56.46428],[10.05391,56.46254],[10.04811,56.45947],[10.05055,56.45821],[10.06733,56.46268],[10.09512,56.46423],[10.13142,56.45597],[10.18276,56.47111],[10.21895,56.47434],[10.25896,56.46703],[10.29465,56.46909],[10.29242,56.47142],[10.24895,56.47212],[10.22612,56.48131],[10.23514,56.49556],[10.23246,56.50583],[10.23397,56.51657],[10.23042,56.52147],[10.23112,56.54298],[10.23733,56.54164],[10.24125,56.548],[10.25105,56.54995],[10.25535,56.55375],[10.25298,56.5594],[10.26124,56.56367],[10.2728,56.57636],[10.28779,56.58056],[10.29825,56.58788],[10.30284,56.59321],[10.30028,56.59989],[10.30215,56.60678],[10.34354,56.59559],[10.34616,56.57789],[10.35143,56.56964],[10.37575,56.54966],[10.40618,56.53241],[10.43595,56.52311],[10.50827,56.51265],[10.53653,56.51282],[10.66973,56.52928],[10.70871,56.53067],[10.70697,56.533],[10.72774,56.5313],[10.78506,56.53792],[10.83799,56.53036],[10.86214,56.5172],[10.87664,56.48727],[10.92485,56.47014],[10.93778,56.46072],[10.95052,56.45642],[10.95876,56.44144],[10.95458,56.43651],[10.94394,56.43642],[10.93564,56.43233],[10.92689,56.42376],[10.92808,56.41528],[10.92369,56.41535],[10.92231,56.41076],[10.92603,56.41122],[10.92782,56.40556],[10.92109,56.40028],[10.92162,56.39259],[10.91494,56.37912],[10.91403,56.34251],[10.87407,56.3129],[10.86374,56.29948],[10.83963,56.29139],[10.83029,56.28385],[10.8127,56.25747],[10.79205,56.24394],[10.7717,56.24155],[10.74481,56.22669],[10.73512,56.21069],[10.73413,56.19892],[10.73969,56.17964],[10.71554,56.14258],[10.68592,56.14197],[10.68035,56.14563],[10.67933,56.15384],[10.65022,56.16524],[10.63814,56.17795],[10.6374,56.18744],[10.65975,56.18394],[10.66917,56.18932],[10.66802,56.19471],[10.67688,56.20304],[10.67626,56.20971],[10.66908,56.21903],[10.65511,56.22549],[10.6023,56.22682],[10.58567,56.21936],[10.57696,56.20871],[10.57646,56.20219],[10.56153,56.19661],[10.55643,56.18976],[10.54419,56.18223],[10.53398,56.16802],[10.53414,56.16059],[10.55286,56.14678],[10.555,56.13165],[10.55889,56.12571],[10.55699,56.11293],[10.54578,56.1018],[10.51137,56.09505],[10.48144,56.1387],[10.4902,56.14576],[10.51817,56.14542],[10.52674,56.15915],[10.52889,56.16706],[10.52535,56.17043],[10.51969,56.17242],[10.50211,56.1688],[10.49115,56.17046],[10.47176,56.1794],[10.45071,56.18145],[10.43842,56.17813],[10.43303,56.16898],[10.4197,56.16221],[10.39536,56.16185],[10.37792,56.16832],[10.37346,56.18476],[10.35925,56.19196],[10.34622,56.19377],[10.34808,56.20092],[10.37654,56.20035],[10.40667,56.20744],[10.4117,56.21327],[10.4095,56.21585],[10.41399,56.21913],[10.43703,56.22066],[10.4388,56.21897],[10.42553,56.20824],[10.43765,56.20042],[10.4528,56.20024],[10.45683,56.19751],[10.47636,56.20355],[10.48038,56.20658],[10.47963,56.21094],[10.47184,56.21743],[10.46904,56.22259],[10.47143,56.22487],[10.46766,56.22837],[10.45667,56.22965],[10.44818,56.22386],[10.44696,56.22823],[10.46491,56.24069],[10.47469,56.24378],[10.48401,56.25289],[10.4845,56.25979],[10.50663,56.26081],[10.50754,56.26643],[10.50167,56.26932],[10.50509,56.2744],[10.4817,56.28249],[10.47511,56.2786],[10.47326,56.27248],[10.46663,56.27371],[10.46579,56.27564],[10.47441,56.27861],[10.45386,56.28295],[10.45655,56.29316],[10.45408,56.2946],[10.44704,56.2911],[10.42693,56.29517],[10.41711,56.29119],[10.39045,56.29251],[10.38107,56.28788],[10.38205,56.28573]]],[[[10.91468,57.23896],[10.90103,57.23994],[10.89231,57.24481],[10.89384,57.24696],[10.91715,57.2411],[10.91468,57.23896]]],[[[10.89761,57.23756],[10.88019,57.24806],[10.88857,57.24563],[10.89761,57.23756]]],[[[10.80552,56.12939],[10.79177,56.12959],[10.80635,56.13732],[10.81166,56.13327],[10.80552,56.12939]]],[[[10.78869,55.50777],[10.77969,55.50828],[10.77912,55.51572],[10.78825,55.51802],[10.79892,55.5144],[10.80057,55.51105],[10.78869,55.50777]]],[[[10.76303,55.94227],[10.74909,55.94683],[10.76597,55.94671],[10.76742,55.94336],[10.76303,55.94227]]],[[[10.67856,55.02906],[10.66812,55.02985],[10.66927,55.03623],[10.6959,55.0383],[10.69995,55.03914],[10.69915,55.04133],[10.66438,55.04181],[10.65217,55.03788],[10.64773,55.04934],[10.65811,55.05214],[10.67096,55.04992],[10.69347,55.05473],[10.70769,55.05338],[10.71571,55.03738],[10.71472,55.02984],[10.70015,55.03337],[10.67856,55.02906]]],[[[10.59949,55.91057],[10.59174,55.92168],[10.57326,55.93281],[10.55614,55.93815],[10.53645,55.93647],[10.52982,55.94193],[10.52034,55.97381],[10.52215,55.97916],[10.54351,55.9935],[10.56348,56.00144],[10.56538,55.98067],[10.57314,55.95803],[10.5818,55.9464],[10.60504,55.92894],[10.63176,55.92436],[10.64566,55.9188],[10.64203,55.91385],[10.62877,55.91838],[10.62683,55.91559],[10.6297,55.91325],[10.61205,55.91118],[10.61073,55.90684],[10.61661,55.89472],[10.63524,55.87693],[10.64698,55.8746],[10.6773,55.88401],[10.67723,55.87342],[10.67986,55.87108],[10.6577,55.85883],[10.64625,55.84644],[10.63729,55.82299],[10.64402,55.80984],[10.64351,55.79781],[10.62652,55.77729],[10.62236,55.7648],[10.58077,55.76982],[10.55166,55.76891],[10.5382,55.77894],[10.52879,55.79417],[10.52579,55.82187],[10.5286,55.84719],[10.53135,55.85356],[10.55043,55.86382],[10.57186,55.86444],[10.58412,55.86902],[10.593,55.88018],[10.60006,55.90237],[10.59949,55.91057]]],[[[10.67838,55.91592],[10.67378,55.92034],[10.67797,55.92233],[10.67838,55.91592]]],[[[10.6744,55.92942],[10.66697,55.9317],[10.67142,55.93433],[10.67569,55.93286],[10.6744,55.92942]]],[[[10.64606,55.89587],[10.64245,55.89669],[10.64307,55.90052],[10.65598,55.90406],[10.64606,55.89587]]],[[[10.65465,55.88346],[10.64901,55.88482],[10.65477,55.88628],[10.65465,55.88346]]],[[[10.64483,55.88833],[10.6344,55.88962],[10.62882,55.89789],[10.64187,55.89375],[10.6474,55.88996],[10.64483,55.88833]]],[[[10.6274,57.48204],[10.62049,57.487],[10.62756,57.48563],[10.6274,57.48204]]],[[[10.61141,54.88909],[10.59801,54.89836],[10.59968,54.90141],[10.59336,54.90457],[10.59064,54.91459],[10.61037,54.91856],[10.62229,54.91648],[10.62001,54.90959],[10.62577,54.90363],[10.62532,54.898],[10.61141,54.88909]]],[[[10.61843,55.90008],[10.61628,55.90318],[10.62357,55.90308],[10.61843,55.90008]]],[[[10.61976,55.58145],[10.61017,55.59003],[10.61371,55.59382],[10.61976,55.58145]]],[[[10.61319,55.57539],[10.60868,55.57583],[10.60645,55.58214],[10.611,55.58284],[10.61319,55.57539]]],[[[10.60776,57.48959],[10.59987,57.49392],[10.61359,57.49233],[10.60776,57.48959]]],[[[10.58142,54.89486],[10.57051,54.9],[10.5812,54.90063],[10.58443,54.89777],[10.58142,54.89486]]],[[[10.54832,54.9008],[10.54151,54.90293],[10.53792,54.90797],[10.54788,54.90669],[10.5453,54.90314],[10.54832,54.9008]]],[[[10.53246,54.84592],[10.52882,54.84956],[10.53132,54.85106],[10.53713,54.84638],[10.53246,54.84592]]],[[[10.52427,54.92313],[10.51197,54.92725],[10.49861,54.92678],[10.49604,54.93526],[10.50059,54.93802],[10.52427,54.92313]]],[[[10.27879,54.89522],[10.24302,54.92428],[10.2441,54.93042],[10.23759,54.94303],[10.21221,54.95712],[10.20595,54.96359],[10.20461,54.97103],[10.20907,54.97111],[10.22165,54.96753],[10.22215,54.96214],[10.24834,54.94523],[10.28681,54.93766],[10.32389,54.91549],[10.33888,54.89816],[10.3641,54.89481],[10.3713,54.88422],[10.38198,54.88487],[10.39162,54.89373],[10.4024,54.89719],[10.40603,54.9056],[10.39085,54.91013],[10.3892,54.91399],[10.39498,54.91405],[10.4137,54.90244],[10.40576,54.89792],[10.40675,54.89432],[10.41328,54.8904],[10.41755,54.87934],[10.4364,54.86605],[10.4487,54.86219],[10.45626,54.86675],[10.45257,54.87086],[10.46248,54.87484],[10.48341,54.86408],[10.48597,54.86725],[10.47052,54.87615],[10.46088,54.886],[10.44967,54.88908],[10.44932,54.89177],[10.46403,54.893],[10.45838,54.89038],[10.45986,54.88831],[10.4718,54.88689],[10.51704,54.86097],[10.52218,54.85604],[10.52299,54.84809],[10.51414,54.8427],[10.45584,54.83854],[10.43758,54.83044],[10.43575,54.82252],[10.42087,54.8159],[10.39693,54.82886],[10.37235,54.83683],[10.32126,54.87581],[10.2879,54.88834],[10.27879,54.89522]]],[[[10.50548,54.8843],[10.4865,54.88774],[10.48306,54.89098],[10.50381,54.88714],[10.50548,54.8843]]],[[[10.49708,54.96932],[10.49275,54.9727],[10.50043,54.97568],[10.49708,54.96932]]],[[[10.48198,54.95823],[10.47592,54.96292],[10.47775,54.96443],[10.49614,54.96805],[10.49691,54.96471],[10.48956,54.95852],[10.48198,54.95823]]],[[[10.49146,54.9138],[10.47449,54.91785],[10.48117,54.9243],[10.49146,54.9138]]],[[[10.47142,54.99819],[10.45631,54.99914],[10.45307,55.00212],[10.45321,55.00596],[10.46151,55.01355],[10.49116,55.00179],[10.47519,55.00378],[10.46813,54.99964],[10.47142,54.99819]]],[[[10.45846,55.46259],[10.45521,55.46595],[10.45588,55.47209],[10.46356,55.4784],[10.47275,55.47701],[10.46749,55.47503],[10.46691,55.47145],[10.47227,55.4701],[10.47436,55.46585],[10.4649,55.46609],[10.46527,55.46391],[10.45846,55.46259]]],[[[10.4386,55.94316],[10.41422,55.95048],[10.40406,55.95969],[10.44274,55.95643],[10.45807,55.95138],[10.45414,55.95002],[10.45519,55.94757],[10.4386,55.94316]]],[[[10.42647,54.9621],[10.38915,54.97687],[10.37931,54.97583],[10.3729,54.97053],[10.36535,54.97112],[10.36111,54.97732],[10.37358,54.97756],[10.38622,54.98254],[10.38607,54.97806],[10.40701,54.97833],[10.41355,54.97429],[10.42201,54.97419],[10.42846,54.98039],[10.44034,54.97026],[10.42647,54.9621]]],[[[10.4236,54.89336],[10.42158,54.89901],[10.42561,54.89999],[10.42839,54.89689],[10.4236,54.89336]]],[[[10.3464,55.00361],[10.32949,55.00443],[10.30874,55.01017],[10.30421,55.01482],[10.3177,55.01173],[10.33614,55.01678],[10.34044,55.00521],[10.3464,55.00361]]],[[[10.32517,55.0356],[10.32353,55.03997],[10.33443,55.03909],[10.32517,55.0356]]],[[[10.3104,55.74124],[10.28066,55.74796],[10.24024,55.74774],[10.23471,55.7524],[10.2355,55.75598],[10.24234,55.75668],[10.24886,55.76173],[10.27511,55.75903],[10.30067,55.76273],[10.2975,55.76994],[10.31186,55.79155],[10.32204,55.78351],[10.32867,55.76448],[10.32166,55.74535],[10.3104,55.74124]]],[[[10.2675,55.01688],[10.25067,55.02025],[10.23562,55.03116],[10.23825,55.03677],[10.249,55.03846],[10.26749,55.03084],[10.27392,55.02257],[10.28357,55.01773],[10.2675,55.01688]]],[[[10.28034,56.70316],[10.27207,56.70645],[10.28271,56.70455],[10.28034,56.70316]]],[[[10.26686,55.05325],[10.25445,55.05582],[10.23452,55.0678],[10.23708,55.07123],[10.25781,55.06321],[10.26686,55.05325]]],[[[10.23106,56.70507],[10.22954,56.70867],[10.2368,56.70988],[10.23902,56.70665],[10.23106,56.70507]]],[[[10.18188,55.61949],[10.17903,55.63002],[10.16899,55.63498],[10.16231,55.64631],[10.18938,55.64298],[10.19191,55.63694],[10.18247,55.63152],[10.18188,55.61949]]],[[[10.18278,55.60437],[10.17858,55.60748],[10.1818,55.61693],[10.18787,55.60804],[10.18278,55.60437]]],[[[10.14712,55.03165],[10.13672,55.03443],[10.12627,55.0435],[10.1248,55.05452],[10.13544,55.05993],[10.13811,55.05978],[10.13968,55.05233],[10.16812,55.04848],[10.17311,55.05125],[10.17892,55.04402],[10.17974,55.04145],[10.17043,55.03578],[10.14712,55.03165]]],[[[10.17175,55.59846],[10.16768,55.59863],[10.16825,55.60272],[10.17872,55.60467],[10.17728,55.60186],[10.16956,55.60104],[10.17175,55.59846]]],[[[10.11092,55.14122],[10.11869,55.14742],[10.12134,55.14612],[10.11092,55.14122]]],[[[10.0389,55.84269],[10.03596,55.84361],[10.03686,55.85155],[10.05874,55.86929],[10.11959,55.86311],[10.11949,55.85978],[10.10679,55.86131],[10.08886,55.85519],[10.0791,55.84824],[10.05313,55.84718],[10.0389,55.84269]]],[[[10.0668,55.12996],[10.0901,55.13206],[10.09736,55.13596],[10.1147,55.13273],[10.0668,55.12996]]],[[[10.08325,55.81721],[10.07971,55.82083],[10.06406,55.82263],[10.05791,55.83062],[10.0769,55.83443],[10.09587,55.82952],[10.10191,55.82563],[10.09885,55.82207],[10.08325,55.81721]]],[[[9.99441,55.86496],[9.99728,55.87044],[10.0123,55.87006],[10.00762,55.86523],[9.99441,55.86496]]],[[[9.79832,55.29503],[9.79545,55.29735],[9.79526,55.31067],[9.79043,55.31608],[9.79579,55.32578],[9.80473,55.32354],[9.81871,55.32627],[9.82647,55.32122],[9.82969,55.30353],[9.82534,55.29959],[9.79832,55.29503]]],[[[9.74537,55.24786],[9.72734,55.25501],[9.72449,55.25861],[9.73351,55.26112],[9.72818,55.2641],[9.72626,55.26936],[9.73642,55.27301],[9.75437,55.27341],[9.75769,55.27122],[9.76166,55.25557],[9.77027,55.26038],[9.76223,55.26197],[9.77577,55.26649],[9.77212,55.27522],[9.7746,55.27546],[9.77875,55.2698],[9.77591,55.26239],[9.76201,55.25083],[9.74537,55.24786]]],[[[9.7028,55.35081],[9.68739,55.35615],[9.70035,55.3644],[9.70934,55.36434],[9.72091,55.35775],[9.7028,55.35081]]],[[[9.69733,55.47402],[9.68768,55.47677],[9.68775,55.48087],[9.67575,55.49118],[9.67975,55.50063],[9.69188,55.49775],[9.70475,55.48589],[9.71512,55.48558],[9.71589,55.47827],[9.69733,55.47402]]],[[[9.56723,55.11064],[9.5532,55.11353],[9.55193,55.11865],[9.54635,55.11932],[9.54485,55.12381],[9.54918,55.13019],[9.56124,55.12962],[9.5725,55.11984],[9.57333,55.11574],[9.56723,55.11064]]],[[[9.46588,55.11632],[9.46504,55.12055],[9.46907,55.12182],[9.46588,55.11632]]],[[[8.54731,55.26453],[8.53922,55.26668],[8.53126,55.27548],[8.53298,55.28215],[8.54609,55.29295],[8.56223,55.29519],[8.59368,55.29159],[8.58608,55.28874],[8.56567,55.26716],[8.54731,55.26453]]],[[[8.57586,55.0262],[8.58651,55.03148],[8.59365,55.03061],[8.57586,55.0262]]],[[[8.47642,55.14772],[8.47742,55.17333],[8.48976,55.18824],[8.48903,55.1931],[8.49343,55.19927],[8.50096,55.20596],[8.52243,55.20797],[8.5249,55.20734],[8.52139,55.20117],[8.55923,55.20081],[8.59249,55.18888],[8.59275,55.18556],[8.5861,55.17939],[8.57207,55.17268],[8.56819,55.15884],[8.56087,55.15369],[8.56291,55.15126],[8.55599,55.14957],[8.54981,55.14263],[8.55561,55.1237],[8.55942,55.12244],[8.55096,55.10064],[8.56627,55.08853],[8.5579,55.07812],[8.54589,55.07437],[8.52892,55.07558],[8.53388,55.07112],[8.52853,55.07033],[8.53192,55.06701],[8.52548,55.0643],[8.51743,55.0658],[8.50724,55.05975],[8.50165,55.06049],[8.49237,55.07121],[8.46961,55.08776],[8.46278,55.09746],[8.46387,55.09977],[8.47503,55.10033],[8.48445,55.09704],[8.47501,55.10161],[8.46406,55.10208],[8.47642,55.14772]]],[[[8.55011,55.01676],[8.54675,55.0179],[8.54739,55.02046],[8.55321,55.01894],[8.55011,55.01676]]],[[[8.48776,55.22191],[8.47343,55.22159],[8.46218,55.22526],[8.4497,55.23724],[8.4574,55.24777],[8.47252,55.25655],[8.48314,55.26761],[8.49652,55.27381],[8.50705,55.27488],[8.50665,55.27052],[8.51185,55.26696],[8.50877,55.26233],[8.51369,55.26325],[8.53983,55.25272],[8.53406,55.24758],[8.53858,55.24401],[8.52023,55.24176],[8.51177,55.23738],[8.51406,55.23342],[8.4993,55.23105],[8.49309,55.2259],[8.49492,55.22284],[8.48776,55.22191]]],[[[8.37153,55.4187],[8.35717,55.43002],[8.33153,55.44153],[8.32743,55.45713],[8.3498,55.46711],[8.35364,55.46649],[8.34743,55.46057],[8.35001,55.45444],[8.35662,55.46369],[8.37902,55.47226],[8.38893,55.47308],[8.38945,55.46885],[8.40594,55.46625],[8.41083,55.45551],[8.40453,55.44012],[8.41214,55.42837],[8.42344,55.42561],[8.4332,55.43603],[8.44353,55.43761],[8.45351,55.43305],[8.45382,55.42677],[8.45975,55.42117],[8.46625,55.4066],[8.44415,55.39344],[8.46685,55.37843],[8.4721,55.35566],[8.4793,55.35569],[8.47179,55.34516],[8.49325,55.35408],[8.51398,55.34969],[8.51439,55.35327],[8.52606,55.35434],[8.53102,55.35334],[8.5336,55.34413],[8.53027,55.34066],[8.51414,55.33688],[8.48982,55.34152],[8.46829,55.33836],[8.43402,55.34691],[8.42016,55.35722],[8.39986,55.39195],[8.39716,55.39142],[8.37153,55.4187]]],[[[8.46458,55.31324],[8.46362,55.31823],[8.48728,55.32909],[8.49399,55.33129],[8.50278,55.32864],[8.49234,55.32015],[8.46458,55.31324]]],[[[8.42874,55.30744],[8.42154,55.30882],[8.41714,55.31802],[8.41861,55.3252],[8.42229,55.31907],[8.4388,55.32657],[8.4392,55.31428],[8.44892,55.30959],[8.42874,55.30744]]],[[[8.33572,55.47357],[8.33869,55.47529],[8.32988,55.48583],[8.31644,55.49318],[8.33264,55.4957],[8.3483,55.48977],[8.35108,55.48569],[8.3487,55.47953],[8.33572,55.47357]]],[[[8.32844,55.50388],[8.30844,55.51209],[8.30517,55.51873],[8.30966,55.52016],[8.31701,55.51265],[8.32861,55.50734],[8.32844,55.50388]]],[[[8.28276,55.9802],[8.27773,55.9803],[8.28647,56.00212],[8.28855,56.00059],[8.28284,55.98827],[8.28276,55.9802]]],[[[8.26639,56.69696],[8.25651,56.70228],[8.26161,56.70371],[8.26818,56.70081],[8.26639,56.69696]]],[[[8.23925,55.89287],[8.23306,55.89501],[8.23324,55.89757],[8.24371,55.89789],[8.24537,55.89483],[8.23925,55.89287]]],[[[8.18988,55.85658],[8.19906,55.86406],[8.19604,55.86712],[8.20012,55.86791],[8.2009,55.86305],[8.18988,55.85658]]],[[[8.17282,56.33686],[8.17322,56.33968],[8.19142,56.34347],[8.18911,56.3403],[8.17282,56.33686]]],[[[8.17945,55.8332],[8.17691,55.84573],[8.18327,55.84629],[8.17865,55.83858],[8.17945,55.8332]]]]}}]}