{"type":"FeatureCollection","features":[{"type":"Feature","properties":{"ISO_A3":"DOM","WB_A3":"DOM","WB_NAME":"Dominican Republic","WB_REGION":"LCN"},"geometry":{"type":"MultiPolygon","coordinates":[[[[-68.77701,18.97379],[-68.76213,18.96321],[-68.74616,18.95971],[-68.70912,18.93325],[-68.69884,18.92925],[-68.68453,18.91171],[-68.64968,18.88331],[-68.64874,18.87893],[-68.62782,18.85725],[-68.62243,18.84617],[-68.60784,18.83867],[-68.60083,18.82796],[-68.57086,18.80562],[-68.55118,18.78278],[-68.53525,18.77295],[-68.53092,18.77307],[-68.52712,18.77975],[-68.49503,18.7485],[-68.47749,18.73661],[-68.46587,18.73529],[-68.44783,18.71463],[-68.4427,18.71255],[-68.43787,18.70146],[-68.41817,18.6911],[-68.4085,18.67536],[-68.38747,18.66035],[-68.38043,18.66509],[-68.36076,18.65035],[-68.34484,18.64372],[-68.32536,18.61661],[-68.32821,18.61224],[-68.32378,18.6063],[-68.32394,18.5978],[-68.33392,18.56822],[-68.34136,18.56361],[-68.34886,18.54534],[-68.35998,18.53276],[-68.37995,18.49767],[-68.39184,18.49475],[-68.39174,18.48444],[-68.40126,18.46361],[-68.42304,18.44951],[-68.42468,18.44308],[-68.42819,18.44283],[-68.44417,18.42613],[-68.44785,18.41223],[-68.45139,18.35996],[-68.46466,18.34492],[-68.48572,18.33725],[-68.49192,18.33779],[-68.55175,18.35558],[-68.56603,18.36476],[-68.57412,18.36632],[-68.5927,18.38002],[-68.60728,18.37708],[-68.61133,18.37323],[-68.6154,18.36422],[-68.61434,18.35469],[-68.60304,18.34359],[-68.60185,18.33277],[-68.61567,18.30343],[-68.62891,18.28955],[-68.63801,18.25865],[-68.64125,18.25711],[-68.64144,18.23084],[-68.644,18.22698],[-68.64065,18.22208],[-68.64215,18.20972],[-68.65481,18.21721],[-68.66154,18.21761],[-68.67934,18.21558],[-68.6877,18.21019],[-68.70684,18.20931],[-68.7222,18.21359],[-68.72207,18.21011],[-68.72786,18.20973],[-68.73216,18.21953],[-68.74456,18.22315],[-68.74874,18.21813],[-68.747,18.21092],[-68.74107,18.20962],[-68.74215,18.2073],[-68.75092,18.20345],[-68.75361,18.20526],[-68.75144,18.21556],[-68.75505,18.23334],[-68.76461,18.24391],[-68.78128,18.28154],[-68.8016,18.3099],[-68.81331,18.33515],[-68.83622,18.35217],[-68.84228,18.36326],[-68.84133,18.37201],[-68.89486,18.39626],[-68.89661,18.40683],[-68.88608,18.41532],[-68.88887,18.42563],[-68.88784,18.4139],[-68.89541,18.40966],[-68.89823,18.40039],[-68.90916,18.39795],[-68.91348,18.40181],[-68.93641,18.408],[-68.94424,18.40981],[-68.94869,18.40711],[-68.95274,18.41406],[-68.95881,18.41458],[-68.97365,18.40737],[-68.97689,18.40106],[-68.99767,18.40235],[-69.01791,18.39565],[-69.06323,18.39152],[-69.0828,18.3937],[-69.08483,18.40761],[-69.08888,18.41302],[-69.08173,18.41869],[-69.0874,18.42255],[-69.08646,18.42821],[-69.08877,18.42954],[-69.08317,18.41665],[-69.08982,18.41271],[-69.08415,18.39808],[-69.08497,18.3946],[-69.09103,18.39408],[-69.12166,18.40604],[-69.13529,18.40487],[-69.15364,18.40924],[-69.19278,18.42556],[-69.19819,18.43122],[-69.1932,18.43432],[-69.19685,18.43844],[-69.19699,18.44668],[-69.20478,18.45101],[-69.19287,18.47359],[-69.19608,18.47321],[-69.2059,18.45156],[-69.22655,18.44819],[-69.23383,18.44367],[-69.2681,18.44221],[-69.29589,18.43393],[-69.30319,18.4401],[-69.3125,18.44034],[-69.31076,18.45091],[-69.31833,18.45656],[-69.32822,18.47535],[-69.3304,18.48771],[-69.33635,18.49439],[-69.33517,18.51275],[-69.33825,18.49748],[-69.33094,18.48616],[-69.32875,18.472],[-69.32116,18.45552],[-69.314,18.44832],[-69.32132,18.44257],[-69.31964,18.43466],[-69.32422,18.42809],[-69.34445,18.42432],[-69.41003,18.42663],[-69.44564,18.42243],[-69.51602,18.40345],[-69.54842,18.40967],[-69.5633,18.42122],[-69.57468,18.4369],[-69.59091,18.44638],[-69.6036,18.44801],[-69.6206,18.4477],[-69.63056,18.4411],[-69.63285,18.438],[-69.62707,18.40711],[-69.63042,18.4013],[-69.64283,18.4019],[-69.67012,18.41082],[-69.68058,18.42908],[-69.68227,18.44658],[-69.68971,18.45145],[-69.74266,18.46271],[-69.79125,18.46574],[-69.81716,18.46408],[-69.83256,18.46852],[-69.86603,18.46786],[-69.87668,18.46459],[-69.87725,18.47205],[-69.8824,18.47912],[-69.88223,18.46907],[-69.9159,18.45526],[-69.9277,18.44232],[-69.94412,18.43349],[-69.99316,18.42113],[-70.00667,18.42441],[-70.01648,18.41727],[-70.01694,18.4268],[-70.00636,18.43112],[-70.01722,18.4286],[-70.02037,18.41365],[-70.03425,18.38846],[-70.05463,18.36813],[-70.08075,18.31853],[-70.09065,18.30598],[-70.09684,18.30299],[-70.10213,18.30491],[-70.11015,18.29699],[-70.11183,18.28654],[-70.12266,18.27219],[-70.1346,18.26388],[-70.14044,18.24942],[-70.15379,18.23066],[-70.15971,18.22921],[-70.16946,18.23675],[-70.18854,18.22839],[-70.20773,18.23548],[-70.23836,18.22267],[-70.24514,18.22855],[-70.26919,18.23702],[-70.27971,18.23785],[-70.3031,18.22945],[-70.33515,18.22665],[-70.35405,18.23116],[-70.37291,18.23128],[-70.38994,18.23734],[-70.42006,18.22991],[-70.46485,18.20407],[-70.50195,18.19323],[-70.51409,18.19494],[-70.52604,18.20669],[-70.55727,18.20348],[-70.56728,18.20726],[-70.55877,18.22097],[-70.54751,18.22725],[-70.54946,18.21401],[-70.53766,18.2102],[-70.53231,18.21449],[-70.5234,18.21289],[-70.50908,18.21761],[-70.50944,18.22236],[-70.5191,18.22928],[-70.53193,18.23239],[-70.53325,18.22981],[-70.55936,18.25638],[-70.57475,18.25934],[-70.58036,18.2687],[-70.59203,18.27787],[-70.59146,18.28895],[-70.58166,18.30783],[-70.57332,18.31021],[-70.57083,18.31796],[-70.57538,18.34342],[-70.57423,18.35115],[-70.57073,18.35195],[-70.56995,18.36973],[-70.57787,18.38099],[-70.58134,18.4062],[-70.58747,18.41297],[-70.60237,18.41954],[-70.61427,18.42227],[-70.62233,18.41912],[-70.64076,18.42771],[-70.65559,18.42746],[-70.6648,18.43162],[-70.67882,18.43073],[-70.69039,18.42753],[-70.69273,18.41786],[-70.71085,18.40894],[-70.70332,18.38377],[-70.71127,18.36954],[-70.72292,18.36132],[-70.72583,18.35563],[-70.74434,18.34632],[-70.76594,18.34908],[-70.79152,18.34498],[-70.79473,18.35185],[-70.79969,18.35366],[-70.80885,18.35229],[-70.81243,18.34697],[-70.82498,18.3475],[-70.82818,18.34399],[-70.83793,18.34827],[-70.8541,18.34812],[-70.85591,18.34012],[-70.86679,18.32431],[-70.86957,18.30728],[-70.8764,18.30233],[-70.88048,18.29379],[-70.90316,18.27245],[-70.93099,18.25492],[-70.94581,18.25413],[-70.95733,18.24834],[-70.96571,18.25071],[-70.96878,18.25777],[-70.97678,18.26449],[-70.98228,18.28632],[-70.99284,18.29059],[-70.99617,18.29854],[-71.02298,18.31073],[-71.03214,18.30936],[-71.04166,18.31634],[-71.05542,18.31735],[-71.06035,18.32386],[-71.07596,18.32189],[-71.07659,18.31828],[-71.08023,18.31785],[-71.078,18.31221],[-71.06488,18.31956],[-71.05838,18.31654],[-71.08964,18.29367],[-71.10331,18.27602],[-71.10903,18.25896],[-71.10411,18.24241],[-71.09871,18.24054],[-71.09796,18.23437],[-71.08967,18.22841],[-71.08348,18.21831],[-71.09239,18.20817],[-71.07899,18.19145],[-71.07331,18.18932],[-71.06577,18.16662],[-71.05596,18.15669],[-71.06375,18.14411],[-71.06362,18.13227],[-71.07486,18.10435],[-71.09503,18.06834],[-71.10522,18.06488],[-71.11795,18.04904],[-71.1164,18.04288],[-71.13655,18.02886],[-71.13818,18.0084],[-71.1441,18.0082],[-71.15202,17.99588],[-71.1635,17.98855],[-71.19911,17.93099],[-71.20626,17.92216],[-71.21215,17.92003],[-71.22323,17.90266],[-71.25972,17.87521],[-71.26899,17.86403],[-71.2755,17.84748],[-71.27764,17.84681],[-71.27907,17.85361],[-71.27756,17.85839],[-71.27216,17.85923],[-71.27595,17.86176],[-71.28656,17.85044],[-71.31048,17.84964],[-71.31077,17.84414],[-71.31417,17.84471],[-71.32827,17.8327],[-71.33338,17.83315],[-71.3328,17.81977],[-71.33908,17.81725],[-71.33054,17.81156],[-71.34208,17.80009],[-71.36066,17.80232],[-71.37018,17.791],[-71.37947,17.77236],[-71.3784,17.76207],[-71.3829,17.74709],[-71.37946,17.74069],[-71.3832,17.73936],[-71.38756,17.71331],[-71.37983,17.70799],[-71.37383,17.71141],[-71.37031,17.71905],[-71.36984,17.71404],[-71.36366,17.7136],[-71.36225,17.71876],[-71.36591,17.72181],[-71.35524,17.74768],[-71.35552,17.75926],[-71.34905,17.76783],[-71.35177,17.77037],[-71.3512,17.7781],[-71.33806,17.79036],[-71.3403,17.79728],[-71.33728,17.80285],[-71.31159,17.82157],[-71.30344,17.82514],[-71.29668,17.82174],[-71.29485,17.82563],[-71.29795,17.82662],[-71.28956,17.83238],[-71.28695,17.82804],[-71.29693,17.8202],[-71.30361,17.82466],[-71.31197,17.8195],[-71.32862,17.79768],[-71.34816,17.76115],[-71.34907,17.74827],[-71.36064,17.70874],[-71.36414,17.69917],[-71.36869,17.69783],[-71.37061,17.68056],[-71.37873,17.66528],[-71.3878,17.66079],[-71.38955,17.65047],[-71.40063,17.63618],[-71.39827,17.63003],[-71.4005,17.62588],[-71.40629,17.61757],[-71.41194,17.61815],[-71.41724,17.61281],[-71.42182,17.60426],[-71.44208,17.62357],[-71.44469,17.63821],[-71.47228,17.66309],[-71.48625,17.70256],[-71.5028,17.73375],[-71.51138,17.74239],[-71.52922,17.75066],[-71.52982,17.75503],[-71.55092,17.76518],[-71.57218,17.76773],[-71.60227,17.76785],[-71.64401,17.75699],[-71.67224,17.75828],[-71.67907,17.76617],[-71.68851,17.76836],[-71.68881,17.77105],[-71.67248,17.77462],[-71.66411,17.78053],[-71.65792,17.78936],[-71.65354,17.81104],[-71.63698,17.80844],[-71.62834,17.82374],[-71.62808,17.83352],[-71.63259,17.84788],[-71.64544,17.86263],[-71.65247,17.88364],[-71.67467,17.90341],[-71.66885,17.90928],[-71.66093,17.91003],[-71.65536,17.92452],[-71.66021,17.92471],[-71.65421,17.9284],[-71.65655,17.94124],[-71.671,17.97192],[-71.69567,17.99397],[-71.71788,18.00421],[-71.73486,18.02392],[-71.75876,18.03167],[-71.75676,18.04122],[-71.74401,18.05322],[-71.74351,18.06558],[-71.73838,18.06885],[-71.73916,18.07726],[-71.73517,18.08123],[-71.73971,18.09104],[-71.73582,18.09608],[-71.73881,18.10005],[-71.74502,18.09862],[-71.75018,18.11221],[-71.74571,18.12288],[-71.74843,18.12531],[-71.7451,18.12652],[-71.74771,18.12994],[-71.7436,18.13198],[-71.74552,18.13697],[-71.75138,18.13815],[-71.74614,18.14211],[-71.74714,18.14768],[-71.74904,18.14883],[-71.75164,18.14317],[-71.75795,18.15272],[-71.7651,18.157],[-71.76856,18.16773],[-71.77512,18.16601],[-71.78362,18.17016],[-71.78762,18.17726],[-71.78615,18.18749],[-71.77261,18.19908],[-71.77362,18.20562],[-71.76909,18.21847],[-71.7577,18.22718],[-71.7577,18.24173],[-71.69823,18.34194],[-71.79432,18.37817],[-71.80414,18.38889],[-71.80354,18.39289],[-71.82967,18.39946],[-71.8427,18.42953],[-71.90452,18.45724],[-71.91379,18.4855],[-71.87993,18.49033],[-71.87993,18.50388],[-71.94871,18.57598],[-71.96551,18.60371],[-71.9753,18.60528],[-71.98514,18.61811],[-72.00087,18.61788],[-72.00688,18.62272],[-71.99613,18.63113],[-71.98159,18.63597],[-71.97563,18.64826],[-71.97,18.65473],[-71.96509,18.65506],[-71.95549,18.65103],[-71.95327,18.65296],[-71.92452,18.63531],[-71.91367,18.64855],[-71.90297,18.64809],[-71.88326,18.63583],[-71.88105,18.62915],[-71.8754,18.62779],[-71.86874,18.6373],[-71.85006,18.63375],[-71.84733,18.62758],[-71.83017,18.63211],[-71.82158,18.62993],[-71.80685,18.63303],[-71.80927,18.66226],[-71.80463,18.66725],[-71.80336,18.68007],[-71.80748,18.68642],[-71.79986,18.69083],[-71.79504,18.68765],[-71.78918,18.68886],[-71.78724,18.69235],[-71.78954,18.70114],[-71.78534,18.70629],[-71.77047,18.7133],[-71.73799,18.72176],[-71.72165,18.80447],[-71.72059,18.83289],[-71.72646,18.84303],[-71.72664,18.8514],[-71.72598,18.8729],[-71.72271,18.87897],[-71.73705,18.87769],[-71.73957,18.89125],[-71.7611,18.90598],[-71.76844,18.90728],[-71.78287,18.95021],[-71.78137,18.95459],[-71.79041,18.95774],[-71.79413,18.95319],[-71.79639,18.95657],[-71.80162,18.95473],[-71.81601,18.96448],[-71.82604,18.9638],[-71.82205,18.96764],[-71.82673,18.96846],[-71.83254,18.96275],[-71.83546,18.97],[-71.84268,18.96629],[-71.84397,18.96333],[-71.83988,18.95884],[-71.84317,18.95663],[-71.84898,18.96079],[-71.85293,18.95572],[-71.85963,18.96335],[-71.8623,18.95798],[-71.86043,18.94835],[-71.86691,18.9461],[-71.87436,18.94866],[-71.87995,18.94175],[-71.88289,18.94209],[-71.88652,18.95834],[-71.87524,18.95796],[-71.87626,18.97107],[-71.86871,18.97438],[-71.86809,18.98171],[-71.86401,18.98351],[-71.86338,18.9791],[-71.85562,18.97801],[-71.85207,18.99259],[-71.84423,18.99139],[-71.84191,18.9993],[-71.83437,19.00136],[-71.83338,19.00563],[-71.83007,19.0038],[-71.82787,18.99389],[-71.8046,18.99937],[-71.8055,19.00226],[-71.80057,19.0052],[-71.79626,19.00012],[-71.79839,18.99607],[-71.78871,18.99299],[-71.78695,18.99622],[-71.79108,19.00083],[-71.79036,19.00846],[-71.78556,19.01214],[-71.77595,19.01264],[-71.78238,19.0181],[-71.77109,19.0314],[-71.76776,19.0315],[-71.76574,19.02678],[-71.76146,19.02707],[-71.76333,19.03393],[-71.75287,19.04537],[-71.73808,19.04502],[-71.73746,19.04967],[-71.7226,19.0539],[-71.7203,19.05968],[-71.71736,19.05851],[-71.71572,19.06289],[-71.72045,19.06581],[-71.71606,19.07092],[-71.71076,19.07044],[-71.71023,19.06729],[-71.702,19.07244],[-71.70301,19.07597],[-71.71179,19.07817],[-71.71201,19.08321],[-71.69712,19.08714],[-71.6993,19.09582],[-71.70658,19.09997],[-71.70275,19.10573],[-71.69584,19.10825],[-71.68558,19.10295],[-71.67961,19.11248],[-71.68199,19.11406],[-71.67676,19.1163],[-71.67354,19.1134],[-71.67045,19.11714],[-71.66393,19.11318],[-71.65126,19.12098],[-71.64601,19.13518],[-71.65643,19.14296],[-71.6401,19.14676],[-71.64586,19.15355],[-71.64238,19.15706],[-71.64575,19.16893],[-71.63592,19.16699],[-71.63451,19.16948],[-71.64019,19.1749],[-71.64687,19.17614],[-71.62732,19.18188],[-71.63039,19.18931],[-71.63669,19.19158],[-71.63822,19.19846],[-71.63419,19.20482],[-71.62737,19.20598],[-71.62486,19.20283],[-71.62394,19.20642],[-71.63104,19.20757],[-71.62849,19.21148],[-71.63947,19.22939],[-71.66511,19.22927],[-71.67395,19.23552],[-71.67768,19.23252],[-71.68098,19.23862],[-71.69732,19.24118],[-71.70857,19.25299],[-71.70745,19.25865],[-71.7166,19.26722],[-71.72357,19.26751],[-71.72505,19.27828],[-71.73223,19.26643],[-71.73587,19.26547],[-71.73976,19.27385],[-71.73822,19.2766],[-71.7482,19.27452],[-71.75547,19.28183],[-71.75364,19.2888],[-71.76128,19.29135],[-71.76046,19.29605],[-71.75582,19.29862],[-71.76472,19.30798],[-71.76938,19.32094],[-71.77305,19.31988],[-71.77963,19.32951],[-71.78609,19.33187],[-71.75275,19.34029],[-71.75594,19.34496],[-71.74551,19.35594],[-71.72409,19.36649],[-71.7183,19.36334],[-71.71389,19.3711],[-71.70348,19.36467],[-71.70102,19.35799],[-71.69433,19.35914],[-71.69217,19.36252],[-71.69413,19.36826],[-71.69113,19.37191],[-71.69756,19.38983],[-71.69753,19.39874],[-71.6906,19.40668],[-71.68898,19.41497],[-71.69107,19.4155],[-71.67962,19.43427],[-71.68103,19.43988],[-71.6784,19.44525],[-71.68,19.45185],[-71.68549,19.45581],[-71.6872,19.46726],[-71.6907,19.46906],[-71.68889,19.47182],[-71.69436,19.47717],[-71.69224,19.48209],[-71.69425,19.48991],[-71.68813,19.50281],[-71.68893,19.51394],[-71.69201,19.51109],[-71.6984,19.51155],[-71.69979,19.51977],[-71.70326,19.52101],[-71.70264,19.53306],[-71.71227,19.53276],[-71.712,19.54856],[-71.71518,19.55837],[-71.7436,19.58442],[-71.74611,19.63131],[-71.7323,19.64624],[-71.73512,19.66159],[-71.75611,19.67604],[-71.75413,19.68517],[-71.75953,19.68848],[-71.75249,19.68893],[-71.75186,19.68392],[-71.74809,19.68578],[-71.74831,19.68294],[-71.74354,19.68199],[-71.74021,19.68564],[-71.74647,19.68632],[-71.75856,19.69411],[-71.75625,19.70238],[-71.73284,19.70763],[-71.7349,19.70065],[-71.72407,19.69488],[-71.72401,19.69155],[-71.73404,19.69011],[-71.72033,19.68273],[-71.71387,19.68629],[-71.69532,19.68208],[-71.68045,19.68603],[-71.6897,19.6949],[-71.68273,19.7034],[-71.69489,19.70473],[-71.69799,19.71176],[-71.70617,19.71292],[-71.7046,19.7168],[-71.70132,19.71569],[-71.69745,19.71974],[-71.70696,19.72783],[-71.71185,19.72751],[-71.71227,19.73637],[-71.71613,19.73181],[-71.71835,19.73461],[-71.70942,19.75276],[-71.71107,19.76186],[-71.72552,19.76473],[-71.73065,19.76221],[-71.73232,19.76502],[-71.72975,19.77368],[-71.71663,19.7852],[-71.71227,19.78475],[-71.72159,19.79735],[-71.71799,19.80113],[-71.71574,19.79718],[-71.71098,19.79751],[-71.71009,19.80061],[-71.7132,19.80725],[-71.72725,19.80215],[-71.7376,19.80328],[-71.74121,19.80785],[-71.74303,19.80202],[-71.76598,19.78237],[-71.76951,19.77588],[-71.77859,19.77694],[-71.74743,19.8057],[-71.74509,19.81415],[-71.70802,19.8229],[-71.6932,19.83072],[-71.69172,19.83949],[-71.67682,19.84318],[-71.65965,19.85747],[-71.65399,19.86836],[-71.65547,19.88378],[-71.66055,19.89502],[-71.65484,19.89498],[-71.65218,19.89862],[-71.64426,19.89668],[-71.63941,19.89122],[-71.63877,19.88583],[-71.64402,19.88253],[-71.65382,19.88252],[-71.65249,19.86838],[-71.65631,19.8606],[-71.65342,19.85897],[-71.64789,19.86948],[-71.60124,19.87802],[-71.59701,19.88528],[-71.59045,19.88358],[-71.58272,19.89334],[-71.58438,19.89512],[-71.57458,19.895],[-71.57128,19.90071],[-71.57309,19.90416],[-71.53949,19.91211],[-71.50292,19.90478],[-71.49123,19.90597],[-71.48514,19.90001],[-71.44168,19.88632],[-71.43847,19.88122],[-71.42854,19.88084],[-71.40362,19.87011],[-71.4022,19.8664],[-71.38364,19.86215],[-71.37714,19.85528],[-71.35903,19.85347],[-71.35615,19.84908],[-71.33905,19.84536],[-71.29988,19.84562],[-71.2779,19.83007],[-71.27456,19.82458],[-71.26775,19.82402],[-71.26267,19.82988],[-71.24847,19.82619],[-71.24228,19.83065],[-71.23274,19.82922],[-71.21573,19.83844],[-71.21267,19.84376],[-71.21386,19.85095],[-71.20881,19.85898],[-71.21279,19.86203],[-71.21045,19.8694],[-71.19455,19.86136],[-71.18984,19.85498],[-71.17495,19.85039],[-71.17469,19.84114],[-71.19105,19.84377],[-71.18195,19.83461],[-71.17734,19.83531],[-71.17148,19.84478],[-71.16589,19.847],[-71.16575,19.85361],[-71.13809,19.85072],[-71.12891,19.85585],[-71.12776,19.85123],[-71.11031,19.84835],[-71.10892,19.85609],[-71.11377,19.86285],[-71.13597,19.8546],[-71.16818,19.8622],[-71.13191,19.85633],[-71.12466,19.86323],[-71.10105,19.86815],[-71.08702,19.87732],[-71.07671,19.87912],[-71.07304,19.8744],[-71.07671,19.87989],[-71.08446,19.87851],[-71.07883,19.88527],[-71.08278,19.89578],[-71.07569,19.90513],[-71.06404,19.91054],[-71.06142,19.91816],[-71.02376,19.93082],[-70.99818,19.93176],[-70.98836,19.92981],[-70.94437,19.90559],[-70.94473,19.90146],[-70.95332,19.9024],[-70.95341,19.89917],[-70.96103,19.89896],[-70.96236,19.89611],[-70.95417,19.89441],[-70.95123,19.89843],[-70.94144,19.90021],[-70.94354,19.89272],[-70.93911,19.88762],[-70.92658,19.89702],[-70.92757,19.90036],[-70.93331,19.9021],[-70.93326,19.89824],[-70.94023,19.90048],[-70.9399,19.90692],[-70.93353,19.91579],[-70.90448,19.90383],[-70.88598,19.90479],[-70.87939,19.89997],[-70.87456,19.90517],[-70.86268,19.90131],[-70.85253,19.90643],[-70.83808,19.90491],[-70.83835,19.89358],[-70.8349,19.88899],[-70.8234,19.88228],[-70.81005,19.88113],[-70.80009,19.86642],[-70.8047,19.86573],[-70.80354,19.85892],[-70.79562,19.85617],[-70.79101,19.85776],[-70.7797,19.84397],[-70.77882,19.83858],[-70.78432,19.83183],[-70.78172,19.82902],[-70.76953,19.83493],[-70.74616,19.83774],[-70.7352,19.83064],[-70.73462,19.82678],[-70.73081,19.82682],[-70.72911,19.82053],[-70.72326,19.82083],[-70.72091,19.81726],[-70.71,19.81402],[-70.70256,19.80559],[-70.70688,19.80298],[-70.70577,19.80015],[-70.70085,19.79826],[-70.69274,19.80336],[-70.68259,19.7951],[-70.66045,19.78488],[-70.65082,19.77312],[-70.63857,19.77272],[-70.63823,19.76654],[-70.63168,19.76364],[-70.61895,19.76955],[-70.60909,19.76217],[-70.58971,19.75554],[-70.56668,19.76397],[-70.55744,19.76443],[-70.54783,19.75486],[-70.51764,19.75474],[-70.51871,19.76708],[-70.51331,19.77202],[-70.5127,19.77872],[-70.48827,19.78446],[-70.45099,19.78322],[-70.43541,19.77498],[-70.41208,19.75122],[-70.40176,19.75246],[-70.38871,19.73878],[-70.37069,19.71343],[-70.37023,19.71083],[-70.37392,19.71292],[-70.36118,19.69805],[-70.31206,19.65864],[-70.29432,19.64924],[-70.26734,19.6408],[-70.22738,19.63992],[-70.19496,19.62881],[-70.18326,19.62786],[-70.17071,19.62073],[-70.14815,19.6201],[-70.10798,19.6273],[-70.1055,19.62281],[-70.09708,19.62415],[-70.0944,19.6297],[-70.08679,19.62924],[-70.07556,19.65621],[-70.07203,19.65689],[-70.06178,19.66995],[-70.04889,19.67362],[-70.04797,19.67724],[-70.04007,19.67561],[-70.01835,19.6805],[-70.01263,19.67783],[-69.99469,19.67818],[-69.98914,19.68323],[-69.96167,19.68081],[-69.95279,19.67442],[-69.946,19.67471],[-69.94106,19.66688],[-69.93753,19.66703],[-69.93625,19.65828],[-69.9282,19.65189],[-69.92058,19.65347],[-69.91472,19.64758],[-69.90071,19.64559],[-69.89453,19.63377],[-69.88628,19.61733],[-69.8843,19.60292],[-69.89479,19.58329],[-69.89523,19.56501],[-69.90464,19.54693],[-69.89653,19.52895],[-69.8934,19.5287],[-69.8886,19.51946],[-69.87704,19.51591],[-69.87007,19.5095],[-69.87289,19.50228],[-69.87295,19.46262],[-69.87631,19.45616],[-69.87086,19.43627],[-69.84652,19.39243],[-69.84646,19.38084],[-69.84056,19.36851],[-69.82421,19.35416],[-69.81605,19.35137],[-69.81301,19.33953],[-69.80648,19.33647],[-69.80495,19.32927],[-69.79226,19.31335],[-69.77891,19.30131],[-69.75742,19.28852],[-69.73378,19.27896],[-69.70665,19.27597],[-69.67386,19.28305],[-69.65354,19.29395],[-69.59064,19.29751],[-69.57562,19.30567],[-69.57565,19.31442],[-69.56493,19.31381],[-69.5617,19.32039],[-69.55654,19.31912],[-69.55059,19.32622],[-69.5449,19.32714],[-69.53946,19.32187],[-69.52821,19.32667],[-69.52644,19.32449],[-69.50719,19.32725],[-69.489,19.32253],[-69.46676,19.32723],[-69.45395,19.326],[-69.44938,19.32057],[-69.44316,19.32651],[-69.43745,19.32485],[-69.43527,19.31945],[-69.42712,19.31444],[-69.4198,19.31575],[-69.41493,19.32156],[-69.39265,19.30873],[-69.38018,19.31133],[-69.37554,19.30258],[-69.35466,19.30314],[-69.34839,19.29182],[-69.33156,19.28296],[-69.32573,19.28439],[-69.32522,19.30216],[-69.32157,19.30706],[-69.30477,19.31997],[-69.29772,19.31998],[-69.28797,19.33107],[-69.26681,19.3342],[-69.26683,19.34141],[-69.26059,19.34567],[-69.2549,19.34683],[-69.25027,19.34195],[-69.23864,19.36385],[-69.23022,19.36232],[-69.22452,19.35718],[-69.22452,19.35975],[-69.21557,19.36002],[-69.21488,19.35435],[-69.22151,19.33967],[-69.23398,19.32883],[-69.25495,19.29584],[-69.24748,19.28812],[-69.21954,19.28674],[-69.20707,19.29693],[-69.19649,19.29243],[-69.18971,19.29514],[-69.18456,19.29309],[-69.18402,19.29618],[-69.16965,19.30456],[-69.15201,19.30136],[-69.15348,19.28024],[-69.16689,19.26091],[-69.18424,19.25136],[-69.19724,19.2386],[-69.20916,19.23331],[-69.217,19.21269],[-69.21549,19.20007],[-69.22239,19.19002],[-69.21941,19.18874],[-69.22103,19.18358],[-69.23132,19.17945],[-69.27836,19.18428],[-69.28692,19.19212],[-69.29533,19.19494],[-69.29803,19.19043],[-69.30753,19.19698],[-69.31511,19.19413],[-69.33302,19.20312],[-69.33722,19.2004],[-69.33437,19.19719],[-69.34249,19.19408],[-69.40051,19.19551],[-69.40728,19.19047],[-69.40753,19.18442],[-69.41269,19.18583],[-69.41569,19.19329],[-69.42626,19.19365],[-69.43167,19.1899],[-69.44499,19.20082],[-69.46044,19.20207],[-69.47293,19.2077],[-69.48784,19.20573],[-69.49191,19.20868],[-69.49787,19.20764],[-69.50548,19.21302],[-69.51388,19.2103],[-69.52582,19.21374],[-69.53367,19.21114],[-69.54209,19.21421],[-69.55401,19.21224],[-69.58494,19.21897],[-69.59103,19.21702],[-69.60882,19.22559],[-69.62319,19.22399],[-69.6267,19.22102],[-69.6239,19.19785],[-69.62695,19.17801],[-69.6402,19.13495],[-69.63729,19.11976],[-69.63252,19.1127],[-69.63495,19.10908],[-69.63209,19.10433],[-69.63599,19.09736],[-69.62726,19.08168],[-69.61046,19.08109],[-69.60557,19.07789],[-69.56335,19.08987],[-69.5552,19.08346],[-69.55223,19.0863],[-69.5487,19.08193],[-69.54139,19.08324],[-69.53203,19.07889],[-69.52785,19.08457],[-69.51863,19.08228],[-69.50618,19.08798],[-69.50238,19.0849],[-69.50185,19.08773],[-69.4967,19.08697],[-69.49315,19.07719],[-69.47419,19.07905],[-69.45617,19.07626],[-69.45967,19.0711],[-69.45492,19.06686],[-69.44923,19.06597],[-69.44624,19.06134],[-69.43568,19.06188],[-69.43274,19.07941],[-69.42098,19.08871],[-69.41995,19.09274],[-69.40068,19.09416],[-69.39538,19.09057],[-69.39754,19.0867],[-69.3951,19.08387],[-69.39022,19.08208],[-69.38641,19.075],[-69.38829,19.06972],[-69.38068,19.05892],[-69.36225,19.05457],[-69.36062,19.05187],[-69.35358,19.05227],[-69.34327,19.04353],[-69.3278,19.03971],[-69.32486,19.04692],[-69.30698,19.0472],[-69.30399,19.0418],[-69.2983,19.04001],[-69.29856,19.03614],[-69.28014,19.03076],[-69.2804,19.02793],[-69.26468,19.01688],[-69.25567,19.01379],[-69.2462,19.02033],[-69.23694,19.02094],[-69.23197,19.01724],[-69.22097,19.01887],[-69.20463,19.00726],[-69.19182,19.00975],[-69.19058,19.00595],[-69.18376,19.00468],[-69.15929,19.00784],[-69.15264,18.99836],[-69.13878,18.99786],[-69.13446,19.00664],[-69.13569,19.03492],[-69.1469,19.04341],[-69.14067,19.04329],[-69.13444,19.04174],[-69.11559,19.01162],[-69.09921,19.0106],[-69.09595,18.99927],[-69.08295,18.99567],[-69.07402,18.98653],[-69.064,18.98473],[-69.04071,18.98796],[-69.02663,18.98525],[-69.01472,18.98706],[-69.00375,18.99491],[-69.0024,19.00032],[-69.01472,19.01397],[-69.00389,19.01874],[-68.98656,19.01385],[-68.9806,19.01629],[-68.97681,19.02711],[-68.96922,19.03097],[-68.95351,19.02582],[-68.94945,19.03071],[-68.94241,19.03109],[-68.9202,19.028],[-68.8685,18.99332],[-68.86173,18.99139],[-68.85117,18.99589],[-68.83438,18.99458],[-68.81625,18.98207],[-68.79514,18.98102],[-68.77701,18.97379]],[[-68.88861,18.42666],[-68.88433,18.4327],[-68.88796,18.42923],[-68.88861,18.42666]],[[-69.08706,18.43256],[-69.08956,18.43126],[-69.08898,18.42999],[-69.08706,18.43256]],[[-69.34803,18.52619],[-69.35128,18.52863],[-69.34535,18.51403],[-69.33549,18.51295],[-69.34382,18.51318],[-69.34803,18.52619]],[[-70.37448,19.70176],[-70.3702,19.70288],[-70.37641,19.71364],[-70.37113,19.70107],[-70.37659,19.70296],[-70.38063,19.69919],[-70.37448,19.70176]],[[-70.37498,19.68795],[-70.37584,19.69485],[-70.37664,19.69519],[-70.37498,19.68795]],[[-70.3797,19.69598],[-70.37735,19.6955],[-70.38004,19.69714],[-70.3797,19.69598]]],[[[-68.76137,18.15104],[-68.77199,18.16458],[-68.78505,18.17258],[-68.78395,18.18907],[-68.7764,18.19588],[-68.76737,18.19884],[-68.75969,18.19342],[-68.72548,18.1841],[-68.70906,18.17313],[-68.69316,18.17078],[-68.68723,18.17605],[-68.67295,18.17397],[-68.66784,18.1652],[-68.65734,18.16402],[-68.65007,18.15899],[-68.63013,18.16088],[-68.6242,18.15881],[-68.60587,18.16341],[-68.58193,18.14752],[-68.57078,18.13101],[-68.56853,18.11812],[-68.57258,18.11131],[-68.57851,18.10952],[-68.58954,18.11778],[-68.64582,18.12974],[-68.65526,18.12435],[-68.66226,18.12565],[-68.67412,18.12207],[-68.68087,18.11564],[-68.69272,18.11514],[-68.7533,18.13635],[-68.75478,18.14395],[-68.76137,18.15104]]],[[[-68.63787,18.1931],[-68.63976,18.19374],[-68.63625,18.19837],[-68.63787,18.1931]]],[[[-68.73866,18.20344],[-68.73973,18.20859],[-68.73056,18.20845],[-68.73866,18.20344]]],[[[-68.99524,18.33949],[-69.02464,18.35173],[-69.02572,18.35662],[-69.02114,18.35611],[-69.01736,18.37697],[-69.01089,18.37775],[-68.99646,18.36178],[-68.99362,18.34632],[-68.99146,18.34632],[-68.99524,18.33949]]],[[[-69.27413,19.16368],[-69.27793,19.16844],[-69.27196,19.16651],[-69.27413,19.16368]]],[[[-69.62947,18.43749],[-69.62652,18.44137],[-69.62435,18.43906],[-69.62947,18.43749]]],[[[-70.80004,19.86219],[-70.7955,19.86377],[-70.79458,19.86056],[-70.80004,19.86219]]],[[[-71.17022,19.85945],[-71.16972,19.85587],[-71.17404,19.85337],[-71.17022,19.85945]]],[[[-71.30881,17.82495],[-71.31775,17.83025],[-71.31697,17.83232],[-71.30684,17.83124],[-71.30157,17.82632],[-71.30881,17.82495]]],[[[-71.54833,17.5432],[-71.55283,17.54829],[-71.55216,17.55808],[-71.54686,17.57231],[-71.53974,17.58141],[-71.53779,17.59533],[-71.52807,17.60112],[-71.52147,17.61858],[-71.51386,17.6116],[-71.4996,17.60946],[-71.48804,17.58876],[-71.48288,17.58406],[-71.47242,17.58471],[-71.47064,17.58177],[-71.47569,17.5781],[-71.47759,17.5701],[-71.49883,17.55349],[-71.53329,17.54198],[-71.54833,17.5432]]],[[[-71.64011,17.4707],[-71.64387,17.47065],[-71.64774,17.47884],[-71.64213,17.48046],[-71.637,17.4777],[-71.63665,17.47255],[-71.64011,17.4707]]],[[[-71.66801,19.88539],[-71.66944,19.88949],[-71.66575,19.88877],[-71.66801,19.88539]]],[[[-71.72468,19.7946],[-71.72506,19.80128],[-71.72235,19.80119],[-71.72468,19.7946]]],[[[-71.73291,19.70376],[-71.72809,19.71593],[-71.7235,19.7178],[-71.72778,19.7059],[-71.73291,19.70376]]],[[[-71.73265,19.73645],[-71.72468,19.73142],[-71.72352,19.72706],[-71.72624,19.7269],[-71.73265,19.73645]]],[[[-71.73657,19.77473],[-71.73611,19.77964],[-71.73413,19.77528],[-71.73657,19.77473]]],[[[-71.73891,19.78472],[-71.74141,19.78752],[-71.73925,19.78871],[-71.73891,19.78472]]],[[[-71.77367,19.75807],[-71.77948,19.75972],[-71.7782,19.76922],[-71.77521,19.76273],[-71.77169,19.76215],[-71.77367,19.75807]]]]}}]}