{"type":"FeatureCollection","features":[{"type":"Feature","properties":{"ISO_A3":"DZA","WB_A3":"DZA","WB_NAME":"Algeria","WB_REGION":"MEA"},"geometry":{"type":"MultiPolygon","coordinates":[[[[7.28696,37.07004],[7.28896,37.07366],[7.28586,37.07619],[7.29636,37.08006],[7.3051,37.07621],[7.30712,37.07161],[7.33773,37.06447],[7.35194,37.0671],[7.3565,37.07115],[7.37348,37.07151],[7.36975,37.08122],[7.37197,37.08254],[7.38715,37.08214],[7.38711,37.07889],[7.39541,37.08054],[7.39147,37.06996],[7.3832,37.06689],[7.38202,37.06212],[7.39646,37.04614],[7.40529,37.04523],[7.40781,37.03987],[7.42911,37.03989],[7.4612,37.04584],[7.47466,37.04563],[7.48821,37.04105],[7.51228,37.04233],[7.51808,37.03796],[7.52499,37.02006],[7.55444,37.0045],[7.55836,36.99196],[7.56291,36.98842],[7.5897,36.97692],[7.60075,36.96806],[7.60746,36.96904],[7.62136,36.96149],[7.62961,36.96557],[7.64342,36.9629],[7.64304,36.96624],[7.64943,36.96708],[7.65378,36.97484],[7.65971,36.97413],[7.66095,36.96721],[7.6709,36.96591],[7.67665,36.96662],[7.67585,36.96952],[7.68104,36.9718],[7.68436,36.96516],[7.69343,36.95884],[7.69499,36.96143],[7.70382,36.95972],[7.70156,36.95148],[7.71216,36.94928],[7.72102,36.95529],[7.76802,36.95861],[7.78211,36.96826],[7.79122,36.96938],[7.79256,36.96554],[7.78067,36.95823],[7.78097,36.94949],[7.76825,36.94448],[7.76715,36.93342],[7.76299,36.93312],[7.76066,36.92899],[7.76464,36.9203],[7.77176,36.91549],[7.77201,36.90958],[7.77586,36.90885],[7.76138,36.89432],[7.76777,36.89464],[7.776,36.90012],[7.77668,36.89756],[7.7642,36.88792],[7.76158,36.88224],[7.76781,36.87255],[7.78752,36.85926],[7.83539,36.84433],[7.86803,36.84156],[7.91339,36.84378],[7.99374,36.85887],[8.0781,36.88859],[8.0845,36.88825],[8.18672,36.931],[8.20038,36.94021],[8.20712,36.93846],[8.20835,36.94361],[8.22144,36.94626],[8.22811,36.95196],[8.24126,36.9487],[8.24059,36.93585],[8.26193,36.93008],[8.26631,36.9242],[8.2662,36.91829],[8.2707,36.91652],[8.28511,36.91468],[8.30716,36.91828],[8.31358,36.91587],[8.3289,36.91969],[8.34013,36.91615],[8.34267,36.91912],[8.36056,36.92192],[8.37947,36.91778],[8.38431,36.91369],[8.4019,36.9143],[8.42668,36.89515],[8.43497,36.89866],[8.45225,36.89694],[8.45256,36.89925],[8.47654,36.9009],[8.49091,36.90405],[8.49185,36.90739],[8.50211,36.90397],[8.50848,36.90772],[8.51585,36.90698],[8.52252,36.91343],[8.55031,36.92112],[8.55636,36.92692],[8.57778,36.93072],[8.58995,36.92884],[8.59281,36.93296],[8.6024,36.93402],[8.61101,36.94163],[8.61712,36.9342],[8.63823,36.93747],[8.63821,36.94133],[8.64207,36.94095],[8.64263,36.92978],[8.65336,36.91622],[8.63686,36.90921],[8.63047,36.89719],[8.63215,36.8926],[8.62879,36.8862],[8.63125,36.8728],[8.625,36.85376],[8.63111,36.85598],[8.65398,36.84851],[8.66561,36.84918],[8.66753,36.8446],[8.68105,36.83888],[8.66999,36.81802],[8.66017,36.81195],[8.63001,36.80102],[8.62179,36.80119],[8.61874,36.79522],[8.61089,36.79103],[8.60075,36.79912],[8.57732,36.78076],[8.57271,36.77339],[8.56376,36.77363],[8.554,36.7789],[8.54942,36.77433],[8.53333,36.77413],[8.53097,36.77891],[8.52346,36.78204],[8.51806,36.77832],[8.48444,36.77938],[8.42946,36.75921],[8.42959,36.75],[8.43721,36.74663],[8.4449,36.74599],[8.45946,36.75126],[8.46419,36.74825],[8.47011,36.74132],[8.4645,36.73497],[8.46512,36.72693],[8.47899,36.70323],[8.48727,36.69712],[8.4831,36.69021],[8.4834,36.68211],[8.47006,36.66795],[8.45392,36.66257],[8.45966,36.65827],[8.44687,36.62373],[8.44813,36.62005],[8.43228,36.61857],[8.41766,36.62231],[8.40421,36.61707],[8.39767,36.61065],[8.39471,36.59813],[8.38806,36.59447],[8.38034,36.59794],[8.32635,36.5741],[8.31991,36.55723],[8.29223,36.54001],[8.26611,36.53509],[8.25673,36.53719],[8.2501,36.53349],[8.24777,36.52813],[8.22356,36.51972],[8.22404,36.51658],[8.19643,36.50843],[8.17767,36.51358],[8.17291,36.50405],[8.16173,36.49861],[8.15586,36.49941],[8.15424,36.49603],[8.16035,36.48788],[8.15837,36.47998],[8.16999,36.46308],[8.1764,36.45953],[8.19492,36.46091],[8.19896,36.45905],[8.20016,36.45297],[8.20863,36.44797],[8.24648,36.44696],[8.26105,36.43753],[8.28494,36.44576],[8.303,36.44243],[8.30646,36.43423],[8.31533,36.43813],[8.32742,36.43632],[8.32803,36.43324],[8.34259,36.43458],[8.35434,36.44609],[8.36736,36.43753],[8.3718,36.42837],[8.40686,36.42265],[8.40833,36.41541],[8.40876,36.41064],[8.39855,36.40264],[8.39414,36.39408],[8.40199,36.37822],[8.39387,36.3651],[8.37737,36.35344],[8.37638,36.3499],[8.38496,36.33664],[8.38443,36.3302],[8.37639,36.3237],[8.37721,36.31775],[8.38008,36.31141],[8.39044,36.30433],[8.3832,36.30287],[8.38097,36.29698],[8.37178,36.29794],[8.36492,36.29402],[8.34726,36.27895],[8.3396,36.2663],[8.34882,36.26258],[8.35376,36.25433],[8.35402,36.23077],[8.34609,36.22537],[8.3472,36.22011],[8.33786,36.21294],[8.33082,36.19228],[8.30671,36.17279],[8.30874,36.16198],[8.3154,36.1583],[8.32534,36.14485],[8.3385,36.13789],[8.33932,36.11725],[8.34473,36.10282],[8.33732,36.09459],[8.32301,36.08847],[8.31954,36.07699],[8.3117,36.06916],[8.31381,36.06283],[8.2976,36.04147],[8.29577,36.03396],[8.30035,36.01196],[8.28937,35.95225],[8.2705,35.94619],[8.26303,35.93763],[8.2631,35.9184],[8.25638,35.91365],[8.2558,35.90828],[8.27154,35.90779],[8.26799,35.89797],[8.25327,35.88588],[8.26954,35.87995],[8.26686,35.87048],[8.27269,35.81881],[8.26853,35.81411],[8.27002,35.80996],[8.26432,35.79511],[8.26541,35.78259],[8.25825,35.76271],[8.2664,35.7383],[8.26434,35.7305],[8.28007,35.72249],[8.30793,35.69152],[8.31882,35.68507],[8.33657,35.6834],[8.35619,35.67012],[8.35992,35.63997],[8.35689,35.62109],[8.3506,35.61087],[8.35315,35.58204],[8.36303,35.53495],[8.35994,35.52578],[8.37436,35.49409],[8.38538,35.48735],[8.38356,35.46684],[8.37533,35.46801],[8.35325,35.46283],[8.34959,35.45376],[8.33914,35.44511],[8.33076,35.42376],[8.31533,35.41427],[8.32502,35.41329],[8.3299,35.40634],[8.31265,35.37095],[8.31756,35.34095],[8.31691,35.32592],[8.31224,35.32489],[8.31091,35.32002],[8.3123,35.31299],[8.32286,35.30032],[8.32457,35.28981],[8.33464,35.2795],[8.35892,35.2762],[8.36535,35.27025],[8.3784,35.26645],[8.40595,35.24638],[8.42111,35.24643],[8.44622,35.237],[8.47643,35.23961],[8.45673,35.22261],[8.42263,35.17924],[8.41636,35.15104],[8.39965,35.12735],[8.35712,35.09869],[8.31544,35.00901],[8.31777,34.99999],[8.31082,34.95472],[8.31566,34.94983],[8.30791,34.94723],[8.3014,34.95001],[8.29761,34.94651],[8.28445,34.94443],[8.26936,34.93255],[8.25539,34.92796],[8.24581,34.9202],[8.25603,34.90892],[8.26115,34.89526],[8.26095,34.87966],[8.27009,34.86503],[8.2707,34.85063],[8.27507,34.84582],[8.27385,34.8383],[8.27892,34.8358],[8.28044,34.81275],[8.28508,34.80545],[8.28168,34.76942],[8.28934,34.7599],[8.29382,34.74553],[8.31999,34.73341],[8.31271,34.72844],[8.29983,34.73196],[8.29397,34.73059],[8.29198,34.72195],[8.26427,34.69198],[8.24795,34.69123],[8.23895,34.6869],[8.23663,34.67642],[8.24135,34.6691],[8.25868,34.65997],[8.27719,34.65993],[8.28072,34.6549],[8.27409,34.64586],[8.26526,34.64471],[8.2412,34.63155],[8.24401,34.61956],[8.24857,34.61554],[8.23808,34.61337],[8.23214,34.61564],[8.22061,34.6057],[8.21079,34.60315],[8.20865,34.59113],[8.20419,34.58918],[8.22277,34.57848],[8.20631,34.57798],[8.20538,34.57439],[8.19813,34.57549],[8.18567,34.57121],[8.17102,34.57583],[8.17009,34.56512],[8.16003,34.56761],[8.16625,34.55402],[8.15248,34.54739],[8.14728,34.53938],[8.14865,34.53408],[8.13391,34.53137],[8.12029,34.52403],[8.1153,34.51246],[8.08609,34.51434],[8.07104,34.5035],[8.07036,34.49611],[8.0427,34.49332],[8.01786,34.47218],[8.01016,34.45752],[7.98734,34.45387],[7.97368,34.44746],[7.95187,34.44617],[7.95101,34.43981],[7.94064,34.43878],[7.93315,34.42872],[7.932,34.42406],[7.93455,34.42199],[7.92233,34.41558],[7.88974,34.41633],[7.87583,34.40672],[7.85545,34.4057],[7.85218,34.38998],[7.85775,34.37836],[7.85138,34.36787],[7.85338,34.35544],[7.81331,34.25413],[7.8039,34.22807],[7.80414,34.21926],[7.79673,34.20901],[7.77751,34.20091],[7.72297,34.16647],[7.65423,34.19793],[7.61277,34.13685],[7.60499,34.11038],[7.57502,34.10113],[7.56799,34.09424],[7.57171,34.09265],[7.57582,34.09569],[7.57711,34.08986],[7.56073,34.08049],[7.553,34.07953],[7.54741,34.07338],[7.53754,34.07266],[7.52803,34.06346],[7.55392,34.0188],[7.54022,33.97574],[7.5412,33.93867],[7.52231,33.90569],[7.54634,33.83641],[7.52464,33.79733],[7.55991,33.77906],[7.58898,33.75057],[7.57663,33.74687],[7.56473,33.72704],[7.5975,33.69008],[7.59245,33.64918],[7.62815,33.57377],[7.74336,33.42515],[7.78941,33.26015],[7.81035,33.21439],[7.8084,33.20752],[7.84081,33.19443],[7.85396,33.17728],[7.88427,33.18057],[8.14382,33.08397],[8.10764,33.06656],[8.10458,33.04994],[8.32321,32.82317],[8.35734,32.50173],[9.07542,32.08647],[9.5562,30.22889],[9.52097,30.22311],[9.43313,30.18558],[9.41773,30.18731],[9.40091,30.1792],[9.39221,30.16767],[9.39364,30.14676],[9.41537,30.04151],[9.53884,29.90392],[9.78311,29.42707],[9.87352,29.02732],[9.90432,28.7582],[9.83481,28.28628],[9.96594,27.88286],[9.96425,27.86],[9.94589,27.8432],[9.94315,27.75794],[9.94568,27.73247],[9.92901,27.69723],[9.92641,27.67285],[9.89498,27.61051],[9.86932,27.58344],[9.82501,27.57585],[9.81967,27.56948],[9.82206,27.56173],[9.8296,27.55871],[9.88158,27.55871],[9.87307,27.54177],[9.86766,27.52101],[9.86656,27.50132],[9.85018,27.49644],[9.83209,27.48551],[9.81717,27.46166],[9.81988,27.44703],[9.81219,27.4336],[9.81554,27.40996],[9.79813,27.38055],[9.79665,27.37046],[9.78801,27.35509],[9.78742,27.35088],[9.79754,27.35088],[9.7984,27.34059],[9.79588,27.31439],[9.7908,27.30539],[9.79175,27.29755],[9.78132,27.26266],[9.79533,27.22797],[9.79571,27.1993],[9.8006,27.18855],[9.79976,27.16874],[9.81839,27.14644],[9.81685,27.13194],[9.82299,27.12631],[9.82366,27.11409],[9.83015,27.10591],[9.8342,27.08087],[9.83203,27.06807],[9.83893,27.04768],[9.83888,27.02164],[9.86135,26.9334],[9.86877,26.92486],[9.87308,26.91361],[9.89056,26.9014],[9.90665,26.87336],[9.93041,26.85794],[9.9024,26.74312],[9.91374,26.64623],[9.86347,26.51628],[9.50915,26.38104],[9.48695,26.33343],[9.43517,26.23965],[9.39984,26.19543],[10.02839,25.35414],[10.0411,24.95552],[10.06505,24.93044],[10.06949,24.91772],[10.09633,24.88551],[10.1025,24.8714],[10.10579,24.84463],[10.11237,24.83371],[10.13539,24.81069],[10.17034,24.74344],[10.17637,24.72459],[10.19784,24.70044],[10.19591,24.68184],[10.21309,24.66125],[10.21499,24.64776],[10.22322,24.64565],[10.25253,24.62545],[10.26377,24.62255],[10.27904,24.61118],[10.28602,24.59866],[10.30202,24.59706],[10.32418,24.56843],[10.34044,24.55659],[10.35582,24.53333],[10.39738,24.53361],[10.41072,24.53046],[10.45261,24.53239],[10.48311,24.54216],[10.5073,24.53701],[10.52872,24.5366],[10.54423,24.53186],[10.57275,24.54179],[10.58152,24.5371],[10.58775,24.5393],[10.58872,24.55412],[10.60042,24.55866],[10.61631,24.57283],[10.62966,24.56489],[10.63739,24.56847],[10.71492,24.5701],[10.72822,24.56412],[10.72661,24.56074],[10.73191,24.5458],[10.73946,24.53551],[10.75602,24.52486],[10.76541,24.50839],[10.79958,24.52626],[10.7927,24.53106],[10.79196,24.54277],[10.81343,24.56305],[10.82277,24.56769],[10.84985,24.56628],[10.8783,24.5538],[10.89739,24.5548],[10.95158,24.52906],[10.98126,24.49125],[11.0098,24.46978],[11.03744,24.44355],[11.04777,24.42484],[11.06161,24.422],[11.07528,24.41058],[11.09174,24.40825],[11.13179,24.39244],[11.42156,24.20062],[11.44758,24.21344],[11.50078,24.22777],[11.53289,24.24456],[11.56911,24.25419],[11.58166,24.25369],[11.60295,24.26582],[11.9785,23.5415],[11.99816,23.5159],[10.80847,22.83789],[9.67794,22.17894],[8.48508,21.46831],[7.45891,20.84448],[6.67184,20.18021],[5.81252,19.4444],[4.68482,19.22872],[3.35773,18.96639],[3.35042,18.97052],[3.33702,18.99092],[3.32739,18.99871],[3.32022,18.997],[3.2987,19.00025],[3.27662,19.03286],[3.25345,19.04415],[3.23756,19.06392],[3.20849,19.07656],[3.20664,19.08244],[3.17952,19.09575],[3.16432,19.11167],[3.15462,19.11181],[3.14037,19.12172],[3.12464,19.12675],[3.12117,19.13208],[3.12132,19.14198],[3.11572,19.14632],[3.11649,19.16087],[3.12224,19.16697],[3.12278,19.184],[3.15467,19.21136],[3.16048,19.21999],[3.16364,19.23824],[3.17574,19.2516],[3.17946,19.26217],[3.1976,19.27562],[3.19809,19.28312],[3.20214,19.28818],[3.20426,19.30666],[3.18463,19.33262],[3.17951,19.35472],[3.17571,19.35888],[3.19865,19.39356],[3.19758,19.41471],[3.20846,19.43358],[3.23229,19.43911],[3.24467,19.43796],[3.25949,19.44291],[3.26398,19.45131],[3.24619,19.49675],[3.26352,19.52162],[3.26157,19.52483],[3.25238,19.52679],[3.24591,19.5338],[3.24437,19.55757],[3.23813,19.55799],[3.2347,19.56215],[3.23776,19.56829],[3.23073,19.587],[3.23344,19.61009],[3.24485,19.6206],[3.24959,19.63212],[3.248,19.65277],[3.2399,19.6573],[3.2409,19.66195],[3.23153,19.67679],[3.2319,19.70109],[3.22829,19.71294],[3.24747,19.74526],[3.24816,19.75588],[3.24184,19.77627],[3.2511,19.80513],[3.2589,19.81818],[3.25401,19.83502],[3.21224,19.84331],[3.19834,19.84202],[3.19071,19.84772],[3.17395,19.85063],[3.15538,19.86077],[3.15132,19.85793],[3.14316,19.85938],[3.13849,19.87136],[3.11103,19.88055],[3.10292,19.88981],[3.09346,19.89063],[3.08129,19.90437],[3.06777,19.91053],[3.06094,19.90872],[3.04871,19.91216],[3.03686,19.90954],[3.01441,19.93232],[2.97456,19.95238],[2.95612,19.95025],[2.95468,19.95526],[2.94211,19.95598],[2.93351,19.95291],[2.92811,19.95643],[2.92176,19.95381],[2.90584,19.96496],[2.89523,19.96301],[2.89236,19.96744],[2.88214,19.96517],[2.87579,19.95608],[2.87469,19.96078],[2.86694,19.96579],[2.86111,19.96398],[2.8569,19.97265],[2.84552,19.97215],[2.84013,19.96383],[2.83101,19.96233],[2.81007,19.97049],[2.80547,19.97703],[2.78903,19.98027],[2.78225,19.9742],[2.77364,19.97763],[2.76579,19.98421],[2.76927,19.98919],[2.7621,19.99157],[2.7565,19.99794],[2.73404,19.9937],[2.73059,20.0021],[2.72365,20.00435],[2.71932,20.02052],[2.71238,20.02308],[2.71137,20.02746],[2.715,20.0328],[2.70462,20.05962],[2.6982,20.06562],[2.6968,20.07407],[2.67468,20.0857],[2.65823,20.05229],[2.63322,20.04301],[2.63593,20.05028],[2.62896,20.04827],[2.62321,20.05493],[2.61257,20.04684],[2.60493,20.04718],[2.59087,20.03979],[2.56482,20.03787],[2.55525,20.04102],[2.55119,20.05627],[2.53702,20.06279],[2.53241,20.06806],[2.5318,20.08008],[2.52362,20.07947],[2.52244,20.09403],[2.51656,20.09581],[2.51147,20.08786],[2.48589,20.08741],[2.48208,20.10411],[2.46555,20.1121],[2.46144,20.09881],[2.43918,20.07791],[2.44545,20.0609],[2.44374,20.0575],[2.42698,20.0518],[2.40296,20.03229],[2.39452,20.03936],[2.39178,20.02941],[2.37866,20.02448],[2.37514,20.04354],[2.38365,20.05545],[2.37504,20.06974],[2.37268,20.08392],[2.37794,20.09826],[2.38854,20.10228],[2.39507,20.10853],[2.39313,20.1135],[2.40291,20.11999],[2.39636,20.13393],[2.38788,20.14777],[2.36425,20.1485],[2.36351,20.15211],[2.35805,20.15462],[2.35946,20.16032],[2.35447,20.16328],[2.34522,20.17924],[2.33219,20.18177],[2.32706,20.19607],[2.31867,20.19861],[2.32053,20.20215],[2.31694,20.21216],[2.32407,20.22353],[2.30664,20.22586],[2.30351,20.23018],[2.30663,20.23923],[2.30241,20.25046],[2.30741,20.25568],[2.30904,20.26811],[2.30563,20.269],[2.30449,20.27857],[2.28924,20.27369],[2.27817,20.27472],[2.26664,20.28348],[2.25935,20.29519],[2.2458,20.29554],[2.23256,20.3005],[2.20907,20.31476],[2.19596,20.31199],[2.19057,20.29918],[2.1907,20.27429],[2.17556,20.26694],[2.17569,20.26021],[2.1659,20.25601],[2.14162,20.25747],[2.13392,20.24768],[2.13162,20.23854],[2.12169,20.23519],[2.09617,20.24487],[2.08667,20.2403],[2.07802,20.2459],[2.07079,20.24604],[2.05235,20.26266],[2.04502,20.26353],[2.04256,20.26735],[2.02898,20.25689],[2.02828,20.2534],[2.01992,20.2511],[2.0187,20.24734],[2.02252,20.24104],[2.01551,20.23657],[2.0119,20.23953],[2.00008,20.23933],[1.98373,20.25166],[1.97,20.2575],[1.95804,20.25594],[1.95333,20.25898],[1.94813,20.25687],[1.94277,20.24229],[1.92238,20.22107],[1.91894,20.22656],[1.90723,20.23164],[1.89516,20.24652],[1.89971,20.25264],[1.89333,20.255],[1.89614,20.2641],[1.89111,20.27726],[1.88306,20.28525],[1.88349,20.29157],[1.87244,20.28992],[1.86843,20.29486],[1.85997,20.29264],[1.84549,20.29566],[1.8254,20.28762],[1.80161,20.29216],[1.79411,20.29645],[1.79094,20.3037],[1.78575,20.30592],[1.78292,20.31286],[1.77266,20.32132],[1.7756,20.33625],[1.75769,20.34218],[1.75496,20.35431],[1.73595,20.35408],[1.73349,20.36179],[1.71826,20.36733],[1.70829,20.37891],[1.69787,20.38226],[1.69797,20.38805],[1.69042,20.39088],[1.68524,20.39748],[1.67959,20.39681],[1.66876,20.40291],[1.66993,20.41146],[1.66564,20.41987],[1.67295,20.42761],[1.67645,20.43924],[1.67155,20.44052],[1.66335,20.45202],[1.66693,20.45959],[1.66483,20.4635],[1.67019,20.46512],[1.67047,20.47683],[1.67542,20.48052],[1.67622,20.48866],[1.67041,20.48884],[1.66487,20.49851],[1.65998,20.49748],[1.6592,20.50005],[1.6663,20.50968],[1.66626,20.51438],[1.659,20.51703],[1.66734,20.52866],[1.66624,20.53371],[1.66156,20.54212],[1.65039,20.54709],[1.63853,20.56534],[1.63257,20.56724],[1.62882,20.57353],[1.61081,20.5761],[1.60566,20.58247],[1.60558,20.59209],[1.6017,20.5959],[1.58717,20.60106],[1.5774,20.59945],[1.56886,20.61017],[1.56408,20.60819],[1.55846,20.60878],[1.55742,20.61234],[1.55052,20.61097],[1.54335,20.61348],[1.54244,20.61831],[1.5248,20.61703],[1.49547,20.62355],[1.45427,20.64604],[1.41635,20.65189],[1.41467,20.65603],[1.40287,20.66016],[1.38643,20.65423],[1.37005,20.66866],[1.35418,20.67258],[1.35444,20.68383],[1.35013,20.69616],[1.34008,20.70081],[1.33967,20.70857],[1.32791,20.72654],[1.31323,20.7346],[1.29135,20.7291],[1.2785,20.73593],[1.25109,20.7357],[1.2388,20.73119],[1.23563,20.72714],[1.2183,20.72348],[1.17832,20.72713],[1.16786,20.73393],[1.16438,20.74793],[1.16383,20.79345],[1.18592,20.87037],[1.18726,20.9062],[1.19259,20.93931],[1.18707,20.958],[1.19255,20.97463],[1.18182,21.02679],[1.16989,21.05008],[1.16631,21.08337],[1.15507,21.12734],[-0.25069,22.05946],[-1.66741,22.9835],[-2.91745,23.78585],[-3.83415,24.36709],[-4.34244,24.68522],[-4.83418,25.0007],[-5.7923,25.59068],[-6.66714,26.12284],[-7.75061,26.77308],[-8.66763,27.31581],[-8.66761,28.71417],[-8.66446,28.7166],[-8.65363,28.71708],[-8.62745,28.72591],[-8.6228,28.73124],[-8.61725,28.73039],[-8.58703,28.74203],[-8.5651,28.75511],[-8.52098,28.77346],[-8.48209,28.78598],[-8.47776,28.7915],[-8.46973,28.78965],[-8.46731,28.79525],[-8.46171,28.79364],[-8.44796,28.80046],[-8.43777,28.81159],[-8.43211,28.81237],[-8.41824,28.83045],[-8.41306,28.83063],[-8.41578,28.83489],[-8.4049,28.83876],[-8.40524,28.84283],[-8.3988,28.84427],[-8.3954,28.85098],[-8.38681,28.85633],[-8.38835,28.85798],[-8.36699,28.87797],[-8.35446,28.88757],[-8.35019,28.88711],[-8.34682,28.89646],[-8.34258,28.89521],[-8.33656,28.90017],[-8.32736,28.91406],[-8.31729,28.92114],[-8.31267,28.91768],[-8.3073,28.92049],[-8.30055,28.93443],[-8.29714,28.9379],[-8.29176,28.93627],[-8.28926,28.94343],[-8.28466,28.9465],[-8.27559,28.94551],[-8.27684,28.94799],[-8.27047,28.95088],[-8.26562,28.94877],[-8.25354,28.95708],[-8.24882,28.95702],[-8.24831,28.96161],[-8.24288,28.96272],[-8.24289,28.96874],[-8.23521,28.96837],[-8.23477,28.97213],[-8.2394,28.97637],[-8.227,28.98633],[-8.21323,28.99178],[-8.21153,28.99543],[-8.20549,28.99496],[-8.19532,29.00309],[-8.19189,29.00085],[-8.19455,28.99681],[-8.19269,28.99049],[-8.18533,28.98948],[-8.15254,29.01069],[-8.15367,29.01389],[-8.14511,29.02299],[-8.13243,29.02523],[-8.13302,29.02905],[-8.12119,29.03526],[-8.11845,29.04023],[-8.1151,29.03886],[-8.1151,29.04221],[-8.10649,29.04319],[-8.10264,29.05075],[-8.09267,29.054],[-8.09321,29.0575],[-8.08204,29.06604],[-8.0739,29.06963],[-8.06753,29.06805],[-8.0578,29.07857],[-8.05405,29.07819],[-8.0538,29.08123],[-7.99912,29.10721],[-7.97313,29.12629],[-7.95982,29.12552],[-7.95901,29.13269],[-7.96216,29.13836],[-7.95942,29.14261],[-7.92988,29.17019],[-7.89824,29.19061],[-7.88124,29.19067],[-7.87886,29.19306],[-7.88272,29.19659],[-7.87309,29.20149],[-7.86239,29.20245],[-7.83734,29.21297],[-7.83071,29.20884],[-7.82632,29.2096],[-7.82596,29.21891],[-7.82995,29.22539],[-7.78187,29.26191],[-7.74663,29.27827],[-7.73925,29.27853],[-7.72409,29.28567],[-7.72118,29.28348],[-7.70662,29.29203],[-7.70122,29.28949],[-7.68211,29.30172],[-7.66631,29.30505],[-7.66272,29.30293],[-7.66056,29.30579],[-7.65233,29.29852],[-7.64373,29.30267],[-7.64394,29.3135],[-7.63434,29.3171],[-7.62861,29.33108],[-7.6217,29.33202],[-7.61811,29.33896],[-7.62883,29.34521],[-7.62598,29.34824],[-7.61905,29.34742],[-7.62762,29.3541],[-7.61579,29.37051],[-7.59089,29.37943],[-7.56666,29.37652],[-7.53599,29.36678],[-7.49435,29.36563],[-7.41349,29.38284],[-7.40408,29.38329],[-7.39996,29.37761],[-7.38877,29.37868],[-7.38164,29.38783],[-7.35069,29.39143],[-7.33971,29.39553],[-7.26411,29.46711],[-7.24433,29.48118],[-7.18527,29.50393],[-7.17333,29.51125],[-7.16279,29.51147],[-7.15461,29.51568],[-7.14806,29.52386],[-7.13816,29.52485],[-7.13635,29.5212],[-7.1276,29.52097],[-7.11957,29.52798],[-7.11202,29.52552],[-7.09783,29.53328],[-7.09471,29.53049],[-7.08825,29.53244],[-7.08511,29.53035],[-7.09911,29.51872],[-7.08219,29.51585],[-7.07959,29.50962],[-7.07447,29.50844],[-7.06943,29.50193],[-7.06149,29.50485],[-7.04282,29.5003],[-7.03148,29.50083],[-7.02088,29.4939],[-7.00089,29.50387],[-6.98154,29.50614],[-6.97639,29.50508],[-6.97154,29.49664],[-6.94635,29.49944],[-6.94243,29.49354],[-6.93586,29.49295],[-6.90602,29.50267],[-6.90283,29.49251],[-6.89103,29.48497],[-6.8674,29.48944],[-6.85392,29.48387],[-6.85339,29.47794],[-6.84396,29.47115],[-6.79557,29.46726],[-6.77701,29.45899],[-6.76128,29.46309],[-6.7542,29.47686],[-6.72809,29.48193],[-6.72891,29.48714],[-6.72479,29.4924],[-6.71767,29.49297],[-6.71361,29.49739],[-6.71464,29.50117],[-6.70316,29.5115],[-6.67992,29.51487],[-6.66619,29.5112],[-6.66344,29.51521],[-6.65427,29.51784],[-6.65382,29.52159],[-6.62245,29.5234],[-6.61977,29.52982],[-6.61098,29.53023],[-6.57525,29.52359],[-6.54638,29.52672],[-6.54843,29.51837],[-6.54374,29.5161],[-6.5339,29.52117],[-6.52646,29.52081],[-6.51582,29.53337],[-6.51588,29.53821],[-6.49238,29.54713],[-6.485,29.55472],[-6.46278,29.56423],[-6.4552,29.56232],[-6.42626,29.56638],[-6.41912,29.56292],[-6.40039,29.56263],[-6.39481,29.55903],[-6.37491,29.57013],[-6.34626,29.56861],[-6.31584,29.57182],[-6.30075,29.56632],[-6.29693,29.57165],[-6.29035,29.57273],[-6.27292,29.56874],[-6.26215,29.57002],[-6.25582,29.56681],[-6.25392,29.57028],[-6.24202,29.56972],[-6.22538,29.5748],[-6.22594,29.57904],[-6.22316,29.58038],[-6.21125,29.57732],[-6.19659,29.58932],[-6.19346,29.58915],[-6.18838,29.58029],[-6.16398,29.58488],[-6.14896,29.57767],[-6.14138,29.57948],[-6.11538,29.57065],[-6.10295,29.57275],[-6.09861,29.56931],[-6.07289,29.56507],[-6.04745,29.56592],[-6.03373,29.57373],[-6.02039,29.57407],[-6.01649,29.57946],[-5.99443,29.57558],[-5.98547,29.57774],[-5.9854,29.58134],[-5.97751,29.58053],[-5.96676,29.58473],[-5.95776,29.58008],[-5.94873,29.58578],[-5.94258,29.58399],[-5.93508,29.59076],[-5.92976,29.59152],[-5.93015,29.59695],[-5.89158,29.59545],[-5.8871,29.59782],[-5.88163,29.59339],[-5.86453,29.59422],[-5.86204,29.60505],[-5.85714,29.6069],[-5.83557,29.60919],[-5.83429,29.60656],[-5.82511,29.6056],[-5.81716,29.6125],[-5.79616,29.61678],[-5.78903,29.61403],[-5.78718,29.60951],[-5.7785,29.61157],[-5.76288,29.60786],[-5.75709,29.60131],[-5.74921,29.59825],[-5.72328,29.59655],[-5.72333,29.5914],[-5.71784,29.58787],[-5.72246,29.57113],[-5.72783,29.56357],[-5.7345,29.56045],[-5.74785,29.53784],[-5.7449,29.5324],[-5.75357,29.52716],[-5.75041,29.52277],[-5.7535,29.52173],[-5.75083,29.51915],[-5.7518,29.51406],[-5.74848,29.51136],[-5.72166,29.51925],[-5.71291,29.51412],[-5.70192,29.52391],[-5.70448,29.52707],[-5.68421,29.54159],[-5.67614,29.53006],[-5.67594,29.52499],[-5.66227,29.52028],[-5.66459,29.51134],[-5.65523,29.51083],[-5.65456,29.50717],[-5.64827,29.50725],[-5.64124,29.50048],[-5.63309,29.50092],[-5.61248,29.48913],[-5.61228,29.48617],[-5.6036,29.49034],[-5.60336,29.48503],[-5.59889,29.48363],[-5.59498,29.49018],[-5.59044,29.48809],[-5.58384,29.49206],[-5.56842,29.48644],[-5.32912,29.77106],[-5.31624,29.79799],[-5.32348,29.81442],[-5.3255,29.82887],[-5.32288,29.83827],[-5.29517,29.86926],[-5.27833,29.89554],[-5.27796,29.90634],[-5.25033,29.91566],[-5.25116,29.91964],[-4.93918,30.13983],[-4.60232,30.28924],[-4.32413,30.53058],[-4.14955,30.58524],[-3.98693,30.59466],[-3.841,30.62861],[-3.64553,30.69788],[-3.64092,30.70415],[-3.6358,30.70366],[-3.6392,30.70866],[-3.63406,30.7123],[-3.62796,30.72734],[-3.62591,30.73048],[-3.61979,30.72901],[-3.61592,30.73425],[-3.62379,30.7426],[-3.62103,30.74598],[-3.62187,30.75686],[-3.62531,30.75944],[-3.62268,30.76218],[-3.63775,30.77111],[-3.64704,30.77251],[-3.65261,30.76888],[-3.65889,30.77079],[-3.65862,30.78277],[-3.66499,30.78809],[-3.66057,30.79282],[-3.65573,30.79237],[-3.65382,30.79801],[-3.6494,30.79954],[-3.65259,30.80446],[-3.65666,30.79954],[-3.65787,30.8017],[-3.65071,30.80851],[-3.65457,30.82293],[-3.65168,30.82659],[-3.65452,30.83068],[-3.65212,30.83281],[-3.65575,30.85135],[-3.64785,30.84658],[-3.64937,30.85642],[-3.64605,30.85752],[-3.64367,30.85396],[-3.63778,30.86013],[-3.63869,30.86472],[-3.63419,30.86133],[-3.62454,30.87012],[-3.62225,30.8685],[-3.62392,30.86524],[-3.61726,30.8642],[-3.61342,30.8758],[-3.60551,30.88045],[-3.60642,30.8858],[-3.60126,30.89062],[-3.60064,30.88622],[-3.59455,30.88513],[-3.58243,30.89091],[-3.58701,30.89784],[-3.58193,30.91128],[-3.58715,30.91583],[-3.58418,30.92178],[-3.57944,30.91967],[-3.57556,30.92342],[-3.57773,30.9317],[-3.57479,30.93471],[-3.57093,30.93515],[-3.56554,30.93012],[-3.55852,30.93037],[-3.55791,30.9409],[-3.55362,30.94347],[-3.55716,30.94791],[-3.5535,30.95272],[-3.54527,30.95528],[-3.54875,30.96076],[-3.54773,30.96716],[-3.54256,30.97331],[-3.53819,30.97111],[-3.53816,30.97574],[-3.54284,30.97947],[-3.53785,30.98551],[-3.54143,30.99941],[-3.53985,31.00306],[-3.53574,31.00274],[-3.53779,31.00813],[-3.53576,31.01764],[-3.53677,31.02099],[-3.54079,31.02032],[-3.54272,31.03426],[-3.55349,31.04378],[-3.54887,31.05237],[-3.55069,31.05746],[-3.54813,31.06746],[-3.56184,31.06453],[-3.5571,31.05631],[-3.55796,31.04912],[-3.56583,31.05572],[-3.57426,31.04824],[-3.58377,31.05208],[-3.58736,31.05989],[-3.5914,31.05987],[-3.59044,31.07763],[-3.59525,31.07959],[-3.59518,31.07708],[-3.60402,31.07431],[-3.60974,31.09305],[-3.60784,31.0976],[-3.61232,31.10175],[-3.61692,31.09839],[-3.61687,31.12049],[-3.61406,31.12415],[-3.62092,31.12536],[-3.62132,31.1176],[-3.62959,31.11104],[-3.63487,31.11014],[-3.63917,31.11382],[-3.63944,31.1356],[-3.63396,31.14063],[-3.63943,31.14852],[-3.64145,31.14732],[-3.63861,31.14052],[-3.64506,31.14286],[-3.64817,31.137],[-3.64458,31.12994],[-3.64555,31.1137],[-3.63269,31.09793],[-3.63289,31.09433],[-3.64822,31.0944],[-3.655,31.09777],[-3.65664,31.09337],[-3.66055,31.1023],[-3.66385,31.09908],[-3.66058,31.09287],[-3.66501,31.09088],[-3.6584,31.08624],[-3.65418,31.08873],[-3.64295,31.08455],[-3.66114,31.08461],[-3.67266,31.08882],[-3.67736,31.08616],[-3.67834,31.09141],[-3.67176,31.09942],[-3.67279,31.11671],[-3.66872,31.12062],[-3.67294,31.13566],[-3.66865,31.15231],[-3.67573,31.15769],[-3.68098,31.16771],[-3.69943,31.16718],[-3.70163,31.17276],[-3.69948,31.176],[-3.71143,31.17173],[-3.71478,31.16542],[-3.70463,31.15132],[-3.70797,31.14108],[-3.70494,31.13822],[-3.70758,31.13655],[-3.70943,31.15225],[-3.7169,31.15326],[-3.72041,31.1512],[-3.7207,31.1456],[-3.7374,31.14595],[-3.73545,31.14021],[-3.73036,31.14188],[-3.72415,31.13848],[-3.72508,31.13049],[-3.73027,31.12938],[-3.73182,31.11914],[-3.73483,31.11839],[-3.74296,31.12787],[-3.75245,31.12319],[-3.75592,31.12831],[-3.77577,31.12045],[-3.77785,31.12259],[-3.77553,31.13297],[-3.77173,31.13566],[-3.77764,31.14448],[-3.77262,31.15711],[-3.76726,31.16099],[-3.75631,31.18107],[-3.76597,31.18726],[-3.76269,31.19709],[-3.7668,31.1962],[-3.76529,31.20104],[-3.76827,31.2098],[-3.77249,31.21278],[-3.77123,31.22682],[-3.77568,31.2274],[-3.78099,31.22158],[-3.7873,31.23732],[-3.77598,31.24338],[-3.77937,31.2492],[-3.77321,31.25598],[-3.75737,31.26533],[-3.75367,31.28037],[-3.75538,31.28451],[-3.76976,31.27955],[-3.77371,31.28441],[-3.77047,31.28604],[-3.77051,31.29197],[-3.77758,31.29353],[-3.78313,31.28767],[-3.78555,31.28943],[-3.77689,31.30431],[-3.76396,31.30887],[-3.76023,31.31604],[-3.76066,31.32795],[-3.76408,31.33458],[-3.75622,31.33399],[-3.75407,31.33706],[-3.75342,31.34013],[-3.7598,31.34679],[-3.74851,31.36193],[-3.74191,31.35779],[-3.74202,31.34782],[-3.73707,31.34135],[-3.72668,31.33976],[-3.71446,31.34656],[-3.71239,31.36155],[-3.70512,31.36568],[-3.694,31.36295],[-3.68955,31.36825],[-3.68257,31.36818],[-3.67397,31.37733],[-3.67383,31.38576],[-3.66667,31.37805],[-3.66667,31.63334],[-2.82349,31.79768],[-2.8239,31.8089],[-2.82073,31.81396],[-2.83059,31.82632],[-2.84358,31.83043],[-2.84264,31.84536],[-2.83625,31.85518],[-2.83655,31.86403],[-2.84218,31.86821],[-2.8405,31.87691],[-2.84341,31.8874],[-2.85152,31.89373],[-2.85421,31.90275],[-2.86182,31.90839],[-2.86312,31.91458],[-2.88408,31.93494],[-2.8812,31.95689],[-2.88478,31.96588],[-2.89966,31.9763],[-2.9011,31.98855],[-2.91653,32.00776],[-2.9162,32.01558],[-2.92788,32.02193],[-2.93054,32.02746],[-2.92226,32.07604],[-2.91721,32.08046],[-2.91935,32.09603],[-2.90778,32.1069],[-2.90643,32.11813],[-2.89694,32.11918],[-2.89319,32.11477],[-2.86151,32.1102],[-2.80884,32.11277],[-2.74681,32.10698],[-2.7198,32.107],[-2.70794,32.1085],[-2.7095,32.11183],[-2.70663,32.1134],[-2.6461,32.11734],[-2.59747,32.1114],[-2.58374,32.12162],[-2.55879,32.12887],[-2.53736,32.14709],[-2.4703,32.15103],[-2.44772,32.15964],[-2.2982,32.15273],[-2.27927,32.15475],[-2.26889,32.16006],[-2.26479,32.15959],[-2.26004,32.15335],[-2.24542,32.15735],[-2.23267,32.15577],[-2.19743,32.14312],[-2.13304,32.13836],[-2.09537,32.14988],[-2.07703,32.15867],[-2.04346,32.16352],[-2.03509,32.16604],[-2.03193,32.17064],[-2.01227,32.17501],[-1.99498,32.17551],[-1.97685,32.1653],[-1.97394,32.158],[-1.94276,32.15821],[-1.92676,32.14986],[-1.92206,32.16205],[-1.90427,32.16451],[-1.89658,32.16272],[-1.88347,32.15194],[-1.87488,32.15172],[-1.8686,32.14445],[-1.86029,32.14698],[-1.85891,32.15153],[-1.85275,32.14708],[-1.84423,32.14803],[-1.8371,32.14343],[-1.82965,32.14816],[-1.82311,32.14164],[-1.79417,32.13541],[-1.78472,32.13657],[-1.7476,32.12075],[-1.72213,32.12114],[-1.71197,32.11408],[-1.69165,32.11825],[-1.67889,32.11513],[-1.67758,32.11183],[-1.64889,32.11027],[-1.59721,32.09412],[-1.56722,32.09057],[-1.54192,32.0954],[-1.53553,32.09178],[-1.52309,32.09109],[-1.50694,32.10344],[-1.4965,32.10447],[-1.48493,32.09607],[-1.45175,32.09469],[-1.41027,32.08768],[-1.38347,32.08721],[-1.37799,32.08421],[-1.37294,32.08909],[-1.35873,32.09116],[-1.35454,32.08585],[-1.3288,32.08231],[-1.27188,32.08713],[-1.25446,32.07747],[-1.24069,32.07683],[-1.21234,32.08511],[-1.20416,32.0846],[-1.19483,32.08858],[-1.19482,32.09433],[-1.18353,32.10323],[-1.15198,32.11145],[-1.15505,32.12495],[-1.15139,32.12764],[-1.16941,32.13883],[-1.17248,32.14238],[-1.17263,32.15165],[-1.18074,32.15993],[-1.18106,32.16482],[-1.18943,32.16846],[-1.22256,32.1752],[-1.23159,32.17337],[-1.23284,32.16964],[-1.2551,32.16063],[-1.27372,32.16229],[-1.28689,32.15836],[-1.29932,32.16751],[-1.29623,32.172],[-1.27464,32.181],[-1.27196,32.18547],[-1.26025,32.1915],[-1.25425,32.20081],[-1.24089,32.20409],[-1.24809,32.25149],[-1.24266,32.25697],[-1.24236,32.27079],[-1.23495,32.28912],[-1.23504,32.30883],[-1.23896,32.31425],[-1.24663,32.31608],[-1.2489,32.32022],[-1.24638,32.32945],[-1.2285,32.3372],[-1.22782,32.34107],[-1.22309,32.34015],[-1.21775,32.34961],[-1.22058,32.35138],[-1.21866,32.35962],[-1.20967,32.36745],[-1.20157,32.38847],[-1.2064,32.39226],[-1.19517,32.40243],[-1.18309,32.40903],[-1.16953,32.41004],[-1.16318,32.41563],[-1.1487,32.4168],[-1.1258,32.4127],[-1.12046,32.42887],[-1.11522,32.42855],[-1.11237,32.4322],[-1.06476,32.45164],[-1.05894,32.46148],[-1.04801,32.46646],[-1.04804,32.47293],[-1.04189,32.47957],[-1.00241,32.50445],[-0.99698,32.51656],[-1.26895,32.69462],[-1.38176,32.73984],[-1.54441,32.95719],[-1.51545,32.96321],[-1.51054,32.96879],[-1.4934,32.96601],[-1.48075,32.97817],[-1.4712,33.0024],[-1.47542,33.01136],[-1.47476,33.02286],[-1.46291,33.03793],[-1.46174,33.04467],[-1.46539,33.04804],[-1.47537,33.07727],[-1.48798,33.08694],[-1.49881,33.0923],[-1.51457,33.09481],[-1.51657,33.09914],[-1.52807,33.10397],[-1.53537,33.10934],[-1.53912,33.11879],[-1.55627,33.12972],[-1.57571,33.14831],[-1.57432,33.15469],[-1.58117,33.17186],[-1.59863,33.19438],[-1.59875,33.203],[-1.60568,33.21192],[-1.62642,33.2208],[-1.643,33.2488],[-1.65563,33.25585],[-1.66999,33.28331],[-1.66613,33.28685],[-1.66448,33.29629],[-1.65895,33.30121],[-1.66083,33.31882],[-1.65819,33.33843],[-1.66307,33.34934],[-1.66315,33.37764],[-1.65523,33.39895],[-1.64798,33.40761],[-1.64719,33.42],[-1.62784,33.43201],[-1.62888,33.43811],[-1.62107,33.4488],[-1.62439,33.46141],[-1.61743,33.47267],[-1.62084,33.47684],[-1.62026,33.48968],[-1.60578,33.49858],[-1.59497,33.52211],[-1.58847,33.5279],[-1.60074,33.54702],[-1.59916,33.55113],[-1.60311,33.55638],[-1.59707,33.55829],[-1.59347,33.56422],[-1.59306,33.57251],[-1.60117,33.57548],[-1.59689,33.58525],[-1.5994,33.60115],[-1.59494,33.60559],[-1.59955,33.61588],[-1.6256,33.62331],[-1.63272,33.63338],[-1.64762,33.67656],[-1.65147,33.67966],[-1.67172,33.67907],[-1.68285,33.67425],[-1.70613,33.67639],[-1.71165,33.68751],[-1.7385,33.70041],[-1.73064,33.73395],[-1.6707,33.77287],[-1.69924,33.86963],[-1.64808,34.1082],[-1.7067,34.22202],[-1.71121,34.25339],[-1.70879,34.27358],[-1.71047,34.29315],[-1.70695,34.30962],[-1.7343,34.34558],[-1.77273,34.37603],[-1.78345,34.39081],[-1.68775,34.4936],[-1.7517,34.51639],[-1.75442,34.52897],[-1.76578,34.53183],[-1.76709,34.54308],[-1.79075,34.56105],[-1.78882,34.56935],[-1.79742,34.5779],[-1.79912,34.58449],[-1.80556,34.58685],[-1.81248,34.59466],[-1.81673,34.60444],[-1.83933,34.61694],[-1.85111,34.61456],[-1.85393,34.61649],[-1.83612,34.62904],[-1.8151,34.66031],[-1.77508,34.69927],[-1.77175,34.72441],[-1.73958,34.74301],[-1.7521,34.75159],[-1.80571,34.77293],[-1.81274,34.77686],[-1.81488,34.78275],[-1.82182,34.782],[-1.84202,34.78809],[-1.8591,34.80222],[-1.88863,34.80629],[-1.89344,34.84161],[-1.9327,34.86118],[-1.94151,34.86213],[-1.96112,34.87621],[-1.97253,34.87869],[-1.97333,34.93579],[-1.99192,34.93027],[-2.01093,34.93197],[-2.03508,34.92463],[-2.04572,34.92688],[-2.05903,34.93788],[-2.08475,34.95069],[-2.09844,34.96477],[-2.10415,34.96653],[-2.12304,34.9843],[-2.12195,34.99005],[-2.12777,34.99624],[-2.13771,35.00047],[-2.14892,35.0007],[-2.15929,35.00815],[-2.16639,35.0062],[-2.17487,35.0147],[-2.17856,35.01445],[-2.18563,35.02629],[-2.18374,35.03084],[-2.18993,35.0306],[-2.21787,35.04758],[-2.21096,35.05905],[-2.21456,35.06996],[-2.21178,35.08501],[-2.18191,35.087],[-2.17059,35.09334],[-2.16977,35.09694],[-2.16242,35.09663],[-2.16177,35.09945],[-2.15362,35.10094],[-2.14588,35.09369],[-2.13528,35.09104],[-2.11758,35.094],[-2.11843,35.08784],[-2.11317,35.08317],[-2.08482,35.07358],[-2.06079,35.07057],[-2.0342,35.07216],[-2.02099,35.07887],[-2.01607,35.07189],[-2.00671,35.07065],[-1.98635,35.07408],[-1.96262,35.07247],[-1.94601,35.07515],[-1.93621,35.08419],[-1.90807,35.08394],[-1.89694,35.09181],[-1.88328,35.09104],[-1.88229,35.09488],[-1.8625,35.10138],[-1.85396,35.10811],[-1.84053,35.1076],[-1.83014,35.11187],[-1.81971,35.11973],[-1.8171,35.12716],[-1.80929,35.1267],[-1.80468,35.13166],[-1.80274,35.12522],[-1.79593,35.1204],[-1.77186,35.11951],[-1.74127,35.13616],[-1.73143,35.14505],[-1.72978,35.15094],[-1.72242,35.15164],[-1.7215,35.16036],[-1.71396,35.16208],[-1.71199,35.16772],[-1.69994,35.17812],[-1.68642,35.18196],[-1.65804,35.17561],[-1.65636,35.18253],[-1.64786,35.18552],[-1.64882,35.19401],[-1.64363,35.19524],[-1.64449,35.20013],[-1.63593,35.20646],[-1.6357,35.21056],[-1.61877,35.22116],[-1.61032,35.22107],[-1.60988,35.22877],[-1.58816,35.2352],[-1.58872,35.23906],[-1.58524,35.24082],[-1.58372,35.23836],[-1.57489,35.2416],[-1.56873,35.25373],[-1.55635,35.26283],[-1.55466,35.26975],[-1.51036,35.27641],[-1.50494,35.28161],[-1.50055,35.28168],[-1.49794,35.2873],[-1.48757,35.28872],[-1.48177,35.29738],[-1.47019,35.29817],[-1.4609,35.30662],[-1.44458,35.30796],[-1.43778,35.30299],[-1.42616,35.30412],[-1.41748,35.29925],[-1.3794,35.30684],[-1.37077,35.31521],[-1.36641,35.31386],[-1.36572,35.31668],[-1.35024,35.32289],[-1.33186,35.34731],[-1.2951,35.35065],[-1.29123,35.35573],[-1.28431,35.35692],[-1.25686,35.39353],[-1.25243,35.40271],[-1.25339,35.40716],[-1.23721,35.43872],[-1.23802,35.44464],[-1.22743,35.47635],[-1.22327,35.48014],[-1.22433,35.48863],[-1.22023,35.4896],[-1.22131,35.49758],[-1.21471,35.50494],[-1.21826,35.50756],[-1.21478,35.50853],[-1.21368,35.51597],[-1.2095,35.52028],[-1.21223,35.52468],[-1.2071,35.52923],[-1.20494,35.54128],[-1.20069,35.54173],[-1.19693,35.54809],[-1.19204,35.56292],[-1.19869,35.5679],[-1.19843,35.57252],[-1.18204,35.58101],[-1.17232,35.57958],[-1.1599,35.57258],[-1.15547,35.57393],[-1.14902,35.58103],[-1.1508,35.58542],[-1.12966,35.60179],[-1.12558,35.60147],[-1.12674,35.6056],[-1.1159,35.6116],[-1.11616,35.61417],[-1.10985,35.61485],[-1.10433,35.62221],[-1.07951,35.63376],[-1.06666,35.63163],[-1.07003,35.63528],[-1.05953,35.63987],[-1.05473,35.65636],[-1.05032,35.65629],[-1.05067,35.66143],[-1.03385,35.67336],[-1.02883,35.67238],[-1.02859,35.67572],[-1.02139,35.68074],[-1.01269,35.67584],[-0.99118,35.67998],[-0.98344,35.68704],[-0.97679,35.68847],[-0.95624,35.71639],[-0.94896,35.71781],[-0.94888,35.72063],[-0.93798,35.72802],[-0.92978,35.72827],[-0.91425,35.71978],[-0.91133,35.71099],[-0.90481,35.70728],[-0.89193,35.70616],[-0.87355,35.71033],[-0.84678,35.72758],[-0.82595,35.75803],[-0.82734,35.76474],[-0.81026,35.76674],[-0.79559,35.7729],[-0.79491,35.76338],[-0.78782,35.7576],[-0.75577,35.743],[-0.72949,35.73609],[-0.70448,35.74173],[-0.69825,35.7378],[-0.70424,35.73214],[-0.70063,35.72642],[-0.70185,35.7222],[-0.68067,35.71396],[-0.67806,35.71699],[-0.6753,35.7145],[-0.66179,35.71487],[-0.65247,35.70879],[-0.6154,35.71615],[-0.59902,35.72649],[-0.55875,35.77112],[-0.54964,35.77507],[-0.54794,35.769],[-0.53636,35.76619],[-0.52715,35.76844],[-0.51017,35.78222],[-0.49475,35.80656],[-0.48432,35.83743],[-0.47873,35.86942],[-0.48623,35.87679],[-0.46921,35.88592],[-0.46122,35.87894],[-0.44772,35.87686],[-0.41889,35.88022],[-0.40657,35.89023],[-0.39742,35.89003],[-0.39258,35.89327],[-0.3867,35.89905],[-0.38746,35.90497],[-0.3839,35.90759],[-0.34831,35.90489],[-0.33775,35.90902],[-0.33973,35.90161],[-0.33697,35.89462],[-0.32975,35.89343],[-0.32053,35.88603],[-0.3033,35.88205],[-0.29313,35.87488],[-0.29462,35.85886],[-0.30561,35.86039],[-0.30818,35.84979],[-0.30079,35.83524],[-0.27578,35.81926],[-0.22017,35.80425],[-0.16548,35.79937],[-0.15972,35.79269],[-0.14751,35.79047],[-0.12014,35.78879],[-0.09641,35.79117],[-0.09306,35.79649],[-0.08309,35.8019],[-0.05406,35.81108],[-0.01803,35.83009],[0.02063,35.85559],[0.04082,35.88126],[0.059,35.92306],[0.07236,35.92467],[0.07671,35.93505],[0.08256,35.9393],[0.0932,35.96345],[0.09149,35.967],[0.11385,35.99503],[0.12557,36.02921],[0.13391,36.04204],[0.14867,36.05057],[0.18152,36.07832],[0.19712,36.09358],[0.20399,36.10517],[0.2213,36.117],[0.23599,36.12235],[0.25527,36.12305],[0.27052,36.13072],[0.28591,36.1334],[0.30316,36.14841],[0.31659,36.15411],[0.3349,36.17455],[0.33914,36.18845],[0.34656,36.19523],[0.38406,36.21096],[0.4117,36.20899],[0.45376,36.22171],[0.4618,36.22817],[0.47815,36.23237],[0.49855,36.2486],[0.51895,36.25545],[0.55734,36.2755],[0.59385,36.28485],[0.61156,36.29702],[0.61272,36.30064],[0.63096,36.30614],[0.63966,36.31222],[0.64695,36.32341],[0.65818,36.3298],[0.74887,36.33347],[0.77247,36.34084],[0.78049,36.34934],[0.79773,36.35737],[0.80511,36.36598],[0.81465,36.36564],[0.82324,36.36133],[0.871,36.37231],[0.90261,36.39008],[0.91191,36.39872],[0.9229,36.41561],[0.92311,36.42563],[0.92835,36.43754],[0.93507,36.44202],[0.93575,36.4464],[0.9436,36.45001],[0.96138,36.45108],[0.98278,36.45954],[0.99959,36.46149],[1.03837,36.47498],[1.06476,36.488],[1.07464,36.48752],[1.08323,36.49382],[1.10023,36.49486],[1.1016,36.49052],[1.11115,36.49028],[1.14004,36.49292],[1.1844,36.51454],[1.19298,36.51506],[1.19721,36.51101],[1.20864,36.51221],[1.22854,36.50493],[1.25179,36.50373],[1.2673,36.50768],[1.28481,36.50704],[1.31546,36.51736],[1.3181,36.52048],[1.31598,36.52251],[1.32168,36.52413],[1.32977,36.53246],[1.33123,36.53865],[1.34274,36.55127],[1.38604,36.55174],[1.388,36.54174],[1.39431,36.53669],[1.4262,36.53926],[1.44336,36.53567],[1.45851,36.54203],[1.46796,36.5392],[1.47144,36.53205],[1.49222,36.52756],[1.51225,36.52897],[1.52013,36.53318],[1.5227,36.54015],[1.54551,36.53773],[1.55562,36.54158],[1.56912,36.53506],[1.58251,36.53407],[1.58849,36.53748],[1.60823,36.53758],[1.60802,36.54041],[1.6186,36.54515],[1.62502,36.54227],[1.63477,36.54906],[1.65219,36.55453],[1.7089,36.55297],[1.7407,36.55524],[1.75843,36.56172],[1.76294,36.55881],[1.78748,36.55739],[1.83388,36.5639],[1.85131,36.56946],[1.88414,36.5681],[1.91237,36.57646],[1.96155,36.567],[2.00042,36.56579],[2.0335,36.56941],[2.07129,36.57844],[2.08468,36.57739],[2.09993,36.58136],[2.10084,36.58496],[2.11137,36.58337],[2.1295,36.58633],[2.15394,36.59447],[2.15992,36.60107],[2.17301,36.59885],[2.19963,36.61329],[2.20858,36.61052],[2.23086,36.61362],[2.23972,36.61984],[2.24611,36.6177],[2.25661,36.62034],[2.26196,36.62756],[2.2728,36.62647],[2.29377,36.63431],[2.2992,36.63344],[2.31858,36.6401],[2.33771,36.63983],[2.34756,36.64463],[2.37628,36.64106],[2.40344,36.63362],[2.40204,36.62899],[2.40864,36.62003],[2.40502,36.61385],[2.40812,36.60513],[2.43178,36.59432],[2.44705,36.59722],[2.4493,36.59415],[2.47353,36.59182],[2.48212,36.59442],[2.48978,36.59189],[2.55605,36.59215],[2.60412,36.60106],[2.62764,36.61334],[2.64642,36.61853],[2.6534,36.62562],[2.66581,36.63028],[2.67136,36.638],[2.70842,36.65852],[2.74663,36.6757],[2.75365,36.67545],[2.7922,36.69056],[2.818,36.70948],[2.84013,36.73422],[2.84583,36.75371],[2.83767,36.76218],[2.84884,36.76528],[2.84885,36.76091],[2.85588,36.75951],[2.87726,36.76711],[2.89241,36.77971],[2.89942,36.79103],[2.89861,36.80259],[2.90372,36.80619],[2.92704,36.80479],[2.95148,36.81033],[2.95259,36.81302],[2.98678,36.81342],[3.01299,36.81959],[3.02481,36.81175],[3.04078,36.8093],[3.04972,36.8021],[3.05387,36.79388],[3.06856,36.78745],[3.0628,36.77782],[3.06376,36.77178],[3.06056,36.76819],[3.06247,36.76305],[3.07397,36.7615],[3.07779,36.75302],[3.08575,36.74938],[3.13204,36.74154],[3.17132,36.7438],[3.19432,36.75109],[3.21798,36.76363],[3.21767,36.76633],[3.22279,36.76748],[3.23095,36.77569],[3.23611,36.79083],[3.23487,36.80497],[3.22323,36.81218],[3.23219,36.81525],[3.25615,36.81263],[3.27208,36.80155],[3.29633,36.79327],[3.30592,36.79479],[3.31356,36.78834],[3.4326,36.7687],[3.48816,36.76784],[3.51023,36.77417],[3.51601,36.77787],[3.51551,36.78271],[3.52149,36.78569],[3.53843,36.78689],[3.55252,36.79169],[3.56282,36.80335],[3.62237,36.81834],[3.66473,36.83892],[3.68973,36.84713],[3.7174,36.86649],[3.72114,36.87264],[3.71784,36.87856],[3.72748,36.88364],[3.76276,36.89383],[3.83712,36.90823],[3.84453,36.91229],[3.84997,36.91276],[3.85549,36.9054],[3.85546,36.91246],[3.87077,36.91274],[3.8782,36.91911],[3.89553,36.92334],[3.90346,36.91815],[3.91738,36.91804],[3.91649,36.9106],[3.92188,36.90593],[3.9445,36.89856],[3.95823,36.89678],[3.973,36.90154],[3.98608,36.89874],[4.01173,36.90302],[4.03626,36.90101],[4.04811,36.89692],[4.07307,36.89734],[4.09121,36.89126],[4.10879,36.88982],[4.12294,36.89547],[4.13923,36.89364],[4.14792,36.89754],[4.14803,36.90473],[4.15352,36.90815],[4.16214,36.90691],[4.17958,36.8971],[4.20446,36.89274],[4.22916,36.89737],[4.24431,36.90415],[4.26161,36.90602],[4.26698,36.90172],[4.27337,36.90165],[4.29652,36.90834],[4.30718,36.89589],[4.31549,36.89554],[4.3287,36.90066],[4.35191,36.89282],[4.40368,36.89081],[4.41865,36.89564],[4.42227,36.90998],[4.44211,36.91013],[4.46177,36.90116],[4.47841,36.90159],[4.50595,36.88673],[4.5612,36.88319],[4.63123,36.88277],[4.64317,36.888],[4.65586,36.8832],[4.71178,36.88112],[4.73196,36.88288],[4.74303,36.89158],[4.75527,36.89513],[4.77595,36.89045],[4.78971,36.89089],[4.79623,36.88244],[4.80712,36.88343],[4.80693,36.87521],[4.8123,36.87231],[4.85788,36.86647],[4.86063,36.86154],[4.87622,36.85834],[4.87803,36.85382],[4.88751,36.84969],[4.91175,36.84724],[4.92316,36.85001],[4.93626,36.83079],[4.95151,36.8272],[4.95142,36.82387],[4.96909,36.81484],[4.98085,36.81272],[4.99052,36.81577],[5.00464,36.80628],[5.01442,36.80569],[5.01739,36.79297],[5.02791,36.79202],[5.04777,36.78217],[5.07666,36.77615],[5.09073,36.7768],[5.10001,36.7715],[5.10042,36.77509],[5.10357,36.77349],[5.10271,36.77094],[5.10683,36.76984],[5.10214,36.76196],[5.10622,36.75932],[5.09567,36.75886],[5.09145,36.75222],[5.07887,36.74567],[5.08039,36.73678],[5.07732,36.73542],[5.07719,36.73054],[5.06551,36.73323],[5.07699,36.72901],[5.08335,36.71066],[5.09377,36.70071],[5.13623,36.67864],[5.17912,36.66155],[5.24105,36.64242],[5.30308,36.63815],[5.36924,36.64405],[5.37768,36.64889],[5.3853,36.64796],[5.40364,36.65337],[5.4129,36.65409],[5.41503,36.6507],[5.41919,36.65113],[5.41941,36.65832],[5.42771,36.65359],[5.43627,36.65721],[5.43427,36.66444],[5.44503,36.66204],[5.46681,36.66505],[5.47991,36.67095],[5.47868,36.67726],[5.48524,36.67289],[5.50622,36.68093],[5.50833,36.68705],[5.5192,36.68784],[5.52917,36.69996],[5.54108,36.7033],[5.54236,36.71304],[5.54894,36.71268],[5.55744,36.72042],[5.5516,36.7321],[5.55584,36.74434],[5.56752,36.75],[5.57213,36.76402],[5.58302,36.76507],[5.59844,36.77732],[5.62624,36.77787],[5.64756,36.78497],[5.65836,36.79731],[5.67675,36.79806],[5.68252,36.80782],[5.69117,36.80865],[5.69433,36.81217],[5.69023,36.8183],[5.70067,36.81524],[5.72073,36.82249],[5.73372,36.81936],[5.73792,36.82068],[5.73969,36.82552],[5.73589,36.8265],[5.74013,36.82897],[5.75534,36.82541],[5.75589,36.82296],[5.77107,36.82749],[5.77556,36.81492],[5.78007,36.81135],[5.80129,36.80649],[5.87608,36.81639],[5.88368,36.8275],[5.88768,36.82766],[5.88107,36.81755],[5.88956,36.81824],[5.89097,36.82168],[5.89794,36.82022],[5.89693,36.82718],[5.9047,36.82147],[6.00831,36.84268],[6.08234,36.87072],[6.10115,36.86347],[6.08967,36.87128],[6.09233,36.87461],[6.1461,36.89243],[6.1479,36.89555],[6.17719,36.89921],[6.18722,36.90471],[6.19357,36.90311],[6.22021,36.91204],[6.2506,36.92957],[6.25079,36.93342],[6.26106,36.94137],[6.26373,36.94733],[6.26472,36.95532],[6.25889,36.96161],[6.25834,36.96801],[6.24421,36.97385],[6.23991,36.98223],[6.24051,36.98763],[6.24464,36.9885],[6.24913,36.99708],[6.26298,37.00844],[6.26288,37.02436],[6.30864,37.03954],[6.32207,37.05371],[6.32901,37.05695],[6.33695,37.06817],[6.36487,37.07637],[6.40509,37.08137],[6.41295,37.08565],[6.42113,37.08095],[6.42883,37.0806],[6.45092,37.08159],[6.4725,37.08809],[6.49317,37.08365],[6.5126,37.0725],[6.51229,37.06248],[6.5188,37.0544],[6.54039,37.05086],[6.54442,37.05493],[6.54925,37.05426],[6.54444,37.04954],[6.53977,37.03531],[6.54919,37.02626],[6.56028,37.02495],[6.56383,37.02939],[6.57046,37.02747],[6.56959,37.01949],[6.56453,37.01245],[6.56767,37.0093],[6.57155,37.00823],[6.58272,37.01462],[6.56552,36.99655],[6.56424,36.99138],[6.56878,36.98454],[6.58218,36.97583],[6.61504,36.96943],[6.63187,36.97375],[6.62653,36.97056],[6.62541,36.96514],[6.63528,36.9566],[6.64172,36.95519],[6.64669,36.96017],[6.6561,36.95599],[6.65792,36.95936],[6.66229,36.95765],[6.6649,36.95077],[6.67462,36.94711],[6.67962,36.9562],[6.68484,36.95835],[6.68636,36.95016],[6.68993,36.94856],[6.69913,36.95144],[6.71163,36.95065],[6.71336,36.94645],[6.71884,36.94514],[6.73341,36.94723],[6.74712,36.95184],[6.74962,36.95934],[6.74764,36.96136],[6.75284,36.96403],[6.75133,36.95013],[6.77004,36.94496],[6.78373,36.94765],[6.788,36.95493],[6.79476,36.95351],[6.80169,36.95723],[6.81285,36.94768],[6.83197,36.9506],[6.84047,36.95563],[6.84902,36.95296],[6.84538,36.94596],[6.84807,36.93548],[6.86259,36.93125],[6.86893,36.93355],[6.87252,36.93078],[6.88178,36.93172],[6.88115,36.92554],[6.88697,36.91946],[6.8838,36.90491],[6.87909,36.90162],[6.88049,36.89728],[6.89449,36.88815],[6.91088,36.88536],[6.91154,36.88867],[6.9318,36.8802],[7.01739,36.89582],[7.05167,36.90689],[7.05662,36.91339],[7.06853,36.9105],[7.07096,36.91568],[7.08621,36.92004],[7.11187,36.91736],[7.12075,36.90723],[7.14497,36.91121],[7.1452,36.91481],[7.14963,36.91706],[7.16148,36.91647],[7.20585,36.94615],[7.23658,36.97528],[7.25233,37.00043],[7.25646,37.02291],[7.25459,37.02769],[7.25025,37.0284],[7.24951,37.03276],[7.24088,37.03879],[7.22186,37.04378],[7.19866,37.06256],[7.19383,37.06352],[7.18593,37.07251],[7.18081,37.07192],[7.18167,37.07617],[7.1698,37.07676],[7.17196,37.08026],[7.18395,37.08135],[7.19164,37.07491],[7.19836,37.0754],[7.20046,37.08134],[7.20463,37.08141],[7.20644,37.08631],[7.21438,37.08952],[7.21412,37.08694],[7.23241,37.08645],[7.24953,37.08079],[7.26123,37.07403],[7.26521,37.06818],[7.27359,37.06586],[7.28696,37.07004]]],[[[-1.13323,35.71888],[-1.13242,35.72657],[-1.12768,35.72727],[-1.13323,35.71888]]],[[[-1.47606,35.31761],[-1.47951,35.31765],[-1.48218,35.32565],[-1.47813,35.32406],[-1.47606,35.31761]]]]}}]}