{"type":"FeatureCollection","features":[{"type":"Feature","properties":{"ISO_A3":"EGY","WB_A3":"EGY","WB_NAME":"Arab Republic of Egypt","WB_REGION":"MEA"},"geometry":{"type":"MultiPolygon","coordinates":[[[[33.50565,22],[31.39888,22],[31.43411,22.08604],[31.45643,22.11944],[31.49753,22.16821],[31.49985,22.17825],[31.5061,22.18609],[31.49102,22.19801],[31.48373,22.21447],[31.47001,22.22492],[31.44798,22.2131],[31.41841,22.18924],[31.38259,22.1545],[31.36458,22.13086],[31.3383,22.08046],[31.31503,22],[25,22],[25,29.25311],[24.89962,29.46525],[24.8806,29.48479],[24.8699,29.50481],[24.86496,29.53694],[24.87058,29.56217],[24.88415,29.58557],[24.9124,29.60886],[24.81848,29.80608],[24.81801,29.82736],[24.82484,29.87633],[24.82351,29.89846],[24.81189,29.91783],[24.8056,29.94012],[24.80883,29.94298],[24.80667,29.94911],[24.79466,29.96607],[24.78872,29.98117],[24.76663,30.0433],[24.76269,30.06494],[24.75426,30.08531],[24.70798,30.13677],[24.69677,30.15588],[24.72609,30.21872],[24.76887,30.27984],[24.77536,30.3103],[24.78255,30.32356],[24.80116,30.34131],[24.82657,30.35883],[24.8624,30.39896],[24.88341,30.43916],[24.92191,30.47061],[24.93006,30.49494],[24.94533,30.52177],[24.94923,30.54803],[24.94521,30.57528],[24.94965,30.59342],[24.9671,30.61556],[24.97843,30.63756],[24.98264,30.65561],[24.98064,30.67636],[24.98813,30.68631],[25.00035,30.7437],[25.0117,30.76305],[25.01607,30.7772],[24.98795,30.85448],[24.98746,30.87543],[24.98068,30.90041],[24.94743,30.96696],[24.947,30.98963],[24.93423,31.0143],[24.91499,31.06908],[24.88889,31.10731],[24.86889,31.15521],[24.87571,31.16337],[24.87913,31.22354],[24.88968,31.24661],[24.88347,31.30335],[24.87776,31.32162],[24.86879,31.33358],[24.86062,31.35457],[24.85954,31.40363],[24.90855,31.43977],[24.93865,31.46801],[24.98128,31.49986],[25.07647,31.55106],[25.07397,31.57528],[25.08053,31.6029],[25.09879,31.62936],[25.12717,31.64932],[25.13466,31.66977],[25.14366,31.66887],[25.13665,31.65339],[25.14929,31.65737],[25.14535,31.63624],[25.15362,31.62813],[25.15202,31.61808],[25.16798,31.59312],[25.16889,31.58516],[25.17883,31.56821],[25.16925,31.5664],[25.16829,31.56201],[25.16035,31.56113],[25.15942,31.55495],[25.17073,31.53686],[25.18348,31.52932],[25.21006,31.52044],[25.29077,31.50548],[25.39223,31.50294],[25.42427,31.50719],[25.46042,31.51728],[25.49701,31.51835],[25.645,31.55844],[25.81725,31.61363],[25.87029,31.62556],[25.90361,31.62803],[26.09448,31.59225],[26.09963,31.58765],[26.14147,31.57869],[26.15354,31.57208],[26.20828,31.5624],[26.28652,31.54126],[26.29948,31.53452],[26.3145,31.53293],[26.31783,31.52974],[26.3515,31.52271],[26.36921,31.52267],[26.37644,31.51821],[26.44762,31.51133],[26.49573,31.49508],[26.52304,31.49621],[26.55765,31.50546],[26.55753,31.49955],[26.56205,31.49622],[26.58699,31.48885],[26.6521,31.48994],[26.70734,31.48159],[26.75144,31.48349],[26.75656,31.4781],[26.77787,31.47235],[26.78089,31.46438],[26.786,31.46053],[26.82082,31.45056],[26.83643,31.44196],[26.92221,31.43999],[26.9621,31.44361],[26.9834,31.4422],[26.9912,31.43281],[27.00409,31.42754],[27.00439,31.41957],[27.01099,31.41185],[27.06405,31.40695],[27.06824,31.39461],[27.06659,31.39101],[27.07723,31.38316],[27.11139,31.37645],[27.16474,31.37613],[27.22257,31.37039],[27.22466,31.36769],[27.21807,31.3668],[27.21448,31.37028],[27.1938,31.37095],[27.1884,31.36787],[27.18331,31.37148],[27.17731,31.36776],[27.17685,31.36416],[27.1776,31.3603],[27.18209,31.35888],[27.21566,31.3614],[27.21896,31.36487],[27.22644,31.35868],[27.23962,31.3575],[27.24413,31.36251],[27.25341,31.35966],[27.25387,31.36352],[27.24504,31.36701],[27.34066,31.37309],[27.34454,31.36729],[27.35262,31.36534],[27.35469,31.35685],[27.34867,31.34941],[27.34862,31.33732],[27.36846,31.3149],[27.36872,31.30641],[27.37736,31.29378],[27.38591,31.26264],[27.40424,31.24176],[27.44601,31.21565],[27.48966,31.20739],[27.55398,31.20726],[27.55574,31.20134],[27.56586,31.19358],[27.63737,31.19607],[27.63714,31.18424],[27.64056,31.18114],[27.67583,31.17723],[27.68094,31.18068],[27.70668,31.18285],[27.76182,31.19719],[27.82662,31.21839],[27.84512,31.22882],[27.85464,31.2393],[27.8568,31.24635],[27.86693,31.24153],[27.86604,31.22585],[27.87182,31.22067],[27.86714,31.21607],[27.87139,31.18956],[27.89212,31.16781],[27.89038,31.1578],[27.89333,31.15289],[27.89033,31.1524],[27.88963,31.14083],[27.89526,31.11996],[27.90308,31.10911],[27.92956,31.09684],[27.9588,31.09238],[28.00809,31.09175],[28.0188,31.08703],[28.04658,31.08604],[28.1572,31.09204],[28.20238,31.07324],[28.27797,31.07418],[28.31611,31.06737],[28.33945,31.07021],[28.38804,31.08384],[28.43292,31.08798],[28.45431,31.08041],[28.4599,31.07482],[28.47215,31.07481],[28.47143,31.06711],[28.4806,31.06096],[28.5095,31.05677],[28.50975,31.05329],[28.51509,31.0513],[28.55722,31.05273],[28.57018,31.04126],[28.5937,31.03711],[28.60175,31.01876],[28.61539,31.01332],[28.65434,31.00434],[28.70804,31.00287],[28.72833,30.98589],[28.75965,30.98495],[28.75905,30.9766],[28.76826,30.96632],[28.79165,30.95648],[28.83096,30.95298],[28.83461,30.92542],[28.84133,30.91812],[28.85781,30.90683],[28.89212,30.89296],[28.90638,30.87527],[28.98214,30.84881],[28.97805,30.8454],[28.98907,30.8379],[29.02232,30.83225],[29.02119,30.82828],[28.99019,30.83429],[28.96403,30.85204],[28.95229,30.85351],[28.95143,30.84761],[28.95616,30.84586],[28.96164,30.85156],[28.96621,30.8444],[28.96544,30.83995],[28.97013,30.84411],[28.97636,30.84286],[28.9818,30.83236],[29.00312,30.82586],[29.00943,30.82834],[29.01855,30.82305],[29.03501,30.82652],[29.04272,30.82473],[29.04231,30.81972],[29.04577,30.82121],[29.04448,30.82355],[29.07866,30.82004],[29.13649,30.82167],[29.2245,30.84076],[29.35303,30.88219],[29.48116,30.93866],[29.54284,30.97087],[29.67411,31.05703],[29.71777,31.09081],[29.72134,31.09022],[29.74323,31.10389],[29.77257,31.12665],[29.78169,31.13725],[29.7821,31.14598],[29.78969,31.15019],[29.79322,31.14805],[29.78776,31.14534],[29.79129,31.1436],[29.79525,31.14621],[29.79772,31.14359],[29.79386,31.1393],[29.79556,31.13618],[29.79934,31.14304],[29.80233,31.14297],[29.80243,31.13629],[29.80628,31.13492],[29.82097,31.13665],[29.82977,31.14134],[29.86083,31.17073],[29.86488,31.17115],[29.86512,31.17423],[29.8702,31.17412],[29.87648,31.184],[29.87386,31.18624],[29.86913,31.18313],[29.87144,31.19028],[29.8816,31.19031],[29.87696,31.19979],[29.86825,31.19857],[29.86267,31.19276],[29.86034,31.19412],[29.86506,31.20199],[29.87729,31.20678],[29.87764,31.21237],[29.8836,31.21185],[29.88435,31.20592],[29.89164,31.20088],[29.9018,31.20249],[29.90739,31.20978],[29.91908,31.21357],[29.95361,31.23714],[29.95468,31.24102],[29.96297,31.24353],[29.98739,31.26582],[29.98552,31.26821],[29.98813,31.27084],[29.99323,31.27019],[30.00851,31.27903],[30.01204,31.29042],[30.01961,31.28764],[30.03468,31.29377],[30.04785,31.30821],[30.0451,31.31457],[30.05005,31.31905],[30.05754,31.31897],[30.06831,31.32898],[30.07788,31.32933],[30.07271,31.32677],[30.07312,31.31868],[30.07073,31.31824],[30.07325,31.31419],[30.07989,31.31254],[30.07112,31.31054],[30.07596,31.29935],[30.08552,31.29005],[30.08574,31.28312],[30.12115,31.27492],[30.12455,31.27127],[30.17512,31.27111],[30.1791,31.26824],[30.1739,31.26183],[30.15614,31.26539],[30.16015,31.26153],[30.17006,31.26008],[30.17142,31.24983],[30.19509,31.26371],[30.18095,31.26623],[30.17904,31.26907],[30.18316,31.27257],[30.21195,31.28053],[30.24237,31.29442],[30.2756,31.31479],[30.29808,31.3348],[30.31717,31.35833],[30.33597,31.39265],[30.36212,31.46464],[30.38005,31.44548],[30.38889,31.44013],[30.40811,31.43872],[30.42264,31.43375],[30.4283,31.4187],[30.41916,31.38022],[30.42031,31.37638],[30.43145,31.37429],[30.43137,31.37738],[30.42322,31.37991],[30.43288,31.41545],[30.42945,31.43131],[30.42067,31.43988],[30.38789,31.44384],[30.37351,31.45948],[30.3775,31.46149],[30.39119,31.46511],[30.42515,31.45693],[30.42559,31.46285],[30.4193,31.46812],[30.42192,31.47087],[30.44225,31.46228],[30.49674,31.45411],[30.54244,31.46065],[30.70811,31.50408],[30.85016,31.55025],[30.9287,31.56902],[30.96981,31.58395],[30.99527,31.58679],[31.04336,31.59937],[31.10775,31.60098],[31.13933,31.59167],[31.19991,31.58033],[31.21565,31.57374],[31.27779,31.55852],[31.3915,31.51103],[31.48197,31.46509],[31.52388,31.45131],[31.56447,31.44271],[31.60194,31.44575],[31.64171,31.45338],[31.72244,31.47221],[31.7538,31.48267],[31.75136,31.46337],[31.75631,31.4629],[31.76921,31.45158],[31.77264,31.45303],[31.76596,31.45888],[31.7687,31.46714],[31.75965,31.47116],[31.75837,31.47732],[31.76655,31.47149],[31.8009,31.45921],[31.79582,31.44605],[31.79994,31.42912],[31.79942,31.44583],[31.80243,31.45666],[31.82601,31.46613],[31.82979,31.47632],[31.82564,31.48387],[31.84482,31.52235],[31.88806,31.52107],[31.92224,31.52393],[31.94911,31.50988],[31.96187,31.49636],[31.98938,31.47704],[31.99634,31.45781],[31.99378,31.45882],[31.99295,31.46601],[31.98182,31.48315],[31.95598,31.49965],[31.95438,31.49553],[31.97191,31.45607],[31.98563,31.43587],[31.99501,31.42771],[32.00541,31.40825],[32.07033,31.36104],[32.12722,31.33393],[32.17089,31.30761],[32.16915,31.30027],[32.15536,31.30249],[32.15172,31.30735],[32.12435,31.32015],[32.10174,31.33517],[32.09246,31.33459],[32.0894,31.34125],[32.06791,31.3483],[32.08216,31.34647],[32.08154,31.34891],[32.09718,31.34259],[32.09084,31.34795],[32.05572,31.35464],[32.0595,31.35106],[32.05849,31.34643],[32.08103,31.33991],[32.0895,31.33148],[32.10364,31.32451],[32.10902,31.32648],[32.11057,31.32083],[32.19599,31.27819],[32.20798,31.27647],[32.20622,31.27311],[32.21163,31.27045],[32.2155,31.2724],[32.21613,31.2688],[32.21837,31.26933],[32.21608,31.27523],[32.21904,31.27911],[32.21485,31.27934],[32.21688,31.28655],[32.305,31.2733],[32.32118,31.27339],[32.32404,31.27691],[32.3108,31.2588],[32.30514,31.25504],[32.30124,31.2567],[32.30443,31.25054],[32.30054,31.23342],[32.29363,31.23323],[32.30172,31.23253],[32.30253,31.22327],[32.31619,30.82039],[32.31404,30.78746],[32.32176,30.74867],[32.34103,30.71714],[32.34261,30.70326],[32.32341,30.61907],[32.30609,30.58709],[32.30043,30.58834],[32.2969,30.58408],[32.27784,30.58822],[32.27877,30.58398],[32.26983,30.58609],[32.27377,30.57662],[32.2911,30.56438],[32.2906,30.55074],[32.30322,30.55235],[32.29636,30.55617],[32.29991,30.55722],[32.33377,30.51702],[32.35689,30.41196],[32.35301,30.41528],[32.34446,30.40636],[32.32872,30.40834],[32.31658,30.40519],[32.3172,30.40185],[32.31126,30.40221],[32.30587,30.38803],[32.30937,30.37545],[32.30369,30.36128],[32.30248,30.34275],[32.30536,30.33454],[32.32549,30.31767],[32.33719,30.29638],[32.34794,30.28486],[32.38886,30.28095],[32.39451,30.27673],[32.40725,30.27795],[32.40816,30.27371],[32.40491,30.27305],[32.42647,30.25849],[32.43178,30.23768],[32.44052,30.23746],[32.44988,30.23119],[32.46732,30.23705],[32.47278,30.24196],[32.47597,30.25381],[32.45919,30.26222],[32.47284,30.25829],[32.47993,30.26167],[32.49995,30.25673],[32.5249,30.24422],[32.52436,30.23419],[32.5183,30.23121],[32.51685,30.22542],[32.52368,30.21978],[32.52907,30.20771],[32.53233,30.20747],[32.53564,30.19642],[32.53861,30.19502],[32.54598,30.20173],[32.5602,30.19882],[32.56823,30.15692],[32.57012,30.06203],[32.58496,29.979],[32.58151,29.95558],[32.57887,29.95043],[32.5787,29.95635],[32.57575,29.95659],[32.57035,29.94037],[32.56403,29.93521],[32.56192,29.94446],[32.56752,29.94731],[32.56646,29.95219],[32.55881,29.95924],[32.54209,29.95378],[32.53617,29.95595],[32.52801,29.95326],[32.51609,29.95433],[32.49044,29.94562],[32.47632,29.93566],[32.47796,29.93284],[32.47458,29.93],[32.47433,29.92125],[32.45913,29.89187],[32.47454,29.88087],[32.47416,29.86801],[32.47907,29.86185],[32.49085,29.86589],[32.49265,29.86036],[32.50579,29.85861],[32.5064,29.85347],[32.48954,29.83309],[32.48635,29.82227],[32.46932,29.80755],[32.45006,29.79641],[32.42645,29.7747],[32.39415,29.72852],[32.38616,29.70919],[32.36772,29.68956],[32.366,29.68299],[32.36349,29.68336],[32.36002,29.67383],[32.36209,29.64915],[32.35589,29.65118],[32.35203,29.65694],[32.34938,29.65577],[32.35328,29.64448],[32.36551,29.64376],[32.36662,29.63065],[32.34707,29.60381],[32.34287,29.59247],[32.36219,29.56324],[32.36105,29.55706],[32.37306,29.54104],[32.37236,29.53603],[32.379,29.53168],[32.38139,29.52604],[32.39201,29.52017],[32.39795,29.51094],[32.41534,29.50356],[32.4304,29.49205],[32.44277,29.48798],[32.45344,29.47195],[32.47749,29.45417],[32.47914,29.44646],[32.49798,29.4401],[32.5008,29.43548],[32.49965,29.42905],[32.50364,29.42431],[32.52809,29.41218],[32.55698,29.3881],[32.56551,29.38427],[32.57319,29.37477],[32.57411,29.36552],[32.58028,29.36322],[32.58445,29.35037],[32.5921,29.34577],[32.60161,29.31622],[32.60241,29.29976],[32.61022,29.29052],[32.60568,29.28716],[32.60645,29.27765],[32.61484,29.27201],[32.61636,29.25735],[32.62666,29.24812],[32.62947,29.24016],[32.6247,29.22214],[32.62638,29.20336],[32.63666,29.19825],[32.64038,29.1818],[32.64729,29.1759],[32.64541,29.16771],[32.64895,29.16073],[32.64663,29.15429],[32.648,29.13937],[32.65168,29.13527],[32.65038,29.12883],[32.66582,29.11189],[32.66453,29.10083],[32.66703,29.09929],[32.65466,29.0765],[32.6383,29.06359],[32.62515,29.05764],[32.62341,29.05313],[32.62387,29.04722],[32.63093,29.03746],[32.63155,29.02898],[32.62689,29.02279],[32.62955,29.01302],[32.62328,29.00863],[32.62177,28.98007],[32.63192,28.96415],[32.66302,28.93645],[32.68114,28.89199],[32.6797,28.88504],[32.68866,28.8686],[32.70478,28.85333],[32.72555,28.84244],[32.73599,28.81803],[32.74902,28.80467],[32.78905,28.79317],[32.80251,28.78212],[32.8088,28.77236],[32.8239,28.73636],[32.83032,28.73329],[32.83208,28.72763],[32.82859,28.72325],[32.82934,28.70962],[32.83826,28.69831],[32.84339,28.68134],[32.84283,28.66307],[32.85349,28.65356],[32.85657,28.64405],[32.86801,28.58695],[32.86336,28.57794],[32.86818,28.57074],[32.88538,28.56304],[32.93055,28.5515],[32.95446,28.52038],[32.9663,28.51635],[32.96378,28.51369],[32.96451,28.50649],[32.97048,28.5034],[32.97252,28.49697],[32.98272,28.4917],[32.99873,28.48951],[33.00193,28.47588],[33.00601,28.47099],[33.01969,28.46584],[33.05168,28.40075],[33.06477,28.38942],[33.07581,28.37115],[33.10939,28.35621],[33.11229,28.3508],[33.11183,28.32045],[33.11356,28.3153],[33.12359,28.30783],[33.12575,28.29136],[33.14259,28.28054],[33.15102,28.27925],[33.15014,28.27513],[33.15725,28.27049],[33.16333,28.25325],[33.16259,28.2463],[33.16752,28.23961],[33.1813,28.2311],[33.1852,28.21875],[33.20058,28.21178],[33.21507,28.1922],[33.2426,28.17029],[33.24284,28.14482],[33.25153,28.14082],[33.27877,28.13814],[33.28053,28.13008],[33.29009,28.12337],[33.29847,28.11152],[33.30456,28.10945],[33.31584,28.09579],[33.3228,28.095],[33.33683,28.08365],[33.33348,28.07902],[33.33388,28.06848],[33.34094,28.05276],[33.35138,28.05197],[33.35832,28.04745],[33.36528,28.04833],[33.36671,28.04086],[33.37827,28.03067],[33.41018,28.03392],[33.41655,28.03197],[33.42058,28.02347],[33.43361,28.0206],[33.45498,28.00111],[33.46425,27.99941],[33.48217,27.9888],[33.50636,27.95475],[33.52249,27.93539],[33.53087,27.92996],[33.53902,27.9096],[33.55675,27.89384],[33.56384,27.86551],[33.57477,27.85183],[33.58474,27.84741],[33.58526,27.8366],[33.58059,27.83019],[33.58489,27.82143],[33.58079,27.8127],[33.58305,27.8024],[33.58863,27.79182],[33.60651,27.78094],[33.60562,27.77631],[33.61006,27.77012],[33.60569,27.76293],[33.60752,27.75547],[33.59972,27.75666],[33.59701,27.76323],[33.58448,27.77229],[33.59004,27.7841],[33.59496,27.78485],[33.59296,27.78885],[33.58574,27.79132],[33.58562,27.79724],[33.58259,27.79725],[33.58371,27.79017],[33.57996,27.79225],[33.57227,27.78778],[33.5713,27.79576],[33.5664,27.80066],[33.56687,27.80735],[33.55896,27.81549],[33.55461,27.81486],[33.55198,27.81011],[33.54707,27.81026],[33.52773,27.81998],[33.5263,27.82475],[33.51244,27.83008],[33.48526,27.83609],[33.47728,27.83059],[33.46995,27.809],[33.47931,27.80009],[33.48915,27.79942],[33.50151,27.7829],[33.50347,27.76888],[33.51156,27.76692],[33.52016,27.75093],[33.53665,27.75203],[33.55348,27.76302],[33.56038,27.75541],[33.54213,27.71843],[33.5396,27.70403],[33.54681,27.70195],[33.54603,27.68883],[33.54904,27.68457],[33.5759,27.68176],[33.57849,27.67815],[33.577,27.66966],[33.58462,27.6632],[33.58387,27.65857],[33.59495,27.65081],[33.59362,27.64361],[33.58899,27.64221],[33.57352,27.66775],[33.56113,27.67577],[33.55723,27.67592],[33.55633,27.66872],[33.56422,27.6575],[33.55281,27.65844],[33.55111,27.66565],[33.54207,27.67701],[33.52907,27.67925],[33.51662,27.6735],[33.50182,27.65967],[33.49467,27.64425],[33.51428,27.63801],[33.53671,27.61657],[33.55492,27.58897],[33.55895,27.58818],[33.56146,27.5699],[33.56521,27.56834],[33.56648,27.56293],[33.55655,27.5411],[33.55836,27.5272],[33.59093,27.52064],[33.59177,27.51472],[33.60524,27.49845],[33.62398,27.49631],[33.62365,27.48911],[33.62968,27.48329],[33.62958,27.46541],[33.64045,27.44953],[33.65597,27.4411],[33.6571,27.43646],[33.66429,27.43411],[33.67818,27.41835],[33.67827,27.40858],[33.68642,27.39902],[33.68721,27.38666],[33.68134,27.37645],[33.67856,27.37575],[33.67939,27.37975],[33.67417,27.37462],[33.67573,27.37154],[33.68366,27.37176],[33.68572,27.35528],[33.69463,27.35189],[33.69539,27.33413],[33.70803,27.32893],[33.71485,27.315],[33.72291,27.31315],[33.72603,27.30645],[33.75307,27.30167],[33.75647,27.29265],[33.76251,27.29133],[33.78542,27.27319],[33.80726,27.2669],[33.80838,27.26251],[33.83124,27.25955],[33.84995,27.23988],[33.8412,27.22489],[33.84284,27.21265],[33.84884,27.20747],[33.85166,27.19961],[33.84098,27.19517],[33.82748,27.17827],[33.82921,27.15922],[33.83293,27.15765],[33.82827,27.11085],[33.83328,27.10748],[33.83252,27.10234],[33.84201,27.10254],[33.85417,27.09475],[33.85454,27.08702],[33.85769,27.08495],[33.86315,27.0844],[33.8649,27.08748],[33.88123,27.08069],[33.89932,27.0605],[33.90652,27.0445],[33.88987,27.04628],[33.88391,27.03744],[33.88543,27.03023],[33.90222,27.01005],[33.91123,27.00562],[33.91017,26.99817],[33.89923,26.99489],[33.90035,26.99103],[33.9195,26.98035],[33.93835,26.93263],[33.96142,26.91163],[33.96274,26.89747],[33.969,26.89151],[33.97186,26.89098],[33.9795,26.8995],[33.99634,26.90084],[33.98903,26.88545],[33.98911,26.87722],[33.99416,26.86432],[34.00382,26.85447],[34.00247,26.84728],[33.99669,26.84282],[33.9901,26.84364],[33.97375,26.86035],[33.96588,26.86207],[33.96098,26.85915],[33.94409,26.82967],[33.94429,26.81861],[33.94843,26.816],[33.9492,26.80596],[33.94209,26.79521],[33.93647,26.79241],[33.93725,26.7816],[33.94186,26.76793],[33.95806,26.75149],[33.94265,26.7422],[33.94283,26.72933],[33.93762,26.72293],[33.93883,26.69565],[33.93268,26.67922],[33.93574,26.66814],[33.94654,26.65803],[33.94807,26.65185],[33.97149,26.64448],[33.984,26.63501],[33.99087,26.63483],[33.99622,26.62424],[34.01843,26.60993],[34.02156,26.59267],[34.03536,26.56736],[34.03682,26.55474],[34.053,26.54021],[34.05548,26.53067],[34.06175,26.52805],[34.07034,26.51307],[34.06814,26.50729],[34.07129,26.50791],[34.08147,26.47979],[34.08356,26.45893],[34.09072,26.44498],[34.0964,26.44159],[34.10826,26.4114],[34.11913,26.39768],[34.12754,26.39581],[34.1363,26.37181],[34.14735,26.3622],[34.15634,26.3472],[34.16828,26.3417],[34.18362,26.31996],[34.18805,26.30578],[34.1853,26.28805],[34.18835,26.27927],[34.19269,26.271],[34.2033,26.26216],[34.20551,26.2552],[34.20218,26.25111],[34.21024,26.24332],[34.21732,26.21136],[34.24064,26.17796],[34.24597,26.15631],[34.2627,26.14715],[34.27074,26.12624],[34.2866,26.11658],[34.28896,26.11116],[34.28311,26.09783],[34.30202,26.08068],[34.31353,26.06539],[34.31616,26.04607],[34.32258,26.03443],[34.32458,26.02206],[34.34396,25.98612],[34.35197,25.97652],[34.37602,25.9642],[34.38798,25.94067],[34.39536,25.9388],[34.39558,25.93288],[34.39926,25.93182],[34.41302,25.90441],[34.4128,25.88588],[34.41964,25.87501],[34.41641,25.86694],[34.42012,25.86729],[34.42785,25.84791],[34.43474,25.84218],[34.43255,25.83732],[34.4547,25.83452],[34.46453,25.82529],[34.46965,25.82485],[34.48868,25.78967],[34.48676,25.78403],[34.49246,25.785],[34.50227,25.77383],[34.51695,25.76647],[34.52673,25.75351],[34.53973,25.74797],[34.53839,25.74335],[34.54512,25.72527],[34.55161,25.72211],[34.55869,25.70994],[34.5582,25.70454],[34.56413,25.70191],[34.56296,25.67748],[34.56607,25.67719],[34.56698,25.67049],[34.57133,25.66632],[34.58178,25.66209],[34.57902,25.65749],[34.58032,25.64847],[34.5884,25.626],[34.60642,25.6047],[34.60426,25.60254],[34.6105,25.60221],[34.6209,25.59477],[34.63637,25.57452],[34.6415,25.53484],[34.6378,25.53323],[34.65086,25.5139],[34.64977,25.50722],[34.66359,25.50192],[34.67598,25.48531],[34.67834,25.46109],[34.6884,25.45082],[34.69018,25.43651],[34.69356,25.43467],[34.69287,25.41616],[34.70206,25.39431],[34.70602,25.39413],[34.71715,25.38011],[34.72992,25.37199],[34.74004,25.34717],[34.73749,25.3369],[34.74116,25.33635],[34.74349,25.3304],[34.7432,25.32063],[34.74893,25.31541],[34.75223,25.29839],[34.75817,25.29819],[34.78473,25.26661],[34.79563,25.2477],[34.79511,25.24076],[34.80384,25.21904],[34.80113,25.21727],[34.81189,25.2089],[34.80885,25.20431],[34.81481,25.20578],[34.82199,25.19386],[34.84169,25.17792],[34.8406,25.17124],[34.84765,25.17038],[34.85112,25.16596],[34.85456,25.15048],[34.87375,25.12091],[34.87334,25.11242],[34.88065,25.1005],[34.87942,25.09408],[34.88216,25.08838],[34.89013,25.08339],[34.89257,25.07655],[34.89652,25.07611],[34.90467,25.05491],[34.91132,25.04685],[34.91779,25.02669],[34.92652,25.01655],[34.92603,25.01218],[34.94112,25.0022],[34.94484,24.9965],[34.94701,24.9818],[34.9401,24.97314],[34.93677,24.95852],[34.94748,24.93986],[34.96226,24.92886],[34.96136,24.92552],[34.96586,24.92469],[34.96594,24.92032],[34.98777,24.89198],[34.98794,24.86728],[34.99346,24.86],[34.99409,24.82861],[35.01554,24.80388],[35.03826,24.78865],[35.06192,24.76208],[35.06545,24.75405],[35.07108,24.75398],[35.08969,24.71255],[35.08826,24.69431],[35.08419,24.6869],[35.08685,24.6776],[35.09331,24.66799],[35.10848,24.66572],[35.09865,24.64245],[35.10147,24.63392],[35.10595,24.63257],[35.11893,24.61798],[35.11218,24.60984],[35.11705,24.60681],[35.1194,24.61218],[35.12922,24.61076],[35.14418,24.58031],[35.16684,24.56455],[35.16707,24.56172],[35.14613,24.55404],[35.14847,24.53497],[35.13735,24.52612],[35.137,24.51352],[35.14291,24.50572],[35.15405,24.49913],[35.16727,24.48286],[35.18406,24.47863],[35.19238,24.47182],[35.19579,24.45813],[35.20347,24.45494],[35.2029,24.44671],[35.20834,24.44406],[35.22164,24.41762],[35.23414,24.40123],[35.24329,24.39415],[35.26063,24.39003],[35.26187,24.38101],[35.26849,24.37422],[35.28634,24.367],[35.2977,24.35847],[35.30361,24.35902],[35.3045,24.36184],[35.31908,24.36059],[35.31864,24.35159],[35.33264,24.33414],[35.33768,24.33355],[35.34143,24.32371],[35.34845,24.32335],[35.35733,24.31781],[35.37091,24.29316],[35.4075,24.25399],[35.4141,24.23948],[35.41698,24.22143],[35.42428,24.22157],[35.42579,24.21228],[35.43202,24.20832],[35.42615,24.20173],[35.42534,24.19583],[35.43171,24.18415],[35.44357,24.17392],[35.45418,24.15703],[35.49095,24.1302],[35.49308,24.1101],[35.49862,24.1064],[35.51206,24.11313],[35.50724,24.12453],[35.4884,24.13615],[35.50318,24.13938],[35.52352,24.11834],[35.5352,24.11416],[35.54503,24.11516],[35.55916,24.10669],[35.56324,24.10044],[35.57629,24.09431],[35.58668,24.08179],[35.59887,24.05405],[35.60104,24.01556],[35.61385,24.01213],[35.63378,24.00072],[35.64187,23.99943],[35.65038,24.00455],[35.66608,24.00569],[35.72177,23.9907],[35.75379,23.96903],[35.76387,23.95625],[35.7621,23.95191],[35.76805,23.94871],[35.77298,23.92393],[35.7842,23.91215],[35.79335,23.90864],[35.78926,23.89406],[35.78564,23.89489],[35.78638,23.90337],[35.76442,23.9228],[35.76351,23.93259],[35.74979,23.93914],[35.74197,23.93966],[35.74018,23.93455],[35.73229,23.93199],[35.72391,23.93265],[35.71589,23.92392],[35.70096,23.91904],[35.69041,23.90984],[35.68315,23.91022],[35.6549,23.92447],[35.64735,23.92499],[35.64187,23.93049],[35.61912,23.9265],[35.58872,23.93165],[35.57735,23.93686],[35.56873,23.95398],[35.56065,23.95604],[35.54828,23.95316],[35.53581,23.94539],[35.51503,23.92747],[35.51455,23.93147],[35.50587,23.93856],[35.50834,23.95035],[35.53045,23.94802],[35.5455,23.95385],[35.54981,23.95983],[35.55311,23.95681],[35.55818,23.95827],[35.55355,23.96465],[35.54989,23.96394],[35.54272,23.96946],[35.51096,23.97719],[35.50113,23.97593],[35.49826,23.97212],[35.50025,23.96643],[35.49466,23.95958],[35.49809,23.95592],[35.49338,23.9439],[35.48952,23.93972],[35.48406,23.93994],[35.48667,23.93732],[35.483,23.92838],[35.47852,23.92819],[35.47597,23.93364],[35.47304,23.92674],[35.47482,23.91745],[35.48198,23.91888],[35.48241,23.91218],[35.47611,23.90653],[35.4843,23.90829],[35.48351,23.89621],[35.48887,23.86911],[35.48534,23.8455],[35.4771,23.84641],[35.48363,23.81466],[35.47703,23.81322],[35.47458,23.80915],[35.47282,23.78293],[35.48103,23.781],[35.48769,23.78552],[35.49292,23.79599],[35.48237,23.77043],[35.49073,23.76927],[35.50225,23.78657],[35.50809,23.78494],[35.51298,23.77071],[35.50983,23.75198],[35.50435,23.75052],[35.50807,23.76204],[35.50434,23.76429],[35.49643,23.76017],[35.49059,23.76168],[35.48503,23.75598],[35.48758,23.75054],[35.50112,23.74234],[35.50779,23.68898],[35.51215,23.68351],[35.50722,23.64474],[35.51007,23.63286],[35.50348,23.63168],[35.49855,23.63665],[35.49462,23.65035],[35.48914,23.64864],[35.4895,23.63808],[35.48595,23.63505],[35.48984,23.6337],[35.48966,23.62444],[35.49342,23.62387],[35.49341,23.63082],[35.49575,23.62872],[35.50075,23.59828],[35.50719,23.58429],[35.50133,23.54013],[35.49043,23.51715],[35.49001,23.50249],[35.48711,23.5037],[35.48522,23.49974],[35.49002,23.48809],[35.48714,23.48324],[35.49313,23.46771],[35.53195,23.42695],[35.54005,23.40598],[35.5383,23.40189],[35.54736,23.37268],[35.55401,23.36356],[35.55084,23.31422],[35.55836,23.27757],[35.56916,23.2599],[35.56677,23.2445],[35.571,23.23285],[35.57075,23.21253],[35.58615,23.2025],[35.59435,23.1805],[35.61192,23.16117],[35.61572,23.14902],[35.62558,23.14114],[35.62786,23.12258],[35.63555,23.1173],[35.63274,23.1086],[35.64916,23.088],[35.65589,23.06242],[35.66048,22.9988],[35.6738,22.97002],[35.67334,22.96771],[35.66961,22.96855],[35.66997,22.97292],[35.66432,22.9752],[35.65986,22.96743],[35.66241,22.95555],[35.67126,22.94691],[35.66814,22.94336],[35.6718,22.94587],[35.67649,22.94412],[35.6805,22.95023],[35.68379,22.94824],[35.68527,22.9387],[35.69622,22.91665],[35.70989,22.90561],[35.7201,22.88846],[35.72855,22.8878],[35.73046,22.87902],[35.73571,22.87764],[35.74078,22.86778],[35.74955,22.86197],[35.75841,22.84689],[35.76118,22.8471],[35.76225,22.85197],[35.76002,22.85124],[35.75342,22.86807],[35.75477,22.8732],[35.77627,22.879],[35.78585,22.85876],[35.78692,22.85],[35.78486,22.84438],[35.78084,22.8447],[35.78277,22.85084],[35.77497,22.86281],[35.77104,22.86108],[35.77809,22.85247],[35.76823,22.83888],[35.783,22.82782],[35.79465,22.82748],[35.79257,22.83446],[35.78531,22.83897],[35.78671,22.8464],[35.79005,22.84711],[35.80224,22.82555],[35.80065,22.82249],[35.80723,22.81877],[35.80802,22.81644],[35.80119,22.81502],[35.80264,22.81114],[35.82486,22.78528],[35.84068,22.77239],[35.84846,22.75965],[35.88245,22.74039],[35.88462,22.73816],[35.87928,22.73491],[35.87977,22.73182],[35.89812,22.72094],[35.89392,22.71896],[35.89603,22.71378],[35.91392,22.70741],[35.92084,22.70715],[35.9215,22.7119],[35.92671,22.7091],[35.9246,22.70117],[35.91871,22.69793],[35.91778,22.69357],[35.92079,22.69159],[35.92996,22.69232],[35.9323,22.71131],[35.93563,22.71138],[35.94225,22.70985],[35.94179,22.68825],[35.94733,22.68802],[35.96191,22.69585],[35.96568,22.70337],[35.9732,22.69873],[35.96934,22.69314],[35.9798,22.68999],[36.00141,22.69092],[36.0312,22.68453],[36.03714,22.67937],[36.04371,22.68309],[36.05952,22.68274],[36.0891,22.67325],[36.09699,22.66696],[36.13858,22.66668],[36.1449,22.66924],[36.15115,22.66189],[36.16893,22.65989],[36.17966,22.66368],[36.18904,22.65922],[36.19165,22.6464],[36.19583,22.64544],[36.19872,22.63983],[36.2285,22.63354],[36.23409,22.63093],[36.23591,22.62324],[36.2455,22.61479],[36.25827,22.6136],[36.26111,22.59589],[36.27553,22.58842],[36.28582,22.57213],[36.29719,22.5147],[36.30556,22.50429],[36.30909,22.49354],[36.34848,22.46023],[36.37928,22.44157],[36.40299,22.43192],[36.40845,22.43587],[36.41457,22.43442],[36.42062,22.42899],[36.42431,22.4239],[36.42069,22.41021],[36.42144,22.39941],[36.4296,22.37716],[36.43697,22.3675],[36.43592,22.36414],[36.44565,22.354],[36.47357,22.33939],[36.48077,22.33885],[36.49758,22.32676],[36.51311,22.32469],[36.54521,22.30755],[36.55409,22.30601],[36.56198,22.29751],[36.5759,22.29193],[36.58017,22.28505],[36.59607,22.27679],[36.59645,22.27062],[36.61769,22.25678],[36.61834,22.25113],[36.6448,22.23942],[36.64482,22.2299],[36.65203,22.22023],[36.67689,22.20399],[36.67558,22.19998],[36.69668,22.19359],[36.70118,22.18877],[36.70003,22.18309],[36.7226,22.1632],[36.73174,22.16179],[36.73594,22.15799],[36.75417,22.15824],[36.76628,22.16136],[36.767,22.16807],[36.77109,22.17147],[36.77899,22.16102],[36.79405,22.15171],[36.79581,22.12741],[36.82703,22.10892],[36.84202,22.08595],[36.8653,22.07995],[36.87791,22.06815],[36.89271,22.06577],[36.89386,22.06269],[36.89318,22.0246],[36.88059,22],[33.50565,22]]],[[[36.63221,22.24825],[36.63408,22.26037],[36.6308,22.26624],[36.63776,22.27174],[36.63778,22.27895],[36.64384,22.28032],[36.64735,22.28501],[36.65227,22.28045],[36.65148,22.27812],[36.64606,22.27971],[36.64421,22.27441],[36.65338,22.27197],[36.65511,22.26762],[36.66471,22.26364],[36.66559,22.25233],[36.66299,22.25075],[36.6544,22.26028],[36.63652,22.25539],[36.63221,22.24825]]],[[[36.62935,22.2868],[36.62841,22.29322],[36.64056,22.29469],[36.62935,22.2868]]],[[[36.24454,23.56143],[36.24474,23.56503],[36.2484,23.56343],[36.24454,23.56143]]],[[[36.18911,23.59593],[36.18519,23.59663],[36.18795,23.60453],[36.18812,23.60993],[36.18484,23.61309],[36.18653,23.62534],[36.19136,23.62157],[36.19736,23.62168],[36.19729,23.61807],[36.20807,23.61029],[36.21422,23.60963],[36.21485,23.60656],[36.20621,23.60576],[36.18911,23.59593]]],[[[35.80845,23.83043],[35.80243,23.83646],[35.81028,23.84403],[35.81401,23.83522],[35.80845,23.83043]]],[[[35.75283,22.87336],[35.75538,22.8827],[35.75239,22.88584],[35.7537,22.89585],[35.74951,22.90146],[35.74232,22.90274],[35.74531,22.91362],[35.75725,22.9066],[35.76078,22.89547],[35.76583,22.89153],[35.76282,22.88],[35.75283,22.87336]]],[[[35.7404,22.9038],[35.71859,22.91035],[35.72231,22.91607],[35.73516,22.91958],[35.7404,22.9038]]],[[[35.72374,22.88994],[35.7189,22.89131],[35.7146,22.89833],[35.71173,22.90764],[35.71359,22.91018],[35.71746,22.90934],[35.71595,22.90345],[35.72181,22.89769],[35.72374,22.88994]]],[[[35.70886,22.91],[35.7045,22.91393],[35.70962,22.91333],[35.70886,22.91]]],[[[35.7001,22.91607],[35.69661,22.9223],[35.70321,22.91897],[35.7001,22.91607]]],[[[35.37953,24.37907],[35.38189,24.39254],[35.38431,24.37926],[35.37953,24.37907]]],[[[35.36836,24.30735],[35.36455,24.31384],[35.371,24.31348],[35.36836,24.30735]]],[[[35.17709,24.64493],[35.1633,24.66134],[35.15546,24.66351],[35.15623,24.66787],[35.14949,24.67697],[35.15709,24.67687],[35.16403,24.67111],[35.1712,24.662],[35.17709,24.64493]]],[[[34.90803,29.47986],[34.86866,29.47986],[34.86638,29.47477],[34.85958,29.47281],[34.8511,29.44258],[34.8427,29.43293],[34.82956,29.42951],[34.83328,29.42354],[34.81676,29.41168],[34.81759,29.40062],[34.80952,29.40047],[34.8109,29.38733],[34.8035,29.37561],[34.78819,29.3735],[34.77821,29.33969],[34.76379,29.33731],[34.75391,29.32586],[34.75168,29.31586],[34.74253,29.31264],[34.74615,29.29253],[34.74128,29.28231],[34.74276,29.26558],[34.73374,29.25283],[34.7407,29.23063],[34.73918,29.21007],[34.73127,29.1932],[34.72223,29.18715],[34.71847,29.17241],[34.70231,29.16953],[34.69254,29.16335],[34.69245,29.14895],[34.68509,29.12898],[34.68694,29.12536],[34.67534,29.1057],[34.68076,29.09715],[34.67185,29.08003],[34.67037,29.07002],[34.67321,29.05532],[34.66443,29.04643],[34.66623,29.04024],[34.67501,29.03113],[34.67429,29.02265],[34.68496,29.01274],[34.68695,28.98263],[34.68218,28.97677],[34.65282,28.96968],[34.65099,28.96481],[34.64272,28.95977],[34.63979,28.95003],[34.63968,28.94309],[34.64881,28.92909],[34.64394,28.91655],[34.64943,28.89436],[34.646,28.88052],[34.64838,28.8648],[34.64575,28.85557],[34.63108,28.85164],[34.62218,28.84274],[34.62096,28.83015],[34.62435,28.8224],[34.62222,28.81676],[34.6262,28.80977],[34.62423,28.77688],[34.62818,28.76834],[34.6203,28.7494],[34.62599,28.7303],[34.60585,28.69222],[34.58699,28.66955],[34.58596,28.65953],[34.57551,28.65297],[34.57412,28.64758],[34.58015,28.64134],[34.5736,28.63216],[34.57566,28.6239],[34.56069,28.61662],[34.55799,28.6115],[34.55246,28.61183],[34.54641,28.59672],[34.54426,28.57951],[34.5191,28.55227],[34.51219,28.51711],[34.52127,28.50029],[34.517,28.49726],[34.51205,28.47673],[34.50818,28.4706],[34.50683,28.47808],[34.49404,28.47938],[34.48556,28.47677],[34.4734,28.4607],[34.46996,28.45405],[34.46966,28.44222],[34.45853,28.43719],[34.45628,28.43207],[34.45788,28.42151],[34.4469,28.39539],[34.44833,28.38277],[34.44142,28.36664],[34.44162,28.35969],[34.42149,28.3437],[34.41866,28.33284],[34.41045,28.32246],[34.40702,28.29343],[34.40816,28.27027],[34.41657,28.24678],[34.41086,28.23192],[34.42146,28.2102],[34.41795,28.20869],[34.42053,28.20571],[34.42521,28.20849],[34.42822,28.20576],[34.42392,28.1986],[34.43618,28.19281],[34.43723,28.19537],[34.44267,28.18966],[34.442,28.18323],[34.44747,28.17932],[34.44956,28.17287],[34.44883,28.15127],[34.44209,28.14619],[34.43949,28.1367],[34.4418,28.11404],[34.4371,28.10972],[34.43574,28.0943],[34.42746,28.08281],[34.43089,28.06786],[34.43912,28.06494],[34.43733,28.03975],[34.44244,28.03121],[34.43316,27.98758],[34.42485,27.9838],[34.42749,27.97503],[34.41808,27.96458],[34.4014,27.96256],[34.39374,27.95248],[34.38649,27.95243],[34.38508,27.94408],[34.38736,27.94097],[34.36708,27.92883],[34.36974,27.92185],[34.3678,27.91699],[34.36342,27.91459],[34.35447,27.91647],[34.34626,27.90884],[34.33127,27.91413],[34.3276,27.90966],[34.33059,27.9059],[34.32679,27.89089],[34.32946,27.88469],[34.32131,27.88091],[34.32388,27.86622],[34.31935,27.86215],[34.31598,27.84726],[34.30296,27.84751],[34.29734,27.86133],[34.28981,27.86114],[34.29483,27.85724],[34.28676,27.84805],[34.28687,27.8568],[34.27323,27.8541],[34.27726,27.84017],[34.27029,27.82557],[34.26653,27.82547],[34.26918,27.81709],[34.26524,27.81378],[34.25858,27.78863],[34.23832,27.78727],[34.23493,27.79425],[34.22386,27.78804],[34.21308,27.79393],[34.2129,27.79033],[34.20623,27.7891],[34.20801,27.77956],[34.22086,27.76479],[34.23862,27.76321],[34.24532,27.76701],[34.2537,27.76642],[34.25181,27.75255],[34.25983,27.73408],[34.25831,27.72767],[34.25111,27.72979],[34.25206,27.72412],[34.24196,27.7255],[34.24149,27.73553],[34.23255,27.73703],[34.21804,27.75864],[34.18968,27.78345],[34.16454,27.78547],[34.16333,27.78072],[34.15986,27.78049],[34.15557,27.78542],[34.13542,27.79459],[34.09982,27.79346],[34.09166,27.78722],[34.08625,27.7955],[34.05053,27.81172],[34.02549,27.84047],[34.01009,27.84984],[34.00497,27.86017],[33.99605,27.86589],[33.9868,27.88268],[33.9696,27.88576],[33.9653,27.8903],[33.95022,27.88834],[33.94526,27.90021],[33.9207,27.92404],[33.91875,27.93255],[33.91443,27.93618],[33.90575,27.93765],[33.87905,27.93062],[33.87501,27.93283],[33.86414,27.94988],[33.82056,27.97253],[33.81743,27.98027],[33.80386,27.98678],[33.79668,27.99505],[33.79557,28.00226],[33.79008,28.00409],[33.78925,28.0095],[33.78055,28.00942],[33.76149,28.02021],[33.75966,28.02716],[33.76669,28.03767],[33.75938,28.04877],[33.73334,28.0574],[33.73049,28.06488],[33.72442,28.06774],[33.71367,28.06613],[33.70864,28.07271],[33.71363,28.08092],[33.70918,28.0884],[33.69332,28.10289],[33.68427,28.11786],[33.68345,28.12584],[33.67116,28.13156],[33.66714,28.16271],[33.65454,28.16624],[33.6487,28.16125],[33.64817,28.16949],[33.63802,28.17211],[33.62791,28.1809],[33.62296,28.22826],[33.61605,28.23884],[33.60792,28.23952],[33.60902,28.22909],[33.59342,28.24383],[33.59405,28.25205],[33.58796,28.25465],[33.58688,28.26932],[33.57672,28.2722],[33.57302,28.28559],[33.56667,28.29488],[33.54954,28.29829],[33.53537,28.31198],[33.50662,28.31929],[33.48347,28.3415],[33.43268,28.36483],[33.41501,28.38521],[33.40427,28.38935],[33.40112,28.40274],[33.39792,28.40275],[33.37559,28.42468],[33.36908,28.43628],[33.36493,28.45455],[33.35186,28.46565],[33.33615,28.46852],[33.32598,28.47433],[33.3228,28.48116],[33.30739,28.48852],[33.29433,28.50643],[33.28474,28.51121],[33.27881,28.52962],[33.25889,28.54201],[33.25818,28.54792],[33.271,28.55021],[33.26958,28.56385],[33.26015,28.58008],[33.23421,28.57884],[33.24423,28.5639],[33.24072,28.5585],[33.23752,28.56185],[33.22359,28.58812],[33.22421,28.60612],[33.21914,28.61797],[33.2228,28.62825],[33.21015,28.64371],[33.19882,28.66945],[33.20807,28.69747],[33.20898,28.71548],[33.21556,28.72087],[33.22891,28.75455],[33.23011,28.7723],[33.2186,28.78209],[33.20989,28.80706],[33.20493,28.80784],[33.19181,28.82046],[33.1848,28.8233],[33.18481,28.82922],[33.17913,28.8354],[33.17418,28.84904],[33.17245,28.86191],[33.1732,28.87297],[33.18009,28.8853],[33.17397,28.89689],[33.18863,28.92002],[33.18441,28.93186],[33.17039,28.94448],[33.1732,28.96197],[33.17117,28.97124],[33.18056,28.98846],[33.18146,29.00003],[33.17576,29.0057],[33.16084,29.00752],[33.15369,29.02193],[33.12898,29.03251],[33.1227,29.04383],[33.10294,29.0441],[33.09796,29.04694],[33.0968,29.05697],[33.07631,29.0665],[33.07765,29.08399],[33.07545,29.08708],[33.0655,29.09274],[33.06535,29.09686],[33.05057,29.11102],[33.03622,29.12028],[33.02802,29.13366],[33.01806,29.13469],[32.99931,29.16067],[32.9914,29.1653],[32.97645,29.16684],[32.95005,29.20413],[32.9351,29.20734],[32.92572,29.20502],[32.90987,29.22083],[32.88435,29.23393],[32.88258,29.24371],[32.87508,29.2545],[32.88064,29.26891],[32.86873,29.29025],[32.86109,29.29745],[32.8473,29.29923],[32.84141,29.31106],[32.82966,29.31542],[32.82876,29.32699],[32.82612,29.32776],[32.82888,29.34577],[32.81565,29.35707],[32.81987,29.37431],[32.82573,29.38332],[32.81776,29.4044],[32.80982,29.41018],[32.80277,29.41055],[32.78569,29.43162],[32.7451,29.44518],[32.75156,29.44725],[32.75185,29.45162],[32.74417,29.46473],[32.74064,29.46601],[32.73758,29.45854],[32.73361,29.45982],[32.7399,29.47012],[32.73768,29.47706],[32.73297,29.47782],[32.71908,29.45259],[32.72629,29.4481],[32.71894,29.44718],[32.71936,29.45542],[32.73141,29.47559],[32.73602,29.49017],[32.72584,29.50559],[32.71966,29.50738],[32.7239,29.51587],[32.7215,29.53284],[32.72601,29.55112],[32.7213,29.55265],[32.7201,29.56036],[32.71657,29.5601],[32.71032,29.58478],[32.67968,29.59602],[32.69125,29.61534],[32.68213,29.66188],[32.69105,29.68196],[32.68733,29.69353],[32.69715,29.7095],[32.6962,29.73059],[32.68066,29.75421],[32.6662,29.75829],[32.66188,29.77114],[32.64116,29.79321],[32.6333,29.80682],[32.62294,29.81669],[32.61113,29.81923],[32.60965,29.82205],[32.62949,29.84153],[32.63381,29.86932],[32.62212,29.87752],[32.61144,29.89163],[32.59349,29.90384],[32.59088,29.90237],[32.59086,29.90803],[32.58508,29.91419],[32.5617,29.92723],[32.58303,29.94633],[32.58853,29.97284],[32.57335,30.06744],[32.57087,30.16388],[32.57486,30.19784],[32.57287,30.21326],[32.56306,30.22223],[32.56301,30.23458],[32.54249,30.25097],[32.53353,30.26701],[32.52289,30.26131],[32.51976,30.26555],[32.51043,30.26448],[32.50271,30.26896],[32.46741,30.2764],[32.45076,30.28624],[32.44302,30.31899],[32.4483,30.32802],[32.44197,30.34754],[32.43583,30.35703],[32.41469,30.37159],[32.41119,30.36103],[32.36518,30.4138],[32.35984,30.43717],[32.35141,30.45462],[32.34005,30.51063],[32.3329,30.52435],[32.31411,30.54521],[32.30548,30.56831],[32.30673,30.5804],[32.3274,30.62166],[32.34589,30.70302],[32.34305,30.72589],[32.31983,30.81166],[32.31035,31.09397],[32.33749,31.18772],[32.34282,31.1952],[32.3401,31.20007],[32.35011,31.22378],[32.35415,31.2238],[32.34891,31.20217],[32.34324,31.19957],[32.34598,31.19329],[32.35135,31.19447],[32.35996,31.22743],[32.36519,31.22771],[32.3781,31.22096],[32.38061,31.2031],[32.37045,31.20125],[32.36572,31.19351],[32.36009,31.16289],[32.3666,31.15186],[32.37139,31.15098],[32.38256,31.15682],[32.38625,31.16481],[32.41688,31.1683],[32.4161,31.17228],[32.42298,31.17257],[32.43221,31.18045],[32.43539,31.17301],[32.44937,31.16047],[32.4455,31.1566],[32.4523,31.14531],[32.45296,31.13374],[32.46662,31.12416],[32.48607,31.11922],[32.48402,31.11124],[32.49986,31.11195],[32.50283,31.11491],[32.49772,31.12184],[32.50399,31.12341],[32.50823,31.11146],[32.55772,31.07474],[32.57718,31.06529],[32.61426,31.05654],[32.64174,31.05584],[32.70087,31.06139],[32.76596,31.07516],[32.82866,31.0984],[32.92126,31.14709],[32.92754,31.13565],[32.91947,31.14272],[32.90184,31.13075],[32.80806,31.08719],[32.74835,31.06883],[32.69012,31.05893],[32.68463,31.04863],[32.70658,31.05086],[32.71644,31.0487],[32.71199,31.03879],[32.69947,31.0313],[32.70753,31.03068],[32.7089,31.02245],[32.71294,31.01899],[32.71457,31.02401],[32.71023,31.02773],[32.73381,31.03292],[32.7499,31.04556],[32.76066,31.043],[32.76472,31.03285],[32.75741,31.02693],[32.76921,31.0272],[32.7792,31.03275],[32.76933,31.04045],[32.79022,31.0446],[32.81468,31.06521],[32.82274,31.06548],[32.83915,31.0781],[32.85373,31.08059],[32.86931,31.09022],[32.872,31.08855],[32.86633,31.0861],[32.86932,31.08508],[32.87379,31.08817],[32.89352,31.08613],[32.90009,31.0887],[32.90398,31.08511],[32.90995,31.08756],[32.91802,31.08383],[32.92549,31.08564],[32.92429,31.08821],[32.92937,31.08744],[32.92101,31.08332],[32.92281,31.08165],[32.91952,31.07882],[32.90996,31.07868],[32.90877,31.07521],[32.91534,31.07162],[32.92072,31.0765],[32.92281,31.07471],[32.92564,31.08319],[32.93296,31.08358],[32.94222,31.09709],[32.95611,31.09658],[32.96672,31.09041],[32.96792,31.08501],[32.97599,31.08334],[32.98376,31.08656],[32.98047,31.07923],[32.97031,31.0782],[32.97689,31.07485],[32.97091,31.07113],[32.97465,31.06984],[32.97868,31.06084],[32.96733,31.05814],[32.98884,31.04965],[33.00945,31.04991],[33.02663,31.06341],[33.01125,31.07344],[33.01229,31.07936],[33.0226,31.08128],[33.03067,31.08797],[33.04501,31.08462],[33.05368,31.08886],[33.05309,31.09529],[33.04741,31.09439],[33.04606,31.09838],[33.0495,31.10493],[33.07342,31.10852],[33.08,31.11353],[33.0643,31.11586],[33.06207,31.12512],[33.05998,31.12229],[33.02978,31.11574],[33.02231,31.11099],[33.02231,31.10636],[33.01812,31.10366],[33.01663,31.10083],[33.02171,31.09929],[33.01693,31.09286],[32.98166,31.09427],[32.9733,31.089],[32.96463,31.09221],[32.96393,31.09829],[32.95417,31.10018],[32.97001,31.1016],[32.97001,31.09658],[32.97658,31.09504],[33.00423,31.11947],[33.01335,31.13619],[33.0274,31.15174],[33.05551,31.16074],[33.08962,31.18026],[33.1107,31.17137],[33.10726,31.16816],[33.12085,31.15568],[33.12621,31.1405],[33.14443,31.12891],[33.13471,31.1275],[33.12665,31.13176],[33.11917,31.13151],[33.1159,31.14231],[33.11141,31.14103],[33.112,31.13524],[33.10243,31.13409],[33.10541,31.1256],[33.09794,31.12535],[33.10661,31.12277],[33.10809,31.1157],[33.11557,31.11544],[33.09823,31.11211],[33.09523,31.10902],[33.1045,31.10735],[33.10928,31.11158],[33.11347,31.11042],[33.10868,31.10721],[33.11107,31.10618],[33.11855,31.10772],[33.11166,31.10078],[33.11644,31.09731],[33.11404,31.09191],[33.14122,31.08262],[33.13883,31.07877],[33.14899,31.0794],[33.14061,31.07581],[33.14359,31.06719],[33.15016,31.0641],[33.14328,31.06295],[33.14179,31.05974],[33.14537,31.05755],[33.13969,31.05511],[33.13788,31.04611],[33.1337,31.04483],[33.13787,31.03852],[33.16551,31.04351],[33.18208,31.04155],[33.17701,31.04658],[33.18627,31.04926],[33.19971,31.04513],[33.20928,31.05013],[33.19913,31.0531],[33.18628,31.05158],[33.19376,31.05851],[33.20481,31.05669],[33.2066,31.05373],[33.22452,31.05293],[33.22215,31.06399],[33.20333,31.06415],[33.19856,31.06738],[33.2014,31.06917],[33.21112,31.07237],[33.23412,31.07284],[33.24356,31.08196],[33.23861,31.07322],[33.24278,31.07167],[33.24967,31.07873],[33.26401,31.07536],[33.26402,31.0787],[33.25953,31.07768],[33.25969,31.08167],[33.27,31.08255],[33.28856,31.09279],[33.29139,31.09163],[33.28927,31.08135],[33.30642,31.07295],[33.31361,31.07692],[33.30228,31.0844],[33.30514,31.09288],[33.30081,31.09328],[33.30172,31.09765],[33.31905,31.09568],[33.31933,31.09105],[33.32172,31.0913],[33.32174,31.09721],[33.3343,31.10027],[33.33519,31.09692],[33.35132,31.09482],[33.35041,31.09212],[33.354,31.09211],[33.35727,31.08748],[33.37011,31.08603],[33.37942,31.09757],[33.38298,31.0919],[33.37729,31.08883],[33.37757,31.08318],[33.38173,31.07892],[33.38593,31.08148],[33.3907,31.07889],[33.39658,31.08064],[33.39625,31.08492],[33.40748,31.09067],[33.40507,31.08515],[33.4079,31.0836],[33.41916,31.09629],[33.41938,31.11236],[33.43806,31.11256],[33.43825,31.12079],[33.46355,31.12957],[33.48058,31.12861],[33.48147,31.12616],[33.54049,31.11564],[33.58033,31.11341],[33.65717,31.11664],[33.74664,31.13004],[33.82995,31.15409],[33.82932,31.15075],[33.87367,31.16061],[33.97211,31.19642],[33.99669,31.20137],[34.03605,31.21752],[34.13418,31.26709],[34.21855,31.32358],[34.23524,31.29694],[34.23995,31.2959],[34.3323,31.03997],[34.40336,30.85927],[34.49696,30.67965],[34.5188,30.59244],[34.51857,30.53255],[34.55756,30.49484],[34.54177,30.44206],[34.54343,30.41301],[34.61158,30.37106],[34.70684,30.11757],[34.74782,30.02019],[34.82597,29.80723],[34.84856,29.75876],[34.85655,29.68794],[34.87857,29.64361],[34.87698,29.61328],[34.86642,29.5973],[34.87259,29.57944],[34.87843,29.54343],[34.89633,29.51038],[34.90803,29.47986]]],[[[34.0268,27.4862],[34.03502,27.4707],[34.03933,27.45318],[34.03583,27.44896],[34.02341,27.44738],[34.02391,27.45432],[34.01007,27.4705],[34.00085,27.47134],[33.9983,27.47689],[33.97769,27.4944],[33.96095,27.49439],[33.95352,27.50242],[33.9449,27.50582],[33.93045,27.5036],[33.91574,27.52145],[33.91735,27.52491],[33.92138,27.52309],[33.929,27.53731],[33.96103,27.53581],[33.97964,27.51921],[34.00435,27.50798],[34.00519,27.50488],[34.01874,27.50324],[34.0268,27.4862]]],[[[33.99549,26.70466],[33.99456,26.71277],[33.98722,26.72594],[33.97644,26.73811],[33.97681,26.7484],[33.96751,26.75013],[33.96033,26.76472],[33.96253,26.77114],[33.97091,26.77854],[33.98055,26.7669],[33.99332,26.76784],[33.9953,26.765],[33.99311,26.74365],[33.99987,26.73048],[33.99549,26.70466]]],[[[33.99464,26.83782],[33.99611,26.84192],[33.99781,26.83934],[33.99464,26.83782]]],[[[33.97938,27.16211],[33.98523,27.17288],[33.9827,27.16389],[33.97938,27.16211]]],[[[33.97183,27.18686],[33.96801,27.19486],[33.97003,27.21209],[33.97605,27.20947],[33.98273,27.20017],[33.98438,27.19115],[33.98075,27.1877],[33.97183,27.18686]]],[[[33.9805,26.82711],[33.97797,26.83304],[33.98069,26.83354],[33.9805,26.82711]]],[[[33.94439,27.19142],[33.94263,27.20494],[33.9251,27.20789],[33.91617,27.22352],[33.90269,27.22978],[33.90116,27.23648],[33.89559,27.2414],[33.89463,27.24732],[33.90353,27.24457],[33.90686,27.24699],[33.90264,27.25962],[33.90717,27.26731],[33.9178,27.26467],[33.92849,27.25148],[33.92893,27.23527],[33.93862,27.22362],[33.94041,27.21409],[33.94728,27.21019],[33.9509,27.1955],[33.96118,27.18629],[33.95853,27.18014],[33.94876,27.18136],[33.94439,27.19142]]],[[[33.86868,27.20452],[33.87139,27.2202],[33.87716,27.22183],[33.88402,27.21652],[33.86868,27.20452]]],[[[33.87751,27.559],[33.87406,27.56018],[33.87524,27.56326],[33.87898,27.56157],[33.87751,27.559]]],[[[33.86829,27.15474],[33.86723,27.16645],[33.87272,27.16976],[33.87453,27.16177],[33.86829,27.15474]]],[[[33.80549,27.6181],[33.79187,27.63336],[33.78378,27.6527],[33.78585,27.65963],[33.79397,27.66409],[33.80004,27.66315],[33.81538,27.64763],[33.81701,27.63398],[33.81027,27.62064],[33.80549,27.6181]]],[[[33.77296,27.55139],[33.76479,27.56044],[33.76439,27.56482],[33.77768,27.56654],[33.77901,27.57065],[33.76014,27.57629],[33.74101,27.58681],[33.75211,27.60502],[33.75917,27.62505],[33.76483,27.62759],[33.77833,27.61722],[33.77515,27.59717],[33.80175,27.58159],[33.8026,27.57824],[33.78951,27.56545],[33.77606,27.56115],[33.77772,27.55085],[33.78331,27.54619],[33.78021,27.55727],[33.78859,27.55735],[33.78676,27.54462],[33.77883,27.54544],[33.77628,27.55137],[33.77296,27.55139]]],[[[33.79255,27.66628],[33.78332,27.66942],[33.79232,27.67529],[33.79265,27.68043],[33.8016,27.6791],[33.79255,27.66628]]],[[[33.78759,27.61923],[33.78171,27.62544],[33.78191,27.63316],[33.78759,27.61923]]],[[[33.77941,27.68771],[33.7748,27.69044],[33.77741,27.69184],[33.77941,27.68771]]],[[[33.76717,27.54975],[33.75011,27.56644],[33.75487,27.5659],[33.76677,27.55374],[33.76717,27.54975]]],[[[33.70547,27.65055],[33.70303,27.65339],[33.70566,27.65826],[33.70398,27.66599],[33.69796,27.67425],[33.69843,27.68055],[33.70766,27.67729],[33.72214,27.68185],[33.72633,27.70318],[33.73647,27.70737],[33.73891,27.7044],[33.73929,27.67507],[33.71931,27.669],[33.71364,27.66337],[33.71346,27.65719],[33.70547,27.65055]]],[[[33.70641,27.75191],[33.70025,27.7612],[33.6976,27.77614],[33.70148,27.77252],[33.70641,27.75191]]],[[[33.69383,27.68315],[33.67386,27.7019],[33.66977,27.71839],[33.67412,27.72081],[33.68665,27.71367],[33.69616,27.68687],[33.69383,27.68315]]],[[[33.68743,27.76847],[33.67584,27.78885],[33.6786,27.79038],[33.68743,27.76847]]],[[[33.67617,27.63217],[33.66841,27.63825],[33.6647,27.64612],[33.67048,27.64635],[33.67709,27.64014],[33.67895,27.63756],[33.67617,27.63217]]],[[[33.63989,27.65215],[33.62567,27.66611],[33.62649,27.68386],[33.6324,27.68049],[33.63203,27.66685],[33.63989,27.65215]]],[[[33.57427,27.64549],[33.56387,27.64592],[33.56563,27.65144],[33.57428,27.64832],[33.57427,27.64549]]],[[[33.43418,31.11283],[33.4273,31.11349],[33.42508,31.11672],[33.43391,31.12003],[33.43418,31.11283]]],[[[33.40604,31.17387],[33.37227,31.17937],[33.33374,31.19606],[33.2877,31.20479],[33.28111,31.2021],[33.27005,31.20637],[33.27021,31.20945],[33.32867,31.19942],[33.38336,31.18602],[33.41919,31.17048],[33.42485,31.16686],[33.42186,31.16597],[33.40604,31.17387]]],[[[33.40602,31.09916],[33.39945,31.10034],[33.39827,31.10394],[33.40425,31.10418],[33.40602,31.09916]]],[[[33.38987,31.09484],[33.38719,31.09755],[33.39466,31.09753],[33.38987,31.09484]]],[[[33.3669,31.10571],[33.36122,31.10662],[33.3678,31.10738],[33.3669,31.10571]]],[[[33.32803,31.1017],[33.31997,31.10223],[33.32117,31.10403],[33.32803,31.1017]]],[[[33.32326,31.10467],[33.31729,31.10751],[33.32178,31.1084],[33.32326,31.10467]]],[[[33.29391,31.08262],[33.29362,31.08725],[33.2996,31.08698],[33.29391,31.08262]]],[[[33.26228,31.20934],[33.25602,31.21501],[33.24733,31.2131],[33.24316,31.21773],[33.20427,31.22487],[33.11451,31.22807],[33.08397,31.21884],[33.08248,31.21614],[33.09414,31.2115],[33.09204,31.20816],[33.05135,31.2024],[32.9972,31.17412],[32.96999,31.16434],[33.0759,31.21987],[33.10882,31.22885],[33.19171,31.22798],[33.27098,31.21691],[33.26228,31.20934]]],[[[33.05488,31.10648],[33.0507,31.10661],[33.0513,31.10943],[33.06535,31.11277],[33.06953,31.1093],[33.05488,31.10648]]],[[[33.01005,31.06727],[33.009,31.0701],[33.01214,31.07177],[33.01334,31.06817],[33.01005,31.06727]]],[[[32.98884,31.07023],[32.98376,31.07678],[32.99093,31.0737],[32.98884,31.07023]]],[[[32.93113,31.13861],[32.92814,31.14208],[32.94428,31.15173],[32.94458,31.14801],[32.93725,31.1462],[32.93487,31.13952],[32.93113,31.13861]]],[[[32.88872,31.0986],[32.8811,31.10245],[32.88124,31.1099],[32.89021,31.10888],[32.89335,31.10066],[32.88872,31.0986]]],[[[32.53643,30.21751],[32.53405,30.21982],[32.53582,30.22214],[32.53643,30.21751]]],[[[32.46162,31.16194],[32.44733,31.17666],[32.43938,31.18049],[32.43786,31.18485],[32.42335,31.1937],[32.41837,31.19312],[32.40994,31.20118],[32.38563,31.21367],[32.37935,31.21287],[32.37933,31.21711],[32.43574,31.18896],[32.43997,31.18203],[32.46699,31.1644],[32.50294,31.12392],[32.49593,31.12145],[32.48626,31.13954],[32.46162,31.16194]]],[[[32.43399,30.26456],[32.42805,30.26788],[32.42064,30.26707],[32.41438,30.27373],[32.43605,30.26804],[32.43784,30.26599],[32.43399,30.26456]]],[[[32.36037,30.41542],[32.35954,30.41454],[32.35509,30.43638],[32.36037,30.41542]]],[[[32.34333,30.39736],[32.33991,30.39953],[32.34151,30.40416],[32.3467,30.40419],[32.34733,30.39931],[32.34333,30.39736]]],[[[32.34391,31.23575],[32.33371,31.19361],[32.30693,31.19553],[32.30753,31.2359],[32.30825,31.2395],[32.31453,31.2398],[32.3085,31.24696],[32.31472,31.256],[32.32742,31.25889],[32.32914,31.24862],[32.34205,31.24212],[32.34391,31.23575]]],[[[32.32769,30.76805],[32.33704,30.73474],[32.33527,30.73202],[32.32564,30.74689],[32.32103,30.76693],[32.31733,30.78568],[32.31963,30.79778],[32.32769,30.76805]]],[[[32.31585,31.19236],[32.33253,31.19103],[32.30961,31.11428],[32.30725,31.19167],[32.31585,31.19236]]],[[[32.30974,31.24028],[32.3121,31.24467],[32.31184,31.2403],[32.30974,31.24028]]],[[[32.30234,30.57138],[32.29907,30.57213],[32.29991,30.57805],[32.30362,30.57936],[32.30234,30.57138]]],[[[32.30362,30.55904],[32.29898,30.56288],[32.2997,30.56648],[32.30362,30.55904]]],[[[32.21424,31.28011],[32.21154,31.28125],[32.2121,31.28562],[32.20598,31.28314],[32.2022,31.28736],[32.19381,31.28821],[32.19198,31.29231],[32.17096,31.29899],[32.17242,31.30402],[32.19347,31.29361],[32.21628,31.28681],[32.21424,31.28011]]],[[[31.78028,31.49065],[31.80815,31.50273],[31.83703,31.52151],[31.84213,31.52104],[31.82469,31.48797],[31.82638,31.47231],[31.81823,31.46516],[31.79999,31.46023],[31.75881,31.47784],[31.76491,31.48201],[31.76486,31.48548],[31.78028,31.49065]]],[[[30.36685,31.46466],[30.37302,31.46641],[30.37354,31.46359],[30.36685,31.46466]]]]}}]}