{"type":"FeatureCollection","features":[{"type":"Feature","properties":{"ISO_A3":"EST","WB_A3":"EST","WB_NAME":"Estonia","WB_REGION":"ECS"},"geometry":{"type":"MultiPolygon","coordinates":[[[[23.73046,59.23733],[23.74116,59.24422],[23.74514,59.25335],[23.74168,59.25688],[23.73205,59.2585],[23.73153,59.27387],[23.73531,59.27097],[23.751,59.27333],[23.76372,59.26973],[23.77751,59.27315],[23.78596,59.28476],[23.81931,59.28864],[23.84547,59.28423],[23.85693,59.27758],[23.87481,59.27603],[23.88334,59.27033],[23.9073,59.27851],[23.94691,59.27071],[23.96463,59.27312],[23.984,59.28292],[24.01097,59.28486],[24.02216,59.28857],[24.02582,59.28673],[24.03068,59.28838],[24.02998,59.29067],[24.03958,59.28974],[24.04704,59.28453],[24.05463,59.28635],[24.05869,59.28287],[24.08403,59.28302],[24.08399,59.27678],[24.07638,59.27507],[24.07684,59.27253],[24.09215,59.27492],[24.10063,59.27818],[24.10169,59.28332],[24.1121,59.29047],[24.10676,59.29445],[24.11655,59.30477],[24.11679,59.30901],[24.10304,59.32762],[24.07775,59.3349],[24.04625,59.35148],[24.03839,59.36385],[24.03599,59.38838],[24.04034,59.3904],[24.06036,59.38523],[24.07666,59.38546],[24.09973,59.37688],[24.14826,59.36681],[24.15421,59.36464],[24.15737,59.35677],[24.20152,59.34146],[24.23939,59.34432],[24.24444,59.34686],[24.24763,59.35717],[24.23963,59.36904],[24.22011,59.38399],[24.19505,59.38947],[24.18482,59.39475],[24.19233,59.40106],[24.19116,59.40308],[24.20276,59.40551],[24.20646,59.40327],[24.20246,59.4],[24.20437,59.39825],[24.21979,59.39384],[24.23182,59.39409],[24.25941,59.40377],[24.28016,59.40484],[24.31914,59.42012],[24.34089,59.42466],[24.35162,59.43845],[24.34944,59.44378],[24.3459,59.44396],[24.34618,59.45652],[24.36314,59.4712],[24.37578,59.47376],[24.42361,59.47343],[24.46219,59.46894],[24.49343,59.44803],[24.52647,59.44329],[24.54297,59.43745],[24.56524,59.44235],[24.57441,59.44764],[24.57583,59.45253],[24.5694,59.46137],[24.5744,59.46185],[24.64668,59.43514],[24.65459,59.42965],[24.67709,59.43516],[24.68354,59.44373],[24.68237,59.44986],[24.6725,59.45071],[24.66161,59.45922],[24.65185,59.46211],[24.65045,59.46772],[24.66786,59.4633],[24.69083,59.46588],[24.6961,59.46983],[24.69702,59.4747],[24.6886,59.47634],[24.68465,59.48267],[24.68946,59.48583],[24.69433,59.48092],[24.70948,59.48388],[24.71343,59.47753],[24.72255,59.47284],[24.70698,59.4576],[24.71935,59.45691],[24.72445,59.45213],[24.73136,59.45405],[24.74208,59.45167],[24.74995,59.44681],[24.75959,59.44916],[24.76422,59.44386],[24.77515,59.44584],[24.78989,59.4434],[24.80168,59.44757],[24.82232,59.46805],[24.82935,59.47082],[24.83651,59.48092],[24.83709,59.48758],[24.80723,59.50552],[24.81438,59.50795],[24.81344,59.51459],[24.80862,59.51911],[24.79847,59.52022],[24.79028,59.54134],[24.79361,59.54446],[24.7942,59.57008],[24.79825,59.56989],[24.79672,59.56628],[24.80729,59.56274],[24.82301,59.5616],[24.8254,59.55601],[24.83003,59.55443],[24.84872,59.55396],[24.8586,59.54938],[24.86447,59.55217],[24.88351,59.55006],[24.88857,59.54168],[24.89712,59.53798],[24.88976,59.53479],[24.8902,59.53172],[24.91364,59.51955],[24.91083,59.50799],[24.91663,59.49963],[24.93203,59.49488],[24.93359,59.49837],[24.94462,59.4947],[24.949,59.49719],[24.9655,59.49028],[25.00167,59.49635],[25.0043,59.50714],[25.04019,59.505],[25.05207,59.4998],[25.08796,59.50623],[25.08886,59.49919],[25.09573,59.4934],[25.11405,59.48996],[25.12555,59.48219],[25.15023,59.47729],[25.15069,59.48254],[25.17276,59.49322],[25.17635,59.50607],[25.16882,59.51032],[25.15983,59.50891],[25.15494,59.5155],[25.13884,59.52423],[25.14478,59.52611],[25.14641,59.53765],[25.15605,59.53652],[25.16889,59.52747],[25.18564,59.5254],[25.19584,59.51837],[25.19895,59.51202],[25.19695,59.50687],[25.21303,59.50288],[25.23599,59.50676],[25.25621,59.5151],[25.26894,59.52218],[25.26815,59.5278],[25.27373,59.5271],[25.27625,59.52202],[25.27381,59.51072],[25.30817,59.50336],[25.31905,59.49723],[25.33779,59.49429],[25.36441,59.49614],[25.41554,59.49012],[25.44805,59.4946],[25.46228,59.50284],[25.45812,59.51661],[25.4786,59.52056],[25.5059,59.5183],[25.53301,59.52041],[25.55257,59.53432],[25.55557,59.54076],[25.55379,59.54688],[25.52893,59.56196],[25.52455,59.56986],[25.52822,59.57245],[25.52756,59.57603],[25.51731,59.57962],[25.50526,59.5896],[25.50156,59.59902],[25.49458,59.60278],[25.49231,59.61402],[25.49469,59.61712],[25.49483,59.63657],[25.50328,59.64],[25.49794,59.64634],[25.50668,59.64874],[25.52002,59.64428],[25.52063,59.64199],[25.51566,59.64014],[25.5237,59.62973],[25.5164,59.62325],[25.52949,59.61291],[25.54635,59.60836],[25.57142,59.61273],[25.57568,59.60164],[25.59025,59.59732],[25.60431,59.59913],[25.60398,59.59505],[25.61285,59.58822],[25.61227,59.58361],[25.6188,59.57843],[25.62785,59.57942],[25.63577,59.57054],[25.66884,59.5636],[25.68983,59.56841],[25.70735,59.57869],[25.70205,59.58528],[25.71274,59.60255],[25.69567,59.61313],[25.69066,59.61193],[25.6837,59.61557],[25.68109,59.63704],[25.69205,59.64099],[25.69109,59.64636],[25.67186,59.65333],[25.67763,59.66056],[25.68273,59.65971],[25.69722,59.66877],[25.7062,59.66762],[25.70732,59.65829],[25.71643,59.65813],[25.71913,59.65355],[25.7334,59.65727],[25.7421,59.65479],[25.76641,59.64019],[25.76905,59.63688],[25.76721,59.63199],[25.76175,59.63629],[25.76012,59.63244],[25.76233,59.62734],[25.7856,59.61962],[25.77878,59.61265],[25.77104,59.61027],[25.77572,59.60648],[25.77438,59.60159],[25.77816,59.6019],[25.78119,59.59501],[25.78218,59.58811],[25.77883,59.58322],[25.78178,59.57864],[25.77717,59.57347],[25.78465,59.56906],[25.80631,59.57003],[25.8141,59.56358],[25.83526,59.56428],[25.85116,59.5712],[25.85476,59.56918],[25.86953,59.57251],[25.87434,59.57972],[25.87412,59.58612],[25.8666,59.5922],[25.87164,59.59992],[25.86513,59.61343],[25.86637,59.62163],[25.87191,59.62219],[25.87586,59.61723],[25.88856,59.61504],[25.91307,59.61486],[25.92004,59.61031],[25.9199,59.60672],[25.92399,59.60497],[25.9224,59.59932],[25.91229,59.59207],[25.91468,59.58851],[25.91096,59.58643],[25.9159,59.58186],[25.94933,59.57804],[25.96987,59.58268],[25.97602,59.58798],[25.97461,59.59283],[25.97728,59.59643],[25.97328,59.59777],[25.9759,59.60845],[25.96577,59.62578],[25.96451,59.63396],[25.97969,59.63331],[25.98774,59.62633],[25.98237,59.62002],[25.9937,59.62113],[25.99263,59.61472],[26.00075,59.61351],[26.02399,59.62212],[26.0236,59.62699],[26.03192,59.62731],[26.03481,59.6231],[26.05721,59.62647],[26.04852,59.62103],[26.05425,59.61518],[26.06085,59.61395],[26.06046,59.6096],[26.08136,59.60271],[26.10134,59.60144],[26.09206,59.5992],[26.09115,59.59535],[26.10301,59.58597],[26.14092,59.58366],[26.2241,59.58725],[26.27008,59.58547],[26.29004,59.57201],[26.30218,59.57041],[26.32669,59.5557],[26.36147,59.55638],[26.3752,59.55031],[26.42338,59.54823],[26.42317,59.54541],[26.43629,59.54457],[26.4346,59.54034],[26.44704,59.53451],[26.45917,59.53264],[26.46971,59.53511],[26.4698,59.52948],[26.47587,59.52823],[26.4767,59.52312],[26.50562,59.51237],[26.51032,59.51454],[26.50632,59.51798],[26.54219,59.52233],[26.55005,59.51852],[26.57516,59.52385],[26.58442,59.52964],[26.59134,59.5399],[26.59003,59.5445],[26.58244,59.54704],[26.59296,59.55193],[26.60005,59.54927],[26.6096,59.55223],[26.62121,59.55087],[26.62327,59.54678],[26.65151,59.54582],[26.66368,59.53857],[26.6889,59.53646],[26.71265,59.52832],[26.72029,59.51861],[26.73991,59.52121],[26.75129,59.51497],[26.74554,59.51047],[26.74808,59.50677],[26.7617,59.50372],[26.76318,59.50141],[26.76001,59.49978],[26.7844,59.49557],[26.79149,59.48791],[26.84944,59.47058],[26.89578,59.44785],[26.93952,59.43802],[26.99882,59.4342],[27.07116,59.43405],[27.22245,59.44374],[27.38731,59.44617],[27.43349,59.44129],[27.50665,59.42759],[27.53377,59.42735],[27.54122,59.42207],[27.60085,59.41413],[27.73895,59.41496],[27.74938,59.40966],[27.74928,59.4053],[27.75973,59.40102],[27.80475,59.39474],[27.86167,59.40295],[27.86913,59.40021],[27.91585,59.40181],[27.93912,59.4083],[27.98845,59.42956],[28.01403,59.44549],[28.04243,59.46996],[28.04576,59.46367],[28.05519,59.45962],[28.06825,59.45939],[28.10703,59.44589],[28.1211,59.43796],[28.13547,59.42035],[28.14371,59.41575],[28.16315,59.41149],[28.16451,59.40738],[28.17688,59.40215],[28.19036,59.39998],[28.20703,59.38191],[28.20339,59.37428],[28.20984,59.37021],[28.19943,59.36139],[28.19994,59.35699],[28.19073,59.35236],[28.19192,59.34717],[28.16791,59.33387],[28.15385,59.31214],[28.1312,59.291],[28.0591,59.29107],[28.0307,59.28825],[27.99987,59.27714],[27.96244,59.27335],[27.92544,59.25596],[27.89829,59.23331],[27.89949,59.22655],[27.89426,59.21733],[27.90142,59.20854],[27.88994,59.19487],[27.89045,59.18522],[27.87407,59.17445],[27.86864,59.16488],[27.84464,59.15001],[27.82733,59.14392],[27.81885,59.13349],[27.80747,59.12805],[27.80357,59.11401],[27.80997,59.10808],[27.78812,59.09134],[27.79206,59.07024],[27.77352,59.05937],[27.77127,59.05163],[27.77478,59.04452],[27.76884,59.03441],[27.7465,59.02951],[27.74418,59.02554],[27.7448,59.01918],[27.73863,59.00904],[27.74698,58.9916],[27.74569,58.98454],[27.73829,58.97825],[27.72897,58.97131],[27.35704,58.78726],[27.5532,58.36618],[27.48681,58.3037],[27.49126,58.22436],[27.60183,58.11742],[27.63599,58.09992],[27.60655,58.05408],[27.62126,58.00519],[27.64377,58.00102],[27.65393,57.99541],[27.65786,57.99828],[27.64999,57.99867],[27.64874,58.0028],[27.65548,58.00579],[27.64905,58.01408],[27.64905,58.01991],[27.66168,58.01705],[27.66856,58.00915],[27.6936,58.00462],[27.68948,58.00118],[27.6962,58.00033],[27.69718,57.98874],[27.69032,57.98661],[27.67863,57.97444],[27.68011,57.97106],[27.68572,57.97106],[27.68446,57.96002],[27.65636,57.95533],[27.6696,57.94609],[27.66684,57.94186],[27.67605,57.93435],[27.68098,57.93544],[27.68446,57.92814],[27.68122,57.92368],[27.71588,57.92076],[27.71916,57.91211],[27.70854,57.90721],[27.69491,57.90745],[27.70543,57.90013],[27.73014,57.90593],[27.74704,57.90026],[27.75551,57.90288],[27.75373,57.89749],[27.76136,57.89558],[27.79614,57.89835],[27.81665,57.8954],[27.8182,57.88889],[27.80867,57.88531],[27.81672,57.88211],[27.80951,57.87244],[27.8159,57.86884],[27.8136,57.86435],[27.81564,57.86181],[27.79416,57.85136],[27.79222,57.84601],[27.79842,57.84399],[27.79564,57.84122],[27.78794,57.84351],[27.77632,57.83346],[27.75632,57.83703],[27.75744,57.83486],[27.74093,57.82772],[27.71695,57.83891],[27.69917,57.84122],[27.69763,57.83842],[27.68332,57.83521],[27.64037,57.84093],[27.56917,57.83142],[27.55124,57.83403],[27.54906,57.83191],[27.55393,57.83188],[27.55434,57.82704],[27.55125,57.82172],[27.54157,57.82318],[27.54304,57.81683],[27.5499,57.81702],[27.5507,57.81372],[27.53897,57.8139],[27.54069,57.80786],[27.53225,57.80674],[27.53811,57.8015],[27.53362,57.79664],[27.53623,57.79417],[27.52806,57.78976],[27.51549,57.79276],[27.49432,57.7889],[27.50622,57.78328],[27.51262,57.77492],[27.50578,57.77232],[27.5056,57.76631],[27.52638,57.75726],[27.52781,57.75417],[27.51131,57.75072],[27.52903,57.74939],[27.52786,57.74137],[27.5423,57.73324],[27.52771,57.7303],[27.52153,57.71594],[27.5243,57.70901],[27.50995,57.71292],[27.50695,57.70803],[27.50117,57.70642],[27.48622,57.71997],[27.47454,57.7168],[27.46948,57.70876],[27.46186,57.70723],[27.44763,57.71709],[27.4315,57.70922],[27.425,57.70345],[27.42682,57.69987],[27.41109,57.70048],[27.41427,57.69597],[27.40609,57.693],[27.40076,57.68594],[27.3909,57.68626],[27.39273,57.67928],[27.37757,57.67138],[27.37639,57.66784],[27.38122,57.66094],[27.37748,57.65845],[27.38501,57.65508],[27.37759,57.64852],[27.38131,57.6476],[27.37842,57.64431],[27.39905,57.63667],[27.40101,57.63286],[27.40044,57.62424],[27.38755,57.62177],[27.3888,57.61601],[27.40114,57.61694],[27.40476,57.61257],[27.38412,57.60359],[27.37772,57.59607],[27.3566,57.59779],[27.3406,57.59057],[27.34027,57.58581],[27.31959,57.57925],[27.33037,57.57057],[27.33272,57.56489],[27.33042,57.5597],[27.33569,57.55906],[27.33761,57.55333],[27.33655,57.54602],[27.34193,57.5441],[27.34446,57.53744],[27.34906,57.53521],[27.35251,57.52566],[27.35157,57.5182],[27.34712,57.52194],[27.32566,57.52345],[27.29714,57.53971],[27.28069,57.53734],[27.27525,57.54386],[27.26607,57.54429],[27.26515,57.5488],[27.25788,57.55074],[27.24861,57.54865],[27.22542,57.55462],[27.19413,57.55054],[27.16131,57.56048],[27.11735,57.56201],[27.10236,57.56589],[27.09002,57.57237],[27.08737,57.57676],[27.03363,57.58516],[27.04137,57.58756],[27.0446,57.59677],[27.03145,57.60452],[26.99521,57.60459],[26.9927,57.61083],[26.98745,57.60903],[26.97527,57.61252],[26.9708,57.6048],[26.95962,57.60638],[26.94559,57.60278],[26.93991,57.60908],[26.95119,57.61548],[26.95046,57.62051],[26.94021,57.61992],[26.9303,57.62341],[26.92959,57.63064],[26.92637,57.63331],[26.90687,57.63311],[26.88643,57.62154],[26.86453,57.61593],[26.85787,57.60972],[26.86435,57.60839],[26.85757,57.60093],[26.86362,57.5943],[26.86167,57.59204],[26.83538,57.58344],[26.79837,57.58221],[26.7928,57.57332],[26.78201,57.57867],[26.78112,57.5763],[26.78685,57.57529],[26.77502,57.56126],[26.75363,57.56239],[26.77347,57.57434],[26.76714,57.58],[26.75383,57.57959],[26.73781,57.58772],[26.72904,57.58025],[26.73781,57.57587],[26.7308,57.56927],[26.72376,57.5724],[26.71238,57.56684],[26.7005,57.57087],[26.69228,57.56613],[26.6759,57.56665],[26.66994,57.56306],[26.67238,57.55806],[26.67046,57.55427],[26.64708,57.55401],[26.64277,57.54651],[26.61462,57.52929],[26.61657,57.50931],[26.60458,57.51185],[26.60552,57.51459],[26.59064,57.51593],[26.58935,57.51868],[26.5927,57.52016],[26.59,57.52216],[26.59163,57.52458],[26.58725,57.52667],[26.58895,57.53663],[26.58552,57.53883],[26.5613,57.52835],[26.56068,57.52444],[26.56606,57.51967],[26.55743,57.51395],[26.52491,57.51625],[26.49987,57.52451],[26.49097,57.54547],[26.46949,57.57556],[26.40157,57.57223],[26.345,57.58406],[26.33508,57.57961],[26.31238,57.58426],[26.30944,57.5903],[26.31106,57.59294],[26.28487,57.59225],[26.28444,57.5954],[26.27359,57.59789],[26.27427,57.60078],[26.26747,57.60841],[26.25654,57.61331],[26.25636,57.61811],[26.2483,57.62497],[26.24981,57.62744],[26.24151,57.63261],[26.24198,57.63519],[26.2477,57.63549],[26.2465,57.63881],[26.23996,57.64646],[26.23277,57.64653],[26.23279,57.64895],[26.24305,57.65177],[26.23477,57.65788],[26.21233,57.6657],[26.2145,57.66828],[26.21153,57.67961],[26.17937,57.68747],[26.20574,57.71499],[26.17257,57.72942],[26.14488,57.73296],[26.13726,57.7395],[26.14163,57.74498],[26.13619,57.75096],[26.0816,57.76617],[26.07467,57.76455],[26.07056,57.76697],[26.05913,57.7609],[26.05053,57.76196],[26.03369,57.77168],[26.0241,57.76862],[26.02043,57.77186],[26.02711,57.77474],[26.02743,57.78146],[26.02467,57.78326],[26.03294,57.78978],[26.03862,57.81015],[26.05047,57.82258],[26.05848,57.83668],[26.05646,57.84843],[26.03618,57.85029],[26.02066,57.84619],[26.0109,57.85819],[25.99854,57.85904],[25.96196,57.84588],[25.93151,57.85343],[25.8954,57.85063],[25.88813,57.84705],[25.88374,57.84985],[25.88618,57.85621],[25.87652,57.85971],[25.87611,57.86514],[25.85913,57.85728],[25.82027,57.86486],[25.78513,57.89923],[25.78829,57.90458],[25.73746,57.92416],[25.727,57.92212],[25.72084,57.91306],[25.70326,57.90332],[25.67897,57.90439],[25.67779,57.91237],[25.64868,57.91666],[25.64718,57.92256],[25.63865,57.93073],[25.58046,57.9442],[25.59434,57.95958],[25.5805,57.97195],[25.5747,57.97402],[25.56526,57.96752],[25.56574,57.96264],[25.55687,57.96042],[25.55138,57.97237],[25.52527,57.97186],[25.5228,57.96792],[25.51708,57.96753],[25.51201,57.96979],[25.52269,57.97449],[25.51958,57.98019],[25.48585,57.97482],[25.47863,57.98254],[25.4449,57.99515],[25.45063,58.00156],[25.46688,58.00515],[25.4486,58.01706],[25.40832,58.02914],[25.37216,58.02877],[25.36386,58.0314],[25.33601,58.05726],[25.32952,58.05875],[25.31874,58.0695],[25.29567,58.08145],[25.28683,58.08162],[25.28118,58.07002],[25.26608,58.06723],[25.26487,58.06009],[25.27959,58.05066],[25.29333,58.04642],[25.30374,58.03427],[25.3006,58.01538],[25.29714,58.01465],[25.30221,58.00056],[25.29576,57.99984],[25.30141,57.99312],[25.28283,57.98964],[25.26742,57.9946],[25.25626,57.99385],[25.25601,58.00296],[25.24587,58.00296],[25.23127,58.01472],[25.23326,58.01764],[25.24602,58.01861],[25.23646,58.02437],[25.22702,58.02445],[25.22551,58.02177],[25.21948,58.03016],[25.2169,58.03966],[25.22564,58.04694],[25.22828,58.0535],[25.21754,58.04932],[25.21624,58.05962],[25.20549,58.06129],[25.20373,58.06504],[25.21658,58.07405],[25.21218,58.08079],[25.19943,58.08557],[25.18941,58.07995],[25.19123,58.07602],[25.15378,58.07472],[25.13444,58.07976],[25.10584,58.07783],[25.10507,58.06622],[25.07695,58.06639],[25.02041,58.01783],[24.99474,58.01097],[24.94887,58.00936],[24.83233,57.97194],[24.8083,57.99052],[24.74214,57.98204],[24.74354,57.96488],[24.71511,57.96253],[24.69209,57.94642],[24.67484,57.95923],[24.64435,57.95915],[24.64143,57.95427],[24.64576,57.95278],[24.62841,57.94187],[24.61665,57.94354],[24.60992,57.95117],[24.58509,57.96205],[24.57309,57.95432],[24.54866,57.94976],[24.54311,57.94482],[24.53102,57.94693],[24.52068,57.94345],[24.51832,57.93672],[24.50985,57.93495],[24.51304,57.93069],[24.46226,57.92495],[24.44549,57.90804],[24.45954,57.9065],[24.45241,57.89945],[24.45987,57.88013],[24.41209,57.86473],[24.40933,57.87169],[24.35324,57.87609],[24.35871,57.8844],[24.3603,57.89545],[24.38506,57.92208],[24.39056,57.95242],[24.39709,57.95537],[24.40273,57.96393],[24.40536,57.97756],[24.42005,57.99784],[24.43723,58.00382],[24.44517,58.01089],[24.45371,58.03667],[24.45872,58.03754],[24.46203,58.04529],[24.46805,58.049],[24.48083,58.07665],[24.47538,58.08884],[24.46901,58.08999],[24.46518,58.1031],[24.4602,58.10492],[24.47256,58.10823],[24.47848,58.11681],[24.47822,58.12398],[24.47344,58.1299],[24.47933,58.13219],[24.47211,58.14191],[24.47796,58.15164],[24.46728,58.16217],[24.46815,58.17039],[24.4613,58.1746],[24.45291,58.17341],[24.46514,58.19568],[24.45614,58.20293],[24.46417,58.20923],[24.46371,58.2123],[24.4774,58.22128],[24.474,58.22454],[24.48172,58.23545],[24.46838,58.24543],[24.47035,58.24854],[24.48303,58.24776],[24.48955,58.25866],[24.50926,58.26159],[24.51771,58.26586],[24.51698,58.2693],[24.53049,58.27071],[24.53212,58.27535],[24.53949,58.27422],[24.57894,58.29443],[24.58624,58.30148],[24.58688,58.30995],[24.58196,58.32496],[24.56707,58.33979],[24.53136,58.36292],[24.47879,58.37585],[24.48214,58.38347],[24.49534,58.38988],[24.48439,58.38855],[24.46902,58.37382],[24.45244,58.3834],[24.42236,58.38753],[24.31454,58.38173],[24.305,58.3791],[24.29361,58.36528],[24.29122,58.32656],[24.28348,58.31641],[24.27503,58.29344],[24.26605,58.28684],[24.26615,58.27609],[24.23336,58.27282],[24.21889,58.26815],[24.21743,58.27119],[24.20571,58.26582],[24.19385,58.26824],[24.18492,58.26434],[24.17912,58.26395],[24.17187,58.26955],[24.16037,58.25534],[24.15174,58.25387],[24.15204,58.25016],[24.13938,58.25052],[24.1384,58.2446],[24.12117,58.2414],[24.12287,58.23247],[24.11857,58.23161],[24.11411,58.23266],[24.11101,58.24091],[24.08231,58.24743],[24.07402,58.25365],[24.06202,58.26362],[24.05725,58.27426],[24.05233,58.27492],[24.05017,58.28332],[24.04385,58.28343],[24.04092,58.29514],[24.03454,58.30166],[24.02377,58.30243],[24.00969,58.31926],[24,58.31949],[24.0045,58.303],[24.00187,58.29681],[23.98606,58.31347],[23.97901,58.31645],[23.97579,58.31294],[23.98118,58.31051],[23.9755,58.30949],[23.96015,58.32381],[23.94926,58.32764],[23.93852,58.32123],[23.91126,58.33031],[23.90683,58.31478],[23.88795,58.322],[23.87825,58.32247],[23.84809,58.35299],[23.83646,58.35978],[23.82755,58.35793],[23.82683,58.34911],[23.82197,58.34921],[23.82637,58.3393],[23.81153,58.34049],[23.80225,58.34632],[23.79615,58.34312],[23.78991,58.34428],[23.7878,58.34842],[23.7768,58.35096],[23.77228,58.35542],[23.76511,58.35096],[23.76772,58.34694],[23.77806,58.34838],[23.78274,58.34597],[23.78457,58.33825],[23.79176,58.33681],[23.79298,58.33371],[23.78793,58.33152],[23.77111,58.34367],[23.76359,58.34408],[23.76498,58.33381],[23.7498,58.339],[23.73793,58.34925],[23.74573,58.35241],[23.74314,58.36296],[23.73373,58.36726],[23.73567,58.3703],[23.72723,58.38098],[23.71687,58.38581],[23.7154,58.39839],[23.70815,58.40545],[23.70709,58.41085],[23.69479,58.41905],[23.69013,58.42837],[23.68005,58.43397],[23.68345,58.44004],[23.67877,58.44269],[23.68512,58.45562],[23.68539,58.46228],[23.68198,58.46247],[23.68284,58.47052],[23.69002,58.48139],[23.69066,58.48982],[23.68125,58.4913],[23.68553,58.49941],[23.69194,58.50004],[23.69132,58.50466],[23.68,58.51028],[23.68549,58.5213],[23.67486,58.52306],[23.67545,58.53086],[23.66346,58.52445],[23.66243,58.5205],[23.66502,58.5193],[23.66256,58.51589],[23.65359,58.51377],[23.6533,58.51954],[23.64438,58.51819],[23.6289,58.52388],[23.62742,58.53032],[23.61733,58.53616],[23.59794,58.53553],[23.59523,58.53865],[23.60126,58.54085],[23.60205,58.54466],[23.58105,58.54893],[23.58086,58.55969],[23.56818,58.56045],[23.56677,58.56457],[23.57175,58.56576],[23.5728,58.57329],[23.57825,58.57408],[23.58339,58.58063],[23.56105,58.58031],[23.5572,58.57117],[23.54862,58.56776],[23.5595,58.56575],[23.55576,58.55481],[23.55217,58.55258],[23.54709,58.55345],[23.54864,58.56135],[23.52121,58.56497],[23.5141,58.56151],[23.50122,58.56638],[23.50001,58.56999],[23.50311,58.57224],[23.52227,58.57621],[23.52004,58.57933],[23.52343,58.589],[23.5296,58.59284],[23.53912,58.59227],[23.53748,58.59691],[23.52362,58.59847],[23.52971,58.61141],[23.52735,58.61606],[23.52358,58.61486],[23.50484,58.64109],[23.51006,58.64534],[23.50082,58.65346],[23.50891,58.67046],[23.50794,58.6738],[23.50071,58.67599],[23.50321,58.68005],[23.49663,58.68426],[23.49727,58.68976],[23.51518,58.69261],[23.51562,58.69875],[23.50967,58.70143],[23.51129,58.70677],[23.5165,58.70744],[23.52806,58.70055],[23.56072,58.70311],[23.5762,58.70959],[23.54679,58.72131],[23.53987,58.72094],[23.53278,58.72492],[23.53631,58.73291],[23.52401,58.73648],[23.52393,58.73879],[23.54371,58.73981],[23.58609,58.7268],[23.61645,58.73105],[23.62015,58.73444],[23.63576,58.73245],[23.64194,58.73604],[23.65777,58.73046],[23.66201,58.73436],[23.65115,58.73726],[23.65773,58.74609],[23.66938,58.7438],[23.67984,58.74845],[23.68699,58.74535],[23.70819,58.74555],[23.71044,58.74909],[23.71977,58.74876],[23.73816,58.75695],[23.75067,58.75617],[23.74012,58.76306],[23.74502,58.77832],[23.73805,58.78064],[23.72655,58.77858],[23.71697,58.78224],[23.72001,58.78599],[23.6884,58.77631],[23.61666,58.78624],[23.5833,58.78204],[23.57538,58.77503],[23.55526,58.76954],[23.51635,58.77696],[23.46014,58.76998],[23.45483,58.76471],[23.44522,58.76463],[23.45315,58.76884],[23.46153,58.77918],[23.45364,58.78266],[23.45372,58.79086],[23.46637,58.78843],[23.47365,58.79021],[23.46962,58.79246],[23.47368,58.79406],[23.47302,58.79867],[23.48901,58.80131],[23.47902,58.81008],[23.48063,58.81543],[23.45808,58.81061],[23.44063,58.81875],[23.43439,58.82834],[23.43949,58.83414],[23.4845,58.82124],[23.49275,58.81571],[23.48858,58.81271],[23.48908,58.80938],[23.50328,58.80756],[23.50455,58.80485],[23.52537,58.80611],[23.53024,58.80857],[23.53245,58.81519],[23.52571,58.82095],[23.52898,58.82524],[23.52334,58.83585],[23.50803,58.84614],[23.499,58.84426],[23.49251,58.8536],[23.48466,58.85453],[23.48585,58.86065],[23.47394,58.87394],[23.44014,58.88892],[23.44272,58.89152],[23.45199,58.88869],[23.45577,58.90015],[23.4513,58.90331],[23.43656,58.90128],[23.42237,58.90718],[23.42407,58.91381],[23.43203,58.92134],[23.43066,58.93007],[23.42738,58.93269],[23.42993,58.93725],[23.42603,58.94168],[23.44253,58.94034],[23.4546,58.94293],[23.46355,58.93636],[23.48173,58.93422],[23.50761,58.94281],[23.52863,58.94227],[23.52561,58.95181],[23.52052,58.95344],[23.51801,58.95631],[23.52061,58.95805],[23.5158,58.96006],[23.51994,58.96242],[23.5379,58.95041],[23.55999,58.94708],[23.57486,58.95429],[23.58793,58.95339],[23.58797,58.95723],[23.59752,58.95909],[23.59913,58.96725],[23.58521,58.97342],[23.60005,58.97287],[23.60579,58.97646],[23.61784,58.97533],[23.6222,58.97805],[23.64059,58.96462],[23.65626,58.96225],[23.65859,58.96668],[23.65432,58.9692],[23.65561,58.97316],[23.66278,58.97287],[23.66264,58.97748],[23.65766,58.9804],[23.65897,58.98447],[23.65302,58.9846],[23.64351,58.99213],[23.63749,58.99234],[23.6352,58.99802],[23.61932,59.00355],[23.61477,59.00356],[23.61282,58.99745],[23.62684,58.98283],[23.62682,58.97924],[23.62035,58.97899],[23.61163,58.98825],[23.60344,58.99149],[23.59849,59.00158],[23.59119,58.99686],[23.58631,58.99798],[23.58272,59.00638],[23.57227,59.00594],[23.57084,59.00341],[23.57243,58.99826],[23.56954,58.99268],[23.57179,58.98956],[23.56862,58.98041],[23.57485,58.97747],[23.56979,58.96936],[23.55024,58.96323],[23.54134,58.97019],[23.51895,58.97601],[23.5085,58.98236],[23.47048,58.97784],[23.43971,58.99161],[23.4295,59.00153],[23.42171,59.00372],[23.42488,59.00648],[23.41577,59.01102],[23.40538,59.02579],[23.41111,59.0294],[23.42503,59.02274],[23.44085,59.02167],[23.44594,59.034],[23.43948,59.03745],[23.43179,59.03401],[23.43006,59.03762],[23.43293,59.03962],[23.42733,59.04126],[23.43405,59.05547],[23.42972,59.06452],[23.43692,59.07846],[23.44318,59.07553],[23.48039,59.07431],[23.4806,59.07711],[23.48509,59.07729],[23.48542,59.0819],[23.50571,59.09072],[23.50732,59.09569],[23.53371,59.08916],[23.54178,59.09054],[23.54146,59.09643],[23.536,59.09987],[23.52772,59.1159],[23.52543,59.12542],[23.52893,59.12561],[23.53023,59.13301],[23.51757,59.1371],[23.51263,59.16485],[23.50826,59.1698],[23.49105,59.17653],[23.48557,59.19046],[23.49172,59.2098],[23.50623,59.21029],[23.51292,59.21631],[23.51214,59.22606],[23.51451,59.2278],[23.52731,59.22525],[23.53515,59.21639],[23.56249,59.2147],[23.60048,59.22176],[23.62339,59.23384],[23.63646,59.23486],[23.65641,59.24713],[23.66869,59.24445],[23.67302,59.23591],[23.69253,59.22974],[23.70852,59.22979],[23.73046,59.23733]]],[[[28.08453,59.45317],[28.07624,59.45728],[28.08751,59.4545],[28.08453,59.45317]]],[[[25.82041,59.67139],[25.80052,59.67582],[25.79463,59.68485],[25.80125,59.68376],[25.80006,59.6817],[25.80759,59.67639],[25.81953,59.67496],[25.82041,59.67139]]],[[[25.37705,59.50565],[25.37504,59.51073],[25.3637,59.51597],[25.36436,59.51803],[25.37333,59.52019],[25.38098,59.51824],[25.37934,59.51566],[25.38362,59.51033],[25.37705,59.50565]]],[[[25.27676,59.53687],[25.2626,59.54756],[25.27524,59.54683],[25.27685,59.5448],[25.2722,59.54218],[25.27676,59.53687]]],[[[25.24365,59.5628],[25.22654,59.57153],[25.20753,59.57332],[25.20655,59.5774],[25.22077,59.5758],[25.22667,59.5787],[25.23497,59.57446],[25.23793,59.56605],[25.24365,59.5628]]],[[[25.10224,59.59256],[25.08209,59.60073],[25.08319,59.60791],[25.10312,59.59488],[25.10224,59.59256]]],[[[24.98417,59.60821],[24.97784,59.61682],[24.99074,59.62086],[24.98766,59.62593],[24.98809,59.63131],[24.99104,59.63264],[24.98857,59.63593],[24.9769,59.63677],[24.97415,59.64044],[24.96481,59.64017],[24.96873,59.64637],[24.97525,59.64724],[24.97905,59.64294],[24.99113,59.6439],[24.99337,59.64022],[25.01255,59.63792],[25.0119,59.63475],[25.01933,59.63307],[25.02239,59.62825],[25.03668,59.62154],[25.04161,59.61497],[25.04078,59.61189],[25.03307,59.60985],[25.02885,59.61299],[24.99931,59.61702],[24.98716,59.61312],[24.98417,59.60821]]],[[[24.78553,59.57147],[24.78158,59.57396],[24.78924,59.57639],[24.78553,59.57147]]],[[[24.75726,59.57174],[24.74729,59.57363],[24.73771,59.58089],[24.74267,59.5861],[24.76418,59.58902],[24.77361,59.58381],[24.78313,59.58883],[24.78632,59.58633],[24.75726,59.57174]]],[[[24.54234,59.53627],[24.51992,59.53943],[24.49337,59.55058],[24.48628,59.55565],[24.48158,59.56674],[24.47421,59.57069],[24.48812,59.57711],[24.48714,59.58016],[24.49482,59.58544],[24.49815,59.59497],[24.50504,59.5974],[24.5095,59.60542],[24.51551,59.60605],[24.52123,59.59361],[24.53619,59.58237],[24.53604,59.57751],[24.55132,59.55833],[24.55085,59.5509],[24.56225,59.53972],[24.54234,59.53627]]],[[[24.1005,58.20315],[24.10502,58.21312],[24.11738,58.2134],[24.12273,58.22222],[24.13142,58.22268],[24.13888,58.23258],[24.14552,58.23465],[24.14664,58.23275],[24.13966,58.22901],[24.14009,58.22364],[24.13551,58.22328],[24.13473,58.21789],[24.1251,58.20794],[24.1005,58.20315]]],[[[23.97125,58.09623],[23.96573,58.09956],[23.95387,58.12289],[23.95824,58.12893],[23.95771,58.13714],[23.96319,58.15059],[23.97026,58.15401],[24.0035,58.1566],[24.01944,58.15147],[24.01562,58.14779],[24.01933,58.14109],[24.01143,58.13719],[24.01384,58.12572],[24.00961,58.11845],[24.01215,58.11697],[23.99737,58.1106],[23.99165,58.09998],[23.9754,58.09959],[23.97125,58.09623]]],[[[24,59.34418],[24.00927,59.3299],[24.01071,59.32479],[24.00701,59.32139],[24.00987,59.31736],[23.98285,59.31266],[23.98287,59.31573],[23.97089,59.31626],[23.96553,59.32381],[23.96509,59.33304],[23.95067,59.33734],[23.94653,59.34447],[23.93404,59.34796],[23.94373,59.35273],[23.94782,59.3593],[23.95688,59.36255],[23.98393,59.3563],[23.99733,59.34895],[24,59.34418]]],[[[24.00764,58.28028],[24.00136,58.28551],[24.00567,58.28638],[24.0094,58.28237],[24.00764,58.28028]]],[[[23.93803,59.30126],[23.92031,59.30486],[23.91973,59.30973],[23.87764,59.33321],[23.87625,59.33759],[23.86237,59.34532],[23.86144,59.34919],[23.87429,59.34698],[23.90771,59.35072],[23.92087,59.34633],[23.9228,59.33963],[23.9316,59.337],[23.91288,59.34088],[23.91455,59.337],[23.93838,59.32852],[23.94658,59.32193],[23.94842,59.31139],[23.95156,59.31004],[23.95027,59.30675],[23.93803,59.30126]]],[[[23.94013,59.3313],[23.93807,59.33647],[23.94431,59.33633],[23.94013,59.3313]]],[[[23.80565,58.33382],[23.79496,58.34033],[23.80586,58.33651],[23.80565,58.33382]]],[[[23.67502,58.76263],[23.6595,58.76603],[23.65704,58.77248],[23.67015,58.7763],[23.67078,58.77168],[23.6747,58.77133],[23.67699,58.76592],[23.67502,58.76263]]],[[[23.64007,58.45758],[23.63425,58.45809],[23.63349,58.46104],[23.63994,58.46232],[23.65752,58.46209],[23.65901,58.45924],[23.64007,58.45758]]],[[[23.58626,58.96098],[23.58281,58.96118],[23.58114,58.96531],[23.5925,58.96482],[23.58626,58.96098]]],[[[23.57691,58.53582],[23.57289,58.53782],[23.57364,58.54139],[23.58026,58.54152],[23.58246,58.53814],[23.57691,58.53582]]],[[[23.56586,58.95319],[23.5623,58.95544],[23.56508,58.95948],[23.56822,58.9548],[23.56586,58.95319]]],[[[23.52054,58.54884],[23.51749,58.5507],[23.51697,58.56044],[23.52688,58.55513],[23.52401,58.54928],[23.52054,58.54884]]],[[[23.52565,59.12836],[23.5184,59.13145],[23.52202,59.13317],[23.52565,59.12836]]],[[[23.43108,58.53738],[23.42075,58.54027],[23.42716,58.54689],[23.4353,58.54883],[23.44574,58.54389],[23.43108,58.53738]]],[[[23.43373,58.62504],[23.41553,58.63166],[23.41586,58.63639],[23.43766,58.63905],[23.44359,58.63253],[23.4423,58.6282],[23.43373,58.62504]]],[[[23.41335,59.27376],[23.40602,59.2762],[23.40061,59.28476],[23.37824,59.28682],[23.35898,59.30138],[23.35994,59.30431],[23.39901,59.29758],[23.41979,59.28695],[23.42774,59.27912],[23.41575,59.27947],[23.41035,59.2774],[23.41335,59.27376]]],[[[23.40502,58.82838],[23.39997,58.83398],[23.38654,58.83974],[23.39414,58.84255],[23.4002,58.83729],[23.40592,58.83784],[23.40777,58.83601],[23.40502,58.82838]]],[[[23.06807,58.61783],[23.0707,58.62077],[23.07996,58.61973],[23.0953,58.62725],[23.12177,58.62121],[23.14673,58.6281],[23.14703,58.63296],[23.13916,58.64077],[23.13799,58.64566],[23.14106,58.64766],[23.13456,58.65391],[23.14001,58.65459],[23.13509,58.66261],[23.13972,58.66586],[23.14115,58.67326],[23.15438,58.68046],[23.15858,58.67681],[23.16595,58.67681],[23.191,58.6842],[23.23661,58.67471],[23.29439,58.65615],[23.35285,58.64525],[23.36286,58.63327],[23.36113,58.62587],[23.34444,58.6185],[23.3472,58.60847],[23.35354,58.60784],[23.36064,58.5967],[23.39346,58.571],[23.39269,58.56333],[23.39621,58.55737],[23.40584,58.5513],[23.40469,58.54544],[23.39937,58.53913],[23.37422,58.52936],[23.37671,58.52266],[23.37473,58.51886],[23.38964,58.51129],[23.36639,58.50761],[23.36006,58.50811],[23.35227,58.51595],[23.36099,58.52192],[23.36264,58.53188],[23.33353,58.53587],[23.3347,58.54238],[23.32095,58.54928],[23.31272,58.53586],[23.30425,58.5337],[23.30036,58.53787],[23.30482,58.5424],[23.29821,58.54611],[23.29291,58.53621],[23.28292,58.54075],[23.27846,58.54735],[23.25845,58.5486],[23.25248,58.53949],[23.26827,58.53768],[23.26878,58.53408],[23.27359,58.53272],[23.27332,58.52863],[23.26709,58.52694],[23.26688,58.52362],[23.25975,58.51939],[23.25413,58.51949],[23.24939,58.52572],[23.25017,58.53403],[23.25507,58.53407],[23.25259,58.53744],[23.24542,58.53629],[23.24302,58.52557],[23.23228,58.52218],[23.21926,58.52535],[23.21545,58.5386],[23.20351,58.54341],[23.20309,58.54854],[23.19223,58.54719],[23.18032,58.55251],[23.17558,58.559],[23.17791,58.56101],[23.17623,58.56564],[23.15057,58.57862],[23.12971,58.57423],[23.105,58.58322],[23.08628,58.58584],[23.06992,58.5994],[23.0777,58.61054],[23.07512,58.61673],[23.06782,58.61364],[23.0613,58.61542],[23.06807,58.61783]]],[[[23.38498,58.93195],[23.38015,58.95174],[23.38363,58.95554],[23.38956,58.95516],[23.39107,58.95206],[23.38849,58.95057],[23.38498,58.93195]]],[[[23.38747,59.01102],[23.3818,59.01508],[23.39009,59.01302],[23.38747,59.01102]]],[[[23.38706,58.84011],[23.37526,58.84814],[23.38673,58.84972],[23.38945,58.8425],[23.38706,58.84011]]],[[[23.16888,58.97671],[23.16803,58.98287],[23.15038,58.99021],[23.14141,59.0015],[23.12987,59.00348],[23.12033,59.00978],[23.11672,59.02775],[23.12949,59.0337],[23.12914,59.03985],[23.14036,59.03659],[23.14691,59.03802],[23.15762,59.04245],[23.16456,59.05014],[23.18811,59.04526],[23.19343,59.04697],[23.19607,59.04155],[23.21933,59.03628],[23.22945,59.03918],[23.24794,59.03708],[23.25208,59.03572],[23.24898,59.03014],[23.25907,59.02868],[23.26889,59.01955],[23.27488,59.01996],[23.2784,59.02809],[23.28546,59.02233],[23.29253,59.024],[23.29423,59.03088],[23.30471,59.03543],[23.31068,59.02803],[23.32288,59.02858],[23.3193,59.03069],[23.32833,59.03207],[23.32712,59.03619],[23.3426,59.03002],[23.3473,59.02252],[23.3588,59.01999],[23.35809,59.01693],[23.36491,59.01502],[23.36486,59.00707],[23.38841,58.99231],[23.37477,58.97438],[23.34687,58.98335],[23.34494,58.98056],[23.32598,58.97885],[23.32892,58.9747],[23.32378,58.97198],[23.2992,58.97511],[23.29698,58.97169],[23.28563,58.9724],[23.29031,58.96822],[23.28847,58.96288],[23.28495,58.96217],[23.30973,58.95469],[23.28128,58.95916],[23.24373,58.98005],[23.21691,58.98333],[23.21483,58.9703],[23.22169,58.96507],[23.21952,58.96216],[23.20529,58.96445],[23.19307,58.97119],[23.18789,58.96743],[23.19099,58.96175],[23.17888,58.9663],[23.17076,58.95927],[23.16534,58.95988],[23.15963,58.96356],[23.15151,58.97649],[23.1596,58.97905],[23.16888,58.97671]]],[[[23.35297,58.89822],[23.34717,58.90533],[23.35045,58.90492],[23.35297,58.89822]]],[[[23.33667,58.75826],[23.34463,58.76421],[23.34806,58.76017],[23.33667,58.75826]]],[[[22.64934,58.25073],[22.61798,58.25476],[22.61425,58.25289],[22.6168,58.25029],[22.61376,58.24726],[22.61627,58.23315],[22.6115,58.22975],[22.5898,58.22195],[22.59314,58.22601],[22.59171,58.23217],[22.58116,58.23499],[22.55847,58.22132],[22.55161,58.22524],[22.54593,58.22301],[22.54867,58.22989],[22.54189,58.23611],[22.54586,58.24938],[22.54214,58.25301],[22.5363,58.25282],[22.52919,58.25112],[22.52032,58.23688],[22.51795,58.22667],[22.50528,58.21965],[22.49218,58.21981],[22.4965,58.23025],[22.48313,58.23553],[22.48497,58.23909],[22.47522,58.23793],[22.47725,58.24583],[22.47343,58.24755],[22.45891,58.24272],[22.44752,58.22544],[22.42848,58.21658],[22.41826,58.21579],[22.40919,58.21947],[22.40088,58.21777],[22.40006,58.22162],[22.39595,58.22192],[22.39579,58.21808],[22.3748,58.22087],[22.37276,58.21859],[22.35484,58.21916],[22.31078,58.20861],[22.27159,58.19096],[22.26262,58.18414],[22.25491,58.17167],[22.25629,58.15553],[22.25207,58.15251],[22.25216,58.1484],[22.26603,58.12983],[22.25428,58.11919],[22.25527,58.11278],[22.24498,58.09522],[22.24812,58.08828],[22.2419,58.08322],[22.22851,58.08029],[22.22026,58.06525],[22.22802,58.05903],[22.22748,58.05033],[22.2065,58.03671],[22.20084,58.02627],[22.18515,58.01155],[22.18823,58.00257],[22.20132,57.99016],[22.20078,57.98146],[22.17989,57.96886],[22.1699,57.96549],[22.15207,57.96539],[22.14295,57.95869],[22.1286,57.95435],[22.09362,57.92842],[22.07671,57.92612],[22.05577,57.90953],[22.05475,57.91568],[22.02628,57.91272],[22.01458,57.92395],[22.00646,57.92631],[22.00635,57.93976],[22.00216,57.94478],[21.98358,57.95184],[21.98661,57.95745],[21.98541,57.96603],[21.97962,57.96595],[21.98284,57.9777],[21.99598,57.98221],[22.00114,57.9773],[22.01764,57.98101],[22.01992,57.98534],[22.01589,57.99587],[22.01818,58.00021],[22.04271,58.00641],[22.03913,58.02462],[22.05707,58.02754],[22.05678,58.03381],[22.05344,58.03512],[22.05895,58.04186],[22.06718,58.04269],[22.0707,58.04765],[22.06729,58.05459],[22.06815,58.05919],[22.07179,58.05993],[22.07022,58.06378],[22.07632,58.06552],[22.07426,58.06957],[22.08745,58.07439],[22.08909,58.08052],[22.10552,58.08063],[22.10406,58.08807],[22.11061,58.08878],[22.11096,58.08468],[22.12943,58.08017],[22.13558,58.06808],[22.15187,58.06409],[22.16544,58.06551],[22.17232,58.08388],[22.16749,58.09134],[22.16934,58.09619],[22.1772,58.09996],[22.17807,58.1043],[22.183,58.10708],[22.18216,58.11143],[22.19651,58.12794],[22.21159,58.1301],[22.22421,58.13817],[22.21434,58.14723],[22.21562,58.15618],[22.20821,58.15894],[22.15726,58.15595],[22.14528,58.1599],[22.14514,58.17078],[22.10217,58.1755],[22.09943,58.18117],[22.08201,58.18196],[22.0821,58.18503],[22.07559,58.1856],[22.07593,58.18124],[22.08139,58.17735],[22.06488,58.17647],[22.05589,58.19335],[22.0419,58.20251],[22.05315,58.20601],[22.04838,58.20848],[22.04406,58.21837],[22.03567,58.22176],[22.03482,58.22587],[22.02085,58.22931],[22.0267,58.23029],[22.01794,58.23804],[22.01875,58.24072],[22.00379,58.24429],[22.0051,58.24735],[22.00054,58.24931],[21.99512,58.24641],[21.9972,58.2341],[22.00075,58.23075],[21.99813,58.22411],[21.98712,58.22932],[21.98802,58.23545],[21.96766,58.23638],[21.94267,58.24591],[21.93629,58.24327],[21.92718,58.24769],[21.9254,58.24463],[21.90546,58.25271],[21.89907,58.24968],[21.8926,58.25331],[21.89055,58.25844],[21.87576,58.25957],[21.87206,58.26702],[21.86865,58.26678],[21.86977,58.26268],[21.86618,58.26185],[21.84987,58.27357],[21.85096,58.27842],[21.83278,58.28059],[21.83237,58.28354],[21.84395,58.2905],[21.83755,58.29733],[21.83126,58.29814],[21.82831,58.3075],[21.83543,58.31027],[21.84715,58.31223],[21.85578,58.30732],[21.86283,58.30727],[21.86301,58.30445],[21.8708,58.30478],[21.88666,58.29739],[21.89734,58.29654],[21.8936,58.30271],[21.9083,58.30671],[21.90677,58.31362],[21.88125,58.3243],[21.87933,58.3348],[21.86992,58.3382],[21.87027,58.34255],[21.87517,58.34379],[21.88283,58.33889],[21.88438,58.34219],[21.8675,58.34935],[21.86735,58.35281],[21.87486,58.35122],[21.88394,58.34424],[21.89604,58.34186],[21.89742,58.33826],[21.90858,58.3369],[21.92176,58.32887],[21.92254,58.32196],[21.92684,58.31834],[21.92498,58.31221],[21.92929,58.30961],[21.94198,58.31132],[21.94036,58.31466],[21.95923,58.3199],[21.95183,58.33403],[21.94358,58.33499],[21.93181,58.3503],[21.93687,58.35718],[21.95993,58.34549],[21.97021,58.34772],[21.98147,58.34097],[21.97629,58.33844],[21.98598,58.33821],[21.99957,58.34467],[21.99582,58.34931],[22.00709,58.35178],[22.01385,58.35813],[22.00228,58.36257],[22.003,58.35335],[21.99665,58.35289],[21.97855,58.36762],[21.99762,58.37003],[22.01847,58.36628],[22.01043,58.3748],[22.00599,58.37291],[21.99777,58.37541],[21.99538,58.38567],[21.98886,58.38776],[21.98465,58.39406],[21.98981,58.39544],[21.98866,58.39799],[21.97921,58.40013],[21.97597,58.39746],[21.96636,58.40265],[21.9542,58.4039],[21.95113,58.40775],[21.95367,58.41133],[21.94049,58.42014],[21.9454,58.42187],[21.94176,58.43138],[21.90933,58.45133],[21.91195,58.45822],[21.90561,58.46773],[21.8882,58.4749],[21.87619,58.47358],[21.86551,58.4666],[21.85013,58.47682],[21.84087,58.47816],[21.84338,58.49094],[21.84038,58.49838],[21.87514,58.48036],[21.89465,58.47895],[21.91136,58.48254],[21.92404,58.49064],[21.91673,58.50042],[21.91018,58.50252],[21.91107,58.50917],[21.91452,58.50991],[21.91717,58.51731],[21.96774,58.50632],[21.9962,58.50969],[22.01075,58.50535],[22.01966,58.50041],[22.04392,58.46924],[22.04898,58.4669],[22.05056,58.45434],[22.06156,58.43864],[22.07512,58.427],[22.07734,58.41956],[22.08627,58.4168],[22.10875,58.41776],[22.11748,58.42408],[22.11199,58.43565],[22.11769,58.44609],[22.11121,58.45716],[22.11314,58.46405],[22.11659,58.4653],[22.11371,58.47454],[22.11735,58.48142],[22.13721,58.4984],[22.14313,58.50001],[22.16054,58.49435],[22.16355,58.49663],[22.15813,58.50257],[22.17235,58.51113],[22.1993,58.51243],[22.20261,58.51624],[22.20246,58.52622],[22.19683,58.53344],[22.2024,58.54593],[22.21615,58.54683],[22.23492,58.53769],[22.23748,58.52691],[22.23536,58.51541],[22.23963,58.51153],[22.24115,58.49232],[22.25414,58.4863],[22.2943,58.48821],[22.30373,58.50527],[22.30715,58.50523],[22.30388,58.5138],[22.31399,58.51822],[22.30752,58.52827],[22.30313,58.5287],[22.30109,58.53985],[22.28886,58.53998],[22.28614,58.53258],[22.28997,58.53024],[22.28259,58.52929],[22.2833,58.54182],[22.28752,58.55023],[22.28246,58.55924],[22.28704,58.57046],[22.29588,58.57114],[22.31184,58.56547],[22.33123,58.57282],[22.34785,58.57175],[22.36376,58.5776],[22.38809,58.57312],[22.47469,58.5815],[22.49714,58.59045],[22.50296,58.59474],[22.50342,58.5996],[22.51436,58.60305],[22.52494,58.61522],[22.52743,58.63285],[22.53462,58.63456],[22.53869,58.63784],[22.53664,58.64145],[22.54233,58.6424],[22.54522,58.63545],[22.56353,58.63868],[22.5732,58.63537],[22.61843,58.58898],[22.63737,58.57991],[22.67019,58.57936],[22.68424,58.58609],[22.68445,58.59044],[22.6919,58.59238],[22.68528,58.59747],[22.69131,58.60059],[22.71781,58.59077],[22.71516,58.5867],[22.72001,58.58562],[22.72025,58.58049],[22.75083,58.57445],[22.75973,58.58098],[22.77405,58.60228],[22.77257,58.61179],[22.78548,58.62025],[22.80149,58.62558],[22.84621,58.61728],[22.87154,58.62293],[22.87368,58.62623],[22.89489,58.619],[22.89764,58.6155],[22.94192,58.6174],[22.95744,58.61422],[22.95669,58.60963],[22.97276,58.60733],[22.97404,58.60399],[23.00075,58.59922],[23.01657,58.59283],[23.03376,58.57643],[23.04512,58.57778],[23.06053,58.57318],[23.06264,58.56726],[23.07503,58.56156],[23.09086,58.56386],[23.08927,58.56184],[23.09585,58.55725],[23.12861,58.55607],[23.13617,58.55146],[23.15037,58.55894],[23.15036,58.55532],[23.14392,58.5539],[23.13683,58.54633],[23.12909,58.54787],[23.12973,58.54235],[23.13447,58.53971],[23.12762,58.53765],[23.1309,58.52928],[23.1425,58.51884],[23.16274,58.51364],[23.20074,58.51094],[23.22059,58.49985],[23.25455,58.49554],[23.27375,58.48995],[23.27255,58.48639],[23.27782,58.48476],[23.28956,58.48481],[23.28976,58.48045],[23.28647,58.47872],[23.302,58.4769],[23.29922,58.46799],[23.30502,58.46712],[23.30269,58.46127],[23.32436,58.45654],[23.32509,58.44909],[23.31166,58.44523],[23.30968,58.43016],[23.2971,58.42808],[23.29706,58.44242],[23.30075,58.44287],[23.2991,58.4475],[23.29324,58.44761],[23.29467,58.45079],[23.28711,58.44722],[23.27567,58.44904],[23.27212,58.45336],[23.25997,58.45025],[23.26438,58.45453],[23.26251,58.45584],[23.23849,58.45844],[23.23185,58.45382],[23.22581,58.45866],[23.22128,58.45656],[23.22093,58.45119],[23.23245,58.44792],[23.23393,58.44431],[23.25242,58.44433],[23.25628,58.44238],[23.25245,58.43988],[23.25974,58.4354],[23.25416,58.42833],[23.24579,58.4272],[23.22576,58.43472],[23.22186,58.43094],[23.21675,58.43116],[23.2099,58.44267],[23.20138,58.44308],[23.2006,58.4541],[23.18129,58.45392],[23.18982,58.46145],[23.19938,58.4659],[23.21053,58.46443],[23.21681,58.46714],[23.21728,58.47071],[23.19637,58.47235],[23.18072,58.46827],[23.18065,58.47108],[23.17651,58.47141],[23.17933,58.46164],[23.17564,58.45325],[23.17147,58.45306],[23.16998,58.46051],[23.1591,58.46249],[23.16589,58.4657],[23.16504,58.4716],[23.16115,58.47193],[23.15805,58.4771],[23.14862,58.46292],[23.14996,58.46085],[23.14375,58.45923],[23.14798,58.45654],[23.1439,58.45352],[23.15974,58.44097],[23.15836,58.43433],[23.1527,58.43763],[23.15561,58.44129],[23.15296,58.44198],[23.14552,58.43728],[23.13476,58.43972],[23.13351,58.43526],[23.13918,58.43209],[23.12847,58.43253],[23.13154,58.42685],[23.12027,58.42218],[23.1268,58.42103],[23.12618,58.41887],[23.10974,58.41325],[23.10221,58.41798],[23.10386,58.42116],[23.11143,58.42129],[23.10657,58.42559],[23.07587,58.42648],[23.08359,58.41675],[23.07841,58.41159],[23.08525,58.41173],[23.08259,58.40806],[23.06973,58.40917],[23.07223,58.40605],[23.07054,58.40224],[23.07543,58.40242],[23.07676,58.39599],[23.09381,58.39572],[23.08941,58.39144],[23.09454,58.38751],[23.08865,58.37852],[23.05919,58.38322],[23.0574,58.37762],[23.05064,58.37875],[23.04836,58.38135],[23.0521,58.38282],[23.05157,58.38629],[23.07108,58.39071],[23.06759,58.39345],[23.04256,58.39091],[23.04226,58.38554],[23.03642,58.38563],[23.03698,58.37845],[23.04174,58.3766],[23.04074,58.36764],[23.03316,58.36725],[23.03227,58.36445],[23.03685,58.36361],[23.03736,58.35976],[23.02628,58.36198],[23.00668,58.35999],[22.9865,58.36516],[22.97435,58.37867],[22.96737,58.38018],[22.96595,58.38545],[22.95526,58.38423],[22.95465,58.37935],[22.94783,58.37498],[22.9461,58.36579],[22.96818,58.35982],[22.96516,58.35807],[22.96864,58.35059],[22.96313,58.34773],[22.94655,58.34734],[22.94578,58.33788],[22.9391,58.33594],[22.94258,58.33281],[22.93582,58.32933],[22.93567,58.31768],[22.92497,58.31771],[22.92163,58.31444],[22.92518,58.30363],[22.91135,58.29974],[22.88847,58.29931],[22.88478,58.3032],[22.8701,58.30176],[22.87902,58.30457],[22.87991,58.30763],[22.8748,58.30757],[22.87255,58.31094],[22.87535,58.31333],[22.86903,58.31397],[22.86811,58.30985],[22.86348,58.30966],[22.86284,58.30686],[22.85455,58.30646],[22.84849,58.29746],[22.83222,58.29322],[22.82649,58.28562],[22.82649,58.28101],[22.83098,58.27864],[22.82773,58.27689],[22.82846,58.26741],[22.82479,58.26696],[22.82462,58.26362],[22.81805,58.26345],[22.80698,58.27028],[22.7947,58.27237],[22.75676,58.27174],[22.73435,58.28037],[22.70396,58.27528],[22.6994,58.27124],[22.69977,58.26381],[22.70418,58.2594],[22.73241,58.24084],[22.74038,58.23996],[22.74685,58.22349],[22.73905,58.21771],[22.71644,58.21174],[22.68895,58.21518],[22.68182,58.21809],[22.67777,58.22493],[22.66861,58.2262],[22.6555,58.23648],[22.65247,58.23396],[22.65349,58.22985],[22.64652,58.22585],[22.63595,58.23366],[22.64116,58.24128],[22.64775,58.23684],[22.65153,58.23986],[22.64521,58.24494],[22.65346,58.2447],[22.65214,58.24779],[22.64703,58.2476],[22.64934,58.25073]]],[[[23.29737,59.0371],[23.29103,59.03875],[23.29531,59.04341],[23.30664,59.04193],[23.30569,59.03887],[23.29737,59.0371]]],[[[23.27955,58.42084],[23.27322,58.42108],[23.26984,58.42549],[23.27192,58.42751],[23.29218,58.43124],[23.2855,58.4224],[23.27955,58.42084]]],[[[23.28728,58.93755],[23.27435,58.94417],[23.27582,58.94774],[23.28976,58.94135],[23.28728,58.93755]]],[[[23.25966,57.78063],[23.23888,57.78573],[23.23884,57.78919],[23.21745,57.78803],[23.21978,57.79465],[23.2115,57.80452],[23.21242,57.80784],[23.22255,57.81253],[23.21745,57.81543],[23.21862,57.819],[23.23316,57.82514],[23.23488,57.82191],[23.25932,57.81368],[23.27058,57.80579],[23.27477,57.78855],[23.27016,57.78377],[23.25966,57.78063]]],[[[23.26047,58.94417],[23.25703,58.94832],[23.26368,58.94769],[23.26047,58.94417]]],[[[23.17844,58.75085],[23.16567,58.75145],[23.16443,58.75533],[23.17962,58.75404],[23.17844,58.75085]]],[[[23.12384,58.82499],[23.11612,58.82781],[23.11413,58.83578],[23.11932,58.83993],[23.14089,58.83329],[23.14097,58.83047],[23.12384,58.82499]]],[[[23.14024,58.73856],[23.13117,58.74332],[23.14002,58.74305],[23.14024,58.73856]]],[[[23.09707,58.74952],[23.09436,58.75366],[23.09859,58.75436],[23.09707,58.74952]]],[[[23.08398,58.76125],[23.07442,58.76627],[23.08404,58.76637],[23.08398,58.76125]]],[[[23.06594,58.80609],[23.06058,58.8072],[23.05957,58.81106],[23.07,58.82036],[23.06275,58.82304],[23.05893,58.82925],[23.06879,58.82909],[23.07694,58.82076],[23.06594,58.80609]]],[[[23.06693,58.89722],[23.0599,58.89964],[23.06745,58.90182],[23.06951,58.8991],[23.06693,58.89722]]],[[[22.72266,58.7942],[22.72228,58.7863],[22.71421,58.7777],[22.72824,58.77214],[22.71673,58.76385],[22.68425,58.72895],[22.67695,58.71522],[22.67291,58.71322],[22.66678,58.6982],[22.64268,58.69313],[22.60035,58.69251],[22.57455,58.6872],[22.5237,58.69382],[22.4891,58.70127],[22.4829,58.70581],[22.48385,58.71067],[22.48028,58.71354],[22.46589,58.71651],[22.47254,58.71669],[22.46343,58.72255],[22.49851,58.72561],[22.50044,58.73045],[22.49821,58.73585],[22.48741,58.74238],[22.48712,58.74699],[22.48185,58.7505],[22.46327,58.75392],[22.47713,58.76118],[22.47911,58.77295],[22.47514,58.7781],[22.45707,58.78215],[22.45185,58.78707],[22.44396,58.78703],[22.44414,58.79151],[22.46253,58.80077],[22.45563,58.80661],[22.44632,58.80838],[22.45803,58.81106],[22.45292,58.81278],[22.45743,58.83205],[22.45015,58.84673],[22.44044,58.85094],[22.44189,58.85604],[22.437,58.85738],[22.42835,58.86925],[22.42536,58.86851],[22.42307,58.87315],[22.39439,58.89125],[22.36646,58.89769],[22.33269,58.89433],[22.32139,58.88984],[22.32269,58.88496],[22.31056,58.88458],[22.28611,58.89212],[22.26819,58.88897],[22.26102,58.88212],[22.24674,58.8838],[22.20851,58.8793],[22.19182,58.88278],[22.17793,58.88137],[22.16286,58.88906],[22.15593,58.88887],[22.15066,58.8939],[22.14005,58.89464],[22.14029,58.90206],[22.13675,58.90696],[22.09545,58.91537],[22.07765,58.91579],[22.06511,58.91832],[22.06322,58.9214],[22.04764,58.92166],[22.04441,58.92949],[22.04818,58.9315],[22.04972,58.94148],[22.05277,58.94389],[22.0656,58.9425],[22.08453,58.94593],[22.09481,58.94213],[22.13146,58.94194],[22.14371,58.93799],[22.20201,58.93414],[22.24322,58.9372],[22.25184,58.94275],[22.27529,58.94739],[22.29201,58.94402],[22.31003,58.94909],[22.33613,58.94498],[22.35959,58.93693],[22.39373,58.93632],[22.41217,58.94519],[22.41744,58.95282],[22.41621,58.95727],[22.42224,58.96122],[22.41199,58.96491],[22.41241,58.96926],[22.42428,58.96862],[22.42995,58.9619],[22.4392,58.95796],[22.45208,58.96174],[22.44874,58.96681],[22.45201,58.9678],[22.45622,58.96186],[22.46792,58.96327],[22.46928,58.96607],[22.45796,58.96799],[22.45173,58.97292],[22.43781,58.98997],[22.43828,58.99534],[22.46687,58.99091],[22.47543,58.99364],[22.47624,58.98979],[22.47185,58.98575],[22.47449,58.98354],[22.49021,58.98016],[22.48982,58.9826],[22.49677,58.98265],[22.50042,58.98696],[22.49093,58.98527],[22.48205,58.99229],[22.483,58.99663],[22.49388,59.00188],[22.48429,59.00378],[22.48934,59.00603],[22.488,59.00937],[22.48257,59.00994],[22.48328,59.01506],[22.47973,59.01723],[22.48086,59.02788],[22.4891,59.02344],[22.49025,59.02701],[22.51988,59.02334],[22.52147,59.02562],[22.53235,59.02485],[22.53353,59.02881],[22.54961,59.03297],[22.56913,59.03094],[22.57549,59.03419],[22.57894,59.03901],[22.58049,59.05128],[22.57799,59.06181],[22.58375,59.08963],[22.60087,59.08879],[22.61894,59.08165],[22.65799,59.08705],[22.69613,59.07363],[22.6984,59.06926],[22.68847,59.06451],[22.68424,59.04917],[22.68541,59.04254],[22.69669,59.02959],[22.69338,59.02784],[22.69696,59.02498],[22.69251,59.02017],[22.70542,59.01027],[22.72999,59.00547],[22.75153,59.0094],[22.78433,59.00063],[22.83319,58.9956],[22.83673,58.99696],[22.83392,58.99981],[22.83805,59.00308],[22.84395,59.00223],[22.86111,58.99827],[22.87638,58.98705],[22.87238,58.98646],[22.87436,58.98183],[22.88009,58.98226],[22.88922,58.977],[22.90499,58.9842],[22.90274,58.97936],[22.91939,58.97553],[22.93768,58.98333],[22.93204,58.97125],[22.9356,58.96403],[22.95461,58.95837],[22.95437,58.95402],[22.94004,58.95475],[22.93667,58.95224],[22.9418,58.94217],[22.96692,58.92643],[22.97021,58.91896],[22.97839,58.91499],[23.00273,58.91641],[23.00811,58.91095],[23.00563,58.90664],[23.02501,58.89533],[23.02324,58.89049],[23.0296,58.88527],[23.02346,58.88152],[23.02425,58.87818],[23.04814,58.86398],[23.05044,58.86087],[23.04662,58.85915],[23.06911,58.83856],[23.06005,58.83153],[23.03098,58.82418],[23.02558,58.82465],[23.02363,58.838],[23.01892,58.84601],[23.00161,58.83706],[22.97649,58.84705],[22.95073,58.84578],[22.94433,58.84178],[22.95843,58.82902],[22.95731,58.82673],[22.93117,58.83173],[22.92549,58.83604],[22.91967,58.83337],[22.91958,58.82294],[22.91627,58.82107],[22.90687,58.82057],[22.8985,58.82556],[22.88852,58.82366],[22.88197,58.82579],[22.8803,58.82224],[22.88803,58.81906],[22.86836,58.81141],[22.86699,58.80426],[22.87868,58.79692],[22.87816,58.79181],[22.88704,58.78272],[22.8742,58.78239],[22.86719,58.78505],[22.86502,58.79046],[22.85222,58.7909],[22.8451,58.78691],[22.84976,58.78172],[22.84064,58.78172],[22.83735,58.78484],[22.82862,58.78305],[22.81903,58.77395],[22.82068,58.7678],[22.81031,58.76743],[22.81276,58.77661],[22.7869,58.77237],[22.78867,58.77797],[22.77891,58.7799],[22.77957,58.78309],[22.76436,58.79444],[22.75681,58.79147],[22.74241,58.80421],[22.73429,58.80457],[22.73355,58.79958],[22.72608,58.79827],[22.72266,58.7942]]],[[[23.05982,58.61941],[23.04769,58.62191],[23.04942,58.62611],[23.05626,58.62548],[23.05982,58.61941]]],[[[23.05046,58.76947],[23.03652,58.77558],[23.04306,58.77778],[23.04296,58.78445],[23.04979,58.7833],[23.05531,58.77656],[23.05046,58.76947]]],[[[23.03138,58.89843],[23.02137,58.90498],[23.01254,58.90627],[23.00978,58.91425],[23.00193,58.91975],[23.0104,58.92064],[23.00971,58.92577],[22.9995,58.93191],[23.00711,58.93222],[23.01133,58.92805],[23.03889,58.92097],[23.04462,58.9091],[23.03138,58.89843]]],[[[23.0396,58.62613],[23.02439,58.62637],[23.01373,58.62884],[23.00932,58.63314],[23.01565,58.64507],[23.02109,58.64576],[23.03176,58.64328],[23.03648,58.63169],[23.04239,58.62775],[23.0396,58.62613]]],[[[23.00834,58.79138],[23.00391,58.79581],[23.00421,58.80092],[22.98848,58.80629],[22.98123,58.81331],[22.98362,58.81609],[22.98981,58.8165],[22.99498,58.80772],[23.01058,58.8044],[23.01223,58.79465],[23.00834,58.79138]]],[[[23.00452,58.98141],[22.9976,58.98613],[23.0069,58.98803],[23.00452,58.98141]]],[[[22.98758,58.98015],[22.99138,58.98571],[22.99473,58.98361],[22.98758,58.98015]]],[[[22.97438,58.94872],[22.96903,58.95072],[22.96925,58.9543],[22.97669,58.95009],[22.97438,58.94872]]],[[[22.89968,58.8066],[22.89645,58.81061],[22.90194,58.81168],[22.89968,58.8066]]],[[[22.5925,58.1953],[22.58921,58.1979],[22.57877,58.19752],[22.57659,58.20317],[22.56773,58.20584],[22.56762,58.20866],[22.5702,58.21222],[22.58791,58.21225],[22.5991,58.20213],[22.5925,58.1953]]],[[[22.58169,58.21412],[22.57698,58.21738],[22.58976,58.22106],[22.59454,58.21947],[22.58169,58.21412]]],[[[22.53504,58.13379],[22.5419,58.14676],[22.54936,58.1459],[22.55065,58.14205],[22.53915,58.1391],[22.53504,58.13379]]],[[[22.50321,58.12483],[22.49922,58.13358],[22.48924,58.13817],[22.4909,58.14302],[22.47948,58.14213],[22.49366,58.15707],[22.49856,58.16981],[22.49454,58.17217],[22.50252,58.17757],[22.51661,58.17267],[22.51465,58.16655],[22.52241,58.16671],[22.52159,58.16271],[22.52565,58.16309],[22.52376,58.15312],[22.53733,58.14759],[22.50321,58.12483]]],[[[22.46437,58.13359],[22.46687,58.1415],[22.47744,58.15137],[22.47977,58.14903],[22.47352,58.13835],[22.46437,58.13359]]],[[[22.40481,58.97702],[22.39269,58.98406],[22.39719,58.98504],[22.40481,58.97702]]],[[[22.28365,58.51828],[22.27615,58.52039],[22.27679,58.52448],[22.28187,58.52289],[22.28365,58.51828]]],[[[21.92962,58.35942],[21.92638,58.36596],[21.93058,58.36823],[21.92501,58.3693],[21.92004,58.37522],[21.92998,58.37259],[21.93444,58.36692],[21.92962,58.35942]]],[[[21.91719,58.23701],[21.91333,58.2378],[21.91251,58.2437],[21.91805,58.24186],[21.91719,58.23701]]],[[[21.91004,58.37027],[21.8874,58.37545],[21.86415,58.37113],[21.8342,58.37197],[21.81488,58.379],[21.80846,58.38596],[21.85296,58.39181],[21.87235,58.38759],[21.87133,58.38555],[21.87617,58.38423],[21.88307,58.38751],[21.87513,58.39141],[21.87596,58.39537],[21.89433,58.38923],[21.90765,58.39553],[21.91174,58.3932],[21.91021,58.39065],[21.91557,58.38101],[21.90138,58.37894],[21.91267,58.37271],[21.91004,58.37027]]],[[[21.82968,58.39708],[21.82632,58.39941],[21.8356,58.40012],[21.82968,58.39708]]],[[[21.80321,58.3266],[21.78863,58.32759],[21.78097,58.33339],[21.77462,58.33203],[21.77229,58.33652],[21.77821,58.34032],[21.78789,58.33796],[21.80523,58.33004],[21.80321,58.3266]]],[[[21.7766,58.31166],[21.78015,58.31753],[21.79207,58.31797],[21.7766,58.31166]]],[[[21.76464,58.32095],[21.76424,58.32454],[21.76907,58.32348],[21.76464,58.32095]]]]}}]}