{"type":"FeatureCollection","features":[{"type":"Feature","properties":{"ISO_A3":"ETH","WB_A3":"ETH","WB_NAME":"Ethiopia","WB_REGION":"AFE,SSF"},"geometry":{"type":"MultiPolygon","coordinates":[[[[35.25708,11.9347],[35.26979,11.9442],[35.31071,12.04585],[35.6617,12.63659],[35.69837,12.67313],[35.70433,12.66929],[35.70814,12.67283],[35.71265,12.66822],[35.71778,12.67217],[35.72898,12.66989],[35.73664,12.6613],[35.73899,12.66345],[35.74156,12.66143],[35.73837,12.65947],[35.73981,12.65665],[35.75612,12.65974],[35.75895,12.6638],[35.76215,12.66197],[35.76508,12.66402],[35.76221,12.66773],[35.76894,12.67334],[35.77388,12.67194],[35.77248,12.6628],[36.00905,12.72423],[36.0263,12.71674],[36.04299,12.72061],[36.04847,12.72476],[36.05786,12.72182],[36.07494,12.72583],[36.07824,12.72274],[36.07635,12.72047],[36.09412,12.71264],[36.10247,12.69814],[36.09901,12.6892],[36.11825,12.68754],[36.15992,12.69718],[36.17637,12.90374],[36.1671,12.906],[36.16234,12.91199],[36.14941,12.91801],[36.14348,12.93656],[36.14662,12.94181],[36.14301,12.94723],[36.14671,12.94905],[36.14608,12.95389],[36.15184,12.9579],[36.15138,12.96122],[36.16333,12.9775],[36.1642,12.98229],[36.16101,12.98362],[36.1645,12.99408],[36.16135,12.99515],[36.16147,13.01753],[36.16849,13.01851],[36.17147,13.02341],[36.2824,13.37381],[36.38091,13.5295],[36.38247,13.53793],[36.38654,13.53926],[36.39085,13.54705],[36.40885,13.65902],[36.45172,13.77679],[36.45322,13.77386],[36.45629,13.77923],[36.46698,13.78076],[36.46998,13.79214],[36.47641,13.7988],[36.47831,13.81721],[36.4972,13.83482],[36.46565,13.97805],[36.5606,14.26079],[36.5663,14.26536],[36.56548,14.26989],[36.55824,14.27534],[36.55577,14.28409],[36.58314,14.29187],[36.59024,14.2861],[36.60564,14.29656],[36.61387,14.29594],[36.62573,14.31088],[36.63403,14.31235],[36.64989,14.30701],[36.66197,14.3109],[36.67606,14.30315],[36.69435,14.30112],[36.71576,14.31263],[36.72752,14.31286],[36.74083,14.32233],[36.76758,14.31891],[36.82891,14.31828],[36.83326,14.30866],[36.83586,14.31274],[36.83846,14.30985],[36.84189,14.31105],[36.85295,14.32214],[36.86666,14.32214],[36.88,14.31498],[36.89725,14.317],[36.90179,14.30849],[36.93389,14.30061],[36.94482,14.29346],[36.966,14.29482],[36.97255,14.29212],[36.97517,14.28581],[36.98343,14.28139],[36.99023,14.26665],[37.00392,14.26079],[37.01152,14.25275],[37.01851,14.25211],[37.03435,14.2595],[37.04288,14.26892],[37.04909,14.26996],[37.0659,14.26426],[37.07401,14.27043],[37.09224,14.27119],[37.09799,14.27618],[37.09884,14.28438],[37.10634,14.29132],[37.10718,14.29743],[37.10587,14.31453],[37.10903,14.32207],[37.10182,14.33283],[37.10381,14.34384],[37.11106,14.36069],[37.1167,14.36404],[37.11644,14.37165],[37.12581,14.38395],[37.13405,14.4083],[37.14552,14.41011],[37.15539,14.41869],[37.1658,14.42259],[37.17405,14.41672],[37.18649,14.42023],[37.19793,14.42544],[37.20969,14.43986],[37.22044,14.44479],[37.22924,14.44539],[37.24724,14.43325],[37.26107,14.44148],[37.2856,14.44216],[37.29153,14.44748],[37.31205,14.44779],[37.3137,14.43637],[37.3195,14.43084],[37.33412,14.42719],[37.33736,14.4165],[37.34127,14.41366],[37.34845,14.41594],[37.349,14.40283],[37.35847,14.39905],[37.36533,14.38695],[37.37305,14.38371],[37.37166,14.37388],[37.38168,14.37416],[37.38437,14.36487],[37.39188,14.36668],[37.38887,14.35871],[37.38019,14.35531],[37.38012,14.34375],[37.39376,14.34314],[37.39854,14.3382],[37.40321,14.33874],[37.40451,14.33466],[37.39977,14.32159],[37.40385,14.31409],[37.39458,14.30572],[37.39446,14.29991],[37.40752,14.28909],[37.41618,14.28858],[37.42579,14.27594],[37.43493,14.27308],[37.44047,14.2654],[37.44711,14.26278],[37.44667,14.25684],[37.45217,14.25084],[37.46159,14.25499],[37.4694,14.25458],[37.47132,14.23197],[37.46649,14.22061],[37.46727,14.21505],[37.47669,14.21446],[37.48171,14.20407],[37.4978,14.19558],[37.49521,14.18816],[37.49735,14.18319],[37.5074,14.18127],[37.51832,14.18596],[37.52139,14.18258],[37.52798,14.1841],[37.91268,14.89407],[37.92117,14.89184],[37.92263,14.88027],[37.94369,14.86241],[37.9445,14.85286],[37.94992,14.84753],[37.94888,14.83883],[37.95952,14.8376],[37.96166,14.8331],[37.96583,14.83262],[37.97075,14.81349],[37.96837,14.80175],[37.97265,14.80055],[37.98138,14.80987],[37.98579,14.80875],[37.9859,14.79974],[37.99085,14.79121],[37.9901,14.77704],[37.99403,14.77495],[38.00001,14.77786],[38.00199,14.76837],[38.01436,14.76762],[38.02182,14.76192],[38.01599,14.74351],[38.02811,14.73636],[38.04405,14.71918],[38.07705,14.71406],[38.09239,14.71622],[38.09627,14.71021],[38.1056,14.70763],[38.11007,14.69686],[38.13486,14.69122],[38.14152,14.67688],[38.15442,14.68165],[38.17191,14.68119],[38.18008,14.68515],[38.18646,14.6785],[38.18942,14.68274],[38.18898,14.69384],[38.19215,14.69509],[38.20564,14.68957],[38.21486,14.69248],[38.21919,14.6871],[38.23293,14.69143],[38.24231,14.68889],[38.25037,14.6789],[38.25713,14.6795],[38.26576,14.66877],[38.26516,14.66321],[38.26985,14.6543],[38.26706,14.64497],[38.2739,14.64026],[38.26922,14.62976],[38.27013,14.61756],[38.27994,14.61277],[38.29002,14.61492],[38.29085,14.61127],[38.29699,14.60835],[38.29615,14.59984],[38.31289,14.58932],[38.31897,14.57895],[38.31677,14.56848],[38.32181,14.55156],[38.33197,14.53819],[38.34017,14.53474],[38.3468,14.52664],[38.34691,14.51533],[38.35934,14.51329],[38.36406,14.4932],[38.3759,14.48551],[38.39098,14.48465],[38.39796,14.48734],[38.40149,14.47011],[38.42443,14.46974],[38.42407,14.46117],[38.42929,14.45271],[38.43346,14.43305],[38.44614,14.42879],[38.44718,14.41813],[38.45491,14.41355],[38.47689,14.4166],[38.48612,14.42427],[38.48719,14.42107],[38.50022,14.41483],[38.51062,14.41796],[38.5205,14.40773],[38.52547,14.41694],[38.54303,14.42573],[38.55513,14.42692],[38.55868,14.43116],[38.57001,14.4307],[38.5706,14.43572],[38.59702,14.44343],[38.60912,14.44401],[38.61677,14.43731],[38.62193,14.437],[38.63273,14.4451],[38.64743,14.44335],[38.65631,14.44964],[38.66743,14.45066],[38.66966,14.45652],[38.6775,14.45609],[38.69276,14.46562],[38.69978,14.46553],[38.70478,14.47092],[38.70817,14.4676],[38.73238,14.46219],[38.75328,14.46715],[38.75539,14.47246],[38.7636,14.46824],[38.77092,14.46852],[38.77377,14.47301],[38.79835,14.4677],[38.80985,14.47645],[38.82041,14.47929],[38.81703,14.48492],[38.81986,14.4881],[38.82581,14.48593],[38.83682,14.48916],[38.84987,14.50035],[38.87174,14.4977],[38.87341,14.50114],[38.88232,14.50032],[38.90044,14.5054],[38.92667,14.52869],[38.92492,14.53399],[38.92975,14.5383],[38.93332,14.53662],[38.93851,14.54056],[38.95331,14.53524],[38.95685,14.54073],[38.97871,14.5461],[38.98301,14.55608],[38.99223,14.56329],[39.00372,14.57977],[39.00376,14.58923],[39.01712,14.59659],[39.01877,14.61118],[39.01314,14.61809],[39.01333,14.62332],[39.03207,14.63896],[39.03654,14.63953],[39.03954,14.63434],[39.04951,14.63665],[39.05184,14.64047],[39.063,14.64119],[39.07576,14.63674],[39.08147,14.6378],[39.08322,14.64141],[39.09036,14.63561],[39.09906,14.63578],[39.11233,14.646],[39.11735,14.64699],[39.12954,14.64155],[39.13817,14.6501],[39.15468,14.65325],[39.16915,14.64937],[39.158,14.63444],[39.15739,14.60833],[39.17628,14.59194],[39.17817,14.58461],[39.20528,14.56533],[39.24115,14.56325],[39.24327,14.55588],[39.24122,14.54477],[39.24851,14.54182],[39.24667,14.53529],[39.24928,14.53494],[39.25373,14.52223],[39.26103,14.51652],[39.26595,14.48459],[39.25817,14.48104],[39.24497,14.46533],[39.23826,14.46171],[39.2359,14.45441],[39.22781,14.44968],[39.22889,14.44635],[39.23171,14.44765],[39.23153,14.44215],[39.23837,14.43384],[39.24321,14.41486],[39.25495,14.41031],[39.26577,14.41328],[39.27313,14.43678],[39.30133,14.46992],[39.32497,14.47075],[39.34644,14.46625],[39.32864,14.49394],[39.35247,14.48322],[39.36003,14.48331],[39.35756,14.49644],[39.36639,14.49519],[39.35594,14.50883],[39.3605,14.51539],[39.35792,14.52753],[39.36094,14.53319],[39.36864,14.52658],[39.37311,14.5395],[39.39147,14.53889],[39.39772,14.54339],[39.40336,14.53703],[39.40614,14.52592],[39.41744,14.5265],[39.41917,14.51361],[39.4335,14.51608],[39.44758,14.50531],[39.46667,14.50756],[39.47286,14.50017],[39.48944,14.50519],[39.49364,14.50233],[39.49602,14.48379],[39.51019,14.48777],[39.51671,14.48434],[39.52692,14.48588],[39.52968,14.49154],[39.53742,14.49172],[39.54059,14.49734],[39.53695,14.5011],[39.51891,14.50834],[39.5068,14.52121],[39.50963,14.55171],[39.51756,14.56069],[39.52931,14.56653],[39.53207,14.58383],[39.5436,14.58882],[39.54969,14.58716],[39.56095,14.59811],[39.56594,14.59673],[39.57893,14.60183],[39.57911,14.60575],[39.58267,14.6049],[39.58701,14.60884],[39.5889,14.60411],[39.59339,14.607],[39.59397,14.603],[39.60457,14.60249],[39.60699,14.60528],[39.61466,14.59677],[39.61942,14.60028],[39.62342,14.59821],[39.6263,14.60337],[39.63125,14.60008],[39.64331,14.60473],[39.64592,14.59821],[39.6535,14.59671],[39.65848,14.59193],[39.66586,14.59288],[39.66957,14.59798],[39.67641,14.58937],[39.68102,14.59277],[39.68755,14.59122],[39.69078,14.58005],[39.69951,14.57463],[39.70265,14.56518],[39.71325,14.5557],[39.71838,14.55686],[39.73164,14.55059],[39.75891,14.54966],[39.77101,14.54505],[39.77038,14.53649],[39.77734,14.5335],[39.79033,14.51138],[39.79686,14.51067],[39.79475,14.50294],[39.8059,14.50281],[39.81546,14.48656],[39.82091,14.48379],[39.83702,14.49097],[39.84945,14.48065],[39.87207,14.46897],[39.88834,14.4553],[39.90319,14.43428],[39.92288,14.41613],[39.9304,14.41383],[39.94717,14.41383],[39.97187,14.42818],[39.9749,14.43233],[39.97484,14.44096],[39.98386,14.4465],[39.98845,14.45501],[40.00895,14.44914],[40.01213,14.45361],[40.0141,14.47179],[40.01947,14.47473],[40.02201,14.47161],[40.0299,14.47643],[40.04038,14.49414],[40.04461,14.49392],[40.04214,14.50139],[40.03652,14.50421],[40.03793,14.50808],[40.06679,14.53312],[40.06954,14.54072],[40.0858,14.54296],[40.10034,14.54993],[40.12806,14.54752],[40.13621,14.54474],[40.14153,14.53885],[40.14753,14.53925],[40.21333,14.38667],[40.2595,14.41147],[40.37417,14.35442],[40.45175,14.30744],[40.57311,14.269],[40.68742,14.22472],[40.80872,14.17242],[40.87314,14.13478],[40.94217,14.08164],[40.99461,14.01544],[41.07031,13.89133],[41.11578,13.82786],[41.16994,13.72889],[41.30736,13.57956],[41.40172,13.50247],[41.44703,13.4885],[41.50433,13.447],[41.64378,13.38553],[41.66725,13.32389],[41.72097,13.27547],[41.73558,13.23664],[41.81514,13.16153],[41.89108,13.07342],[41.92808,13.00944],[41.96628,12.92456],[42.02706,12.86744],[42.05639,12.80122],[42.13194,12.7775],[42.21833,12.765],[42.27872,12.63531],[42.40428,12.46864],[42.33712,12.37925],[42.31509,12.30791],[42.24496,12.24656],[42.18199,12.14574],[42.15931,12.11704],[42.14964,12.07868],[42.14496,12.07071],[42.13723,12.07989],[42.12004,12.04727],[42.09328,12.00901],[42.06759,11.98132],[42.04156,11.93808],[41.97264,11.83925],[41.96699,11.83724],[41.94768,11.81126],[41.8975,11.79299],[41.89115,11.75632],[41.83524,11.73283],[41.81075,11.65912],[41.80968,11.63876],[41.80335,11.63133],[41.80383,11.60866],[41.79948,11.59358],[41.80135,11.57424],[41.78526,11.54579],[41.77797,11.51265],[41.77104,11.49576],[41.80255,11.36452],[41.80998,11.2778],[41.79601,11.00672],[41.78772,10.99764],[41.7859,10.98694],[41.79297,10.98204],[41.78779,10.97801],[41.81153,10.97269],[41.82143,10.96747],[41.81889,10.96467],[41.85763,10.95917],[41.87387,10.95361],[41.87397,10.95085],[41.88102,10.95198],[41.91493,10.94174],[41.95049,10.9401],[41.93802,10.9344],[41.93795,10.92719],[41.94282,10.92427],[41.9459,10.91312],[41.95546,10.91982],[41.9664,10.91398],[41.97052,10.91618],[41.96889,10.92358],[41.97581,10.93051],[42.00179,10.92096],[42.03092,10.92988],[42.06357,10.92621],[42.07011,10.92781],[42.07328,10.93498],[42.072,10.9468],[42.07661,10.95713],[42.09245,10.96158],[42.10596,10.9571],[42.10972,10.96936],[42.13402,10.97223],[42.13809,10.97959],[42.1484,10.98248],[42.15119,10.98012],[42.14524,10.97657],[42.1469,10.97326],[42.14996,10.97285],[42.15239,10.97744],[42.16081,10.97233],[42.16148,10.97913],[42.1779,10.97723],[42.19838,10.97362],[42.19458,10.96724],[42.19835,10.96491],[42.27679,10.97664],[42.2898,10.98956],[42.31608,10.99391],[42.32329,10.98971],[42.34588,11.00158],[42.35469,10.99703],[42.3649,10.9982],[42.42134,10.98261],[42.49508,11.03503],[42.60841,11.07153],[42.6099,11.08361],[42.61353,11.08334],[42.6279,11.09539],[42.63405,11.09622],[42.64763,11.09182],[42.65566,11.07765],[42.66,11.08034],[42.68395,11.06367],[42.69021,11.05517],[42.69514,11.05865],[42.7123,11.06058],[42.72129,11.06693],[42.73301,11.06993],[42.73925,11.06567],[42.74557,11.06933],[42.7466,11.07751],[42.75043,11.08055],[42.76081,11.07314],[42.76257,11.06152],[42.77055,11.05859],[42.77589,11.04142],[42.78326,11.03476],[42.78645,11.01866],[42.78248,11.009],[42.79007,10.98797],[42.83816,10.98244],[42.84583,10.9843],[42.85458,10.97933],[42.85839,10.98361],[42.86323,10.97611],[42.86818,10.97572],[42.8657,10.97199],[42.86818,10.96991],[42.87966,10.97501],[42.88313,10.9708],[42.89035,10.97023],[42.90153,10.9714],[42.90296,10.97484],[42.90632,10.97313],[42.91031,10.97658],[42.91563,10.9755],[42.92988,10.9835],[42.93557,10.99201],[42.95345,10.99271],[42.96722,10.99722],[42.93065,10.94059],[42.93422,10.92035],[42.91601,10.89331],[42.91323,10.88148],[42.89495,10.87029],[42.88984,10.85985],[42.87566,10.86083],[42.86787,10.85508],[42.85753,10.85311],[42.83008,10.79091],[42.79997,10.75731],[42.77398,10.73606],[42.75476,10.71082],[42.71428,10.6377],[42.67008,10.62381],[42.67073,10.61893],[42.6988,10.57226],[42.69795,10.55417],[42.70427,10.54236],[42.72465,10.52407],[42.73608,10.52291],[42.7431,10.51532],[42.74091,10.50976],[42.74371,10.50185],[42.76095,10.48938],[42.7682,10.4877],[42.77645,10.47785],[42.78677,10.47403],[42.78929,10.45944],[42.79832,10.45271],[42.79871,10.37277],[42.8015,10.35785],[42.79917,10.34863],[42.81055,10.34469],[42.81324,10.33235],[42.85184,10.25214],[42.85584,10.23805],[42.85458,10.21813],[42.85965,10.21412],[42.86557,10.21445],[42.86859,10.20842],[42.886,10.20173],[42.88394,10.19414],[42.8924,10.18709],[42.91737,10.17549],[42.93514,10.14661],[42.94389,10.13786],[42.96476,10.12809],[43.00903,10.08645],[43.08745,9.90259],[43.11603,9.8868],[43.14039,9.88894],[43.14169,9.89995],[43.14894,9.89892],[43.1642,9.88776],[43.17887,9.88884],[43.25053,9.84669],[43.25498,9.84676],[43.27883,9.70102],[43.29879,9.60658],[43.32793,9.60318],[43.36285,9.57938],[43.3827,9.56056],[43.39465,9.55583],[43.41032,9.52868],[43.41335,9.50386],[43.42578,9.47905],[43.43136,9.47368],[43.43874,9.44678],[43.44268,9.43975],[43.45187,9.43334],[43.46229,9.41636],[43.47641,9.40982],[43.48763,9.39741],[43.50893,9.3883],[43.52061,9.37967],[43.54493,9.37751],[43.55547,9.37003],[43.56726,9.36995],[43.59223,9.35933],[43.64297,9.35678],[43.99531,9.00319],[45.89394,8.37458],[47.00103,8.00114],[48.00106,8.00131],[46.99907,6.99932],[46.65928,6.66378],[45.99488,5.99547],[45.0584,5.00631],[44.99895,4.93955],[44.97045,4.91329],[44.01035,4.95929],[43.63497,4.8546],[43.45008,4.78636],[43.32577,4.73632],[43.21594,4.68338],[43.08161,4.60701],[43.04903,4.58091],[43.035,4.56266],[43.01572,4.52164],[42.99907,4.46536],[42.97,4.41095],[42.93295,4.35844],[42.89128,4.31578],[42.84414,4.28351],[42.80341,4.27061],[42.76411,4.26462],[42.7176,4.26242],[42.6764,4.25413],[42.62674,4.23868],[42.59451,4.22335],[42.54076,4.2108],[42.46305,4.20729],[42.42181,4.20183],[42.38654,4.19246],[42.1932,4.19142],[42.07975,4.17932],[42.07559,4.17462],[42.07348,4.16238],[42.05904,4.15552],[42.06084,4.1483],[42.05531,4.14819],[42.05227,4.14023],[42.04534,4.13625],[42.04152,4.14283],[42.03779,4.14042],[42.0341,4.12562],[42.02382,4.12435],[42.02111,4.11126],[42.0027,4.11339],[42.0016,4.09985],[41.99075,4.10553],[41.98602,4.09889],[41.97989,4.09734],[41.98125,4.09175],[41.97716,4.08865],[41.98083,4.08024],[41.97899,4.0787],[41.9711,4.08335],[41.9568,4.06106],[41.9509,4.06294],[41.94638,4.05216],[41.95153,4.04343],[41.95275,4.0245],[41.94657,4.02192],[41.94433,4.00872],[41.93533,4.00094],[41.92581,4.00132],[41.92457,3.99588],[41.91503,3.99684],[41.91033,3.98497],[41.90209,3.97865],[41.89345,3.98262],[41.8785,3.97313],[41.87714,3.96762],[41.87196,3.96791],[41.87059,3.96394],[41.86722,3.96339],[41.86589,3.96722],[41.86098,3.96089],[41.85129,3.96197],[41.8512,3.95281],[41.84698,3.94993],[41.84224,3.95104],[41.84171,3.95445],[41.8328,3.95596],[41.83364,3.9472],[41.8254,3.95384],[41.82191,3.94912],[41.81716,3.95267],[41.81957,3.9599],[41.79749,3.95855],[41.79019,3.97939],[41.78432,3.97693],[41.78072,3.98176],[41.77715,3.98151],[41.77462,3.97459],[41.7692,3.97261],[41.76315,3.97562],[41.75227,3.97263],[41.75228,3.98243],[41.73807,3.98656],[41.73412,3.98367],[41.72547,3.989],[41.72096,3.98677],[41.71756,3.9948],[41.71193,3.98527],[41.70378,3.98634],[41.70106,3.98241],[41.69106,3.97974],[41.68875,3.97115],[41.68612,3.97005],[41.68459,3.97547],[41.68207,3.9751],[41.67571,3.9588],[41.66926,3.96801],[41.66731,3.96509],[41.66168,3.96801],[41.65569,3.96553],[41.65361,3.96954],[41.6438,3.97319],[41.64351,3.97737],[41.64006,3.97867],[41.637,3.97566],[41.63588,3.98521],[41.63237,3.97929],[41.62692,3.98304],[41.61681,3.97324],[41.60312,3.97557],[41.59165,3.97044],[41.58088,3.97326],[41.56957,3.968],[41.551,3.98391],[41.52858,3.97287],[41.52366,3.95954],[41.5173,3.9542],[41.51006,3.95419],[41.50986,3.96274],[41.50599,3.9677],[41.50205,3.96767],[41.49986,3.96283],[41.47865,3.96452],[41.4783,3.95552],[41.47374,3.96009],[41.46757,3.95569],[41.45768,3.96106],[41.44605,3.9551],[41.43784,3.95889],[41.43501,3.95762],[41.43629,3.95057],[41.41992,3.94897],[41.3913,3.9648],[41.38627,3.95791],[41.37908,3.95875],[41.38134,3.95431],[41.3784,3.95112],[41.3686,3.95622],[41.36388,3.95401],[41.36174,3.95937],[41.35482,3.9598],[41.35148,3.9469],[41.34603,3.94849],[41.33789,3.94251],[41.33224,3.94429],[41.32628,3.93933],[41.31649,3.94183],[41.3125,3.94638],[41.30492,3.9455],[41.29928,3.95282],[41.29598,3.95239],[41.29749,3.94553],[41.28282,3.94406],[41.28057,3.94623],[41.28383,3.95077],[41.28046,3.95178],[41.27686,3.94749],[41.26539,3.95794],[41.25686,3.95457],[41.25139,3.95606],[41.2461,3.95182],[41.24329,3.96143],[41.23264,3.95118],[41.22949,3.95544],[41.21875,3.95653],[41.21772,3.94955],[41.21018,3.94868],[41.20936,3.93732],[41.19671,3.93798],[41.19085,3.9436],[41.18664,3.94264],[41.17985,3.9471],[41.17363,3.94587],[41.16683,3.95446],[41.16234,3.95379],[41.15195,3.9619],[41.13899,3.96484],[41.13815,3.96865],[41.13139,3.9686],[41.12597,3.97402],[41.12662,3.98106],[41.11722,3.99244],[41.11478,3.99312],[41.11188,3.98847],[41.10299,3.99287],[41.09904,4.00216],[41.10179,4.01016],[41.08251,4.01746],[41.07754,4.0274],[41.06899,4.02816],[41.06406,4.04532],[41.04602,4.06159],[41.03676,4.07875],[41.02716,4.07639],[41.02497,4.08395],[41.01507,4.08641],[40.99791,4.11286],[40.98106,4.11533],[40.97374,4.13143],[40.95913,4.13882],[40.95572,4.14512],[40.9435,4.14821],[40.93999,4.15239],[40.93131,4.14977],[40.91544,4.1575],[40.90558,4.15759],[40.89719,4.18611],[40.88361,4.19768],[40.88402,4.21406],[40.86817,4.22825],[40.85236,4.23013],[40.8462,4.24904],[40.83765,4.25271],[40.83176,4.2499],[40.82244,4.25303],[40.80553,4.26129],[40.80227,4.26637],[40.78978,4.26923],[40.781,4.28325],[40.75603,4.28441],[40.74232,4.26532],[40.73349,4.26218],[40.72507,4.25357],[40.69827,4.25071],[40.69522,4.24444],[40.39985,4.12533],[40.39243,4.11705],[40.38241,4.11814],[40.20472,4.04607],[40.19468,4.05107],[40.18857,4.04879],[40.18234,4.03575],[40.16137,4.02475],[40.15559,4.01715],[40.14822,4.01797],[39.86573,3.87053],[39.77299,3.67145],[39.60687,3.5037],[39.58811,3.49206],[39.55342,3.40469],[39.52902,3.40612],[39.51445,3.41383],[39.49873,3.46842],[39.49302,3.47148],[39.48249,3.46331],[39.4706,3.46505],[39.46951,3.46278],[39.4644,3.464],[39.46324,3.45991],[39.45652,3.46008],[39.44403,3.46455],[39.44087,3.45944],[39.43594,3.46001],[39.43455,3.46418],[39.42926,3.4617],[39.42719,3.46988],[39.41554,3.46457],[39.41214,3.4703],[39.40246,3.46729],[39.37482,3.47128],[39.33168,3.46967],[39.33529,3.48396],[39.333,3.50352],[39.32817,3.50617],[39.31885,3.50372],[39.31571,3.49567],[39.30376,3.48258],[39.2965,3.47999],[39.28479,3.48438],[39.26508,3.47577],[39.25433,3.4811],[39.22835,3.48256],[39.22475,3.48601],[39.18993,3.48425],[39.18839,3.49791],[39.17792,3.4938],[39.17149,3.49522],[39.15004,3.50528],[39.14805,3.50711],[39.15075,3.51411],[39.12998,3.51569],[39.10372,3.5275],[39.08718,3.54464],[39.07861,3.54518],[39.07756,3.53637],[39.0678,3.53451],[39.0551,3.52677],[39.0458,3.52722],[39.03592,3.53275],[39.03258,3.52877],[39.02065,3.52801],[39.01976,3.51718],[39.00786,3.52327],[39.00302,3.5315],[38.99737,3.52377],[38.96557,3.53532],[38.95641,3.52898],[38.95602,3.52002],[38.90267,3.51686],[38.8455,3.5373],[38.71251,3.57658],[38.70975,3.58666],[38.68343,3.62917],[38.67924,3.63032],[38.67018,3.62619],[38.67375,3.6134],[38.66326,3.59787],[38.62073,3.6089],[38.61764,3.60726],[38.61169,3.61761],[38.60195,3.61082],[38.57602,3.60944],[38.55537,3.61998],[38.55517,3.62854],[38.54794,3.64678],[38.53621,3.65944],[38.51671,3.65826],[38.51324,3.65531],[38.51994,3.64688],[38.51946,3.63333],[38.44571,3.60708],[38.18159,3.62473],[38.13328,3.61493],[38.12716,3.61041],[38.10337,3.635],[38.05309,3.67444],[38.04498,3.6764],[38.04066,3.687],[38.03015,3.69226],[38.02256,3.70162],[38.01143,3.71833],[38.00695,3.73121],[37.99112,3.73424],[37.9177,3.77558],[37.68687,3.92881],[37.64847,3.95523],[37.64753,3.95956],[37.42224,4.11383],[37.40959,4.11956],[37.13577,4.29789],[37.12731,4.2975],[37.11485,4.3066],[37.10632,4.31835],[37.09857,4.33721],[37.09282,4.33861],[37.08811,4.34641],[37.07818,4.35118],[37.06172,4.3526],[37.0527,4.36436],[37.0517,4.3712],[37.03381,4.38528],[37.02771,4.38741],[37.01924,4.37552],[37.00673,4.38352],[37.00008,4.38301],[36.98443,4.39763],[36.96761,4.40296],[36.9608,4.40055],[36.95761,4.40679],[36.90904,4.42744],[36.87884,4.43459],[36.84345,4.45186],[36.68046,4.44443],[36.66092,4.44525],[36.64469,4.45677],[36.62511,4.45754],[36.54735,4.44821],[36.26292,4.45313],[36.24729,4.45914],[36.23418,4.45356],[36.05009,4.45689],[35.9396,4.55127],[35.962,4.5676],[35.96184,4.58006],[35.9382,4.58694],[35.949,4.63104],[35.80931,4.79069],[35.81823,5.1032],[35.83003,5.12051],[35.83793,5.12341],[35.84988,5.1481],[35.85599,5.14939],[35.85828,5.15316],[35.8658,5.1839],[35.85522,5.1979],[35.85462,5.21304],[35.84854,5.21513],[35.83953,5.2327],[35.82623,5.2493],[35.82875,5.2632],[35.84101,5.27819],[35.84658,5.27922],[35.85302,5.29117],[35.85908,5.29008],[35.85725,5.29541],[35.86367,5.30139],[35.86229,5.32029],[35.85259,5.32587],[35.83962,5.32831],[35.84021,5.33592],[35.8297,5.3383],[35.82192,5.33563],[35.81743,5.3434],[35.80515,5.34771],[35.7991,5.34564],[35.78976,5.34769],[35.78162,5.35627],[35.77657,5.35491],[35.77292,5.35763],[35.7714,5.35393],[35.77528,5.34985],[35.7727,5.34892],[35.75444,5.35988],[35.75156,5.36687],[35.75576,5.36811],[35.75202,5.37358],[35.74565,5.37194],[35.73594,5.37961],[35.73155,5.37502],[35.72801,5.37436],[35.7259,5.37839],[35.72472,5.37487],[35.72229,5.37591],[35.72522,5.38067],[35.72412,5.3864],[35.7205,5.38805],[35.71774,5.38557],[35.71792,5.39202],[35.70582,5.38914],[35.70029,5.39397],[35.68927,5.38858],[35.68623,5.3905],[35.67333,5.38608],[35.66522,5.38873],[35.66167,5.38614],[35.655,5.38882],[35.65531,5.39435],[35.65032,5.39419],[35.63936,5.38642],[35.63467,5.38794],[35.62666,5.38289],[35.62414,5.38547],[35.62085,5.38201],[35.61786,5.38673],[35.62004,5.39327],[35.61796,5.40399],[35.60511,5.40396],[35.6068,5.4007],[35.59887,5.39958],[35.58996,5.40885],[35.59162,5.41419],[35.58867,5.41324],[35.58533,5.4193],[35.57925,5.41635],[35.57182,5.41778],[35.56679,5.41204],[35.55866,5.41516],[35.55581,5.41299],[35.54497,5.417],[35.54402,5.42107],[35.53774,5.4238],[35.5284,5.42078],[35.52538,5.42258],[35.52442,5.41883],[35.50699,5.42322],[35.49798,5.41686],[35.48944,5.41873],[35.47852,5.41133],[35.47304,5.41243],[35.4556,5.39264],[35.45202,5.39021],[35.45101,5.39357],[35.4484,5.39288],[35.44246,5.38461],[35.42696,5.37348],[35.41488,5.37055],[35.41178,5.36455],[35.39011,5.36164],[35.38936,5.35828],[35.37697,5.3589],[35.37562,5.3559],[35.33626,5.34493],[35.31601,5.33482],[35.31654,5.34325],[35.31,5.34948],[35.30197,5.34951],[35.2963,5.3618],[35.29727,5.36636],[35.28873,5.38151],[35.29123,5.39744],[35.29422,5.39895],[35.29303,5.42802],[35.2991,5.43502],[35.30798,5.45858],[35.30706,5.48417],[35.3145,5.49823],[35.12603,5.62442],[35.13015,5.68745],[35.04131,5.838],[35.00627,5.88993],[34.99766,5.89697],[35.00529,5.89689],[35.0106,5.90795],[35.01128,5.9184],[34.99865,5.93471],[34.99081,5.95321],[34.99585,5.9759],[35.00615,5.99211],[35.00908,6.00731],[35.00619,6.02214],[35.00081,6.02694],[35.0018,6.03051],[34.99328,6.03653],[34.99601,6.03867],[34.99448,6.04254],[35.00109,6.07126],[35.0049,6.07566],[34.99533,6.08229],[34.99082,6.07936],[34.98963,6.087],[34.98416,6.092],[34.97625,6.09024],[34.97589,6.08697],[34.97159,6.08929],[34.97301,6.10548],[34.97147,6.11451],[34.96504,6.11955],[34.96353,6.12621],[34.96762,6.12966],[34.96436,6.14048],[34.9702,6.15192],[34.96755,6.16003],[34.97197,6.1713],[34.97039,6.17516],[34.97777,6.17562],[34.97826,6.18696],[34.97502,6.18749],[34.97163,6.21288],[34.96088,6.23067],[34.96348,6.23748],[34.95617,6.23972],[34.9504,6.2464],[34.95279,6.25194],[34.96154,6.25335],[34.96445,6.25802],[34.9639,6.27877],[34.96114,6.28344],[34.96806,6.28828],[34.97048,6.30169],[34.97391,6.30751],[34.98859,6.31578],[34.98598,6.31953],[34.99216,6.3288],[34.98952,6.33604],[34.99127,6.34364],[35.00059,6.35011],[34.99749,6.36143],[34.99333,6.3621],[34.9898,6.37803],[34.99247,6.38132],[34.99004,6.38655],[34.99169,6.39366],[35.01206,6.40712],[35.01206,6.42496],[35.01684,6.43418],[35.02188,6.43444],[35.02148,6.44266],[35.01745,6.45009],[35.01781,6.46428],[35.00834,6.47569],[35.00144,6.4758],[34.99298,6.48348],[34.98223,6.48627],[34.98033,6.49203],[34.98269,6.49362],[34.97111,6.50742],[34.9586,6.5059],[34.96045,6.51892],[34.9519,6.52443],[34.95269,6.53459],[34.94391,6.53805],[34.94552,6.54946],[34.93895,6.55823],[34.92776,6.55643],[34.92253,6.56293],[34.91377,6.56569],[34.90842,6.5715],[34.91182,6.58015],[34.90551,6.58083],[34.89783,6.57702],[34.89082,6.57898],[34.88318,6.58926],[34.88852,6.59165],[34.89019,6.60026],[34.87817,6.60737],[34.87063,6.60452],[34.86462,6.61116],[34.85172,6.60945],[34.84066,6.60133],[34.8157,6.60707],[34.80791,6.60486],[34.79298,6.5965],[34.79275,6.58944],[34.78598,6.59067],[34.77699,6.59967],[34.77691,6.60349],[34.76779,6.59486],[34.7661,6.60877],[34.7493,6.62273],[34.73967,6.63932],[34.72745,6.64108],[34.727,6.6466],[34.7143,6.65452],[34.71726,6.65725],[34.70579,6.67435],[34.71138,6.68341],[34.70947,6.68672],[34.68557,6.69997],[34.67728,6.70058],[34.66975,6.71365],[34.66062,6.71474],[34.65216,6.73278],[34.64298,6.73652],[34.64068,6.74057],[34.62455,6.74347],[34.62401,6.73154],[34.62193,6.72491],[34.61831,6.72351],[34.61173,6.72641],[34.60697,6.73341],[34.58732,6.72899],[34.58475,6.73203],[34.58174,6.72964],[34.57905,6.73405],[34.57323,6.73142],[34.57219,6.73585],[34.56778,6.73317],[34.56528,6.73962],[34.55573,6.73512],[34.55302,6.73769],[34.54958,6.73585],[34.54973,6.74306],[34.54312,6.74381],[34.5456,6.74892],[34.54365,6.74969],[34.53841,6.74487],[34.53485,6.74813],[34.53104,6.74534],[34.52966,6.75547],[34.53695,6.75639],[34.53855,6.75966],[34.53438,6.76222],[34.53709,6.77504],[34.53387,6.7772],[34.5356,6.78344],[34.53102,6.79005],[34.53531,6.79294],[34.5347,6.79797],[34.54181,6.79964],[34.53901,6.80398],[34.53283,6.8025],[34.53769,6.81068],[34.53457,6.81358],[34.54281,6.81778],[34.5344,6.8235],[34.53677,6.82823],[34.53091,6.82775],[34.53273,6.83233],[34.52918,6.83669],[34.53371,6.83809],[34.52688,6.84013],[34.52728,6.84523],[34.5228,6.84784],[34.53035,6.85288],[34.52641,6.86058],[34.52025,6.86238],[34.51311,6.85619],[34.51075,6.85756],[34.51034,6.8608],[34.51385,6.86129],[34.5112,6.86798],[34.51644,6.86743],[34.51161,6.8765],[34.50554,6.87967],[34.50811,6.88199],[34.50479,6.88372],[34.50096,6.88013],[34.49605,6.88699],[34.48709,6.89084],[34.48065,6.90528],[34.47841,6.90668],[34.4779,6.90282],[34.46824,6.91171],[34.4726,6.915],[34.46983,6.9191],[34.46893,6.91396],[34.46053,6.91172],[34.46034,6.92041],[34.45649,6.92287],[34.44905,6.91722],[34.43799,6.91783],[34.43562,6.91216],[34.4324,6.9166],[34.43022,6.91442],[34.43426,6.90929],[34.43241,6.9079],[34.42824,6.91221],[34.4239,6.91077],[34.42817,6.92],[34.42496,6.91556],[34.4215,6.91952],[34.41408,6.91692],[34.40187,6.92318],[34.39791,6.92046],[34.39332,6.92374],[34.38952,6.92029],[34.38333,6.92031],[34.38321,6.91143],[34.37363,6.91257],[34.36611,6.91602],[34.36457,6.92166],[34.35903,6.91712],[34.35261,6.92406],[34.34541,6.92345],[34.34167,6.93015],[34.34067,6.92161],[34.33828,6.92455],[34.33416,6.92133],[34.33268,6.92507],[34.32512,6.92825],[34.32633,6.93943],[34.32084,6.93918],[34.31948,6.93572],[34.31124,6.9506],[34.31011,6.94316],[34.30515,6.94357],[34.30217,6.94944],[34.30066,6.94648],[34.29259,6.94858],[34.29767,6.95448],[34.29759,6.95748],[34.29378,6.95852],[34.29636,6.96258],[34.29386,6.96488],[34.2951,6.96982],[34.30044,6.96419],[34.30213,6.96692],[34.29914,6.97174],[34.30535,6.97788],[34.28702,6.98141],[34.28314,6.99247],[34.27778,6.98846],[34.27479,6.99086],[34.27486,6.99798],[34.26747,6.99749],[34.27603,7.00172],[34.27538,7.00471],[34.26832,7.00227],[34.25634,7.01191],[34.23723,7.00206],[34.23163,7.00448],[34.23259,7.01212],[34.22797,7.01201],[34.22303,7.01782],[34.21959,7.01646],[34.21938,7.0215],[34.22372,7.02226],[34.22352,7.0295],[34.21813,7.03075],[34.22226,7.03628],[34.22095,7.03868],[34.21584,7.0356],[34.2079,7.03612],[34.19212,7.04279],[34.19653,7.04798],[34.19324,7.05679],[34.19801,7.06487],[34.18811,7.07846],[34.19143,7.08085],[34.18879,7.0868],[34.19194,7.09332],[34.19907,7.09533],[34.19108,7.10521],[34.19265,7.11519],[34.18945,7.11667],[34.19519,7.11996],[34.19042,7.13136],[34.18434,7.13528],[34.17844,7.13439],[34.16006,7.14778],[34.14252,7.14731],[34.13571,7.15925],[34.12578,7.16754],[34.115,7.16837],[34.11027,7.1722],[34.10337,7.17096],[34.09752,7.18311],[34.10192,7.18733],[34.10136,7.19336],[34.09442,7.19301],[34.09287,7.19872],[34.08695,7.19973],[34.07245,7.21865],[34.06614,7.22204],[34.06422,7.21859],[34.06731,7.21619],[34.06341,7.21412],[34.06133,7.21933],[34.04853,7.22605],[34.04673,7.22256],[34.03976,7.2229],[34.03778,7.2266],[34.03998,7.23044],[34.03171,7.23991],[34.03326,7.24416],[34.02402,7.24384],[34.02107,7.24708],[34.01965,7.25474],[34.01578,7.25636],[34.01194,7.26518],[34.01274,7.27095],[34.02386,7.26427],[34.03052,7.27048],[34.03912,7.27174],[34.04137,7.27588],[34.03146,7.31026],[34.03398,7.31636],[34.02959,7.33095],[34.03672,7.35675],[34.01872,7.37698],[34.00788,7.38167],[34.00428,7.39034],[34.00827,7.40068],[34.00426,7.4185],[33.97898,7.4433],[33.97213,7.44364],[33.96246,7.45024],[33.95895,7.44843],[33.9559,7.45903],[33.95731,7.46918],[33.9462,7.46916],[33.9403,7.47471],[33.92823,7.47235],[33.92561,7.47449],[33.92977,7.48288],[33.91729,7.49275],[33.91626,7.49756],[33.9078,7.50035],[33.90499,7.51017],[33.89961,7.51274],[33.89939,7.51941],[33.90582,7.52583],[33.89881,7.53894],[33.87939,7.54824],[33.87227,7.54646],[33.8669,7.55849],[33.86076,7.56089],[33.8502,7.55933],[33.83084,7.56464],[33.82046,7.56305],[33.81233,7.57303],[33.80469,7.57289],[33.79953,7.58045],[33.7857,7.5873],[33.78004,7.59548],[33.7805,7.60133],[33.76282,7.60682],[33.76285,7.61124],[33.75324,7.62249],[33.74049,7.62169],[33.73688,7.63237],[33.73387,7.63335],[33.73616,7.63946],[33.72357,7.65701],[33.71834,7.656],[33.71535,7.66327],[33.70217,7.66143],[33.69454,7.66619],[33.68864,7.66457],[33.68781,7.67052],[33.67908,7.67116],[33.67372,7.68026],[33.66729,7.67996],[33.66648,7.68569],[33.64686,7.69352],[33.64135,7.69383],[33.63607,7.68895],[33.63177,7.69357],[33.62114,7.69634],[33.60311,7.69044],[33.59086,7.69407],[33.58106,7.68909],[33.57037,7.69285],[33.56707,7.69872],[33.5561,7.69976],[33.54898,7.69746],[33.55037,7.69444],[33.5424,7.6937],[33.5385,7.69749],[33.54109,7.70332],[33.53726,7.70969],[33.52949,7.71643],[33.52127,7.71752],[33.52439,7.71971],[33.52253,7.72537],[33.52474,7.72792],[33.51819,7.73102],[33.51439,7.72947],[33.51797,7.73554],[33.51498,7.73665],[33.5095,7.73212],[33.50406,7.73362],[33.50388,7.72979],[33.49927,7.73279],[33.50072,7.7357],[33.49725,7.74143],[33.49293,7.73506],[33.48422,7.73582],[33.4825,7.74659],[33.47386,7.74729],[33.46978,7.75217],[33.46816,7.74936],[33.46309,7.75351],[33.46059,7.75236],[33.46346,7.7466],[33.45774,7.74385],[33.4537,7.74592],[33.45448,7.73807],[33.44289,7.74449],[33.44473,7.74741],[33.44739,7.74466],[33.44934,7.74655],[33.44661,7.75025],[33.43912,7.74777],[33.43444,7.75333],[33.43529,7.75677],[33.42917,7.75487],[33.42526,7.75696],[33.42888,7.75096],[33.42389,7.74939],[33.41818,7.73795],[33.41555,7.74069],[33.40042,7.73798],[33.40329,7.73412],[33.39973,7.73],[33.39761,7.73305],[33.39288,7.73131],[33.38929,7.74213],[33.38399,7.73897],[33.3809,7.74301],[33.38103,7.7371],[33.37289,7.73188],[33.36472,7.73218],[33.36329,7.72054],[33.35044,7.72902],[33.34316,7.71645],[33.33926,7.71843],[33.3424,7.71356],[33.34,7.70743],[33.33884,7.71298],[33.3348,7.71514],[33.32854,7.7104],[33.32336,7.71266],[33.32307,7.70802],[33.3183,7.71067],[33.31974,7.72184],[33.31478,7.72512],[33.31706,7.73058],[33.31411,7.73107],[33.31267,7.72641],[33.30732,7.7296],[33.30305,7.72721],[33.30439,7.73239],[33.30066,7.73551],[33.30278,7.74273],[33.29613,7.74085],[33.29489,7.73495],[33.29137,7.74066],[33.2964,7.74889],[33.29333,7.74966],[33.285,7.74284],[33.28025,7.74711],[33.28514,7.75037],[33.28234,7.7536],[33.27748,7.74853],[33.27466,7.74981],[33.27449,7.75645],[33.26823,7.753],[33.26802,7.75888],[33.26121,7.7599],[33.25585,7.76504],[33.25503,7.76069],[33.25159,7.76546],[33.25438,7.76797],[33.2465,7.77416],[33.25003,7.77746],[33.24645,7.7796],[33.24121,7.77655],[33.23248,7.78161],[33.23319,7.77871],[33.22686,7.77774],[33.22398,7.76826],[33.21233,7.77505],[33.21108,7.77224],[33.20746,7.77345],[33.20936,7.77892],[33.20581,7.77845],[33.20446,7.77331],[33.20036,7.78579],[33.19532,7.7833],[33.18951,7.78894],[33.18946,7.78226],[33.18598,7.78259],[33.18587,7.79085],[33.17867,7.78881],[33.17621,7.79466],[33.17242,7.79575],[33.17146,7.79129],[33.16408,7.7905],[33.16486,7.79373],[33.17037,7.79414],[33.16904,7.79948],[33.15885,7.80299],[33.16042,7.79775],[33.15716,7.7968],[33.15632,7.78914],[33.15083,7.79204],[33.14594,7.78837],[33.14171,7.79078],[33.13688,7.78643],[33.13399,7.79094],[33.12985,7.78545],[33.12639,7.78653],[33.12786,7.79011],[33.12545,7.7909],[33.12378,7.78682],[33.11493,7.78834],[33.11534,7.78375],[33.1071,7.78346],[33.10854,7.77986],[33.09948,7.78337],[33.10549,7.78654],[33.10681,7.79337],[33.10439,7.79547],[33.10254,7.79231],[33.09742,7.79254],[33.09363,7.79812],[33.09448,7.80246],[33.09153,7.80342],[33.08731,7.80118],[33.08834,7.79707],[33.08507,7.79525],[33.07802,7.79798],[33.07051,7.79461],[33.07212,7.79141],[33.06574,7.79289],[33.06354,7.79029],[33.05792,7.79641],[33.04677,7.79052],[33.04505,7.7923],[33.04906,7.79928],[33.04586,7.81402],[33.02823,7.82959],[33.01804,7.84678],[33.00484,7.8585],[33.00385,7.86974],[32.99991,7.87417],[33.00474,7.89038],[33.01459,7.89036],[33.01626,7.89419],[33.00099,7.91368],[32.99969,7.9186],[33.00495,7.92684],[33.00547,7.9349],[32.99751,7.94391],[33.01255,7.95662],[33.02777,7.96064],[33.0378,7.96748],[33.04001,7.97992],[33.03532,7.99042],[33.03964,8.00924],[33.04844,8.01603],[33.07696,8.02145],[33.08238,8.04441],[33.07924,8.05656],[33.08778,8.06253],[33.08356,8.07219],[33.08535,8.07436],[33.10593,8.07528],[33.11518,8.06293],[33.11979,8.06204],[33.12237,8.06809],[33.11841,8.09514],[33.11992,8.11047],[33.1475,8.11624],[33.15982,8.11173],[33.16557,8.11642],[33.16685,8.12386],[33.17281,8.13069],[33.18778,8.12603],[33.19319,8.13198],[33.1828,8.16042],[33.18906,8.16835],[33.17614,8.17757],[33.17652,8.19111],[33.16761,8.19229],[33.16619,8.19519],[33.17462,8.20535],[33.19794,8.21551],[33.20496,8.23973],[33.19903,8.24833],[33.17558,8.25549],[33.17093,8.27317],[33.17505,8.28681],[33.16992,8.29581],[33.17451,8.30165],[33.18962,8.29854],[33.19753,8.30008],[33.20208,8.31264],[33.19166,8.33434],[33.19537,8.33572],[33.20499,8.33185],[33.21751,8.34321],[33.21748,8.35972],[33.21526,8.36084],[33.19442,8.35212],[33.18686,8.38319],[33.19387,8.39591],[33.18853,8.40179],[33.19007,8.40594],[33.19794,8.4094],[33.21493,8.40536],[33.21696,8.40779],[33.21384,8.42721],[33.21961,8.43528],[33.22637,8.42734],[33.23523,8.42554],[33.24089,8.42999],[33.2435,8.43734],[33.2494,8.43945],[33.24288,8.44418],[33.24464,8.44824],[33.258,8.44956],[33.26867,8.45642],[33.27085,8.46266],[33.28157,8.45707],[33.28474,8.44323],[33.29206,8.43997],[33.29853,8.44431],[33.30981,8.46774],[33.31363,8.4683],[33.32117,8.45479],[33.33536,8.44784],[33.34749,8.45071],[33.36692,8.44774],[33.37019,8.43959],[33.37963,8.43792],[33.38315,8.43253],[33.39508,8.42626],[33.3987,8.42729],[33.40319,8.44056],[33.41721,8.44668],[33.42123,8.45261],[33.44593,8.44456],[33.46869,8.45984],[33.47741,8.45636],[33.48846,8.46354],[33.48901,8.47745],[33.49631,8.48119],[33.50533,8.47286],[33.51152,8.47496],[33.52116,8.46814],[33.53012,8.47174],[33.54378,8.46748],[33.55885,8.47452],[33.56356,8.4678],[33.56075,8.46466],[33.56709,8.46124],[33.56887,8.45126],[33.58521,8.44738],[33.59234,8.44959],[33.59481,8.44414],[33.59887,8.44351],[33.60237,8.45476],[33.61819,8.47234],[33.62881,8.46534],[33.64527,8.46319],[33.65735,8.45597],[33.66016,8.45003],[33.67772,8.44447],[33.67837,8.43595],[33.6737,8.43145],[33.67385,8.42721],[33.67952,8.42007],[33.67936,8.40932],[33.68958,8.3991],[33.68881,8.38774],[33.69613,8.38492],[33.70119,8.37808],[33.70944,8.37865],[33.7155,8.37036],[33.72962,8.3683],[33.7333,8.36873],[33.7375,8.37488],[33.75155,8.37891],[33.7679,8.36754],[33.77217,8.37326],[33.7902,8.3803],[33.78868,8.38741],[33.80158,8.3994],[33.81126,8.39727],[33.8098,8.40088],[33.81733,8.40558],[33.81931,8.40044],[33.82759,8.39833],[33.83705,8.40521],[33.8367,8.40925],[33.84227,8.40498],[33.84534,8.41105],[33.85197,8.40954],[33.86335,8.41493],[33.87608,8.41138],[33.87648,8.42137],[33.88343,8.42832],[33.8841,8.434],[33.87398,8.44279],[33.87688,8.4502],[33.87433,8.4533],[33.89715,8.47827],[33.89721,8.48282],[33.90868,8.48786],[33.92756,8.48946],[33.93071,8.49625],[33.93882,8.49884],[33.94954,8.50032],[33.95619,8.49608],[33.97204,8.50439],[33.97537,8.4928],[33.9893,8.49051],[34.00369,8.4956],[34.01205,8.48882],[34.02515,8.49018],[34.03543,8.50935],[34.0359,8.51835],[34.04519,8.52996],[34.0556,8.53279],[34.06472,8.5413],[34.073,8.54399],[34.0853,8.55635],[34.09432,8.5567],[34.09652,8.55387],[34.10062,8.55586],[34.1194,8.58211],[34.12829,8.58856],[34.13063,8.59942],[34.13782,8.59891],[34.14552,8.6077],[34.14552,9.03281],[34.10195,9.55672],[34.16194,9.76546],[34.224,9.88655],[34.21661,9.92612],[34.23338,10.04939],[34.33365,10.11896],[34.32546,10.13652],[34.33292,10.15591],[34.33436,10.17914],[34.34659,10.22541],[34.3468,10.24267],[34.33863,10.2815],[34.29755,10.39899],[34.30887,10.45245],[34.29681,10.4797],[34.28025,10.53868],[34.2847,10.53801],[34.28404,10.54156],[34.29613,10.56242],[34.29856,10.57206],[34.29458,10.5849],[34.39075,10.67751],[34.46556,10.81394],[34.60282,10.90598],[34.70333,10.8216],[34.76272,10.75627],[34.79466,10.75411],[34.79019,10.74536],[34.79178,10.74122],[34.78866,10.73947],[34.79052,10.72476],[34.78111,10.71889],[34.77707,10.70933],[34.78233,10.7106],[34.78707,10.70639],[34.80464,10.72596],[34.81987,10.72378],[34.83174,10.71106],[34.83661,10.71109],[34.8522,10.72145],[34.85601,10.72035],[34.85886,10.72724],[34.86718,10.72997],[34.87896,10.75713],[34.87497,10.76203],[34.86643,10.7636],[34.86922,10.80518],[34.94416,10.86824],[34.98742,10.89014],[34.98602,10.9066],[34.96106,10.93227],[34.96362,10.94813],[34.95313,10.94928],[35.00055,11.18714],[34.96507,11.23326],[34.93769,11.23909],[34.92839,11.23762],[34.93034,11.24724],[34.9342,11.24603],[34.93666,11.24951],[34.94057,11.24916],[34.94257,11.25401],[34.94724,11.25432],[34.94477,11.26202],[34.94686,11.26864],[34.96667,11.28156],[34.98814,11.34073],[35.04501,11.42097],[35.04587,11.47804],[35.07742,11.53469],[35.08276,11.64417],[35.07169,11.66961],[35.06862,11.67047],[35.06958,11.67367],[35.06182,11.68148],[35.06186,11.69224],[35.04363,11.73412],[35.0869,11.80754],[35.25708,11.9347]]]]}}]}