{"type":"FeatureCollection","features":[{"type":"Feature","properties":{"ISO_A3":"FJI","WB_A3":"FJI","WB_NAME":"Fiji","WB_REGION":"EAS"},"geometry":{"type":"MultiPolygon","coordinates":[[[[180,-16.79347],[180,-16.96672],[179.99662,-16.97544],[179.96855,-16.99296],[179.94508,-16.99716],[179.93047,-17.00368],[179.9255,-17.0107],[179.91345,-17.0101],[179.90536,-16.99709],[179.90509,-16.97934],[179.90249,-16.97551],[179.89012,-16.97106],[179.88858,-16.94894],[179.9026,-16.93047],[179.91111,-16.92752],[179.92098,-16.91734],[179.92204,-16.90845],[179.94037,-16.90047],[179.95641,-16.88364],[179.96883,-16.84923],[179.9689,-16.83662],[179.97734,-16.82041],[179.98292,-16.8184],[179.99092,-16.80053],[180,-16.79347]]],[[[178.82787,-16.59522],[178.83087,-16.59202],[178.82803,-16.58831],[178.83009,-16.58031],[178.82526,-16.577],[178.8342,-16.56302],[178.82604,-16.56103],[178.84014,-16.55498],[178.83909,-16.55744],[178.84285,-16.55921],[178.84764,-16.55826],[178.85079,-16.55257],[178.85533,-16.55253],[178.861,-16.55943],[178.85895,-16.56821],[178.87232,-16.56989],[178.87416,-16.56717],[178.8843,-16.56618],[178.88863,-16.57219],[178.89984,-16.57119],[178.90455,-16.58904],[178.91335,-16.5878],[178.92131,-16.58258],[178.92458,-16.58911],[178.93494,-16.58335],[178.94967,-16.58733],[178.96005,-16.58453],[178.96464,-16.58938],[178.97829,-16.59273],[178.98858,-16.59328],[178.98762,-16.58829],[178.99746,-16.5928],[178.98705,-16.58698],[178.98909,-16.57756],[178.99853,-16.587],[179.00668,-16.58146],[179.00877,-16.58301],[179.01036,-16.59487],[179.01315,-16.59651],[179.02257,-16.59316],[179.02551,-16.5975],[179.02298,-16.60158],[179.02628,-16.5978],[179.02422,-16.59229],[179.01197,-16.59524],[179.00701,-16.58061],[178.99879,-16.5861],[178.98908,-16.57666],[178.98502,-16.58486],[178.98658,-16.59317],[178.96516,-16.58848],[178.95657,-16.58341],[178.94671,-16.58608],[178.9368,-16.58243],[178.92483,-16.5877],[178.92157,-16.58167],[178.90934,-16.58745],[178.90439,-16.58608],[178.90063,-16.57015],[178.89208,-16.57036],[178.87933,-16.56262],[178.88428,-16.55047],[178.88111,-16.53968],[178.88719,-16.53345],[178.90579,-16.52529],[178.90907,-16.5196],[178.91335,-16.51956],[178.91232,-16.51043],[178.90832,-16.51085],[178.90507,-16.5056],[178.89864,-16.50373],[178.89834,-16.50038],[178.9064,-16.49207],[178.90462,-16.48719],[178.91099,-16.48379],[178.9116,-16.49086],[178.91972,-16.48937],[178.92008,-16.48499],[178.92977,-16.48027],[178.92079,-16.47571],[178.9221,-16.47338],[178.92956,-16.47203],[178.93309,-16.47792],[178.935,-16.4694],[178.94279,-16.46032],[178.95257,-16.46512],[178.94443,-16.47755],[178.96172,-16.48538],[178.96748,-16.47425],[178.97278,-16.47072],[178.98852,-16.47019],[178.99436,-16.46704],[179.03183,-16.47737],[179.04482,-16.46965],[179.04439,-16.46656],[179.04173,-16.46736],[179.04205,-16.45937],[179.04761,-16.45546],[179.06442,-16.45568],[179.06973,-16.45228],[179.07402,-16.45429],[179.07654,-16.45311],[179.0729,-16.45006],[179.07902,-16.44781],[179.09749,-16.45316],[179.1019,-16.44191],[179.11232,-16.44323],[179.13521,-16.43823],[179.15208,-16.44334],[179.1721,-16.42021],[179.18672,-16.41581],[179.20156,-16.40678],[179.2169,-16.41872],[179.22198,-16.41943],[179.23444,-16.41299],[179.24246,-16.41432],[179.25592,-16.42525],[179.2584,-16.43218],[179.26304,-16.42904],[179.26385,-16.41847],[179.26704,-16.41728],[179.28301,-16.4265],[179.29194,-16.42525],[179.30692,-16.42933],[179.30145,-16.41793],[179.31683,-16.41004],[179.32198,-16.41681],[179.3253,-16.41523],[179.31987,-16.40756],[179.32528,-16.40248],[179.34419,-16.4006],[179.34329,-16.414],[179.35487,-16.42313],[179.35896,-16.43107],[179.36094,-16.42925],[179.35537,-16.4203],[179.36547,-16.41722],[179.37111,-16.42102],[179.36991,-16.42417],[179.37586,-16.41608],[179.38223,-16.41356],[179.38244,-16.40956],[179.37736,-16.40846],[179.37366,-16.39975],[179.36327,-16.38983],[179.3643,-16.38711],[179.35279,-16.38351],[179.35243,-16.37553],[179.35817,-16.36543],[179.37197,-16.35948],[179.38714,-16.37875],[179.38954,-16.35671],[179.39434,-16.35691],[179.39526,-16.36681],[179.40676,-16.37003],[179.40878,-16.36061],[179.39739,-16.34465],[179.40438,-16.3389],[179.40561,-16.33039],[179.40133,-16.32915],[179.40777,-16.32174],[179.41177,-16.3217],[179.40998,-16.32777],[179.41588,-16.33053],[179.41676,-16.33709],[179.42263,-16.33766],[179.42671,-16.34405],[179.43608,-16.3469],[179.42221,-16.33587],[179.42068,-16.32018],[179.42666,-16.31857],[179.43599,-16.32584],[179.44037,-16.30579],[179.44901,-16.30125],[179.45448,-16.29353],[179.4481,-16.28408],[179.44882,-16.27841],[179.46274,-16.28262],[179.4681,-16.29225],[179.48336,-16.29087],[179.48108,-16.27854],[179.48533,-16.27772],[179.48737,-16.29109],[179.49404,-16.29229],[179.49662,-16.28531],[179.50008,-16.28463],[179.50284,-16.29245],[179.51004,-16.2921],[179.51587,-16.28998],[179.51475,-16.28548],[179.50816,-16.28106],[179.5094,-16.27332],[179.49791,-16.26058],[179.50454,-16.25845],[179.50751,-16.26086],[179.51065,-16.25631],[179.51465,-16.25717],[179.51576,-16.26037],[179.5119,-16.26093],[179.51181,-16.26428],[179.51982,-16.26521],[179.51646,-16.27349],[179.51986,-16.2786],[179.51984,-16.28761],[179.54048,-16.29689],[179.5435,-16.3038],[179.55042,-16.3023],[179.55378,-16.30497],[179.54747,-16.31148],[179.54873,-16.31584],[179.55044,-16.31453],[179.54813,-16.31134],[179.55419,-16.30573],[179.55414,-16.302],[179.54427,-16.30148],[179.54043,-16.29277],[179.54295,-16.28141],[179.53387,-16.27985],[179.53248,-16.27588],[179.54099,-16.26419],[179.53535,-16.26014],[179.53232,-16.25271],[179.53563,-16.24108],[179.53357,-16.23596],[179.53677,-16.23644],[179.53818,-16.24183],[179.54285,-16.24229],[179.54153,-16.25414],[179.54649,-16.25666],[179.54831,-16.26307],[179.56132,-16.25931],[179.56386,-16.27061],[179.57296,-16.27307],[179.57543,-16.2787],[179.57861,-16.27712],[179.57932,-16.27029],[179.5722,-16.26613],[179.57506,-16.26069],[179.57269,-16.25274],[179.58714,-16.25719],[179.58852,-16.26104],[179.58455,-16.26289],[179.58648,-16.26776],[179.59252,-16.27077],[179.59767,-16.24728],[179.60299,-16.24683],[179.61587,-16.25298],[179.61494,-16.24373],[179.62217,-16.24621],[179.62651,-16.24178],[179.62401,-16.23435],[179.61804,-16.23596],[179.61887,-16.22797],[179.62913,-16.22836],[179.63003,-16.23582],[179.64371,-16.24285],[179.64777,-16.2374],[179.64428,-16.22547],[179.65076,-16.22217],[179.64796,-16.21165],[179.65091,-16.20312],[179.66049,-16.20249],[179.66761,-16.19725],[179.66253,-16.21559],[179.66984,-16.22451],[179.69165,-16.20184],[179.69831,-16.20201],[179.70745,-16.20833],[179.71144,-16.20776],[179.71079,-16.19928],[179.72492,-16.19974],[179.73087,-16.19696],[179.73086,-16.20584],[179.7272,-16.21091],[179.73281,-16.21186],[179.73781,-16.2073],[179.7437,-16.20941],[179.7451,-16.21454],[179.73622,-16.21748],[179.72861,-16.2356],[179.73865,-16.22981],[179.76137,-16.23492],[179.75727,-16.24655],[179.75881,-16.25168],[179.7586,-16.24654],[179.77189,-16.225],[179.7797,-16.23107],[179.78074,-16.22926],[179.78221,-16.21997],[179.77794,-16.21926],[179.78052,-16.21356],[179.78372,-16.21403],[179.78325,-16.21842],[179.79314,-16.22035],[179.80214,-16.21662],[179.80015,-16.20738],[179.80595,-16.2037],[179.82255,-16.20927],[179.82126,-16.21251],[179.81462,-16.21337],[179.81402,-16.21852],[179.80457,-16.22817],[179.80583,-16.23266],[179.80184,-16.23297],[179.79532,-16.24309],[179.80409,-16.24156],[179.80724,-16.23792],[179.81819,-16.23983],[179.81807,-16.23185],[179.82152,-16.23052],[179.8206,-16.22178],[179.82695,-16.21913],[179.83124,-16.23065],[179.83105,-16.24468],[179.84137,-16.23978],[179.84013,-16.2277],[179.8514,-16.2242],[179.85068,-16.22048],[179.84722,-16.2204],[179.8501,-16.21727],[179.8484,-16.20983],[179.85184,-16.2085],[179.8555,-16.21308],[179.85521,-16.22029],[179.86098,-16.21455],[179.8544,-16.21078],[179.85654,-16.20213],[179.86266,-16.2014],[179.86582,-16.20831],[179.86901,-16.20801],[179.86732,-16.2016],[179.86426,-16.20138],[179.86525,-16.19622],[179.87267,-16.1938],[179.87593,-16.19813],[179.87636,-16.19118],[179.88505,-16.18424],[179.89347,-16.18631],[179.89555,-16.1943],[179.91775,-16.18058],[179.92813,-16.17992],[179.93098,-16.17473],[179.93523,-16.1739],[179.9357,-16.16978],[179.95589,-16.16024],[179.97721,-16.16159],[179.98066,-16.15779],[179.97774,-16.15463],[179.98451,-16.15037],[179.98671,-16.15678],[179.98893,-16.15528],[179.98539,-16.1502],[179.98691,-16.14558],[179.99708,-16.14608],[180,-16.13939],[179.99857,-16.17006],[179.99084,-16.1703],[179.97977,-16.1783],[179.97548,-16.17618],[179.962,-16.18331],[179.95704,-16.19007],[179.94936,-16.19288],[179.94983,-16.19738],[179.94384,-16.19798],[179.9405,-16.20613],[179.92935,-16.20834],[179.92014,-16.2158],[179.91583,-16.21252],[179.91401,-16.21589],[179.90339,-16.21835],[179.89109,-16.23293],[179.89247,-16.23652],[179.88557,-16.23815],[179.88247,-16.23588],[179.88536,-16.23301],[179.87778,-16.23388],[179.87516,-16.24627],[179.86769,-16.25461],[179.86344,-16.25557],[179.85558,-16.26494],[179.85338,-16.25995],[179.84937,-16.25936],[179.84851,-16.2734],[179.8323,-16.27671],[179.83243,-16.29772],[179.82403,-16.30384],[179.82891,-16.30944],[179.81333,-16.32869],[179.80762,-16.3491],[179.79996,-16.3631],[179.79095,-16.36734],[179.7792,-16.38474],[179.76417,-16.39652],[179.76369,-16.40026],[179.76822,-16.39981],[179.76438,-16.41145],[179.75587,-16.41285],[179.75609,-16.40976],[179.74807,-16.40832],[179.74768,-16.41158],[179.75641,-16.41335],[179.75636,-16.41928],[179.74077,-16.4393],[179.74257,-16.44365],[179.73704,-16.45814],[179.71219,-16.47442],[179.70961,-16.48089],[179.68434,-16.4861],[179.68098,-16.49361],[179.65999,-16.50057],[179.64241,-16.50273],[179.63535,-16.51298],[179.62675,-16.5185],[179.62434,-16.52728],[179.60991,-16.5263],[179.60119,-16.53233],[179.59728,-16.53972],[179.5763,-16.54718],[179.57388,-16.55622],[179.57661,-16.56057],[179.56849,-16.56208],[179.56228,-16.56718],[179.56464,-16.57358],[179.56256,-16.57773],[179.56654,-16.57626],[179.57139,-16.57929],[179.57468,-16.58569],[179.56071,-16.57904],[179.56551,-16.58876],[179.56201,-16.59243],[179.56297,-16.59909],[179.55859,-16.60056],[179.55132,-16.59563],[179.54245,-16.60114],[179.54316,-16.60435],[179.55038,-16.60542],[179.5542,-16.6122],[179.5617,-16.61352],[179.56215,-16.61712],[179.55227,-16.6175],[179.54558,-16.62646],[179.54921,-16.62861],[179.54268,-16.62946],[179.53848,-16.6344],[179.52832,-16.63337],[179.5285,-16.63735],[179.52545,-16.63842],[179.52352,-16.63432],[179.51773,-16.64057],[179.51845,-16.64468],[179.52342,-16.64681],[179.5216,-16.65057],[179.50406,-16.6567],[179.50749,-16.66438],[179.49543,-16.68126],[179.49359,-16.69415],[179.48163,-16.69829],[179.47439,-16.6967],[179.46967,-16.70371],[179.46949,-16.7104],[179.47812,-16.71661],[179.4813,-16.71425],[179.4831,-16.71925],[179.47915,-16.72419],[179.48219,-16.73188],[179.4815,-16.75016],[179.47591,-16.75229],[179.47681,-16.76],[179.47361,-16.7603],[179.47167,-16.76547],[179.47334,-16.7706],[179.48497,-16.77097],[179.48759,-16.76721],[179.52432,-16.75608],[179.53242,-16.7619],[179.53928,-16.75602],[179.54766,-16.76326],[179.53005,-16.76502],[179.53039,-16.77016],[179.54938,-16.77173],[179.55655,-16.76829],[179.56089,-16.76335],[179.56533,-16.74566],[179.57256,-16.74686],[179.5736,-16.74466],[179.56932,-16.74419],[179.57059,-16.73929],[179.5829,-16.74132],[179.594,-16.73243],[179.61214,-16.7304],[179.62234,-16.71418],[179.62591,-16.70204],[179.63433,-16.69267],[179.65903,-16.68257],[179.66576,-16.67708],[179.66584,-16.67321],[179.67916,-16.67073],[179.67825,-16.66327],[179.68274,-16.65974],[179.69525,-16.65688],[179.69647,-16.64798],[179.70494,-16.63384],[179.7029,-16.62151],[179.7085,-16.61166],[179.72953,-16.59774],[179.73437,-16.5906],[179.74077,-16.59039],[179.74408,-16.57928],[179.76689,-16.56894],[179.78687,-16.54808],[179.79101,-16.53876],[179.80949,-16.52551],[179.84828,-16.51418],[179.8713,-16.50086],[179.88303,-16.50044],[179.88475,-16.4909],[179.8932,-16.48525],[179.89443,-16.47815],[179.89714,-16.48108],[179.9014,-16.4805],[179.90238,-16.47431],[179.91388,-16.47647],[179.91884,-16.46919],[179.92256,-16.46863],[179.92284,-16.47827],[179.92783,-16.48206],[179.92744,-16.49108],[179.92387,-16.49344],[179.92606,-16.50602],[179.91752,-16.50563],[179.91612,-16.51002],[179.92011,-16.51846],[179.91227,-16.52964],[179.89981,-16.53444],[179.89352,-16.54225],[179.89143,-16.55437],[179.89601,-16.5574],[179.89051,-16.57292],[179.88176,-16.5769],[179.88058,-16.58695],[179.88355,-16.58974],[179.87772,-16.5924],[179.87622,-16.59885],[179.87154,-16.5984],[179.87046,-16.60639],[179.86697,-16.60541],[179.86636,-16.59976],[179.86238,-16.60187],[179.86243,-16.61397],[179.86867,-16.62057],[179.86666,-16.6381],[179.86182,-16.63611],[179.84589,-16.64174],[179.84615,-16.65022],[179.84212,-16.65749],[179.8312,-16.65982],[179.82195,-16.666],[179.82137,-16.67193],[179.8245,-16.67574],[179.85037,-16.67397],[179.87473,-16.67788],[179.8784,-16.68272],[179.87456,-16.69358],[179.87598,-16.69923],[179.88568,-16.70555],[179.89127,-16.7149],[179.88912,-16.72413],[179.88643,-16.72486],[179.88767,-16.7308],[179.89541,-16.71496],[179.90121,-16.71917],[179.89658,-16.72476],[179.89852,-16.72865],[179.90143,-16.73023],[179.90568,-16.72361],[179.91369,-16.72347],[179.91438,-16.73068],[179.92631,-16.73575],[179.9242,-16.74241],[179.93067,-16.7474],[179.92269,-16.75371],[179.9257,-16.75762],[179.92108,-16.76218],[179.91199,-16.76281],[179.91095,-16.75251],[179.89918,-16.74577],[179.89359,-16.74465],[179.88161,-16.75026],[179.88156,-16.75361],[179.89468,-16.7677],[179.88664,-16.7777],[179.87977,-16.7648],[179.87592,-16.76614],[179.87511,-16.77439],[179.86927,-16.77743],[179.86517,-16.77131],[179.86012,-16.77254],[179.8496,-16.76574],[179.8468,-16.75702],[179.85268,-16.75746],[179.85804,-16.74992],[179.85619,-16.74797],[179.84948,-16.74875],[179.84408,-16.74471],[179.83948,-16.75005],[179.82074,-16.74722],[179.81813,-16.74223],[179.80781,-16.7398],[179.80481,-16.73572],[179.80606,-16.72953],[179.79754,-16.7317],[179.79184,-16.72509],[179.77499,-16.7239],[179.74304,-16.73128],[179.73047,-16.72076],[179.72989,-16.71717],[179.71264,-16.71598],[179.6994,-16.72374],[179.69927,-16.73391],[179.69261,-16.73516],[179.69483,-16.74079],[179.69085,-16.74303],[179.66524,-16.74517],[179.65981,-16.73932],[179.65395,-16.74055],[179.65188,-16.74495],[179.65699,-16.74772],[179.6584,-16.75259],[179.647,-16.7593],[179.6455,-16.74735],[179.63105,-16.7456],[179.6292,-16.7473],[179.63486,-16.75058],[179.62889,-16.75666],[179.63629,-16.75764],[179.59837,-16.78836],[179.59225,-16.80028],[179.58934,-16.80199],[179.58073,-16.79837],[179.58527,-16.79805],[179.58786,-16.79146],[179.58071,-16.79631],[179.57055,-16.79618],[179.57141,-16.80041],[179.57727,-16.79892],[179.57456,-16.80591],[179.56806,-16.80998],[179.56473,-16.80088],[179.5535,-16.79047],[179.55086,-16.78226],[179.53924,-16.79283],[179.52669,-16.79376],[179.52407,-16.78723],[179.52026,-16.79242],[179.524,-16.79264],[179.52595,-16.79802],[179.50782,-16.80133],[179.47172,-16.79983],[179.46936,-16.8036],[179.47312,-16.80458],[179.47249,-16.80819],[179.46564,-16.80493],[179.46838,-16.81056],[179.46519,-16.81201],[179.46171,-16.81167],[179.46086,-16.80769],[179.44436,-16.81316],[179.44164,-16.80946],[179.43414,-16.80813],[179.43005,-16.80175],[179.41235,-16.79745],[179.40891,-16.79968],[179.40925,-16.80572],[179.40387,-16.80296],[179.38052,-16.80199],[179.38463,-16.80305],[179.38254,-16.80694],[179.37863,-16.80415],[179.38031,-16.80198],[179.37341,-16.80382],[179.37144,-16.79599],[179.36796,-16.79513],[179.36753,-16.80325],[179.35951,-16.80347],[179.35465,-16.81009],[179.34892,-16.81157],[179.33518,-16.80297],[179.32273,-16.81238],[179.30305,-16.82007],[179.28509,-16.81628],[179.28506,-16.81396],[179.31835,-16.78141],[179.3442,-16.77571],[179.35667,-16.76849],[179.35632,-16.76193],[179.36031,-16.76034],[179.36027,-16.7566],[179.34782,-16.75456],[179.36074,-16.74102],[179.35868,-16.7359],[179.33963,-16.72929],[179.32912,-16.7334],[179.32932,-16.72799],[179.32554,-16.72417],[179.32038,-16.72874],[179.31289,-16.72792],[179.31539,-16.71399],[179.30846,-16.7151],[179.30681,-16.71112],[179.29534,-16.7128],[179.28747,-16.70233],[179.27114,-16.69916],[179.27744,-16.69021],[179.26865,-16.69262],[179.26965,-16.6975],[179.26686,-16.69895],[179.1966,-16.69919],[179.19,-16.70596],[179.18545,-16.70549],[179.18728,-16.70225],[179.18235,-16.70256],[179.18386,-16.7068],[179.17327,-16.71476],[179.16632,-16.71458],[179.16528,-16.71768],[179.1732,-16.72068],[179.15278,-16.74665],[179.1456,-16.74981],[179.13463,-16.74825],[179.12325,-16.75815],[179.1155,-16.75849],[179.11904,-16.76399],[179.11029,-16.78313],[179.1129,-16.78929],[179.1034,-16.80045],[179.08898,-16.8015],[179.08938,-16.78953],[179.08325,-16.79062],[179.0828,-16.79886],[179.07428,-16.80191],[179.06731,-16.80043],[179.05431,-16.80932],[179.0492,-16.80615],[179.05345,-16.80405],[179.0501,-16.8028],[179.04985,-16.8167],[179.04489,-16.81598],[179.03927,-16.8079],[179.04099,-16.81396],[179.03699,-16.81426],[179.0365,-16.8189],[179.04137,-16.82425],[179.04034,-16.828],[179.03473,-16.82793],[179.03943,-16.8302],[179.03577,-16.83796],[179.03775,-16.84772],[179.02435,-16.87],[179.01948,-16.89039],[179.00773,-16.9048],[179.01896,-16.90456],[179.02424,-16.89794],[179.02621,-16.88131],[179.02942,-16.88179],[179.0307,-16.87689],[179.03497,-16.87582],[179.03879,-16.88273],[179.0525,-16.8889],[179.06767,-16.88244],[179.07114,-16.89425],[179.0666,-16.90678],[179.04999,-16.90463],[179.03717,-16.90656],[179.03349,-16.91265],[179.0263,-16.91478],[179.01937,-16.93056],[179.01401,-16.91632],[179.00445,-16.92311],[178.99933,-16.91994],[178.99995,-16.91479],[178.99656,-16.91044],[178.98479,-16.91081],[178.98567,-16.90514],[178.98125,-16.90415],[178.96049,-16.91427],[178.95051,-16.90625],[178.94606,-16.89007],[178.92095,-16.87949],[178.91351,-16.84454],[178.90549,-16.84462],[178.91033,-16.84818],[178.91111,-16.87173],[178.91405,-16.87235],[178.91687,-16.88635],[178.90477,-16.87951],[178.90697,-16.87267],[178.89849,-16.86695],[178.88832,-16.86602],[178.88919,-16.86022],[178.88079,-16.86261],[178.87153,-16.85858],[178.86086,-16.86151],[178.85753,-16.86321],[178.86173,-16.86897],[178.85952,-16.87491],[178.85225,-16.86995],[178.84826,-16.87218],[178.85352,-16.87625],[178.84765,-16.87811],[178.85291,-16.88295],[178.84745,-16.89356],[178.83246,-16.89756],[178.82066,-16.89419],[178.8301,-16.90221],[178.82698,-16.9119],[178.82053,-16.90938],[178.82165,-16.91413],[178.8064,-16.91363],[178.79072,-16.92432],[178.80037,-16.92694],[178.8015,-16.93311],[178.81172,-16.93895],[178.81188,-16.941],[178.79781,-16.9392],[178.79436,-16.94219],[178.80557,-16.95342],[178.79983,-16.95399],[178.79748,-16.9607],[178.78836,-16.95872],[178.76865,-16.96386],[178.77806,-16.9731],[178.79549,-16.97591],[178.79672,-16.97951],[178.79177,-16.97929],[178.79007,-16.98317],[178.79619,-16.99329],[178.78872,-16.99632],[178.78437,-17.00279],[178.77027,-16.99802],[178.76727,-16.99161],[178.76139,-16.99282],[178.76039,-17.00094],[178.76852,-17.01117],[178.76586,-17.01338],[178.75913,-17.00932],[178.74873,-17.01302],[178.73399,-17.01108],[178.72573,-17.01553],[178.7118,-17.01423],[178.70493,-17.00914],[178.70314,-17.00388],[178.68837,-16.99769],[178.68854,-16.98661],[178.67077,-16.96023],[178.6722,-16.94014],[178.66323,-16.93905],[178.66112,-16.92735],[178.66577,-16.92422],[178.65515,-16.91787],[178.65924,-16.91165],[178.65692,-16.90575],[178.65276,-16.90462],[178.65444,-16.89753],[178.64586,-16.89554],[178.64674,-16.88922],[178.63896,-16.88671],[178.62676,-16.8671],[178.61656,-16.86332],[178.61379,-16.85201],[178.62181,-16.8513],[178.62191,-16.84808],[178.62658,-16.84663],[178.61571,-16.84195],[178.61125,-16.8358],[178.61954,-16.83612],[178.61853,-16.82725],[178.61465,-16.82676],[178.61993,-16.81977],[178.62764,-16.82477],[178.62957,-16.81997],[178.62738,-16.81507],[178.62093,-16.81139],[178.62758,-16.80709],[178.62593,-16.80144],[178.62192,-16.80185],[178.61638,-16.81091],[178.61183,-16.8103],[178.61179,-16.80528],[178.5995,-16.80666],[178.59331,-16.80195],[178.59673,-16.79471],[178.59159,-16.78831],[178.58762,-16.79233],[178.58305,-16.78966],[178.57536,-16.79732],[178.56811,-16.79351],[178.56559,-16.79624],[178.55837,-16.79578],[178.55855,-16.8017],[178.55007,-16.80293],[178.53022,-16.81994],[178.52461,-16.82101],[178.52096,-16.81602],[178.51336,-16.81801],[178.5124,-16.81544],[178.5103,-16.82022],[178.50424,-16.81524],[178.50393,-16.82696],[178.49318,-16.81918],[178.48869,-16.80969],[178.48825,-16.80454],[178.49385,-16.80231],[178.48723,-16.79399],[178.48812,-16.78754],[178.48142,-16.7854],[178.48888,-16.78213],[178.48858,-16.77852],[178.48352,-16.781],[178.47944,-16.77241],[178.48113,-16.76647],[178.47694,-16.75967],[178.47767,-16.75053],[178.48837,-16.75096],[178.48561,-16.74055],[178.4971,-16.73995],[178.49815,-16.73763],[178.49168,-16.73008],[178.4993,-16.73054],[178.49632,-16.72489],[178.49938,-16.72333],[178.50585,-16.73075],[178.51078,-16.72891],[178.50216,-16.72021],[178.50307,-16.71673],[178.51347,-16.71447],[178.51345,-16.71138],[178.52095,-16.71299],[178.52573,-16.70974],[178.52938,-16.71461],[178.52285,-16.73371],[178.51764,-16.73452],[178.51934,-16.74585],[178.53133,-16.74138],[178.54468,-16.72351],[178.53799,-16.72227],[178.53381,-16.71741],[178.5372,-16.70656],[178.54177,-16.71039],[178.54734,-16.7052],[178.5504,-16.72012],[178.55854,-16.71799],[178.55738,-16.70719],[178.56413,-16.69889],[178.56734,-16.69938],[178.56513,-16.69116],[178.5699,-16.68559],[178.5681,-16.67774],[178.57529,-16.67537],[178.58014,-16.66374],[178.57942,-16.65783],[178.57155,-16.65866],[178.56802,-16.66315],[178.55716,-16.66289],[178.55721,-16.66907],[178.54893,-16.66965],[178.54763,-16.67403],[178.53934,-16.67384],[178.53111,-16.66411],[178.5336,-16.65727],[178.5301,-16.65369],[178.52663,-16.65462],[178.52256,-16.64718],[178.53426,-16.63949],[178.55824,-16.63184],[178.56541,-16.62664],[178.57357,-16.62774],[178.57509,-16.63365],[178.5908,-16.64409],[178.59122,-16.6464],[178.58178,-16.65188],[178.58464,-16.6583],[178.58811,-16.65827],[178.58707,-16.66163],[178.59051,-16.658],[178.60661,-16.66637],[178.61526,-16.64648],[178.62087,-16.64617],[178.62388,-16.65491],[178.62843,-16.65513],[178.62931,-16.66465],[178.63653,-16.66511],[178.63927,-16.67307],[178.64621,-16.6725],[178.6469,-16.67481],[178.65154,-16.6713],[178.6585,-16.67202],[178.67618,-16.67793],[178.67776,-16.67444],[178.69193,-16.67535],[178.69518,-16.68035],[178.69337,-16.67264],[178.70063,-16.66279],[178.70703,-16.66068],[178.70712,-16.65656],[178.7169,-16.65995],[178.7278,-16.65355],[178.72877,-16.64247],[178.74893,-16.62685],[178.74996,-16.62298],[178.7537,-16.62217],[178.7548,-16.62551],[178.76209,-16.61978],[178.76451,-16.6074],[178.80057,-16.60735],[178.80288,-16.61119],[178.80102,-16.62743],[178.79029,-16.63628],[178.79125,-16.63911],[178.80406,-16.63822],[178.80855,-16.63278],[178.81981,-16.63628],[178.82192,-16.63433],[178.8151,-16.63246],[178.81383,-16.62565],[178.81118,-16.62799],[178.80925,-16.62144],[178.81322,-16.61754],[178.81022,-16.61087],[178.81432,-16.60646],[178.81425,-16.59976],[178.82787,-16.59522]],[[179.37017,-16.42457],[179.37759,-16.427],[179.37446,-16.43334],[179.37856,-16.43008],[179.37677,-16.42559],[179.37017,-16.42457]],[[179.00065,-16.59604],[179.00098,-16.59389],[179.00061,-16.59379],[179.00065,-16.59604]],[[178.99928,-16.59342],[178.99806,-16.59308],[178.99909,-16.59356],[178.99928,-16.59342]]],[[[180,-16.48232],[180,-16.52765],[179.98772,-16.53156],[179.9812,-16.53957],[179.97401,-16.53713],[179.97194,-16.53442],[179.97738,-16.52177],[179.97567,-16.51433],[180,-16.48232]]],[[[179.93424,-18.58234],[179.92566,-18.58544],[179.9194,-18.5827],[179.91512,-18.58444],[179.91702,-18.59316],[179.91158,-18.59839],[179.88613,-18.60959],[179.8861,-18.6142],[179.89044,-18.61298],[179.89216,-18.61506],[179.88956,-18.61682],[179.89542,-18.62091],[179.91905,-18.60934],[179.91981,-18.62258],[179.903,-18.63378],[179.89973,-18.65596],[179.89712,-18.66114],[179.88894,-18.66397],[179.87971,-18.66141],[179.87675,-18.64563],[179.86592,-18.63589],[179.87155,-18.62538],[179.86159,-18.62682],[179.85129,-18.61655],[179.85038,-18.61065],[179.84108,-18.61131],[179.8341,-18.60523],[179.82728,-18.59247],[179.83123,-18.58649],[179.84228,-18.58594],[179.86522,-18.56951],[179.8768,-18.56856],[179.88066,-18.57339],[179.88604,-18.57228],[179.88622,-18.56713],[179.90097,-18.56189],[179.92522,-18.5601],[179.93003,-18.55719],[179.94192,-18.55829],[179.9509,-18.56278],[179.953,-18.56713],[179.95244,-18.57382],[179.94422,-18.58206],[179.93424,-18.58234]]],[[[179.89152,-16.65822],[179.89713,-16.65761],[179.90311,-16.65113],[179.89767,-16.64938],[179.89859,-16.6337],[179.91034,-16.63323],[179.91737,-16.62716],[179.92427,-16.62996],[179.92862,-16.64135],[179.93358,-16.64014],[179.93554,-16.63476],[179.93141,-16.6172],[179.93361,-16.61337],[179.93908,-16.61294],[179.93959,-16.62324],[179.94449,-16.62563],[179.93813,-16.63094],[179.93936,-16.63765],[179.93202,-16.64577],[179.93084,-16.65309],[179.9193,-16.6654],[179.9124,-16.67134],[179.90415,-16.66929],[179.89446,-16.67429],[179.87838,-16.6723],[179.87446,-16.66914],[179.89152,-16.65822]]],[[[179.84006,-16.2232],[179.83607,-16.22312],[179.84213,-16.21854],[179.84613,-16.21938],[179.84459,-16.22288],[179.84006,-16.2232]]],[[[179.83282,-16.20129],[179.83676,-16.19725],[179.83865,-16.19915],[179.83282,-16.20129]]],[[[179.74866,-19.12302],[179.75903,-19.12283],[179.76028,-19.11689],[179.76448,-19.12507],[179.77454,-19.12774],[179.78142,-19.13407],[179.78154,-19.14418],[179.77735,-19.15105],[179.78536,-19.15659],[179.78498,-19.16642],[179.78993,-19.17141],[179.77476,-19.18447],[179.75758,-19.19302],[179.74112,-19.19002],[179.73971,-19.18529],[179.73364,-19.185],[179.73404,-19.17894],[179.72902,-19.17612],[179.73821,-19.17209],[179.74375,-19.156],[179.74734,-19.15624],[179.7523,-19.1634],[179.75372,-19.15187],[179.74541,-19.15103],[179.73991,-19.13753],[179.74017,-19.12852],[179.74308,-19.12423],[179.74866,-19.12302]]],[[[179.77672,-16.18942],[179.77853,-16.18527],[179.78148,-16.1873],[179.77672,-16.18942]]],[[[179.74881,-16.21269],[179.74417,-16.20503],[179.75247,-16.20762],[179.74881,-16.21269]]],[[[179.61067,-16.18251],[179.61797,-16.1904],[179.6214,-16.18804],[179.62303,-16.19008],[179.62155,-16.20966],[179.61611,-16.21076],[179.60315,-16.19753],[179.60724,-16.19491],[179.60654,-16.18574],[179.61067,-16.18251]]],[[[179.60526,-16.21682],[179.60587,-16.22273],[179.60323,-16.22456],[179.59708,-16.2128],[179.60526,-16.21682]]],[[[179.59464,-16.23986],[179.59113,-16.23578],[179.59378,-16.23472],[179.59464,-16.23986]]],[[[179.58832,-16.80599],[179.58585,-16.80126],[179.58908,-16.80264],[179.58832,-16.80599]]],[[[179.57966,-16.7384],[179.57748,-16.7356],[179.58386,-16.73294],[179.57966,-16.7384]]],[[[179.57383,-16.19699],[179.57179,-16.19328],[179.57579,-16.18332],[179.57985,-16.18829],[179.57859,-16.19384],[179.57383,-16.19699]]],[[[179.5791,-16.23335],[179.57832,-16.24495],[179.57055,-16.25148],[179.56994,-16.24595],[179.56513,-16.24472],[179.56683,-16.23221],[179.57237,-16.22777],[179.5791,-16.23335]]],[[[179.52443,-16.80473],[179.52382,-16.79907],[179.52771,-16.80005],[179.52443,-16.80473]]],[[[179.47481,-16.28917],[179.47355,-16.2843],[179.47541,-16.28376],[179.47481,-16.28917]]],[[[179.47204,-16.28071],[179.46327,-16.2718],[179.46362,-16.26819],[179.4703,-16.26915],[179.47204,-16.28071]]],[[[179.40129,-17.78084],[179.42762,-17.78039],[179.44572,-17.78776],[179.42968,-17.79401],[179.42401,-17.80141],[179.42715,-17.80575],[179.42693,-17.81862],[179.43553,-17.82881],[179.42768,-17.84436],[179.42367,-17.84634],[179.41505,-17.84451],[179.39359,-17.81749],[179.3991,-17.80764],[179.3951,-17.80035],[179.39121,-17.80027],[179.39776,-17.78784],[179.3914,-17.7847],[179.39046,-17.79488],[179.38751,-17.79543],[179.38673,-17.78694],[179.39424,-17.77552],[179.39853,-17.77521],[179.40129,-17.78084]]],[[[179.36379,-17.27235],[179.35709,-17.27153],[179.34834,-17.25786],[179.36042,-17.25991],[179.37022,-17.25091],[179.3772,-17.25211],[179.38492,-17.24803],[179.42421,-17.241],[179.43121,-17.24349],[179.43671,-17.25501],[179.43396,-17.27949],[179.43719,-17.2913],[179.44016,-17.29281],[179.44275,-17.31671],[179.43454,-17.32377],[179.43583,-17.33019],[179.42728,-17.35269],[179.41852,-17.35897],[179.41891,-17.36875],[179.41313,-17.37731],[179.40777,-17.37776],[179.38601,-17.39514],[179.37051,-17.3988],[179.3686,-17.39638],[179.3772,-17.37749],[179.37874,-17.36176],[179.37021,-17.33406],[179.3701,-17.31527],[179.36295,-17.30042],[179.36067,-17.27934],[179.36425,-17.27647],[179.36379,-17.27235]]],[[[179.41004,-16.80481],[179.41203,-16.80033],[179.41362,-16.80271],[179.41004,-16.80481]]],[[[179.37513,-16.33383],[179.37876,-16.33713],[179.37761,-16.34101],[179.36123,-16.35316],[179.35852,-16.34972],[179.34677,-16.34818],[179.33244,-16.35413],[179.33344,-16.34897],[179.32621,-16.3457],[179.32774,-16.34053],[179.33227,-16.34023],[179.33488,-16.33556],[179.33708,-16.34043],[179.34501,-16.33519],[179.34905,-16.33837],[179.35809,-16.33646],[179.37385,-16.33873],[179.37513,-16.33383]]],[[[179.37201,-16.40724],[179.37182,-16.41316],[179.3655,-16.40886],[179.37201,-16.40724]]],[[[179.26666,-17.94927],[179.2717,-17.94406],[179.28241,-17.94033],[179.2854,-17.94261],[179.29989,-17.94025],[179.30517,-17.94289],[179.31669,-17.96],[179.31583,-17.96645],[179.34082,-17.99524],[179.34166,-18.00759],[179.34843,-18.01085],[179.35423,-18.0324],[179.34884,-18.04174],[179.35442,-18.0463],[179.35456,-18.05711],[179.36174,-18.06101],[179.36439,-18.06755],[179.36182,-18.07685],[179.36666,-18.08683],[179.36588,-18.09868],[179.34957,-18.11728],[179.32719,-18.11459],[179.31205,-18.08852],[179.30718,-18.08729],[179.30883,-18.06925],[179.30601,-18.05924],[179.28453,-18.04251],[179.2759,-18.04106],[179.27555,-18.04493],[179.27272,-18.04496],[179.27266,-18.03982],[179.27667,-18.03797],[179.27221,-18.02592],[179.26138,-18.02038],[179.25536,-18.01299],[179.2507,-18.01665],[179.2519,-18.02641],[179.25765,-18.03433],[179.25356,-18.04081],[179.243,-18.03553],[179.24478,-18.02701],[179.23566,-18.02969],[179.23666,-18.02324],[179.242,-18.01984],[179.23682,-18.01513],[179.24399,-18.0072],[179.23669,-18.00484],[179.23987,-18.00055],[179.23791,-17.99491],[179.24302,-17.99485],[179.24402,-17.98841],[179.24915,-17.98989],[179.25221,-17.98702],[179.25316,-17.97749],[179.2509,-17.96902],[179.24168,-17.96295],[179.24201,-17.95689],[179.25522,-17.95957],[179.26432,-17.95599],[179.26666,-17.94927]]],[[[179.33192,-16.77649],[179.32974,-16.7733],[179.33187,-16.7725],[179.33192,-16.77649]]],[[[179.30908,-16.341],[179.31387,-16.34017],[179.31231,-16.34315],[179.30858,-16.34319],[179.30908,-16.341]]],[[[179.15767,-17.78909],[179.15072,-17.79225],[179.15817,-17.79732],[179.15664,-17.80377],[179.15271,-17.80098],[179.1479,-17.80348],[179.14331,-17.8016],[179.14347,-17.79259],[179.14814,-17.78971],[179.13706,-17.77335],[179.14855,-17.76846],[179.1623,-17.77153],[179.16777,-17.77971],[179.17561,-17.78348],[179.17661,-17.78888],[179.16884,-17.80184],[179.16128,-17.7987],[179.16037,-17.79009],[179.15767,-17.78909]]],[[[179.11587,-16.79183],[179.11767,-16.78537],[179.11944,-16.78845],[179.11587,-16.79183]]],[[[179.09271,-17.11457],[179.09773,-17.10846],[179.10362,-17.10853],[179.09271,-17.11457]]],[[[179.09201,-16.23936],[179.08853,-16.2385],[179.08815,-16.2273],[179.09367,-16.22042],[179.0981,-16.22321],[179.09791,-16.23016],[179.09201,-16.23936]]],[[[179.08003,-16.41767],[179.07997,-16.41162],[179.08343,-16.41107],[179.08003,-16.41767]]],[[[179.06657,-16.43184],[179.06236,-16.4369],[179.0543,-16.43221],[179.05263,-16.42554],[179.06693,-16.41548],[179.072,-16.4153],[179.07512,-16.42017],[179.06657,-16.43184]]],[[[179.0078,-17.62873],[178.99781,-17.62394],[178.99006,-17.615],[178.98266,-17.60143],[178.98501,-17.59471],[178.99162,-17.59774],[178.99786,-17.59149],[179.00583,-17.59656],[179.00869,-17.61172],[179.01247,-17.61349],[179.01288,-17.62636],[179.02135,-17.6394],[179.0246,-17.65405],[179.01335,-17.64438],[179.01566,-17.6356],[179.0078,-17.62873]]],[[[179.02369,-16.46419],[179.02022,-16.46409],[179.02363,-16.45904],[179.02369,-16.46419]]],[[[179.00448,-16.92633],[179.01387,-16.9283],[179.0165,-16.93651],[179.01211,-16.939],[178.99416,-16.9366],[178.99253,-16.93443],[179.00558,-16.92915],[179.00448,-16.92633]]],[[[178.97503,-17.45474],[178.9711,-17.46315],[178.95866,-17.46623],[178.95236,-17.45445],[178.95365,-17.4498],[178.94892,-17.44598],[178.95478,-17.44206],[178.9552,-17.43125],[178.96731,-17.43499],[178.97582,-17.42847],[178.98036,-17.43821],[178.97595,-17.44031],[178.97961,-17.44336],[178.97503,-17.45474]]],[[[178.94636,-17.43236],[178.9457,-17.42052],[178.95371,-17.41736],[178.95522,-17.42043],[178.94636,-17.43236]]],[[[178.77009,-17.62328],[178.7768,-17.62257],[178.77998,-17.61894],[178.7977,-17.61801],[178.81471,-17.62725],[178.81642,-17.63753],[178.82113,-17.63826],[178.82838,-17.65133],[178.83832,-17.69166],[178.83334,-17.71643],[178.82638,-17.71907],[178.82352,-17.72837],[178.80935,-17.73545],[178.80443,-17.72726],[178.79797,-17.72616],[178.79181,-17.72892],[178.78975,-17.73769],[178.77664,-17.74309],[178.77455,-17.73577],[178.7612,-17.73061],[178.75302,-17.71845],[178.75425,-17.70634],[178.76014,-17.70474],[178.75717,-17.70296],[178.74915,-17.7069],[178.7483,-17.69738],[178.74155,-17.68585],[178.745,-17.68118],[178.7409,-17.6735],[178.7415,-17.66602],[178.73704,-17.66297],[178.74637,-17.65619],[178.74505,-17.64462],[178.7547,-17.64221],[178.75709,-17.63962],[178.75515,-17.6332],[178.76865,-17.6269],[178.77009,-17.62328]]],[[[178.78424,-17.75062],[178.78665,-17.74982],[178.7867,-17.75497],[178.7789,-17.75491],[178.77887,-17.75118],[178.78424,-17.75062]]],[[[178.78065,-17.76816],[178.77525,-17.76628],[178.77333,-17.76205],[178.78297,-17.7581],[178.78501,-17.76091],[178.78065,-17.76816]]],[[[178.7288,-17.74287],[178.72384,-17.7294],[178.71898,-17.72777],[178.71732,-17.72212],[178.71781,-17.71722],[178.72318,-17.71743],[178.72242,-17.72181],[178.73553,-17.74384],[178.74362,-17.74635],[178.75915,-17.7681],[178.77232,-17.76888],[178.77042,-17.78061],[178.75987,-17.78753],[178.75468,-17.77908],[178.74079,-17.77418],[178.73341,-17.76086],[178.73341,-17.74695],[178.7288,-17.74287]]],[[[178.7273,-16.62729],[178.72461,-16.62576],[178.73074,-16.62391],[178.7273,-16.62729]]],[[[178.72381,-17.8109],[178.72082,-17.80758],[178.72242,-17.8055],[178.72381,-17.8109]]],[[[178.7084,-16.60504],[178.70304,-16.60276],[178.70837,-16.60182],[178.7084,-16.60504]]],[[[178.35573,-17.83805],[178.36124,-17.83659],[178.35866,-17.82228],[178.36953,-17.81885],[178.39417,-17.85137],[178.39588,-17.87043],[178.38959,-17.87434],[178.38102,-17.89681],[178.38687,-17.90604],[178.40753,-17.91568],[178.41028,-17.9239],[178.4088,-17.94091],[178.41475,-17.94421],[178.41602,-17.93442],[178.42414,-17.92444],[178.44144,-17.93423],[178.45358,-17.95448],[178.45295,-17.95964],[178.44839,-17.96212],[178.43061,-17.95968],[178.42445,-17.96268],[178.42705,-17.96884],[178.42172,-17.97455],[178.42247,-17.98382],[178.42545,-17.98714],[178.48038,-17.98969],[178.49274,-17.98831],[178.51229,-17.97708],[178.52118,-17.97766],[178.5194,-18.01409],[178.51515,-18.01477],[178.51997,-18.0161],[178.52504,-18.03058],[178.56386,-18.05741],[178.56647,-18.06295],[178.56456,-18.07569],[178.56042,-18.07881],[178.55025,-18.10078],[178.53597,-18.11609],[178.52833,-18.11988],[178.52075,-18.11492],[178.52421,-18.11052],[178.51476,-18.10815],[178.51591,-18.10106],[178.51361,-18.09901],[178.51612,-18.09436],[178.51009,-18.09685],[178.50575,-18.09302],[178.5012,-18.09705],[178.50659,-18.09752],[178.51123,-18.10431],[178.4905,-18.10524],[178.48973,-18.1095],[178.47769,-18.11861],[178.46605,-18.11843],[178.46589,-18.12166],[178.47126,-18.12303],[178.46804,-18.12473],[178.47129,-18.1269],[178.46997,-18.13025],[178.4634,-18.13314],[178.46278,-18.13945],[178.45539,-18.13646],[178.45437,-18.13269],[178.45157,-18.13632],[178.45497,-18.1399],[178.44961,-18.14303],[178.45876,-18.14296],[178.45425,-18.1502],[178.43469,-18.16361],[178.424,-18.1579],[178.4208,-18.14479],[178.4303,-18.12051],[178.42891,-18.11563],[178.43562,-18.113],[178.43438,-18.10915],[178.43106,-18.11419],[178.41785,-18.11352],[178.41303,-18.11626],[178.4122,-18.11343],[178.40304,-18.11401],[178.38895,-18.10278],[178.38793,-18.10949],[178.38226,-18.10785],[178.36697,-18.11543],[178.37776,-18.11844],[178.38421,-18.11673],[178.37839,-18.12939],[178.36016,-18.14111],[178.35727,-18.1334],[178.34742,-18.12986],[178.34614,-18.12189],[178.34303,-18.11985],[178.32392,-18.12153],[178.31406,-18.13576],[178.30761,-18.13825],[178.30553,-18.14741],[178.2966,-18.14283],[178.29273,-18.14749],[178.28974,-18.15238],[178.2908,-18.16038],[178.29717,-18.16472],[178.29194,-18.16862],[178.28647,-18.15745],[178.27379,-18.15483],[178.27115,-18.1618],[178.26425,-18.15721],[178.25428,-18.15779],[178.25529,-18.16757],[178.26125,-18.17165],[178.25804,-18.17489],[178.24572,-18.16686],[178.24333,-18.17074],[178.2443,-18.1746],[178.25688,-18.18173],[178.24408,-18.18207],[178.23872,-18.18597],[178.24438,-18.18567],[178.24415,-18.19108],[178.2345,-18.19861],[178.2275,-18.19917],[178.22679,-18.19428],[178.22412,-18.19765],[178.20835,-18.19788],[178.20867,-18.18513],[178.19829,-18.18365],[178.19539,-18.19371],[178.20002,-18.20063],[178.19576,-18.20787],[178.19956,-18.21197],[178.19444,-18.2129],[178.18669,-18.22119],[178.18291,-18.22083],[178.18093,-18.22728],[178.16366,-18.2449],[178.15486,-18.25899],[178.14968,-18.25014],[178.15585,-18.24546],[178.16554,-18.22351],[178.16269,-18.21941],[178.15431,-18.21585],[178.14941,-18.20931],[178.13788,-18.21685],[178.13022,-18.20003],[178.11755,-18.19946],[178.11586,-18.18801],[178.10538,-18.1926],[178.09675,-18.18361],[178.1033,-18.19249],[178.1156,-18.18904],[178.11648,-18.20011],[178.12942,-18.20055],[178.13734,-18.21801],[178.14942,-18.21022],[178.16365,-18.22275],[178.15529,-18.24212],[178.14846,-18.24808],[178.1496,-18.25735],[178.13437,-18.25782],[178.13196,-18.26093],[178.14705,-18.25955],[178.1515,-18.26068],[178.15085,-18.26378],[178.13521,-18.26323],[178.12312,-18.26922],[178.11891,-18.265],[178.13056,-18.25282],[178.14162,-18.25353],[178.13917,-18.24981],[178.13391,-18.25023],[178.12778,-18.23996],[178.12491,-18.25376],[178.12195,-18.25442],[178.11903,-18.26281],[178.10088,-18.24836],[178.09576,-18.24852],[178.07853,-18.25119],[178.05797,-18.26174],[178.05404,-18.2588],[178.04652,-18.26373],[178.04003,-18.26016],[178.02821,-18.26615],[178.015,-18.26674],[178.00283,-18.2601],[177.98401,-18.26844],[177.98637,-18.25749],[177.98324,-18.25312],[177.97368,-18.25343],[177.97256,-18.24661],[177.96744,-18.24702],[177.96639,-18.25218],[177.96315,-18.25078],[177.96226,-18.25654],[177.94973,-18.26076],[177.95312,-18.26512],[177.95193,-18.26874],[177.948,-18.26644],[177.9473,-18.26026],[177.94393,-18.26131],[177.94531,-18.25274],[177.9354,-18.25336],[177.93484,-18.24963],[177.93121,-18.25132],[177.9323,-18.25415],[177.92517,-18.25702],[177.93088,-18.26626],[177.92793,-18.26872],[177.92036,-18.26374],[177.91945,-18.27095],[177.91609,-18.27226],[177.91453,-18.25861],[177.90693,-18.27372],[177.90179,-18.27168],[177.88806,-18.27458],[177.88102,-18.2683],[177.88708,-18.26673],[177.88557,-18.2621],[177.88046,-18.26418],[177.8807,-18.25955],[177.87598,-18.25854],[177.8715,-18.25109],[177.86206,-18.24997],[177.85485,-18.26404],[177.84498,-18.2579],[177.84307,-18.25353],[177.84614,-18.24734],[177.83967,-18.24853],[177.84105,-18.25535],[177.82755,-18.25025],[177.82968,-18.2438],[177.83533,-18.24185],[177.83746,-18.23656],[177.82801,-18.23261],[177.81996,-18.24127],[177.81134,-18.24131],[177.80404,-18.23747],[177.80537,-18.23309],[177.80286,-18.23291],[177.8031,-18.23799],[177.79865,-18.23827],[177.75922,-18.22079],[177.73846,-18.22061],[177.72873,-18.21292],[177.71823,-18.21579],[177.71174,-18.20951],[177.70202,-18.20722],[177.69823,-18.20196],[177.69527,-18.20416],[177.68448,-18.20175],[177.67263,-18.20334],[177.66119,-18.19535],[177.64485,-18.19635],[177.63944,-18.19237],[177.61544,-18.18782],[177.60788,-18.1823],[177.60115,-18.18657],[177.59519,-18.17693],[177.5898,-18.17605],[177.5847,-18.18224],[177.56986,-18.17817],[177.55397,-18.18053],[177.54291,-18.1767],[177.53965,-18.16821],[177.52228,-18.17173],[177.51715,-18.16892],[177.51308,-18.15965],[177.50993,-18.14163],[177.51852,-18.12924],[177.54276,-18.12776],[177.53333,-18.12598],[177.5204,-18.12666],[177.51045,-18.13442],[177.50627,-18.14722],[177.51055,-18.16739],[177.51595,-18.17343],[177.4925,-18.16937],[177.47862,-18.1703],[177.46797,-18.16582],[177.46555,-18.16918],[177.45504,-18.16869],[177.44532,-18.16008],[177.44422,-18.15326],[177.43668,-18.15456],[177.42696,-18.14505],[177.41914,-18.14211],[177.41804,-18.13258],[177.40389,-18.13132],[177.40213,-18.12707],[177.39703,-18.13584],[177.38275,-18.13355],[177.37599,-18.12404],[177.36334,-18.12715],[177.33855,-18.1241],[177.31791,-18.11216],[177.32086,-18.10417],[177.31695,-18.09774],[177.31048,-18.09852],[177.30374,-18.09235],[177.29873,-18.07819],[177.30021,-18.07548],[177.30641,-18.07934],[177.31744,-18.07507],[177.31958,-18.06605],[177.32523,-18.06449],[177.32604,-18.06063],[177.32237,-18.06122],[177.32091,-18.05806],[177.32282,-18.04968],[177.31955,-18.05034],[177.31793,-18.05791],[177.31512,-18.05678],[177.31551,-18.04583],[177.31255,-18.04674],[177.30877,-18.04185],[177.29691,-18.03762],[177.2942,-18.02475],[177.29016,-18.02346],[177.28975,-18.01921],[177.27155,-18.00585],[177.26617,-18.00495],[177.26643,-18.00186],[177.25888,-17.99607],[177.25928,-17.99118],[177.25214,-17.98964],[177.26586,-17.9819],[177.2672,-17.97726],[177.26424,-17.97623],[177.26504,-17.97134],[177.24565,-17.96634],[177.24309,-17.96235],[177.25209,-17.95152],[177.26007,-17.95013],[177.25827,-17.94172],[177.26806,-17.92161],[177.27869,-17.9234],[177.2799,-17.92083],[177.27585,-17.91645],[177.27652,-17.91323],[177.28154,-17.91241],[177.28162,-17.90382],[177.27167,-17.91028],[177.26531,-17.90891],[177.2555,-17.8902],[177.26706,-17.88066],[177.26638,-17.87602],[177.27509,-17.85914],[177.29445,-17.8537],[177.31249,-17.86359],[177.3129,-17.86668],[177.31787,-17.86358],[177.31519,-17.86133],[177.31894,-17.85714],[177.32431,-17.85545],[177.32378,-17.85945],[177.32796,-17.86202],[177.32272,-17.86383],[177.32165,-17.86976],[177.32461,-17.87207],[177.32568,-17.86614],[177.33267,-17.86407],[177.33508,-17.85917],[177.33252,-17.85608],[177.33533,-17.84681],[177.35334,-17.84033],[177.36084,-17.82924],[177.36622,-17.82872],[177.36462,-17.83542],[177.38235,-17.82315],[177.37979,-17.82071],[177.38331,-17.81151],[177.37977,-17.81118],[177.38124,-17.80602],[177.3756,-17.80951],[177.37384,-17.80784],[177.37948,-17.80113],[177.37261,-17.79728],[177.37529,-17.79289],[177.38228,-17.79198],[177.38548,-17.77974],[177.38953,-17.78694],[177.39248,-17.78488],[177.39424,-17.78796],[177.39758,-17.78087],[177.40269,-17.78073],[177.40617,-17.77261],[177.41826,-17.77027],[177.43342,-17.75723],[177.43607,-17.74125],[177.43404,-17.73353],[177.43966,-17.72244],[177.43293,-17.72052],[177.42892,-17.72748],[177.42381,-17.72775],[177.42216,-17.71372],[177.42539,-17.71422],[177.42863,-17.72156],[177.44144,-17.71977],[177.4434,-17.71573],[177.43506,-17.71137],[177.42538,-17.71088],[177.42456,-17.70263],[177.4197,-17.69517],[177.42371,-17.68692],[177.41593,-17.69273],[177.40328,-17.68413],[177.38514,-17.68133],[177.38323,-17.67129],[177.38631,-17.66459],[177.39572,-17.66483],[177.39224,-17.67359],[177.39655,-17.6759],[177.40406,-17.67202],[177.39988,-17.66832],[177.4011,-17.66015],[177.39249,-17.66226],[177.38387,-17.653],[177.38491,-17.63934],[177.38935,-17.64037],[177.39192,-17.64783],[177.41475,-17.64418],[177.42293,-17.63746],[177.41903,-17.63593],[177.42116,-17.62819],[177.43591,-17.61708],[177.43938,-17.60909],[177.43776,-17.60575],[177.45762,-17.59978],[177.46057,-17.59513],[177.46272,-17.59809],[177.47078,-17.59897],[177.49386,-17.59067],[177.49356,-17.57947],[177.50001,-17.57829],[177.50697,-17.5717],[177.50249,-17.55459],[177.50772,-17.55277],[177.50838,-17.5489],[177.50431,-17.53114],[177.51565,-17.50793],[177.51914,-17.5074],[177.52295,-17.52414],[177.53075,-17.5303],[177.5347,-17.52979],[177.55351,-17.51014],[177.56612,-17.50727],[177.5755,-17.50106],[177.57977,-17.49165],[177.58869,-17.48334],[177.60015,-17.48553],[177.60253,-17.47625],[177.61409,-17.48008],[177.62159,-17.47607],[177.63852,-17.48116],[177.64254,-17.47909],[177.63931,-17.47717],[177.64118,-17.47381],[177.64845,-17.48049],[177.66054,-17.48405],[177.66216,-17.48766],[177.65831,-17.49746],[177.66277,-17.5071],[177.6668,-17.50786],[177.67053,-17.49999],[177.67536,-17.49817],[177.67819,-17.50203],[177.6766,-17.50796],[177.6798,-17.50202],[177.6775,-17.49765],[177.67293,-17.49664],[177.66733,-17.50464],[177.6625,-17.50569],[177.66071,-17.4941],[177.66711,-17.48249],[177.65124,-17.47455],[177.65431,-17.46939],[177.65648,-17.47402],[177.66481,-17.47593],[177.67084,-17.47578],[177.67499,-17.4719],[177.67474,-17.47705],[177.66696,-17.47927],[177.6686,-17.48532],[177.68336,-17.48449],[177.68365,-17.49145],[177.694,-17.4945],[177.6924,-17.49837],[177.69792,-17.50144],[177.69598,-17.48522],[177.72008,-17.47213],[177.72573,-17.47481],[177.73163,-17.47273],[177.74258,-17.46032],[177.74404,-17.45671],[177.74162,-17.45414],[177.72535,-17.44673],[177.72615,-17.4439],[177.74388,-17.44937],[177.75558,-17.44542],[177.74734,-17.44124],[177.74732,-17.43764],[177.76048,-17.44042],[177.76045,-17.43295],[177.75238,-17.42706],[177.75168,-17.42062],[177.75286,-17.41314],[177.76078,-17.41466],[177.76007,-17.40487],[177.76329,-17.40486],[177.766,-17.41129],[177.76773,-17.40922],[177.76326,-17.39765],[177.78338,-17.39644],[177.78474,-17.4013],[177.79842,-17.40138],[177.80184,-17.38513],[177.8211,-17.37321],[177.82088,-17.38274],[177.82411,-17.3871],[177.81957,-17.38983],[177.82322,-17.39741],[177.81266,-17.40544],[177.81722,-17.40516],[177.82169,-17.41468],[177.80867,-17.4137],[177.81057,-17.41859],[177.79626,-17.42998],[177.79856,-17.43448],[177.80957,-17.4343],[177.8117,-17.43069],[177.82407,-17.43733],[177.83022,-17.43216],[177.83214,-17.44052],[177.84663,-17.44007],[177.84769,-17.43736],[177.85602,-17.44029],[177.85116,-17.43516],[177.85274,-17.42755],[177.86881,-17.42053],[177.87902,-17.42345],[177.88266,-17.42833],[177.8804,-17.43297],[177.88309,-17.4336],[177.8842,-17.44017],[177.88955,-17.4368],[177.88603,-17.43089],[177.8887,-17.42817],[177.91604,-17.42251],[177.91848,-17.42662],[177.92276,-17.42531],[177.92922,-17.42901],[177.937,-17.42808],[177.9397,-17.43103],[177.94759,-17.42597],[177.95152,-17.43329],[177.96238,-17.43259],[177.96218,-17.4192],[177.97589,-17.42428],[177.97726,-17.41752],[177.98845,-17.41418],[177.99358,-17.42059],[177.99541,-17.41182],[178.00413,-17.41126],[178.00717,-17.40404],[178.01093,-17.40402],[178.01061,-17.39423],[178.01701,-17.38879],[178.01058,-17.38934],[178.01723,-17.37952],[178.01795,-17.36419],[178.02174,-17.37073],[178.03034,-17.37288],[178.055,-17.36979],[178.05752,-17.36565],[178.06196,-17.36718],[178.06971,-17.36185],[178.07695,-17.3622],[178.08185,-17.37428],[178.08561,-17.37542],[178.09311,-17.37319],[178.09469,-17.3688],[178.09927,-17.37135],[178.1159,-17.37126],[178.12577,-17.36219],[178.12546,-17.35627],[178.12814,-17.35458],[178.13216,-17.35443],[178.13084,-17.35881],[178.14373,-17.36093],[178.15361,-17.35289],[178.16487,-17.35321],[178.16255,-17.34678],[178.16747,-17.34044],[178.18355,-17.33868],[178.17772,-17.32738],[178.17982,-17.3217],[178.17479,-17.31065],[178.19714,-17.32507],[178.20033,-17.31952],[178.20944,-17.31895],[178.20398,-17.3249],[178.20536,-17.33108],[178.21273,-17.33026],[178.21156,-17.33619],[178.20339,-17.33766],[178.19996,-17.34527],[178.21364,-17.34674],[178.21522,-17.34132],[178.22364,-17.33818],[178.22707,-17.34923],[178.24483,-17.35788],[178.24804,-17.3764],[178.25867,-17.38187],[178.25819,-17.38922],[178.26302,-17.39022],[178.25729,-17.39541],[178.25934,-17.40093],[178.25593,-17.4128],[178.25468,-17.40624],[178.25025,-17.40524],[178.24787,-17.41066],[178.23498,-17.40881],[178.22536,-17.41466],[178.22538,-17.41827],[178.2294,-17.41696],[178.2313,-17.41952],[178.22721,-17.42985],[178.23303,-17.4378],[178.22996,-17.44039],[178.22904,-17.46281],[178.23109,-17.46872],[178.23621,-17.47139],[178.24116,-17.46994],[178.24025,-17.47356],[178.24347,-17.47431],[178.2442,-17.48332],[178.2386,-17.48876],[178.24761,-17.49051],[178.24876,-17.50183],[178.25252,-17.50181],[178.24969,-17.48148],[178.25422,-17.47682],[178.25046,-17.47632],[178.25325,-17.47116],[178.2466,-17.46038],[178.24338,-17.46014],[178.24335,-17.45602],[178.24872,-17.4565],[178.25037,-17.46319],[178.25708,-17.46237],[178.26501,-17.44455],[178.27889,-17.43429],[178.29261,-17.43909],[178.30817,-17.43977],[178.33444,-17.4544],[178.33166,-17.45931],[178.33638,-17.46314],[178.33253,-17.46819],[178.33552,-17.47358],[178.33286,-17.47733],[178.33825,-17.48],[178.34441,-17.47854],[178.34578,-17.48137],[178.3365,-17.49817],[178.35498,-17.49212],[178.3563,-17.48877],[178.35872,-17.49004],[178.36024,-17.49518],[178.34901,-17.50118],[178.35293,-17.50527],[178.34278,-17.51242],[178.36048,-17.50921],[178.36748,-17.51238],[178.37074,-17.5179],[178.36672,-17.51934],[178.36572,-17.52836],[178.37292,-17.52278],[178.3802,-17.52659],[178.38449,-17.5254],[178.38505,-17.529],[178.37889,-17.5302],[178.37236,-17.53656],[178.37456,-17.5435],[178.3838,-17.54137],[178.38458,-17.53763],[178.38861,-17.53748],[178.39106,-17.54184],[178.39949,-17.53946],[178.40236,-17.54627],[178.41069,-17.54659],[178.41507,-17.55686],[178.42285,-17.55629],[178.42423,-17.56092],[178.44627,-17.56424],[178.45482,-17.55889],[178.4618,-17.55961],[178.49123,-17.57923],[178.49064,-17.58953],[178.50244,-17.60412],[178.5235,-17.61671],[178.53195,-17.616],[178.53723,-17.62137],[178.55421,-17.62767],[178.58404,-17.64546],[178.58516,-17.65035],[178.58159,-17.65759],[178.58579,-17.66193],[178.58738,-17.67376],[178.57829,-17.67976],[178.57853,-17.69083],[178.5738,-17.70323],[178.56091,-17.7193],[178.55947,-17.72472],[178.56408,-17.7288],[178.56281,-17.73808],[178.55676,-17.7371],[178.55625,-17.7402],[178.55993,-17.74661],[178.55132,-17.74513],[178.55499,-17.74986],[178.55149,-17.74938],[178.54808,-17.75919],[178.54326,-17.76103],[178.54605,-17.77298],[178.54063,-17.76788],[178.54068,-17.7738],[178.53451,-17.77462],[178.53733,-17.77992],[178.54339,-17.77584],[178.55254,-17.77731],[178.55141,-17.7714],[178.55409,-17.7697],[178.55575,-17.77587],[178.56237,-17.77955],[178.55882,-17.78937],[178.56734,-17.77964],[178.57653,-17.78472],[178.59119,-17.78679],[178.59084,-17.7922],[178.58561,-17.79327],[178.5885,-17.8011],[178.58581,-17.80151],[178.58545,-17.80589],[178.58827,-17.80612],[178.58885,-17.8105],[178.56801,-17.82573],[178.56398,-17.82538],[178.56461,-17.82074],[178.56205,-17.8205],[178.56021,-17.82464],[178.55725,-17.82414],[178.55731,-17.83161],[178.5613,-17.82669],[178.56778,-17.82973],[178.57554,-17.82516],[178.58339,-17.83192],[178.584,-17.83912],[178.5884,-17.836],[178.58876,-17.83033],[178.59618,-17.83387],[178.60085,-17.82971],[178.61161,-17.83066],[178.61031,-17.83492],[178.6068,-17.83391],[178.61172,-17.84224],[178.60487,-17.84282],[178.60692,-17.84705],[178.60267,-17.85236],[178.5906,-17.85581],[178.60499,-17.85621],[178.60831,-17.85206],[178.60995,-17.85513],[178.61956,-17.84681],[178.62684,-17.84959],[178.61741,-17.86203],[178.61818,-17.87245],[178.60152,-17.87452],[178.59457,-17.87921],[178.59594,-17.88177],[178.60428,-17.88171],[178.60057,-17.88843],[178.60238,-17.89563],[178.60821,-17.90022],[178.60716,-17.90344],[178.59851,-17.89875],[178.59279,-17.89107],[178.58687,-17.89086],[178.58154,-17.89554],[178.56555,-17.89722],[178.58295,-17.903],[178.58297,-17.90583],[178.57872,-17.91192],[178.56593,-17.9106],[178.56394,-17.91371],[178.57229,-17.91441],[178.57128,-17.9215],[178.58039,-17.91795],[178.58298,-17.92231],[178.56479,-17.93859],[178.57171,-17.94017],[178.57674,-17.93112],[178.58642,-17.93027],[178.58625,-17.94198],[178.59139,-17.94465],[178.58769,-17.95266],[178.59294,-17.95262],[178.59474,-17.95775],[178.60604,-17.95843],[178.60822,-17.96125],[178.60816,-17.96975],[178.59847,-17.96931],[178.59498,-17.98479],[178.58311,-17.98128],[178.5812,-17.97872],[178.58357,-17.97317],[178.57364,-17.97569],[178.57331,-17.96874],[178.5702,-17.96774],[178.56877,-17.97342],[178.58003,-17.98337],[178.57823,-17.99265],[178.58863,-17.99746],[178.59289,-17.9915],[178.59584,-17.99071],[178.59668,-17.99405],[178.60087,-17.98165],[178.60731,-17.97928],[178.6286,-17.99816],[178.63409,-17.99425],[178.63618,-18.00247],[178.63265,-18.01332],[178.63856,-18.0125],[178.64196,-18.01685],[178.6424,-18.02058],[178.63852,-18.02306],[178.63257,-18.01924],[178.63048,-18.01205],[178.62267,-18.0116],[178.62243,-18.01469],[178.62675,-18.01569],[178.6276,-18.02083],[178.62397,-18.02138],[178.62751,-18.02572],[178.62594,-18.03037],[178.60951,-18.04364],[178.61342,-18.04516],[178.60942,-18.04854],[178.60964,-18.05845],[178.61394,-18.05777],[178.62001,-18.04458],[178.62454,-18.03914],[178.62978,-18.03806],[178.62988,-18.0342],[178.63461,-18.03648],[178.62461,-18.04635],[178.63483,-18.0481],[178.63527,-18.0505],[178.62687,-18.05792],[178.62798,-18.06229],[178.63123,-18.0638],[178.64302,-18.05842],[178.65073,-18.06235],[178.65618,-18.05458],[178.65504,-18.04776],[178.65961,-18.04734],[178.6554,-18.04351],[178.65631,-18.04016],[178.66661,-18.03363],[178.66295,-18.0298],[178.6731,-18.02224],[178.68718,-18.00204],[178.69606,-18.00196],[178.68889,-18.01297],[178.68487,-18.0139],[178.68411,-18.01906],[178.67956,-18.02206],[178.67793,-18.02014],[178.67559,-18.02956],[178.66508,-18.0424],[178.66913,-18.04391],[178.66719,-18.05126],[178.67767,-18.05002],[178.68204,-18.05616],[178.67076,-18.05896],[178.66396,-18.0661],[178.65743,-18.08753],[178.64763,-18.07654],[178.6473,-18.07011],[178.64326,-18.06911],[178.64228,-18.06487],[178.63909,-18.06992],[178.62993,-18.06935],[178.61897,-18.06339],[178.61927,-18.06622],[178.61416,-18.0673],[178.61492,-18.07656],[178.61142,-18.07659],[178.61553,-18.08415],[178.60895,-18.08562],[178.60538,-18.09364],[178.61094,-18.09745],[178.61085,-18.10235],[178.60389,-18.10755],[178.60768,-18.10907],[178.60044,-18.11312],[178.59721,-18.11224],[178.59662,-18.10761],[178.59394,-18.10841],[178.59969,-18.11892],[178.59245,-18.12271],[178.58892,-18.11952],[178.58099,-18.12139],[178.58092,-18.12809],[178.57392,-18.12866],[178.57149,-18.11246],[178.56146,-18.10558],[178.56089,-18.10121],[178.55375,-18.10178],[178.55664,-18.09326],[178.57145,-18.07769],[178.57278,-18.07184],[178.56887,-18.05994],[178.55014,-18.04284],[178.52686,-18.02835],[178.52077,-18.00882],[178.5234,-17.97641],[178.51228,-17.97554],[178.49111,-17.98652],[178.47767,-17.98791],[178.44104,-17.98406],[178.42652,-17.98623],[178.42255,-17.97712],[178.42894,-17.9696],[178.4254,-17.96396],[178.43305,-17.96095],[178.45109,-17.96249],[178.45548,-17.95679],[178.45382,-17.95139],[178.4436,-17.93447],[178.42589,-17.92404],[178.42199,-17.92394],[178.41692,-17.92977],[178.4146,-17.94241],[178.40988,-17.94116],[178.41109,-17.92389],[178.40765,-17.91413],[178.38687,-17.90527],[178.38225,-17.89938],[178.38853,-17.87744],[178.39655,-17.8712],[178.39536,-17.85237],[178.38991,-17.8473],[178.38524,-17.83471],[178.36817,-17.8177],[178.35812,-17.82202],[178.36085,-17.83603],[178.35573,-17.83805]],[[178.34476,-17.82625],[178.34727,-17.82221],[178.35535,-17.83751],[178.34872,-17.82286],[178.34655,-17.82126],[178.34476,-17.82625]]],[[[178.69122,-16.62527],[178.68203,-16.61311],[178.68948,-16.60931],[178.69122,-16.62527]]],[[[178.67686,-17.58946],[178.66673,-17.58246],[178.67108,-17.57392],[178.68072,-17.57114],[178.68491,-17.57458],[178.68427,-17.57819],[178.67854,-17.58262],[178.67686,-17.58946]]],[[[178.6412,-18.03323],[178.63442,-18.03069],[178.62897,-18.02314],[178.63273,-18.02233],[178.63493,-18.02746],[178.6387,-18.02807],[178.64029,-18.02471],[178.64367,-18.02687],[178.64506,-18.03098],[178.6412,-18.03323]]],[[[178.626,-18.08551],[178.63504,-18.09953],[178.62968,-18.10038],[178.62544,-18.09321],[178.626,-18.08551]]],[[[178.58337,-16.60204],[178.5791,-16.60168],[178.57344,-16.59516],[178.56466,-16.59934],[178.55302,-16.5975],[178.55632,-16.59194],[178.57977,-16.58545],[178.58612,-16.57871],[178.61684,-16.5795],[178.62616,-16.57569],[178.62885,-16.5785],[178.60887,-16.58407],[178.60175,-16.59494],[178.5964,-16.59421],[178.58337,-16.60204]]],[[[178.61776,-17.9452],[178.61318,-17.94472],[178.60854,-17.93704],[178.62201,-17.93924],[178.61776,-17.9452]]],[[[178.61259,-18.08561],[178.62085,-18.07754],[178.62185,-18.0832],[178.61613,-18.09058],[178.61259,-18.08561]]],[[[178.61641,-17.97367],[178.61398,-17.97317],[178.61503,-17.96995],[178.61641,-17.97367]]],[[[178.58888,-17.93437],[178.5934,-17.92879],[178.60174,-17.92834],[178.60018,-17.93453],[178.58888,-17.93437]]],[[[178.59005,-17.64168],[178.58763,-17.6417],[178.58653,-17.6381],[178.59005,-17.64168]]],[[[178.57326,-18.14489],[178.57235,-18.13408],[178.57818,-18.13764],[178.57326,-18.14489]]],[[[178.57039,-16.87617],[178.56901,-16.87013],[178.57597,-16.87059],[178.57039,-16.87617]]],[[[178.53006,-18.13339],[178.5396,-18.1158],[178.54924,-18.10903],[178.55242,-18.10282],[178.55968,-18.10148],[178.56134,-18.10687],[178.57082,-18.11298],[178.5712,-18.12533],[178.56744,-18.12639],[178.5664,-18.13104],[178.56316,-18.12978],[178.56078,-18.13469],[178.55754,-18.13446],[178.55435,-18.13912],[178.55657,-18.14605],[178.54627,-18.13841],[178.53715,-18.14286],[178.52446,-18.13962],[178.53006,-18.13339]]],[[[178.56737,-18.08187],[178.56858,-18.07308],[178.57194,-18.07254],[178.56737,-18.08187]]],[[[178.55928,-18.08758],[178.56136,-18.07906],[178.56393,-18.08058],[178.55928,-18.08758]]],[[[178.53289,-18.84591],[178.52652,-18.84519],[178.52468,-18.83542],[178.5341,-18.83109],[178.54053,-18.83941],[178.53289,-18.84591]]],[[[178.52469,-18.13536],[178.52676,-18.12569],[178.53319,-18.12126],[178.5315,-18.12797],[178.52469,-18.13536]]],[[[178.52767,-18.80771],[178.52483,-18.80709],[178.52648,-18.79601],[178.52919,-18.79573],[178.53118,-18.80678],[178.52767,-18.80771]]],[[[178.52647,-18.15376],[178.52436,-18.15919],[178.5142,-18.15232],[178.51342,-18.1397],[178.51812,-18.13864],[178.52547,-18.14759],[178.52647,-18.15376]]],[[[178.52193,-18.77106],[178.51718,-18.76853],[178.52664,-18.75287],[178.52193,-18.77106]]],[[[178.52154,-18.81716],[178.52323,-18.80942],[178.52343,-18.81663],[178.52154,-18.81716]]],[[[178.51791,-18.86444],[178.52137,-18.85836],[178.52113,-18.86236],[178.51791,-18.86444]]],[[[178.5106,-18.89425],[178.51956,-18.89752],[178.51577,-18.913],[178.50942,-18.91357],[178.50756,-18.9177],[178.51191,-18.91999],[178.50909,-18.92155],[178.50159,-18.91556],[178.48882,-18.92506],[178.49151,-18.93792],[178.48042,-18.93865],[178.48018,-18.92719],[178.47514,-18.92247],[178.4681,-18.92278],[178.45832,-18.91758],[178.45962,-18.91203],[178.45664,-18.91167],[178.45427,-18.90345],[178.45591,-18.88953],[178.46944,-18.88994],[178.46696,-18.88494],[178.461,-18.88383],[178.46152,-18.88125],[178.48526,-18.87411],[178.48654,-18.86534],[178.49412,-18.86605],[178.49151,-18.87663],[178.50393,-18.8746],[178.50796,-18.87109],[178.51165,-18.8757],[178.5101,-18.88343],[178.513,-18.89036],[178.5106,-18.89425]]],[[[178.5065,-18.73823],[178.50431,-18.73413],[178.50917,-18.73383],[178.5065,-18.73823]]],[[[178.49806,-18.79199],[178.49505,-18.78854],[178.49816,-18.78774],[178.49806,-18.79199]]],[[[178.3909,-18.94488],[178.40742,-18.94707],[178.41491,-18.95217],[178.41762,-18.96837],[178.41304,-18.97072],[178.41337,-18.97793],[178.4089,-18.98269],[178.41267,-18.99184],[178.42264,-18.98661],[178.42095,-18.9789],[178.42555,-18.97784],[178.42721,-18.98246],[178.43031,-18.98063],[178.43024,-18.97265],[178.42571,-18.96496],[178.43404,-18.95846],[178.44083,-18.96046],[178.4443,-18.95542],[178.44973,-18.95756],[178.45552,-18.96936],[178.47066,-18.96744],[178.47291,-18.97708],[178.47643,-18.97744],[178.47666,-18.98851],[178.48115,-18.99053],[178.48366,-18.99914],[178.4674,-18.99695],[178.46417,-18.99904],[178.47426,-19.0081],[178.46958,-19.01432],[178.46898,-19.0232],[178.46357,-19.02389],[178.45838,-19.01762],[178.4535,-19.01766],[178.45381,-19.02139],[178.45082,-19.02013],[178.44628,-19.01244],[178.44264,-19.0135],[178.44213,-19.01736],[178.4342,-19.01776],[178.43576,-19.02188],[178.45415,-19.02937],[178.45234,-19.0402],[178.44487,-19.03717],[178.44253,-19.03268],[178.43962,-19.0403],[178.43321,-19.03469],[178.43657,-19.03234],[178.43465,-19.0294],[178.42731,-19.02611],[178.42437,-19.03064],[178.41868,-19.02991],[178.40895,-19.01582],[178.40614,-19.01957],[178.40368,-19.01727],[178.40207,-19.01922],[178.40956,-19.02457],[178.40579,-19.02717],[178.4053,-19.03258],[178.41069,-19.04516],[178.39796,-19.04564],[178.38329,-19.0397],[178.38267,-19.04692],[178.37686,-19.04851],[178.37475,-19.0547],[178.36556,-19.05747],[178.35983,-19.05185],[178.35523,-19.0524],[178.34905,-19.05837],[178.34854,-19.04588],[178.34448,-19.04617],[178.34105,-19.03989],[178.32695,-19.05505],[178.31939,-19.05768],[178.31788,-19.0546],[178.32188,-19.04685],[178.33482,-19.04032],[178.33895,-19.03127],[178.3351,-19.02383],[178.31821,-19.02872],[178.31805,-19.0255],[178.31302,-19.02296],[178.31035,-19.02749],[178.3052,-19.02637],[178.30203,-19.01969],[178.30401,-19.01272],[178.31404,-19.0142],[178.31902,-19.01056],[178.31237,-19.00627],[178.30777,-19.00832],[178.30703,-19.00112],[178.29118,-18.99917],[178.28556,-18.99045],[178.27729,-18.9887],[178.28233,-18.99227],[178.28168,-18.99653],[178.27178,-18.99415],[178.27224,-19.00059],[178.26927,-19.00112],[178.26434,-18.99407],[178.26287,-18.99704],[178.26851,-19.00834],[178.26284,-19.01044],[178.26288,-19.01649],[178.25159,-19.0142],[178.25287,-19.0172],[178.24828,-19.01903],[178.23714,-19.01383],[178.23297,-19.01785],[178.23343,-19.02506],[178.22939,-19.0274],[178.23827,-19.03893],[178.23327,-19.04012],[178.22908,-19.03496],[178.22635,-19.03695],[178.22707,-19.04312],[178.2211,-19.04149],[178.2125,-19.05043],[178.21281,-19.05648],[178.20656,-19.0533],[178.20624,-19.04584],[178.20083,-19.04665],[178.19992,-19.05309],[178.18024,-19.04626],[178.17878,-19.04988],[178.16699,-19.04879],[178.17136,-19.05482],[178.17924,-19.05812],[178.17873,-19.06224],[178.16737,-19.06527],[178.15638,-19.06109],[178.16384,-19.08216],[178.16231,-19.09582],[178.16684,-19.10519],[178.17296,-19.10915],[178.17285,-19.11224],[178.17881,-19.1122],[178.18711,-19.11781],[178.18147,-19.14334],[178.15719,-19.15805],[178.14226,-19.15544],[178.14412,-19.14937],[178.14764,-19.14935],[178.15436,-19.14197],[178.15539,-19.13321],[178.15187,-19.13465],[178.15049,-19.12963],[178.15316,-19.12472],[178.145,-19.11949],[178.14147,-19.11913],[178.13312,-19.12614],[178.13449,-19.12896],[178.1224,-19.14371],[178.11691,-19.13357],[178.10881,-19.13761],[178.10578,-19.15077],[178.08996,-19.15524],[178.08784,-19.16272],[178.08187,-19.16095],[178.07923,-19.15093],[178.07015,-19.15175],[178.0713,-19.16153],[178.0648,-19.16131],[178.05554,-19.15505],[178.04607,-19.1573],[178.04429,-19.15447],[178.0487,-19.14518],[178.04384,-19.14804],[178.0327,-19.14295],[178.01891,-19.14805],[178.00778,-19.14489],[178.00757,-19.15416],[178.01596,-19.15206],[178.01547,-19.16056],[178.01874,-19.16337],[178.01494,-19.16327],[178.00407,-19.15805],[178.00523,-19.148],[178.00208,-19.14312],[177.99203,-19.13828],[177.97094,-19.14741],[177.96921,-19.1518],[177.97144,-19.13891],[177.96083,-19.13317],[177.95217,-19.13463],[177.95293,-19.12432],[177.95577,-19.12354],[177.95581,-19.10834],[177.96884,-19.11175],[177.98397,-19.10472],[178.00755,-19.10562],[178.01619,-19.10209],[178.02546,-19.08865],[178.02796,-19.07782],[178.0358,-19.07391],[178.05013,-19.0701],[178.06613,-19.0731],[178.0699,-19.06934],[178.0902,-19.06793],[178.09163,-19.0799],[178.10759,-19.07581],[178.11602,-19.0813],[178.12085,-19.07367],[178.11711,-19.06134],[178.11908,-19.05334],[178.12473,-19.04777],[178.12905,-19.04491],[178.14231,-19.04444],[178.15117,-19.05263],[178.15754,-19.05246],[178.16143,-19.04818],[178.15841,-19.04151],[178.16143,-19.0093],[178.15957,-18.99463],[178.17381,-18.97935],[178.18573,-18.98081],[178.19031,-18.97731],[178.20547,-18.97773],[178.21569,-18.968],[178.22893,-18.96469],[178.24599,-18.96574],[178.25352,-18.95912],[178.25867,-18.9605],[178.2558,-18.97469],[178.26014,-18.97543],[178.26199,-18.96949],[178.2756,-18.97945],[178.27448,-18.97507],[178.2773,-18.97171],[178.27295,-18.96968],[178.27305,-18.9653],[178.27936,-18.9583],[178.28075,-18.94542],[178.29541,-18.95137],[178.30534,-18.95159],[178.31286,-18.93283],[178.32854,-18.9313],[178.34077,-18.93791],[178.36375,-18.93491],[178.37505,-18.94371],[178.37592,-18.94963],[178.3793,-18.94986],[178.38116,-18.94521],[178.3909,-18.94488]]],[[[178.48136,-19.01422],[178.47562,-19.0086],[178.47858,-19.00639],[178.48136,-19.01422]]],[[[178.41669,-18.98692],[178.4137,-18.98578],[178.41394,-18.98127],[178.41801,-18.98279],[178.41669,-18.98692]]],[[[178.29559,-16.8249],[178.28755,-16.82276],[178.28753,-16.8198],[178.2774,-16.82399],[178.2763,-16.81987],[178.28672,-16.81878],[178.28787,-16.81053],[178.27835,-16.80659],[178.27831,-16.80106],[178.2713,-16.79157],[178.27503,-16.79052],[178.29036,-16.80381],[178.28925,-16.79764],[178.29351,-16.79426],[178.29686,-16.79579],[178.29651,-16.80352],[178.29836,-16.79938],[178.30344,-16.79935],[178.30508,-16.80475],[178.30972,-16.79983],[178.31042,-16.80446],[178.31389,-16.80366],[178.3152,-16.79902],[178.32374,-16.79716],[178.32178,-16.80258],[178.32463,-16.809],[178.31769,-16.81072],[178.31558,-16.81576],[178.32791,-16.81929],[178.326,-16.83347],[178.3236,-16.83374],[178.32182,-16.82808],[178.31646,-16.82709],[178.31518,-16.83534],[178.31118,-16.83614],[178.30712,-16.82972],[178.30177,-16.82976],[178.29559,-16.8249]]],[[[178.28232,-16.83992],[178.27736,-16.83841],[178.27492,-16.83327],[178.27662,-16.82734],[178.28187,-16.83349],[178.28232,-16.83992]]],[[[178.26402,-18.18207],[178.26557,-18.17278],[178.27446,-18.17234],[178.27555,-18.17439],[178.26402,-18.18207]]],[[[178.25482,-19.0244],[178.25048,-19.02301],[178.25153,-19.01953],[178.25534,-19.02143],[178.25482,-19.0244]]],[[[178.2331,-17.3291],[178.21862,-17.32855],[178.22233,-17.3217],[178.23473,-17.31158],[178.24049,-17.31129],[178.2331,-17.3291]]],[[[178.21876,-17.30859],[178.2177,-17.29134],[178.20357,-17.28176],[178.19929,-17.2832],[178.20139,-17.27688],[178.21134,-17.28171],[178.22686,-17.27686],[178.22014,-17.29493],[178.22449,-17.3034],[178.21876,-17.30859]]],[[[178.20252,-18.21144],[178.2022,-18.20397],[178.20785,-18.20342],[178.20252,-18.21144]]],[[[178.1811,-19.09055],[178.17455,-19.08441],[178.1761,-19.07384],[178.17335,-19.06742],[178.18092,-19.06506],[178.18558,-19.07327],[178.19319,-19.07721],[178.19833,-19.07576],[178.19916,-19.07923],[178.19105,-19.08032],[178.18812,-19.08845],[178.1811,-19.09055]]],[[[178.16977,-18.39192],[178.16581,-18.40392],[178.15014,-18.40131],[178.14503,-18.40341],[178.14737,-18.4106],[178.14106,-18.41566],[178.13321,-18.41107],[178.13474,-18.41866],[178.13059,-18.42268],[178.12866,-18.41741],[178.12276,-18.42273],[178.10806,-18.42346],[178.10791,-18.42011],[178.10279,-18.42168],[178.08911,-18.41301],[178.09094,-18.4045],[178.09377,-18.40332],[178.10216,-18.40778],[178.10593,-18.40621],[178.10766,-18.40234],[178.09857,-18.39467],[178.10197,-18.37855],[178.10521,-18.37814],[178.11427,-18.36084],[178.12153,-18.35706],[178.13988,-18.35862],[178.1476,-18.36373],[178.15121,-18.37916],[178.14463,-18.38409],[178.1495,-18.38561],[178.14661,-18.39683],[178.15444,-18.39768],[178.15397,-18.36858],[178.16125,-18.36828],[178.16977,-18.39192]]],[[[178.14918,-17.33153],[178.13413,-17.32595],[178.12737,-17.31633],[178.13861,-17.31331],[178.146,-17.31649],[178.15172,-17.3086],[178.15843,-17.30946],[178.15926,-17.31306],[178.14918,-17.33153]]],[[[178.15398,-18.41005],[178.15125,-18.40569],[178.15503,-18.40541],[178.15667,-18.40874],[178.15398,-18.41005]]],[[[178.11982,-19.16317],[178.11711,-19.16306],[178.11844,-19.15932],[178.11982,-19.16317]]],[[[178.10515,-19.15669],[178.11185,-19.16593],[178.11002,-19.17727],[178.10502,-19.17871],[178.09617,-19.1722],[178.09954,-19.16909],[178.09729,-19.15751],[178.10515,-19.15669]]],[[[178.0632,-17.34953],[178.05325,-17.3452],[178.05377,-17.34314],[178.06452,-17.3463],[178.0632,-17.34953]]],[[[178.03615,-17.35714],[178.03104,-17.35369],[178.03558,-17.35147],[178.03869,-17.35519],[178.03615,-17.35714]]],[[[177.99736,-18.38711],[177.98628,-18.38446],[177.98491,-18.38112],[177.99096,-18.37646],[177.99027,-18.37388],[178.00348,-18.37381],[178.00149,-18.37923],[177.99652,-18.38158],[177.99736,-18.38711]]],[[[177.94374,-19.12926],[177.94345,-19.12618],[177.94724,-19.1259],[177.94374,-19.12926]]],[[[177.83076,-17.37394],[177.82163,-17.37153],[177.82027,-17.3669],[177.82751,-17.36725],[177.83076,-17.37394]]],[[[177.75682,-16.66555],[177.75266,-16.66222],[177.75572,-16.65693],[177.75682,-16.66555]]],[[[177.68197,-17.47239],[177.68276,-17.46672],[177.68423,-17.46723],[177.68197,-17.47239]]],[[[177.63587,-18.57862],[177.60162,-18.5164],[177.60133,-18.51177],[177.6273,-18.48837],[177.63433,-18.49157],[177.64724,-18.51265],[177.63979,-18.54435],[177.64787,-18.57395],[177.65995,-18.58859],[177.65688,-18.59864],[177.64905,-18.59996],[177.64146,-18.59354],[177.63587,-18.57862]]],[[[177.54272,-16.75266],[177.54872,-16.74659],[177.54776,-16.73989],[177.55283,-16.73485],[177.56219,-16.73637],[177.56831,-16.72489],[177.57631,-16.71792],[177.57881,-16.7076],[177.57198,-16.70002],[177.56583,-16.70107],[177.56474,-16.69412],[177.57865,-16.69575],[177.58153,-16.70127],[177.58534,-16.70037],[177.58643,-16.70629],[177.59071,-16.70615],[177.57927,-16.7268],[177.57101,-16.7339],[177.56263,-16.74861],[177.55955,-16.74875],[177.55783,-16.75352],[177.56038,-16.75815],[177.53034,-16.77111],[177.52487,-16.77705],[177.5249,-16.78684],[177.51863,-16.79304],[177.52172,-16.79844],[177.51611,-16.7991],[177.5093,-16.80517],[177.50381,-16.80106],[177.49218,-16.80341],[177.48993,-16.81166],[177.48286,-16.81914],[177.49519,-16.82968],[177.48568,-16.82519],[177.47128,-16.84133],[177.46085,-16.84251],[177.45228,-16.83944],[177.44052,-16.84565],[177.43663,-16.83934],[177.4413,-16.83341],[177.44168,-16.82516],[177.43833,-16.82053],[177.43911,-16.81486],[177.44126,-16.81589],[177.44445,-16.80944],[177.44834,-16.81252],[177.45333,-16.83003],[177.45734,-16.83067],[177.50963,-16.77889],[177.52112,-16.77319],[177.52404,-16.76739],[177.54272,-16.75266]]],[[[177.56313,-16.69219],[177.55911,-16.68859],[177.55816,-16.68344],[177.56069,-16.68163],[177.56205,-16.68807],[177.56472,-16.68832],[177.56313,-16.69219]]],[[[177.47798,-16.84775],[177.47235,-16.84364],[177.4769,-16.84273],[177.47798,-16.84775]]],[[[177.4657,-16.85654],[177.46475,-16.85242],[177.46968,-16.84623],[177.47692,-16.84994],[177.47345,-16.85433],[177.4657,-16.85654]]],[[[177.45888,-16.80129],[177.45325,-16.79564],[177.45779,-16.79395],[177.45888,-16.80129]]],[[[177.38688,-16.90694],[177.39219,-16.89018],[177.41067,-16.89427],[177.41769,-16.86643],[177.43867,-16.85273],[177.43869,-16.86407],[177.44246,-16.87359],[177.44621,-16.87384],[177.44301,-16.87797],[177.43364,-16.87722],[177.43392,-16.88327],[177.4457,-16.88698],[177.43757,-16.90014],[177.43423,-16.90324],[177.42538,-16.89295],[177.42834,-16.90055],[177.4206,-16.91009],[177.41724,-16.90327],[177.41658,-16.9074],[177.40614,-16.90394],[177.40454,-16.90639],[177.40802,-16.90716],[177.40722,-16.90961],[177.40107,-16.91103],[177.40496,-16.91489],[177.40135,-16.91851],[177.41285,-16.91603],[177.4138,-16.92028],[177.41019,-16.92106],[177.40432,-16.93035],[177.39615,-16.92805],[177.39186,-16.92187],[177.38262,-16.92215],[177.38315,-16.91648],[177.38742,-16.91286],[177.38688,-16.90694]]],[[[177.43826,-17.5908],[177.43906,-17.58642],[177.44162,-17.59131],[177.43826,-17.5908]]],[[[177.43462,-17.75143],[177.42504,-17.73483],[177.42759,-17.73405],[177.43406,-17.7446],[177.43462,-17.75143]]],[[[177.4097,-18.13916],[177.40674,-18.13904],[177.40726,-18.13324],[177.41077,-18.13388],[177.4097,-18.13916]]],[[[177.36803,-17.79046],[177.36517,-17.77231],[177.37094,-17.76753],[177.38249,-17.7657],[177.37954,-17.76841],[177.38373,-17.77588],[177.38078,-17.78103],[177.36707,-17.78286],[177.36803,-17.79046]]],[[[177.37228,-16.97176],[177.3684,-16.96958],[177.37479,-16.95153],[177.36662,-16.94897],[177.36981,-16.93995],[177.37731,-16.94225],[177.3792,-16.94727],[177.37558,-16.94638],[177.37438,-16.95076],[177.37988,-16.95539],[177.37803,-16.96879],[177.37228,-16.97176]]],[[[177.37696,-17.81633],[177.37372,-17.81389],[177.37802,-17.81092],[177.37696,-17.81633]]],[[[177.37157,-17.81248],[177.37008,-17.8063],[177.37263,-17.80784],[177.37157,-17.81248]]],[[[177.35963,-16.93417],[177.35293,-16.92993],[177.35906,-16.91678],[177.36388,-16.91523],[177.3659,-16.92475],[177.35963,-16.93417]]],[[[177.36474,-17.76149],[177.36084,-17.76021],[177.36231,-17.7575],[177.36474,-17.76149]]],[[[177.32515,-16.96373],[177.3333,-16.95238],[177.33555,-16.94052],[177.33956,-16.93807],[177.34734,-16.94321],[177.35563,-16.94062],[177.35912,-16.94538],[177.36048,-16.95671],[177.35781,-16.96251],[177.35191,-16.95685],[177.34093,-16.95571],[177.34536,-16.96292],[177.34457,-16.97039],[177.34967,-16.97785],[177.34419,-16.98237],[177.33535,-16.97672],[177.32919,-16.97647],[177.32515,-16.96373]]],[[[177.3343,-16.98818],[177.33858,-16.9856],[177.34822,-16.98842],[177.35091,-16.99485],[177.3453,-17.00027],[177.3386,-16.99797],[177.33206,-17.00983],[177.32658,-17.01164],[177.32874,-17.02323],[177.3183,-17.02685],[177.31349,-17.03472],[177.31055,-17.03472],[177.30732,-17.02636],[177.3112,-17.02377],[177.30676,-17.01373],[177.32149,-17.00985],[177.32522,-16.99979],[177.33378,-16.99488],[177.3343,-16.98818]]],[[[177.32732,-16.97738],[177.33027,-16.97853],[177.32626,-16.98253],[177.32732,-16.97738]]],[[[177.30733,-17.67516],[177.30302,-17.67092],[177.30894,-17.67219],[177.30733,-17.67516]]],[[[177.22655,-17.10658],[177.2244,-17.10298],[177.23216,-17.09344],[177.23,-17.08571],[177.24793,-17.06791],[177.25231,-17.06928],[177.25384,-17.07963],[177.24607,-17.08247],[177.24514,-17.08878],[177.25144,-17.09329],[177.2576,-17.0916],[177.2619,-17.10165],[177.26753,-17.1019],[177.2738,-17.08566],[177.28224,-17.0841],[177.28557,-17.07353],[177.28328,-17.06787],[177.29265,-17.06515],[177.29522,-17.07996],[177.2836,-17.10239],[177.26916,-17.11555],[177.26246,-17.11491],[177.25564,-17.12329],[177.23997,-17.13078],[177.23236,-17.15089],[177.22805,-17.13209],[177.22631,-17.12938],[177.21921,-17.13029],[177.21146,-17.15426],[177.21215,-17.16418],[177.20759,-17.16173],[177.20517,-17.1553],[177.19338,-17.1611],[177.18976,-17.15969],[177.19939,-17.14242],[177.20649,-17.14009],[177.20568,-17.13262],[177.20876,-17.12979],[177.20674,-17.12335],[177.21478,-17.12231],[177.21705,-17.11612],[177.22669,-17.11045],[177.22655,-17.10658]]],[[[177.27294,-17.50235],[177.25869,-17.48833],[177.26943,-17.48832],[177.27294,-17.50235]]],[[[177.18625,-17.78454],[177.18919,-17.77552],[177.19417,-17.77435],[177.19322,-17.76611],[177.20666,-17.76507],[177.20196,-17.77357],[177.20358,-17.77795],[177.18625,-17.78454]]],[[[177.20166,-17.85923],[177.20058,-17.85575],[177.20434,-17.85652],[177.20166,-17.85923]]],[[[177.19045,-17.17862],[177.1875,-17.17335],[177.19071,-17.16639],[177.19393,-17.16664],[177.19581,-17.17411],[177.19045,-17.17862]]],[[[177.1916,-17.7656],[177.18219,-17.75891],[177.15934,-17.76138],[177.15342,-17.7543],[177.15717,-17.74888],[177.14574,-17.74091],[177.15098,-17.73858],[177.15017,-17.73549],[177.16791,-17.73252],[177.18216,-17.73675],[177.1916,-17.7656]]],[[[177.1886,-17.2004],[177.17693,-17.19036],[177.18134,-17.1767],[177.18229,-17.18932],[177.1886,-17.2004]]],[[[177.17414,-17.21226],[177.17105,-17.20608],[177.17413,-17.20067],[177.17789,-17.20852],[177.17414,-17.21226]]],[[[177.17359,-17.19989],[177.16795,-17.19114],[177.17305,-17.19036],[177.1756,-17.19732],[177.17359,-17.19989]]],[[[177.13481,-17.32229],[177.14635,-17.32589],[177.15361,-17.34804],[177.15119,-17.34676],[177.14101,-17.3532],[177.1284,-17.34909],[177.12704,-17.33415],[177.13481,-17.32229]]],[[[177.12486,-17.27232],[177.13451,-17.26858],[177.13879,-17.25892],[177.14871,-17.26355],[177.14617,-17.27385],[177.15101,-17.28647],[177.14525,-17.29421],[177.14713,-17.29704],[177.14311,-17.2973],[177.13748,-17.30503],[177.14178,-17.31327],[177.13213,-17.32075],[177.12904,-17.31096],[177.11817,-17.30659],[177.10517,-17.31948],[177.10101,-17.30711],[177.10664,-17.29809],[177.10355,-17.28908],[177.10716,-17.27491],[177.09885,-17.27079],[177.10018,-17.26693],[177.10501,-17.26615],[177.10554,-17.25971],[177.11252,-17.27529],[177.11762,-17.27671],[177.12486,-17.27232]]],[[[177.13833,-17.36428],[177.14585,-17.37394],[177.14022,-17.37304],[177.13231,-17.37768],[177.13297,-17.36764],[177.13833,-17.36428]]],[[[177.03033,-12.49504],[177.03086,-12.50522],[177.03978,-12.50651],[177.04712,-12.50354],[177.0462,-12.4989],[177.0521,-12.4904],[177.06102,-12.48576],[177.06416,-12.4806],[177.07728,-12.47931],[177.11348,-12.48896],[177.12502,-12.48702],[177.13722,-12.49526],[177.14037,-12.50196],[177.13828,-12.51743],[177.13212,-12.52194],[177.12093,-12.52294],[177.11769,-12.52659],[177.11533,-12.52208],[177.09015,-12.52389],[177.06129,-12.52003],[177.04948,-12.5096],[177.04174,-12.51153],[177.03794,-12.50934],[177.03256,-12.51875],[177.01879,-12.51489],[177.00751,-12.50587],[177.00699,-12.49659],[177.01014,-12.49298],[177.01617,-12.4944],[177.02718,-12.49066],[177.03033,-12.49504]]],[[[177.13673,-17.73731],[177.12692,-17.73396],[177.13135,-17.73023],[177.13807,-17.73087],[177.13955,-17.7337],[177.13673,-17.73731]]],[[[177.12564,-17.63015],[177.12644,-17.62525],[177.12859,-17.6286],[177.12564,-17.63015]]],[[[177.11654,-17.68193],[177.10686,-17.67485],[177.09665,-17.67589],[177.09422,-17.66984],[177.11196,-17.67266],[177.11774,-17.67755],[177.11654,-17.68193]]],[[[177.09259,-17.62501],[177.08345,-17.61909],[177.08936,-17.60879],[177.09312,-17.60801],[177.09997,-17.6178],[177.09259,-17.62501]]],[[[177.09445,-17.58264],[177.08948,-17.58071],[177.08773,-17.57504],[177.09108,-17.56886],[177.09458,-17.57195],[177.09445,-17.58264]]],[[[177.06706,-17.60236],[177.04906,-17.5842],[177.05631,-17.58587],[177.06141,-17.59218],[177.06544,-17.59154],[177.06706,-17.60236]]],[[[177.0668,-17.63984],[177.06465,-17.63662],[177.0668,-17.6361],[177.0668,-17.63984]]],[[[177.06485,-17.43864],[177.06002,-17.43645],[177.06619,-17.43671],[177.06485,-17.43864]]],[[[177.0509,-17.45977],[177.05009,-17.45037],[177.05533,-17.45397],[177.0509,-17.45977]]],[[[177.05252,-17.49854],[177.0497,-17.49391],[177.05252,-17.48695],[177.05252,-17.49854]]],[[[177.04419,-17.4666],[177.03963,-17.45887],[177.04876,-17.46119],[177.04419,-17.4666]]],[[[177.03993,-17.60185],[177.0363,-17.59438],[177.04261,-17.59],[177.04651,-17.59334],[177.0453,-17.59875],[177.03993,-17.60185]]],[[[177.03348,-17.61164],[177.02959,-17.61009],[177.0308,-17.60649],[177.04047,-17.60829],[177.03348,-17.61164]]],[[[176.99414,-12.46888],[176.98679,-12.46618],[176.98758,-12.46179],[176.99519,-12.46257],[176.99414,-12.46888]]],[[[176.93668,-17.117],[176.93239,-17.11352],[176.93909,-17.1134],[176.93668,-17.117]]],[[[176.92353,-17.15216],[176.90987,-17.1492],[176.91121,-17.14392],[176.91684,-17.14392],[176.92501,-17.13529],[176.92475,-17.12344],[176.9273,-17.12138],[176.93587,-17.12319],[176.936,-17.1389],[176.93131,-17.14766],[176.92353,-17.15216]]],[[[-178.25362,-19.83287],[-178.25716,-19.83272],[-178.2574,-19.82937],[-178.25329,-19.82553],[-178.25076,-19.81525],[-178.23324,-19.80147],[-178.23014,-19.80484],[-178.23019,-19.81179],[-178.23995,-19.82395],[-178.25362,-19.83287]]],[[[-178.42636,-19.17637],[-178.43267,-19.16962],[-178.42868,-19.16322],[-178.43157,-19.1529],[-178.42069,-19.14796],[-178.41407,-19.1502],[-178.41209,-19.12369],[-178.40884,-19.12372],[-178.40308,-19.11616],[-178.39741,-19.11788],[-178.39277,-19.13053],[-178.39638,-19.15729],[-178.40229,-19.16651],[-178.41278,-19.173],[-178.416,-19.16924],[-178.40864,-19.16415],[-178.40778,-19.159],[-178.41784,-19.16279],[-178.42305,-19.15451],[-178.42636,-19.17637]]],[[[-178.4229,-19.21567],[-178.43074,-19.21342],[-178.43062,-19.19925],[-178.42763,-19.19825],[-178.4263,-19.20186],[-178.42436,-19.19608],[-178.42262,-19.19854],[-178.41189,-19.19579],[-178.40177,-19.20102],[-178.40101,-19.20721],[-178.40688,-19.21218],[-178.4229,-19.21567]]],[[[-178.44239,-18.9311],[-178.44068,-18.93626],[-178.44607,-18.94961],[-178.45587,-18.95584],[-178.4522,-18.93823],[-178.44239,-18.9311]]],[[[-178.48001,-18.43354],[-178.47529,-18.43409],[-178.46673,-18.42721],[-178.45736,-18.43578],[-178.4773,-18.4485],[-178.49522,-18.44565],[-178.48923,-18.43862],[-178.47949,-18.43586],[-178.48001,-18.43354]]],[[[-178.47858,-18.706],[-178.4803,-18.70213],[-178.47689,-18.69829],[-178.47516,-18.70088],[-178.47858,-18.706]]],[[[-178.47895,-18.96506],[-178.47723,-18.96919],[-178.48415,-18.9712],[-178.49035,-18.9687],[-178.49206,-18.96263],[-178.48513,-18.95999],[-178.47895,-18.96506]]],[[[-178.50522,-18.6324],[-178.50068,-18.63785],[-178.49366,-18.63816],[-178.48849,-18.65005],[-178.48963,-18.65699],[-178.50206,-18.67208],[-178.52046,-18.66009],[-178.52344,-18.64616],[-178.51931,-18.63667],[-178.50522,-18.6324]]],[[[-178.50802,-18.9468],[-178.51068,-18.94163],[-178.50568,-18.94295],[-178.50802,-18.9468]]],[[[-178.51886,-18.91838],[-178.51822,-18.92225],[-178.52572,-18.92953],[-178.52591,-18.92013],[-178.5229,-18.91706],[-178.51886,-18.91838]]],[[[-178.58389,-19.09963],[-178.5693,-19.10413],[-178.56746,-19.10981],[-178.5709,-19.11571],[-178.57772,-19.10586],[-178.59295,-19.1132],[-178.59652,-19.11806],[-178.59689,-19.12759],[-178.60041,-19.12756],[-178.60127,-19.13244],[-178.59756,-19.13809],[-178.59707,-19.13273],[-178.59412,-19.13611],[-178.5967,-19.14002],[-178.59385,-19.144],[-178.58913,-19.13874],[-178.56831,-19.14302],[-178.56616,-19.14485],[-178.5687,-19.15018],[-178.56411,-19.15207],[-178.56439,-19.15525],[-178.56027,-19.15752],[-178.55701,-19.15085],[-178.55202,-19.15346],[-178.55728,-19.1602],[-178.55468,-19.16219],[-178.5537,-19.15911],[-178.54109,-19.15793],[-178.53793,-19.15332],[-178.53901,-19.14751],[-178.53536,-19.14838],[-178.53896,-19.16087],[-178.55886,-19.1749],[-178.56563,-19.17382],[-178.56964,-19.16902],[-178.57073,-19.15459],[-178.57435,-19.15121],[-178.60475,-19.15696],[-178.61063,-19.14858],[-178.60989,-19.12747],[-178.60109,-19.11442],[-178.59648,-19.11317],[-178.59174,-19.09982],[-178.58389,-19.09963]]],[[[-178.5432,-19.12289],[-178.54996,-19.12091],[-178.54723,-19.11861],[-178.5432,-19.12289]]],[[[-178.54664,-19.14269],[-178.54937,-19.1455],[-178.55042,-19.14189],[-178.5473,-19.13999],[-178.54664,-19.14269]]],[[[-178.55559,-19.11481],[-178.55561,-19.11738],[-178.56077,-19.11811],[-178.56018,-19.11361],[-178.55559,-19.11481]]],[[[-178.66338,-18.84016],[-178.6131,-18.84266],[-178.5962,-18.84761],[-178.59725,-18.85335],[-178.61978,-18.8623],[-178.62262,-18.86163],[-178.62023,-18.85315],[-178.62553,-18.85491],[-178.63266,-18.8515],[-178.63949,-18.85903],[-178.64728,-18.85356],[-178.67512,-18.85125],[-178.66942,-18.84937],[-178.6699,-18.84267],[-178.66338,-18.84016]]],[[[-178.61909,-18.67703],[-178.61682,-18.67963],[-178.62161,-18.68628],[-178.63325,-18.68837],[-178.63997,-18.68419],[-178.61909,-18.67703]]],[[[-178.6545,-17.73708],[-178.65663,-17.73448],[-178.65325,-17.73245],[-178.6545,-17.73708]]],[[[-178.69049,-18.32621],[-178.68296,-18.3282],[-178.67803,-18.3343],[-178.68115,-18.33672],[-178.68477,-18.3345],[-178.69049,-18.32621]]],[[[-178.68091,-20.60391],[-178.67822,-20.60792],[-178.68303,-20.61006],[-178.68091,-20.60391]]],[[[-178.70177,-18.32224],[-178.69371,-18.32541],[-178.70586,-18.32736],[-178.7088,-18.32398],[-178.70177,-18.32224]]],[[[-178.7033,-20.65003],[-178.70393,-20.65697],[-178.70678,-20.6554],[-178.70685,-20.64973],[-178.7033,-20.65003]]],[[[-178.71428,-20.62932],[-178.707,-20.63879],[-178.704,-20.63869],[-178.70352,-20.64539],[-178.71879,-20.64086],[-178.72554,-20.63307],[-178.71428,-20.62932]]],[[[-178.71313,-17.51459],[-178.71073,-17.51616],[-178.71314,-17.52927],[-178.71809,-17.5282],[-178.7187,-17.52201],[-178.71313,-17.51459]]],[[[-178.73332,-20.64406],[-178.73523,-20.65614],[-178.72828,-20.65827],[-178.7165,-20.65646],[-178.71973,-20.66402],[-178.71843,-20.6697],[-178.73089,-20.67138],[-178.74615,-20.66607],[-178.74973,-20.65574],[-178.74446,-20.63752],[-178.73049,-20.63534],[-178.73332,-20.64406]]],[[[-178.74681,-20.62771],[-178.74591,-20.63261],[-178.75018,-20.63578],[-178.75358,-20.63433],[-178.75382,-20.63124],[-178.74681,-20.62771]]],[[[-178.7491,-21.01602],[-178.75413,-21.01275],[-178.75285,-21.00903],[-178.74739,-21.0105],[-178.7491,-21.01602]]],[[[-178.80837,-18.1763],[-178.78173,-18.17848],[-178.77399,-18.18602],[-178.75654,-18.19223],[-178.74977,-18.20207],[-178.74994,-18.21907],[-178.75857,-18.23302],[-178.78126,-18.23899],[-178.7881,-18.2491],[-178.80302,-18.25784],[-178.80606,-18.23915],[-178.82565,-18.23162],[-178.83757,-18.22048],[-178.83855,-18.21515],[-178.83302,-18.2041],[-178.8322,-18.18843],[-178.81592,-18.17674],[-178.80837,-18.1763]]],[[[-178.75456,-18.60887],[-178.75693,-18.60293],[-178.75341,-18.60244],[-178.7517,-18.60632],[-178.75456,-18.60887]]],[[[-178.78528,-17.28838],[-178.79759,-17.28659],[-178.78971,-17.27585],[-178.78218,-17.27308],[-178.77658,-17.27609],[-178.77639,-17.28356],[-178.78152,-17.28877],[-178.78528,-17.28838]]],[[[-178.79861,-17.69023],[-178.80109,-17.69664],[-178.81612,-17.69573],[-178.82382,-17.68588],[-178.83156,-17.68181],[-178.83847,-17.67441],[-178.84027,-17.66641],[-178.83398,-17.65462],[-178.8176,-17.65581],[-178.81704,-17.65324],[-178.80638,-17.66157],[-178.80669,-17.67462],[-178.79861,-17.69023]]],[[[-178.82691,-18.98281],[-178.82158,-18.99033],[-178.82297,-18.99327],[-178.83244,-18.99318],[-178.83205,-18.98198],[-178.82691,-18.98281]]],[[[-178.84593,-21.04254],[-178.8523,-21.03694],[-178.85074,-21.03258],[-178.84499,-21.03381],[-178.8418,-21.04143],[-178.84593,-21.04254]]],[[[-178.88221,-17.35779],[-178.87033,-17.34914],[-178.87095,-17.37025],[-178.8807,-17.37995],[-178.88997,-17.38166],[-178.8907,-17.37445],[-178.88221,-17.35779]]],[[[-178.89253,-18.84878],[-178.88144,-18.84889],[-178.88604,-18.86172],[-178.89878,-18.87588],[-178.92083,-18.88388],[-178.92035,-18.87012],[-178.90749,-18.85687],[-178.89253,-18.84878]]],[[[-178.91138,-17.1958],[-178.9094,-17.18603],[-178.89645,-17.17676],[-178.89271,-17.17821],[-178.89741,-17.19168],[-178.90821,-17.19708],[-178.91138,-17.1958]]],[[[-179.02146,-17.16846],[-179.0252,-17.16817],[-179.0273,-17.16377],[-179.03453,-17.16421],[-179.03152,-17.15806],[-179.0225,-17.16562],[-179.01441,-17.16132],[-179.00987,-17.1624],[-179.0021,-17.18694],[-178.99808,-17.18646],[-178.99857,-17.18259],[-178.99345,-17.17981],[-178.97124,-17.18196],[-178.96893,-17.19113],[-178.96211,-17.19222],[-178.96367,-17.20019],[-178.95842,-17.18556],[-178.952,-17.18588],[-178.95514,-17.20439],[-178.95115,-17.20752],[-178.947,-17.2073],[-178.94655,-17.20345],[-178.9528,-17.19875],[-178.95121,-17.18769],[-178.94398,-17.18828],[-178.93848,-17.19992],[-178.9321,-17.20462],[-178.9319,-17.21157],[-178.92201,-17.21321],[-178.92039,-17.22481],[-178.93542,-17.24012],[-178.93455,-17.24708],[-178.94257,-17.25833],[-178.94794,-17.25931],[-178.95565,-17.25293],[-178.96155,-17.25377],[-178.98276,-17.28266],[-178.9932,-17.3186],[-178.9929,-17.32788],[-178.99622,-17.32501],[-178.99642,-17.31883],[-179.00495,-17.31411],[-179.00377,-17.27962],[-178.99657,-17.27068],[-178.99041,-17.271],[-178.9891,-17.26097],[-178.98078,-17.24766],[-178.96574,-17.24394],[-178.96617,-17.23467],[-178.97031,-17.23334],[-178.97213,-17.22792],[-178.96929,-17.22498],[-178.9626,-17.22634],[-178.96257,-17.22286],[-178.97319,-17.20138],[-178.98263,-17.19485],[-178.99093,-17.194],[-178.99256,-17.19656],[-178.99557,-17.19404],[-179.00112,-17.19583],[-179.01342,-17.19326],[-179.01137,-17.17732],[-179.02019,-17.17568],[-179.02146,-17.16846]]],[[[-178.94046,-18.92553],[-178.93188,-18.94415],[-178.9305,-18.96502],[-178.93347,-18.9758],[-178.94746,-18.99226],[-178.95613,-18.99333],[-178.97264,-18.97724],[-178.97866,-18.96426],[-178.98132,-18.94878],[-178.97902,-18.93773],[-178.97571,-18.93185],[-178.95774,-18.92277],[-178.95171,-18.91562],[-178.94525,-18.91827],[-178.94046,-18.92553]]],[[[-178.96954,-17.34974],[-178.97381,-17.34789],[-178.97291,-17.33863],[-178.96754,-17.33765],[-178.96891,-17.34073],[-178.96492,-17.34412],[-178.95976,-17.33773],[-178.95338,-17.34256],[-178.94721,-17.34223],[-178.94661,-17.33683],[-178.93539,-17.34003],[-178.96236,-17.35509],[-178.96954,-17.34974]]],[[[-178.97678,-17.29933],[-178.97969,-17.29595],[-178.97448,-17.29767],[-178.97678,-17.29933]]],[[[-178.98999,-17.33151],[-178.98994,-17.327],[-178.98219,-17.32901],[-178.97592,-17.34491],[-178.98237,-17.34613],[-178.98999,-17.33151]]],[[[-179.00622,-17.19617],[-179.00304,-17.19929],[-179.00523,-17.20416],[-179.00871,-17.20387],[-179.01132,-17.1974],[-179.00622,-17.19617]]],[[[-179.0309,-17.1748],[-179.02476,-17.17718],[-179.0248,-17.18002],[-179.02962,-17.1801],[-179.0309,-17.1748]]],[[[-179.0751,-17.97561],[-179.07826,-17.96914],[-179.06407,-17.95243],[-179.04613,-17.95918],[-179.03731,-17.96417],[-179.02915,-17.98022],[-179.03159,-17.99998],[-179.04067,-18.00312],[-179.05415,-18.0012],[-179.05842,-17.99397],[-179.07223,-17.98285],[-179.0751,-17.97561]]],[[[-179.03909,-17.16468],[-179.03563,-17.16678],[-179.03594,-17.17063],[-179.0428,-17.17314],[-179.045,-17.16617],[-179.04121,-17.16208],[-179.03909,-17.16468]]],[[[-179.09086,-18.72721],[-179.09448,-18.72485],[-179.09376,-18.72151],[-179.08887,-18.71925],[-179.0873,-18.72364],[-179.09086,-18.72721]]],[[[-179.10095,-16.7549],[-179.10621,-16.74713],[-179.10072,-16.74538],[-179.10095,-16.7549]]],[[[-179.15039,-17.24695],[-179.14157,-17.2491],[-179.13191,-17.25924],[-179.13334,-17.26695],[-179.12949,-17.2706],[-179.14143,-17.28347],[-179.16003,-17.28109],[-179.16303,-17.27384],[-179.16651,-17.27381],[-179.16973,-17.26219],[-179.16433,-17.24705],[-179.15039,-17.24695]]],[[[-179.18393,-17.45436],[-179.18064,-17.43714],[-179.17232,-17.42578],[-179.15646,-17.42234],[-179.15003,-17.42332],[-179.13573,-17.43866],[-179.13247,-17.44693],[-179.13257,-17.45543],[-179.13655,-17.46285],[-179.14791,-17.47148],[-179.17469,-17.46707],[-179.18393,-17.45436]]],[[[-179.16905,-16.08911],[-179.16832,-16.08268],[-179.16274,-16.08377],[-179.15348,-16.08979],[-179.15461,-16.09544],[-179.16312,-16.09484],[-179.16905,-16.08911]]],[[[-179.19096,-17.11983],[-179.19236,-17.12471],[-179.19435,-17.1234],[-179.19096,-17.11983]]],[[[-179.25367,-16.30516],[-179.25067,-16.29915],[-179.25046,-16.3043],[-179.25367,-16.30516]]],[[[-179.29498,-16.99897],[-179.27373,-17.01169],[-179.26192,-17.00886],[-179.25879,-17.01559],[-179.27449,-17.03099],[-179.28609,-17.02764],[-179.29589,-17.01852],[-179.29281,-17.00749],[-179.29498,-16.99897]]],[[[-179.27218,-18.38285],[-179.28032,-18.37619],[-179.27972,-18.36152],[-179.27082,-18.36073],[-179.26158,-18.3656],[-179.26312,-18.38051],[-179.27218,-18.38285]]],[[[-179.34015,-17.73421],[-179.33821,-17.72935],[-179.32441,-17.7214],[-179.31525,-17.71996],[-179.29248,-17.72448],[-179.28341,-17.72973],[-179.28028,-17.73672],[-179.28073,-17.76195],[-179.2877,-17.77088],[-179.30177,-17.77843],[-179.31778,-17.76975],[-179.32503,-17.76941],[-179.3318,-17.77383],[-179.34523,-17.76324],[-179.34639,-17.75911],[-179.34015,-17.73421]]],[[[-179.41206,-15.95611],[-179.41362,-15.95313],[-179.41121,-15.95148],[-179.40348,-15.95028],[-179.41206,-15.95611]]],[[[-179.4767,-17.26546],[-179.48551,-17.26303],[-179.49657,-17.24912],[-179.48828,-17.25],[-179.4767,-17.26546]]],[[[-179.53204,-17.2667],[-179.54718,-17.25698],[-179.53862,-17.24821],[-179.52871,-17.24859],[-179.52571,-17.24464],[-179.50424,-17.25134],[-179.51089,-17.26799],[-179.51909,-17.27034],[-179.53204,-17.2667]]],[[[-179.53809,-17.4239],[-179.52622,-17.41877],[-179.51919,-17.4244],[-179.51982,-17.4316],[-179.52554,-17.43744],[-179.53534,-17.43835],[-179.53941,-17.43212],[-179.53809,-17.4239]]],[[[-179.6988,-16.78141],[-179.69869,-16.77343],[-179.69207,-16.76837],[-179.69036,-16.76067],[-179.69679,-16.75222],[-179.70171,-16.75074],[-179.70243,-16.74507],[-179.6981,-16.74126],[-179.69559,-16.74323],[-179.6776,-16.73651],[-179.6696,-16.73752],[-179.66444,-16.7511],[-179.67168,-16.75293],[-179.67537,-16.75855],[-179.67802,-16.76701],[-179.67514,-16.77091],[-179.67888,-16.78038],[-179.69781,-16.78708],[-179.7002,-16.78602],[-179.6988,-16.78141]]],[[[-179.67067,-16.46749],[-179.67478,-16.46589],[-179.67644,-16.46021],[-179.66865,-16.45645],[-179.67207,-16.46232],[-179.67067,-16.46749]]],[[[-179.68206,-16.50055],[-179.67735,-16.49726],[-179.67724,-16.49932],[-179.68206,-16.50055]]],[[[-179.69495,-16.50617],[-179.70176,-16.49695],[-179.68976,-16.49762],[-179.69495,-16.50617]]],[[[-179.78133,-16.79755],[-179.77794,-16.80352],[-179.78382,-16.8037],[-179.8006,-16.7906],[-179.79381,-16.77422],[-179.78301,-16.76626],[-179.77558,-16.76474],[-179.77754,-16.7601],[-179.78924,-16.76322],[-179.79863,-16.7564],[-179.79326,-16.75441],[-179.78897,-16.74417],[-179.78035,-16.74879],[-179.77232,-16.74736],[-179.76732,-16.74369],[-179.7671,-16.73726],[-179.76177,-16.73836],[-179.76378,-16.74812],[-179.75682,-16.74718],[-179.74943,-16.75333],[-179.74952,-16.75937],[-179.74205,-16.76037],[-179.73669,-16.75954],[-179.73017,-16.75152],[-179.72621,-16.75466],[-179.71331,-16.74982],[-179.71456,-16.74336],[-179.71132,-16.74135],[-179.70571,-16.75017],[-179.71057,-16.75423],[-179.71473,-16.78377],[-179.7241,-16.77541],[-179.72969,-16.77431],[-179.73098,-16.77069],[-179.73844,-16.76917],[-179.74713,-16.77922],[-179.75248,-16.7798],[-179.74743,-16.7908],[-179.74983,-16.79991],[-179.75806,-16.79594],[-179.7632,-16.80024],[-179.77696,-16.79092],[-179.78133,-16.79755]]],[[[-179.71662,-16.51078],[-179.71829,-16.506],[-179.71375,-16.49628],[-179.71113,-16.49914],[-179.71662,-16.51078]]],[[[-179.74411,-16.73641],[-179.75115,-16.73387],[-179.75093,-16.72795],[-179.74327,-16.73398],[-179.74345,-16.72728],[-179.73714,-16.72556],[-179.73668,-16.73072],[-179.74411,-16.73641]]],[[[-179.84437,-18.92442],[-179.83189,-18.92178],[-179.82929,-18.92826],[-179.82391,-18.92962],[-179.82167,-18.92554],[-179.80525,-18.92965],[-179.80422,-18.93301],[-179.7991,-18.93412],[-179.7916,-18.95443],[-179.80093,-18.96265],[-179.8079,-18.97516],[-179.82533,-18.98197],[-179.82287,-18.96438],[-179.82548,-18.95919],[-179.81997,-18.9531],[-179.83029,-18.93931],[-179.82876,-18.93701],[-179.84377,-18.93717],[-179.84685,-18.94304],[-179.8565,-18.938],[-179.86941,-18.94977],[-179.87496,-18.96615],[-179.87027,-18.98449],[-179.86577,-18.99035],[-179.8601,-18.9907],[-179.86879,-18.99262],[-179.87269,-18.99912],[-179.8822,-19.00155],[-179.8863,-18.99634],[-179.88199,-18.95832],[-179.87667,-18.95532],[-179.88238,-18.94905],[-179.87474,-18.94531],[-179.87381,-18.93066],[-179.86741,-18.92767],[-179.86532,-18.91612],[-179.84437,-18.92442]]],[[[-180,-16.79347],[-179.98553,-16.78568],[-179.98515,-16.77848],[-179.97974,-16.77393],[-179.96981,-16.77073],[-179.93269,-16.71953],[-179.91249,-16.70798],[-179.90567,-16.69855],[-179.8928,-16.69539],[-179.88171,-16.68576],[-179.86505,-16.6968],[-179.8653,-16.70426],[-179.85578,-16.72859],[-179.8603,-16.75401],[-179.8521,-16.75978],[-179.84611,-16.77016],[-179.83387,-16.77342],[-179.82617,-16.78536],[-179.82715,-16.78831],[-179.84172,-16.78875],[-179.85048,-16.79442],[-179.85177,-16.79993],[-179.84435,-16.8039],[-179.84564,-16.81006],[-179.86282,-16.81548],[-179.87056,-16.82335],[-179.87089,-16.83647],[-179.87725,-16.84179],[-179.87627,-16.84746],[-179.88206,-16.85973],[-179.87842,-16.8751],[-179.88958,-16.87057],[-179.90431,-16.8728],[-179.90402,-16.87735],[-179.91152,-16.88119],[-179.93291,-16.90727],[-179.95013,-16.91474],[-179.99012,-16.94954],[-179.99321,-16.95927],[-180,-16.96672],[-180,-16.79347]]],[[[-179.85395,-16.70429],[-179.85748,-16.69923],[-179.85596,-16.6959],[-179.85395,-16.70429]]],[[[-179.90916,-15.7572],[-179.9351,-15.73201],[-179.94672,-15.72684],[-179.97117,-15.72689],[-179.98447,-15.70998],[-179.97605,-15.71524],[-179.95646,-15.72027],[-179.95113,-15.71905],[-179.91622,-15.73072],[-179.88797,-15.75323],[-179.88721,-15.75607],[-179.89055,-15.75719],[-179.90916,-15.7572]]],[[[-180,-16.48232],[-179.9843,-16.46441],[-179.96872,-16.46583],[-179.96469,-16.46109],[-179.96492,-16.45363],[-179.94736,-16.44511],[-179.93847,-16.44761],[-179.93472,-16.44092],[-179.92944,-16.43879],[-179.91151,-16.4407],[-179.91423,-16.44584],[-179.92099,-16.44548],[-179.92672,-16.44988],[-179.91937,-16.45804],[-179.92635,-16.47052],[-179.93054,-16.47104],[-179.93708,-16.46472],[-179.93944,-16.46981],[-179.9366,-16.47425],[-179.94632,-16.47511],[-179.95297,-16.48223],[-179.94515,-16.48594],[-179.93236,-16.51314],[-179.93722,-16.52568],[-179.94312,-16.52779],[-179.94989,-16.52576],[-179.94954,-16.52885],[-179.95698,-16.52669],[-179.96122,-16.53384],[-179.97443,-16.53416],[-179.97502,-16.5375],[-179.98172,-16.53946],[-179.99128,-16.53649],[-179.99169,-16.53225],[-179.98502,-16.52446],[-179.98708,-16.52188],[-180,-16.52765],[-180,-16.48232]]],[[[-179.95323,-16.12657],[-179.9514,-16.1289],[-179.95921,-16.13812],[-179.95753,-16.14521],[-179.97473,-16.14891],[-179.97547,-16.1543],[-180,-16.16837],[-180,-16.13939],[-179.95323,-16.12657]]]]}}]}