{"type":"FeatureCollection","features":[{"type":"Feature","properties":{"ISO_A3":"FSM","WB_A3":"FSM","WB_NAME":"Federated States of Micronesia","WB_REGION":"EAS"},"geometry":{"type":"MultiPolygon","coordinates":[[[[162.99741,5.36973],[163.01387,5.3694],[163.02159,5.36543],[163.0126,5.36437],[163.01725,5.35717],[163.01943,5.34026],[163.01371,5.33758],[163.01311,5.32495],[163.01943,5.31879],[163.02509,5.31829],[163.02867,5.32152],[163.03563,5.31678],[163.02878,5.28944],[163.02201,5.27628],[163.00753,5.26193],[162.98774,5.26071],[162.97769,5.26969],[162.98179,5.27203],[162.98229,5.27718],[162.97624,5.28025],[162.97481,5.28514],[162.96298,5.28639],[162.95453,5.27541],[162.94478,5.27255],[162.93114,5.27637],[162.92009,5.2753],[162.90975,5.29317],[162.91176,5.30684],[162.92665,5.31281],[162.93052,5.30767],[162.93179,5.31283],[162.94436,5.31906],[162.95919,5.34332],[162.96756,5.34052],[162.96584,5.35623],[162.963,5.35893],[162.95273,5.35387],[162.96248,5.36099],[162.96506,5.3579],[162.97406,5.35755],[162.98482,5.36724],[162.99741,5.36973]]],[[[163.01973,5.3396],[163.02298,5.33439],[163.03069,5.33377],[163.03328,5.32811],[163.01977,5.33244],[163.01973,5.3396]]],[[[160.70741,6.1971],[160.70239,6.19944],[160.70307,6.21078],[160.7108,6.21101],[160.71211,6.21719],[160.70748,6.21888],[160.70851,6.22119],[160.71546,6.22027],[160.70741,6.1971]]],[[[160.70441,6.22675],[160.70611,6.22253],[160.69256,6.2255],[160.69438,6.2309],[160.70441,6.22675]]],[[[160.69305,6.21841],[160.69126,6.22164],[160.69538,6.22085],[160.69305,6.21841]]],[[[159.75903,6.67713],[159.76421,6.69207],[159.76833,6.694],[159.76471,6.68292],[159.75903,6.67713]]],[[[159.75359,6.6627],[159.74972,6.66271],[159.74947,6.66593],[159.75888,6.66798],[159.75746,6.66373],[159.75359,6.6627]]],[[[159.75337,6.68526],[159.75157,6.69454],[159.75506,6.69479],[159.75337,6.68526]]],[[[158.35581,6.8535],[158.36149,6.84732],[158.35118,6.84717],[158.35581,6.8535]]],[[[158.3522,6.85723],[158.35606,6.86329],[158.35748,6.86252],[158.3522,6.85723]]],[[[158.33725,6.84471],[158.32746,6.83799],[158.32952,6.84212],[158.33725,6.84471]]],[[[158.22304,6.97188],[158.22226,6.97575],[158.22691,6.97318],[158.2384,6.96289],[158.23752,6.95335],[158.24861,6.95594],[158.24911,6.96729],[158.25967,6.97349],[158.26071,6.96988],[158.2669,6.97028],[158.26291,6.96396],[158.2762,6.96204],[158.27982,6.95857],[158.27558,6.94902],[158.28,6.92609],[158.284,6.92442],[158.28726,6.9267],[158.29171,6.94054],[158.29868,6.93772],[158.2956,6.93191],[158.28811,6.93409],[158.28735,6.92326],[158.2951,6.9207],[158.29588,6.91425],[158.30272,6.91478],[158.31237,6.93193],[158.32165,6.93362],[158.31406,6.92072],[158.3258,6.92048],[158.3218,6.91558],[158.3235,6.90514],[158.32711,6.90476],[158.32118,6.90088],[158.32145,6.8956],[158.32778,6.88697],[158.32391,6.88413],[158.32559,6.88104],[158.33024,6.88208],[158.33437,6.87358],[158.3231,6.86084],[158.32406,6.87382],[158.32019,6.87549],[158.3158,6.87239],[158.31245,6.87432],[158.31296,6.87857],[158.29541,6.88461],[158.29412,6.88164],[158.30096,6.87817],[158.29697,6.87378],[158.30085,6.86966],[158.29982,6.86425],[158.29053,6.87184],[158.28795,6.86926],[158.3001,6.85058],[158.31249,6.84287],[158.31625,6.83359],[158.31342,6.8274],[158.30968,6.82649],[158.31124,6.82018],[158.30608,6.81734],[158.30403,6.81037],[158.29397,6.81036],[158.2914,6.80649],[158.296,6.80101],[158.29684,6.78742],[158.29194,6.78703],[158.28935,6.79295],[158.28123,6.79333],[158.27541,6.80453],[158.26678,6.80026],[158.26664,6.80813],[158.25323,6.80707],[158.24395,6.79958],[158.23698,6.80292],[158.2371,6.80976],[158.23078,6.80949],[158.2179,6.80186],[158.20886,6.8092],[158.2086,6.81358],[158.19363,6.81665],[158.18823,6.80903],[158.1841,6.80928],[158.17972,6.81069],[158.18022,6.81688],[158.16707,6.81531],[158.16886,6.82305],[158.15907,6.8211],[158.15713,6.82329],[158.15724,6.83179],[158.15324,6.83514],[158.15766,6.8497],[158.16185,6.85346],[158.15694,6.85564],[158.15978,6.85706],[158.1577,6.86221],[158.16156,6.87111],[158.15872,6.87278],[158.15986,6.88181],[158.15638,6.88412],[158.15637,6.89031],[158.15327,6.88992],[158.15093,6.901],[158.13317,6.89571],[158.13466,6.91089],[158.12821,6.9114],[158.12123,6.9217],[158.12793,6.923],[158.12904,6.9285],[158.13784,6.93527],[158.13549,6.9383],[158.13797,6.94197],[158.14606,6.94031],[158.1582,6.94367],[158.15149,6.95011],[158.15419,6.95398],[158.16685,6.94072],[158.17615,6.93726],[158.18374,6.94501],[158.18374,6.94862],[158.19289,6.95224],[158.18514,6.95738],[158.18474,6.96383],[158.17816,6.96755],[158.18019,6.98315],[158.18227,6.97774],[158.18562,6.97698],[158.18923,6.98111],[158.19724,6.97364],[158.19727,6.95727],[158.20552,6.95871],[158.20447,6.96992],[158.20885,6.97212],[158.20045,6.98061],[158.2029,6.98448],[158.21683,6.98592],[158.20496,6.98397],[158.20652,6.97546],[158.21479,6.96826],[158.21945,6.95847],[158.22332,6.95899],[158.22939,6.95153],[158.22824,6.94637],[158.23431,6.94277],[158.23468,6.95179],[158.22823,6.95346],[158.21931,6.96517],[158.22434,6.96802],[158.22304,6.97188]]],[[[158.32899,6.85372],[158.33338,6.84908],[158.32745,6.84276],[158.3161,6.84674],[158.32099,6.85538],[158.32899,6.85372]]],[[[158.31245,6.87084],[158.3091,6.87431],[158.31219,6.87406],[158.31245,6.87084]]],[[[158.30278,6.96221],[158.30202,6.95061],[158.29738,6.94803],[158.2961,6.94287],[158.29145,6.94415],[158.30278,6.96221]]],[[[158.28933,6.9841],[158.29319,6.99081],[158.30131,6.99031],[158.28933,6.9841]]],[[[158.2803,6.98151],[158.28804,6.98307],[158.28843,6.97972],[158.28444,6.97701],[158.2803,6.98151]]],[[[158.25686,6.79174],[158.25402,6.79689],[158.25737,6.79819],[158.25995,6.79613],[158.25686,6.79174]]],[[[158.25937,7.00004],[158.24957,7.00003],[158.25445,7.01138],[158.25937,7.00004]]],[[[158.24447,6.79714],[158.24925,6.79482],[158.24422,6.7943],[158.24447,6.79714]]],[[[158.23359,6.99201],[158.231,6.99239],[158.22919,6.99999],[158.23357,6.99923],[158.23359,6.99201]]],[[[158.00085,6.75403],[158.01938,6.77431],[158.01987,6.78604],[158.0231,6.78411],[158.01951,6.77173],[158.00085,6.75403]]],[[[158.01366,6.79672],[158.01068,6.80471],[158.01364,6.80446],[158.01366,6.79672]]],[[[157.938,6.72336],[157.93078,6.72424],[157.93206,6.72682],[157.9398,6.72748],[157.94301,6.73136],[157.938,6.72336]]],[[[157.83153,7.03384],[157.82507,7.03795],[157.83177,7.04067],[157.83153,7.03384]]],[[[157.83072,7.0475],[157.82889,7.05806],[157.81764,7.06822],[157.81931,7.07054],[157.83004,7.06026],[157.83072,7.0475]]],[[[157.79427,7.07524],[157.78445,7.08321],[157.79658,7.07873],[157.79427,7.07524]]],[[[157.77647,7.07288],[157.76818,7.0851],[157.77619,7.08383],[157.77297,7.08176],[157.77749,7.07894],[157.77647,7.07288]]],[[[157.34489,5.7857],[157.34052,5.78388],[157.34256,5.79085],[157.34616,5.79112],[157.34489,5.7857]]],[[[157.29425,5.85333],[157.29452,5.84959],[157.28925,5.84996],[157.2891,5.8546],[157.29425,5.85333]]],[[[157.16556,5.78334],[157.15191,5.78523],[157.1501,5.79025],[157.15781,5.79105],[157.16556,5.78334]]],[[[155.40494,7.57147],[155.41176,7.59127],[155.39947,7.60859],[155.4114,7.59642],[155.41278,7.58946],[155.39155,7.53007],[155.39447,7.54603],[155.40494,7.57147]]],[[[155.25909,7.59659],[155.26708,7.59565],[155.3057,7.57548],[155.31784,7.57568],[155.32354,7.58028],[155.33851,7.57943],[155.30492,7.57471],[155.25909,7.59659]]],[[[155.15979,7.61848],[155.15827,7.62326],[155.16149,7.62169],[155.15979,7.61848]]],[[[154.96912,3.8311],[154.97157,3.83715],[154.96968,3.85185],[154.97199,3.85184],[154.97478,3.83689],[154.96912,3.8311]]],[[[154.96917,3.85236],[154.96738,3.85726],[154.96969,3.85777],[154.97187,3.85442],[154.96917,3.85236]]],[[[154.96661,3.85752],[154.95778,3.86579],[154.95997,3.8681],[154.96701,3.86113],[154.96661,3.85752]]],[[[154.95756,3.8252],[154.96155,3.82867],[154.96193,3.82661],[154.95756,3.8252]]],[[[154.80636,1.07997],[154.80585,1.08551],[154.8079,1.08538],[154.8093,1.08281],[154.80636,1.07997]]],[[[154.79891,1.03436],[154.8089,1.05111],[154.80595,1.04157],[154.79891,1.03436]]],[[[154.78563,1.09699],[154.78435,1.10254],[154.78666,1.10292],[154.78563,1.09699]]],[[[154.78102,1.10318],[154.78102,1.09932],[154.77859,1.10035],[154.78102,1.10318]]],[[[154.28381,8.1453],[154.28563,8.14787],[154.29157,8.14734],[154.30083,8.13081],[154.31193,8.12305],[154.30822,8.096],[154.31334,8.08052],[154.30745,8.09858],[154.31218,8.1215],[154.29851,8.13198],[154.29002,8.14709],[154.28381,8.1453]]],[[[153.80831,5.49584],[153.79828,5.49637],[153.79828,5.49895],[153.81371,5.49802],[153.81694,5.50446],[153.8145,5.51091],[153.81965,5.5131],[153.82235,5.50961],[153.82131,5.50214],[153.81603,5.49712],[153.80831,5.49584]]],[[[153.8032,5.52137],[153.80037,5.52369],[153.80243,5.52588],[153.8032,5.52137]]],[[[153.76251,5.49332],[153.79004,5.49702],[153.79159,5.49612],[153.76251,5.49332]]],[[[153.72423,5.31961],[153.73041,5.32566],[153.73325,5.33855],[153.73891,5.3357],[153.73826,5.329],[153.72423,5.31961]]],[[[153.7157,5.50137],[153.70978,5.50357],[153.70748,5.51208],[153.71044,5.51285],[153.7157,5.50137]]],[[[153.71091,5.36796],[153.70782,5.36926],[153.70886,5.37145],[153.71091,5.36796]]],[[[153.68462,5.29737],[153.69695,5.3092],[153.69824,5.30752],[153.68227,5.29297],[153.64831,5.28283],[153.64883,5.28566],[153.65449,5.28514],[153.68462,5.29737]]],[[[153.68188,5.39919],[153.67854,5.40409],[153.68163,5.40383],[153.68188,5.39919]]],[[[153.5856,5.59162],[153.5879,5.57331],[153.58017,5.56314],[153.58558,5.57151],[153.58611,5.58234],[153.58226,5.5924],[153.5856,5.59162]]],[[[153.58345,5.49314],[153.57856,5.49495],[153.57933,5.49752],[153.58474,5.49674],[153.58345,5.49314]]],[[[153.57815,5.60748],[153.5761,5.60787],[153.57662,5.61354],[153.57815,5.60748]]],[[[153.57753,5.49533],[153.57444,5.49753],[153.57779,5.49778],[153.57753,5.49533]]],[[[153.57173,5.62231],[153.57559,5.61638],[153.56684,5.62012],[153.56582,5.62258],[153.57173,5.62231]]],[[[153.5711,5.49521],[153.56672,5.49547],[153.5711,5.4983],[153.5711,5.49521]]],[[[153.54356,5.48828],[153.53842,5.48983],[153.53765,5.4937],[153.55824,5.4969],[153.55926,5.49471],[153.54794,5.49291],[153.54356,5.48828]]],[[[153.52941,5.49009],[153.52967,5.49396],[153.53263,5.49035],[153.52941,5.49009]]],[[[153.48929,5.50379],[153.48954,5.49992],[153.47873,5.4922],[153.4607,5.4645],[153.4571,5.46437],[153.48234,5.49993],[153.48929,5.50379]]],[[[153.45554,5.45148],[153.45967,5.45921],[153.46107,5.45174],[153.45554,5.45148]]],[[[153.14745,5.92886],[153.15453,5.92319],[153.1544,5.91082],[153.15105,5.92345],[153.1432,5.92732],[153.14745,5.92886]]],[[[153.15413,5.89212],[153.14847,5.89406],[153.15401,5.89792],[153.15413,5.89212]]],[[[153.12067,5.91894],[153.1123,5.92397],[153.11295,5.92733],[153.11848,5.92604],[153.12067,5.91894]]],[[[152.73755,6.89008],[152.73213,6.89008],[152.73316,6.90052],[152.74425,6.89537],[152.74374,6.89073],[152.73755,6.89008]]],[[[152.70147,6.83308],[152.69915,6.83514],[152.70534,6.8376],[152.70147,6.83308]]],[[[152.6927,6.83243],[152.6878,6.8314],[152.68806,6.83423],[152.6927,6.83243]]],[[[152.57856,6.98587],[152.57365,6.98728],[152.57055,6.99837],[152.57313,6.99888],[152.58152,6.98832],[152.57856,6.98587]]],[[[152.3385,8.6889],[152.33926,8.69998],[152.34314,8.69947],[152.34329,8.69097],[152.3385,8.6889]]],[[[152.24048,8.60842],[152.23426,8.61086],[152.23659,8.61189],[152.2485,8.61153],[152.24048,8.60842]]],[[[152.0367,8.58979],[152.03281,8.59313],[152.03539,8.59623],[152.0385,8.59547],[152.03929,8.59057],[152.0367,8.58979]]],[[[152.01772,7.31679],[152.01668,7.32001],[152.01926,7.32104],[152.02082,7.31718],[152.01772,7.31679]]],[[[152.00449,7.22989],[152.00242,7.23079],[152.00524,7.2384],[152.0077,7.23698],[152.00449,7.22989]]],[[[151.99034,7.20653],[151.98622,7.20265],[151.98827,7.20807],[151.99034,7.20653]]],[[[151.98444,7.19182],[151.97722,7.18871],[151.98314,7.19466],[151.98444,7.19182]]],[[[151.97489,7.52844],[151.97153,7.52895],[151.97178,7.5323],[151.97605,7.53077],[151.97489,7.52844]]],[[[151.9445,7.59694],[151.94191,7.60054],[151.94643,7.599],[151.9445,7.59694]]],[[[151.92826,7.15574],[151.93108,7.16077],[151.94642,7.16957],[151.92826,7.15574]]],[[[151.94061,7.60247],[151.9388,7.60685],[151.94255,7.60389],[151.94061,7.60247]]],[[[151.90867,7.14409],[151.89963,7.14652],[151.90014,7.14948],[151.91305,7.14668],[151.92208,7.14863],[151.90867,7.14409]]],[[[151.91455,8.55944],[151.91454,8.56395],[151.921,8.56719],[151.92179,8.56436],[151.91455,8.55944]]],[[[151.90394,8.55709],[151.90419,8.56096],[151.91248,8.56111],[151.91404,8.55841],[151.90394,8.55709]]],[[[151.86451,7.36282],[151.86088,7.3681],[151.86358,7.373],[151.86073,7.37634],[151.86625,7.39028],[151.8833,7.3871],[151.89543,7.38958],[151.89285,7.38558],[151.87944,7.38103],[151.8797,7.37833],[151.90061,7.38057],[151.90204,7.37774],[151.89882,7.37373],[151.88553,7.37254],[151.88103,7.36402],[151.86579,7.36579],[151.86451,7.36282]]],[[[151.84157,7.44537],[151.84116,7.45465],[151.83663,7.45773],[151.85004,7.46834],[151.86401,7.45883],[151.87408,7.45925],[151.87718,7.45681],[151.87409,7.45383],[151.89063,7.44911],[151.9003,7.453],[151.90134,7.44965],[151.89632,7.44384],[151.88341,7.44509],[151.86484,7.43667],[151.85724,7.43021],[151.86254,7.42635],[151.86229,7.42274],[151.8579,7.4226],[151.84527,7.41278],[151.84022,7.41934],[151.84175,7.42836],[151.8376,7.43505],[151.84157,7.44537]]],[[[151.89188,7.14895],[151.88801,7.1492],[151.88826,7.15319],[151.89265,7.1514],[151.89188,7.14895]]],[[[151.88493,7.35243],[151.88132,7.35307],[151.88234,7.35629],[151.89033,7.36044],[151.88493,7.35243]]],[[[151.88019,7.28618],[151.87254,7.30008],[151.8738,7.31271],[151.88633,7.30913],[151.88931,7.30553],[151.8883,7.29522],[151.88019,7.28618]]],[[[151.87996,7.48169],[151.87814,7.48619],[151.88304,7.48711],[151.87996,7.48169]]],[[[151.87469,7.1105],[151.87712,7.11734],[151.87856,7.11154],[151.87469,7.1105]]],[[[151.84166,7.31289],[151.83784,7.34123],[151.83408,7.34818],[151.82996,7.34598],[151.82284,7.35228],[151.82152,7.36439],[151.81841,7.36592],[151.82757,7.37046],[151.85291,7.35738],[151.84984,7.3459],[151.85301,7.31704],[151.84166,7.31289]]],[[[151.82442,7.29042],[151.82077,7.30459],[151.82335,7.30614],[151.82725,7.29687],[151.82442,7.29042]]],[[[151.7979,7.36097],[151.78372,7.35398],[151.78833,7.36765],[151.7979,7.36097]]],[[[151.78386,8.45325],[151.78618,8.45609],[151.79214,8.45637],[151.78386,8.45325]]],[[[151.77422,7.33616],[151.78271,7.34598],[151.78555,7.34547],[151.78608,7.34264],[151.77422,7.33616]]],[[[151.76319,7.67481],[151.76009,7.67532],[151.76705,7.68011],[151.76887,7.67766],[151.76319,7.67481]]],[[[151.74667,8.42878],[151.74381,8.43328],[151.75002,8.43356],[151.74667,8.42878]]],[[[151.73717,7.3822],[151.73793,7.38916],[151.74283,7.39098],[151.74027,7.38298],[151.73717,7.3822]]],[[[151.71261,7.39476],[151.72401,7.37958],[151.73486,7.37936],[151.73862,7.37189],[151.73307,7.37291],[151.72765,7.3698],[151.71887,7.37235],[151.71626,7.38124],[151.70338,7.37244],[151.69988,7.37462],[151.70452,7.37824],[151.70513,7.38932],[151.70951,7.39501],[151.71261,7.39476]]],[[[151.67589,7.41218],[151.67513,7.40831],[151.66222,7.4093],[151.66581,7.41511],[151.67589,7.41218]]],[[[151.66158,7.36162],[151.66856,7.36061],[151.67154,7.35701],[151.66964,7.3454],[151.66158,7.36162]]],[[[151.63979,7.22521],[151.63412,7.22274],[151.63192,7.22493],[151.63979,7.22521]]],[[[151.62341,7.35093],[151.62806,7.35043],[151.63935,7.33011],[151.62838,7.32866],[151.62091,7.32258],[151.60931,7.31932],[151.60504,7.32304],[151.61361,7.34678],[151.61385,7.35413],[151.60766,7.35192],[151.60687,7.35526],[151.61409,7.35967],[151.6147,7.37075],[151.61094,7.37499],[151.60255,7.3769],[151.60279,7.38154],[151.5936,7.39053],[151.59513,7.3953],[151.60572,7.39366],[151.61223,7.3759],[151.6179,7.37811],[151.62953,7.37389],[151.63446,7.36824],[151.63436,7.35818],[151.63942,7.34969],[151.6177,7.36123],[151.61746,7.35581],[151.62341,7.35093]]],[[[151.55994,7.34068],[151.57025,7.34471],[151.57774,7.34267],[151.59142,7.34504],[151.59682,7.34969],[151.60754,7.34934],[151.58839,7.32209],[151.58501,7.32865],[151.57586,7.32553],[151.57003,7.33298],[151.55944,7.3345],[151.55736,7.33861],[151.55994,7.34068]]],[[[151.58205,7.36807],[151.58643,7.37041],[151.57197,7.37268],[151.58044,7.38572],[151.58768,7.38407],[151.59196,7.37558],[151.59005,7.3699],[151.58205,7.36807]]],[[[150.42325,8.5668],[150.41677,8.56805],[150.41389,8.5724],[150.42296,8.57079],[150.42325,8.5668]]],[[[150.33943,8.74869],[150.33705,8.75588],[150.34056,8.75359],[150.34176,8.74948],[150.33943,8.74869]]],[[[150.29483,8.79601],[150.28833,8.79983],[150.29324,8.79999],[150.29483,8.79601]]],[[[150.12483,8.9858],[150.133,8.98406],[150.12591,8.98091],[150.12266,8.98283],[150.12483,8.9858]]],[[[149.68304,8.58728],[149.70099,8.6048],[149.70307,8.60366],[149.68746,8.58423],[149.6916,8.56933],[149.68604,8.56864],[149.68251,8.57337],[149.68304,8.58728]]],[[[149.42787,7.63187],[149.42555,7.63266],[149.4274,7.64089],[149.43335,7.64266],[149.43396,7.63725],[149.42787,7.63187]]],[[[149.43146,7.53565],[149.41107,7.53679],[149.4098,7.53937],[149.41265,7.54142],[149.43146,7.53565]]],[[[149.29631,6.67533],[149.29758,6.69979],[149.30725,6.70104],[149.30785,6.69202],[149.30289,6.67762],[149.30043,6.67351],[149.29631,6.67533]]],[[[149.19459,7.34781],[149.19752,7.36608],[149.20356,7.36206],[149.20288,7.35459],[149.19459,7.34781]]],[[[149.18406,7.35894],[149.16889,7.37047],[149.17148,7.37265],[149.18437,7.36963],[149.18796,7.36355],[149.18406,7.35894]]],[[[147.64713,8.10261],[147.64507,8.10661],[147.64714,8.10763],[147.64713,8.10261]]],[[[147.02573,7.3738],[147.02573,7.38192],[147.02909,7.38605],[147.04019,7.38424],[147.02573,7.3738]]],[[[146.3808,7.45122],[146.37679,7.4547],[146.37898,7.46269],[146.3835,7.45858],[146.3808,7.45122]]],[[[146.33085,7.5165],[146.32826,7.52165],[146.33162,7.52114],[146.33331,7.51779],[146.33085,7.5165]]],[[[146.17486,7.50618],[146.16865,7.51081],[146.17045,7.51545],[146.17355,7.51598],[146.17549,7.51237],[146.17486,7.50618]]],[[[145.88301,7.70066],[145.87887,7.70284],[145.88119,7.70504],[145.88301,7.70066]]],[[[144.52119,8.58612],[144.52,8.58946],[144.52725,8.5895],[144.52119,8.58612]]],[[[144.51452,8.57603],[144.51399,8.57808],[144.51852,8.57811],[144.51452,8.57603]]],[[[144.50973,8.59647],[144.50597,8.59864],[144.51047,8.60201],[144.50973,8.59647]]],[[[144.46322,7.23893],[144.45386,7.24582],[144.45418,7.25302],[144.44663,7.2608],[144.4541,7.26023],[144.46351,7.24368],[144.46322,7.23893]]],[[[144.44184,7.24063],[144.44315,7.24332],[144.44856,7.24328],[144.44184,7.24063]]],[[[143.91489,7.35259],[143.91304,7.3459],[143.91151,7.34772],[143.91084,7.36394],[143.91534,7.36134],[143.91489,7.35259]]],[[[143.91275,7.38015],[143.9124,7.36651],[143.89954,7.37084],[143.90813,7.38276],[143.91275,7.38015]]],[[[143.8882,7.37207],[143.89309,7.37178],[143.89282,7.36959],[143.88675,7.36796],[143.8882,7.37207]]],[[[143.87495,7.35851],[143.88296,7.36026],[143.88088,7.35706],[143.87495,7.35851]]],[[[143.84669,7.37594],[143.85597,7.37485],[143.86429,7.36502],[143.84616,7.37376],[143.8309,7.36703],[143.83042,7.3727],[143.83405,7.37512],[143.84669,7.37594]]],[[[143.84043,7.32384],[143.83608,7.32889],[143.84381,7.32807],[143.84559,7.32471],[143.84043,7.32384]]],[[[140.52306,9.77079],[140.52877,9.77131],[140.5306,9.76693],[140.51736,9.7557],[140.50957,9.75479],[140.50982,9.76226],[140.52306,9.77079]]],[[[140.41268,8.11572],[140.40607,8.1206],[140.40179,8.13065],[140.40541,8.13066],[140.41268,8.11572]]],[[[140.3376,8.15465],[140.34251,8.15685],[140.34303,8.15544],[140.3376,8.15465]]],[[[139.85373,9.91468],[139.84593,9.9162],[139.8441,9.91928],[139.85373,9.91468]]],[[[139.82509,9.92656],[139.8126,9.93051],[139.82379,9.92914],[139.82509,9.92656]]],[[[139.79151,10.01162],[139.78485,10.01946],[139.78627,10.02217],[139.79499,10.02027],[139.79151,10.01162]]],[[[139.7631,10.0302],[139.76295,10.03381],[139.76647,10.03279],[139.773,10.02585],[139.7631,10.0302]]],[[[139.73663,10.08241],[139.73795,10.07778],[139.73352,10.08163],[139.73663,10.08241]]],[[[139.70799,10.09107],[139.71269,10.08709],[139.70437,10.08628],[139.70799,10.09107]]],[[[139.68492,9.94537],[139.68828,9.94822],[139.68856,9.94539],[139.68492,9.94537]]],[[[139.67504,10.07406],[139.66801,10.07454],[139.67476,10.07779],[139.67504,10.07406]]],[[[139.61943,10.00425],[139.61603,10.00694],[139.61967,10.00773],[139.61943,10.00425]]],[[[139.58805,10.04522],[139.58752,10.04754],[139.59167,10.04936],[139.58805,10.04522]]],[[[139.57846,10.03925],[139.57455,10.03988],[139.57558,10.0422],[139.57846,10.03925]]],[[[138.17872,9.59799],[138.17814,9.58923],[138.16942,9.57706],[138.16879,9.59045],[138.16579,9.59274],[138.16635,9.58824],[138.16297,9.58847],[138.16332,9.57765],[138.1667,9.57704],[138.17171,9.56704],[138.16917,9.56084],[138.17372,9.55933],[138.17208,9.55404],[138.16845,9.55349],[138.16927,9.549],[138.17415,9.5547],[138.17725,9.55563],[138.17962,9.55217],[138.18988,9.56564],[138.19612,9.5644],[138.1981,9.5603],[138.18977,9.54736],[138.18936,9.53461],[138.18344,9.52851],[138.17439,9.52561],[138.17326,9.53705],[138.17003,9.53536],[138.1684,9.52826],[138.16303,9.53427],[138.16554,9.52862],[138.16071,9.51674],[138.15295,9.51513],[138.14333,9.51763],[138.14225,9.52303],[138.14804,9.52797],[138.14464,9.53129],[138.14655,9.53632],[138.14317,9.53642],[138.13883,9.52789],[138.1398,9.53665],[138.13667,9.53817],[138.14173,9.55353],[138.13712,9.54667],[138.13001,9.54455],[138.12452,9.53344],[138.11726,9.53389],[138.12403,9.53034],[138.12631,9.52135],[138.12205,9.51874],[138.12651,9.51337],[138.12079,9.51422],[138.12271,9.5015],[138.12015,9.49864],[138.11157,9.50025],[138.10957,9.50731],[138.10641,9.49801],[138.09968,9.49628],[138.09893,9.49255],[138.09272,9.49069],[138.08803,9.494],[138.08745,9.4855],[138.07044,9.473],[138.07168,9.46477],[138.06639,9.46164],[138.06794,9.4462],[138.05774,9.44148],[138.05468,9.4515],[138.05615,9.46155],[138.06933,9.48174],[138.06108,9.49146],[138.06259,9.4961],[138.07005,9.50376],[138.07523,9.50406],[138.08033,9.51453],[138.07663,9.52326],[138.08608,9.52462],[138.08382,9.53155],[138.08758,9.53159],[138.08609,9.53904],[138.0936,9.53987],[138.09317,9.54554],[138.10027,9.54894],[138.11272,9.57943],[138.12537,9.58674],[138.13757,9.58645],[138.13762,9.58015],[138.13138,9.58203],[138.1289,9.56823],[138.13432,9.57162],[138.13564,9.56829],[138.12895,9.56205],[138.14552,9.56554],[138.14477,9.56244],[138.14815,9.56221],[138.14864,9.5653],[138.15407,9.56677],[138.15775,9.56178],[138.1592,9.57402],[138.14664,9.57147],[138.14622,9.57558],[138.15033,9.57999],[138.14722,9.58036],[138.14691,9.58537],[138.15131,9.58747],[138.15639,9.60013],[138.1695,9.6153],[138.17443,9.61457],[138.17872,9.59799]]],[[[138.16021,9.60904],[138.14336,9.62294],[138.14332,9.62705],[138.15426,9.63796],[138.16148,9.62695],[138.15883,9.6192],[138.16264,9.61228],[138.16021,9.60904]]],[[[137.48867,8.29617],[137.48611,8.30018],[137.48921,8.30016],[137.48867,8.29617]]]]}}]}