{"type":"FeatureCollection","features":[{"type":"Feature","properties":{"ISO_A3":"GEO","WB_A3":"GEO","WB_NAME":"Georgia","WB_REGION":"ECS"},"geometry":{"type":"MultiPolygon","coordinates":[[[[46.63149,41.10317],[46.61487,41.09755],[46.60404,41.09921],[46.58334,41.11198],[46.55026,41.11262],[46.49127,41.05572],[46.46927,41.06516],[46.46109,41.08845],[46.46231,41.09406],[46.45854,41.09901],[46.44474,41.09969],[46.42823,41.10531],[46.38677,41.10126],[46.36924,41.10653],[46.36916,41.1188],[46.29066,41.17478],[46.27881,41.19007],[46.26323,41.18792],[46.25391,41.1822],[46.23046,41.18873],[46.22974,41.19614],[46.22496,41.18929],[46.2171,41.19429],[46.20921,41.19139],[46.20125,41.19529],[46.19663,41.19299],[46.18709,41.19916],[46.18126,41.19396],[46.17233,41.20179],[46.16503,41.19954],[46.15693,41.20469],[46.15252,41.1986],[46.15026,41.19828],[46.14982,41.2047],[46.14654,41.20527],[46.14205,41.19993],[46.13763,41.19984],[46.13629,41.20508],[46.12655,41.19623],[46.12198,41.19595],[46.12106,41.19064],[46.1128,41.18136],[46.09759,41.17211],[46.08283,41.17449],[46.08218,41.18175],[46.06524,41.19014],[46.05528,41.18701],[46.02381,41.18693],[46.01738,41.18261],[46.01052,41.18434],[46.0029,41.18027],[45.98413,41.17807],[45.97542,41.18116],[45.97232,41.1784],[45.96291,41.17957],[45.95797,41.17338],[45.95396,41.17416],[45.9371,41.18315],[45.91428,41.18943],[45.88833,41.21081],[45.80841,41.22226],[45.80704,41.22529],[45.76921,41.24324],[45.75791,41.25233],[45.74382,41.25713],[45.72542,41.27781],[45.70023,41.29769],[45.74087,41.34474],[45.75575,41.33884],[45.76078,41.35135],[45.7087,41.36389],[45.70082,41.36137],[45.70003,41.3551],[45.67769,41.35713],[45.6506,41.37353],[45.64762,41.37897],[45.62271,41.37859],[45.60214,41.37358],[45.57686,41.37592],[45.58128,41.38966],[45.56352,41.40804],[45.50962,41.42361],[45.49757,41.43433],[45.45909,41.45683],[45.43696,41.44336],[45.42945,41.43042],[45.3917,41.42737],[45.36114,41.45547],[45.31023,41.47322],[45.2878,41.4627],[45.25963,41.46739],[45.24928,41.44623],[45.19599,41.41659],[45.17482,41.423],[45.17219,41.41229],[45.09653,41.34278],[45.0914,41.33986],[45.07963,41.34367],[45.07402,41.33957],[45.07045,41.32828],[45.06046,41.32854],[45.04521,41.31951],[45.04288,41.30956],[45.02095,41.30748],[45.01934,41.29984],[45.01507,41.29709],[45.0018,41.29355],[44.99234,41.28474],[44.97728,41.28137],[44.97341,41.27704],[44.97428,41.27325],[44.95788,41.25694],[44.92493,41.25988],[44.91281,41.25698],[44.89747,41.27444],[44.89212,41.2731],[44.89049,41.26903],[44.88388,41.26849],[44.87074,41.27649],[44.84852,41.27544],[44.84781,41.28431],[44.83803,41.29259],[44.83009,41.29884],[44.81804,41.30094],[44.80822,41.29094],[44.80751,41.266],[44.80299,41.26274],[44.80281,41.25342],[44.813,41.244],[44.81345,41.23823],[44.82798,41.22959],[44.84565,41.23019],[44.8543,41.2274],[44.85483,41.224],[44.86366,41.22411],[44.86687,41.21799],[44.89117,41.22174],[44.89307,41.21701],[44.90071,41.21254],[44.88354,41.20273],[44.86646,41.20373],[44.84726,41.20952],[44.84313,41.21587],[44.83277,41.21336],[44.80722,41.21571],[44.79531,41.23005],[44.79065,41.22654],[44.79347,41.22223],[44.78993,41.22103],[44.77342,41.22246],[44.76846,41.21824],[44.76511,41.22186],[44.75106,41.2206],[44.7465,41.21713],[44.74485,41.20895],[44.74269,41.21378],[44.73904,41.21317],[44.73236,41.2038],[44.72634,41.2031],[44.72584,41.21314],[44.72195,41.21533],[44.72807,41.22434],[44.71616,41.22332],[44.71187,41.21943],[44.68826,41.21867],[44.68053,41.22559],[44.68257,41.23516],[44.68748,41.23916],[44.67435,41.23603],[44.6637,41.23809],[44.65048,41.23358],[44.60657,41.24118],[44.61066,41.23678],[44.60349,41.23166],[44.60773,41.22005],[44.60192,41.2145],[44.59456,41.19276],[44.58336,41.19643],[44.58474,41.20694],[44.59192,41.21268],[44.58259,41.20893],[44.58153,41.21222],[44.57757,41.21259],[44.57476,41.21054],[44.5756,41.20446],[44.57053,41.20744],[44.56708,41.2066],[44.56668,41.20265],[44.55808,41.20409],[44.55212,41.19665],[44.53304,41.19821],[44.53496,41.20014],[44.53202,41.20219],[44.54055,41.20568],[44.54207,41.21289],[44.53625,41.2132],[44.53708,41.21676],[44.54692,41.22344],[44.53629,41.22635],[44.52977,41.22431],[44.52718,41.21381],[44.51998,41.21175],[44.51355,41.20476],[44.51019,41.1981],[44.512,41.19438],[44.47896,41.18578],[44.47607,41.18159],[44.46547,41.18068],[44.45585,41.19038],[44.43921,41.19234],[44.41292,41.20082],[44.40751,41.20801],[44.38775,41.22146],[44.36372,41.22569],[44.35858,41.23065],[44.35412,41.23137],[44.34491,41.22569],[44.34458,41.21908],[44.34791,41.21449],[44.34509,41.21177],[44.34575,41.2026],[44.3272,41.2037],[44.31484,41.21398],[44.29686,41.21468],[44.28545,41.20848],[44.27194,41.21242],[44.24928,41.23318],[44.24525,41.23223],[44.23608,41.23892],[44.21092,41.23332],[44.17972,41.24697],[44.18338,41.23382],[44.17434,41.20937],[44.16205,41.18913],[44.12487,41.18594],[44.08963,41.1901],[44.08875,41.20247],[44.05582,41.19059],[44.02379,41.18832],[43.99314,41.18006],[43.96361,41.16491],[43.9486,41.16755],[43.9506,41.17347],[43.93859,41.17627],[43.87914,41.16355],[43.84463,41.16311],[43.80171,41.14447],[43.74878,41.10936],[43.71904,41.12177],[43.69054,41.12939],[43.6803,41.1369],[43.63201,41.12916],[43.60111,41.12959],[43.58966,41.14008],[43.56943,41.14477],[43.54465,41.14072],[43.52979,41.13224],[43.50759,41.13364],[43.492,41.12535],[43.47435,41.12305],[43.44871,41.17654],[43.41169,41.18709],[43.37702,41.20291],[43.35437,41.20147],[43.34804,41.20416],[43.33324,41.20126],[43.30598,41.18968],[43.29388,41.18941],[43.26347,41.17949],[43.23175,41.17385],[43.23576,41.18284],[43.20226,41.23232],[43.19467,41.2541],[43.17531,41.25418],[43.15545,41.24579],[43.12826,41.25386],[43.1519,41.26224],[43.15624,41.26787],[43.16857,41.27249],[43.17939,41.27259],[43.19285,41.28428],[43.20283,41.28483],[43.21373,41.29025],[43.21401,41.30516],[43.19895,41.30859],[43.18351,41.30473],[43.16657,41.30872],[43.16011,41.31576],[43.13944,41.31775],[43.13272,41.32052],[43.11149,41.3476],[43.09553,41.35736],[43.06023,41.36644],[43.05384,41.37318],[43.04508,41.37601],[43.04067,41.37646],[43.03174,41.37077],[43.01869,41.37555],[43.02137,41.37964],[43.0112,41.39669],[43.00524,41.39918],[43.00382,41.40631],[42.98783,41.41231],[42.98906,41.42385],[42.96925,41.43152],[42.96734,41.43544],[42.97079,41.44606],[42.96848,41.45059],[42.94213,41.45843],[42.93548,41.46483],[42.93164,41.46434],[42.93124,41.47038],[42.92645,41.47267],[42.8994,41.4796],[42.89737,41.48712],[42.9003,41.50083],[42.87744,41.50315],[42.86302,41.49286],[42.85811,41.47305],[42.85182,41.47113],[42.83232,41.47819],[42.81815,41.48968],[42.80145,41.49534],[42.80103,41.50177],[42.80467,41.50765],[42.79711,41.51669],[42.80544,41.53022],[42.81746,41.54049],[42.82067,41.55597],[42.829,41.5578],[42.83465,41.57046],[42.83364,41.58021],[42.83669,41.58603],[42.83262,41.58769],[42.79297,41.58868],[42.78243,41.58248],[42.78232,41.57767],[42.77484,41.57849],[42.77045,41.58458],[42.76293,41.58656],[42.75209,41.58556],[42.74164,41.59543],[42.7141,41.59501],[42.69829,41.60086],[42.68326,41.60081],[42.66065,41.59324],[42.60086,41.58493],[42.59409,41.57699],[42.57615,41.5656],[42.57353,41.55713],[42.58069,41.54367],[42.56485,41.52618],[42.57186,41.50797],[42.56119,41.50714],[42.55584,41.49937],[42.5318,41.48958],[42.52717,41.4803],[42.51325,41.47286],[42.51759,41.45558],[42.52127,41.45364],[42.52119,41.44675],[42.52413,41.44471],[42.51553,41.4395],[42.5026,41.44043],[42.49309,41.4451],[42.48225,41.43791],[42.47129,41.43581],[42.44891,41.43846],[42.43382,41.44386],[42.42413,41.45396],[42.41064,41.45884],[42.40005,41.46673],[42.38468,41.46371],[42.38277,41.46742],[42.36525,41.46553],[42.34005,41.47135],[42.32951,41.46811],[42.31363,41.48174],[42.30282,41.48313],[42.28609,41.4925],[42.26053,41.49165],[42.22518,41.4984],[42.20377,41.49155],[42.1962,41.50599],[42.17808,41.51445],[42.15796,41.50611],[42.14596,41.50548],[42.11985,41.50658],[42.11167,41.51124],[42.10056,41.50735],[42.09849,41.50987],[42.0843,41.50998],[42.04768,41.49528],[42.0381,41.49432],[42.0253,41.50086],[41.99289,41.50541],[41.99116,41.51682],[41.98315,41.5226],[41.9549,41.52394],[41.93816,41.51065],[41.92625,41.50802],[41.9105,41.49906],[41.91023,41.49512],[41.89379,41.48065],[41.89528,41.47545],[41.88457,41.46845],[41.87992,41.45964],[41.84664,41.4483],[41.84531,41.441],[41.82283,41.43016],[41.8126,41.43609],[41.80474,41.44678],[41.79072,41.44883],[41.78642,41.46146],[41.77547,41.46368],[41.77436,41.4605],[41.75316,41.47053],[41.70805,41.47374],[41.7147,41.48075],[41.71677,41.49026],[41.71188,41.49504],[41.70635,41.49585],[41.69389,41.48919],[41.66605,41.48267],[41.63332,41.48687],[41.61915,41.50127],[41.58444,41.50879],[41.57907,41.51702],[41.57036,41.52015],[41.55465,41.51839],[41.54723,41.52051],[41.54932,41.53392],[41.55299,41.54026],[41.56173,41.54545],[41.56596,41.58309],[41.57287,41.60219],[41.58198,41.59479],[41.5969,41.59189],[41.57832,41.59744],[41.57545,41.607],[41.60235,41.63361],[41.63058,41.65491],[41.63993,41.65765],[41.6433,41.65616],[41.64567,41.64725],[41.65695,41.64699],[41.65505,41.65062],[41.6667,41.651],[41.68622,41.66787],[41.70636,41.69511],[41.71773,41.70486],[41.72171,41.71387],[41.72752,41.71635],[41.72337,41.71679],[41.74081,41.75615],[41.75464,41.77097],[41.76875,41.80014],[41.77749,41.85948],[41.7661,41.91776],[41.75863,41.99545],[41.75367,42.02021],[41.73957,42.03235],[41.70493,42.08425],[41.70368,42.09121],[41.69799,42.09109],[41.662,42.13274],[41.65907,42.1328],[41.6518,42.15261],[41.66432,42.15527],[41.65085,42.15468],[41.65302,42.15707],[41.64985,42.16792],[41.63849,42.18102],[41.65547,42.19795],[41.68422,42.19637],[41.70675,42.18764],[41.69057,42.19675],[41.65687,42.19971],[41.64918,42.20567],[41.62911,42.21267],[41.63971,42.23104],[41.64004,42.2472],[41.63578,42.26937],[41.612,42.32946],[41.62262,42.3228],[41.65236,42.32263],[41.6532,42.31799],[41.66271,42.31392],[41.66877,42.31668],[41.65393,42.319],[41.65027,42.32424],[41.62282,42.32467],[41.60746,42.34098],[41.5894,42.37283],[41.57664,42.38236],[41.5596,42.38915],[41.56327,42.40267],[41.59318,42.40585],[41.60604,42.41518],[41.6204,42.40254],[41.62882,42.41351],[41.64328,42.41138],[41.64756,42.41847],[41.65904,42.42372],[41.66405,42.43143],[41.65884,42.4354],[41.66241,42.44187],[41.66086,42.44511],[41.65427,42.44192],[41.65176,42.44457],[41.65616,42.44982],[41.65238,42.45454],[41.65414,42.4717],[41.65062,42.47155],[41.64967,42.47493],[41.6505,42.47062],[41.6441,42.47193],[41.64334,42.47451],[41.64929,42.47641],[41.6499,42.47972],[41.64267,42.47915],[41.63905,42.47564],[41.65331,42.46824],[41.65086,42.4556],[41.65518,42.45114],[41.65068,42.44303],[41.65386,42.44052],[41.66028,42.44473],[41.65812,42.43465],[41.66258,42.42967],[41.65306,42.42155],[41.64821,42.42153],[41.64298,42.41241],[41.63339,42.41507],[41.62605,42.41331],[41.62186,42.40417],[41.61703,42.4048],[41.61321,42.41284],[41.60641,42.41594],[41.59333,42.40944],[41.59215,42.40613],[41.56157,42.40348],[41.55583,42.39437],[41.54342,42.43853],[41.52441,42.55162],[41.51308,42.5937],[41.47744,42.6802],[41.44873,42.72855],[41.43684,42.74061],[41.42238,42.74477],[41.41998,42.74122],[41.41287,42.75087],[41.39033,42.76238],[41.31517,42.7738],[41.27538,42.79051],[41.21657,42.8027],[41.20225,42.8017],[41.17889,42.79162],[41.17023,42.79294],[41.17244,42.79649],[41.18412,42.79653],[41.18336,42.79988],[41.16733,42.79992],[41.16571,42.80329],[41.16119,42.80351],[41.15788,42.79856],[41.16955,42.79347],[41.15048,42.79639],[41.13365,42.81852],[41.13681,42.82437],[41.13264,42.8247],[41.12936,42.82053],[41.10463,42.84703],[41.07896,42.94964],[41.05349,42.98757],[41.03688,42.99788],[41.02539,42.99924],[41.01756,42.99527],[40.99344,42.99518],[40.97375,42.98089],[40.96612,42.98269],[40.95793,42.99464],[40.93788,43.0073],[40.92074,43.02966],[40.89946,43.04284],[40.89024,43.05583],[40.86476,43.07536],[40.82717,43.08264],[40.80446,43.08454],[40.79423,43.08188],[40.75135,43.08819],[40.69074,43.08679],[40.64104,43.10086],[40.60753,43.09184],[40.5823,43.09091],[40.57431,43.09346],[40.56129,43.10493],[40.53951,43.13012],[40.51532,43.14379],[40.49074,43.14167],[40.48203,43.14384],[40.46967,43.14002],[40.45939,43.1499],[40.43601,43.15418],[40.4052,43.17124],[40.39501,43.17368],[40.37011,43.16987],[40.3516,43.15739],[40.34666,43.14795],[40.34224,43.14608],[40.30984,43.17148],[40.299,43.17327],[40.27794,43.18877],[40.26607,43.26769],[40.25416,43.30324],[40.24716,43.31358],[40.23886,43.32008],[40.21093,43.32937],[40.15808,43.34172],[40.12675,43.35858],[40.11587,43.35972],[40.08205,43.37672],[40.00826,43.38566],[40.00989,43.40546],[40.01591,43.42119],[40.01022,43.42479],[40.03724,43.44634],[40.03704,43.45028],[40.04222,43.45502],[40.04487,43.47708],[40.06515,43.50617],[40.09528,43.52952],[40.09045,43.55497],[40.0976,43.56115],[40.09797,43.56571],[40.11016,43.57002],[40.13067,43.56497],[40.15764,43.57482],[40.21359,43.57474],[40.24216,43.58647],[40.26136,43.58566],[40.27154,43.57742],[40.2797,43.57877],[40.29889,43.5706],[40.30508,43.57714],[40.31412,43.57843],[40.3281,43.56666],[40.34346,43.56306],[40.35264,43.5645],[40.38923,43.55424],[40.39616,43.55586],[40.41502,43.5525],[40.42703,43.55378],[40.43293,43.55816],[40.46252,43.54647],[40.47767,43.54913],[40.4873,43.54381],[40.50451,43.52512],[40.54203,43.51917],[40.56624,43.51912],[40.58695,43.5308],[40.59441,43.53143],[40.61068,43.54787],[40.62036,43.55149],[40.62737,43.54889],[40.63541,43.55028],[40.66183,43.56313],[40.67635,43.5563],[40.6786,43.54979],[40.69259,43.54726],[40.68872,43.54247],[40.69333,43.53494],[40.73673,43.5284],[40.74523,43.52141],[40.75493,43.51991],[40.76119,43.51237],[40.76647,43.51293],[40.77532,43.50654],[40.81137,43.49649],[40.82977,43.488],[40.86973,43.48775],[40.87795,43.48494],[40.89181,43.48944],[40.89452,43.4873],[40.89148,43.48165],[40.89687,43.47859],[40.89933,43.47039],[40.8928,43.45764],[40.9239,43.44846],[40.9296,43.44267],[40.92641,43.43292],[40.93083,43.42658],[40.94435,43.42538],[40.95077,43.41965],[40.97918,43.42542],[40.98329,43.4301],[41.00067,43.43135],[41.00848,43.42895],[41.01666,43.41863],[41.03642,43.40658],[41.03847,43.39915],[41.04886,43.39563],[41.05142,43.39746],[41.06825,43.38839],[41.08034,43.39031],[41.09713,43.3849],[41.10412,43.39388],[41.09986,43.39953],[41.10598,43.40669],[41.12228,43.3975],[41.15134,43.40445],[41.15402,43.40288],[41.15627,43.38875],[41.16857,43.3831],[41.18263,43.38608],[41.20581,43.38047],[41.22263,43.38058],[41.22889,43.37123],[41.23878,43.3677],[41.2392,43.36142],[41.24802,43.35796],[41.25747,43.36432],[41.27301,43.36235],[41.27757,43.35912],[41.27791,43.34786],[41.28784,43.33704],[41.30394,43.34081],[41.31967,43.34],[41.32326,43.34832],[41.3413,43.34732],[41.34589,43.35419],[41.35681,43.35758],[41.36213,43.36791],[41.36713,43.37036],[41.37137,43.36701],[41.39205,43.36616],[41.41261,43.35673],[41.41558,43.34912],[41.41011,43.34557],[41.41038,43.33225],[41.41538,43.33075],[41.41307,43.32471],[41.42212,43.315],[41.43572,43.30649],[41.44312,43.30537],[41.46019,43.30939],[41.48849,43.28593],[41.50518,43.28169],[41.50951,43.27608],[41.52831,43.27094],[41.54419,43.2715],[41.56159,43.24875],[41.57446,43.25262],[41.57849,43.25105],[41.58795,43.23694],[41.60909,43.22892],[41.61923,43.22101],[41.63341,43.2216],[41.64412,43.23178],[41.65852,43.23914],[41.67931,43.22596],[41.68479,43.21735],[41.70278,43.22003],[41.7138,43.22785],[41.71875,43.23909],[41.72542,43.24388],[41.73946,43.24053],[41.76816,43.22196],[41.7825,43.22284],[41.79456,43.20795],[41.80471,43.20169],[41.82675,43.21419],[41.84926,43.21131],[41.85816,43.22196],[41.85935,43.22826],[41.86637,43.23406],[41.86315,43.24257],[41.87875,43.24585],[41.88293,43.25154],[41.89834,43.2442],[41.89641,43.24164],[41.90245,43.23624],[41.89923,43.23272],[41.90278,43.22897],[41.91261,43.22586],[41.94185,43.22517],[41.95214,43.20547],[41.9587,43.20504],[41.97135,43.21338],[41.98574,43.21543],[41.99666,43.21318],[42.01811,43.21787],[42.03384,43.2028],[42.03982,43.1874],[42.04725,43.18792],[42.0583,43.19662],[42.07123,43.19806],[42.08468,43.20972],[42.09661,43.21387],[42.1093,43.20844],[42.11845,43.21113],[42.12621,43.20948],[42.13912,43.21807],[42.15028,43.21835],[42.16484,43.22405],[42.17917,43.21655],[42.19262,43.21945],[42.19988,43.2281],[42.21558,43.23106],[42.22041,43.22852],[42.24631,43.22818],[42.25381,43.21751],[42.25367,43.21265],[42.29475,43.21107],[42.29669,43.21684],[42.30486,43.22051],[42.31398,43.21845],[42.34094,43.22045],[42.34205,43.22459],[42.35057,43.23002],[42.3541,43.24372],[42.35846,43.24674],[42.38843,43.24417],[42.40562,43.24787],[42.41321,43.25688],[42.44173,43.25219],[42.45179,43.23753],[42.44419,43.22884],[42.44544,43.22365],[42.45702,43.21288],[42.46921,43.20967],[42.47542,43.20375],[42.48669,43.20561],[42.49345,43.20069],[42.51178,43.19929],[42.54347,43.17719],[42.59622,43.17162],[42.60248,43.16267],[42.61368,43.16526],[42.62288,43.15818],[42.64179,43.15279],[42.64587,43.14705],[42.66619,43.13932],[42.6675,43.13445],[42.67842,43.13743],[42.67083,43.14225],[42.68136,43.15905],[42.677,43.1646],[42.67981,43.17204],[42.68576,43.17489],[42.69782,43.17191],[42.70908,43.17768],[42.73109,43.1819],[42.73953,43.17844],[42.74649,43.18619],[42.77637,43.18893],[42.79419,43.18181],[42.79633,43.17321],[42.81364,43.16757],[42.83048,43.17479],[42.86059,43.17937],[42.87662,43.16985],[42.87407,43.16304],[42.88098,43.15512],[42.89536,43.15972],[42.90259,43.15374],[42.91323,43.15392],[42.93247,43.14775],[42.92237,43.1369],[42.92526,43.13344],[42.92483,43.12631],[42.93404,43.12308],[42.96339,43.12492],[42.98335,43.11682],[42.99003,43.11878],[43.01825,43.10114],[43.02632,43.09953],[43.03215,43.09273],[43.04125,43.09072],[43.04272,43.08767],[43.03953,43.08435],[43.02939,43.08165],[43.01583,43.07091],[43.02261,43.06301],[43.02498,43.04766],[43.03522,43.04365],[43.03759,43.03898],[43.03546,43.02953],[43.04221,43.02937],[43.0514,43.01915],[43.06993,43.0137],[43.07357,43.00793],[43.07917,43.00747],[43.08626,43.00001],[43.11267,43.00064],[43.11585,42.99193],[43.13294,42.98519],[43.13246,42.98065],[43.14131,42.97624],[43.14252,42.97019],[43.17055,42.96461],[43.17964,42.95766],[43.18,42.95233],[43.1865,42.94582],[43.1842,42.93919],[43.18623,42.93732],[43.19563,42.93614],[43.20507,42.93011],[43.22786,42.93211],[43.24061,42.92355],[43.27455,42.92251],[43.29252,42.91736],[43.29301,42.9133],[43.29996,42.90768],[43.31655,42.91459],[43.33457,42.89948],[43.33137,42.89448],[43.3331,42.89061],[43.35039,42.8921],[43.35744,42.88908],[43.38915,42.89987],[43.41374,42.89138],[43.44106,42.8939],[43.45441,42.89144],[43.45925,42.88719],[43.47785,42.88987],[43.47917,42.88433],[43.48934,42.8758],[43.51893,42.8635],[43.52929,42.86662],[43.55528,42.86422],[43.56082,42.86794],[43.56474,42.86192],[43.57144,42.86355],[43.5868,42.85213],[43.58884,42.845],[43.61053,42.8341],[43.60731,42.81429],[43.61999,42.81131],[43.63731,42.81291],[43.6439,42.79758],[43.65343,42.79502],[43.68476,42.80193],[43.69138,42.79566],[43.68933,42.78718],[43.70522,42.77855],[43.72806,42.76855],[43.76156,42.76676],[43.76537,42.76196],[43.77839,42.75809],[43.78066,42.75275],[43.80365,42.74369],[43.8092,42.73663],[43.80506,42.72466],[43.80788,42.72161],[43.78707,42.69821],[43.77805,42.67722],[43.77096,42.6735],[43.75827,42.65388],[43.73809,42.64963],[43.73203,42.64358],[43.71926,42.63958],[43.71482,42.63195],[43.72754,42.62967],[43.74482,42.618],[43.75557,42.61578],[43.75217,42.60065],[43.77145,42.58845],[43.7857,42.59116],[43.78884,42.59642],[43.79883,42.59915],[43.80838,42.59952],[43.81576,42.59352],[43.82543,42.593],[43.83872,42.59839],[43.86627,42.58974],[43.87326,42.58502],[43.87388,42.58116],[43.90985,42.57533],[43.91251,42.56907],[43.92052,42.56548],[43.9437,42.56277],[43.94718,42.55874],[43.94735,42.55551],[43.94292,42.55267],[43.94529,42.5496],[43.95208,42.55241],[43.96582,42.54801],[43.97331,42.55193],[43.97612,42.56131],[43.99058,42.56652],[43.99297,42.57299],[43.99913,42.57629],[44.01053,42.59068],[44.02219,42.59733],[44.03873,42.59883],[44.04388,42.60392],[44.06574,42.60039],[44.08993,42.60504],[44.09127,42.60914],[44.11457,42.61689],[44.13834,42.61095],[44.14966,42.60432],[44.16314,42.60626],[44.18491,42.62249],[44.18964,42.63193],[44.22458,42.63075],[44.2321,42.62693],[44.23093,42.64024],[44.23908,42.64904],[44.24114,42.66736],[44.2495,42.68108],[44.27525,42.69662],[44.28902,42.69945],[44.30165,42.70682],[44.31171,42.72108],[44.31945,42.72296],[44.32095,42.72014],[44.33057,42.72012],[44.34976,42.71084],[44.36379,42.71602],[44.38103,42.71536],[44.38685,42.71331],[44.39353,42.70528],[44.40769,42.70761],[44.41753,42.71872],[44.51274,42.69678],[44.5201,42.6976],[44.52104,42.70406],[44.50127,42.73678],[44.50834,42.74132],[44.51144,42.75326],[44.53469,42.75352],[44.54575,42.75819],[44.54756,42.76421],[44.5528,42.76651],[44.55963,42.75785],[44.5786,42.74565],[44.5996,42.7499],[44.63757,42.74521],[44.66953,42.7497],[44.6785,42.75652],[44.69579,42.74365],[44.71251,42.74276],[44.71357,42.73871],[44.72733,42.72914],[44.73804,42.72877],[44.75185,42.71397],[44.74443,42.70614],[44.74661,42.687],[44.75466,42.67927],[44.75571,42.66571],[44.76474,42.65472],[44.76296,42.65222],[44.76766,42.64151],[44.77614,42.63974],[44.7956,42.61879],[44.80396,42.6149],[44.82889,42.61711],[44.82259,42.63336],[44.82316,42.6415],[44.8299,42.64753],[44.83707,42.6667],[44.83601,42.67445],[44.85674,42.67682],[44.86024,42.68523],[44.86862,42.69156],[44.86439,42.70472],[44.87011,42.71064],[44.87065,42.72784],[44.8794,42.7345],[44.88613,42.74659],[44.94335,42.75104],[44.97963,42.74522],[44.9828,42.73679],[44.99432,42.72983],[44.99625,42.72337],[45.03096,42.70227],[45.03474,42.69288],[45.04186,42.69138],[45.06383,42.69542],[45.0696,42.69986],[45.07008,42.70441],[45.08616,42.71121],[45.10728,42.70434],[45.13318,42.7103],[45.15839,42.70767],[45.17051,42.68721],[45.18399,42.67796],[45.19078,42.66892],[45.21838,42.66008],[45.22193,42.65288],[45.23751,42.64046],[45.25181,42.62005],[45.25508,42.607],[45.28388,42.60613],[45.28144,42.60204],[45.28504,42.59673],[45.28153,42.59111],[45.29191,42.58465],[45.29572,42.57477],[45.30948,42.56924],[45.31426,42.57381],[45.32543,42.56532],[45.32734,42.54155],[45.33395,42.52673],[45.33999,42.52269],[45.3554,42.52231],[45.3652,42.52763],[45.3748,42.52841],[45.39526,42.53774],[45.4048,42.54967],[45.41823,42.55148],[45.43282,42.54069],[45.45248,42.54568],[45.46362,42.53918],[45.47237,42.54022],[45.49314,42.53523],[45.51051,42.53753],[45.52267,42.54486],[45.54261,42.53788],[45.55985,42.54147],[45.57084,42.54819],[45.58312,42.54461],[45.58373,42.53987],[45.59954,42.53233],[45.59606,42.52739],[45.59657,42.51672],[45.61304,42.50647],[45.63345,42.51003],[45.64951,42.49888],[45.66634,42.50524],[45.68264,42.50641],[45.68821,42.50446],[45.69558,42.486],[45.71313,42.47668],[45.72075,42.47563],[45.73304,42.48009],[45.74169,42.47869],[45.76028,42.48626],[45.77549,42.48852],[45.77908,42.4735],[45.77457,42.46993],[45.77328,42.46044],[45.78205,42.4469],[45.77654,42.44113],[45.76982,42.4209],[45.75617,42.40946],[45.75244,42.39789],[45.73554,42.37949],[45.73644,42.37095],[45.74379,42.36268],[45.74102,42.35648],[45.74224,42.33328],[45.7568,42.32611],[45.75078,42.3059],[45.73942,42.29413],[45.72198,42.28905],[45.70309,42.29638],[45.6895,42.28679],[45.66837,42.28305],[45.65884,42.29153],[45.6523,42.29217],[45.6328,42.26392],[45.61898,42.25401],[45.62093,42.24197],[45.60876,42.23385],[45.60604,42.22007],[45.6082,42.21241],[45.62741,42.2065],[45.63113,42.19934],[45.64465,42.19511],[45.64747,42.18703],[45.66664,42.18801],[45.72159,42.16392],[45.72305,42.15595],[45.73691,42.15341],[45.74815,42.14626],[45.74267,42.14203],[45.74001,42.13313],[45.75034,42.12675],[45.76923,42.12877],[45.76838,42.11808],[45.7866,42.10215],[45.80401,42.11677],[45.82142,42.10678],[45.85525,42.1137],[45.88264,42.10315],[45.89706,42.10647],[45.90584,42.09688],[45.91296,42.09519],[45.91538,42.08621],[45.92302,42.08353],[45.91221,42.07174],[45.91234,42.06275],[45.93069,42.05654],[45.93503,42.05092],[45.92972,42.03249],[45.94463,42.03646],[45.94396,42.03003],[45.95216,42.02419],[45.96319,42.02557],[45.97469,42.03899],[45.98575,42.04508],[46.00463,42.03689],[46.02169,42.04337],[46.02276,42.02665],[46.03793,42.01994],[46.04778,42.02057],[46.07294,42.04094],[46.08393,42.02846],[46.08516,42.02236],[46.08206,42.01931],[46.08633,42.01742],[46.08374,42.01484],[46.08573,42.00547],[46.10663,41.98612],[46.1154,41.99054],[46.11591,41.99817],[46.13314,42.00762],[46.14811,42.00972],[46.14974,41.99423],[46.159,41.98953],[46.17812,41.99848],[46.19209,41.99866],[46.19694,42.00468],[46.20875,42.00868],[46.21868,42.0086],[46.22133,42.01549],[46.23675,42.01558],[46.24157,42.00753],[46.2474,42.00423],[46.25352,42.00581],[46.25811,41.99769],[46.24983,41.99442],[46.24425,41.97992],[46.26932,41.98302],[46.26536,41.97431],[46.26798,41.969],[46.27705,41.96392],[46.28424,41.95095],[46.28147,41.94598],[46.30575,41.94058],[46.31977,41.92895],[46.32448,41.93478],[46.33011,41.93587],[46.33066,41.94276],[46.33893,41.94631],[46.35635,41.93937],[46.35533,41.93469],[46.35921,41.93287],[46.39906,41.94019],[46.40402,41.92226],[46.41532,41.92068],[46.4258,41.91232],[46.41796,41.89908],[46.40978,41.89192],[46.40882,41.88646],[46.41649,41.87577],[46.41583,41.87136],[46.40439,41.86117],[46.40029,41.84569],[46.37459,41.82782],[46.35983,41.82407],[46.34183,41.81255],[46.32595,41.79656],[46.30705,41.79035],[46.30159,41.77612],[46.25369,41.77016],[46.23425,41.75811],[46.21766,41.76271],[46.20407,41.77309],[46.20131,41.76981],[46.20235,41.76127],[46.19887,41.75001],[46.18283,41.73993],[46.18213,41.72327],[46.17797,41.71273],[46.18083,41.70863],[46.18478,41.7086],[46.18501,41.70299],[46.18209,41.70098],[46.18838,41.69622],[46.18667,41.68812],[46.19052,41.67831],[46.19874,41.67201],[46.20251,41.6644],[46.20684,41.66446],[46.20755,41.66058],[46.2042,41.65749],[46.20744,41.6531],[46.19501,41.64788],[46.19346,41.64376],[46.1997,41.64224],[46.20079,41.63711],[46.19294,41.62771],[46.19523,41.62539],[46.20413,41.63163],[46.2074,41.62133],[46.20386,41.61947],[46.20412,41.61515],[46.21347,41.6154],[46.22274,41.61088],[46.22106,41.6077],[46.23788,41.6024],[46.23982,41.59559],[46.25037,41.60087],[46.2469,41.60398],[46.2483,41.60989],[46.24275,41.61312],[46.24601,41.6145],[46.2516,41.60932],[46.25624,41.6105],[46.25039,41.61815],[46.25278,41.62264],[46.26642,41.62061],[46.26838,41.62533],[46.26225,41.62542],[46.26291,41.63337],[46.26618,41.63432],[46.27805,41.62011],[46.27984,41.61195],[46.27237,41.612],[46.27254,41.60951],[46.26662,41.60737],[46.28118,41.59947],[46.28787,41.60157],[46.29808,41.59661],[46.30287,41.59747],[46.30001,41.60456],[46.3055,41.60485],[46.30719,41.60667],[46.30324,41.60794],[46.30673,41.61047],[46.31076,41.60788],[46.31523,41.61122],[46.32361,41.6082],[46.32238,41.59876],[46.32702,41.59737],[46.32983,41.59994],[46.34162,41.59183],[46.33762,41.5871],[46.34083,41.58495],[46.33797,41.58196],[46.33992,41.57609],[46.3346,41.57518],[46.34453,41.57204],[46.34375,41.56907],[46.33632,41.56821],[46.33124,41.57643],[46.32693,41.57539],[46.32097,41.58086],[46.31007,41.57632],[46.31266,41.56905],[46.30695,41.5675],[46.3044,41.57015],[46.30645,41.57492],[46.30155,41.57668],[46.29751,41.57273],[46.30166,41.56234],[46.30653,41.55855],[46.30055,41.55353],[46.30439,41.55247],[46.30487,41.54642],[46.3094,41.54134],[46.30556,41.53855],[46.30652,41.53603],[46.31498,41.53303],[46.32083,41.53412],[46.32378,41.53873],[46.32859,41.53769],[46.32073,41.53045],[46.32351,41.52674],[46.33305,41.52771],[46.33515,41.52472],[46.32542,41.52193],[46.33384,41.49952],[46.34095,41.50076],[46.34183,41.49533],[46.35439,41.49386],[46.35432,41.50441],[46.3576,41.50356],[46.35986,41.4965],[46.35672,41.49228],[46.35996,41.48857],[46.36461,41.49095],[46.37088,41.48782],[46.37839,41.48878],[46.38256,41.4922],[46.38465,41.48565],[46.37346,41.48038],[46.37599,41.47817],[46.38468,41.48004],[46.38574,41.48339],[46.40272,41.48337],[46.40392,41.48083],[46.39329,41.4773],[46.39293,41.47199],[46.39857,41.47043],[46.40791,41.47632],[46.40724,41.48049],[46.41046,41.48177],[46.41615,41.476],[46.42434,41.4736],[46.42792,41.46759],[46.42686,41.4554],[46.43833,41.45335],[46.44411,41.45611],[46.43944,41.46109],[46.44467,41.46161],[46.44938,41.45403],[46.44175,41.45046],[46.44236,41.44832],[46.45267,41.4452],[46.45698,41.43818],[46.46715,41.43349],[46.47893,41.43531],[46.47308,41.4292],[46.48546,41.42961],[46.48461,41.42487],[46.50629,41.41993],[46.50865,41.41305],[46.52118,41.41809],[46.52106,41.41344],[46.52653,41.40995],[46.56652,41.40714],[46.57,41.4054],[46.56941,41.39939],[46.59302,41.39804],[46.59846,41.39333],[46.61296,41.39499],[46.61618,41.39032],[46.61092,41.38266],[46.6212,41.37853],[46.63027,41.39069],[46.6328,41.38952],[46.63344,41.38671],[46.62609,41.38173],[46.62627,41.37796],[46.63911,41.38166],[46.64106,41.37469],[46.64586,41.37347],[46.63767,41.36919],[46.63826,41.36578],[46.62629,41.36462],[46.62521,41.35916],[46.63104,41.35994],[46.64671,41.35265],[46.64698,41.35914],[46.65169,41.36412],[46.64904,41.36737],[46.65075,41.37089],[46.65972,41.3704],[46.66292,41.36724],[46.65697,41.36118],[46.65822,41.34908],[46.67036,41.34897],[46.66649,41.3411],[46.66893,41.33765],[46.68359,41.34121],[46.68925,41.33897],[46.69012,41.33526],[46.68481,41.33251],[46.68433,41.32868],[46.69826,41.32996],[46.7033,41.32755],[46.69647,41.31917],[46.6901,41.32149],[46.68761,41.31946],[46.70295,41.30632],[46.69907,41.29634],[46.7305,41.29035],[46.73613,41.28416],[46.72777,41.27736],[46.72449,41.2774],[46.72356,41.2803],[46.72684,41.28238],[46.72494,41.28495],[46.7149,41.27785],[46.71223,41.27368],[46.71415,41.26754],[46.70027,41.26425],[46.69699,41.26013],[46.70752,41.25623],[46.69904,41.25038],[46.69985,41.24203],[46.69558,41.23922],[46.69639,41.23675],[46.68873,41.23163],[46.67877,41.23362],[46.6763,41.23097],[46.67775,41.22639],[46.66742,41.22058],[46.67259,41.21657],[46.66389,41.21247],[46.65691,41.20082],[46.6602,41.19715],[46.65829,41.19182],[46.66871,41.18996],[46.66173,41.17657],[46.66694,41.17151],[46.65414,41.16765],[46.65583,41.16405],[46.65235,41.15597],[46.65668,41.15208],[46.65457,41.13506],[46.6596,41.13154],[46.64659,41.12156],[46.64885,41.11069],[46.64342,41.11086],[46.64147,41.1069],[46.63149,41.10317]]]]}}]}