{"type":"FeatureCollection","features":[{"type":"Feature","properties":{"ISO_A3":"GHA","WB_A3":"GHA","WB_NAME":"Ghana","WB_REGION":"AFW,SSF"},"geometry":{"type":"MultiPolygon","coordinates":[[[[0.63169,5.92279],[0.62626,5.92715],[0.62728,5.92973],[0.63169,5.92279]]],[[[0.64095,5.92206],[0.63654,5.92977],[0.63951,5.92824],[0.64095,5.92206]]],[[[0.63867,5.91303],[0.63324,5.91984],[0.63737,5.91792],[0.63867,5.91303]]],[[[0.63002,5.86663],[0.62832,5.86749],[0.63012,5.8674],[0.63002,5.86663]]],[[[0.65215,5.82898],[0.64531,5.83398],[0.64962,5.8343],[0.65215,5.82898]]],[[[0.77592,5.81905],[0.77176,5.8296],[0.77562,5.83064],[0.77592,5.81905]]],[[[0.76617,5.81309],[0.76473,5.81772],[0.76791,5.82662],[0.76987,5.82083],[0.76617,5.81309]]],[[[0.71679,5.81031],[0.71679,5.81031],[0.71679,5.81031],[0.71679,5.81031]]],[[[0.71915,5.7995],[0.71938,5.80543],[0.72132,5.80209],[0.71915,5.7995]]],[[[0.70295,5.79802],[0.68942,5.80453],[0.69003,5.81226],[0.69853,5.80805],[0.70289,5.81232],[0.70753,5.81105],[0.71497,5.81468],[0.71743,5.81083],[0.71292,5.81261],[0.71357,5.80719],[0.70295,5.79802]]],[[[0.78502,5.79513],[0.78474,5.7995],[0.78744,5.79951],[0.78502,5.79513]]],[[[0.77345,5.79263],[0.76804,5.79403],[0.76376,5.80303],[0.76517,5.80587],[0.77443,5.80487],[0.77665,5.79535],[0.77345,5.79263]]],[[[0.69965,5.7877],[0.69989,5.79105],[0.7058,5.7912],[0.69965,5.7877]]],[[[0.71637,5.78622],[0.70968,5.78813],[0.7161,5.7897],[0.71637,5.78622]]],[[[0.66339,5.78575],[0.65539,5.79048],[0.64956,5.80128],[0.65302,5.80348],[0.66026,5.79617],[0.66339,5.78575]]],[[[0.69271,5.78445],[0.69193,5.7878],[0.69476,5.78755],[0.69271,5.78445]]],[[[0.65183,5.78158],[0.63133,5.79347],[0.62391,5.81611],[0.63027,5.83237],[0.63843,5.81901],[0.63757,5.80793],[0.65387,5.78532],[0.65414,5.78159],[0.65183,5.78158]]],[[[0.70636,5.7809],[0.70017,5.78551],[0.70658,5.79043],[0.70968,5.78761],[0.70636,5.7809]]],[[[0.77376,5.78053],[0.76216,5.78525],[0.76137,5.7904],[0.7696,5.79004],[0.77376,5.78053]]],[[[0.71151,5.77963],[0.71148,5.78607],[0.71457,5.78583],[0.71151,5.77963]]],[[[0.66342,5.77635],[0.66084,5.7793],[0.66289,5.78072],[0.66508,5.7797],[0.66342,5.77635]]],[[[0.7905,5.77454],[0.77839,5.779],[0.77568,5.78247],[0.77629,5.79071],[0.78039,5.7933],[0.77976,5.78969],[0.78403,5.7852],[0.79471,5.7828],[0.79444,5.77696],[0.7905,5.77454]]],[[[-1.01483,5.20681],[-1.01635,5.213],[-1.01276,5.20925],[-1.01483,5.20681]]],[[[-2.94352,5.11841],[-2.94558,5.12344],[-2.94275,5.12421],[-2.94352,5.11841]]],[[[-2.09062,4.74074],[-2.096,4.75183],[-2.10962,4.75585],[-2.11166,4.76835],[-2.10497,4.77582],[-2.11343,4.78614],[-2.12396,4.79118],[-2.13296,4.79055],[-2.14888,4.79805],[-2.1688,4.79627],[-2.17188,4.80503],[-2.16994,4.80864],[-2.17508,4.81432],[-2.20128,4.82234],[-2.20102,4.82827],[-2.20769,4.83808],[-2.24622,4.85565],[-2.24146,4.86209],[-2.24735,4.88118],[-2.25852,4.88931],[-2.26931,4.89151],[-2.26646,4.91239],[-2.26723,4.91523],[-2.27379,4.91492],[-2.27043,4.92324],[-2.25847,4.93365],[-2.24768,4.93132],[-2.24355,4.94111],[-2.23695,4.94233],[-2.23186,4.93942],[-2.23262,4.94684],[-2.22196,4.94057],[-2.21682,4.94869],[-2.22198,4.94241],[-2.23095,4.94922],[-2.23429,4.94819],[-2.23365,4.94303],[-2.24458,4.94124],[-2.24696,4.93272],[-2.25127,4.93506],[-2.26078,4.93327],[-2.27108,4.924],[-2.27481,4.91498],[-2.26762,4.91291],[-2.26943,4.89992],[-2.27341,4.90041],[-2.32557,4.92315],[-2.38223,4.94267],[-2.45407,4.95962],[-3.10602,5.09086],[-3.10916,5.11664],[-3.10243,5.11273],[-3.09446,5.11531],[-3.08623,5.11222],[-3.07286,5.11377],[-3.07235,5.11983],[-3.06283,5.12292],[-3.05101,5.11648],[-3.04741,5.12086],[-3.03892,5.11764],[-3.02143,5.1206],[-3.01655,5.11571],[-3.00421,5.11339],[-2.97849,5.08954],[-2.95098,5.08567],[-2.94172,5.09521],[-2.93272,5.09624],[-2.93144,5.09972],[-2.93504,5.10204],[-2.92578,5.11274],[-2.91691,5.10771],[-2.90907,5.09237],[-2.90135,5.08927],[-2.89493,5.08991],[-2.88914,5.10332],[-2.89107,5.11247],[-2.89852,5.11132],[-2.89801,5.1059],[-2.90238,5.10074],[-2.90778,5.09804],[-2.91318,5.09946],[-2.91627,5.11003],[-2.91421,5.11518],[-2.91678,5.11609],[-2.92526,5.11351],[-2.93247,5.10513],[-2.94314,5.11416],[-2.94123,5.12535],[-2.9364,5.12621],[-2.92899,5.12134],[-2.89604,5.12259],[-2.89108,5.11967],[-2.88996,5.12697],[-2.88334,5.12405],[-2.87713,5.12775],[-2.868,5.12237],[-2.86346,5.12311],[-2.85274,5.11102],[-2.84287,5.10768],[-2.83816,5.10973],[-2.84024,5.11245],[-2.8348,5.12154],[-2.83144,5.1214],[-2.81804,5.10554],[-2.81482,5.10632],[-2.81684,5.11169],[-2.81452,5.11328],[-2.81223,5.10654],[-2.80772,5.10632],[-2.80554,5.11128],[-2.80085,5.10713],[-2.79062,5.10664],[-2.78675,5.11692],[-2.78599,5.10952],[-2.78002,5.1122],[-2.76556,5.10894],[-2.76534,5.10455],[-2.7577,5.10085],[-2.75451,5.11674],[-2.74221,5.11374],[-2.73761,5.11932],[-2.73992,5.12007],[-2.7378,5.12871],[-2.73143,5.12981],[-2.73124,5.13475],[-2.72739,5.13205],[-2.72794,5.13609],[-2.72359,5.14069],[-2.72723,5.1401],[-2.73026,5.15065],[-2.73252,5.15196],[-2.73442,5.14861],[-2.73924,5.15065],[-2.74134,5.15764],[-2.73656,5.16091],[-2.74572,5.16683],[-2.74111,5.1749],[-2.74938,5.19416],[-2.74799,5.20195],[-2.75702,5.20042],[-2.76341,5.21366],[-2.76368,5.21833],[-2.7568,5.21828],[-2.76107,5.22947],[-2.75947,5.23559],[-2.76463,5.23519],[-2.76557,5.23767],[-2.76224,5.24574],[-2.75544,5.24173],[-2.76076,5.25018],[-2.75317,5.24888],[-2.75473,5.25331],[-2.76474,5.2551],[-2.76542,5.25915],[-2.77231,5.25846],[-2.77561,5.26485],[-2.77927,5.2641],[-2.76965,5.26862],[-2.78095,5.27661],[-2.78589,5.28682],[-2.78163,5.29477],[-2.77,5.29424],[-2.76679,5.30516],[-2.76618,5.31725],[-2.77193,5.32874],[-2.7778,5.33143],[-2.77487,5.33611],[-2.77084,5.33559],[-2.77625,5.34188],[-2.77609,5.34786],[-2.77023,5.35176],[-2.76973,5.35594],[-2.76499,5.35669],[-2.75705,5.34428],[-2.7384,5.34746],[-2.72661,5.34093],[-2.72415,5.34281],[-2.72435,5.384],[-2.74847,5.43661],[-2.76778,5.55526],[-2.76074,5.59774],[-2.7658,5.60332],[-2.77458,5.60305],[-2.77887,5.60678],[-2.77528,5.61547],[-2.78452,5.61395],[-2.78942,5.61696],[-2.78619,5.62501],[-2.78994,5.62328],[-2.79111,5.62753],[-2.79453,5.62247],[-2.80339,5.61931],[-2.80876,5.62718],[-2.81379,5.62905],[-2.81646,5.6259],[-2.82221,5.62639],[-2.83648,5.63997],[-2.8589,5.6501],[-2.85581,5.65399],[-2.85775,5.65706],[-2.87177,5.64383],[-2.87553,5.64396],[-2.87863,5.63956],[-2.88334,5.64022],[-2.88383,5.63658],[-2.89872,5.63024],[-2.90203,5.63211],[-2.90562,5.62907],[-2.91994,5.62793],[-2.9274,5.61932],[-2.9338,5.62003],[-2.9485,5.63757],[-2.95954,5.63678],[-2.96646,5.64087],[-2.95397,5.71602],[-3.02676,5.70917],[-3.02003,5.85688],[-3.07381,5.985],[-3.10274,6.15313],[-3.15451,6.25152],[-3.17372,6.2506],[-3.17569,6.25282],[-3.16991,6.28297],[-3.17406,6.31293],[-3.18196,6.32985],[-3.2362,6.54139],[-3.23327,6.60111],[-3.24453,6.60543],[-3.26009,6.61713],[-3.26004,6.62981],[-3.25628,6.63378],[-3.25488,6.64594],[-3.24363,6.66543],[-3.23461,6.66773],[-3.23589,6.67454],[-3.23089,6.6811],[-3.23254,6.68642],[-3.22838,6.68946],[-3.23106,6.7004],[-3.22164,6.70572],[-3.2168,6.71484],[-3.21575,6.72633],[-3.20992,6.72793],[-3.20925,6.73358],[-3.21738,6.74653],[-3.21214,6.7547],[-3.23552,6.77633],[-3.23191,6.78123],[-3.22949,6.80915],[-3.23227,6.82032],[-3.0876,7.05271],[-3.04826,7.06942],[-3.03189,7.07181],[-3.02382,7.14177],[-2.9528,7.23772],[-2.9753,7.26992],[-2.96993,7.33174],[-2.94748,7.43122],[-2.94565,7.45224],[-2.93084,7.49471],[-2.92215,7.61221],[-2.9119,7.62966],[-2.86,7.74918],[-2.84917,7.76337],[-2.84803,7.7839],[-2.82673,7.80553],[-2.83105,7.82001],[-2.81734,7.83704],[-2.79465,7.85598],[-2.7912,7.86263],[-2.78142,7.95218],[-2.76836,7.94892],[-2.75761,7.92849],[-2.74678,7.92271],[-2.73083,7.9582],[-2.70674,7.98216],[-2.67962,8.02039],[-2.62779,8.02957],[-2.61987,8.02286],[-2.60468,8.03043],[-2.59775,8.05728],[-2.62619,8.10194],[-2.62926,8.11587],[-2.62682,8.12379],[-2.61426,8.13744],[-2.60858,8.15161],[-2.5897,8.15194],[-2.57599,8.1447],[-2.56532,8.14949],[-2.56001,8.14339],[-2.5566,8.14692],[-2.55141,8.14564],[-2.49303,8.20648],[-2.49619,8.30204],[-2.58435,8.7865],[-2.60329,8.78738],[-2.61243,8.78205],[-2.63016,8.79429],[-2.62272,8.80805],[-2.59753,8.82511],[-2.5984,8.83557],[-2.60893,8.84926],[-2.62336,8.87889],[-2.61663,8.91099],[-2.61896,8.92275],[-2.64327,8.93429],[-2.6515,8.9438],[-2.65841,8.98463],[-2.65468,9.00692],[-2.662,9.01722],[-2.67676,9.02438],[-2.692,9.02408],[-2.72373,9.03281],[-2.72919,9.02939],[-2.76548,9.03607],[-2.76438,9.04055],[-2.77369,9.0483],[-2.78018,9.06291],[-2.76531,9.08113],[-2.76073,9.09331],[-2.76622,9.12459],[-2.77239,9.13351],[-2.77369,9.14154],[-2.76445,9.15021],[-2.74741,9.15235],[-2.73341,9.16009],[-2.72082,9.18154],[-2.7149,9.2058],[-2.69542,9.22039],[-2.69366,9.22568],[-2.66586,9.23888],[-2.6571,9.25344],[-2.65907,9.26031],[-2.67034,9.27436],[-2.68571,9.28755],[-2.69149,9.28435],[-2.70166,9.28617],[-2.70938,9.28988],[-2.71738,9.29908],[-2.72115,9.31312],[-2.71953,9.33503],[-2.7036,9.33956],[-2.68067,9.36228],[-2.6738,9.38314],[-2.67634,9.4039],[-2.68881,9.43398],[-2.68987,9.45514],[-2.68391,9.48626],[-2.70012,9.51064],[-2.71637,9.5256],[-2.73204,9.52999],[-2.74508,9.54459],[-2.7599,9.55463],[-2.76855,9.56918],[-2.77206,9.59867],[-2.76247,9.61055],[-2.76266,9.61687],[-2.74751,9.63389],[-2.74572,9.64121],[-2.7538,9.65275],[-2.7564,9.67877],[-2.76086,9.68307],[-2.7839,9.68972],[-2.78738,9.69774],[-2.78298,9.72638],[-2.78994,9.7414],[-2.78961,9.7473],[-2.77707,9.75893],[-2.75875,9.79959],[-2.75037,9.80762],[-2.73281,9.81461],[-2.72638,9.83047],[-2.73094,9.83928],[-2.74538,9.85305],[-2.76159,9.8834],[-2.76334,9.9148],[-2.75922,9.92841],[-2.7446,9.94803],[-2.74284,9.95817],[-2.74979,9.98196],[-2.7637,9.99434],[-2.77531,10.01112],[-2.77646,10.02002],[-2.78183,10.02713],[-2.78183,10.0413],[-2.79045,10.06947],[-2.78806,10.0948],[-2.79322,10.1275],[-2.78715,10.1403],[-2.79805,10.19169],[-2.79648,10.1982],[-2.78784,10.20697],[-2.76069,10.22686],[-2.75636,10.24436],[-2.75772,10.25314],[-2.76672,10.26582],[-2.79309,10.27425],[-2.83219,10.2951],[-2.84272,10.30418],[-2.85041,10.31939],[-2.84229,10.34371],[-2.84201,10.36553],[-2.83048,10.38884],[-2.81908,10.39753],[-2.80801,10.39961],[-2.8009,10.39765],[-2.77915,10.40907],[-2.77343,10.42281],[-2.83482,10.43761],[-2.86628,10.45431],[-2.87285,10.46765],[-2.87119,10.47987],[-2.87459,10.49004],[-2.89941,10.52268],[-2.89842,10.53901],[-2.90285,10.55224],[-2.91112,10.56319],[-2.92646,10.59851],[-2.94055,10.61264],[-2.94117,10.63576],[-2.93729,10.64395],[-2.91259,10.66837],[-2.91157,10.67699],[-2.90594,10.68473],[-2.91061,10.69926],[-2.93989,10.70901],[-2.93935,10.717],[-2.93682,10.72375],[-2.91971,10.73523],[-2.89521,10.76461],[-2.89243,10.77954],[-2.88109,10.8035],[-2.87929,10.83186],[-2.86394,10.8575],[-2.86685,10.87279],[-2.86399,10.88772],[-2.85983,10.89088],[-2.83725,10.89375],[-2.81916,10.92035],[-2.81801,10.93831],[-2.82261,10.94728],[-2.83855,10.96108],[-2.84087,10.96749],[-2.83357,11.00709],[-2.75898,11.00817],[-2.75899,11.00365],[-2.68945,11.00459],[-2.63529,10.99667],[-2.6296,10.99667],[-2.6296,11],[-2.47899,10.98818],[-2.32913,10.98641],[-2.2703,10.99173],[-2.22112,10.99121],[-2.12818,10.98374],[-1.75058,10.98573],[-1.7506,10.97671],[-1.69571,10.9767],[-1.69571,10.98974],[-1.58444,10.98973],[-1.58445,11.02138],[-1.42641,11.02137],[-1.38989,10.98652],[-1.30189,10.9907],[-1.11466,10.98582],[-1.11494,11.00382],[-1.00817,11.00849],[-0.99973,11.00816],[-0.99979,10.99796],[-0.91633,11.00242],[-0.91671,10.98029],[-0.88882,10.98036],[-0.88859,10.96494],[-0.89337,10.96241],[-0.87001,10.9666],[-0.85507,10.99804],[-0.82844,10.99805],[-0.82733,11.00649],[-0.80756,11.00583],[-0.8076,10.99784],[-0.6842,10.99736],[-0.68626,10.98659],[-0.68089,10.98246],[-0.67756,10.98213],[-0.67325,10.98973],[-0.65419,10.98756],[-0.65271,10.98094],[-0.65677,10.9746],[-0.66382,10.97453],[-0.67155,10.96143],[-0.67032,10.95758],[-0.6624,10.95568],[-0.6532,10.96348],[-0.64567,10.95588],[-0.64856,10.9498],[-0.62579,10.9386],[-0.61852,10.91093],[-0.59321,10.92351],[-0.59371,10.93067],[-0.5867,10.94296],[-0.58611,10.9596],[-0.58175,10.96269],[-0.57974,10.97238],[-0.56625,10.99266],[-0.56029,10.98956],[-0.55443,10.9909],[-0.5508,10.98735],[-0.55117,10.97869],[-0.54472,10.97483],[-0.5434,10.98539],[-0.52957,10.99989],[-0.52612,10.99958],[-0.52331,10.99164],[-0.51088,10.98839],[-0.501,11.00338],[-0.50219,11.01608],[-0.48111,11.02338],[-0.47957,11.03142],[-0.47418,11.03555],[-0.45916,11.02815],[-0.43801,11.03034],[-0.43359,11.03715],[-0.43879,11.04443],[-0.43493,11.0478],[-0.43975,11.06487],[-0.43144,11.08686],[-0.42806,11.11445],[-0.42091,11.11522],[-0.40206,11.12698],[-0.37246,11.12335],[-0.37516,11.10557],[-0.36979,11.09839],[-0.37207,11.09191],[-0.36616,11.0818],[-0.36055,11.07879],[-0.36112,11.06949],[-0.35645,11.07116],[-0.35434,11.08426],[-0.34029,11.08665],[-0.33605,11.0963],[-0.3365,11.10624],[-0.33236,11.1094],[-0.32083,11.1155],[-0.30929,11.11522],[-0.30308,11.11959],[-0.27322,11.12343],[-0.27182,11.13809],[-0.28125,11.14042],[-0.28901,11.14954],[-0.28423,11.15479],[-0.28187,11.16966],[-0.27542,11.17485],[-0.13623,11.13962],[-0.13383,11.12982],[-0.14281,11.12101],[-0.14329,11.10684],[-0.12668,11.10587],[-0.09286,11.08583],[-0.05423,11.08599],[-0.04626,11.09979],[-0.03845,11.10615],[-0.01967,11.11418],[-0.01474,11.11293],[-0.00465,11.10778],[-0.00497,11.10044],[0.00197,11.09388],[0.00286,11.08472],[0.02355,11.05902],[0.02857,11.00396],[0.03438,10.99272],[0.03131,10.9833],[0.03341,10.97945],[0.01898,10.97472],[0.00833,10.96512],[-0.00602,10.96341],[-0.00724,10.94602],[-0.01179,10.94405],[-0.00757,10.915],[-0.01349,10.90788],[-0.01757,10.88962],[-0.02543,10.88089],[-0.0244,10.87036],[-0.02948,10.85354],[-0.02133,10.82101],[-0.02945,10.81404],[-0.03054,10.80727],[-0.03857,10.8046],[-0.04439,10.79785],[-0.04468,10.79222],[-0.05493,10.78744],[-0.06397,10.77282],[-0.07277,10.76847],[-0.0699,10.76343],[-0.07435,10.75632],[-0.07092,10.74212],[-0.07435,10.73134],[-0.07254,10.71946],[-0.08926,10.71371],[-0.09017,10.70831],[-0.07826,10.69027],[-0.07008,10.66904],[-0.07031,10.66196],[-0.06056,10.63448],[-0.01569,10.6236],[-0.01322,10.61718],[0.04094,10.60149],[0.04298,10.59425],[0.05683,10.58179],[0.061,10.56082],[0.11722,10.54142],[0.12763,10.52975],[0.14268,10.52623],[0.14721,10.51374],[0.14695,10.50132],[0.15197,10.49107],[0.15052,10.48741],[0.15378,10.48492],[0.15437,10.47797],[0.15888,10.4751],[0.15421,10.46719],[0.15571,10.46271],[0.16245,10.45923],[0.16479,10.45326],[0.17265,10.45062],[0.16716,10.44167],[0.16987,10.42904],[0.19068,10.41697],[0.18921,10.40942],[0.19394,10.40307],[0.20201,10.40733],[0.20957,10.40588],[0.20629,10.41891],[0.21049,10.4185],[0.21097,10.42215],[0.21779,10.4269],[0.22006,10.42232],[0.22912,10.42012],[0.23441,10.41357],[0.24338,10.41598],[0.25007,10.413],[0.25034,10.40988],[0.2594,10.4076],[0.26947,10.41179],[0.26678,10.41329],[0.27328,10.42108],[0.2767,10.41928],[0.28469,10.42239],[0.29061,10.4088],[0.29417,10.41111],[0.29876,10.4091],[0.30044,10.40239],[0.30076,10.39174],[0.29024,10.3816],[0.29324,10.38002],[0.29015,10.37824],[0.29113,10.37567],[0.3012,10.3729],[0.30245,10.36945],[0.30628,10.37163],[0.31078,10.36693],[0.31792,10.33519],[0.32093,10.33409],[0.32481,10.33996],[0.3279,10.3399],[0.33415,10.33577],[0.33719,10.32912],[0.33706,10.32374],[0.32299,10.31948],[0.32207,10.31275],[0.31612,10.31098],[0.31966,10.30823],[0.32116,10.31008],[0.32411,10.30681],[0.33174,10.31145],[0.33627,10.30832],[0.34861,10.30775],[0.35322,10.31424],[0.3678,10.31078],[0.39134,10.31549],[0.3968,10.31277],[0.39803,10.30662],[0.39076,10.30235],[0.38834,10.30399],[0.37872,10.29454],[0.37858,10.28735],[0.37247,10.28062],[0.38202,10.2769],[0.38191,10.27355],[0.37086,10.26537],[0.36421,10.26443],[0.36127,10.25703],[0.3616,10.22693],[0.36065,10.21936],[0.35539,10.21216],[0.35674,10.19782],[0.35119,10.19215],[0.35447,10.18271],[0.35076,10.16766],[0.36209,10.14713],[0.36361,10.13833],[0.35231,10.1108],[0.35271,10.10043],[0.35718,10.09023],[0.36394,10.0857],[0.3945,10.08131],[0.41209,10.06757],[0.41734,10.05954],[0.41255,10.0422],[0.4144,10.03325],[0.41004,10.02103],[0.40122,10.02005],[0.39265,10.02594],[0.37475,10.02655],[0.3665,10.0339],[0.36139,10.03139],[0.36466,10.01557],[0.35761,9.99637],[0.35992,9.98621],[0.36964,9.96405],[0.38715,9.94966],[0.38714,9.9376],[0.35922,9.92906],[0.35305,9.91505],[0.35126,9.88181],[0.35531,9.87397],[0.35758,9.84822],[0.352,9.82982],[0.33913,9.81511],[0.33954,9.8042],[0.32978,9.79269],[0.33614,9.77985],[0.33469,9.7751],[0.32538,9.77225],[0.33006,9.76261],[0.3193,9.72858],[0.3243,9.72272],[0.3387,9.72217],[0.34415,9.71831],[0.35192,9.6924],[0.35136,9.67604],[0.363,9.67386],[0.36213,9.67034],[0.36851,9.6659],[0.36704,9.65751],[0.37561,9.65363],[0.3766,9.64399],[0.38244,9.64487],[0.37296,9.61013],[0.38359,9.59216],[0.37153,9.57863],[0.35558,9.57271],[0.34572,9.5725],[0.33455,9.57862],[0.31704,9.57547],[0.28975,9.57655],[0.26651,9.56659],[0.25297,9.57417],[0.23986,9.57427],[0.23546,9.54925],[0.23663,9.53696],[0.24505,9.52276],[0.25684,9.51929],[0.28054,9.52581],[0.29686,9.52277],[0.30926,9.51265],[0.31111,9.50463],[0.28871,9.4879],[0.27568,9.48763],[0.26987,9.47878],[0.254,9.47774],[0.23853,9.48556],[0.22898,9.48581],[0.22908,9.46347],[0.2436,9.44806],[0.24717,9.43801],[0.26033,9.4327],[0.2587,9.43109],[0.26234,9.4286],[0.26928,9.43076],[0.27363,9.42729],[0.3049,9.43883],[0.31244,9.44622],[0.33173,9.44825],[0.33827,9.45341],[0.34477,9.47227],[0.34982,9.47384],[0.3444,9.48687],[0.35934,9.49919],[0.36913,9.49597],[0.37051,9.49863],[0.37606,9.49317],[0.38915,9.49154],[0.40145,9.49544],[0.40614,9.49388],[0.41486,9.50068],[0.43949,9.49536],[0.45666,9.498],[0.46295,9.49048],[0.48162,9.48511],[0.48868,9.4869],[0.50256,9.47522],[0.50066,9.47219],[0.50569,9.46737],[0.50378,9.45819],[0.49487,9.45229],[0.50003,9.43865],[0.50837,9.4368],[0.51789,9.44053],[0.52686,9.43063],[0.53209,9.43133],[0.54846,9.42245],[0.55502,9.42314],[0.55721,9.41206],[0.567,9.40593],[0.55251,9.35229],[0.54509,9.34069],[0.556,9.31174],[0.55255,9.30389],[0.53791,9.30533],[0.52853,9.28572],[0.51338,9.26987],[0.50589,9.25486],[0.5336,9.20942],[0.52203,9.19377],[0.51163,9.16372],[0.50459,9.16003],[0.50308,9.15411],[0.4958,9.15605],[0.47677,9.14502],[0.4817,9.13591],[0.48481,9.12373],[0.48344,9.11652],[0.48706,9.11131],[0.4833,9.09968],[0.47307,9.09632],[0.46248,9.07614],[0.4625,9.05425],[0.45749,9.05525],[0.4563,9.04227],[0.45695,9.03533],[0.46327,9.03433],[0.46541,9.02283],[0.4707,9.01938],[0.46855,9.0044],[0.4942,8.95403],[0.50725,8.94944],[0.50922,8.94147],[0.5164,8.9375],[0.50934,8.91662],[0.51254,8.91379],[0.51476,8.89866],[0.5276,8.87785],[0.52016,8.87233],[0.51696,8.86415],[0.52083,8.85526],[0.51826,8.8526],[0.50809,8.8547],[0.50799,8.84879],[0.49608,8.83983],[0.50056,8.83046],[0.49572,8.81991],[0.50039,8.81447],[0.49045,8.79994],[0.472,8.79946],[0.46997,8.7925],[0.46756,8.79252],[0.46339,8.80094],[0.45948,8.80183],[0.45976,8.80928],[0.44812,8.81129],[0.44121,8.80064],[0.42963,8.79616],[0.43155,8.79024],[0.43855,8.79378],[0.44104,8.7878],[0.42785,8.77916],[0.42324,8.78244],[0.42399,8.78963],[0.41816,8.79229],[0.39898,8.79328],[0.39868,8.78957],[0.39111,8.79608],[0.39052,8.79082],[0.37941,8.79222],[0.38128,8.77627],[0.37807,8.77335],[0.38096,8.76819],[0.3892,8.76171],[0.39979,8.76089],[0.40092,8.75686],[0.39453,8.75384],[0.37463,8.75506],[0.38484,8.74563],[0.38263,8.73957],[0.47147,8.5995],[0.46943,8.59621],[0.48008,8.59376],[0.48403,8.5987],[0.49188,8.59715],[0.49452,8.59498],[0.49432,8.58558],[0.50148,8.57912],[0.49955,8.57404],[0.50587,8.57022],[0.50811,8.57284],[0.51095,8.57112],[0.51138,8.56395],[0.52393,8.56412],[0.52995,8.57004],[0.53559,8.55783],[0.56277,8.54579],[0.56459,8.53844],[0.57066,8.53425],[0.57186,8.52515],[0.57548,8.52721],[0.58021,8.52374],[0.58364,8.52608],[0.59032,8.51643],[0.60157,8.51836],[0.61161,8.5131],[0.62472,8.51127],[0.63004,8.50758],[0.62615,8.50261],[0.62933,8.49633],[0.6399,8.49784],[0.64479,8.49448],[0.64498,8.47533],[0.64932,8.472],[0.65025,8.46262],[0.65557,8.45675],[0.65161,8.4476],[0.65369,8.44516],[0.65158,8.42278],[0.67158,8.41729],[0.67958,8.41014],[0.68627,8.41131],[0.68719,8.40698],[0.69553,8.40478],[0.69472,8.39435],[0.70242,8.39433],[0.70406,8.39239],[0.69914,8.38954],[0.71123,8.37879],[0.70837,8.37793],[0.7088,8.36733],[0.71161,8.36709],[0.71051,8.35156],[0.71958,8.34769],[0.71745,8.34391],[0.72847,8.34327],[0.72963,8.3399],[0.72749,8.33848],[0.73148,8.31457],[0.73102,8.28652],[0.71093,8.28907],[0.68803,8.28076],[0.68418,8.27776],[0.68168,8.26514],[0.67431,8.25945],[0.63849,8.26034],[0.63806,8.24568],[0.62446,8.23722],[0.62601,8.22434],[0.61942,8.21971],[0.61923,8.21575],[0.599,8.21278],[0.58963,8.20515],[0.58849,8.19769],[0.60245,8.18487],[0.61396,8.18479],[0.61203,8.17498],[0.6082,8.17441],[0.60966,8.14565],[0.60678,8.13973],[0.59219,8.13919],[0.59253,8.10334],[0.58656,8.1035],[0.58477,8.09302],[0.59266,8.06129],[0.59747,8.06121],[0.59876,8.05678],[0.59747,8.0449],[0.59392,8.04034],[0.60243,8.02195],[0.59737,8.01417],[0.59896,8.00666],[0.60792,7.99679],[0.60792,7.99133],[0.59684,7.9895],[0.59667,7.9868],[0.60395,7.9609],[0.6064,7.96099],[0.60539,7.95686],[0.61201,7.94989],[0.61183,7.93765],[0.61741,7.92629],[0.62388,7.88468],[0.62149,7.88354],[0.62169,7.87441],[0.62747,7.86739],[0.62542,7.84865],[0.62359,7.84244],[0.61976,7.84088],[0.61695,7.80598],[0.62181,7.79971],[0.61761,7.79541],[0.62918,7.79123],[0.62711,7.78774],[0.62955,7.78563],[0.63096,7.76743],[0.61879,7.76324],[0.61947,7.75787],[0.61148,7.75516],[0.61697,7.74535],[0.61618,7.73916],[0.62624,7.70935],[0.62463,7.70457],[0.61987,7.70331],[0.60879,7.71093],[0.60321,7.7104],[0.59056,7.70322],[0.5833,7.67037],[0.58604,7.62208],[0.56095,7.61373],[0.55305,7.6067],[0.5439,7.60843],[0.52908,7.59659],[0.51849,7.59301],[0.52428,7.58928],[0.52521,7.58142],[0.51863,7.51165],[0.52387,7.50302],[0.52304,7.49419],[0.52657,7.49198],[0.52859,7.47877],[0.51975,7.47063],[0.52264,7.46767],[0.51948,7.4602],[0.52345,7.45648],[0.53247,7.45677],[0.53208,7.44348],[0.53753,7.43524],[0.53872,7.42224],[0.54412,7.42082],[0.55316,7.4055],[0.56789,7.39313],[0.59887,7.4003],[0.60212,7.40497],[0.61987,7.41235],[0.62545,7.41017],[0.62913,7.39972],[0.63369,7.40375],[0.64413,7.40116],[0.64337,7.39191],[0.64895,7.37912],[0.64111,7.37145],[0.64858,7.3558],[0.65828,7.31736],[0.65051,7.30567],[0.65202,7.2927],[0.6465,7.29354],[0.64487,7.29032],[0.64306,7.25365],[0.63375,7.20683],[0.62536,7.18496],[0.61662,7.18188],[0.6143,7.17349],[0.61847,7.17061],[0.61594,7.15755],[0.60475,7.15287],[0.60547,7.14205],[0.60311,7.13576],[0.59698,7.13383],[0.59169,7.11472],[0.59996,7.11265],[0.60232,7.10731],[0.61156,7.10549],[0.61421,7.09916],[0.61129,7.09761],[0.61454,7.09449],[0.61385,7.09018],[0.59739,7.06015],[0.60462,7.03594],[0.6013,7.03382],[0.60347,7.02219],[0.59257,7.01006],[0.59683,7.00607],[0.58931,6.99882],[0.58058,6.99405],[0.57044,6.99613],[0.54794,6.99085],[0.53397,6.97676],[0.52126,6.97095],[0.52526,6.96404],[0.52212,6.9608],[0.526,6.95497],[0.52183,6.94778],[0.52408,6.94222],[0.54564,6.93356],[0.54856,6.93521],[0.55055,6.92877],[0.56,6.92827],[0.56612,6.91804],[0.56323,6.91574],[0.5625,6.90233],[0.55556,6.88404],[0.53537,6.87659],[0.54328,6.86564],[0.54279,6.8611],[0.53129,6.85686],[0.5324,6.82824],[0.53905,6.82514],[0.5462,6.82759],[0.54444,6.83044],[0.54753,6.83379],[0.56125,6.82399],[0.56436,6.82466],[0.56921,6.80988],[0.57853,6.80804],[0.57544,6.7992],[0.56985,6.80087],[0.57,6.79378],[0.56625,6.78848],[0.56694,6.78197],[0.57599,6.77504],[0.5737,6.77323],[0.58133,6.76158],[0.60078,6.7567],[0.60808,6.74724],[0.61971,6.75424],[0.62337,6.74909],[0.63241,6.74894],[0.64999,6.73755],[0.64295,6.72655],[0.64238,6.71971],[0.64743,6.70924],[0.64318,6.68805],[0.64927,6.67337],[0.6428,6.66461],[0.63542,6.64238],[0.6366,6.63381],[0.64351,6.63126],[0.65713,6.60772],[0.66392,6.60492],[0.67332,6.61398],[0.69138,6.59852],[0.68415,6.59762],[0.69126,6.5908],[0.71139,6.58903],[0.72826,6.59398],[0.74134,6.58415],[0.74756,6.56295],[0.73072,6.55039],[0.71228,6.52935],[0.72189,6.49729],[0.72711,6.49026],[0.74405,6.4832],[0.74959,6.44412],[0.78256,6.43309],[0.78912,6.40874],[0.83569,6.39693],[0.86194,6.38039],[0.87771,6.35932],[0.88365,6.35569],[0.8931,6.33333],[1.00347,6.33548],[1.00817,6.32075],[1.00665,6.29902],[1.00882,6.29291],[1.01601,6.28708],[1.02414,6.25621],[1.03695,6.2379],[1.04837,6.23322],[1.05294,6.23488],[1.06483,6.22091],[1.0678,6.20948],[1.08315,6.18746],[1.08287,6.1695],[1.19936,6.16923],[1.19965,6.11236],[1.14729,6.09032],[1.11775,6.07269],[1.09079,6.05392],[1.06616,6.02935],[0.99523,5.92861],[0.99451,5.87784],[0.97961,5.83785],[0.94681,5.80037],[0.92294,5.78599],[0.80389,5.77111],[0.70229,5.76968],[0.67678,5.77576],[0.68632,5.77464],[0.68794,5.777],[0.69764,5.77352],[0.70284,5.77846],[0.70976,5.77422],[0.72772,5.77841],[0.73262,5.77508],[0.73416,5.77663],[0.72591,5.78008],[0.71871,5.78005],[0.72664,5.79077],[0.72279,5.79024],[0.7222,5.80711],[0.74564,5.79883],[0.76232,5.77829],[0.76169,5.77404],[0.77041,5.78064],[0.77107,5.77601],[0.78098,5.7736],[0.79359,5.77249],[0.79794,5.77985],[0.80542,5.77459],[0.82224,5.78033],[0.82184,5.78522],[0.80845,5.78903],[0.80733,5.7795],[0.80309,5.77832],[0.80103,5.77921],[0.80473,5.78541],[0.80254,5.78695],[0.7969,5.78178],[0.79268,5.78674],[0.7939,5.79336],[0.79661,5.79053],[0.79788,5.79376],[0.79349,5.79877],[0.79068,5.7936],[0.79141,5.80417],[0.78547,5.81071],[0.79126,5.81035],[0.7927,5.80443],[0.79657,5.80213],[0.80078,5.81013],[0.796,5.81449],[0.79138,5.8137],[0.78849,5.82683],[0.78024,5.83349],[0.77531,5.84249],[0.76837,5.84143],[0.75763,5.82529],[0.74631,5.8264],[0.74372,5.83013],[0.74116,5.82703],[0.73138,5.82815],[0.73113,5.82557],[0.72573,5.82503],[0.73453,5.81283],[0.73941,5.81324],[0.74531,5.8188],[0.7497,5.81457],[0.75869,5.81834],[0.76103,5.81113],[0.75333,5.80801],[0.74625,5.80914],[0.74613,5.80528],[0.72322,5.81085],[0.71105,5.82884],[0.71324,5.83838],[0.71056,5.82343],[0.70772,5.82573],[0.70749,5.82084],[0.70954,5.82162],[0.71136,5.81647],[0.70443,5.81361],[0.69863,5.81642],[0.70311,5.82082],[0.70309,5.82623],[0.69743,5.82749],[0.69631,5.81718],[0.69027,5.8169],[0.68723,5.80555],[0.68246,5.80734],[0.68157,5.80437],[0.68607,5.80555],[0.69291,5.79901],[0.69909,5.79826],[0.69628,5.7922],[0.68419,5.79279],[0.68241,5.78905],[0.66976,5.79869],[0.66056,5.81626],[0.66001,5.82476],[0.64192,5.84349],[0.65009,5.86027],[0.65253,5.89171],[0.6419,5.90996],[0.64196,5.92696],[0.62852,5.94081],[0.62046,5.96138],[0.58738,5.99473],[0.58275,5.99316],[0.58366,5.99085],[0.598,5.97752],[0.60268,5.9671],[0.61287,5.96161],[0.62661,5.93694],[0.62171,5.94001],[0.62537,5.92586],[0.63362,5.91207],[0.63882,5.90917],[0.64041,5.89836],[0.63513,5.89846],[0.6437,5.8806],[0.64428,5.86411],[0.63867,5.85327],[0.63697,5.85919],[0.6305,5.83907],[0.62121,5.83542],[0.62393,5.84187],[0.62067,5.85087],[0.62603,5.86159],[0.63271,5.86303],[0.63151,5.87256],[0.62945,5.87307],[0.62986,5.8692],[0.61521,5.86528],[0.61299,5.87196],[0.6198,5.8738],[0.61876,5.87701],[0.61155,5.87891],[0.60946,5.88638],[0.60521,5.88739],[0.61264,5.89412],[0.60694,5.90388],[0.61207,5.90802],[0.60949,5.90956],[0.60873,5.90595],[0.60142,5.9018],[0.59571,5.91311],[0.59004,5.91669],[0.59051,5.92493],[0.57917,5.93107],[0.57735,5.93569],[0.57323,5.93619],[0.57221,5.9331],[0.57569,5.93192],[0.57289,5.92614],[0.57844,5.92127],[0.57705,5.91586],[0.59332,5.89996],[0.60015,5.8978],[0.60811,5.90041],[0.61174,5.89437],[0.60379,5.88918],[0.60445,5.88532],[0.60741,5.88482],[0.60782,5.87864],[0.61361,5.87544],[0.61521,5.86425],[0.62806,5.86749],[0.61951,5.85293],[0.62036,5.83361],[0.62397,5.83054],[0.61797,5.82124],[0.62146,5.81559],[0.62231,5.79704],[0.62994,5.7887],[0.64696,5.77692],[0.65983,5.77363],[0.66036,5.77054],[0.46996,5.78801],[0.36325,5.78598],[0.32032,5.78191],[0.25482,5.76718],[0.22098,5.7468],[0.18783,5.74445],[0.17397,5.73897],[0.16526,5.73211],[0.13781,5.72141],[0.13041,5.70966],[0.12503,5.7068],[0.0685,5.69336],[0.07366,5.69869],[0.07528,5.70771],[0.07301,5.72533],[0.07034,5.71952],[0.07311,5.71185],[0.06574,5.68938],[0.04729,5.67718],[0.04274,5.66196],[0.02789,5.65082],[0.02792,5.64567],[0.01688,5.64201],[0.00618,5.62341],[-0.00148,5.62403],[-0.02389,5.6141],[-0.0594,5.6054],[-0.0731,5.58976],[-0.09576,5.58164],[-0.10145,5.57523],[-0.12617,5.56453],[-0.20519,5.54045],[-0.21294,5.5316],[-0.31971,5.50866],[-0.36861,5.49303],[-0.37081,5.4897],[-0.40081,5.47695],[-0.40613,5.47259],[-0.40626,5.46538],[-0.42071,5.45179],[-0.4462,5.4416],[-0.46604,5.42855],[-0.463,5.41797],[-0.48209,5.40157],[-0.48858,5.38563],[-0.49683,5.37922],[-0.60591,5.35222],[-0.61287,5.34774],[-0.62089,5.33257],[-0.67131,5.32027],[-0.72742,5.29846],[-0.73066,5.29306],[-0.72953,5.28429],[-0.7487,5.27331],[-0.75633,5.26455],[-0.7561,5.25811],[-0.75971,5.25426],[-0.77876,5.24531],[-0.78393,5.2358],[-0.78934,5.2335],[-0.78988,5.22654],[-0.81948,5.21261],[-0.92333,5.20536],[-0.90842,5.2075],[-0.90506,5.21238],[-0.91019,5.21485],[-0.9097,5.20969],[-0.92975,5.20705],[-0.93027,5.20474],[-0.9912,5.2021],[-0.98887,5.20454],[-1.00892,5.20589],[-1.01223,5.21518],[-1.01583,5.21339],[-1.01834,5.21623],[-1.01905,5.21288],[-1.02636,5.21677],[-1.0283,5.21342],[-1.02226,5.21263],[-1.01444,5.20129],[-1.0894,5.19506],[-1.1198,5.17299],[-1.14886,5.16457],[-1.16768,5.14491],[-1.19624,5.13688],[-1.1996,5.12787],[-1.24208,5.10337],[-1.32105,5.09769],[-1.31303,5.09918],[-1.31045,5.10253],[-1.3143,5.10408],[-1.32073,5.10242],[-1.32215,5.09656],[-1.34749,5.08935],[-1.347,5.08265],[-1.3542,5.08048],[-1.39637,5.07027],[-1.42105,5.06827],[-1.43597,5.06444],[-1.44241,5.05892],[-1.4748,5.05551],[-1.50464,5.0436],[-1.59874,5.03131],[-1.62215,5.02208],[-1.6008,5.03221],[-1.59937,5.03711],[-1.60116,5.04433],[-1.60629,5.04795],[-1.60513,5.05117],[-1.61439,5.04706],[-1.61141,5.05672],[-1.61474,5.06498],[-1.61647,5.09591],[-1.61387,5.11034],[-1.61667,5.12504],[-1.62388,5.12972],[-1.64351,5.13373],[-1.65056,5.14135],[-1.64377,5.13244],[-1.61744,5.12375],[-1.61542,5.10854],[-1.61878,5.09927],[-1.61805,5.08045],[-1.61295,5.0593],[-1.61361,5.0526],[-1.61835,5.05674],[-1.61488,5.06008],[-1.61974,5.0704],[-1.62462,5.07131],[-1.62643,5.06835],[-1.62167,5.06809],[-1.61975,5.06241],[-1.6275,5.04426],[-1.62623,5.03717],[-1.62983,5.03691],[-1.6347,5.04595],[-1.63343,5.03615],[-1.63833,5.03049],[-1.63525,5.02881],[-1.63988,5.02418],[-1.63796,5.02172],[-1.64221,5.01812],[-1.64145,5.01387],[-1.63347,5.01965],[-1.63245,5.01643],[-1.62756,5.01964],[-1.62809,5.01217],[-1.63338,5.00135],[-1.63186,4.99155],[-1.63585,4.98744],[-1.63534,4.98177],[-1.641,4.97972],[-1.64462,4.97173],[-1.68961,4.96319],[-1.70402,4.95484],[-1.70817,4.93861],[-1.70585,4.94015],[-1.7047,4.93525],[-1.73698,4.9232],[-1.74342,4.91496],[-1.74292,4.90594],[-1.74795,4.89693],[-1.74347,4.88815],[-1.74784,4.88791],[-1.74528,4.88197],[-1.76791,4.87557],[-1.77895,4.88203],[-1.78524,4.89191],[-1.78075,4.88075],[-1.76868,4.87518],[-1.80929,4.87371],[-1.81367,4.8674],[-1.83089,4.86228],[-1.83837,4.84927],[-1.85996,4.84776],[-1.88259,4.83762],[-1.8916,4.82822],[-1.91473,4.8253],[-1.91732,4.81396],[-1.93763,4.80729],[-1.94022,4.79569],[-1.9487,4.79364],[-1.94742,4.78848],[-1.97264,4.7697],[-1.97419,4.76017],[-2.03947,4.75614],[-2.05695,4.74508],[-2.08033,4.74936],[-2.09062,4.74074]]]]}}]}