{"type":"FeatureCollection","features":[{"type":"Feature","properties":{"ISO_A3":"GMB","WB_A3":"GMB","WB_NAME":"The Gambia","WB_REGION":"AFW,SSF"},"geometry":{"type":"MultiPolygon","coordinates":[[[[-15.29076,13.68357],[-15.30478,13.69349],[-15.31295,13.69438],[-15.31612,13.7003],[-15.32296,13.69527],[-15.33509,13.69706],[-15.34167,13.69189],[-15.34564,13.70142],[-15.34841,13.7009],[-15.34576,13.69369],[-15.35944,13.67718],[-15.35968,13.66429],[-15.36548,13.66145],[-15.36533,13.65192],[-15.37033,13.64882],[-15.37361,13.63696],[-15.37163,13.63464],[-15.37766,13.61891],[-15.3803,13.62136],[-15.38568,13.60911],[-15.388,13.57328],[-15.38059,13.55423],[-15.39045,13.54055],[-15.38778,13.52174],[-15.3837,13.52407],[-15.38202,13.54134],[-15.37504,13.5447],[-15.35406,13.51664],[-15.32613,13.50869],[-15.32692,13.50199],[-15.32032,13.49555],[-15.3257,13.47777],[-15.34109,13.46641],[-15.34925,13.46962],[-15.35477,13.46433],[-15.35292,13.45569],[-15.36241,13.46174],[-15.36991,13.46121],[-15.37031,13.46714],[-15.39323,13.47148],[-15.39601,13.47818],[-15.39903,13.47895],[-15.40087,13.47547],[-15.41962,13.50507],[-15.43346,13.51162],[-15.43676,13.51728],[-15.43532,13.52064],[-15.439,13.52063],[-15.44202,13.51598],[-15.44967,13.52022],[-15.49363,13.50726],[-15.50207,13.51394],[-15.51748,13.51687],[-15.51802,13.52254],[-15.5222,13.52631],[-15.52461,13.52716],[-15.52394,13.52227],[-15.5286,13.5232],[-15.53042,13.53205],[-15.53767,13.53641],[-15.54349,13.54735],[-15.55166,13.54927],[-15.55826,13.5566],[-15.56458,13.55736],[-15.5726,13.54974],[-15.57027,13.54061],[-15.57666,13.53955],[-15.57919,13.53572],[-15.5893,13.5381],[-15.59745,13.53331],[-15.60256,13.52235],[-15.59866,13.48925],[-15.60942,13.47633],[-15.61337,13.47749],[-15.61365,13.4847],[-15.62143,13.48648],[-15.62684,13.49291],[-15.64049,13.52535],[-15.64801,13.53087],[-15.67516,13.53737],[-15.68618,13.52536],[-15.69147,13.53101],[-15.69858,13.53176],[-15.70197,13.5208],[-15.70906,13.51447],[-15.72118,13.51353],[-15.71957,13.50452],[-15.72312,13.50348],[-15.72482,13.49832],[-15.71956,13.50323],[-15.71941,13.49524],[-15.72452,13.4884],[-15.78007,13.48385],[-15.7754,13.50435],[-15.77065,13.50359],[-15.76109,13.5196],[-15.76721,13.53736],[-15.7738,13.53992],[-15.76532,13.56623],[-15.78061,13.56863],[-15.78688,13.55444],[-15.78868,13.53961],[-15.78021,13.52856],[-15.77285,13.53283],[-15.76679,13.53066],[-15.76518,13.52139],[-15.76913,13.52176],[-15.77373,13.51724],[-15.77306,13.51415],[-15.77727,13.51311],[-15.77925,13.51645],[-15.78082,13.51258],[-15.78516,13.51179],[-15.79092,13.49915],[-15.78578,13.49814],[-15.7859,13.49478],[-15.79983,13.48817],[-15.80052,13.49783],[-15.80154,13.487],[-15.81007,13.47912],[-15.83771,13.47735],[-15.84406,13.48583],[-15.86066,13.4899],[-15.85408,13.49005],[-15.85108,13.49766],[-15.842,13.49795],[-15.83018,13.49202],[-15.84043,13.50169],[-15.8372,13.50255],[-15.84306,13.50014],[-15.85123,13.50166],[-15.85071,13.50591],[-15.85931,13.51748],[-15.85736,13.52393],[-15.85025,13.52266],[-15.84608,13.53],[-15.84183,13.52449],[-15.83433,13.52581],[-15.83369,13.53264],[-15.83001,13.53587],[-15.82619,13.53485],[-15.82709,13.52712],[-15.82368,13.53306],[-15.82739,13.53833],[-15.83528,13.53431],[-15.84072,13.54563],[-15.84787,13.54629],[-15.84742,13.54316],[-15.84097,13.54408],[-15.83407,13.52942],[-15.84184,13.52784],[-15.84343,13.53183],[-15.85075,13.53089],[-15.85026,13.52524],[-15.86369,13.52661],[-15.8666,13.52931],[-15.8627,13.54259],[-15.8525,13.54213],[-15.8606,13.54466],[-15.86115,13.55277],[-15.86536,13.55018],[-15.87011,13.55223],[-15.87299,13.54938],[-15.86837,13.54579],[-15.86699,13.52905],[-15.86026,13.5234],[-15.85983,13.51438],[-15.8536,13.5032],[-15.85597,13.50319],[-15.85515,13.4943],[-15.86147,13.49441],[-15.86459,13.4846],[-15.90009,13.47198],[-15.93693,13.46669],[-15.95722,13.47061],[-15.97345,13.47892],[-15.97514,13.47376],[-15.99909,13.47303],[-16.00069,13.47676],[-15.99517,13.47961],[-15.99929,13.48733],[-15.99456,13.49147],[-15.99814,13.49686],[-15.99565,13.49971],[-16.00927,13.5137],[-16.01558,13.51174],[-16.02007,13.51391],[-16.02453,13.5117],[-16.02188,13.50708],[-16.02636,13.50783],[-16.02688,13.50551],[-16.01817,13.50194],[-16.0208,13.50012],[-16.01827,13.49395],[-16.02061,13.48595],[-16.01435,13.47026],[-16.02513,13.46687],[-16.02595,13.4733],[-16.0307,13.47483],[-16.03068,13.47122],[-16.0404,13.46564],[-16.04647,13.46845],[-16.04909,13.46561],[-16.0512,13.46843],[-16.05435,13.46494],[-16.05725,13.46673],[-16.05045,13.47617],[-16.0518,13.48325],[-16.0556,13.4804],[-16.05479,13.47473],[-16.05704,13.4773],[-16.06083,13.47239],[-16.0608,13.46491],[-16.07199,13.46538],[-16.07605,13.46098],[-16.0846,13.4603],[-16.09278,13.46426],[-16.0952,13.47417],[-16.09743,13.47326],[-16.0949,13.46606],[-16.10543,13.46614],[-16.11362,13.47177],[-16.11914,13.47149],[-16.11286,13.47809],[-16.10911,13.49356],[-16.09532,13.50161],[-16.08538,13.5148],[-16.08364,13.59103],[-15.46961,13.59048],[-15.46274,13.64007],[-15.44653,13.68568],[-15.41775,13.73455],[-15.3793,13.76587],[-15.33196,13.7831],[-15.29766,13.78374],[-15.27052,13.77514],[-15.23749,13.74989],[-15.21696,13.74998],[-15.21041,13.75619],[-15.19817,13.75981],[-15.13579,13.7944],[-15.12718,13.80183],[-15.06784,13.82503],[-14.97009,13.79516],[-14.9428,13.80391],[-14.89972,13.7973],[-14.86535,13.78651],[-14.84247,13.77513],[-14.82045,13.75799],[-14.79217,13.71561],[-14.78732,13.69379],[-14.78449,13.65367],[-14.71003,13.61522],[-14.70114,13.61565],[-14.65589,13.64625],[-14.61861,13.65694],[-14.56065,13.65226],[-14.52511,13.63865],[-14.49871,13.61834],[-14.47765,13.59028],[-14.4718,13.57513],[-14.46843,13.54069],[-14.44333,13.52335],[-14.42528,13.50129],[-14.38673,13.48451],[-14.36789,13.46948],[-14.34267,13.46633],[-14.32074,13.4567],[-14.27749,13.47169],[-14.2371,13.47472],[-14.22638,13.4931],[-14.21135,13.50851],[-14.15881,13.53404],[-14.13606,13.53685],[-14.0877,13.55498],[-14.02346,13.55435],[-13.9907,13.57673],[-13.97243,13.58068],[-13.91859,13.56328],[-13.90259,13.56323],[-13.88765,13.55433],[-13.88585,13.54696],[-13.86036,13.51066],[-13.83551,13.49642],[-13.81697,13.46062],[-13.79909,13.44932],[-13.792,13.43768],[-13.79275,13.41365],[-13.80164,13.38141],[-13.81972,13.35264],[-13.8342,13.33705],[-13.85716,13.32234],[-13.88862,13.31665],[-13.95101,13.32122],[-14.00656,13.29092],[-14.05166,13.28872],[-14.0665,13.29129],[-14.11638,13.27885],[-14.11913,13.24438],[-14.12895,13.23058],[-14.14339,13.22037],[-14.16751,13.22132],[-14.18277,13.22917],[-14.19516,13.22819],[-14.22035,13.21863],[-14.23759,13.21823],[-14.2539,13.22721],[-14.26786,13.24208],[-14.30992,13.23387],[-14.35843,13.2293],[-14.38739,13.23878],[-14.42857,13.2623],[-14.44583,13.27912],[-14.46002,13.30101],[-14.51012,13.30341],[-14.53737,13.31558],[-14.55479,13.3286],[-14.57792,13.35934],[-14.61457,13.34292],[-14.64511,13.34029],[-14.67269,13.34439],[-14.7344,13.37596],[-14.74828,13.39193],[-14.76017,13.41772],[-14.78592,13.41434],[-14.81511,13.41859],[-14.83482,13.43027],[-14.85284,13.44647],[-14.90309,13.4473],[-14.98109,13.48022],[-15.01883,13.50606],[-15.06039,13.54621],[-15.07972,13.57279],[-15.08856,13.59739],[-15.13881,13.58196],[-15.1448,13.56828],[-15.15595,13.55584],[-15.1838,13.53383],[-15.19628,13.52875],[-15.21144,13.45752],[-15.22244,13.42511],[-15.2651,13.38591],[-15.30005,13.36534],[-15.37923,13.35502],[-15.45177,13.37624],[-15.48862,13.39357],[-15.4997,13.39378],[-15.51444,13.39223],[-15.52954,13.38396],[-15.55122,13.36317],[-15.58177,13.34983],[-15.60605,13.35099],[-15.6872,13.36474],[-15.71029,13.35333],[-15.72592,13.34984],[-15.80219,13.34797],[-15.80198,13.24181],[-15.80731,13.24321],[-15.80851,13.24888],[-15.80432,13.2543],[-15.80769,13.259],[-15.82332,13.26081],[-15.83186,13.25464],[-15.83615,13.25498],[-15.8388,13.2578],[-15.83223,13.2604],[-15.83067,13.26543],[-15.8354,13.26632],[-15.83512,13.26052],[-15.84932,13.2597],[-15.85065,13.26292],[-15.84095,13.27235],[-15.85463,13.2736],[-15.85968,13.27083],[-15.85884,13.27397],[-15.87018,13.28024],[-15.87671,13.28122],[-15.88409,13.27246],[-15.89828,13.26713],[-15.90273,13.26016],[-15.90484,13.26247],[-15.91008,13.25846],[-15.91117,13.26709],[-15.90643,13.26556],[-15.89908,13.26945],[-15.91145,13.2716],[-15.91068,13.27637],[-15.91489,13.27687],[-15.91608,13.27406],[-15.92585,13.28713],[-15.94375,13.29068],[-15.94643,13.30381],[-15.94318,13.31413],[-15.95579,13.30725],[-15.96873,13.31957],[-15.97661,13.3167],[-15.98385,13.31809],[-15.98396,13.3123],[-16.00209,13.30707],[-16.0108,13.3118],[-16.01288,13.30613],[-16.0179,13.31281],[-16.02593,13.31252],[-16.02634,13.31767],[-16.03188,13.321],[-16.02927,13.32513],[-16.03524,13.32682],[-16.03332,13.3179],[-16.03746,13.30319],[-16.04524,13.30535],[-16.046,13.29852],[-16.05216,13.29489],[-16.05135,13.28948],[-16.05554,13.28508],[-16.05516,13.28934],[-16.06383,13.28646],[-16.06886,13.29263],[-16.07252,13.2881],[-16.07196,13.28012],[-16.08171,13.28471],[-16.08931,13.27657],[-16.09615,13.27795],[-16.09578,13.28337],[-16.10146,13.2885],[-16.09491,13.29419],[-16.10112,13.30009],[-16.09707,13.30707],[-16.10187,13.32096],[-16.10437,13.31966],[-16.10472,13.30974],[-16.11414,13.30029],[-16.11491,13.29526],[-16.12349,13.30128],[-16.13215,13.29635],[-16.1352,13.30303],[-16.13862,13.30302],[-16.14293,13.29475],[-16.1525,13.28866],[-16.15413,13.30011],[-16.15716,13.30139],[-16.16227,13.29531],[-16.17906,13.28673],[-16.1879,13.293],[-16.18914,13.30356],[-16.19416,13.30882],[-16.19731,13.30739],[-16.19945,13.31433],[-16.19184,13.31875],[-16.19554,13.32144],[-16.19452,13.32698],[-16.19149,13.32597],[-16.19376,13.33343],[-16.18574,13.33372],[-16.19488,13.34695],[-16.18778,13.34866],[-16.19094,13.34954],[-16.19282,13.35585],[-16.1871,13.37082],[-16.17976,13.37652],[-16.1766,13.37654],[-16.17049,13.36458],[-16.16694,13.36447],[-16.15879,13.36657],[-16.16369,13.37376],[-16.16056,13.37854],[-16.16716,13.38251],[-16.16135,13.37944],[-16.1569,13.38358],[-16.15373,13.38102],[-16.1527,13.38579],[-16.14914,13.38439],[-16.14965,13.38104],[-16.14439,13.3821],[-16.14622,13.38844],[-16.15691,13.38539],[-16.16431,13.3918],[-16.16508,13.38844],[-16.16903,13.38868],[-16.1701,13.39357],[-16.1498,13.41325],[-16.1474,13.43361],[-16.13892,13.42219],[-16.13051,13.42519],[-16.13244,13.41616],[-16.12954,13.41489],[-16.12364,13.41981],[-16.1136,13.41174],[-16.10519,13.41396],[-16.09647,13.40704],[-16.082,13.40891],[-16.08722,13.39832],[-16.09248,13.39701],[-16.0809,13.39745],[-16.07928,13.38857],[-16.07494,13.38807],[-16.06845,13.37985],[-16.06974,13.37263],[-16.05475,13.37617],[-16.06081,13.37666],[-16.06455,13.38966],[-16.06637,13.38488],[-16.06955,13.38964],[-16.06758,13.39145],[-16.0704,13.40355],[-16.06437,13.40886],[-16.05882,13.40476],[-16.04777,13.4039],[-16.0445,13.39962],[-16.04489,13.40829],[-16.0373,13.41863],[-16.0252,13.42113],[-16.01703,13.41871],[-16.01728,13.41408],[-16.00858,13.41282],[-16.00515,13.40871],[-16.00539,13.40459],[-16.00959,13.402],[-16.00693,13.39505],[-16.00314,13.40073],[-16.00038,13.40152],[-15.99931,13.39817],[-15.99284,13.40292],[-15.98674,13.41394],[-15.96647,13.41208],[-15.96013,13.40811],[-15.96354,13.40424],[-15.96894,13.37304],[-15.95831,13.37926],[-15.95793,13.3839],[-15.95201,13.38495],[-15.94955,13.39424],[-15.93455,13.39558],[-15.93352,13.40074],[-15.92826,13.40295],[-15.92507,13.3933],[-15.91689,13.38946],[-15.91608,13.38303],[-15.90924,13.38331],[-15.90952,13.38717],[-15.87981,13.39655],[-15.8632,13.38888],[-15.86398,13.3863],[-15.85055,13.38403],[-15.85952,13.39044],[-15.86478,13.39042],[-15.87838,13.40223],[-15.91061,13.3976],[-15.92711,13.41004],[-15.93518,13.42109],[-15.9344,13.42393],[-15.92204,13.42694],[-15.9115,13.4244],[-15.90231,13.43075],[-15.90019,13.42637],[-15.8873,13.42977],[-15.88137,13.42696],[-15.87706,13.43792],[-15.86917,13.43808],[-15.8592,13.44945],[-15.84498,13.44795],[-15.84523,13.44383],[-15.83599,13.43703],[-15.8256,13.43848],[-15.82416,13.42981],[-15.8123,13.43814],[-15.79415,13.44064],[-15.78439,13.43565],[-15.78384,13.4296],[-15.79213,13.42725],[-15.79556,13.42982],[-15.79869,13.42105],[-15.78618,13.41877],[-15.78332,13.43166],[-15.77015,13.42719],[-15.77463,13.43001],[-15.7707,13.43569],[-15.76648,13.43223],[-15.76645,13.42475],[-15.76039,13.42374],[-15.75935,13.42787],[-15.74724,13.42713],[-15.74477,13.42439],[-15.73381,13.42537],[-15.72513,13.429],[-15.72148,13.43777],[-15.71357,13.43444],[-15.70727,13.44219],[-15.69044,13.44894],[-15.6828,13.44587],[-15.68658,13.43478],[-15.67589,13.4245],[-15.67561,13.4178],[-15.67563,13.42514],[-15.67908,13.43351],[-15.68356,13.43556],[-15.6841,13.44097],[-15.67994,13.46108],[-15.68103,13.47216],[-15.67447,13.47913],[-15.66956,13.47975],[-15.65971,13.47402],[-15.66772,13.46652],[-15.66335,13.45906],[-15.66675,13.45119],[-15.6628,13.44927],[-15.66067,13.44232],[-15.6562,13.4431],[-15.65171,13.43667],[-15.64435,13.44082],[-15.64221,13.43077],[-15.63485,13.43362],[-15.63351,13.42628],[-15.62665,13.41921],[-15.60903,13.42454],[-15.60244,13.42159],[-15.59614,13.42908],[-15.58509,13.43297],[-15.57644,13.45051],[-15.56907,13.45053],[-15.56827,13.44693],[-15.55669,13.4485],[-15.55616,13.44476],[-15.54825,13.44078],[-15.54734,13.44439],[-15.55063,13.44684],[-15.55511,13.44567],[-15.55591,13.44979],[-15.55222,13.45121],[-15.55894,13.45313],[-15.56002,13.46369],[-15.5641,13.46356],[-15.56135,13.4673],[-15.56927,13.47939],[-15.56627,13.49177],[-15.54707,13.50109],[-15.54469,13.49697],[-15.5323,13.4921],[-15.5273,13.49392],[-15.52993,13.48927],[-15.48934,13.4717],[-15.46776,13.47638],[-15.46144,13.47936],[-15.45777,13.48709],[-15.45013,13.48659],[-15.44893,13.47807],[-15.44379,13.47385],[-15.43826,13.47527],[-15.43904,13.4678],[-15.43192,13.4606],[-15.43797,13.45878],[-15.43518,13.44719],[-15.43939,13.44358],[-15.44187,13.43365],[-15.43319,13.43792],[-15.43346,13.44281],[-15.41846,13.4458],[-15.41292,13.43744],[-15.39474,13.4318],[-15.38736,13.42253],[-15.37735,13.42126],[-15.37577,13.41765],[-15.35761,13.42103],[-15.35683,13.42799],[-15.35156,13.42748],[-15.35511,13.42361],[-15.35208,13.41987],[-15.33602,13.42067],[-15.32391,13.42494],[-15.32234,13.42803],[-15.32603,13.43267],[-15.31576,13.43307],[-15.3184,13.43886],[-15.31525,13.44067],[-15.31129,13.4381],[-15.31157,13.44737],[-15.29999,13.45035],[-15.30512,13.45073],[-15.30592,13.45589],[-15.29898,13.48862],[-15.30124,13.50176],[-15.30652,13.50923],[-15.31376,13.51296],[-15.33642,13.51602],[-15.34735,13.52129],[-15.34617,13.52335],[-15.35884,13.54021],[-15.36559,13.56584],[-15.36804,13.61738],[-15.35717,13.65837],[-15.34007,13.67965],[-15.31769,13.68999],[-15.30345,13.68834],[-15.26465,13.63761],[-15.24699,13.63209],[-15.20991,13.62826],[-15.20062,13.63175],[-15.1972,13.64025],[-15.20404,13.63033],[-15.20875,13.62907],[-15.23645,13.63519],[-15.25938,13.63633],[-15.26689,13.64121],[-15.27838,13.6595],[-15.2412,13.64137],[-15.21427,13.64011],[-15.20721,13.6414],[-15.19457,13.65288],[-15.16138,13.66966],[-15.12213,13.6948],[-15.07732,13.68915],[-15.05202,13.69998],[-15.01881,13.69535],[-15,13.6965],[-15,13.70308],[-15.04833,13.72588],[-15.07021,13.72317],[-15.13478,13.69325],[-15.19247,13.66049],[-15.21248,13.64398],[-15.24253,13.64588],[-15.27931,13.67007],[-15.29076,13.68357]],[[-15.8341,13.50481],[-15.83527,13.50306],[-15.83511,13.50314],[-15.8341,13.50481]]],[[[-15.01433,13.70102],[-15.05545,13.70308],[-15.06533,13.71068],[-15.06626,13.7148],[-15.04543,13.71931],[-15.02303,13.70991],[-15.01301,13.70347],[-15.01433,13.70102]]],[[[-15.06863,13.71583],[-15.07127,13.72072],[-15.05598,13.72421],[-15.04688,13.72305],[-15.04675,13.7188],[-15.05044,13.71725],[-15.06863,13.71583]]],[[[-15.07916,13.69173],[-15.11448,13.69674],[-15.07759,13.71802],[-15.07232,13.71712],[-15.05927,13.70217],[-15.06388,13.69689],[-15.07916,13.69173]]],[[[-15.23619,13.63159],[-15.24594,13.6339],[-15.2325,13.63352],[-15.23619,13.63159]]],[[[-15.31714,13.47649],[-15.31373,13.485],[-15.30767,13.48475],[-15.30819,13.48114],[-15.31714,13.47649]]],[[[-15.31579,13.45536],[-15.32027,13.45896],[-15.32264,13.45573],[-15.32449,13.45895],[-15.3116,13.46954],[-15.30791,13.46439],[-15.3133,13.46206],[-15.31579,13.45536]]],[[[-15.31925,13.47958],[-15.31662,13.48615],[-15.31452,13.48577],[-15.31925,13.47958]]],[[[-15.32161,13.47365],[-15.32346,13.47596],[-15.31977,13.47829],[-15.32161,13.47365]]],[[[-15.32975,13.45405],[-15.33159,13.4565],[-15.34397,13.45712],[-15.34424,13.46047],[-15.32503,13.46952],[-15.32173,13.46695],[-15.32975,13.45405]]],[[[-15.38155,13.58102],[-15.3779,13.59984],[-15.37761,13.58618],[-15.38155,13.58102]]],[[[-15.3797,13.5733],[-15.38024,13.58],[-15.3776,13.57768],[-15.3797,13.5733]]],[[[-15.38057,13.45784],[-15.38215,13.46093],[-15.37952,13.4612],[-15.38057,13.45784]]],[[[-15.38128,13.57561],[-15.38331,13.57982],[-15.38103,13.58025],[-15.38128,13.57561]]],[[[-15.39212,13.43412],[-15.39213,13.44082],[-15.38791,13.44005],[-15.39212,13.43412]]],[[[-15.78934,13.4203],[-15.79172,13.42313],[-15.78936,13.42494],[-15.78934,13.4203]]],[[[-16.7025,13.46654],[-16.69358,13.47574],[-16.67022,13.48479],[-16.66656,13.48919],[-16.66279,13.47608],[-16.66831,13.47501],[-16.66802,13.47218],[-16.66378,13.46757],[-16.65438,13.46566],[-16.65433,13.47137],[-16.65141,13.4674],[-16.64475,13.46811],[-16.64585,13.46228],[-16.65668,13.46395],[-16.65494,13.45873],[-16.66085,13.44653],[-16.65869,13.43516],[-16.66195,13.43126],[-16.65827,13.43129],[-16.6597,13.42338],[-16.65247,13.41097],[-16.64335,13.40433],[-16.64346,13.39945],[-16.64157,13.4019],[-16.63543,13.40104],[-16.61633,13.37875],[-16.58687,13.38022],[-16.57188,13.36074],[-16.57555,13.35865],[-16.57663,13.36225],[-16.58279,13.35925],[-16.59295,13.36395],[-16.5954,13.35595],[-16.60116,13.35257],[-16.59563,13.35183],[-16.59231,13.3467],[-16.59472,13.33277],[-16.58873,13.3225],[-16.59145,13.31566],[-16.60145,13.31572],[-16.61572,13.32632],[-16.61436,13.31873],[-16.6201,13.31251],[-16.61065,13.31502],[-16.60852,13.3113],[-16.61271,13.30818],[-16.61632,13.29734],[-16.60925,13.30228],[-16.59898,13.3008],[-16.59284,13.28692],[-16.58712,13.29649],[-16.57712,13.29681],[-16.56638,13.30306],[-16.56504,13.29921],[-16.55161,13.29723],[-16.54786,13.28669],[-16.54049,13.28506],[-16.52225,13.27151],[-16.49645,13.26741],[-16.49352,13.26202],[-16.49628,13.26123],[-16.49636,13.25221],[-16.4891,13.24788],[-16.4997,13.2397],[-16.49699,13.22683],[-16.48838,13.23758],[-16.47604,13.24113],[-16.47246,13.23664],[-16.47414,13.23109],[-16.46809,13.23048],[-16.46635,13.22662],[-16.46747,13.21631],[-16.47664,13.20969],[-16.47478,13.20648],[-16.45942,13.20966],[-16.45544,13.22617],[-16.45934,13.24187],[-16.45746,13.2563],[-16.4509,13.25892],[-16.44928,13.25249],[-16.44402,13.25252],[-16.44604,13.23756],[-16.4434,13.2368],[-16.43911,13.22214],[-16.43418,13.23338],[-16.43075,13.23224],[-16.43135,13.24537],[-16.42451,13.24361],[-16.42475,13.23948],[-16.41303,13.23775],[-16.41852,13.23102],[-16.41677,13.22433],[-16.42423,13.21913],[-16.423,13.21051],[-16.42667,13.20894],[-16.41965,13.20035],[-16.41902,13.18084],[-16.40958,13.20839],[-16.39915,13.22391],[-16.39467,13.22342],[-16.39424,13.21647],[-16.39069,13.21648],[-16.39158,13.2121],[-16.38591,13.20775],[-16.38988,13.18969],[-16.38321,13.19566],[-16.38167,13.20262],[-16.37615,13.20317],[-16.37227,13.21388],[-16.38257,13.22271],[-16.38263,13.23315],[-16.3966,13.23784],[-16.3953,13.24158],[-16.399,13.24401],[-16.38508,13.24717],[-16.37699,13.2592],[-16.36855,13.25461],[-16.37163,13.24081],[-16.34593,13.23115],[-16.35057,13.21412],[-16.34775,13.2037],[-16.34441,13.2175],[-16.33719,13.21935],[-16.33057,13.23613],[-16.3177,13.23954],[-16.31557,13.23337],[-16.30977,13.23186],[-16.30844,13.22826],[-16.30502,13.23317],[-16.3148,13.23724],[-16.31376,13.24021],[-16.3164,13.24071],[-16.31352,13.24395],[-16.32119,13.25267],[-16.33962,13.2545],[-16.33551,13.27372],[-16.33131,13.2749],[-16.32261,13.27069],[-16.31949,13.27767],[-16.30424,13.27903],[-16.30471,13.2695],[-16.28738,13.27461],[-16.28426,13.28171],[-16.27897,13.27633],[-16.27814,13.26899],[-16.27182,13.26657],[-16.27074,13.26168],[-16.26522,13.26274],[-16.26896,13.2738],[-16.26608,13.27562],[-16.26561,13.28644],[-16.25672,13.29782],[-16.23645,13.29432],[-16.23669,13.29071],[-16.23116,13.28816],[-16.24161,13.27574],[-16.22157,13.26605],[-16.21708,13.26117],[-16.21729,13.25164],[-16.21151,13.25192],[-16.21331,13.2447],[-16.20631,13.23855],[-16.20837,13.22849],[-16.21349,13.22628],[-16.2239,13.23125],[-16.22057,13.22225],[-16.22698,13.21655],[-16.22447,13.21476],[-16.21398,13.2197],[-16.20921,13.21277],[-16.20714,13.21845],[-16.19163,13.2211],[-16.18992,13.24713],[-16.18441,13.25063],[-16.17645,13.23714],[-16.17,13.23563],[-16.17047,13.25044],[-16.16284,13.24983],[-16.16196,13.25937],[-16.15552,13.26081],[-16.15551,13.25785],[-16.15946,13.25783],[-16.16061,13.25139],[-16.15507,13.24832],[-16.15675,13.24239],[-16.15135,13.23983],[-16.15421,13.23209],[-16.1401,13.23132],[-16.14401,13.21796],[-16.13812,13.22366],[-16.12984,13.22447],[-16.12219,13.21909],[-16.12349,13.21522],[-16.11707,13.21399],[-16.11136,13.20703],[-16.11258,13.21759],[-16.11628,13.22015],[-16.11869,13.22941],[-16.12804,13.23401],[-16.13405,13.25305],[-16.11712,13.26008],[-16.1109,13.25264],[-16.11101,13.248],[-16.10129,13.24972],[-16.09784,13.24342],[-16.08953,13.23804],[-16.08968,13.24165],[-16.0763,13.25008],[-16.06001,13.25337],[-16.04338,13.23991],[-16.04709,13.24775],[-16.04666,13.2703],[-16.03339,13.27306],[-16.02297,13.26641],[-16.01886,13.25843],[-16.0213,13.27517],[-16.02879,13.27411],[-16.02592,13.27876],[-16.00834,13.28952],[-16.00432,13.27369],[-16.00142,13.2719],[-15.99858,13.28325],[-15.98701,13.28665],[-15.98479,13.28949],[-15.98731,13.29463],[-15.98205,13.29517],[-15.9758,13.29437],[-15.94936,13.27854],[-15.94473,13.27186],[-15.94892,13.2654],[-15.93775,13.2697],[-15.92484,13.2633],[-15.91721,13.26346],[-15.91494,13.25342],[-15.91754,13.24748],[-15.90928,13.25485],[-15.89272,13.25684],[-15.89353,13.262],[-15.87724,13.26708],[-15.87144,13.26439],[-15.85527,13.26599],[-15.84851,13.25377],[-15.84537,13.2561],[-15.82615,13.25269],[-15.82354,13.25759],[-15.82403,13.24909],[-15.81128,13.25145],[-15.8098,13.24089],[-15.80199,13.23951],[-15.80223,13.16565],[-16.67462,13.16872],[-16.67905,13.17254],[-16.67923,13.16916],[-16.6894,13.16709],[-16.68958,13.16342],[-16.70078,13.16245],[-16.70882,13.15485],[-16.71074,13.14512],[-16.72509,13.13034],[-16.72764,13.11937],[-16.74251,13.10343],[-16.73699,13.10282],[-16.73235,13.0977],[-16.73738,13.08376],[-16.74026,13.08168],[-16.74397,13.0859],[-16.74935,13.08471],[-16.74206,13.0769],[-16.74572,13.07365],[-16.74707,13.06404],[-16.75385,13.07205],[-16.77164,13.07837],[-16.76644,13.12375],[-16.77335,13.13349],[-16.77288,13.14122],[-16.77768,13.15175],[-16.78467,13.15453],[-16.78747,13.15992],[-16.78267,13.18649],[-16.7855,13.25035],[-16.79113,13.26577],[-16.80672,13.27545],[-16.80244,13.30124],[-16.80309,13.31849],[-16.8066,13.33058],[-16.8139,13.33877],[-16.81183,13.34445],[-16.80317,13.34657],[-16.79953,13.35278],[-16.79605,13.37934],[-16.77635,13.38476],[-16.75435,13.39818],[-16.73765,13.41864],[-16.72366,13.44939],[-16.71531,13.45898],[-16.7025,13.46654]]],[[[-15.81799,13.25143],[-15.82222,13.25811],[-15.81065,13.25789],[-15.81076,13.25351],[-15.81799,13.25143]]],[[[-15.84909,13.26833],[-15.84779,13.27156],[-15.84358,13.27183],[-15.84909,13.26833]]],[[[-15.86637,13.53807],[-15.86796,13.54141],[-15.86441,13.54271],[-15.86637,13.53807]]],[[[-15.86828,13.26505],[-15.87487,13.26863],[-15.87491,13.27765],[-15.87095,13.27599],[-15.86828,13.26505]]],[[[-15.94142,13.4029],[-15.95065,13.4066],[-15.95292,13.4151],[-15.9515,13.42142],[-15.94257,13.42725],[-15.93756,13.42572],[-15.93292,13.41517],[-15.93604,13.40692],[-15.94142,13.4029]]],[[[-15.94652,13.2926],[-15.95073,13.29335],[-15.95101,13.29632],[-15.9447,13.29711],[-15.94652,13.2926]]],[[[-15.95373,13.38675],[-15.95954,13.39163],[-15.95375,13.39165],[-15.95373,13.38675]]],[[[-15.97918,13.30072],[-15.98366,13.30418],[-15.97893,13.30394],[-15.97918,13.30072]]],[[[-15.98887,13.28909],[-15.99099,13.29449],[-15.98809,13.29308],[-15.98887,13.28909]]],[[[-16.00494,13.29456],[-15.99654,13.30104],[-15.99626,13.29692],[-16.00494,13.29456]]],[[[-16.00223,13.47928],[-16.00304,13.47237],[-16.0104,13.47002],[-16.01982,13.48621],[-16.01682,13.49421],[-16.01895,13.49962],[-16.0108,13.50119],[-16.02109,13.50631],[-16.01927,13.51301],[-15.99828,13.49841],[-15.99917,13.49106],[-16.00669,13.49425],[-16.00627,13.49],[-16.00206,13.49041],[-15.99834,13.48205],[-16.00223,13.47928]]],[[[-16.01548,13.30058],[-16.01602,13.3038],[-16.02312,13.30222],[-16.0213,13.30738],[-16.01473,13.30818],[-16.01207,13.30201],[-16.01548,13.30058]]],[[[-16.02582,13.44367],[-16.0282,13.44444],[-16.02743,13.44934],[-16.02402,13.45154],[-16.02214,13.44407],[-16.02582,13.44367]]],[[[-16.02507,13.45192],[-16.02587,13.45501],[-16.02166,13.45554],[-16.02507,13.45192]]],[[[-16.02495,13.30002],[-16.02983,13.30168],[-16.02866,13.30452],[-16.02418,13.30428],[-16.02495,13.30002]]],[[[-16.03808,13.2943],[-16.04218,13.29931],[-16.03982,13.29983],[-16.03808,13.2943]]],[[[-16.03965,13.29133],[-16.04598,13.29414],[-16.04414,13.29556],[-16.03965,13.29133]]],[[[-16.05986,13.28068],[-16.06237,13.28377],[-16.05857,13.28507],[-16.05986,13.28068]]],[[[-16.09879,13.51087],[-16.09816,13.51732],[-16.09473,13.51579],[-16.09879,13.51087]]],[[[-16.10274,13.51201],[-16.10439,13.52579],[-16.0978,13.52518],[-16.0949,13.52352],[-16.0962,13.52016],[-16.10264,13.51884],[-16.10274,13.51201]]],[[[-16.10312,13.59113],[-16.10517,13.55644],[-16.11471,13.53683],[-16.11441,13.53013],[-16.11152,13.53169],[-16.10886,13.52474],[-16.11463,13.51931],[-16.11456,13.50552],[-16.11984,13.50885],[-16.11723,13.51208],[-16.12175,13.52211],[-16.13756,13.52436],[-16.13811,13.52848],[-16.14193,13.52923],[-16.14295,13.52227],[-16.13807,13.52023],[-16.13802,13.50941],[-16.13511,13.50736],[-16.13117,13.5097],[-16.12904,13.50533],[-16.12219,13.50459],[-16.12297,13.50188],[-16.13637,13.49563],[-16.14611,13.4952],[-16.14688,13.49133],[-16.1515,13.49286],[-16.15871,13.48716],[-16.16466,13.49177],[-16.18005,13.49041],[-16.18057,13.48757],[-16.18636,13.48767],[-16.18475,13.48201],[-16.19079,13.47786],[-16.19135,13.48636],[-16.20165,13.49095],[-16.20928,13.49027],[-16.20916,13.4931],[-16.21853,13.49692],[-16.22136,13.50979],[-16.22706,13.51827],[-16.23885,13.5205],[-16.22938,13.50879],[-16.23119,13.50253],[-16.22653,13.49959],[-16.23088,13.49351],[-16.23083,13.48218],[-16.23477,13.4819],[-16.23812,13.4672],[-16.24023,13.46873],[-16.24719,13.46432],[-16.24874,13.45864],[-16.25203,13.45888],[-16.24977,13.45477],[-16.25617,13.44469],[-16.25065,13.44575],[-16.24563,13.44217],[-16.24123,13.43291],[-16.24935,13.42463],[-16.24416,13.41229],[-16.23312,13.41517],[-16.2244,13.40852],[-16.22937,13.40295],[-16.23293,13.40384],[-16.23265,13.40049],[-16.24614,13.38793],[-16.24959,13.39435],[-16.25301,13.3933],[-16.2498,13.38456],[-16.2566,13.37667],[-16.26554,13.37508],[-16.27361,13.38277],[-16.27299,13.38947],[-16.27588,13.38997],[-16.27441,13.40904],[-16.27789,13.42165],[-16.28872,13.42739],[-16.29772,13.43752],[-16.30483,13.43736],[-16.3087,13.44803],[-16.31167,13.43809],[-16.32378,13.4379],[-16.32034,13.43418],[-16.3019,13.43132],[-16.29078,13.41927],[-16.28689,13.4064],[-16.28673,13.40022],[-16.29053,13.39814],[-16.29314,13.36927],[-16.29787,13.36808],[-16.29816,13.37311],[-16.30276,13.37205],[-16.31109,13.37974],[-16.31151,13.3836],[-16.31823,13.38614],[-16.31452,13.3805],[-16.31379,13.36787],[-16.32493,13.36009],[-16.31257,13.36015],[-16.30578,13.34576],[-16.30929,13.33775],[-16.31455,13.33798],[-16.32328,13.34631],[-16.3375,13.34752],[-16.38976,13.33127],[-16.39846,13.33303],[-16.41264,13.32934],[-16.43683,13.34814],[-16.45489,13.35538],[-16.49257,13.36366],[-16.50703,13.36216],[-16.49529,13.3782],[-16.4822,13.38884],[-16.4739,13.3876],[-16.47195,13.39122],[-16.47774,13.39093],[-16.47854,13.39376],[-16.4726,13.41183],[-16.46785,13.40902],[-16.4415,13.4235],[-16.44925,13.42407],[-16.45423,13.42057],[-16.4578,13.42273],[-16.4577,13.42866],[-16.45533,13.4288],[-16.45916,13.45235],[-16.47266,13.46503],[-16.47168,13.47714],[-16.49327,13.47663],[-16.50487,13.47965],[-16.5088,13.47705],[-16.5056,13.47012],[-16.51533,13.46915],[-16.52352,13.47348],[-16.52798,13.47165],[-16.53277,13.47987],[-16.54754,13.48364],[-16.54836,13.48815],[-16.54127,13.49167],[-16.54043,13.48317],[-16.53219,13.49159],[-16.52786,13.49317],[-16.52653,13.49098],[-16.52076,13.49553],[-16.52329,13.49938],[-16.5159,13.53858],[-16.51946,13.5803],[-16.51601,13.57671],[-16.51102,13.53732],[-16.49767,13.563],[-16.49141,13.55857],[-16.4911,13.5511],[-16.47674,13.55015],[-16.47769,13.55453],[-16.48296,13.55578],[-16.48452,13.55204],[-16.48768,13.55253],[-16.48986,13.56424],[-16.47463,13.57077],[-16.47494,13.57786],[-16.48109,13.57151],[-16.4933,13.56693],[-16.50358,13.56751],[-16.50134,13.57413],[-16.505,13.58438],[-16.49943,13.5917],[-16.10312,13.59113]]],[[[-16.12422,13.26083],[-16.12584,13.27009],[-16.12068,13.2629],[-16.12422,13.26083]]],[[[-16.1259,13.50972],[-16.13171,13.51214],[-16.1291,13.51666],[-16.12264,13.51592],[-16.1259,13.50972]]],[[[-16.16137,13.38343],[-16.16507,13.38587],[-16.16376,13.38819],[-16.16153,13.38846],[-16.16137,13.38343]]],[[[-16.16681,13.36615],[-16.17569,13.37938],[-16.17427,13.3835],[-16.16681,13.36615]]],[[[-16.1986,13.30197],[-16.1994,13.30429],[-16.19309,13.30431],[-16.1986,13.30197]]],[[[-16.19764,13.48015],[-16.21082,13.48279],[-16.21599,13.49023],[-16.21165,13.49],[-16.2111,13.48639],[-16.19504,13.48596],[-16.19383,13.4821],[-16.19764,13.48015]]],[[[-16.20037,13.28727],[-16.197,13.29657],[-16.19684,13.29064],[-16.20037,13.28727]]],[[[-16.21054,13.32162],[-16.21779,13.32378],[-16.21374,13.33127],[-16.2082,13.32743],[-16.21054,13.32162]]],[[[-16.21654,13.46885],[-16.21762,13.47322],[-16.21341,13.4735],[-16.21654,13.46885]]],[[[-16.25043,13.30159],[-16.25242,13.3048],[-16.24888,13.30688],[-16.25043,13.30159]]],[[[-16.2819,13.38272],[-16.28941,13.38372],[-16.28691,13.38553],[-16.2819,13.38272]]],[[[-16.34341,13.27419],[-16.3306,13.28998],[-16.33474,13.27759],[-16.34341,13.27419]]],[[[-16.42404,13.25353],[-16.42406,13.25727],[-16.41725,13.26271],[-16.41396,13.2617],[-16.41616,13.25576],[-16.42404,13.25353]]],[[[-16.46734,13.41237],[-16.4709,13.4139],[-16.46862,13.42121],[-16.46132,13.41821],[-16.46734,13.41237]]],[[[-16.47494,13.45085],[-16.4818,13.45222],[-16.48288,13.45737],[-16.47603,13.45638],[-16.47494,13.45085]]],[[[-16.48243,13.25436],[-16.4856,13.25717],[-16.47984,13.26081],[-16.47929,13.25644],[-16.48243,13.25436]]],[[[-16.49268,13.4671],[-16.49663,13.46746],[-16.49916,13.47196],[-16.49575,13.47301],[-16.49268,13.4671]]],[[[-16.54495,13.5917],[-16.52518,13.5917],[-16.52728,13.58849],[-16.52027,13.56354],[-16.51953,13.52877],[-16.52395,13.5205],[-16.522,13.50325],[-16.52445,13.49576],[-16.53104,13.49688],[-16.53496,13.49171],[-16.54247,13.49334],[-16.52766,13.5246],[-16.5273,13.54985],[-16.53533,13.57015],[-16.54701,13.58528],[-16.54495,13.5917]]],[[[-16.58089,13.45159],[-16.58325,13.45032],[-16.6085,13.46677],[-16.6172,13.46942],[-16.6272,13.46807],[-16.61539,13.4742],[-16.60644,13.47323],[-16.60116,13.47133],[-16.60138,13.46553],[-16.58347,13.46345],[-16.57171,13.45682],[-16.56996,13.4504],[-16.57412,13.44252],[-16.57821,13.44391],[-16.57759,13.44984],[-16.58089,13.45159]]],[[[-16.64346,13.46843],[-16.64011,13.47069],[-16.62831,13.46841],[-16.62912,13.46574],[-16.63009,13.46805],[-16.64346,13.46843]]],[[[-16.62985,13.47089],[-16.65671,13.47341],[-16.65884,13.47572],[-16.62985,13.47089]]],[[[-16.67553,13.16872],[-16.67843,13.16874],[-16.67903,13.17186],[-16.67553,13.16872]]],[[[-16.72538,13.11684],[-16.72642,13.1132],[-16.72893,13.11473],[-16.72538,13.11684]]]]}}]}