{"type":"FeatureCollection","features":[{"type":"Feature","properties":{"ISO_A3":"GNQ","WB_A3":"GNQ","WB_NAME":"Equatorial Guinea","WB_REGION":"AFW,SSF"},"geometry":{"type":"MultiPolygon","coordinates":[[[[9.85373,1],[9.83932,1.0073],[9.80781,1.0037],[9.80679,1.00693],[9.81089,1.0095],[9.84086,1.02187],[9.83267,1.0287],[9.83446,1.03206],[9.84458,1.03373],[9.85098,1.02702],[9.8529,1.01942],[9.86084,1.01864],[9.8821,1.02727],[9.88965,1.0265],[9.8903,1.03294],[9.89772,1.03049],[9.90464,1.03217],[9.90336,1.03449],[9.90695,1.03784],[9.90285,1.03668],[9.89862,1.04016],[9.91771,1.04093],[9.91975,1.03758],[9.92449,1.03989],[9.92411,1.0435],[9.91771,1.0426],[9.9172,1.04892],[9.92283,1.04763],[9.92386,1.05549],[9.91784,1.05588],[9.90925,1.04699],[9.89863,1.04867],[9.90874,1.05434],[9.90926,1.0582],[9.88903,1.07187],[9.88775,1.07845],[9.87878,1.08193],[9.88212,1.08554],[9.8997,1.09009],[9.9044,1.08347],[9.90619,1.08592],[9.91055,1.08476],[9.90696,1.09404],[9.90568,1.09004],[9.90235,1.0925],[9.89467,1.09018],[9.89326,1.09482],[9.8875,1.09495],[9.88673,1.09869],[9.90364,1.09894],[9.90031,1.10577],[9.89262,1.10603],[9.89237,1.11183],[9.89685,1.11673],[9.89468,1.12008],[9.8861,1.12344],[9.88648,1.13143],[9.89775,1.13104],[9.9016,1.13774],[9.88982,1.13684],[9.89204,1.14707],[9.8847,1.16649],[9.87403,1.16821],[9.87535,1.16083],[9.86805,1.15928],[9.86395,1.14974],[9.86472,1.14433],[9.86843,1.1451],[9.866,1.14871],[9.87125,1.1469],[9.8674,1.13453],[9.87342,1.12705],[9.87111,1.12138],[9.8592,1.11932],[9.86292,1.12345],[9.86189,1.12834],[9.85933,1.12847],[9.85421,1.11919],[9.8487,1.11855],[9.84447,1.12061],[9.84319,1.12577],[9.84371,1.12783],[9.85113,1.12564],[9.85062,1.13067],[9.85549,1.13118],[9.84986,1.1384],[9.85127,1.14072],[9.84794,1.14253],[9.84858,1.13402],[9.84527,1.13314],[9.84294,1.13918],[9.84038,1.13364],[9.82898,1.13841],[9.82488,1.12655],[9.83577,1.12552],[9.83602,1.12229],[9.82962,1.12049],[9.835,1.1201],[9.83768,1.11185],[9.84191,1.11391],[9.84383,1.11159],[9.83986,1.10669],[9.84319,1.10283],[9.83832,1.10154],[9.83102,1.08994],[9.84703,1.09612],[9.85599,1.088],[9.84587,1.08452],[9.85061,1.08065],[9.83473,1.07331],[9.82627,1.07241],[9.82038,1.07602],[9.81654,1.0884],[9.80194,1.08337],[9.79733,1.08672],[9.80579,1.09278],[9.8209,1.09407],[9.81911,1.10232],[9.81296,1.10528],[9.81348,1.11701],[9.79145,1.10903],[9.77736,1.10916],[9.77198,1.10542],[9.76942,1.09872],[9.75763,1.09395],[9.752,1.09344],[9.75507,1.09692],[9.75277,1.10079],[9.73356,1.09937],[9.72792,1.09151],[9.71306,1.0843],[9.70922,1.08533],[9.69462,1.07914],[9.69193,1.08559],[9.69257,1.09049],[9.69692,1.08559],[9.70435,1.09603],[9.71383,1.09899],[9.72127,1.11575],[9.73151,1.11368],[9.73433,1.11691],[9.73279,1.1209],[9.73638,1.12013],[9.73331,1.12503],[9.72471,1.12539],[9.72409,1.1289],[9.72844,1.13302],[9.71948,1.12787],[9.71691,1.13019],[9.731,1.13869],[9.73664,1.13766],[9.73228,1.13263],[9.74908,1.12978],[9.75015,1.13183],[9.74363,1.13324],[9.745,1.13689],[9.74169,1.13971],[9.75329,1.14333],[9.75692,1.14817],[9.75935,1.1581],[9.75803,1.16121],[9.75406,1.15751],[9.75535,1.16292],[9.76995,1.16833],[9.77251,1.16511],[9.7793,1.16781],[9.78199,1.16266],[9.78468,1.1673],[9.78967,1.16485],[9.79518,1.16781],[9.79121,1.17323],[9.78199,1.174],[9.79121,1.18547],[9.78917,1.19669],[9.80274,1.19733],[9.80313,1.20107],[9.82016,1.19745],[9.82196,1.20287],[9.81658,1.20802],[9.80838,1.20674],[9.80608,1.21009],[9.80198,1.20958],[9.80352,1.21589],[9.79916,1.21705],[9.80019,1.21112],[9.7925,1.21461],[9.78609,1.2021],[9.77867,1.20236],[9.77982,1.19772],[9.77328,1.19411],[9.77405,1.18354],[9.77046,1.18329],[9.77072,1.18032],[9.75356,1.17891],[9.75902,1.1825],[9.75535,1.19309],[9.74434,1.18974],[9.74306,1.19412],[9.75715,1.20727],[9.75895,1.21449],[9.76202,1.21474],[9.75303,1.22656],[9.75523,1.22764],[9.75268,1.23847],[9.75652,1.24259],[9.74794,1.24904],[9.7505,1.25548],[9.74692,1.25845],[9.74026,1.25626],[9.7473,1.23666],[9.74524,1.22532],[9.73897,1.22442],[9.74486,1.21707],[9.73845,1.21888],[9.73333,1.22494],[9.72987,1.22507],[9.7291,1.22017],[9.71258,1.22623],[9.71412,1.21695],[9.72533,1.21863],[9.72974,1.21501],[9.72974,1.21269],[9.7186,1.21269],[9.72052,1.20625],[9.72616,1.20753],[9.7341,1.20547],[9.73345,1.20315],[9.71744,1.19954],[9.71181,1.18524],[9.70652,1.18514],[9.70284,1.18073],[9.70207,1.17093],[9.68824,1.17764],[9.68964,1.16474],[9.68721,1.15933],[9.67991,1.15701],[9.68516,1.14811],[9.69643,1.14734],[9.69745,1.13728],[9.68797,1.13174],[9.68874,1.14051],[9.68656,1.13974],[9.68131,1.12143],[9.6749,1.11305],[9.67029,1.11821],[9.67401,1.12685],[9.64903,1.11989],[9.64929,1.1235],[9.64417,1.12789],[9.64724,1.13485],[9.6425,1.13459],[9.64161,1.14258],[9.63892,1.13279],[9.64109,1.12789],[9.63021,1.12866],[9.62752,1.12402],[9.63161,1.12299],[9.632,1.12634],[9.63674,1.12454],[9.63315,1.11783],[9.64596,1.1186],[9.64365,1.11267],[9.65005,1.10906],[9.64749,1.0981],[9.653,1.09875],[9.6544,1.09398],[9.64903,1.09243],[9.64685,1.08818],[9.65517,1.08947],[9.66375,1.08534],[9.65888,1.08276],[9.65645,1.07013],[9.64902,1.06807],[9.64672,1.07503],[9.63596,1.06085],[9.6357,1.06575],[9.62802,1.0642],[9.62814,1.05853],[9.61392,1.04384],[9.60445,1.04539],[9.60714,1.04848],[9.60586,1.05518],[9.59727,1.05209],[9.59907,1.05931],[9.59625,1.05802],[9.59651,1.0557],[9.59241,1.05545],[9.59061,1.04745],[9.59292,1.03585],[9.58677,1.02799],[9.5787,1.04204],[9.57051,1.07582],[9.55476,1.10728],[9.55861,1.10599],[9.554,1.11295],[9.56578,1.11862],[9.56373,1.1328],[9.5604,1.13345],[9.56066,1.12558],[9.55477,1.12765],[9.55425,1.11437],[9.54759,1.11282],[9.53171,1.1292],[9.52377,1.1283],[9.50226,1.1372],[9.51199,1.14106],[9.51635,1.13977],[9.51737,1.14403],[9.52352,1.1448],[9.52467,1.14003],[9.52736,1.14003],[9.52608,1.1475],[9.51916,1.14802],[9.51481,1.14428],[9.50892,1.14519],[9.50943,1.14184],[9.49457,1.14184],[9.50021,1.13204],[9.47971,1.13604],[9.47241,1.1323],[9.47023,1.1274],[9.45358,1.12302],[9.45076,1.11787],[9.43616,1.11258],[9.41669,1.11117],[9.41541,1.10653],[9.4067,1.10073],[9.39774,1.1082],[9.3857,1.10666],[9.37161,1.1367],[9.36546,1.13954],[9.35906,1.13812],[9.35637,1.1416],[9.3565,1.14469],[9.36047,1.14573],[9.35688,1.15965],[9.34088,1.17409],[9.34369,1.17822],[9.35087,1.17847],[9.3583,1.1844],[9.36419,1.18157],[9.36957,1.18569],[9.37457,1.20425],[9.38558,1.2174],[9.38982,1.24783],[9.39532,1.25298],[9.3984,1.26304],[9.39545,1.27284],[9.41288,1.2825],[9.41851,1.2807],[9.42363,1.26974],[9.43029,1.26806],[9.4326,1.27296],[9.42568,1.27335],[9.42069,1.27825],[9.4285,1.28418],[9.43363,1.30119],[9.4426,1.31447],[9.45515,1.31872],[9.46117,1.33058],[9.46041,1.34579],[9.46374,1.35765],[9.45862,1.39092],[9.46285,1.39813],[9.47003,1.40226],[9.47848,1.41747],[9.48694,1.42056],[9.49488,1.4301],[9.51512,1.43938],[9.53742,1.45768],[9.54921,1.48488],[9.56048,1.48552],[9.56945,1.50099],[9.58304,1.53863],[9.59419,1.55719],[9.5956,1.57317],[9.60919,1.58503],[9.61918,1.59018],[9.63134,1.57033],[9.6316,1.56336],[9.63583,1.56826],[9.64607,1.5631],[9.64722,1.55717],[9.65376,1.55459],[9.65504,1.54853],[9.65837,1.54789],[9.65837,1.54454],[9.65324,1.54376],[9.6535,1.53564],[9.65683,1.53512],[9.66084,1.53921],[9.66042,1.54453],[9.66631,1.54531],[9.66912,1.53809],[9.67258,1.5386],[9.67105,1.54195],[9.67707,1.54827],[9.68476,1.54839],[9.68655,1.5453],[9.70269,1.56618],[9.69732,1.56721],[9.69783,1.57056],[9.71397,1.57314],[9.71742,1.56205],[9.71128,1.56102],[9.71063,1.55638],[9.70423,1.55767],[9.69808,1.54607],[9.70371,1.54478],[9.70653,1.53859],[9.72421,1.53858],[9.72882,1.54838],[9.73266,1.54554],[9.73394,1.53574],[9.72471,1.52711],[9.72907,1.5235],[9.7301,1.53214],[9.73355,1.52956],[9.73701,1.51563],[9.72086,1.50429],[9.7218,1.50155],[9.72522,1.50519],[9.7274,1.50352],[9.72599,1.49952],[9.73009,1.49965],[9.7347,1.50983],[9.73893,1.50738],[9.74111,1.51898],[9.74661,1.51434],[9.747,1.51859],[9.74316,1.51769],[9.74213,1.52182],[9.74649,1.52104],[9.75123,1.53058],[9.74726,1.52968],[9.74585,1.53909],[9.75213,1.53677],[9.75444,1.54528],[9.74675,1.54592],[9.74957,1.55211],[9.74548,1.55289],[9.74727,1.56139],[9.74253,1.56101],[9.73958,1.55701],[9.73228,1.56024],[9.73447,1.57107],[9.7392,1.57313],[9.73767,1.57596],[9.73472,1.57596],[9.7278,1.56617],[9.72114,1.56643],[9.71909,1.57494],[9.71397,1.57945],[9.71884,1.58564],[9.73832,1.59105],[9.75727,1.59001],[9.77828,1.57492],[9.79237,1.57659],[9.79826,1.57439],[9.80043,1.56047],[9.80876,1.55763],[9.81798,1.55956],[9.80594,1.55957],[9.80069,1.56434],[9.798,1.57646],[9.79186,1.58046],[9.78724,1.57736],[9.77853,1.57891],[9.75599,1.59465],[9.74959,1.59182],[9.7355,1.59569],[9.72218,1.59337],[9.69706,1.58204],[9.68681,1.57173],[9.67016,1.5689],[9.67375,1.57444],[9.6717,1.57856],[9.66785,1.57315],[9.66465,1.57625],[9.66235,1.57573],[9.66388,1.57264],[9.65914,1.57406],[9.66068,1.58385],[9.65978,1.57779],[9.65556,1.57509],[9.64915,1.57625],[9.63549,1.58957],[9.63429,1.58386],[9.62892,1.58747],[9.61944,1.60849],[9.61457,1.61004],[9.60817,1.62229],[9.60471,1.62164],[9.6087,1.66676],[9.6169,1.67295],[9.62946,1.69022],[9.63638,1.69125],[9.64561,1.70182],[9.65611,1.70542],[9.68124,1.74538],[9.69559,1.74898],[9.72557,1.77604],[9.74211,1.80723],[9.74302,1.84487],[9.75123,1.85247],[9.75648,1.85312],[9.76251,1.86601],[9.77532,1.87013],[9.78839,1.88198],[9.7925,1.90492],[9.7984,1.90428],[9.80788,1.90904],[9.81122,1.91755],[9.81097,1.94049],[9.8166,1.93147],[9.81057,1.90466],[9.81762,1.90917],[9.81993,1.91664],[9.83096,1.91222],[9.8378,1.90483],[9.82429,1.92502],[9.82122,1.9468],[9.8184,1.94642],[9.81456,1.93637],[9.81353,1.94346],[9.80995,1.9441],[9.79319,2.0114],[9.79845,2.0114],[9.79909,2.0163],[9.80127,2.01501],[9.8046,2.01887],[9.80076,2.0221],[9.78884,2.02172],[9.77823,2.05833],[9.78489,2.06581],[9.76914,2.08],[9.76415,2.09289],[9.76684,2.09521],[9.768,2.10939],[9.78159,2.11557],[9.78902,2.1282],[9.79558,2.15991],[9.79302,2.17976],[9.79484,2.21817],[9.78742,2.25376],[9.78974,2.26768],[9.77541,2.31461],[9.77811,2.32621],[9.79195,2.32878],[9.79836,2.33574],[9.81015,2.33509],[9.81733,2.33985],[9.81874,2.34655],[9.82169,2.34655],[9.83385,2.31793],[9.83307,2.29859],[9.82627,2.29189],[9.83063,2.28931],[9.84649,2.24341],[9.86341,2.23953],[9.86827,2.23347],[9.88621,2.23024],[9.88617,2.22307],[9.89582,2.2232],[9.90547,2.19756],[9.91207,2.19832],[9.9143,2.20429],[9.92519,2.20619],[9.92836,2.19858],[9.93912,2.19933],[9.95017,2.19087],[9.96014,2.19095],[9.98613,2.17745],[9.98854,2.18061],[10.01638,2.17269],[10.03397,2.16379],[10.04405,2.1669],[10.04884,2.18417],[10.04983,2.17194],[10.05976,2.16618],[10.09251,2.16315],[10.11139,2.16746],[10.11958,2.15793],[10.14448,2.17087],[10.14604,2.17482],[10.15028,2.17142],[10.15949,2.17528],[10.16278,2.16423],[10.17528,2.16428],[10.17749,2.16158],[10.18664,2.17222],[11.14966,2.17222],[11.16486,2.17653],[11.18696,2.1915],[11.22282,2.17682],[11.25168,2.17222],[11.33919,2.17222],[11.33723,1],[9.85373,1]]],[[[9.88928,1.06156],[9.88851,1.06466],[9.89287,1.06569],[9.88928,1.06156]]],[[[9.88162,1.14871],[9.8847,1.14999],[9.88905,1.14277],[9.88367,1.14136],[9.8797,1.14639],[9.88162,1.14871]]],[[[9.87922,2.2331],[9.88514,2.23185],[9.88695,2.23068],[9.87922,2.2331]]],[[[9.86545,1.0412],[9.86904,1.04068],[9.87032,1.03604],[9.87723,1.03501],[9.88134,1.04687],[9.88543,1.04403],[9.88543,1.0332],[9.87032,1.03037],[9.86289,1.03669],[9.85316,1.03399],[9.84624,1.03682],[9.85034,1.04185],[9.85905,1.03914],[9.86545,1.0412]]],[[[9.87853,1.09379],[9.88519,1.09147],[9.88391,1.08889],[9.87853,1.0898],[9.87853,1.09379]]],[[[9.85805,1.11649],[9.877,1.10771],[9.86854,1.10101],[9.85727,1.09818],[9.85446,1.10347],[9.85715,1.10411],[9.85523,1.11236],[9.85805,1.11649]]],[[[9.81141,1.05591],[9.81858,1.05385],[9.8173,1.04598],[9.80074,1.04551],[9.79681,1.04998],[9.79963,1.05076],[9.79937,1.05437],[9.80399,1.05617],[9.81064,1.05256],[9.81141,1.05591]]],[[[9.81781,1.02033],[9.81806,1.0162],[9.79795,1.00873],[9.79988,1.01866],[9.80833,1.02394],[9.81243,1.02484],[9.81781,1.02033]]],[[[9.79199,1.20984],[9.79506,1.21267],[9.79557,1.21061],[9.79199,1.20984]]],[[[9.73573,1.53549],[9.73509,1.53832],[9.7383,1.53961],[9.73573,1.53549]]],[[[9.71577,1.58551],[9.72141,1.59054],[9.73319,1.59234],[9.71577,1.58551]]],[[[9.72971,1.07527],[9.72894,1.07965],[9.73227,1.07862],[9.72971,1.07527]]],[[[9.72256,1.1686],[9.72205,1.17144],[9.72589,1.17311],[9.72973,1.17066],[9.72948,1.16796],[9.72256,1.1686]]],[[[9.72308,1.19825],[9.72778,1.19636],[9.72811,1.19198],[9.7223,1.19171],[9.72002,1.19662],[9.72308,1.19825]]],[[[9.71821,1.18949],[9.72564,1.18485],[9.7255,1.17924],[9.71923,1.17892],[9.71616,1.18846],[9.71821,1.18949]]],[[[9.7159,1.17402],[9.70847,1.17093],[9.71437,1.18072],[9.71718,1.17866],[9.7159,1.17402]]],[[[9.71462,1.16229],[9.70924,1.16409],[9.70821,1.16912],[9.71539,1.16835],[9.71692,1.16345],[9.71462,1.16229]]],[[[9.70885,1.57816],[9.70757,1.58139],[9.71321,1.58474],[9.71372,1.58164],[9.70885,1.57816]]],[[[9.68847,1.0727],[9.69359,1.07966],[9.69231,1.07425],[9.68847,1.0727]]],[[[9.66554,1.55356],[9.67272,1.55343],[9.68399,1.55909],[9.68066,1.55175],[9.67118,1.54801],[9.66452,1.54801],[9.66166,1.55134],[9.66554,1.55356]]],[[[9.66901,1.09965],[9.66696,1.1021],[9.67067,1.10545],[9.66901,1.09965]]],[[[9.66055,1.08843],[9.6658,1.09668],[9.66568,1.09101],[9.66055,1.08843]]],[[[9.64774,1.06265],[9.64415,1.06317],[9.64851,1.06858],[9.65056,1.06549],[9.64774,1.06265]]],[[[9.63698,1.0544],[9.6348,1.05776],[9.64364,1.05956],[9.64313,1.05647],[9.63698,1.0544]]],[[[9.51709,0.99628],[9.5176,1.0026],[9.52004,0.99744],[9.51709,0.99628]]],[[[9.50786,0.97089],[9.50505,0.97385],[9.4989,0.97205],[9.49839,0.97553],[9.50274,0.99165],[9.50633,0.99255],[9.51081,0.97269],[9.50786,0.97089]]],[[[9.33034,0.8875],[9.32087,0.8875],[9.31113,0.89652],[9.30191,0.89433],[9.30653,0.93275],[9.32036,0.93597],[9.33035,0.93198],[9.33713,0.92295],[9.33342,0.91831],[9.33329,0.90851],[9.33764,0.89871],[9.34494,0.89265],[9.33803,0.89265],[9.33034,0.8875]]],[[[8.61167,3.64358],[8.61392,3.67098],[8.6229,3.67408],[8.6252,3.68182],[8.64085,3.69549],[8.64444,3.70348],[8.65727,3.71612],[8.66945,3.73907],[8.67369,3.74062],[8.68395,3.75584],[8.6842,3.76383],[8.6901,3.77595],[8.71346,3.78769],[8.72911,3.78189],[8.73014,3.77777],[8.72305,3.76548],[8.72578,3.76049],[8.75402,3.76024],[8.76249,3.75457],[8.77481,3.756],[8.7784,3.75948],[8.78277,3.75793],[8.7861,3.76154],[8.7997,3.76129],[8.8051,3.75484],[8.81126,3.75433],[8.81819,3.75897],[8.83076,3.75459],[8.84462,3.75537],[8.84924,3.75898],[8.86464,3.75859],[8.88441,3.76775],[8.89596,3.76569],[8.90083,3.76388],[8.90417,3.75537],[8.91367,3.75125],[8.91932,3.73114],[8.92432,3.72908],[8.92445,3.72031],[8.93035,3.72083],[8.93369,3.71567],[8.93754,3.6623],[8.92933,3.63445],[8.91548,3.61563],[8.90444,3.60828],[8.89675,3.58752],[8.87583,3.56612],[8.86904,3.55735],[8.86557,3.54601],[8.85852,3.54111],[8.84172,3.50217],[8.84197,3.49572],[8.80978,3.44982],[8.80978,3.43796],[8.80568,3.43255],[8.80876,3.42533],[8.79952,3.41824],[8.79209,3.40508],[8.76874,3.39644],[8.76515,3.39154],[8.76425,3.38458],[8.77298,3.36524],[8.77067,3.35055],[8.77273,3.34436],[8.7685,3.32863],[8.76465,3.32554],[8.7644,3.31754],[8.71285,3.26493],[8.70759,3.251],[8.69861,3.24172],[8.69964,3.23399],[8.67695,3.20961],[8.66746,3.21386],[8.66643,3.21825],[8.63975,3.23113],[8.6235,3.23542],[8.62076,3.23164],[8.59151,3.24581],[8.57048,3.24696],[8.56099,3.23999],[8.51994,3.25635],[8.50455,3.25866],[8.49685,3.25608],[8.46067,3.27088],[8.45375,3.26985],[8.44015,3.2817],[8.43603,3.30916],[8.4237,3.32539],[8.4156,3.36149],[8.42124,3.37025],[8.42084,3.38779],[8.4284,3.4012],[8.43634,3.4324],[8.45749,3.46464],[8.47006,3.46852],[8.47057,3.47225],[8.48032,3.47406],[8.48443,3.47059],[8.49366,3.46879],[8.50033,3.47098],[8.51137,3.46699],[8.54447,3.46868],[8.55422,3.46095],[8.5741,3.46831],[8.58512,3.49229],[8.58615,3.5039],[8.5737,3.51446],[8.5719,3.52039],[8.57882,3.53483],[8.60242,3.55495],[8.61024,3.56836],[8.60767,3.57893],[8.61151,3.59956],[8.61167,3.64358]]],[[[5.61775,-1.4104],[5.63234,-1.40219],[5.64256,-1.40889],[5.64872,-1.41792],[5.65581,-1.44289],[5.65082,-1.44571],[5.65195,-1.45756],[5.64478,-1.46166],[5.64478,-1.4654],[5.62931,-1.46344],[5.62931,-1.45984],[5.62143,-1.45561],[5.62665,-1.44426],[5.62296,-1.43834],[5.62348,-1.42688],[5.61775,-1.4104]]]]}}]}