{"type":"FeatureCollection","features":[{"type":"Feature","properties":{"ISO_A3":"GRD","WB_A3":"GRD","WB_NAME":"Grenada","WB_REGION":"LCN"},"geometry":{"type":"MultiPolygon","coordinates":[[[[-61.38367,12.51055],[-61.39438,12.51731],[-61.38541,12.52666],[-61.38148,12.52625],[-61.37863,12.52108],[-61.3788,12.51361],[-61.38367,12.51055]]],[[[-61.4868,12.45279],[-61.48322,12.45908],[-61.48462,12.4663],[-61.49577,12.46534],[-61.49838,12.46767],[-61.49729,12.4723],[-61.48197,12.47209],[-61.47826,12.47876],[-61.46698,12.47896],[-61.45883,12.48292],[-61.45007,12.50115],[-61.45024,12.51687],[-61.44759,12.52097],[-61.44075,12.52402],[-61.43995,12.52737],[-61.43131,12.52461],[-61.42918,12.50798],[-61.42032,12.49943],[-61.42508,12.49379],[-61.42262,12.48656],[-61.42814,12.48595],[-61.43278,12.47735],[-61.43014,12.45802],[-61.43894,12.45548],[-61.45346,12.4584],[-61.46451,12.45331],[-61.47006,12.44561],[-61.48787,12.44842],[-61.49564,12.44241],[-61.49685,12.43687],[-61.49798,12.44654],[-61.49046,12.45384],[-61.4868,12.45279]]],[[[-61.47121,12.429],[-61.47656,12.43174],[-61.47275,12.43377],[-61.46949,12.43194],[-61.47121,12.429]]],[[[-61.4755,12.41125],[-61.48127,12.41154],[-61.48006,12.41681],[-61.47535,12.41524],[-61.4755,12.41125]]],[[[-61.48683,12.40178],[-61.4944,12.40684],[-61.48887,12.41119],[-61.48549,12.40602],[-61.48683,12.40178]]],[[[-61.55494,12.31364],[-61.55518,12.31854],[-61.55153,12.314],[-61.55494,12.31364]]],[[[-61.58314,12.283],[-61.58731,12.28869],[-61.57707,12.29109],[-61.57657,12.28696],[-61.57998,12.28749],[-61.58314,12.283]]],[[[-61.58519,12.29242],[-61.59538,12.29852],[-61.58533,12.31586],[-61.57931,12.31429],[-61.58247,12.31094],[-61.57897,12.30372],[-61.58519,12.29242]]],[[[-61.58397,12.32526],[-61.58394,12.33067],[-61.58119,12.32898],[-61.58397,12.32526]]],[[[-61.60348,12.17672],[-61.60248,12.16857],[-61.60497,12.16807],[-61.60873,12.15031],[-61.60973,12.13382],[-61.6039,12.12271],[-61.60782,12.12505],[-61.62091,12.12383],[-61.62726,12.11175],[-61.62781,12.10557],[-61.62416,12.10349],[-61.62591,12.09345],[-61.61735,12.07743],[-61.61986,12.07435],[-61.62692,12.07542],[-61.6262,12.0624],[-61.63328,12.06076],[-61.63107,12.05637],[-61.63748,12.0541],[-61.63464,12.05033],[-61.63779,12.04919],[-61.64044,12.04121],[-61.64751,12.04073],[-61.64936,12.03829],[-61.64624,12.03377],[-61.65332,12.03045],[-61.65387,12.02659],[-61.6612,12.0256],[-61.66332,12.02071],[-61.66777,12.0197],[-61.67325,12.02359],[-61.67708,12.01665],[-61.68059,12.0226],[-61.68664,12.01541],[-61.7081,12.01654],[-61.70655,12.01177],[-61.69845,12.01005],[-61.69926,12.00645],[-61.70682,12.00945],[-61.71046,12.01629],[-61.71481,12.01475],[-61.70725,12.00236],[-61.70965,11.99465],[-61.71701,12.0122],[-61.7263,12.01508],[-61.72489,12.00992],[-61.71965,12.00989],[-61.71823,12.00576],[-61.72126,12.00191],[-61.72675,12.00194],[-61.72843,12.00762],[-61.73926,12.01411],[-61.73838,12.00714],[-61.74561,11.99893],[-61.74888,11.99946],[-61.74782,12.00409],[-61.75344,12.00541],[-61.75364,11.99047],[-61.76137,11.98869],[-61.75883,11.99951],[-61.7634,12.00185],[-61.76416,12.00674],[-61.76878,11.99852],[-61.76942,12.00136],[-61.77481,11.99777],[-61.77649,12.00216],[-61.78198,12.00309],[-61.78526,12.00039],[-61.79874,12.00187],[-61.79767,12.00662],[-61.78613,12.01083],[-61.77195,12.02224],[-61.75621,12.02784],[-61.75247,12.04509],[-61.74777,12.04262],[-61.74631,12.04583],[-61.75599,12.04794],[-61.75515,12.06056],[-61.75789,12.06289],[-61.75325,12.07524],[-61.75834,12.0781],[-61.76119,12.08455],[-61.76142,12.08906],[-61.75605,12.09174],[-61.75272,12.10513],[-61.7468,12.11125],[-61.75329,12.12136],[-61.74338,12.14425],[-61.73535,12.15143],[-61.73279,12.16533],[-61.72806,12.16892],[-61.72379,12.18462],[-61.71564,12.19231],[-61.70488,12.19638],[-61.68959,12.21692],[-61.66068,12.23469],[-61.65466,12.23453],[-61.64213,12.22481],[-61.62586,12.22962],[-61.60964,12.22723],[-61.60598,12.2245],[-61.61015,12.20648],[-61.60288,12.1915],[-61.60348,12.17672]]],[[[-61.72341,11.99033],[-61.72654,11.99162],[-61.72782,11.99859],[-61.72481,11.99806],[-61.72341,11.99033]]],[[[-61.73699,11.9967],[-61.74195,11.99827],[-61.74036,12.0038],[-61.73643,12.00404],[-61.73699,11.9967]]]]}}]}