{"type":"FeatureCollection","features":[{"type":"Feature","properties":{"ISO_A3":"GTM","WB_A3":"GTM","WB_NAME":"Guatemala","WB_REGION":"LCN"},"geometry":{"type":"MultiPolygon","coordinates":[[[[-88.31257,15.68188],[-88.30775,15.68667],[-88.3003,15.68594],[-88.29315,15.69023],[-88.29166,15.70776],[-88.28769,15.7101],[-88.28548,15.71759],[-88.28817,15.72375],[-88.28649,15.73175],[-88.27532,15.73156],[-88.27456,15.73697],[-88.2666,15.74075],[-88.24978,15.73016],[-88.23353,15.72639],[-88.24079,15.72291],[-88.25205,15.7249],[-88.24754,15.71137],[-88.24208,15.71082],[-88.2456,15.70377],[-88.24321,15.69838],[-88.25094,15.69641],[-88.24769,15.68799],[-88.25493,15.68681],[-88.25657,15.69166],[-88.25807,15.68457],[-88.26419,15.68101],[-88.26777,15.68226],[-88.26532,15.68734],[-88.26763,15.6925],[-88.27503,15.68428],[-88.28193,15.69393],[-88.28514,15.69374],[-88.28679,15.68931],[-88.28042,15.68249],[-88.2805,15.67534],[-88.29938,15.67403],[-88.30439,15.67057],[-88.31257,15.68188]]],[[[-88.24281,15.72159],[-88.23527,15.72285],[-88.23805,15.72157],[-88.24281,15.72159]]],[[[-88.25063,15.72354],[-88.24895,15.72411],[-88.24302,15.72154],[-88.25063,15.72354]]],[[[-90.44833,16.07393],[-90.44257,16.07394],[-90.44687,16.08347],[-90.43719,16.09628],[-90.42873,16.09649],[-90.42567,16.10279],[-90.43187,16.10699],[-90.45012,16.09306],[-90.45742,16.09585],[-90.45559,16.10057],[-90.45858,16.11212],[-90.45333,16.12494],[-90.43645,16.11739],[-90.4304,16.12268],[-90.42992,16.13948],[-90.4476,16.14334],[-90.45211,16.14985],[-90.45019,16.15374],[-90.43886,16.15627],[-90.42617,16.16493],[-90.42754,16.17248],[-90.43373,16.17865],[-90.4542,16.18625],[-90.45824,16.20795],[-90.45251,16.22541],[-90.44267,16.23117],[-90.43248,16.23069],[-90.4293,16.23237],[-90.42994,16.23553],[-90.43891,16.24019],[-90.44037,16.24694],[-90.44388,16.2478],[-90.44963,16.24122],[-90.45385,16.24173],[-90.4562,16.24913],[-90.44838,16.2612],[-90.44016,16.26138],[-90.43083,16.25435],[-90.42349,16.26039],[-90.43257,16.2743],[-90.44036,16.27805],[-90.44169,16.28744],[-90.43302,16.29259],[-90.44,16.29822],[-90.43848,16.30474],[-90.41237,16.30761],[-90.40996,16.31698],[-90.41361,16.32463],[-90.41144,16.32958],[-90.39855,16.34013],[-90.38753,16.33441],[-90.38268,16.33994],[-90.3862,16.34637],[-90.40258,16.35154],[-90.40423,16.3615],[-90.40966,16.35596],[-90.40754,16.3484],[-90.411,16.3466],[-90.41164,16.36261],[-90.3972,16.37485],[-90.39022,16.37299],[-90.38237,16.36091],[-90.37733,16.35933],[-90.37155,16.36673],[-90.37226,16.37183],[-90.37712,16.37588],[-90.3875,16.37803],[-90.40165,16.39041],[-90.40357,16.39687],[-90.39091,16.40316],[-90.38935,16.41285],[-90.39993,16.41568],[-90.40108,16.41029],[-90.40939,16.40413],[-90.41844,16.42368],[-90.42211,16.42525],[-90.45951,16.42119],[-90.47189,16.42503],[-90.48711,16.42461],[-90.48748,16.43132],[-90.47922,16.44378],[-90.47943,16.46019],[-90.48564,16.46141],[-90.49397,16.45365],[-90.49896,16.45452],[-90.50264,16.46774],[-90.51439,16.46973],[-90.52436,16.46765],[-90.52865,16.45763],[-90.54689,16.46692],[-90.54919,16.47113],[-90.5446,16.48161],[-90.55085,16.48218],[-90.58818,16.46957],[-90.59489,16.47621],[-90.59302,16.48791],[-90.59785,16.4908],[-90.60425,16.48762],[-90.61285,16.48881],[-90.62029,16.47812],[-90.63077,16.47853],[-90.63514,16.48218],[-90.63499,16.48796],[-90.61779,16.48942],[-90.60983,16.49457],[-90.60679,16.50351],[-90.61076,16.51578],[-90.61708,16.52176],[-90.63517,16.51378],[-90.64082,16.51364],[-90.64623,16.5197],[-90.64346,16.53289],[-90.64885,16.54372],[-90.64729,16.56092],[-90.62659,16.57799],[-90.63763,16.59421],[-90.64241,16.59561],[-90.6433,16.58047],[-90.65715,16.57694],[-90.66671,16.58098],[-90.66689,16.58931],[-90.65362,16.59418],[-90.66248,16.62761],[-90.65745,16.63819],[-90.67598,16.66017],[-90.6812,16.68783],[-90.7094,16.70463],[-90.70741,16.71695],[-90.71423,16.72664],[-90.75519,16.74962],[-90.76044,16.76142],[-90.80271,16.77611],[-90.80385,16.78677],[-90.80096,16.79483],[-90.80398,16.79842],[-90.84499,16.79583],[-90.85447,16.79788],[-90.86209,16.81319],[-90.88446,16.82653],[-90.92106,16.82158],[-90.93345,16.84155],[-90.93195,16.85432],[-90.93599,16.86086],[-90.95345,16.86598],[-90.9695,16.86071],[-90.97514,16.86559],[-90.95431,16.88466],[-90.95726,16.89632],[-90.96392,16.90137],[-90.98014,16.90222],[-90.98656,16.89612],[-90.98124,16.86961],[-90.9835,16.86525],[-90.98935,16.86342],[-90.99383,16.87683],[-91.00819,16.88652],[-91.06622,16.90316],[-91.074,16.91399],[-91.06379,16.92445],[-91.07888,16.94284],[-91.09331,16.95148],[-91.10293,16.96902],[-91.12077,16.9778],[-91.12218,17.003],[-91.12899,17.00656],[-91.15462,17.00489],[-91.17606,17.01598],[-91.19456,17.03948],[-91.2129,17.05243],[-91.21818,17.07828],[-91.22588,17.09377],[-91.23592,17.10113],[-91.25697,17.10096],[-91.26938,17.11099],[-91.273,17.14069],[-91.26404,17.15689],[-91.26321,17.16556],[-91.26698,17.17068],[-91.27984,17.17978],[-91.31127,17.1797],[-91.32063,17.1833],[-91.32991,17.17966],[-91.33743,17.16007],[-91.34991,17.16033],[-91.34711,17.17531],[-91.35499,17.19068],[-91.37566,17.20435],[-91.40371,17.20477],[-91.42339,17.21215],[-91.43078,17.22305],[-91.44017,17.25118],[-90.98737,17.25122],[-90.98769,17.8154],[-89.15196,17.81559],[-89.15005,17.0591],[-89.22755,15.89692],[-89.22474,15.89499],[-89.22479,15.88743],[-89.21815,15.88708],[-89.21601,15.89438],[-89.20891,15.89837],[-89.20271,15.89775],[-89.19765,15.90218],[-89.18707,15.89817],[-89.18786,15.90813],[-89.17741,15.91304],[-89.16917,15.91031],[-89.16261,15.89914],[-89.14837,15.89687],[-89.1318,15.90698],[-89.12841,15.89931],[-89.12084,15.90338],[-89.11557,15.89595],[-89.11297,15.89872],[-89.11685,15.90678],[-89.10917,15.90637],[-89.10262,15.91246],[-89.0887,15.90971],[-89.08062,15.89808],[-89.07785,15.89943],[-89.07607,15.9092],[-89.06565,15.90076],[-89.06407,15.90787],[-89.05959,15.90996],[-89.05991,15.91445],[-89.05449,15.91717],[-89.05177,15.90235],[-89.04634,15.90439],[-89.04186,15.91482],[-89.01987,15.91068],[-89.02036,15.89479],[-89.00268,15.89805],[-88.99609,15.90397],[-88.98136,15.89509],[-88.97258,15.89504],[-88.98449,15.88824],[-88.98472,15.88463],[-88.98791,15.88435],[-88.98655,15.88127],[-88.97819,15.88315],[-88.98128,15.88698],[-88.97018,15.89468],[-88.95756,15.88838],[-88.94007,15.88967],[-88.9411,15.8867],[-88.94721,15.88562],[-88.93894,15.88363],[-88.939,15.88968],[-88.92275,15.88749],[-88.91797,15.88884],[-88.91114,15.89753],[-88.90552,15.89462],[-88.88323,15.85876],[-88.88234,15.86276],[-88.8786,15.86124],[-88.87224,15.86413],[-88.8621,15.86087],[-88.85231,15.86662],[-88.83686,15.86482],[-88.82896,15.8739],[-88.81584,15.86564],[-88.79505,15.86131],[-88.74701,15.82925],[-88.75185,15.81891],[-88.76495,15.80491],[-88.78044,15.80322],[-88.78004,15.79756],[-88.77232,15.79093],[-88.77746,15.77706],[-88.784,15.78491],[-88.79464,15.78456],[-88.80706,15.77519],[-88.81211,15.77476],[-88.83354,15.79248],[-88.83936,15.78805],[-88.84734,15.78863],[-88.84757,15.78465],[-88.85981,15.78479],[-88.86376,15.78141],[-88.86166,15.77786],[-88.87226,15.75043],[-88.87619,15.74874],[-88.87578,15.75324],[-88.87892,15.75243],[-88.88949,15.74487],[-88.90434,15.74036],[-88.90481,15.73341],[-88.9125,15.73102],[-88.91359,15.7341],[-88.92156,15.733],[-88.92585,15.73708],[-88.92955,15.73448],[-88.92452,15.72349],[-88.93762,15.71702],[-88.94456,15.71992],[-88.94337,15.7165],[-88.95141,15.71239],[-88.94269,15.69557],[-88.95301,15.68521],[-88.97448,15.67871],[-88.97848,15.68021],[-88.9807,15.67633],[-88.99013,15.67522],[-89.00096,15.66868],[-89.00284,15.66067],[-88.99545,15.65606],[-88.99182,15.65951],[-88.99243,15.66618],[-88.98632,15.66572],[-88.98687,15.66881],[-88.97999,15.67183],[-88.97079,15.66914],[-88.96274,15.67405],[-88.95317,15.67387],[-88.95158,15.669],[-88.94716,15.68513],[-88.93795,15.69513],[-88.91562,15.69507],[-88.90451,15.68741],[-88.89977,15.68819],[-88.89778,15.68467],[-88.88882,15.68616],[-88.88196,15.6989],[-88.88052,15.70864],[-88.87113,15.71451],[-88.86872,15.71299],[-88.85838,15.72306],[-88.85274,15.73926],[-88.84822,15.73943],[-88.84308,15.7456],[-88.84763,15.75438],[-88.83887,15.75333],[-88.84147,15.7579],[-88.83392,15.7601],[-88.83386,15.76355],[-88.83661,15.76397],[-88.83161,15.76541],[-88.82911,15.77256],[-88.82224,15.77712],[-88.80251,15.77279],[-88.79462,15.78237],[-88.78639,15.78437],[-88.78041,15.77971],[-88.77992,15.77464],[-88.77575,15.77562],[-88.77089,15.7912],[-88.77906,15.79808],[-88.77879,15.80238],[-88.76501,15.80361],[-88.75084,15.81353],[-88.74405,15.80996],[-88.7345,15.81287],[-88.73135,15.81727],[-88.72762,15.81717],[-88.71902,15.80629],[-88.65109,15.76175],[-88.62668,15.75317],[-88.62397,15.7465],[-88.63102,15.74734],[-88.63327,15.74488],[-88.63038,15.7337],[-88.63437,15.73277],[-88.63458,15.72581],[-88.63746,15.72128],[-88.64806,15.71644],[-88.64646,15.69919],[-88.63674,15.69695],[-88.63432,15.69349],[-88.62718,15.69818],[-88.62024,15.69488],[-88.607,15.70206],[-88.60272,15.699],[-88.5977,15.7029],[-88.59445,15.7122],[-88.60235,15.71961],[-88.60487,15.73633],[-88.60066,15.74177],[-88.5879,15.74225],[-88.57866,15.75121],[-88.57488,15.76051],[-88.58007,15.76099],[-88.58005,15.75841],[-88.58338,15.75916],[-88.58327,15.76225],[-88.5693,15.77948],[-88.55333,15.81295],[-88.55676,15.8258],[-88.56086,15.82294],[-88.56368,15.82627],[-88.56363,15.8546],[-88.56072,15.85668],[-88.55251,15.8449],[-88.54598,15.84262],[-88.54457,15.84959],[-88.52881,15.84159],[-88.50589,15.8375],[-88.49946,15.83136],[-88.49334,15.83153],[-88.49894,15.83265],[-88.49314,15.8399],[-88.49121,15.84945],[-88.49484,15.85496],[-88.50922,15.85628],[-88.5104,15.87069],[-88.54452,15.87792],[-88.5443,15.86711],[-88.5497,15.89501],[-88.56041,15.90279],[-88.56327,15.91127],[-88.57599,15.92097],[-88.58691,15.92205],[-88.59739,15.93433],[-88.60857,15.93451],[-88.61353,15.93949],[-88.62224,15.96235],[-88.62213,15.96544],[-88.61549,15.96717],[-88.58349,15.96148],[-88.55409,15.94598],[-88.49003,15.88745],[-88.43707,15.85097],[-88.36872,15.81806],[-88.35295,15.80682],[-88.35052,15.80143],[-88.34948,15.80452],[-88.31181,15.78106],[-88.26994,15.74344],[-88.27576,15.73748],[-88.27533,15.7331],[-88.28597,15.73317],[-88.28822,15.73045],[-88.28653,15.71578],[-88.29247,15.70853],[-88.29237,15.69307],[-88.29871,15.68698],[-88.30775,15.68718],[-88.3141,15.68238],[-88.31789,15.67102],[-88.32014,15.6705],[-88.32192,15.6777],[-88.32552,15.67909],[-88.33638,15.67336],[-88.35188,15.68486],[-88.35931,15.68211],[-88.36021,15.67772],[-88.35593,15.67414],[-88.35924,15.67232],[-88.37389,15.67622],[-88.37933,15.67477],[-88.3799,15.66008],[-88.37664,15.65377],[-88.37893,15.67425],[-88.35552,15.67182],[-88.35942,15.67876],[-88.35719,15.68315],[-88.35001,15.68345],[-88.33637,15.67233],[-88.32338,15.6782],[-88.32174,15.67049],[-88.31828,15.66986],[-88.31498,15.67574],[-88.31689,15.66942],[-88.32372,15.6722],[-88.32603,15.66735],[-88.32207,15.6582],[-88.323,15.65284],[-88.34443,15.61887],[-88.55225,15.4466],[-88.56137,15.44362],[-88.57063,15.4263],[-88.58425,15.42009],[-88.58571,15.42242],[-88.59157,15.42144],[-88.60527,15.41325],[-88.67815,15.34248],[-88.84649,15.24269],[-88.97398,15.13654],[-89.15492,15.06891],[-89.15219,15.05966],[-89.16565,15.04067],[-89.17587,15.03664],[-89.17531,15.03243],[-89.16978,15.02961],[-89.1786,15.01807],[-89.18391,15.00438],[-89.17923,14.99401],[-89.15654,14.97989],[-89.16422,14.97001],[-89.1621,14.9672],[-89.16693,14.944],[-89.17522,14.94109],[-89.17194,14.93136],[-89.17977,14.92201],[-89.18385,14.90703],[-89.19264,14.90187],[-89.20308,14.9023],[-89.22806,14.88265],[-89.2238,14.83477],[-89.19429,14.79729],[-89.16887,14.77497],[-89.16538,14.73159],[-89.13106,14.7131],[-89.14841,14.67648],[-89.15664,14.67326],[-89.14706,14.62577],[-89.15112,14.62175],[-89.15163,14.61637],[-89.14669,14.6115],[-89.15379,14.58714],[-89.15112,14.58338],[-89.15908,14.57881],[-89.15815,14.5754],[-89.16178,14.57162],[-89.16649,14.57122],[-89.18863,14.57727],[-89.19327,14.57543],[-89.20631,14.5829],[-89.23849,14.58485],[-89.25412,14.56871],[-89.25089,14.56369],[-89.25617,14.56067],[-89.26369,14.54752],[-89.27716,14.5412],[-89.2838,14.53252],[-89.28845,14.51607],[-89.30582,14.50726],[-89.30388,14.49459],[-89.35632,14.46789],[-89.35227,14.46413],[-89.35405,14.46017],[-89.34932,14.43318],[-89.35034,14.42685],[-89.35599,14.42063],[-89.37271,14.42946],[-89.37976,14.43787],[-89.3852,14.42738],[-89.38695,14.44479],[-89.3927,14.45056],[-89.40153,14.44704],[-89.40764,14.43204],[-89.41126,14.43301],[-89.41313,14.42659],[-89.43432,14.41221],[-89.43955,14.41227],[-89.4463,14.42032],[-89.45632,14.42153],[-89.47079,14.42949],[-89.48482,14.42026],[-89.49124,14.42003],[-89.49786,14.40865],[-89.50253,14.40629],[-89.50869,14.41024],[-89.51233,14.39786],[-89.51646,14.39888],[-89.51638,14.39523],[-89.52113,14.39195],[-89.51895,14.38747],[-89.52961,14.37963],[-89.53672,14.38546],[-89.53375,14.39818],[-89.54333,14.41322],[-89.54251,14.41617],[-89.57389,14.41695],[-89.57837,14.40492],[-89.58121,14.37853],[-89.58007,14.37215],[-89.56415,14.35557],[-89.56512,14.35086],[-89.56951,14.35266],[-89.58804,14.34611],[-89.59195,14.33298],[-89.5924,14.31124],[-89.58987,14.31032],[-89.58188,14.31724],[-89.57715,14.31469],[-89.56961,14.3172],[-89.56187,14.31445],[-89.55697,14.30399],[-89.55243,14.30306],[-89.54549,14.29511],[-89.54737,14.279],[-89.55234,14.27581],[-89.52251,14.24179],[-89.52347,14.23629],[-89.5206,14.23244],[-89.52554,14.21994],[-89.53811,14.21791],[-89.55035,14.22216],[-89.55839,14.21017],[-89.5677,14.21013],[-89.58154,14.20297],[-89.63008,14.20441],[-89.66697,14.18531],[-89.67144,14.17508],[-89.71108,14.14074],[-89.72557,14.11922],[-89.74608,14.061],[-89.74266,14.05722],[-89.74392,14.04466],[-89.73518,14.0347],[-89.73729,14.03194],[-89.74502,14.03619],[-89.75883,14.03232],[-89.76014,14.03481],[-89.77901,14.0338],[-89.78834,14.04164],[-89.78899,14.04686],[-89.81768,14.06318],[-89.83234,14.06199],[-89.8448,14.05719],[-89.85647,14.05811],[-89.86163,14.04799],[-89.86041,14.04347],[-89.86963,14.04031],[-89.88644,14.04301],[-89.90454,14.03242],[-89.90719,14.01442],[-89.91268,14.01077],[-89.91966,14.01254],[-89.92078,14.00664],[-89.92794,14.00661],[-89.93301,13.99263],[-89.93773,13.99368],[-89.94008,13.98622],[-89.96005,13.97825],[-89.96182,13.97053],[-89.96925,13.96514],[-89.97584,13.96463],[-89.97827,13.95978],[-89.98055,13.96182],[-89.99068,13.95798],[-89.99325,13.95435],[-90.00005,13.95615],[-90.00887,13.94448],[-90.02289,13.93938],[-90.03093,13.92763],[-90.02877,13.91879],[-90.03764,13.91736],[-90.03607,13.89763],[-90.04029,13.89392],[-90.06725,13.88764],[-90.06565,13.88154],[-90.08141,13.87764],[-90.08301,13.86831],[-90.09474,13.85445],[-90.09532,13.84362],[-90.09855,13.83949],[-90.11214,13.83422],[-90.113,13.82704],[-90.10658,13.81859],[-90.10572,13.80962],[-90.11495,13.80487],[-90.11033,13.79995],[-90.1169,13.79706],[-90.11343,13.79608],[-90.11802,13.78901],[-90.11673,13.78158],[-90.11321,13.7773],[-90.10628,13.78199],[-90.10399,13.77354],[-90.09662,13.76667],[-90.10109,13.75914],[-90.09241,13.7559],[-90.10122,13.74904],[-90.10396,13.74002],[-90.10826,13.74376],[-90.11376,13.74052],[-90.11626,13.74798],[-90.14913,13.75642],[-90.14471,13.75289],[-90.14604,13.75085],[-90.18822,13.76858],[-90.18608,13.7719],[-90.17112,13.7671],[-90.17133,13.77186],[-90.17764,13.77258],[-90.17443,13.77666],[-90.16969,13.77699],[-90.16964,13.78071],[-90.17596,13.78131],[-90.18007,13.78921],[-90.19213,13.79449],[-90.19794,13.79263],[-90.1991,13.78428],[-90.20982,13.79109],[-90.21265,13.7978],[-90.20671,13.81122],[-90.21117,13.81041],[-90.212,13.80669],[-90.22488,13.79757],[-90.22862,13.80456],[-90.23656,13.80131],[-90.24304,13.81014],[-90.25987,13.81289],[-90.25904,13.81597],[-90.26246,13.81679],[-90.26132,13.81317],[-90.26534,13.80679],[-90.27046,13.80812],[-90.27276,13.81458],[-90.28639,13.82066],[-90.28085,13.82227],[-90.28603,13.8285],[-90.3095,13.82683],[-90.31393,13.83126],[-90.32339,13.83342],[-90.32319,13.82762],[-90.2959,13.81819],[-90.28126,13.80863],[-90.27414,13.80932],[-90.25033,13.79515],[-90.34026,13.83206],[-90.34759,13.83626],[-90.33815,13.83294],[-90.33593,13.84282],[-90.33997,13.84673],[-90.35737,13.85683],[-90.38521,13.8655],[-90.39096,13.86929],[-90.38716,13.87968],[-90.38897,13.8824],[-90.39217,13.87947],[-90.39185,13.88411],[-90.40078,13.88678],[-90.4057,13.89494],[-90.41492,13.89529],[-90.438,13.90519],[-90.439,13.91035],[-90.44694,13.9076],[-90.46345,13.9164],[-90.47163,13.91545],[-90.47817,13.91978],[-90.48716,13.91729],[-90.47718,13.91397],[-90.47147,13.9058],[-90.47797,13.90175],[-90.48337,13.90244],[-90.47639,13.89001],[-90.4204,13.87617],[-90.40815,13.86432],[-90.39826,13.86461],[-90.38244,13.8535],[-90.352,13.84261],[-90.35283,13.83939],[-90.44175,13.87562],[-90.54605,13.90733],[-90.64762,13.92494],[-90.71139,13.92761],[-90.70236,13.93422],[-90.6195,13.92865],[-90.62221,13.93461],[-90.64088,13.93994],[-90.64238,13.94639],[-90.63607,13.9462],[-90.63259,13.95068],[-90.64129,13.95063],[-90.64652,13.95544],[-90.65233,13.95409],[-90.65363,13.95642],[-90.65924,13.94926],[-90.66911,13.95077],[-90.66478,13.94815],[-90.66383,13.93823],[-90.66807,13.93621],[-90.70233,13.93782],[-90.70616,13.93722],[-90.7119,13.92968],[-90.71901,13.93039],[-90.71556,13.9328],[-90.71763,13.93668],[-90.74349,13.93473],[-90.74501,13.9408],[-90.73578,13.94149],[-90.73519,13.94702],[-90.72623,13.9468],[-90.73463,13.95075],[-90.73709,13.94214],[-90.74685,13.94095],[-90.74245,13.92798],[-90.74855,13.92847],[-90.75053,13.93253],[-90.76064,13.93296],[-90.762,13.92872],[-90.77314,13.92213],[-90.78553,13.92224],[-90.78784,13.92819],[-90.79153,13.92848],[-90.79052,13.92435],[-90.80106,13.92419],[-90.80109,13.9211],[-90.79187,13.92051],[-90.79163,13.91766],[-90.80324,13.91738],[-90.8054,13.92629],[-90.80913,13.9222],[-90.81715,13.92369],[-90.8164,13.92007],[-90.80942,13.91911],[-90.81036,13.91719],[-90.90612,13.91095],[-90.91243,13.928],[-90.91704,13.9283],[-90.9208,13.92034],[-90.93133,13.92224],[-90.94007,13.91806],[-90.91912,13.91724],[-90.94695,13.91477],[-90.91268,13.91448],[-90.91061,13.9115],[-90.91429,13.91115],[-91.07483,13.9153],[-91.07612,13.91892],[-90.99805,13.92073],[-91.00067,13.92333],[-91.01967,13.92271],[-91.01909,13.92722],[-91.00035,13.92977],[-91.01353,13.93],[-91.01428,13.93452],[-91.02167,13.93458],[-91.02528,13.94414],[-91.03645,13.94886],[-91.04029,13.94658],[-91.04423,13.94867],[-91.05326,13.94088],[-91.05638,13.94542],[-91.06613,13.9473],[-91.06523,13.94395],[-91.07058,13.93549],[-91.07893,13.93117],[-91.07882,13.92706],[-91.07118,13.92596],[-91.07187,13.92313],[-91.08029,13.92449],[-91.08524,13.93148],[-91.09343,13.93025],[-91.0979,13.93158],[-91.09709,13.93466],[-91.10342,13.9342],[-91.10377,13.93986],[-91.10811,13.94054],[-91.11714,13.9334],[-91.12135,13.93459],[-91.12237,13.93872],[-91.12528,13.93798],[-91.12411,13.93565],[-91.1285,13.93066],[-91.11704,13.92968],[-91.11378,13.92513],[-91.11216,13.92923],[-91.08343,13.92799],[-91.0848,13.92169],[-91.10269,13.92634],[-91.11378,13.92462],[-91.18414,13.93082],[-91.1768,13.92549],[-91.15781,13.92559],[-91.15704,13.92315],[-91.09091,13.91594],[-91.21841,13.93082],[-91.23548,13.94189],[-91.24261,13.94052],[-91.24575,13.94428],[-91.25128,13.94497],[-91.25448,13.94087],[-91.24722,13.9412],[-91.24685,13.93888],[-91.28662,13.94586],[-91.29003,13.94833],[-91.28628,13.95642],[-91.30108,13.95176],[-91.32583,13.95747],[-91.33213,13.96176],[-91.3232,13.95693],[-91.31713,13.95765],[-91.32923,13.96303],[-91.35082,13.96755],[-91.47497,14.0204],[-91.46786,14.01972],[-91.43788,14.00523],[-91.43388,14.01048],[-91.43598,14.01294],[-91.44523,14.01068],[-91.46177,14.02225],[-91.46232,14.01852],[-91.47034,14.02385],[-91.49419,14.02826],[-91.53709,14.04412],[-91.53918,14.04746],[-91.5323,14.04961],[-91.5303,14.05427],[-91.53041,14.05797],[-91.53791,14.06188],[-91.53151,14.06977],[-91.53224,14.08194],[-91.51643,14.09705],[-91.50969,14.09932],[-91.51096,14.1068],[-91.50502,14.11135],[-91.51268,14.10655],[-91.51008,14.09958],[-91.51722,14.09757],[-91.52061,14.09123],[-91.53315,14.08324],[-91.5315,14.07318],[-91.53923,14.06188],[-91.53228,14.05736],[-91.53203,14.05283],[-91.53917,14.0494],[-91.54654,14.0524],[-91.5485,14.05654],[-91.5461,14.06064],[-91.55253,14.06481],[-91.55406,14.07357],[-91.55881,14.07386],[-91.55871,14.08957],[-91.5623,14.09058],[-91.56286,14.07939],[-91.56646,14.07545],[-91.56854,14.07984],[-91.57184,14.07935],[-91.57044,14.07174],[-91.55018,14.06222],[-91.55038,14.05114],[-91.54526,14.04659],[-91.61363,14.08732],[-91.6078,14.09025],[-91.59725,14.0889],[-91.59668,14.09585],[-91.59018,14.10238],[-91.59133,14.10702],[-91.59826,14.09702],[-91.6033,14.09344],[-91.60605,14.09578],[-91.59691,14.10255],[-91.59966,14.10605],[-91.60536,14.10118],[-91.60625,14.10763],[-91.60633,14.11459],[-91.6005,14.11842],[-91.5999,14.12975],[-91.60519,14.12952],[-91.60207,14.12101],[-91.61,14.11937],[-91.61415,14.11025],[-91.61197,14.10019],[-91.61434,14.10046],[-91.61378,14.10613],[-91.61856,14.10126],[-91.61874,14.09302],[-91.61441,14.08835],[-91.66212,14.11946],[-91.66173,14.1225],[-91.65672,14.12015],[-91.653,14.12387],[-91.65011,14.12269],[-91.65009,14.12567],[-91.65525,14.12594],[-91.65481,14.13174],[-91.64451,14.13142],[-91.64608,14.13401],[-91.65585,14.13316],[-91.65735,14.12544],[-91.66053,14.12591],[-91.65902,14.13369],[-91.66264,14.1328],[-91.66023,14.13009],[-91.66462,14.12419],[-91.66538,14.12973],[-91.67513,14.13249],[-91.67042,14.12436],[-91.71251,14.15138],[-91.71329,14.15447],[-91.68776,14.13887],[-91.68142,14.13961],[-91.67907,14.13585],[-91.67431,14.13532],[-91.67192,14.14021],[-91.68127,14.14387],[-91.69039,14.14224],[-91.68971,14.14571],[-91.68535,14.14569],[-91.68583,14.15445],[-91.67574,14.16431],[-91.67756,14.16883],[-91.68989,14.15731],[-91.68364,14.16732],[-91.68654,14.16863],[-91.6853,14.17764],[-91.69198,14.16273],[-91.69687,14.16224],[-91.69427,14.15798],[-91.69984,14.15092],[-91.7039,14.15687],[-91.70345,14.16575],[-91.70636,14.1659],[-91.70406,14.1512],[-91.7238,14.16342],[-91.72802,14.16357],[-91.72356,14.15814],[-91.74305,14.16931],[-91.74145,14.17123],[-91.74525,14.17615],[-91.75065,14.17876],[-91.75008,14.18558],[-91.74097,14.18566],[-91.74068,14.18978],[-91.7317,14.19077],[-91.72704,14.19757],[-91.7186,14.19469],[-91.71437,14.1966],[-91.71606,14.20202],[-91.71872,14.19662],[-91.72913,14.20157],[-91.73459,14.19387],[-91.73842,14.19248],[-91.74092,14.19545],[-91.7469,14.1875],[-91.76354,14.18642],[-91.75209,14.18057],[-91.74962,14.17399],[-91.76831,14.1831],[-91.76801,14.19044],[-91.77358,14.18558],[-91.78202,14.18858],[-91.78322,14.19096],[-91.77762,14.19666],[-91.78623,14.19169],[-91.79412,14.19611],[-91.81909,14.22059],[-91.85592,14.24911],[-91.85246,14.25308],[-91.84323,14.25355],[-91.84109,14.25625],[-91.85881,14.25376],[-91.85597,14.26456],[-91.85835,14.26535],[-91.86012,14.25376],[-91.86342,14.25481],[-91.89514,14.27789],[-91.88452,14.28699],[-91.88663,14.28944],[-91.89909,14.28073],[-91.91752,14.29371],[-91.91047,14.30347],[-91.91005,14.30682],[-91.91574,14.30787],[-91.91108,14.31455],[-91.91612,14.30865],[-91.92405,14.30842],[-91.92136,14.31923],[-91.92857,14.30265],[-91.95859,14.32571],[-91.95369,14.3284],[-91.95168,14.33393],[-91.96082,14.32843],[-91.97385,14.33892],[-91.96853,14.34779],[-91.9606,14.34788],[-91.9635,14.35124],[-91.97301,14.34935],[-91.97727,14.34203],[-91.98438,14.34785],[-91.98489,14.35314],[-91.97959,14.35595],[-91.98086,14.36832],[-91.95205,14.36742],[-91.94731,14.36405],[-91.94465,14.36687],[-91.95151,14.37051],[-91.98216,14.37115],[-91.98561,14.36886],[-91.98697,14.35972],[-91.99346,14.35717],[-92.03774,14.39191],[-92.02729,14.38694],[-92.02675,14.39042],[-92.03386,14.39573],[-92.02779,14.39454],[-92.02749,14.40124],[-92.01614,14.39784],[-91.99934,14.40228],[-91.99892,14.40795],[-92.02351,14.40626],[-92.02032,14.40997],[-92.01001,14.4107],[-92.0084,14.41598],[-92.01078,14.41547],[-92.01219,14.42449],[-92.00847,14.4286],[-92.00964,14.43415],[-92.01628,14.42593],[-92.01513,14.41832],[-92.02003,14.41551],[-92.02636,14.41837],[-92.03089,14.4104],[-92.0388,14.41584],[-92.02634,14.42365],[-92.02977,14.42611],[-92.02828,14.43023],[-92.02341,14.42866],[-92.02287,14.43072],[-92.02684,14.43061],[-92.02351,14.43588],[-92.0382,14.43272],[-92.03818,14.43632],[-92.04138,14.43054],[-92.04481,14.43158],[-92.04254,14.43853],[-92.02041,14.44926],[-92.02143,14.4579],[-92.02528,14.45469],[-92.02358,14.45057],[-92.03788,14.44573],[-92.04659,14.44795],[-92.05428,14.44296],[-92.05954,14.44904],[-92.06048,14.44557],[-92.06458,14.44493],[-92.07409,14.44781],[-92.07801,14.46006],[-92.0772,14.46328],[-92.07403,14.46223],[-92.07505,14.47113],[-92.07821,14.47488],[-92.09407,14.47532],[-92.09288,14.47738],[-92.09829,14.47856],[-92.10157,14.48514],[-92.09916,14.49235],[-92.10114,14.49468],[-92.11651,14.48547],[-92.12325,14.4878],[-92.13663,14.4827],[-92.13222,14.49273],[-92.14423,14.4969],[-92.14394,14.50385],[-92.13042,14.51411],[-92.15927,14.50649],[-92.16539,14.498],[-92.16523,14.50445],[-92.17964,14.50566],[-92.18495,14.50105],[-92.17702,14.49805],[-92.18099,14.4969],[-92.18812,14.50143],[-92.18439,14.50748],[-92.19313,14.50519],[-92.22742,14.53171],[-92.22033,14.53643],[-92.21523,14.55576],[-92.18376,14.57556],[-92.17559,14.61118],[-92.18186,14.61586],[-92.18026,14.62294],[-92.17351,14.62734],[-92.17254,14.63479],[-92.16306,14.64969],[-92.14993,14.65453],[-92.14689,14.65939],[-92.14722,14.67945],[-92.1432,14.68841],[-92.14679,14.69692],[-92.14532,14.70692],[-92.1567,14.73529],[-92.17081,14.74752],[-92.16937,14.75495],[-92.16266,14.76032],[-92.15915,14.77037],[-92.17835,14.80285],[-92.1792,14.81074],[-92.1764,14.81379],[-92.18405,14.82568],[-92.18019,14.83361],[-92.18182,14.84575],[-92.17213,14.85612],[-92.172,14.85985],[-92.16014,14.86264],[-92.15558,14.86782],[-92.14984,14.86738],[-92.14287,14.87498],[-92.14327,14.88207],[-92.13636,14.88726],[-92.13722,14.89674],[-92.14535,14.91144],[-92.14083,14.92078],[-92.14421,14.92919],[-92.14392,14.94202],[-92.14939,14.94896],[-92.14492,14.97468],[-92.15119,14.98424],[-92.15003,14.98942],[-92.13992,14.99393],[-92.13923,15.00271],[-92.12731,15.01582],[-92.12134,15.01219],[-92.11756,15.01561],[-92.1105,15.01126],[-92.09865,15.01081],[-92.09763,15.01505],[-92.08619,15.02131],[-92.08048,15.02865],[-92.077,15.04632],[-92.07292,15.04447],[-92.06898,15.05207],[-92.07314,15.06349],[-92.05938,15.0709],[-92.21049,15.2607],[-91.73156,16.07394],[-90.44833,16.07393]],[[-88.54596,15.53558],[-88.53646,15.54892],[-88.52052,15.54955],[-88.49564,15.56363],[-88.49246,15.56404],[-88.48762,15.55673],[-88.47991,15.55639],[-88.4811,15.57313],[-88.48536,15.57516],[-88.47957,15.58267],[-88.47621,15.59596],[-88.47294,15.58439],[-88.46843,15.58506],[-88.47044,15.60617],[-88.46672,15.60645],[-88.45789,15.59891],[-88.45232,15.60011],[-88.44995,15.60322],[-88.45295,15.61376],[-88.44466,15.60711],[-88.43529,15.61593],[-88.42307,15.63714],[-88.41883,15.63819],[-88.4124,15.63115],[-88.40683,15.63286],[-88.40188,15.64719],[-88.39233,15.65021],[-88.38918,15.65616],[-88.37693,15.6536],[-88.38892,15.65732],[-88.39472,15.65007],[-88.40347,15.64718],[-88.405,15.637],[-88.41028,15.63245],[-88.42096,15.6396],[-88.42467,15.6379],[-88.44229,15.60958],[-88.45296,15.61505],[-88.4518,15.60192],[-88.46137,15.6016],[-88.46991,15.60733],[-88.47294,15.60332],[-88.4691,15.58686],[-88.47215,15.58542],[-88.47342,15.59585],[-88.47754,15.59646],[-88.47945,15.58422],[-88.48669,15.57464],[-88.48202,15.57209],[-88.48151,15.55677],[-88.48523,15.5561],[-88.49327,15.5657],[-88.52159,15.55031],[-88.53938,15.54877],[-88.54597,15.53655],[-88.55388,15.53386],[-88.55749,15.53654],[-88.55422,15.54403],[-88.56352,15.54435],[-88.57818,15.55043],[-88.59013,15.5488],[-88.60213,15.55412],[-88.62176,15.55102],[-88.62538,15.55511],[-88.63613,15.5531],[-88.65226,15.54409],[-88.67349,15.54033],[-88.67492,15.53722],[-88.66887,15.52723],[-88.69601,15.53281],[-88.70207,15.52659],[-88.72225,15.52566],[-88.73465,15.51513],[-88.75353,15.5182],[-88.76808,15.5101],[-88.78221,15.51642],[-88.79196,15.50784],[-88.7856,15.50931],[-88.78158,15.51561],[-88.76753,15.50881],[-88.753,15.51743],[-88.73517,15.51422],[-88.72541,15.52228],[-88.70391,15.52503],[-88.69335,15.53258],[-88.66912,15.52594],[-88.67269,15.53982],[-88.64934,15.54399],[-88.62576,15.55292],[-88.62123,15.55038],[-88.60664,15.55344],[-88.58693,15.54779],[-88.57499,15.54929],[-88.56698,15.54394],[-88.55581,15.54312],[-88.5576,15.53371],[-88.54596,15.53558]]],[[[-88.8289,15.77913],[-88.83324,15.78836],[-88.82535,15.78328],[-88.82466,15.78096],[-88.8289,15.77913]]],[[[-88.88459,15.7429],[-88.88843,15.74488],[-88.88082,15.74919],[-88.8794,15.74612],[-88.88459,15.7429]]],[[[-90.12899,13.7465],[-90.12301,13.74344],[-90.12599,13.74265],[-90.12899,13.7465]]],[[[-90.21777,13.78134],[-90.23734,13.78954],[-90.20967,13.78092],[-90.21023,13.77835],[-90.21777,13.78134]]],[[[-90.44479,13.8875],[-90.44817,13.89139],[-90.44632,13.89189],[-90.44479,13.8875]]],[[[-90.44881,13.8926],[-90.45349,13.88694],[-90.45549,13.89714],[-90.44881,13.8926]]],[[[-90.4679,13.89495],[-90.46654,13.89854],[-90.45759,13.89794],[-90.4679,13.89495]]],[[[-90.63673,13.93308],[-90.65805,13.93638],[-90.65803,13.93843],[-90.63673,13.93308]]],[[[-90.74921,13.92539],[-90.72299,13.9281],[-90.72511,13.92619],[-90.74921,13.92539]]],[[[-91.05817,13.92161],[-91.06788,13.92619],[-91.02174,13.92659],[-91.02204,13.9217],[-91.05817,13.92161]]],[[[-92.03835,14.39703],[-92.04177,14.40117],[-92.03754,14.4009],[-92.03835,14.39703]]],[[[-92.04465,14.40697],[-92.05111,14.41048],[-92.04488,14.41548],[-92.04265,14.41252],[-92.04465,14.40697]]],[[[-92.05521,14.41205],[-92.05517,14.42055],[-92.04987,14.4231],[-92.04565,14.41999],[-92.0458,14.41716],[-92.05521,14.41205]]],[[[-92.05602,14.40612],[-92.08673,14.42866],[-92.07749,14.42606],[-92.09158,14.43911],[-92.06628,14.41891],[-92.06124,14.42263],[-92.05602,14.40612]]],[[[-92.06863,14.42485],[-92.07167,14.42706],[-92.06928,14.42833],[-92.06863,14.42485]]],[[[-92.16455,14.49041],[-92.15877,14.48992],[-92.11795,14.45712],[-92.1061,14.44291],[-92.17704,14.49482],[-92.17372,14.49752],[-92.16455,14.49041]]],[[[-92.10872,14.4509],[-92.11571,14.45479],[-92.11477,14.45698],[-92.10872,14.4509]]]]}}]}