{"type":"FeatureCollection","features":[{"type":"Feature","properties":{"ISO_A3":"GUY","WB_A3":"GUY","WB_NAME":"Guyana","WB_REGION":"LCN"},"geometry":{"type":"MultiPolygon","coordinates":[[[[-60.12378,8.02097],[-60.12287,8.02908],[-60.10286,8.03033],[-60.10216,8.03432],[-60.09485,8.03575],[-60.08749,8.03548],[-60.08289,8.03019],[-60.07775,8.03229],[-60.06068,8.02358],[-60.04882,8.02738],[-60.04162,8.0363],[-60.03299,8.0336],[-60.02262,8.04711],[-60.00794,8.05819],[-60.0076,8.07158],[-60.00033,8.07622],[-60.00081,8.09681],[-59.99493,8.11867],[-59.98044,8.13375],[-59.98241,8.1406],[-59.99451,8.15429],[-59.98262,8.1693],[-59.9777,8.18619],[-59.94742,8.19612],[-59.94538,8.21362],[-59.84506,8.22446],[-59.83012,8.23955],[-59.82031,8.2634],[-59.80578,8.27131],[-59.8066,8.27883],[-59.81859,8.29542],[-59.80692,8.30365],[-59.75977,8.27056],[-59.74953,8.24772],[-59.74269,8.21197],[-59.75618,8.19978],[-59.76474,8.1853],[-59.74732,8.20782],[-59.74191,8.21121],[-59.72951,8.2118],[-59.70582,8.1875],[-59.68068,8.17542],[-59.67243,8.18051],[-59.64764,8.1796],[-59.6093,8.17036],[-59.59426,8.16248],[-59.61086,8.17151],[-59.64011,8.17866],[-59.66649,8.18119],[-59.68056,8.17737],[-59.68819,8.17912],[-59.70505,8.18802],[-59.72822,8.21233],[-59.74033,8.2129],[-59.74641,8.24439],[-59.76009,8.27377],[-59.76115,8.28408],[-59.73992,8.31602],[-59.74299,8.32081],[-59.78208,8.34576],[-59.78089,8.35179],[-59.76771,8.35179],[-59.74894,8.33719],[-59.73503,8.33309],[-59.72043,8.32328],[-59.70991,8.3134],[-59.70667,8.30466],[-59.69961,8.30008],[-59.67317,8.29591],[-59.6459,8.27198],[-59.62493,8.268],[-59.61386,8.25378],[-59.61302,8.24451],[-59.60612,8.23812],[-59.57717,8.23844],[-59.54484,8.23375],[-59.53911,8.23038],[-59.50374,8.19498],[-59.45126,8.15332],[-59.43821,8.13254],[-59.42603,8.12759],[-59.39584,8.13614],[-59.3808,8.12824],[-59.373,8.12006],[-59.36526,8.10051],[-59.35002,8.08051],[-59.34147,8.07578],[-59.32493,8.07692],[-59.30317,8.06738],[-59.2942,8.05893],[-59.2779,8.03275],[-59.24694,8.01797],[-59.24535,8.01103],[-59.25004,7.99151],[-59.23859,7.95594],[-59.24232,7.93835],[-59.241,7.90783],[-59.21769,7.84116],[-59.21929,7.85884],[-59.23041,7.87818],[-59.24015,7.90984],[-59.2373,7.95749],[-59.24766,7.98603],[-59.24404,8.00923],[-59.24682,8.02004],[-59.2761,8.03379],[-59.29305,8.061],[-59.30603,8.07136],[-59.32339,8.07873],[-59.33915,8.07787],[-59.3477,8.08104],[-59.36372,8.10233],[-59.37026,8.11984],[-59.38393,8.13312],[-59.40388,8.14086],[-59.43538,8.13397],[-59.44947,8.15591],[-59.49415,8.19131],[-59.53631,8.23311],[-59.60542,8.2492],[-59.6195,8.2679],[-59.648,8.27699],[-59.67403,8.30269],[-59.70177,8.31358],[-59.72361,8.33081],[-59.75293,8.34632],[-59.77244,8.36369],[-59.80349,8.38169],[-59.81583,8.39197],[-59.81201,8.39998],[-59.80427,8.40325],[-59.76781,8.40312],[-59.74267,8.39519],[-59.6783,8.36061],[-59.59624,8.30669],[-59.45746,8.23648],[-59.40321,8.20075],[-59.29608,8.13981],[-59.25819,8.11336],[-59.21412,8.0908],[-59.18894,8.07136],[-59.15939,8.05644],[-59.12255,8.02868],[-59.07969,7.98717],[-59.03887,7.93829],[-59.0155,7.91663],[-58.99028,7.88403],[-58.96588,7.85967],[-58.93622,7.81729],[-58.92405,7.81117],[-58.91339,7.79498],[-58.89266,7.78271],[-58.86941,7.75369],[-58.85478,7.74512],[-58.84625,7.74426],[-58.8307,7.73196],[-58.81457,7.706],[-58.80725,7.68593],[-58.79415,7.67182],[-58.79503,7.6655],[-58.78699,7.65896],[-58.78514,7.64918],[-58.78127,7.64816],[-58.76749,7.62709],[-58.75133,7.622],[-58.74788,7.60089],[-58.73582,7.58857],[-58.72711,7.57185],[-58.72075,7.56376],[-58.70419,7.55622],[-58.67648,7.53687],[-58.65366,7.51169],[-58.64313,7.49203],[-58.62201,7.47059],[-58.61603,7.45889],[-58.61112,7.42411],[-58.61285,7.40272],[-58.59771,7.39142],[-58.59627,7.3868],[-58.62626,7.3635],[-58.6306,7.34982],[-58.64166,7.34025],[-58.64601,7.32993],[-58.65532,7.33028],[-58.66278,7.326],[-58.6688,7.31412],[-58.66679,7.29454],[-58.68252,7.28985],[-58.68726,7.28055],[-58.68097,7.29024],[-58.66602,7.29468],[-58.66802,7.31335],[-58.66522,7.32211],[-58.65556,7.3295],[-58.64485,7.33019],[-58.64063,7.34],[-58.62854,7.35164],[-58.62651,7.36195],[-58.61288,7.37476],[-58.59665,7.3837],[-58.59603,7.3904],[-58.61208,7.40401],[-58.61034,7.42283],[-58.61916,7.46867],[-58.63951,7.48921],[-58.64939,7.50721],[-58.67623,7.53778],[-58.72205,7.56801],[-58.72987,7.58447],[-58.74621,7.60321],[-58.74835,7.62408],[-58.7246,7.62314],[-58.72588,7.6203],[-58.72097,7.62019],[-58.71112,7.6116],[-58.69613,7.60908],[-58.67335,7.59396],[-58.63826,7.53534],[-58.61491,7.50632],[-58.60092,7.49425],[-58.60116,7.48832],[-58.58897,7.47509],[-58.58536,7.47523],[-58.58535,7.47111],[-58.58122,7.47241],[-58.52775,7.39271],[-58.51584,7.38206],[-58.51301,7.38361],[-58.50886,7.3804],[-58.49071,7.35624],[-58.48305,7.34157],[-58.47808,7.32175],[-58.47537,7.28207],[-58.48827,7.20342],[-58.48796,7.1877],[-58.47625,7.15732],[-58.47362,7.14161],[-58.48384,7.02792],[-58.49225,6.99594],[-58.50238,6.97748],[-58.53069,6.96025],[-58.54175,6.94913],[-58.55587,6.92615],[-58.57338,6.8815],[-58.59349,6.80464],[-58.60234,6.78991],[-58.59771,6.75231],[-58.60019,6.72241],[-58.622,6.61538],[-58.61506,6.58113],[-58.61066,6.5747],[-58.62015,6.5605],[-58.61918,6.53963],[-58.60596,6.51338],[-58.61353,6.50202],[-58.61599,6.47005],[-58.62036,6.46592],[-58.62111,6.45715],[-58.63137,6.4432],[-58.63801,6.42643],[-58.6581,6.39858],[-58.67193,6.39849],[-58.68839,6.39199],[-58.70051,6.39388],[-58.70668,6.39103],[-58.72807,6.39482],[-58.75124,6.38869],[-58.77329,6.39609],[-58.76745,6.38477],[-58.74989,6.37985],[-58.72787,6.38743],[-58.6943,6.38579],[-58.6935,6.37909],[-58.69917,6.36442],[-58.71298,6.34681],[-58.7146,6.33266],[-58.73002,6.31814],[-58.72932,6.30527],[-58.72086,6.31741],[-58.71998,6.32385],[-58.71009,6.33071],[-58.70783,6.32937],[-58.70787,6.32183],[-58.71493,6.31408],[-58.71178,6.30227],[-58.71693,6.29758],[-58.71522,6.29295],[-58.72171,6.28429],[-58.72151,6.28017],[-58.71842,6.27953],[-58.70856,6.2976],[-58.71126,6.31478],[-58.70528,6.319],[-58.70618,6.33835],[-58.69908,6.35278],[-58.67021,6.38612],[-58.64281,6.39444],[-58.63521,6.40041],[-58.63178,6.41047],[-58.62018,6.40986],[-58.61734,6.40588],[-58.62027,6.39504],[-58.61503,6.36954],[-58.60933,6.35771],[-58.60932,6.3541],[-58.61459,6.34996],[-58.61417,6.34146],[-58.59893,6.32682],[-58.59116,6.31138],[-58.58112,6.27172],[-58.5727,6.25499],[-58.58474,6.23331],[-58.5865,6.22042],[-58.57844,6.19493],[-58.58197,6.16785],[-58.57316,6.15061],[-58.58061,6.14312],[-58.57917,6.13255],[-58.5858,6.12805],[-58.58607,6.11965],[-58.59199,6.11834],[-58.59455,6.11421],[-58.59388,6.10676],[-58.58794,6.09917],[-58.5878,6.09568],[-58.59541,6.09091],[-58.58953,6.06835],[-58.59879,6.06742],[-58.6057,6.0531],[-58.59342,6.03741],[-58.59715,6.03431],[-58.59752,6.02761],[-58.58075,6.01606],[-58.58197,5.99312],[-58.58607,5.98589],[-58.59047,5.9498],[-58.57812,5.90602],[-58.58698,5.89839],[-58.58927,5.8918],[-58.58029,5.89944],[-58.58181,5.89325],[-58.58747,5.8913],[-58.59375,5.88252],[-58.59693,5.86524],[-58.59632,5.83676],[-58.6139,5.817],[-58.61254,5.79227],[-58.61611,5.78169],[-58.60858,5.75156],[-58.61442,5.73015],[-58.60896,5.70723],[-58.61073,5.69666],[-58.61624,5.69175],[-58.61786,5.67086],[-58.61359,5.66095],[-58.6074,5.65801],[-58.60314,5.6508],[-58.60912,5.62604],[-58.60716,5.61703],[-58.61034,5.60491],[-58.61701,5.59664],[-58.62312,5.57317],[-58.62888,5.56388],[-58.6191,5.56004],[-58.60917,5.59769],[-58.6047,5.60943],[-58.60084,5.61138],[-58.60127,5.6271],[-58.59488,5.64438],[-58.59879,5.65906],[-58.6091,5.66599],[-58.60951,5.67372],[-58.59995,5.70673],[-58.60101,5.71936],[-58.60619,5.73172],[-58.60045,5.74746],[-58.59831,5.7655],[-58.60201,5.79874],[-58.58476,5.84676],[-58.5901,5.86655],[-58.57148,5.89926],[-58.55386,5.91866],[-58.55206,5.93109],[-58.55484,5.94289],[-58.56334,5.95182],[-58.56605,5.96043],[-58.56298,5.96895],[-58.55103,5.97697],[-58.55003,5.98419],[-58.55558,5.99165],[-58.56486,5.99447],[-58.56709,6.00966],[-58.56417,6.01946],[-58.57255,6.03052],[-58.56883,6.03131],[-58.57141,6.0367],[-58.57664,6.03222],[-58.57862,6.03617],[-58.57787,6.0439],[-58.57124,6.04948],[-58.5712,6.05346],[-58.5806,6.06099],[-58.57819,6.06632],[-58.58311,6.06833],[-58.58184,6.07984],[-58.5758,6.08308],[-58.57851,6.0872],[-58.57531,6.09133],[-58.57753,6.10292],[-58.5805,6.10729],[-58.57292,6.11092],[-58.57081,6.12303],[-58.5623,6.13415],[-58.56647,6.15244],[-58.56575,6.1692],[-58.57065,6.17175],[-58.56539,6.1777],[-58.56277,6.20735],[-58.5642,6.21458],[-58.57235,6.22432],[-58.57399,6.24413],[-58.56688,6.2487],[-58.55842,6.26199],[-58.55771,6.29265],[-58.55956,6.29717],[-58.57154,6.3044],[-58.57674,6.31529],[-58.58643,6.32402],[-58.58878,6.33638],[-58.58689,6.34799],[-58.59102,6.35478],[-58.59392,6.37245],[-58.59972,6.37628],[-58.5937,6.38547],[-58.58849,6.40751],[-58.59437,6.43378],[-58.58376,6.46139],[-58.58614,6.48432],[-58.58051,6.49233],[-58.58078,6.49813],[-58.57731,6.49956],[-58.57516,6.51142],[-58.58407,6.54467],[-58.57917,6.55831],[-58.57972,6.57068],[-58.57371,6.58436],[-58.57054,6.64183],[-58.55996,6.6795],[-58.5438,6.70274],[-58.53711,6.70766],[-58.51763,6.74304],[-58.50786,6.75105],[-58.50214,6.77607],[-58.49149,6.79543],[-58.46452,6.82876],[-58.44548,6.84145],[-58.42337,6.86419],[-58.38394,6.87359],[-58.36795,6.8744],[-58.35071,6.88283],[-58.31175,6.88268],[-58.28516,6.87322],[-58.28156,6.87503],[-58.26012,6.86413],[-58.23739,6.85105],[-58.21698,6.83422],[-58.20846,6.83179],[-58.2025,6.82124],[-58.19243,6.81353],[-58.18986,6.81637],[-58.17682,6.81125],[-58.17847,6.80172],[-58.19747,6.7644],[-58.20549,6.72458],[-58.20417,6.71326],[-58.19224,6.6831],[-58.21698,6.6275],[-58.22319,6.5927],[-58.23357,6.56186],[-58.23793,6.55334],[-58.26955,6.51872],[-58.29679,6.49107],[-58.313,6.47943],[-58.31593,6.46834],[-58.31358,6.45263],[-58.29575,6.43669],[-58.293,6.41814],[-58.29449,6.40035],[-58.31479,6.37401],[-58.31606,6.36782],[-58.31216,6.35236],[-58.31417,6.33457],[-58.30384,6.32133],[-58.26847,6.29319],[-58.26832,6.28391],[-58.27422,6.27178],[-58.27395,6.25754],[-58.28716,6.24417],[-58.30188,6.20779],[-58.2821,6.19861],[-58.27863,6.18027],[-58.28014,6.16583],[-58.25974,6.14216],[-58.25948,6.1383],[-58.26872,6.11309],[-58.29657,6.08756],[-58.3013,6.07608],[-58.30256,6.06525],[-58.2904,6.0377],[-58.29193,6.03177],[-58.2995,6.02428],[-58.30782,6.00235],[-58.30071,5.99102],[-58.28537,5.9792],[-58.28084,5.97071],[-58.28854,5.96038],[-58.31388,5.96927],[-58.32562,5.96209],[-58.3234,5.95024],[-58.31075,5.93661],[-58.32199,5.95128],[-58.32536,5.96106],[-58.31548,5.96817],[-58.28982,5.95857],[-58.2795,5.97011],[-58.28653,5.98229],[-58.3033,5.9954],[-58.30679,6.00158],[-58.29822,6.02401],[-58.28898,6.03667],[-58.30127,6.06448],[-58.29989,6.07763],[-58.29682,6.08563],[-58.26855,6.1107],[-58.25844,6.1365],[-58.25962,6.14448],[-58.2786,6.16583],[-58.28,6.19726],[-58.285,6.20242],[-58.29505,6.2042],[-58.29957,6.2096],[-58.28972,6.23772],[-58.2725,6.25786],[-58.27281,6.2736],[-58.26689,6.28907],[-58.27106,6.2986],[-58.301,6.32043],[-58.31169,6.33304],[-58.30959,6.35495],[-58.31298,6.37247],[-58.29065,6.40474],[-58.29291,6.43515],[-58.31178,6.45495],[-58.31132,6.47634],[-58.29652,6.48579],[-58.24202,6.53786],[-58.23252,6.55155],[-58.21316,6.59413],[-58.20679,6.62559],[-58.19139,6.65449],[-58.18515,6.68364],[-58.19493,6.72898],[-58.1861,6.75529],[-58.17634,6.77271],[-58.16383,6.82649],[-58.11974,6.82672],[-58.09162,6.82317],[-58.05239,6.81231],[-58.04516,6.80549],[-58.02167,6.79901],[-57.95452,6.74626],[-57.92377,6.71436],[-57.9201,6.7052],[-57.91809,6.70831],[-57.89667,6.69481],[-57.81404,6.622],[-57.79918,6.60089],[-57.79981,6.59315],[-57.78795,6.59188],[-57.76627,6.57413],[-57.74458,6.54864],[-57.73863,6.53421],[-57.7336,6.53242],[-57.73419,6.52127],[-57.72936,6.51595],[-57.73263,6.52409],[-57.73245,6.53706],[-57.7291,6.53706],[-57.69994,6.51622],[-57.6509,6.46421],[-57.63981,6.45907],[-57.59258,6.40009],[-57.59554,6.39932],[-57.59476,6.39597],[-57.58301,6.37639],[-57.56506,6.33232],[-57.53589,6.28569],[-57.53343,6.27177],[-57.53971,6.23928],[-57.53349,6.20345],[-57.53566,6.19004],[-57.58924,6.1887],[-57.61938,6.18312],[-57.62633,6.17976],[-57.63983,6.15796],[-57.63646,6.1394],[-57.62678,6.12678],[-57.63127,6.11234],[-57.62816,6.09455],[-57.62236,6.08941],[-57.59918,6.08505],[-57.58951,6.07526],[-57.60969,6.04972],[-57.63641,5.9922],[-57.63996,5.98931],[-57.64877,5.99051],[-57.66012,6.01073],[-57.68821,6.02217],[-57.69876,6.01816],[-57.70235,6.0081],[-57.71289,5.99468],[-57.71004,5.98257],[-57.69716,5.97885],[-57.68337,5.96507],[-57.67949,5.94574],[-57.68152,5.9215],[-57.65598,5.8857],[-57.65519,5.8674],[-57.65892,5.86443],[-57.67076,5.86416],[-57.67694,5.85964],[-57.68013,5.84339],[-57.65578,5.82125],[-57.64945,5.80373],[-57.64443,5.79716],[-57.63438,5.79343],[-57.6327,5.78493],[-57.63977,5.78066],[-57.65342,5.78271],[-57.66783,5.77844],[-57.66099,5.76195],[-57.66355,5.75138],[-57.68581,5.74516],[-57.69285,5.74596],[-57.71877,5.76007],[-57.73077,5.78378],[-57.72808,5.79113],[-57.7192,5.79488],[-57.72011,5.79874],[-57.73093,5.80672],[-57.7384,5.8089],[-57.75666,5.79637],[-57.76051,5.78992],[-57.75934,5.78425],[-57.74814,5.78143],[-57.74389,5.77345],[-57.75623,5.76647],[-57.75957,5.75951],[-57.74357,5.72627],[-57.75218,5.7202],[-57.76686,5.72611],[-57.78332,5.71513],[-57.77339,5.70045],[-57.78379,5.68884],[-57.77875,5.67131],[-57.77886,5.65301],[-57.78812,5.6499],[-57.81618,5.65734],[-57.80255,5.66831],[-57.80282,5.67308],[-57.82111,5.68904],[-57.83501,5.69276],[-57.83785,5.69649],[-57.86098,5.67661],[-57.86778,5.66242],[-57.86055,5.64619],[-57.87272,5.60931],[-57.89456,5.58556],[-57.91179,5.58489],[-57.92182,5.57675],[-57.92398,5.56412],[-57.92011,5.55252],[-57.91267,5.5435],[-57.92819,5.54091],[-57.93063,5.53497],[-57.92353,5.51926],[-57.92416,5.5141],[-57.92276,5.51978],[-57.92856,5.52802],[-57.92896,5.53755],[-57.92639,5.54065],[-57.912,5.5424],[-57.9227,5.56386],[-57.92072,5.57654],[-57.91076,5.58386],[-57.89404,5.58466],[-57.87118,5.60931],[-57.85927,5.64619],[-57.86637,5.66294],[-57.85841,5.67726],[-57.83991,5.69404],[-57.81956,5.68595],[-57.80346,5.67128],[-57.81798,5.6594],[-57.81643,5.65592],[-57.784,5.64823],[-57.77641,5.65482],[-57.77773,5.67338],[-57.78264,5.68755],[-57.77325,5.69581],[-57.7721,5.702],[-57.78229,5.71436],[-57.76557,5.72508],[-57.75218,5.71891],[-57.74292,5.72421],[-57.74306,5.73168],[-57.7579,5.76131],[-57.74221,5.77293],[-57.74312,5.77912],[-57.74814,5.78298],[-57.75844,5.78503],[-57.75794,5.79199],[-57.75357,5.79676],[-57.73788,5.80736],[-57.72049,5.79668],[-57.73232,5.78816],[-57.72896,5.77295],[-57.71387,5.75402],[-57.69179,5.74403],[-57.66316,5.74931],[-57.65944,5.75989],[-57.66628,5.77406],[-57.66448,5.77806],[-57.65342,5.78091],[-57.63849,5.77912],[-57.63257,5.78196],[-57.63284,5.79421],[-57.64623,5.80193],[-57.65385,5.82151],[-57.67743,5.84262],[-57.67937,5.84752],[-57.67311,5.86051],[-57.6548,5.86456],[-57.65341,5.8839],[-57.67765,5.91738],[-57.67947,5.93388],[-57.67666,5.94858],[-57.68028,5.96353],[-57.69665,5.98091],[-57.7085,5.98502],[-57.70993,5.9934],[-57.69593,6.01739],[-57.69258,6.01778],[-57.66218,6.00918],[-57.6574,5.99604],[-57.65083,5.98857],[-57.64052,5.98639],[-57.63049,5.99349],[-57.62304,6.01232],[-57.6134,6.02548],[-57.60763,6.04379],[-57.59579,6.0554],[-57.5868,6.07191],[-57.58745,6.07733],[-57.59419,6.0851],[-57.60485,6.0911],[-57.61927,6.09199],[-57.62507,6.09662],[-57.62229,6.12637],[-57.63596,6.1559],[-57.6276,6.16958],[-57.61963,6.17629],[-57.57326,6.1735],[-57.53978,6.18011],[-57.52974,6.18721],[-57.52472,6.19701],[-57.52592,6.23156],[-57.52297,6.2509],[-57.51384,6.26174],[-57.51064,6.27824],[-57.51002,6.30685],[-57.49122,6.31835],[-57.46803,6.32043],[-57.44715,6.31491],[-57.44406,6.31001],[-57.44291,6.31749],[-57.43917,6.31801],[-57.40669,6.30643],[-57.37267,6.28325],[-57.36958,6.28674],[-57.32318,6.25686],[-57.28348,6.22401],[-57.27679,6.22144],[-57.21828,6.165],[-57.18697,6.12119],[-57.188,6.11603],[-57.1702,6.04874],[-57.16105,6.02657],[-57.15835,6.03328],[-57.14443,5.99137],[-57.14264,5.92584],[-57.13544,5.90077],[-57.13809,5.87939],[-57.14892,5.84644],[-57.16764,5.80923],[-57.17119,5.7746],[-57.18344,5.74671],[-57.17604,5.72211],[-57.16063,5.70145],[-57.16772,5.6627],[-57.16242,5.65105],[-57.16437,5.62897],[-57.17192,5.60235],[-57.19913,5.55171],[-57.22854,5.51452],[-57.25792,5.48986],[-57.26686,5.47625],[-57.27064,5.46122],[-57.26904,5.40653],[-57.27367,5.39244],[-57.28369,5.38111],[-57.32699,5.35077],[-57.3414,5.32596],[-57.3385,5.31558],[-57.32959,5.31015],[-57.29035,5.32031],[-57.28907,5.30323],[-57.29799,5.27721],[-57.29645,5.25281],[-57.29192,5.23995],[-57.27656,5.22245],[-57.25804,5.22072],[-57.2511,5.22987],[-57.26719,5.25952],[-57.26269,5.26996],[-57.25142,5.27589],[-57.22471,5.25944],[-57.21807,5.25077],[-57.21165,5.22405],[-57.18549,5.19436],[-57.18276,5.16839],[-57.19018,5.15884],[-57.21268,5.15138],[-57.2158,5.14569],[-57.21408,5.13963],[-57.22329,5.13439],[-57.2296,5.13681],[-57.23552,5.16626],[-57.25654,5.18876],[-57.28167,5.18883],[-57.29857,5.17445],[-57.30187,5.16577],[-57.30039,5.13926],[-57.32172,5.09887],[-57.32616,5.07146],[-57.32387,5.06235],[-57.29771,5.04842],[-57.28967,5.03964],[-57.28598,5.02805],[-57.29229,5.01545],[-57.30458,5.01771],[-57.30947,5.02981],[-57.31605,5.0354],[-57.32887,5.03741],[-57.338,5.03279],[-57.33828,5.0246],[-57.34349,5.01867],[-57.35895,5.01441],[-57.37999,5.01781],[-57.41328,4.99204],[-57.44202,4.99737],[-57.4761,4.99091],[-57.50844,4.99744],[-57.51375,4.99986],[-57.51889,5.01012],[-57.53279,5.01513],[-57.54295,5.01328],[-57.55254,5.00693],[-57.57447,5.00433],[-57.61656,4.99314],[-57.63931,5.00621],[-57.66446,5.00761],[-57.67352,5.01204],[-57.68593,5.00378],[-57.69844,5.00115],[-57.72794,4.97996],[-57.73936,4.9679],[-57.75089,4.96393],[-57.75515,4.9528],[-57.75157,4.93521],[-57.75771,4.9255],[-57.80368,4.9207],[-57.80932,4.92306],[-57.81576,4.93262],[-57.82802,4.93175],[-57.84971,4.91726],[-57.88204,4.88257],[-57.90401,4.84985],[-57.90631,4.84188],[-57.91856,4.83604],[-57.92248,4.83092],[-57.92713,4.81242],[-57.91689,4.78182],[-57.90795,4.77639],[-57.88808,4.77456],[-57.87169,4.76064],[-57.87185,4.74529],[-57.86765,4.73405],[-57.8696,4.72187],[-57.85939,4.715],[-57.8521,4.69747],[-57.83982,4.68509],[-57.83955,4.68193],[-57.84995,4.6726],[-57.84918,4.6532],[-57.84306,4.6503],[-57.83512,4.63898],[-57.84139,4.62214],[-57.8468,4.61835],[-57.84692,4.61331],[-57.87446,4.57618],[-57.8777,4.56214],[-57.88771,4.55071],[-57.8894,4.52256],[-57.90414,4.4942],[-57.91724,4.45623],[-57.92158,4.44829],[-57.92711,4.44638],[-57.95474,4.41668],[-57.95602,4.4046],[-57.96202,4.39651],[-57.96154,4.37074],[-57.95931,4.36123],[-57.95242,4.35595],[-57.95319,4.34677],[-57.94671,4.33032],[-57.96439,4.31602],[-57.98751,4.30953],[-57.99154,4.30549],[-57.9884,4.27706],[-58.00991,4.24554],[-58.02167,4.24213],[-58.02569,4.23363],[-58.02348,4.22225],[-58.03317,4.20884],[-58.04344,4.20089],[-58.04529,4.19773],[-58.04294,4.19169],[-58.04856,4.18312],[-58.05472,4.1812],[-58.05852,4.16837],[-58.0658,4.15919],[-58.0705,4.13171],[-58.06562,4.11694],[-58.05596,4.11141],[-58.04779,4.10003],[-58.0491,4.08464],[-58.0288,4.06945],[-58.02897,4.04825],[-58.03444,4.02754],[-58.03151,4.01758],[-58.0379,4.00844],[-58.03683,4.00104],[-58.04055,3.99197],[-58.03674,3.98665],[-58.03971,3.98222],[-58.03308,3.97519],[-58.03018,3.95931],[-58.01249,3.96176],[-58.00962,3.95929],[-58.00996,3.95309],[-57.99701,3.94847],[-57.98971,3.93462],[-57.97936,3.92586],[-57.97552,3.92616],[-57.9674,3.91621],[-57.95185,3.92093],[-57.94345,3.91996],[-57.93529,3.90396],[-57.91465,3.87976],[-57.89581,3.84401],[-57.88885,3.83879],[-57.88204,3.82218],[-57.87129,3.8152],[-57.86697,3.80564],[-57.85767,3.79697],[-57.85694,3.77866],[-57.84459,3.76553],[-57.84347,3.76055],[-57.8465,3.74365],[-57.83863,3.71306],[-57.83855,3.67992],[-57.83318,3.66421],[-57.81762,3.64925],[-57.80502,3.65078],[-57.76398,3.62334],[-57.74383,3.62591],[-57.73736,3.61705],[-57.74057,3.61181],[-57.72488,3.59848],[-57.72731,3.59222],[-57.72365,3.583],[-57.71575,3.57527],[-57.71432,3.56787],[-57.70205,3.5603],[-57.70076,3.55534],[-57.69135,3.55356],[-57.69153,3.54933],[-57.68473,3.54434],[-57.6786,3.54574],[-57.66716,3.53453],[-57.66289,3.51523],[-57.67027,3.51077],[-57.67425,3.49943],[-57.67141,3.49755],[-57.6724,3.48922],[-57.66815,3.48725],[-57.67627,3.48433],[-57.67385,3.47961],[-57.68493,3.47089],[-57.69237,3.45075],[-57.6899,3.4226],[-57.69665,3.42025],[-57.69773,3.41563],[-57.67208,3.38432],[-57.65339,3.37153],[-57.64363,3.3695],[-57.63502,3.37249],[-57.60932,3.36397],[-57.59401,3.37331],[-57.58671,3.36985],[-57.57866,3.35838],[-57.56834,3.35579],[-57.5442,3.35873],[-57.53215,3.3641],[-57.53112,3.3693],[-57.52766,3.37091],[-57.5141,3.3706],[-57.50701,3.36299],[-57.495,3.36286],[-57.49595,3.35007],[-57.48475,3.34078],[-57.46094,3.3507],[-57.45051,3.35008],[-57.44085,3.35377],[-57.44142,3.36055],[-57.42995,3.3646],[-57.42632,3.38824],[-57.41871,3.38568],[-57.40917,3.36647],[-57.39105,3.36562],[-57.33733,3.36872],[-57.31856,3.38224],[-57.3158,3.39418],[-57.30514,3.38873],[-57.30319,3.37572],[-57.29342,3.36724],[-57.29613,3.35414],[-57.2882,3.3492],[-57.28266,3.32844],[-57.28723,3.31929],[-57.28562,3.30382],[-57.29378,3.29954],[-57.30017,3.2845],[-57.2951,3.28085],[-57.29263,3.26786],[-57.28009,3.25727],[-57.28123,3.2532],[-57.29058,3.24838],[-57.28349,3.23155],[-57.30204,3.17608],[-57.29423,3.16872],[-57.27991,3.17199],[-57.27428,3.16743],[-57.27559,3.16003],[-57.29194,3.14311],[-57.29233,3.13885],[-57.28666,3.12948],[-57.26824,3.1265],[-57.26222,3.13171],[-57.25949,3.13964],[-57.24913,3.1461],[-57.24173,3.14375],[-57.23468,3.13392],[-57.25549,3.11543],[-57.2607,3.09643],[-57.24483,3.08748],[-57.22614,3.08605],[-57.22142,3.07731],[-57.20557,3.07362],[-57.20855,3.05472],[-57.19884,3.04441],[-57.19938,3.03901],[-57.19247,3.02453],[-57.1944,3.01992],[-57.20118,3.01635],[-57.226,3.0213],[-57.23065,3.01728],[-57.2047,3.00104],[-57.20649,2.99224],[-57.21287,2.98314],[-57.22495,2.97707],[-57.22342,2.97129],[-57.21496,2.96776],[-57.2201,2.96031],[-57.21917,2.94688],[-57.21514,2.94075],[-57.21113,2.94047],[-57.19792,2.95186],[-57.18098,2.95462],[-57.17558,2.94929],[-57.17335,2.94094],[-57.18541,2.91707],[-57.19767,2.91068],[-57.21395,2.90769],[-57.22271,2.89755],[-57.21977,2.89158],[-57.21093,2.88577],[-57.20846,2.87054],[-57.19499,2.86175],[-57.1912,2.85542],[-57.18986,2.84911],[-57.1985,2.84843],[-57.20402,2.83634],[-57.19739,2.83027],[-57.18214,2.83066],[-57.17059,2.82731],[-57.16802,2.82134],[-57.17406,2.81457],[-57.17232,2.80934],[-57.12377,2.82703],[-57.11641,2.82018],[-57.12032,2.80816],[-57.13642,2.7897],[-57.13443,2.77348],[-57.11796,2.77112],[-57.11232,2.7808],[-57.10634,2.77599],[-57.10531,2.76858],[-57.08683,2.766],[-57.08646,2.75983],[-57.10235,2.74065],[-57.09252,2.73338],[-57.08981,2.71845],[-57.06777,2.70173],[-57.06825,2.69071],[-57.05358,2.6804],[-57.05972,2.66792],[-57.05967,2.66081],[-57.05125,2.64105],[-57.04622,2.63882],[-57.04096,2.6489],[-57.03095,2.64476],[-57.01734,2.6463],[-57.02447,2.61259],[-57.03063,2.60275],[-57.01672,2.59262],[-57.02231,2.58132],[-57.01887,2.56952],[-57.00238,2.56582],[-57.00238,2.55748],[-56.99804,2.555],[-56.98838,2.55772],[-56.98457,2.53826],[-56.99239,2.52654],[-56.99154,2.52217],[-56.98281,2.52236],[-56.98012,2.51877],[-56.99041,2.51427],[-56.99154,2.50372],[-56.98744,2.50037],[-56.95635,2.50438],[-56.95581,2.49561],[-56.9497,2.49402],[-56.94183,2.50791],[-56.93932,2.50639],[-56.93623,2.50018],[-56.94063,2.48622],[-56.93734,2.47356],[-56.94826,2.474],[-56.95212,2.47814],[-56.95141,2.46917],[-56.93654,2.45336],[-56.93488,2.43507],[-56.92118,2.43512],[-56.91817,2.43787],[-56.91428,2.43563],[-56.91786,2.42962],[-56.92252,2.43126],[-56.91765,2.42203],[-56.93288,2.40015],[-56.92012,2.38062],[-56.91194,2.38642],[-56.90259,2.37486],[-56.88342,2.36664],[-56.87554,2.35774],[-56.86764,2.34151],[-56.86804,2.33697],[-56.87358,2.33406],[-56.87815,2.31933],[-56.87818,2.29914],[-56.87382,2.29008],[-56.8635,2.29191],[-56.85774,2.28494],[-56.84741,2.28605],[-56.84243,2.27933],[-56.82861,2.27594],[-56.82488,2.26732],[-56.81983,2.27172],[-56.80437,2.2617],[-56.80578,2.24836],[-56.81045,2.24121],[-56.81084,2.2277],[-56.80809,2.22238],[-56.81313,2.2203],[-56.81451,2.21081],[-56.80818,2.21183],[-56.79959,2.20354],[-56.80705,2.1934],[-56.80449,2.18958],[-56.80161,2.19276],[-56.79113,2.1888],[-56.78972,2.17616],[-56.77697,2.16108],[-56.78048,2.1535],[-56.77215,2.14825],[-56.7708,2.14203],[-56.76178,2.13442],[-56.76087,2.12783],[-56.75495,2.12237],[-56.74921,2.12182],[-56.74803,2.11633],[-56.74464,2.11809],[-56.73897,2.11391],[-56.73792,2.10909],[-56.73448,2.10875],[-56.73513,2.10432],[-56.71289,2.08227],[-56.70776,2.06739],[-56.69791,2.0606],[-56.69696,2.05452],[-56.69013,2.04987],[-56.68958,2.04557],[-56.68615,2.04547],[-56.68794,2.03391],[-56.68443,2.0274],[-56.68475,2.01814],[-56.67689,2.01312],[-56.66438,2.01474],[-56.66303,2.00874],[-56.65882,2.00764],[-56.64482,2.01393],[-56.63809,2.01205],[-56.60764,2.02532],[-56.60657,2.02877],[-56.58858,2.02428],[-56.58075,2.02971],[-56.54574,2.01632],[-56.53226,2.01543],[-56.53015,2.00419],[-56.52027,1.99057],[-56.49731,1.96981],[-56.49112,1.95956],[-56.47439,1.96029],[-56.47104,1.94673],[-56.47989,1.95412],[-56.48484,1.95421],[-56.4873,1.95296],[-56.48595,1.94611],[-56.49722,1.93349],[-56.50169,1.9343],[-56.51254,1.92831],[-56.51554,1.92984],[-56.52908,1.91941],[-56.53172,1.92079],[-56.53544,1.91531],[-56.53852,1.91697],[-56.54305,1.91322],[-56.5563,1.91523],[-56.56204,1.90616],[-56.57029,1.90995],[-56.57178,1.90708],[-56.58337,1.90534],[-56.58944,1.9214],[-56.59523,1.92107],[-56.59748,1.92914],[-56.59524,1.93216],[-56.59886,1.93723],[-56.6078,1.93238],[-56.61916,1.94546],[-56.6281,1.94363],[-56.64229,1.92733],[-56.6499,1.9303],[-56.64932,1.9165],[-56.6562,1.91829],[-56.65915,1.91398],[-56.67425,1.91148],[-56.67705,1.91936],[-56.6819,1.91969],[-56.68111,1.91082],[-56.6853,1.91142],[-56.6876,1.91554],[-56.69149,1.91309],[-56.71449,1.92484],[-56.72081,1.92364],[-56.72652,1.91602],[-56.73067,1.91801],[-56.7309,1.9148],[-56.7372,1.91252],[-56.73735,1.90688],[-56.7464,1.90283],[-56.74498,1.90035],[-56.75425,1.89094],[-56.76059,1.88673],[-56.76515,1.88787],[-56.7676,1.88303],[-56.76591,1.87503],[-56.78642,1.86984],[-56.7903,1.86141],[-56.78661,1.85883],[-56.78839,1.85237],[-56.79618,1.85022],[-56.7991,1.85387],[-56.79532,1.85814],[-56.80133,1.86257],[-56.79678,1.8701],[-56.80378,1.87423],[-56.80846,1.87114],[-56.81928,1.87716],[-56.82421,1.87548],[-56.82908,1.88751],[-56.83429,1.88629],[-56.84605,1.89313],[-56.85666,1.88712],[-56.85824,1.89427],[-56.86814,1.89203],[-56.8718,1.89546],[-56.8838,1.89618],[-56.88724,1.90156],[-56.89297,1.89788],[-56.90558,1.8984],[-56.90025,1.90492],[-56.90458,1.91548],[-56.91082,1.92302],[-56.91565,1.92384],[-56.91862,1.93319],[-56.92144,1.93401],[-56.92428,1.92643],[-56.93511,1.92237],[-56.94315,1.92244],[-56.94677,1.91937],[-56.95707,1.92273],[-56.96141,1.9181],[-56.97576,1.91515],[-56.976,1.91137],[-56.96875,1.90381],[-56.97561,1.90154],[-56.98101,1.90775],[-56.986,1.90347],[-56.9937,1.90844],[-57.00673,1.90855],[-57.00905,1.91699],[-57.01589,1.91868],[-57.02735,1.93318],[-57.0267,1.93675],[-57.03145,1.94163],[-57.0296,1.94577],[-57.03799,1.94654],[-57.03585,1.95355],[-57.04169,1.95244],[-57.05228,1.95726],[-57.06367,1.95124],[-57.06966,1.97539],[-57.07426,1.97827],[-57.07003,1.98475],[-57.07475,1.98768],[-57.07019,1.99756],[-57.07655,2.00744],[-57.08447,2.01019],[-57.07945,2.01924],[-57.08706,2.02983],[-57.09837,2.02059],[-57.10635,2.0305],[-57.11808,2.03276],[-57.11889,2.0199],[-57.13211,2.01093],[-57.13802,2.00277],[-57.14715,2.00292],[-57.15411,1.99271],[-57.16246,1.99425],[-57.1655,1.99811],[-57.17745,1.9953],[-57.17747,1.99807],[-57.18309,1.99951],[-57.19915,1.99285],[-57.20187,1.98767],[-57.19882,1.98066],[-57.20064,1.97579],[-57.20871,1.97032],[-57.21257,1.9634],[-57.21874,1.96489],[-57.22088,1.95732],[-57.22879,1.95467],[-57.23049,1.94031],[-57.23386,1.93759],[-57.2439,1.94979],[-57.25165,1.94799],[-57.25759,1.95247],[-57.25908,1.95925],[-57.26406,1.95707],[-57.26897,1.96618],[-57.26698,1.96979],[-57.27645,1.9684],[-57.27791,1.97275],[-57.26877,1.97793],[-57.26889,1.98363],[-57.27758,1.98144],[-57.28082,1.98609],[-57.29051,1.98768],[-57.30811,1.99947],[-57.31716,1.97905],[-57.33005,1.97995],[-57.34128,1.9757],[-57.34867,1.98228],[-57.35777,1.97321],[-57.35608,1.96152],[-57.36084,1.9579],[-57.36665,1.95888],[-57.37022,1.95463],[-57.36267,1.94875],[-57.36169,1.94141],[-57.36461,1.93907],[-57.36367,1.92871],[-57.36781,1.92423],[-57.3756,1.92332],[-57.38784,1.92835],[-57.40049,1.92329],[-57.40307,1.91381],[-57.41232,1.90732],[-57.41879,1.91171],[-57.43483,1.90752],[-57.43682,1.90321],[-57.43304,1.89608],[-57.43712,1.88037],[-57.43022,1.87484],[-57.43327,1.87179],[-57.43301,1.85692],[-57.44666,1.84013],[-57.43856,1.8324],[-57.43998,1.8251],[-57.44546,1.81927],[-57.44563,1.8103],[-57.45705,1.8037],[-57.46086,1.8048],[-57.46502,1.79988],[-57.47672,1.80058],[-57.48112,1.79508],[-57.48614,1.79757],[-57.48555,1.79182],[-57.48881,1.78929],[-57.50014,1.7927],[-57.50142,1.77728],[-57.4961,1.772],[-57.49677,1.76453],[-57.49813,1.76101],[-57.51023,1.7579],[-57.51021,1.75211],[-57.51745,1.74723],[-57.51452,1.72483],[-57.51728,1.72085],[-57.52355,1.72099],[-57.52635,1.72634],[-57.53229,1.7217],[-57.54188,1.72133],[-57.54285,1.7107],[-57.55684,1.69518],[-57.55471,1.69231],[-57.55684,1.68963],[-57.56217,1.69089],[-57.56566,1.68694],[-57.56566,1.69001],[-57.56903,1.69067],[-57.57398,1.68525],[-57.58051,1.68805],[-57.58595,1.69886],[-57.5923,1.69771],[-57.59624,1.70302],[-57.601,1.70057],[-57.59909,1.6964],[-57.60606,1.68971],[-57.61107,1.68913],[-57.61623,1.69511],[-57.62159,1.69256],[-57.6221,1.69638],[-57.63048,1.69792],[-57.63346,1.69376],[-57.63254,1.68583],[-57.647,1.6855],[-57.65347,1.67942],[-57.65758,1.68611],[-57.66947,1.69294],[-57.67323,1.70319],[-57.68006,1.70615],[-57.68571,1.70163],[-57.69113,1.70452],[-57.70107,1.7146],[-57.70156,1.72044],[-57.70721,1.71923],[-57.70635,1.71134],[-57.71624,1.70927],[-57.72268,1.72099],[-57.72641,1.71572],[-57.74357,1.71451],[-57.74456,1.71879],[-57.74919,1.72042],[-57.75305,1.71656],[-57.75905,1.71657],[-57.76644,1.72098],[-57.76874,1.71677],[-57.77207,1.71913],[-57.77009,1.7232],[-57.77688,1.72754],[-57.78234,1.72206],[-57.79535,1.72382],[-57.79524,1.7054],[-57.80563,1.69603],[-57.80219,1.69544],[-57.79975,1.68776],[-57.80218,1.68127],[-57.80642,1.68118],[-57.81153,1.68745],[-57.82365,1.6818],[-57.83352,1.68569],[-57.84464,1.68255],[-57.84459,1.68688],[-57.85032,1.6872],[-57.84995,1.68389],[-57.85749,1.67515],[-57.87011,1.67651],[-57.87282,1.67348],[-57.87839,1.67824],[-57.88188,1.67646],[-57.88038,1.67136],[-57.88734,1.66613],[-57.89052,1.67136],[-57.90007,1.67214],[-57.9083,1.66553],[-57.90551,1.65505],[-57.91055,1.65297],[-57.91479,1.64483],[-57.92603,1.63965],[-57.92801,1.64225],[-57.93477,1.64055],[-57.93632,1.64408],[-57.94397,1.64589],[-57.94871,1.64358],[-57.95159,1.64767],[-57.9562,1.64661],[-57.95917,1.65487],[-57.96331,1.64949],[-57.96674,1.65249],[-57.9723,1.65105],[-57.97377,1.65395],[-57.97702,1.65169],[-57.98203,1.65709],[-57.99457,1.65493],[-57.99499,1.65704],[-58.00372,1.65016],[-58.00306,1.64355],[-57.99802,1.64202],[-58.00062,1.63781],[-57.99373,1.638],[-57.98441,1.631],[-57.98009,1.63143],[-57.98394,1.61854],[-57.9808,1.61401],[-57.98686,1.61084],[-57.98265,1.60832],[-57.98685,1.59608],[-57.98098,1.59157],[-57.98505,1.58353],[-57.97754,1.57236],[-57.98204,1.56372],[-57.98796,1.56582],[-57.98847,1.55917],[-57.99435,1.55184],[-57.98949,1.54541],[-57.98908,1.53918],[-57.9972,1.53474],[-57.99734,1.52956],[-58.00279,1.52646],[-57.99978,1.51727],[-58.0075,1.51344],[-58.00131,1.50168],[-58.00435,1.50048],[-58.01092,1.50474],[-58.01981,1.50391],[-58.02492,1.5098],[-58.02936,1.50805],[-58.03139,1.51327],[-58.03728,1.51474],[-58.04106,1.51993],[-58.06373,1.52531],[-58.06999,1.5067],[-58.08225,1.50564],[-58.08509,1.50771],[-58.08374,1.51426],[-58.09921,1.51342],[-58.10011,1.50798],[-58.1114,1.50002],[-58.13056,1.49852],[-58.13359,1.50293],[-58.14918,1.50775],[-58.14583,1.51637],[-58.15663,1.5308],[-58.15403,1.5409],[-58.15814,1.54205],[-58.15751,1.54605],[-58.16218,1.55004],[-58.15995,1.55998],[-58.17423,1.56069],[-58.19198,1.57305],[-58.19693,1.5702],[-58.19622,1.56709],[-58.21018,1.56494],[-58.22063,1.55574],[-58.2303,1.55406],[-58.23377,1.54566],[-58.24247,1.548],[-58.24587,1.5574],[-58.25301,1.5574],[-58.25685,1.56252],[-58.25539,1.56611],[-58.26077,1.56989],[-58.27111,1.56503],[-58.28054,1.57148],[-58.2883,1.57275],[-58.29474,1.55994],[-58.30793,1.56562],[-58.3201,1.56508],[-58.31482,1.59196],[-58.3204,1.59336],[-58.32852,1.60155],[-58.33451,1.58327],[-58.34473,1.57544],[-58.34154,1.55067],[-58.34917,1.55207],[-58.35691,1.54762],[-58.36087,1.54852],[-58.36267,1.53626],[-58.3807,1.53356],[-58.38842,1.53577],[-58.39123,1.52683],[-58.39526,1.52636],[-58.39462,1.51714],[-58.39175,1.51326],[-58.38343,1.51278],[-58.38284,1.50958],[-58.39065,1.50571],[-58.39332,1.49818],[-58.38651,1.48855],[-58.38244,1.48883],[-58.37259,1.48125],[-58.3727,1.47782],[-58.37967,1.47646],[-58.3874,1.46747],[-58.40056,1.46931],[-58.40668,1.46561],[-58.41099,1.47143],[-58.41531,1.46842],[-58.42439,1.47052],[-58.42546,1.46623],[-58.44355,1.46051],[-58.44607,1.45412],[-58.46108,1.45854],[-58.4623,1.46559],[-58.47454,1.45923],[-58.4827,1.46125],[-58.48727,1.45817],[-58.49293,1.4626],[-58.49259,1.46803],[-58.49969,1.46258],[-58.51161,1.4619],[-58.51079,1.44262],[-58.50554,1.44216],[-58.49918,1.43081],[-58.50596,1.42181],[-58.50314,1.41455],[-58.50631,1.40191],[-58.50262,1.40309],[-58.49645,1.39667],[-58.48619,1.39509],[-58.48052,1.39064],[-58.47816,1.38831],[-58.48404,1.38711],[-58.48502,1.38371],[-58.47937,1.38183],[-58.4793,1.37777],[-58.47243,1.37593],[-58.47091,1.37018],[-58.46686,1.36988],[-58.46465,1.37566],[-58.45693,1.37298],[-58.45723,1.36776],[-58.46676,1.36379],[-58.47059,1.35833],[-58.47225,1.34272],[-58.47539,1.34147],[-58.4756,1.33357],[-58.47105,1.32613],[-58.47369,1.31632],[-58.47117,1.31182],[-58.48301,1.29923],[-58.49437,1.29536],[-58.49118,1.29082],[-58.49715,1.27812],[-58.49445,1.26891],[-58.49766,1.26624],[-58.50368,1.26776],[-58.50865,1.27625],[-58.51373,1.27675],[-58.51465,1.27283],[-58.51955,1.27183],[-58.52021,1.25633],[-58.52418,1.25726],[-58.52611,1.26833],[-58.53176,1.27043],[-58.53914,1.2651],[-58.54157,1.26884],[-58.5392,1.27077],[-58.53975,1.28424],[-58.5441,1.28697],[-58.54343,1.29099],[-58.55834,1.29177],[-58.56128,1.28669],[-58.56149,1.29097],[-58.56734,1.29597],[-58.57141,1.29087],[-58.57047,1.28573],[-58.58035,1.28312],[-58.57872,1.27305],[-58.58394,1.262],[-58.58816,1.2605],[-58.58953,1.26908],[-58.61079,1.27433],[-58.61448,1.28198],[-58.62789,1.28781],[-58.63561,1.28956],[-58.64025,1.28407],[-58.6549,1.28889],[-58.66397,1.28004],[-58.67114,1.2806],[-58.67913,1.28742],[-58.67763,1.29197],[-58.68186,1.2974],[-58.68561,1.29439],[-58.70805,1.29466],[-58.71273,1.29008],[-58.71315,1.27659],[-58.71694,1.2737],[-58.72174,1.25539],[-58.72082,1.24401],[-58.71515,1.23582],[-58.71976,1.23626],[-58.7227,1.22478],[-58.72641,1.22177],[-58.72463,1.21919],[-58.73165,1.21472],[-58.7318,1.20842],[-58.74191,1.20307],[-58.74604,1.20781],[-58.75262,1.20888],[-58.76734,1.19433],[-58.77189,1.18562],[-58.78055,1.186],[-58.78214,1.19007],[-58.79053,1.18772],[-58.79652,1.19069],[-58.79454,1.17986],[-58.80127,1.17868],[-58.80307,1.17532],[-58.80851,1.17961],[-58.82358,1.16941],[-58.82862,1.17266],[-58.82562,1.18445],[-58.83044,1.18774],[-58.84815,1.17956],[-58.85724,1.1834],[-58.85575,1.19199],[-58.86037,1.19512],[-58.86073,1.20495],[-58.86655,1.20134],[-58.87036,1.2039],[-58.87367,1.21116],[-58.87155,1.21782],[-58.87937,1.21903],[-58.88292,1.22998],[-58.89526,1.23123],[-58.89856,1.22693],[-58.91076,1.23383],[-58.91259,1.23792],[-58.9067,1.24146],[-58.90837,1.24991],[-58.88769,1.26024],[-58.90042,1.27929],[-58.9166,1.28216],[-58.92453,1.28866],[-58.92119,1.29411],[-58.9227,1.30056],[-58.91774,1.30299],[-58.91887,1.30907],[-58.91625,1.31278],[-58.92426,1.31904],[-58.93079,1.32089],[-58.9502,1.31103],[-58.95531,1.31339],[-58.957,1.31057],[-58.969,1.31186],[-58.97498,1.30977],[-58.97732,1.30143],[-58.98049,1.30124],[-58.98858,1.31183],[-58.99087,1.32399],[-58.99445,1.3273],[-59.00875,1.32241],[-59.02347,1.33078],[-59.03392,1.32524],[-59.03948,1.32865],[-59.0406,1.32338],[-59.0477,1.32073],[-59.05261,1.32367],[-59.05878,1.33457],[-59.06513,1.3363],[-59.07104,1.32869],[-59.08552,1.33553],[-59.08789,1.34661],[-59.09398,1.34366],[-59.09809,1.34857],[-59.11676,1.34196],[-59.1312,1.35222],[-59.1444,1.3461],[-59.15109,1.34858],[-59.16107,1.35942],[-59.17144,1.35613],[-59.18596,1.37373],[-59.19415,1.37795],[-59.20475,1.37685],[-59.20332,1.37357],[-59.20756,1.3704],[-59.21231,1.37474],[-59.22465,1.37573],[-59.23447,1.38606],[-59.24143,1.38399],[-59.2523,1.38669],[-59.25742,1.39421],[-59.26951,1.39994],[-59.27089,1.40547],[-59.27709,1.4088],[-59.27339,1.41751],[-59.27625,1.42459],[-59.28373,1.42793],[-59.28261,1.43456],[-59.28615,1.43842],[-59.29021,1.43724],[-59.29097,1.44028],[-59.28302,1.44752],[-59.28603,1.45381],[-59.29899,1.46086],[-59.30271,1.46615],[-59.31158,1.46579],[-59.31374,1.46],[-59.32678,1.46164],[-59.32861,1.46633],[-59.31866,1.48098],[-59.32702,1.49839],[-59.32959,1.4975],[-59.32855,1.51398],[-59.33725,1.51854],[-59.35822,1.5169],[-59.35955,1.51462],[-59.35564,1.5111],[-59.35957,1.50309],[-59.36048,1.50899],[-59.36587,1.50917],[-59.37101,1.50482],[-59.37956,1.50846],[-59.3774,1.51807],[-59.38471,1.52217],[-59.38428,1.52976],[-59.39664,1.54036],[-59.39505,1.55318],[-59.39943,1.55681],[-59.41305,1.55181],[-59.42223,1.55519],[-59.4326,1.56559],[-59.42639,1.58317],[-59.43736,1.59124],[-59.43674,1.59696],[-59.44527,1.60499],[-59.44166,1.60928],[-59.44625,1.61617],[-59.46703,1.61579],[-59.48526,1.6299],[-59.49659,1.65387],[-59.49691,1.66315],[-59.49359,1.66493],[-59.49133,1.67412],[-59.49666,1.67353],[-59.49797,1.6781],[-59.51228,1.67116],[-59.51953,1.68696],[-59.52614,1.68979],[-59.52467,1.70865],[-59.53037,1.71136],[-59.5293,1.71381],[-59.53568,1.71396],[-59.53763,1.72004],[-59.54855,1.7261],[-59.54942,1.73],[-59.56704,1.73528],[-59.59868,1.72221],[-59.60319,1.72133],[-59.60633,1.72507],[-59.60933,1.72305],[-59.60774,1.71883],[-59.61709,1.71588],[-59.62581,1.72421],[-59.62282,1.73516],[-59.63169,1.74137],[-59.6411,1.73835],[-59.6558,1.74265],[-59.65881,1.73684],[-59.66251,1.73723],[-59.66278,1.74177],[-59.65331,1.75693],[-59.65974,1.76193],[-59.66477,1.76197],[-59.66418,1.75683],[-59.67366,1.75936],[-59.67723,1.76737],[-59.68456,1.77016],[-59.68257,1.77917],[-59.68473,1.7865],[-59.68422,1.79008],[-59.67748,1.7945],[-59.68042,1.79909],[-59.67845,1.80391],[-59.66795,1.80785],[-59.66556,1.81386],[-59.65966,1.80971],[-59.65097,1.81257],[-59.65354,1.82274],[-59.66019,1.82426],[-59.65435,1.82817],[-59.64937,1.8446],[-59.6529,1.85351],[-59.65665,1.84952],[-59.65721,1.85737],[-59.6631,1.85937],[-59.66059,1.8666],[-59.66621,1.86464],[-59.66889,1.84492],[-59.6836,1.84606],[-59.70688,1.85546],[-59.72017,1.85427],[-59.71908,1.8505],[-59.72428,1.84908],[-59.7346,1.85358],[-59.737,1.85084],[-59.74869,1.85181],[-59.75628,1.86744],[-59.74875,1.87952],[-59.75936,1.90284],[-59.754,1.91248],[-59.75171,1.92678],[-59.74612,1.93437],[-59.74721,1.94115],[-59.73894,1.95466],[-59.74149,1.95701],[-59.73656,1.96561],[-59.74136,1.97283],[-59.73741,1.97848],[-59.73861,1.98261],[-59.73454,1.98397],[-59.73433,2],[-59.7311,2.00823],[-59.73444,2.01136],[-59.7327,2.01757],[-59.72244,2.02274],[-59.7208,2.02769],[-59.72934,2.03089],[-59.73194,2.03596],[-59.73061,2.04002],[-59.73727,2.05022],[-59.7358,2.05483],[-59.74089,2.06345],[-59.74195,2.07393],[-59.73573,2.08972],[-59.72347,2.09787],[-59.72176,2.10375],[-59.72193,2.11697],[-59.72409,2.1217],[-59.72859,2.12281],[-59.72515,2.13087],[-59.73338,2.14334],[-59.73896,2.14641],[-59.738,2.15691],[-59.74155,2.16198],[-59.73703,2.1733],[-59.73967,2.18127],[-59.73541,2.18287],[-59.7365,2.18863],[-59.7263,2.20588],[-59.73068,2.22278],[-59.72993,2.23224],[-59.72022,2.23678],[-59.72138,2.24945],[-59.72912,2.26255],[-59.7235,2.27746],[-59.72693,2.28213],[-59.73802,2.28661],[-59.74013,2.29262],[-59.74613,2.29194],[-59.75018,2.2877],[-59.7694,2.29512],[-59.78688,2.2835],[-59.78768,2.28755],[-59.79733,2.2933],[-59.79838,2.29703],[-59.80457,2.2989],[-59.80493,2.30621],[-59.81564,2.3124],[-59.81907,2.31784],[-59.82362,2.31774],[-59.82946,2.32922],[-59.83517,2.32286],[-59.8428,2.32006],[-59.84423,2.32941],[-59.85322,2.3305],[-59.85678,2.33996],[-59.86896,2.34937],[-59.87133,2.35989],[-59.87456,2.36056],[-59.88321,2.3529],[-59.89886,2.36228],[-59.8983,2.36821],[-59.90437,2.37475],[-59.90918,2.38975],[-59.90742,2.39692],[-59.8991,2.40175],[-59.89578,2.40998],[-59.8991,2.42032],[-59.89733,2.42457],[-59.89166,2.42434],[-59.90088,2.43674],[-59.89454,2.45502],[-59.89426,2.465],[-59.90082,2.47315],[-59.89691,2.48061],[-59.91234,2.49458],[-59.9155,2.50539],[-59.9205,2.50734],[-59.92117,2.52152],[-59.91847,2.52618],[-59.93854,2.55258],[-59.92929,2.56926],[-59.93513,2.57274],[-59.94215,2.58411],[-59.97236,2.59445],[-59.968,2.60767],[-59.96464,2.6098],[-59.95879,2.60786],[-59.9591,2.61173],[-59.9647,2.61704],[-59.965,2.62666],[-59.97778,2.64182],[-59.97178,2.6559],[-59.97355,2.66559],[-59.99184,2.68563],[-59.98965,2.71723],[-59.99282,2.73381],[-59.98775,2.74798],[-59.99363,2.78609],[-59.98708,2.80348],[-59.99109,2.84336],[-59.98507,2.85133],[-59.98707,2.86142],[-59.98241,2.86786],[-59.98575,2.87748],[-59.99061,2.88104],[-59.97781,2.89748],[-59.97768,2.90356],[-59.98298,2.9038],[-59.98617,2.90826],[-59.98308,2.91733],[-59.98416,2.92819],[-59.9593,2.95462],[-59.96522,2.96237],[-59.9529,2.99319],[-59.94736,2.99839],[-59.94885,3.00452],[-59.96231,3.01609],[-59.95105,3.04456],[-59.95553,3.08211],[-59.94075,3.08626],[-59.93782,3.09024],[-59.93891,3.09899],[-59.93018,3.10998],[-59.92346,3.10871],[-59.92078,3.12209],[-59.9185,3.12209],[-59.91602,3.11124],[-59.90914,3.11127],[-59.90889,3.12294],[-59.91326,3.12793],[-59.9182,3.12625],[-59.91918,3.13266],[-59.91403,3.13984],[-59.90705,3.14109],[-59.90878,3.14612],[-59.92086,3.14518],[-59.91975,3.14964],[-59.90352,3.14926],[-59.90048,3.15193],[-59.89967,3.15654],[-59.91187,3.18665],[-59.90847,3.21175],[-59.90302,3.21655],[-59.88695,3.21585],[-59.87436,3.22584],[-59.87546,3.23013],[-59.88783,3.239],[-59.88669,3.24331],[-59.87854,3.24539],[-59.88123,3.25894],[-59.87373,3.26938],[-59.87198,3.27753],[-59.85854,3.27868],[-59.85141,3.29636],[-59.85332,3.30236],[-59.84729,3.30785],[-59.84176,3.30844],[-59.8418,3.32025],[-59.83658,3.32148],[-59.82787,3.33132],[-59.834,3.35284],[-59.8224,3.35647],[-59.8116,3.35203],[-59.805,3.35647],[-59.80421,3.36962],[-59.80971,3.37569],[-59.82197,3.4127],[-59.82113,3.41671],[-59.8125,3.4221],[-59.81271,3.42929],[-59.81784,3.43029],[-59.83153,3.42217],[-59.84139,3.42577],[-59.84006,3.44336],[-59.8294,3.45444],[-59.82461,3.46978],[-59.81862,3.4727],[-59.81231,3.46829],[-59.81006,3.47],[-59.81489,3.47944],[-59.82532,3.47647],[-59.82611,3.48224],[-59.80284,3.49096],[-59.80272,3.50336],[-59.80667,3.51187],[-59.82168,3.52373],[-59.83345,3.52266],[-59.84422,3.54235],[-59.84255,3.55311],[-59.87188,3.56159],[-59.85996,3.57044],[-59.85917,3.57364],[-59.86736,3.57821],[-59.85896,3.58065],[-59.85123,3.59474],[-59.85154,3.60308],[-59.82334,3.61398],[-59.81554,3.61096],[-59.81665,3.62022],[-59.80822,3.61682],[-59.79805,3.61961],[-59.78719,3.61713],[-59.77367,3.62639],[-59.76462,3.62631],[-59.76825,3.63303],[-59.76031,3.63282],[-59.75076,3.65394],[-59.74057,3.66128],[-59.72366,3.66409],[-59.71965,3.66737],[-59.71731,3.67629],[-59.70974,3.68036],[-59.70461,3.6891],[-59.69077,3.69014],[-59.68767,3.69927],[-59.67929,3.69673],[-59.66844,3.70322],[-59.66321,3.71773],[-59.67174,3.72687],[-59.66404,3.73486],[-59.67059,3.74383],[-59.67395,3.74404],[-59.67326,3.75421],[-59.6789,3.75507],[-59.67923,3.75835],[-59.6703,3.76568],[-59.66495,3.78205],[-59.64806,3.78737],[-59.64054,3.78443],[-59.62818,3.79883],[-59.62635,3.79418],[-59.63155,3.79226],[-59.63231,3.78766],[-59.63013,3.78419],[-59.6256,3.78972],[-59.61718,3.79173],[-59.61048,3.80424],[-59.59697,3.79395],[-59.5938,3.80644],[-59.59865,3.81235],[-59.59772,3.81526],[-59.58917,3.81654],[-59.58628,3.82292],[-59.58271,3.82225],[-59.5813,3.81635],[-59.57782,3.81662],[-59.57763,3.8321],[-59.58683,3.83544],[-59.58537,3.84096],[-59.58915,3.85173],[-59.58638,3.85782],[-59.59324,3.86004],[-59.5899,3.86765],[-59.5938,3.8842],[-59.58817,3.88904],[-59.57641,3.88916],[-59.57662,3.90194],[-59.57452,3.89507],[-59.56873,3.88983],[-59.56685,3.89117],[-59.56528,3.91693],[-59.56214,3.92062],[-59.54838,3.91885],[-59.53933,3.92446],[-59.54264,3.9289],[-59.53984,3.93184],[-59.52638,3.92435],[-59.52347,3.93265],[-59.52625,3.93848],[-59.5159,3.94624],[-59.52254,3.95122],[-59.51969,3.95377],[-59.52617,3.96805],[-59.5438,3.9723],[-59.54433,3.97845],[-59.55751,3.97846],[-59.56556,3.96999],[-59.56559,3.96467],[-59.57205,3.96999],[-59.58496,3.96928],[-59.58648,3.97578],[-59.57204,3.98622],[-59.57944,4.00058],[-59.58429,4.00242],[-59.5837,3.9972],[-59.58748,3.9935],[-59.59541,4.00078],[-59.5915,4.00898],[-59.59553,4.01799],[-59.60635,4.00662],[-59.61341,4.01772],[-59.61088,4.01908],[-59.60419,4.01448],[-59.60086,4.01701],[-59.60177,4.03003],[-59.61884,4.03746],[-59.61888,4.05274],[-59.62915,4.05195],[-59.63958,4.06068],[-59.64176,4.06679],[-59.65413,4.0693],[-59.6324,4.11164],[-59.6252,4.11818],[-59.62605,4.12293],[-59.6209,4.13302],[-59.63547,4.14211],[-59.65111,4.14651],[-59.66303,4.14621],[-59.66566,4.14365],[-59.68646,4.14712],[-59.70243,4.16058],[-59.71857,4.16663],[-59.72367,4.17621],[-59.73126,4.18139],[-59.72726,4.18994],[-59.73812,4.20976],[-59.7354,4.22792],[-59.73962,4.23534],[-59.71038,4.26928],[-59.71943,4.27459],[-59.72517,4.26892],[-59.73156,4.26903],[-59.73415,4.2743],[-59.72926,4.28056],[-59.73337,4.2854],[-59.71993,4.29734],[-59.71884,4.30259],[-59.70406,4.30712],[-59.70298,4.31017],[-59.70679,4.31516],[-59.70497,4.31819],[-59.69017,4.33542],[-59.67911,4.34122],[-59.67626,4.34692],[-59.68313,4.36435],[-59.66985,4.37491],[-59.68361,4.38486],[-59.69446,4.38046],[-59.71367,4.39592],[-59.72139,4.39829],[-59.71893,4.40258],[-59.72116,4.4102],[-59.72777,4.41033],[-59.7352,4.42222],[-59.73833,4.42405],[-59.75173,4.42107],[-59.76555,4.4366],[-59.78173,4.44077],[-59.77905,4.44523],[-59.78361,4.45027],[-59.78697,4.44631],[-59.79353,4.44707],[-59.79637,4.44982],[-59.79521,4.4653],[-59.80432,4.46648],[-59.80639,4.4538],[-59.81289,4.44637],[-59.83195,4.45184],[-59.83147,4.45779],[-59.84935,4.45303],[-59.85578,4.4557],[-59.86095,4.45229],[-59.8719,4.46211],[-59.86383,4.47274],[-59.87488,4.4782],[-59.87272,4.48608],[-59.87525,4.48698],[-59.87929,4.47514],[-59.89847,4.47852],[-59.90563,4.45957],[-59.9102,4.46056],[-59.91616,4.46637],[-59.91138,4.47775],[-59.93123,4.4811],[-59.92576,4.49056],[-59.93451,4.4931],[-59.93562,4.49887],[-59.95205,4.50023],[-59.96495,4.50827],[-59.97243,4.50924],[-59.97379,4.48054],[-59.98136,4.48769],[-59.98937,4.48577],[-60.00277,4.49529],[-60.00948,4.49555],[-60.01686,4.4897],[-60.02534,4.49432],[-60.03426,4.49029],[-60.04511,4.49465],[-60.06368,4.49561],[-60.0701,4.4932],[-60.07154,4.50037],[-60.06524,4.52219],[-60.07859,4.52392],[-60.08541,4.51695],[-60.08306,4.52871],[-60.08874,4.53355],[-60.09472,4.52747],[-60.10394,4.52812],[-60.10504,4.52421],[-60.09758,4.51649],[-60.10059,4.50918],[-60.11719,4.5023],[-60.12248,4.5022],[-60.12358,4.50722],[-60.13803,4.51469],[-60.15104,4.51158],[-60.15747,4.51289],[-60.16128,4.5177],[-60.15416,4.54549],[-60.15592,4.55232],[-60.1606,4.55513],[-60.15733,4.57248],[-60.14994,4.57569],[-60.14552,4.56639],[-60.13619,4.56505],[-60.1391,4.57051],[-60.13795,4.5765],[-60.14087,4.57805],[-60.13636,4.58098],[-60.12809,4.57512],[-60.12312,4.57785],[-60.1311,4.5957],[-60.12301,4.60538],[-60.11272,4.60242],[-60.10502,4.60784],[-60.10054,4.60339],[-60.09681,4.60386],[-60.09353,4.60711],[-60.08936,4.60591],[-60.07744,4.61604],[-60.07081,4.61659],[-60.07544,4.63363],[-60.07504,4.63653],[-60.07025,4.63766],[-60.06939,4.6442],[-60.07646,4.64966],[-60.07546,4.65554],[-60.05829,4.67855],[-60.05507,4.67871],[-60.04264,4.69418],[-60.02591,4.70548],[-60.02725,4.71455],[-60.03702,4.71985],[-60.03951,4.72513],[-60.02663,4.7402],[-60.02437,4.74811],[-60.02649,4.76512],[-60.02141,4.7819],[-60.03598,4.79078],[-60.03453,4.80182],[-60.03106,4.80748],[-60.02229,4.81191],[-60.02788,4.81754],[-60.02486,4.83258],[-60.01813,4.83618],[-60.01296,4.84409],[-60.0087,4.86118],[-60.00981,4.87302],[-60.00442,4.88404],[-60.0069,4.8876],[-60.00025,4.9066],[-60.00179,4.91495],[-59.99234,4.93841],[-59.99375,4.95036],[-59.98936,4.95002],[-59.99415,4.96548],[-59.98675,4.97931],[-59.99055,4.98402],[-59.98672,4.98985],[-59.9897,5.00111],[-59.98525,5.0073],[-59.98548,5.01759],[-59.97755,5.01844],[-59.97484,5.03106],[-59.97823,5.04266],[-59.97455,5.04879],[-59.97772,5.0524],[-59.97006,5.06317],[-59.97182,5.07495],[-59.97741,5.07935],[-59.992,5.08645],[-59.99811,5.08206],[-60.01866,5.08923],[-60.01839,5.09249],[-60.02306,5.09319],[-60.03522,5.10797],[-60.0454,5.1062],[-60.04397,5.11048],[-60.04587,5.11305],[-60.04901,5.11163],[-60.05289,5.11961],[-60.05128,5.12237],[-60.05802,5.12533],[-60.06386,5.13784],[-60.08809,5.13842],[-60.08882,5.14869],[-60.09873,5.16624],[-60.09575,5.17323],[-60.09903,5.19534],[-60.11822,5.21433],[-60.12214,5.22259],[-60.12185,5.23327],[-60.13298,5.23929],[-60.13327,5.2466],[-60.15423,5.23348],[-60.15771,5.22735],[-60.16943,5.22419],[-60.18346,5.22767],[-60.19199,5.2366],[-60.18939,5.24714],[-60.19329,5.25842],[-60.20153,5.26664],[-60.21512,5.27],[-60.22285,5.26211],[-60.22981,5.26142],[-60.23117,5.2658],[-60.24451,5.24886],[-60.26048,5.24973],[-60.27443,5.23049],[-60.28023,5.22683],[-60.29712,5.22629],[-60.31423,5.20367],[-60.32107,5.20105],[-60.33341,5.20527],[-60.34396,5.20258],[-60.35209,5.2075],[-60.3635,5.20145],[-60.36962,5.20346],[-60.36878,5.21186],[-60.38187,5.21913],[-60.4051,5.20685],[-60.41302,5.21087],[-60.41917,5.19874],[-60.41866,5.18799],[-60.43128,5.18426],[-60.43136,5.1779],[-60.43888,5.17629],[-60.45028,5.18067],[-60.45178,5.1998],[-60.49107,5.19407],[-60.50414,5.20223],[-60.51626,5.2048],[-60.53668,5.19875],[-60.54233,5.18759],[-60.55154,5.18763],[-60.58648,5.19907],[-60.59238,5.20956],[-60.5911,5.21429],[-60.59559,5.21608],[-60.60707,5.21167],[-60.61312,5.2157],[-60.62721,5.21208],[-60.64096,5.21959],[-60.65119,5.23099],[-60.65386,5.22776],[-60.66461,5.22594],[-60.6791,5.232],[-60.69744,5.22822],[-60.70065,5.23007],[-60.71254,5.21812],[-60.73152,5.21817],[-60.73778,5.20182],[-61.4149,5.9708],[-61.40499,5.97229],[-61.38433,5.9597],[-61.37962,5.96221],[-61.37509,5.96042],[-61.36899,5.96255],[-61.36504,5.96842],[-61.35794,5.96887],[-61.35269,5.97477],[-61.35132,5.98547],[-61.33098,5.99908],[-61.33547,6.00473],[-61.33321,6.01534],[-61.31831,6.03123],[-61.31545,6.04242],[-61.31105,6.0467],[-61.31191,6.05213],[-61.30158,6.05456],[-61.30415,6.06063],[-61.29786,6.06704],[-61.29204,6.06835],[-61.29411,6.07232],[-61.28065,6.08256],[-61.27948,6.09418],[-61.27508,6.09296],[-61.27414,6.10493],[-61.27,6.11004],[-61.25914,6.11302],[-61.25272,6.10815],[-61.24238,6.10999],[-61.23563,6.1186],[-61.2371,6.12146],[-61.23121,6.12578],[-61.22268,6.12448],[-61.22001,6.11732],[-61.20882,6.11217],[-61.20233,6.12758],[-61.20364,6.13133],[-61.18907,6.13278],[-61.19049,6.14003],[-61.18265,6.15492],[-61.18885,6.16855],[-61.17929,6.18754],[-61.17518,6.18735],[-61.17162,6.18116],[-61.1695,6.18485],[-61.16449,6.18489],[-61.16311,6.18208],[-61.13806,6.17679],[-61.13297,6.18073],[-61.13321,6.18931],[-61.12755,6.18813],[-61.12515,6.1917],[-61.12375,6.19557],[-61.12964,6.19609],[-61.13183,6.2021],[-61.12627,6.20793],[-61.12993,6.20878],[-61.13228,6.20488],[-61.14243,6.21568],[-61.13727,6.22839],[-61.1329,6.23102],[-61.13547,6.2399],[-61.13211,6.25559],[-61.12848,6.25526],[-61.12613,6.26263],[-61.12092,6.26322],[-61.11362,6.27184],[-61.1208,6.27638],[-61.12242,6.27317],[-61.13112,6.27189],[-61.13737,6.27288],[-61.13777,6.27645],[-61.14012,6.27508],[-61.1425,6.28472],[-61.14022,6.28781],[-61.14797,6.2924],[-61.156,6.28869],[-61.1648,6.29989],[-61.16736,6.31708],[-61.17428,6.32651],[-61.18391,6.33074],[-61.17623,6.33327],[-61.17723,6.34125],[-61.17136,6.33669],[-61.17366,6.34227],[-61.15835,6.36738],[-61.16748,6.38023],[-61.15973,6.37862],[-61.16173,6.38245],[-61.15764,6.38691],[-61.16551,6.38677],[-61.16703,6.39473],[-61.15971,6.39234],[-61.15652,6.39778],[-61.15828,6.40696],[-61.15481,6.41107],[-61.15688,6.41474],[-61.15434,6.41599],[-61.15094,6.41159],[-61.14747,6.41426],[-61.14897,6.42551],[-61.14355,6.42905],[-61.15122,6.43025],[-61.15522,6.43809],[-61.15351,6.44728],[-61.14863,6.44563],[-61.1488,6.44981],[-61.155,6.44969],[-61.15688,6.45363],[-61.1517,6.45824],[-61.15253,6.46497],[-61.15712,6.46464],[-61.16204,6.45711],[-61.18267,6.47232],[-61.18129,6.4769],[-61.17675,6.47889],[-61.17769,6.48193],[-61.18568,6.48315],[-61.1816,6.49016],[-61.17395,6.49373],[-61.17089,6.50292],[-61.17076,6.50562],[-61.17523,6.50685],[-61.17222,6.51924],[-61.18182,6.52243],[-61.18004,6.52996],[-61.18224,6.5309],[-61.18909,6.52612],[-61.19607,6.52708],[-61.19622,6.53724],[-61.20409,6.5357],[-61.20668,6.53103],[-61.20318,6.52303],[-61.20598,6.52207],[-61.2112,6.52986],[-61.21411,6.52596],[-61.22263,6.52677],[-61.22109,6.53789],[-61.21021,6.53768],[-61.20885,6.5409],[-61.21243,6.54051],[-61.21254,6.54404],[-61.20964,6.54937],[-61.21358,6.55259],[-61.22386,6.5528],[-61.21965,6.56607],[-61.23168,6.57118],[-61.22828,6.57599],[-61.2242,6.57334],[-61.21988,6.57547],[-61.22323,6.58342],[-61.22239,6.59253],[-61.21554,6.59311],[-61.20987,6.58978],[-61.20666,6.59336],[-61.2008,6.61139],[-61.20033,6.62497],[-61.19107,6.62588],[-61.18085,6.63279],[-61.18349,6.63549],[-61.18195,6.63954],[-61.18911,6.6466],[-61.1895,6.65372],[-61.18399,6.65723],[-61.18258,6.67151],[-61.17771,6.67639],[-61.17128,6.67574],[-61.16885,6.68054],[-61.16187,6.67912],[-61.16208,6.68569],[-61.16577,6.68974],[-61.15167,6.68849],[-61.14864,6.69475],[-61.15246,6.70038],[-61.14474,6.71614],[-61.13862,6.7217],[-61.11248,6.71862],[-61.11074,6.72125],[-61.10378,6.71896],[-61.09035,6.70383],[-61.08487,6.70717],[-61.08128,6.72632],[-61.07629,6.7302],[-61.05669,6.72119],[-61.05335,6.72355],[-61.03901,6.71774],[-61.02323,6.71995],[-61.01419,6.72944],[-61.00441,6.73196],[-60.99449,6.72765],[-60.98379,6.71799],[-60.97018,6.71561],[-60.95262,6.71799],[-60.94412,6.72301],[-60.9353,6.74241],[-60.91711,6.74649],[-60.90133,6.75756],[-60.90621,6.76833],[-60.92044,6.77427],[-60.92683,6.79305],[-60.92372,6.80806],[-60.91654,6.81633],[-60.91097,6.81775],[-60.89822,6.81438],[-60.87459,6.795],[-60.84968,6.78228],[-60.8383,6.78257],[-60.8252,6.79401],[-60.81108,6.79647],[-60.75083,6.76409],[-60.73049,6.7565],[-60.71896,6.75685],[-60.69905,6.77836],[-60.6858,6.80621],[-60.6756,6.81978],[-60.66025,6.83311],[-60.63145,6.8417],[-60.61044,6.84433],[-60.59516,6.85452],[-60.55733,6.85629],[-60.54462,6.86219],[-60.53728,6.87828],[-60.53123,6.88179],[-60.51362,6.87988],[-60.49773,6.88503],[-60.47908,6.91035],[-60.46676,6.91737],[-60.45309,6.93741],[-60.42106,6.94174],[-60.40839,6.95125],[-60.39626,6.946],[-60.37968,6.93024],[-60.37564,6.93276],[-60.37559,6.93945],[-60.36784,6.94248],[-60.36983,6.95017],[-60.36226,6.9775],[-60.36707,6.98753],[-60.3663,6.99791],[-60.36239,7.00264],[-60.35708,7.00343],[-60.3521,7.01116],[-60.32682,7.01698],[-60.31765,7.02363],[-60.31902,7.03113],[-60.31107,7.03309],[-60.30571,7.04014],[-60.30764,7.04599],[-60.30364,7.06029],[-60.29516,7.06677],[-60.29533,7.06986],[-60.28986,7.07036],[-60.29121,7.07743],[-60.28795,7.08033],[-60.28759,7.08727],[-60.29563,7.09413],[-60.29297,7.09759],[-60.29567,7.10241],[-60.29241,7.10625],[-60.29531,7.11735],[-60.29286,7.1202],[-60.29652,7.12748],[-60.29355,7.13353],[-60.31795,7.15173],[-60.32347,7.1518],[-60.33269,7.15791],[-60.34208,7.15383],[-60.34878,7.16464],[-60.34728,7.1684],[-60.35397,7.16926],[-60.36068,7.18163],[-60.36712,7.18479],[-60.40334,7.17716],[-60.40942,7.17331],[-60.41253,7.17709],[-60.42066,7.17645],[-60.42519,7.19409],[-60.43027,7.19959],[-60.44248,7.1982],[-60.4495,7.20481],[-60.4595,7.20477],[-60.46491,7.19697],[-60.48259,7.18506],[-60.49776,7.1851],[-60.50154,7.1888],[-60.50527,7.17725],[-60.50292,7.17247],[-60.50927,7.17202],[-60.51134,7.16562],[-60.5162,7.16365],[-60.51986,7.16702],[-60.52198,7.16478],[-60.52022,7.15647],[-60.52857,7.14872],[-60.5274,7.13802],[-60.53969,7.13049],[-60.53716,7.12673],[-60.53959,7.12374],[-60.54765,7.12738],[-60.55868,7.15435],[-60.56623,7.15808],[-60.57794,7.17453],[-60.58858,7.17572],[-60.59943,7.18437],[-60.59941,7.20137],[-60.6063,7.20587],[-60.61229,7.20284],[-60.61824,7.20456],[-60.62447,7.21097],[-60.62868,7.2315],[-60.63795,7.24599],[-60.63443,7.25352],[-60.63618,7.26173],[-60.63037,7.27113],[-60.61617,7.27791],[-60.61291,7.28808],[-60.61543,7.29869],[-60.60817,7.30233],[-60.60695,7.30731],[-60.59243,7.30791],[-60.58813,7.31428],[-60.59341,7.32335],[-60.59145,7.33173],[-60.59803,7.33888],[-60.5932,7.34996],[-60.61134,7.3691],[-60.60731,7.37568],[-60.61256,7.39032],[-60.60785,7.39204],[-60.6098,7.3967],[-60.61398,7.39518],[-60.61943,7.40156],[-60.62533,7.40262],[-60.62744,7.40949],[-60.64311,7.41839],[-60.6424,7.42796],[-60.63713,7.43392],[-60.63921,7.44724],[-60.66581,7.45956],[-60.67228,7.45374],[-60.68365,7.46373],[-60.68273,7.47232],[-60.6856,7.47585],[-60.69283,7.47453],[-60.69764,7.47906],[-60.69778,7.48584],[-60.70566,7.49557],[-60.70431,7.50677],[-60.7103,7.51386],[-60.70708,7.51898],[-60.71355,7.52566],[-60.71144,7.52971],[-60.714,7.53441],[-60.72036,7.53884],[-60.71082,7.54538],[-60.71165,7.55312],[-60.70469,7.56025],[-60.69262,7.55575],[-60.68771,7.55842],[-60.69235,7.57557],[-60.68944,7.5782],[-60.68574,7.5781],[-60.67924,7.56599],[-60.6756,7.56488],[-60.66557,7.57063],[-60.66035,7.56457],[-60.63887,7.57758],[-60.6369,7.58253],[-60.6423,7.5928],[-60.63845,7.59719],[-60.63959,7.60072],[-60.6297,7.60325],[-60.62728,7.60971],[-60.62292,7.61003],[-60.61953,7.61694],[-60.6261,7.62331],[-60.6252,7.6331],[-60.61784,7.64268],[-60.61236,7.64347],[-60.60506,7.63787],[-60.60124,7.63965],[-60.59032,7.63148],[-60.58847,7.63472],[-60.59082,7.63695],[-60.59158,7.65721],[-60.58772,7.66065],[-60.59278,7.66753],[-60.59253,7.67291],[-60.58967,7.67953],[-60.58212,7.6787],[-60.58188,7.68654],[-60.57745,7.68891],[-60.57942,7.69625],[-60.57007,7.70371],[-60.56867,7.70912],[-60.57642,7.72081],[-60.57617,7.72627],[-60.5843,7.73028],[-60.58364,7.73422],[-60.58222,7.73753],[-60.57914,7.73652],[-60.56801,7.74285],[-60.55891,7.77019],[-60.55147,7.76991],[-60.55207,7.77807],[-60.53223,7.79509],[-60.53672,7.80246],[-60.53539,7.80491],[-60.54151,7.81103],[-60.53971,7.81607],[-60.52572,7.82307],[-60.52079,7.82231],[-60.51646,7.82502],[-60.51601,7.82923],[-60.5087,7.82812],[-60.5079,7.8319],[-60.50117,7.83502],[-60.49908,7.82981],[-60.49501,7.82915],[-60.48002,7.83333],[-60.47701,7.83147],[-60.46697,7.83832],[-60.45731,7.83533],[-60.44819,7.83957],[-60.44181,7.838],[-60.43763,7.83613],[-60.4345,7.82712],[-60.42917,7.83075],[-60.42314,7.82901],[-60.42135,7.82507],[-60.41049,7.82532],[-60.40482,7.82079],[-60.40218,7.82627],[-60.38893,7.82886],[-60.37989,7.83669],[-60.36247,7.82523],[-60.35265,7.82894],[-60.34407,7.83705],[-60.33292,7.84167],[-60.33125,7.84966],[-60.31757,7.85745],[-60.31216,7.86947],[-60.30112,7.87139],[-60.29423,7.87572],[-60.29388,7.879],[-60.28808,7.87844],[-60.28785,7.88303],[-60.27882,7.88507],[-60.27404,7.8922],[-60.2626,7.89872],[-60.25347,7.91575],[-60.24608,7.91164],[-60.24292,7.93053],[-60.23646,7.9336],[-60.23338,7.93149],[-60.22834,7.93771],[-60.23464,7.94421],[-60.21579,7.9593],[-60.19792,7.95934],[-60.19166,7.96593],[-60.18563,7.96352],[-60.17122,7.97316],[-60.16441,7.97256],[-60.16253,7.98007],[-60.13972,7.99084],[-60.13482,7.99527],[-60.13175,8.00825],[-60.12313,8.01772],[-60.12378,8.02097]]],[[[-57.15977,6.03895],[-57.16196,6.04359],[-57.16016,6.0454],[-57.15977,6.03895]]],[[[-58.21972,6.5887],[-58.21565,6.61036],[-58.21333,6.60933],[-58.21407,6.59722],[-58.21972,6.5887]]],[[[-58.24975,6.53681],[-58.24667,6.54327],[-58.24384,6.54327],[-58.24975,6.53681]]],[[[-58.39452,6.96428],[-58.36921,6.95456],[-58.36251,6.95496],[-58.34701,6.94728],[-58.34622,6.94264],[-58.35911,6.93899],[-58.3757,6.92284],[-58.41139,6.91204],[-58.43508,6.90011],[-58.44999,6.8855],[-58.46236,6.88096],[-58.47381,6.87151],[-58.46118,6.91691],[-58.43414,6.93194],[-58.40689,6.96141],[-58.39452,6.96428]]],[[[-58.44498,7.01851],[-58.43984,7.02381],[-58.43338,7.02112],[-58.40235,6.99364],[-58.40155,6.98565],[-58.42243,6.97427],[-58.4427,6.94802],[-58.46548,6.93004],[-58.49002,6.90239],[-58.50289,6.89372],[-58.51887,6.89186],[-58.48729,6.93358],[-58.45982,6.97723],[-58.44498,7.01851]]],[[[-58.48082,7.0135],[-58.46896,7.09446],[-58.46153,7.07026],[-58.47029,7.02513],[-58.47619,7.01506],[-58.48082,7.0135]]],[[[-58.49127,6.89105],[-58.48378,6.89004],[-58.47975,6.87536],[-58.50172,6.85055],[-58.5058,6.83611],[-58.53094,6.7953],[-58.54726,6.77979],[-58.57014,6.71439],[-58.56381,6.79262],[-58.54561,6.82567],[-58.54198,6.86047],[-58.52245,6.88334],[-58.49127,6.89105]]],[[[-58.51232,6.94098],[-58.50356,6.94255],[-58.51073,6.92294],[-58.53308,6.89993],[-58.55631,6.86637],[-58.56372,6.84984],[-58.5708,6.84414],[-58.54947,6.90452],[-58.52288,6.93579],[-58.51232,6.94098]]],[[[-58.53725,6.75147],[-58.51263,6.79343],[-58.50567,6.7941],[-58.50628,6.78483],[-58.52874,6.75305],[-58.55236,6.72359],[-58.54637,6.7432],[-58.54214,6.74991],[-58.53725,6.75147]]],[[[-58.52921,6.73629],[-58.52049,6.75204],[-58.51226,6.75864],[-58.51095,6.75181],[-58.52921,6.73629]]],[[[-58.51516,6.94277],[-58.52032,6.94108],[-58.51672,6.94676],[-58.5126,6.94691],[-58.51516,6.94277]]],[[[-58.51793,6.7576],[-58.51795,6.76236],[-58.51331,6.76495],[-58.51793,6.7576]]],[[[-58.52575,6.94545],[-58.52243,6.95628],[-58.51856,6.95655],[-58.51596,6.95308],[-58.52575,6.94545]]],[[[-58.54457,6.7039],[-58.52688,6.7363],[-58.53455,6.71463],[-58.54457,6.7039]]],[[[-58.55453,6.9143],[-58.54096,6.94372],[-58.53403,6.95173],[-58.52706,6.95433],[-58.52858,6.94531],[-58.55453,6.9143]]],[[[-58.53268,6.7752],[-58.53295,6.77984],[-58.52986,6.78036],[-58.53268,6.7752]]],[[[-58.54603,6.75571],[-58.53965,6.77685],[-58.53488,6.777],[-58.53819,6.76565],[-58.54603,6.75571]]],[[[-58.55693,6.70025],[-58.55442,6.71946],[-58.53862,6.73576],[-58.55693,6.70025]]],[[[-58.55686,6.83827],[-58.54864,6.84705],[-58.55191,6.82256],[-58.55742,6.81094],[-58.56912,6.79776],[-58.56787,6.81503],[-58.55686,6.83827]]],[[[-58.57055,6.00449],[-58.57066,5.99805],[-58.56665,5.99265],[-58.55389,5.98444],[-58.57029,5.96069],[-58.57002,5.95449],[-58.55533,5.93273],[-58.55888,5.91768],[-58.56796,5.91004],[-58.58196,5.94596],[-58.57751,6.00808],[-58.57108,6.01042],[-58.57055,6.00449]]],[[[-58.5769,6.81539],[-58.57231,6.83565],[-58.55719,6.85862],[-58.55665,6.8527],[-58.5769,6.81539]]],[[[-58.55955,6.29498],[-58.55894,6.29021],[-58.5609,6.29008],[-58.55955,6.29498]]],[[[-58.56848,6.00037],[-58.56823,6.00746],[-58.56527,6.00348],[-58.56848,6.00037]]],[[[-58.56569,6.28001],[-58.56771,6.26506],[-58.57133,6.27098],[-58.57899,6.29131],[-58.57541,6.3001],[-58.56952,6.29474],[-58.56569,6.28001]]],[[[-58.56837,6.1398],[-58.56598,6.1376],[-58.56731,6.13194],[-58.57156,6.13077],[-58.56837,6.1398]]],[[[-58.57083,6.01403],[-58.57538,6.01032],[-58.57806,6.02148],[-58.58232,6.02327],[-58.58143,6.0274],[-58.5742,6.02484],[-58.56943,6.01764],[-58.57083,6.01403]]],[[[-58.57012,6.0331],[-58.57333,6.03154],[-58.57308,6.03464],[-58.57012,6.0331]]],[[[-58.57644,6.75212],[-58.58151,6.76628],[-58.58208,6.77891],[-58.5766,6.80212],[-58.57362,6.79672],[-58.57226,6.77662],[-58.57644,6.75212]]],[[[-58.57506,6.0501],[-58.58123,6.04711],[-58.58267,6.05755],[-58.57509,6.05511],[-58.57249,6.05242],[-58.57506,6.0501]]],[[[-58.5807,6.71525],[-58.57588,6.74026],[-58.57391,6.7279],[-58.5807,6.71525]]],[[[-58.57732,6.11942],[-58.57474,6.11865],[-58.57473,6.11362],[-58.57807,6.11297],[-58.58146,6.11594],[-58.57732,6.11942]]],[[[-58.57705,6.20176],[-58.58132,6.20832],[-58.57965,6.2127],[-58.57705,6.20176]]],[[[-58.58406,6.63704],[-58.58758,6.64977],[-58.58106,6.66706],[-58.57831,6.65289],[-58.58406,6.63704]]],[[[-58.57977,6.66745],[-58.58004,6.67222],[-58.5785,6.67222],[-58.57977,6.66745]]],[[[-58.57908,6.01684],[-58.58115,6.01992],[-58.57883,6.02045],[-58.57908,6.01684]]],[[[-58.57979,6.08359],[-58.58416,6.08151],[-58.58391,6.08512],[-58.57979,6.08359]]],[[[-58.58568,6.74101],[-58.58394,6.75931],[-58.58119,6.74618],[-58.58568,6.74101]]],[[[-58.58221,6.0332],[-58.58429,6.03667],[-58.58145,6.03668],[-58.58221,6.0332]]],[[[-58.58326,6.29723],[-58.58622,6.29902],[-58.58547,6.30598],[-58.58212,6.30445],[-58.58326,6.29723]]],[[[-58.58585,6.71536],[-58.58729,6.72168],[-58.58332,6.72942],[-58.58585,6.71536]]],[[[-58.58687,6.7937],[-58.58807,6.80053],[-58.5832,6.81086],[-58.58687,6.7937]]],[[[-58.58462,6.06321],[-58.58745,6.06662],[-58.58519,6.06857],[-58.58462,6.06321]]],[[[-58.58715,6.08607],[-58.58348,6.09005],[-58.58572,6.08408],[-58.58715,6.08607]]],[[[-58.58736,6.03047],[-58.58412,6.02455],[-58.59159,6.02711],[-58.58736,6.03047]]],[[[-58.58433,6.05213],[-58.59011,6.04799],[-58.59323,6.05829],[-58.589,6.06449],[-58.58433,6.05213]]],[[[-58.58789,6.63006],[-58.59143,6.64615],[-58.58836,6.65183],[-58.58522,6.63664],[-58.58789,6.63006]]],[[[-58.58708,6.1132],[-58.58603,6.10393],[-58.58904,6.10364],[-58.59137,6.10749],[-58.58708,6.1132]]],[[[-58.58805,6.08768],[-58.5906,6.08458],[-58.59191,6.08948],[-58.58701,6.08975],[-58.58805,6.08768]]],[[[-58.59161,6.74189],[-58.59202,6.74666],[-58.58893,6.74822],[-58.59161,6.74189]]],[[[-58.59396,6.75103],[-58.59988,6.78556],[-58.59384,6.79253],[-58.58898,6.76574],[-58.59396,6.75103]]],[[[-58.58938,5.83975],[-58.59045,5.83103],[-58.59394,5.82962],[-58.58938,5.83975]]],[[[-58.59658,6.35749],[-58.5894,6.34351],[-58.59058,6.33535],[-58.59746,6.35053],[-58.59658,6.35749]]],[[[-58.59353,6.02736],[-58.5902,6.0351],[-58.58916,6.03021],[-58.59353,6.02736]]],[[[-58.5921,6.73364],[-58.59161,6.741],[-58.5898,6.73945],[-58.5921,6.73364]]],[[[-58.59304,6.70529],[-58.59334,6.71702],[-58.59166,6.71754],[-58.59304,6.70529]]],[[[-58.59204,6.04824],[-58.60004,6.05337],[-58.59734,6.05467],[-58.59775,6.06317],[-58.59466,6.06267],[-58.59204,6.04824]]],[[[-58.59534,6.37244],[-58.59275,6.36198],[-58.59996,6.37011],[-58.5994,6.37543],[-58.59534,6.37244]]],[[[-58.59533,6.02761],[-58.59612,6.03251],[-58.59341,6.03149],[-58.59533,6.02761]]],[[[-58.59383,6.04424],[-58.5999,6.04873],[-58.59539,6.05004],[-58.59383,6.04424]]],[[[-58.59695,6.39409],[-58.59929,6.40233],[-58.59568,6.40131],[-58.59695,6.39409]]],[[[-58.59708,5.82787],[-58.5987,5.81241],[-58.60575,5.80195],[-58.6082,5.80568],[-58.6072,5.81573],[-58.60143,5.82606],[-58.59708,5.82787]]],[[[-58.59887,6.59446],[-58.59941,6.60309],[-58.59747,6.6],[-58.59887,6.59446]]],[[[-58.60054,6.04847],[-58.60402,6.05104],[-58.60159,6.05363],[-58.60054,6.04847]]],[[[-58.60764,6.67741],[-58.60283,6.70307],[-58.60072,6.68761],[-58.60764,6.67741]]],[[[-58.60426,5.63675],[-58.60274,5.64513],[-58.60145,5.64307],[-58.60426,5.63675]]],[[[-58.60797,5.76805],[-58.61251,5.77964],[-58.61033,5.78506],[-58.60658,5.77811],[-58.60797,5.76805]]],[[[-58.61235,5.68389],[-58.61085,5.6933],[-58.60829,5.69486],[-58.61235,5.68389]]],[[[-58.61341,5.78015],[-58.61445,5.78711],[-58.61189,5.78917],[-58.61341,5.78015]]],[[[-58.61219,6.345],[-58.61095,6.34108],[-58.61301,6.34121],[-58.61219,6.345]]],[[[-58.61443,6.54454],[-58.61531,6.53706],[-58.61651,6.55046],[-58.6155,6.55716],[-58.61279,6.55717],[-58.61443,6.54454]]],[[[-58.61535,6.42869],[-58.6146,6.4381],[-58.61279,6.43836],[-58.61535,6.42869]]],[[[-58.62002,6.43911],[-58.62075,6.427],[-58.62719,6.42543],[-58.62002,6.43911]]],[[[-58.68352,6.3727],[-58.68873,6.3692],[-58.6851,6.37369],[-58.68352,6.3727]]],[[[-58.76178,6.38376],[-58.75869,6.38634],[-58.75611,6.38403],[-58.76178,6.38376]]],[[[-58.75949,6.39072],[-58.75793,6.38815],[-58.76462,6.38592],[-58.76567,6.39044],[-58.75949,6.39072]]],[[[-59.80884,8.30731],[-59.97733,8.52058],[-59.93131,8.48201],[-59.90219,8.44412],[-59.87765,8.3959],[-59.85497,8.37019],[-59.83938,8.35936],[-59.82172,8.36083],[-59.80054,8.35114],[-59.75941,8.33005],[-59.74291,8.31781],[-59.75388,8.29713],[-59.76307,8.28792],[-59.76097,8.2757],[-59.78012,8.28554],[-59.80884,8.30731]]]]}}]}