{"type":"FeatureCollection","features":[{"type":"Feature","properties":{"ISO_A3":"HND","WB_A3":"HND","WB_NAME":"Honduras","WB_REGION":"LCN"},"geometry":{"type":"MultiPolygon","coordinates":[[[[-83.14487,15.00423],[-83.13638,15.00302],[-83.13676,15.00095],[-83.14761,14.99956],[-83.14761,15.00411],[-83.14487,15.00423]]],[[[-87.0533,15.7768],[-87.00994,15.77535],[-86.97189,15.76272],[-86.90511,15.75549],[-86.88595,15.76308],[-86.83061,15.76755],[-86.80665,15.77926],[-86.79254,15.79213],[-86.78162,15.79727],[-86.77404,15.79572],[-86.77577,15.79984],[-86.76273,15.79724],[-86.76034,15.79054],[-86.75953,15.79673],[-86.72149,15.78831],[-86.67865,15.78709],[-86.64804,15.79194],[-86.63712,15.79682],[-86.60413,15.79676],[-86.53173,15.80551],[-86.50616,15.81524],[-86.49631,15.81547],[-86.48195,15.81094],[-86.44449,15.78842],[-86.41366,15.77765],[-86.40407,15.7784],[-86.39209,15.78558],[-86.37241,15.77998],[-86.35883,15.78085],[-86.35017,15.78661],[-86.34602,15.79395],[-86.3375,15.79547],[-86.33269,15.80112],[-86.31272,15.80363],[-86.28342,15.8141],[-86.27488,15.82387],[-86.26221,15.82936],[-86.25511,15.84248],[-86.24471,15.84631],[-86.24216,15.85222],[-86.22707,15.86608],[-86.20893,15.87709],[-86.18256,15.88446],[-86.17987,15.88768],[-86.16177,15.88761],[-86.13138,15.89754],[-86.12363,15.90395],[-86.10743,15.89874],[-86.06216,15.8975],[-86.01184,15.90062],[-85.98679,15.90592],[-85.96543,15.91793],[-85.94302,15.92478],[-85.92456,15.94298],[-85.91738,15.9423],[-85.90868,15.94947],[-85.90023,15.96102],[-85.87134,15.93755],[-85.85027,15.94259],[-85.84035,15.95529],[-85.83372,15.95178],[-85.82891,15.95381],[-85.8297,15.95601],[-85.83875,15.95566],[-85.83727,15.95965],[-85.83268,15.96993],[-85.81696,15.97114],[-85.81729,15.98273],[-85.85715,15.9975],[-85.86809,15.99434],[-85.87145,15.98869],[-85.88172,15.98475],[-85.86941,15.99653],[-85.87792,15.99838],[-85.88861,15.9929],[-85.88689,15.98954],[-85.89131,15.98519],[-85.89188,15.97925],[-85.88774,15.98079],[-85.88817,15.97475],[-85.90287,15.96541],[-85.91577,15.94461],[-85.9235,15.94284],[-85.91325,15.96701],[-85.91144,15.98117],[-85.91521,15.99845],[-85.92116,16.00569],[-85.93725,16.01079],[-85.9815,16.00405],[-85.99715,16.01649],[-86.01311,16.02185],[-86.00962,16.02659],[-86.00109,16.02759],[-85.91673,16.01274],[-85.86668,16.00786],[-85.78105,15.9864],[-85.72444,15.96868],[-85.6939,15.95664],[-85.68703,15.94849],[-85.69776,15.93593],[-85.69624,15.92381],[-85.68936,15.91682],[-85.68815,15.91964],[-85.69343,15.92586],[-85.69445,15.93282],[-85.69294,15.93976],[-85.68519,15.945],[-85.68378,15.9498],[-85.62974,15.91645],[-85.58464,15.89387],[-85.49439,15.86158],[-85.47231,15.85962],[-85.44755,15.86125],[-85.42857,15.87245],[-85.40245,15.87767],[-85.30906,15.87721],[-85.2275,15.88944],[-85.17731,15.90872],[-85.11349,15.95942],[-85.07177,15.9803],[-85.04589,15.98547],[-85.02008,15.98447],[-85.02064,15.98112],[-85.0092,15.98115],[-85.00684,15.977],[-84.99733,15.97698],[-84.99534,15.96917],[-84.99809,15.96625],[-84.99576,15.96686],[-84.99475,15.97483],[-84.99718,15.97801],[-85.00683,15.97829],[-85.01529,15.98429],[-84.92611,15.9577],[-84.93016,15.95298],[-84.97469,15.97078],[-84.97793,15.96695],[-84.96462,15.96708],[-84.95724,15.9598],[-84.95139,15.95872],[-84.95526,15.94497],[-84.95205,15.94662],[-84.94489,15.94346],[-84.94818,15.94735],[-84.9461,15.95557],[-84.92725,15.95063],[-84.92373,15.95626],[-84.91976,15.95429],[-84.91771,15.9468],[-84.9095,15.94248],[-84.90177,15.94356],[-84.89932,15.93684],[-84.90943,15.9372],[-84.91203,15.92975],[-84.93226,15.92943],[-84.93231,15.92506],[-84.91691,15.92156],[-84.91245,15.91508],[-84.92404,15.9139],[-84.92493,15.9049],[-84.93978,15.89642],[-84.95553,15.89167],[-84.9601,15.88656],[-84.97156,15.88551],[-84.9728,15.88141],[-84.96551,15.87799],[-84.96265,15.87152],[-84.97786,15.8669],[-84.98995,15.8692],[-84.98861,15.85632],[-84.99774,15.85619],[-84.99449,15.85392],[-84.98795,15.85631],[-84.98848,15.86932],[-84.97601,15.8656],[-84.96185,15.87152],[-84.96352,15.87771],[-84.97108,15.8801],[-84.97156,15.88474],[-84.95985,15.88566],[-84.95073,15.89317],[-84.92722,15.90145],[-84.92311,15.91364],[-84.91139,15.91481],[-84.91716,15.92246],[-84.93124,15.9253],[-84.9304,15.92954],[-84.91231,15.92885],[-84.9085,15.93693],[-84.90001,15.93453],[-84.89965,15.94354],[-84.90922,15.94376],[-84.91597,15.94756],[-84.91805,15.95299],[-84.85991,15.9259],[-84.78728,15.89967],[-84.71223,15.87816],[-84.65728,15.86818],[-84.65057,15.86115],[-84.65833,15.85737],[-84.66415,15.84868],[-84.6719,15.81092],[-84.66299,15.78765],[-84.64719,15.77396],[-84.62749,15.77606],[-84.61785,15.78252],[-84.61406,15.78789],[-84.62011,15.80469],[-84.61774,15.81471],[-84.60109,15.80525],[-84.5937,15.78947],[-84.5828,15.77853],[-84.56256,15.78127],[-84.55639,15.77764],[-84.55876,15.76539],[-84.55571,15.76459],[-84.55601,15.77257],[-84.55019,15.7707],[-84.55193,15.78038],[-84.54058,15.77343],[-84.53022,15.77266],[-84.54237,15.77963],[-84.53065,15.78155],[-84.53348,15.78957],[-84.53931,15.79105],[-84.52606,15.8093],[-84.52051,15.80589],[-84.52788,15.8016],[-84.52832,15.798],[-84.5169,15.79736],[-84.50853,15.80756],[-84.50378,15.80442],[-84.5058,15.81293],[-84.50164,15.81649],[-84.49644,15.81772],[-84.49062,15.80796],[-84.48488,15.80651],[-84.48257,15.81035],[-84.48317,15.81563],[-84.48818,15.81891],[-84.48666,15.82223],[-84.4903,15.81919],[-84.49478,15.82246],[-84.49509,15.8195],[-84.50176,15.81765],[-84.50434,15.8236],[-84.51696,15.82439],[-84.52047,15.83164],[-84.52471,15.83246],[-84.52253,15.83681],[-84.53661,15.83787],[-84.54905,15.84291],[-84.57164,15.84419],[-84.57983,15.84904],[-84.64538,15.86135],[-84.64882,15.86345],[-84.64349,15.86455],[-84.47369,15.82891],[-84.42909,15.82298],[-84.30422,15.81542],[-84.28392,15.79225],[-84.29284,15.78181],[-84.28987,15.77482],[-84.28263,15.76984],[-84.28446,15.76214],[-84.30519,15.75185],[-84.30221,15.74231],[-84.30266,15.75284],[-84.29226,15.75516],[-84.28181,15.76467],[-84.28181,15.77138],[-84.29179,15.78051],[-84.28286,15.7925],[-84.2895,15.80262],[-84.10891,15.65847],[-83.97576,15.53598],[-83.8832,15.46045],[-83.83563,15.43031],[-83.80167,15.41335],[-83.76032,15.39954],[-83.72893,15.39336],[-83.74036,15.37469],[-83.75763,15.37654],[-83.7582,15.3791],[-83.77793,15.38684],[-83.80794,15.41113],[-83.83596,15.42594],[-83.86084,15.42951],[-83.88375,15.4409],[-83.89706,15.43825],[-83.92406,15.44249],[-83.93134,15.45237],[-83.92422,15.44957],[-83.92295,15.4547],[-83.92998,15.47307],[-83.96031,15.49459],[-83.96189,15.50439],[-83.9644,15.50571],[-83.96862,15.49818],[-83.97581,15.4966],[-83.99036,15.49963],[-84.00224,15.50404],[-84.0127,15.51486],[-84.02808,15.51597],[-84.042,15.5262],[-84.05556,15.52522],[-84.0439,15.52378],[-84.05817,15.49977],[-84.07131,15.49043],[-84.07184,15.48091],[-84.091,15.493],[-84.09878,15.49053],[-84.09896,15.49671],[-84.11101,15.50845],[-84.11472,15.50876],[-84.1152,15.51237],[-84.10252,15.5077],[-84.08806,15.51703],[-84.08291,15.53356],[-84.08612,15.54158],[-84.09594,15.54158],[-84.09998,15.5379],[-84.11668,15.53941],[-84.13075,15.52981],[-84.1305,15.51951],[-84.12579,15.51392],[-84.11732,15.51252],[-84.1116,15.49404],[-84.10459,15.49267],[-84.10713,15.48189],[-84.09701,15.48433],[-84.09853,15.48924],[-84.09101,15.49141],[-84.08686,15.48857],[-84.08914,15.47779],[-84.09774,15.46993],[-84.10385,15.46936],[-84.11154,15.46998],[-84.119,15.47741],[-84.11847,15.48731],[-84.13099,15.49327],[-84.13571,15.51649],[-84.1545,15.53051],[-84.17939,15.53497],[-84.19736,15.5223],[-84.22835,15.53724],[-84.24041,15.5289],[-84.22699,15.51972],[-84.22544,15.50683],[-84.21597,15.50053],[-84.19981,15.49775],[-84.2059,15.46952],[-84.20395,15.4664],[-84.20303,15.4754],[-84.19609,15.47866],[-84.1963,15.48278],[-84.18705,15.47932],[-84.18524,15.48573],[-84.16489,15.48907],[-84.16791,15.50095],[-84.17308,15.50205],[-84.17137,15.51978],[-84.15043,15.51771],[-84.14576,15.5098],[-84.13654,15.50441],[-84.1314,15.49224],[-84.119,15.48668],[-84.1216,15.48105],[-84.11993,15.46764],[-84.11749,15.46208],[-84.10826,15.45745],[-84.10317,15.43268],[-84.11429,15.42446],[-84.12356,15.42586],[-84.1235,15.43037],[-84.13229,15.42752],[-84.13453,15.41957],[-84.12471,15.41005],[-84.12599,15.40363],[-84.13767,15.40301],[-84.13844,15.3953],[-84.11373,15.35372],[-84.09849,15.33944],[-84.07923,15.33212],[-84.05401,15.33371],[-84.05381,15.32908],[-84.04858,15.32386],[-84.03855,15.32077],[-84.03025,15.32645],[-84.02955,15.33828],[-84.04223,15.36084],[-84.04214,15.36702],[-84.03921,15.36775],[-84.03608,15.35458],[-84.02779,15.35035],[-84.02209,15.3405],[-84.0173,15.34146],[-84.02611,15.30992],[-84.02478,15.30038],[-84.0201,15.29389],[-83.98673,15.29125],[-83.95613,15.29907],[-83.94341,15.29813],[-83.95139,15.29643],[-83.95051,15.29346],[-83.95938,15.29371],[-83.95814,15.28778],[-83.97035,15.28743],[-83.96588,15.27566],[-83.96978,15.27121],[-83.97106,15.27431],[-83.97335,15.27241],[-83.97449,15.26651],[-83.97284,15.2616],[-83.94971,15.24739],[-83.93694,15.23229],[-83.91898,15.22792],[-83.87822,15.24203],[-83.8437,15.24669],[-83.83556,15.25919],[-83.83728,15.26822],[-83.88336,15.28919],[-83.8892,15.29751],[-83.88979,15.30241],[-83.8867,15.30545],[-83.89871,15.30896],[-83.8986,15.31863],[-83.90417,15.32287],[-83.91004,15.32592],[-83.91775,15.3217],[-83.90826,15.32072],[-83.90608,15.3128],[-83.93624,15.31733],[-83.96019,15.33001],[-83.97016,15.32796],[-83.98343,15.3365],[-84.00678,15.33553],[-84.01703,15.34236],[-84.02128,15.3419],[-84.02751,15.35099],[-84.03555,15.35483],[-84.03492,15.36151],[-84.04419,15.37232],[-84.03771,15.37082],[-84.03859,15.37417],[-84.04805,15.37147],[-84.05066,15.37433],[-84.04926,15.38847],[-84.02424,15.39457],[-84.02645,15.38817],[-84.01616,15.38468],[-84.01489,15.38042],[-84.00157,15.38436],[-83.99846,15.37981],[-84.01002,15.37791],[-84.00807,15.36605],[-83.99271,15.36455],[-83.99398,15.35916],[-83.99137,15.35604],[-83.98293,15.3531],[-83.97837,15.35638],[-83.98114,15.36645],[-83.98714,15.37348],[-83.99011,15.37018],[-83.99762,15.38238],[-84.00182,15.38552],[-84.01256,15.38567],[-84.01676,15.3982],[-84.02186,15.39415],[-84.02457,15.39921],[-84.02175,15.40213],[-84.01194,15.40148],[-83.97357,15.39492],[-83.92938,15.36935],[-83.91581,15.35424],[-83.89681,15.34754],[-83.88432,15.33141],[-83.86118,15.31873],[-83.84157,15.3182],[-83.83819,15.31378],[-83.83257,15.31678],[-83.82405,15.302],[-83.80131,15.28989],[-83.80268,15.28331],[-83.82199,15.2716],[-83.82997,15.26065],[-83.81897,15.26161],[-83.81268,15.2671],[-83.80524,15.26642],[-83.7926,15.27262],[-83.7937,15.2757],[-83.78313,15.2784],[-83.76889,15.26468],[-83.76626,15.25596],[-83.76862,15.25387],[-83.76768,15.24307],[-83.77542,15.23706],[-83.77745,15.23008],[-83.76783,15.20753],[-83.77386,15.20324],[-83.77343,15.19654],[-83.7674,15.19247],[-83.76372,15.19898],[-83.76044,15.19687],[-83.75962,15.18965],[-83.75722,15.19091],[-83.7578,15.19645],[-83.75251,15.19796],[-83.75784,15.20249],[-83.75737,15.20686],[-83.75409,15.20785],[-83.73838,15.20173],[-83.74068,15.19514],[-83.74611,15.19469],[-83.73952,15.1873],[-83.73434,15.19715],[-83.72321,15.19741],[-83.71453,15.20202],[-83.71285,15.22675],[-83.70147,15.23848],[-83.67401,15.2473],[-83.67252,15.2553],[-83.66428,15.25398],[-83.64798,15.26486],[-83.6453,15.27338],[-83.64949,15.28003],[-83.64772,15.287],[-83.63958,15.29302],[-83.63238,15.2904],[-83.62288,15.29385],[-83.61382,15.29036],[-83.60987,15.29298],[-83.59788,15.28797],[-83.58997,15.29231],[-83.59027,15.28432],[-83.58666,15.28166],[-83.58139,15.28455],[-83.56863,15.28226],[-83.56417,15.28617],[-83.55935,15.28236],[-83.55674,15.28548],[-83.55374,15.27856],[-83.54895,15.28892],[-83.55144,15.29713],[-83.54786,15.29691],[-83.54197,15.28179],[-83.5463,15.27788],[-83.54543,15.27197],[-83.54143,15.27021],[-83.54135,15.26352],[-83.52657,15.25802],[-83.52624,15.25287],[-83.53591,15.25148],[-83.5512,15.23303],[-83.54475,15.21521],[-83.55668,15.21481],[-83.55992,15.20898],[-83.55286,15.20636],[-83.55012,15.19905],[-83.56466,15.19529],[-83.56782,15.20452],[-83.58759,15.22746],[-83.61158,15.23838],[-83.6215,15.22526],[-83.62313,15.21778],[-83.61861,15.20599],[-83.63524,15.20065],[-83.64269,15.18125],[-83.63826,15.16612],[-83.63108,15.16401],[-83.6274,15.16637],[-83.62233,15.1748],[-83.62733,15.19327],[-83.61512,15.20243],[-83.61575,15.2104],[-83.61204,15.2107],[-83.61509,15.1893],[-83.61219,15.16899],[-83.60318,15.15867],[-83.58752,15.15705],[-83.5796,15.15933],[-83.56058,15.17551],[-83.55851,15.19085],[-83.54893,15.19881],[-83.55208,15.20727],[-83.5566,15.20876],[-83.55639,15.21301],[-83.54156,15.21486],[-83.53331,15.21147],[-83.52962,15.21357],[-83.52397,15.20643],[-83.51731,15.20406],[-83.50619,15.2056],[-83.49333,15.21643],[-83.50065,15.23051],[-83.52526,15.24825],[-83.52551,15.25803],[-83.5395,15.26354],[-83.53995,15.27168],[-83.54384,15.27198],[-83.54576,15.2766],[-83.53625,15.28031],[-83.53274,15.27507],[-83.52797,15.27525],[-83.52499,15.28095],[-83.52799,15.28838],[-83.55239,15.29879],[-83.5554,15.30635],[-83.60516,15.31903],[-83.65079,15.34064],[-83.62513,15.32575],[-83.59689,15.31591],[-83.60136,15.31264],[-83.60959,15.31332],[-83.61347,15.30465],[-83.62563,15.30167],[-83.62734,15.31157],[-83.63161,15.31357],[-83.62518,15.31893],[-83.63064,15.32079],[-83.6404,15.3163],[-83.65237,15.31886],[-83.65442,15.32399],[-83.65072,15.3351],[-83.6563,15.33632],[-83.65756,15.33051],[-83.66548,15.32759],[-83.6708,15.3292],[-83.6843,15.34744],[-83.68861,15.34237],[-83.6997,15.34854],[-83.70162,15.35341],[-83.71173,15.3556],[-83.71699,15.35258],[-83.72656,15.35388],[-83.73843,15.3585],[-83.73444,15.36781],[-83.71502,15.37449],[-83.71704,15.38682],[-83.71917,15.37727],[-83.73421,15.37052],[-83.73543,15.37243],[-83.72477,15.37926],[-83.7204,15.38986],[-83.72129,15.39706],[-83.71836,15.39658],[-83.67868,15.36411],[-83.6282,15.33717],[-83.56984,15.3161],[-83.46283,15.2846],[-83.41968,15.26847],[-83.3906,15.25385],[-83.38822,15.24203],[-83.39514,15.23256],[-83.433,15.22726],[-83.44134,15.21468],[-83.44425,15.19173],[-83.4538,15.19176],[-83.46221,15.18536],[-83.47575,15.18688],[-83.4825,15.17484],[-83.49589,15.16413],[-83.49045,15.14051],[-83.49569,15.13556],[-83.50302,15.11617],[-83.51173,15.11362],[-83.52669,15.12324],[-83.54312,15.12357],[-83.54839,15.12055],[-83.55145,15.11048],[-83.53844,15.11157],[-83.54906,15.11037],[-83.55135,15.11305],[-83.54444,15.12278],[-83.52508,15.12197],[-83.51199,15.11285],[-83.50248,15.11579],[-83.49489,15.13505],[-83.49043,15.13922],[-83.48945,15.14541],[-83.49494,15.16208],[-83.48092,15.17588],[-83.47758,15.18506],[-83.46326,15.18419],[-83.45405,15.19073],[-83.4424,15.19175],[-83.44039,15.21289],[-83.43298,15.22546],[-83.40514,15.22588],[-83.40313,15.20067],[-83.39995,15.20096],[-83.39832,15.20922],[-83.39481,15.20411],[-83.39311,15.20567],[-83.39152,15.21728],[-83.38152,15.20116],[-83.37821,15.20094],[-83.38051,15.21714],[-83.37655,15.23057],[-83.37176,15.22907],[-83.358,15.20759],[-83.33701,15.14369],[-83.31886,15.10835],[-83.30016,15.08176],[-83.2734,15.05782],[-83.23872,15.03525],[-83.19986,15.01838],[-83.17011,15.01068],[-83.16448,15.00404],[-83.14868,15.00084],[-83.15354,14.99629],[-83.17256,14.99122],[-83.19623,14.99987],[-83.20178,14.99917],[-83.22971,14.98448],[-83.25626,14.9904],[-83.27797,14.98928],[-83.27322,15.00298],[-83.27524,15.00605],[-83.30087,14.99961],[-83.34257,15.01039],[-83.34733,15.00931],[-83.34874,15.0053],[-83.34718,14.99553],[-83.35517,14.99906],[-83.36076,15.0148],[-83.38263,15.01564],[-83.40251,15.02959],[-83.40695,15.0243],[-83.40068,15.0159],[-83.40586,15.00884],[-83.40575,14.99975],[-83.41468,15.00284],[-83.42003,14.99632],[-83.42015,14.9907],[-83.42919,14.99496],[-83.43858,14.99487],[-83.44814,14.98504],[-83.45967,14.98087],[-83.47065,14.98932],[-83.4792,14.99001],[-83.47611,15.00289],[-83.47837,15.00463],[-83.50016,15.01106],[-83.51291,15.00155],[-83.51439,14.99188],[-83.51747,14.99017],[-83.52412,14.99498],[-83.52833,14.99342],[-83.52954,14.98889],[-83.52309,14.97804],[-83.52484,14.974],[-83.53106,14.97543],[-83.53653,14.98132],[-83.54114,14.97797],[-83.53892,14.96294],[-83.52919,14.95062],[-83.53677,14.9483],[-83.54813,14.95727],[-83.54708,14.94736],[-83.5389,14.94509],[-83.53899,14.94013],[-83.55946,14.93967],[-83.56199,14.92706],[-83.55977,14.91358],[-83.56225,14.91182],[-83.57176,14.91882],[-83.57834,14.91137],[-83.59367,14.9204],[-83.59969,14.91905],[-83.60065,14.91492],[-83.59438,14.9109],[-83.59283,14.90486],[-83.60077,14.90022],[-83.61494,14.89865],[-83.60892,14.89423],[-83.60904,14.89097],[-83.61538,14.88442],[-83.6148,14.87523],[-83.61944,14.86966],[-83.61763,14.86152],[-83.62351,14.86273],[-83.62049,14.87663],[-83.6228,14.87809],[-83.64441,14.88226],[-83.65153,14.87845],[-83.66229,14.87941],[-83.67293,14.87435],[-83.67901,14.867],[-83.68356,14.867],[-83.68866,14.8791],[-83.69312,14.88032],[-83.69556,14.87783],[-83.6941,14.86549],[-83.69952,14.85835],[-83.70634,14.85624],[-83.71633,14.85844],[-83.72029,14.85591],[-83.72129,14.84957],[-83.71796,14.84791],[-83.70893,14.8531],[-83.69959,14.84934],[-83.701,14.84094],[-83.69708,14.83367],[-83.70136,14.82454],[-83.70517,14.82654],[-83.71022,14.84196],[-83.7257,14.83468],[-83.73561,14.8386],[-83.73734,14.84579],[-83.74222,14.84641],[-83.74365,14.83996],[-83.73152,14.83245],[-83.72866,14.82568],[-83.73082,14.81993],[-83.73796,14.82008],[-83.74242,14.82808],[-83.75207,14.83174],[-83.75468,14.82875],[-83.75217,14.81513],[-83.75914,14.80625],[-83.7747,14.8105],[-83.78091,14.82338],[-83.78463,14.82132],[-83.78451,14.80746],[-83.79345,14.8026],[-83.79736,14.80204],[-83.81006,14.81212],[-83.81543,14.81246],[-83.81846,14.80898],[-83.81377,14.80276],[-83.79384,14.79979],[-83.79064,14.79779],[-83.78967,14.79065],[-83.79607,14.78825],[-83.80352,14.79837],[-83.81416,14.78995],[-83.82629,14.79578],[-83.83232,14.79277],[-83.83468,14.78399],[-83.84306,14.77335],[-83.86078,14.77442],[-83.87027,14.76744],[-83.87986,14.77003],[-83.8741,14.78046],[-83.87615,14.78696],[-83.88536,14.78792],[-83.88644,14.76679],[-83.88907,14.76377],[-83.89577,14.76872],[-83.89191,14.7876],[-83.89862,14.7896],[-83.90078,14.77792],[-83.90507,14.77454],[-83.91028,14.77784],[-83.91013,14.79011],[-83.91694,14.79149],[-83.91599,14.77436],[-83.91971,14.77238],[-83.9331,14.77764],[-83.93886,14.77319],[-83.93544,14.76513],[-83.92684,14.7635],[-83.9199,14.75291],[-83.92141,14.74885],[-83.92765,14.74773],[-83.94114,14.75856],[-83.94737,14.7585],[-83.97328,14.74674],[-83.98637,14.74824],[-84.00106,14.75981],[-84.01263,14.74751],[-84.02238,14.74487],[-84.0344,14.74733],[-84.04577,14.75354],[-84.03966,14.76833],[-84.04612,14.77425],[-84.05756,14.76421],[-84.08065,14.75773],[-84.08424,14.7647],[-84.08059,14.78211],[-84.08382,14.7878],[-84.11063,14.79068],[-84.11681,14.78478],[-84.11674,14.77348],[-84.0958,14.73186],[-84.10286,14.72946],[-84.12519,14.73383],[-84.14866,14.71898],[-84.16809,14.71413],[-84.18886,14.71591],[-84.1993,14.72124],[-84.21307,14.73434],[-84.22004,14.73164],[-84.22823,14.73421],[-84.22989,14.73829],[-84.22314,14.74939],[-84.2234,14.75608],[-84.23281,14.76107],[-84.26076,14.74593],[-84.27201,14.73386],[-84.27298,14.7239],[-84.26368,14.70128],[-84.26653,14.6864],[-84.25886,14.68078],[-84.25836,14.67624],[-84.27239,14.66451],[-84.2826,14.66138],[-84.29854,14.66402],[-84.30847,14.68374],[-84.31302,14.68445],[-84.329,14.6757],[-84.33735,14.67531],[-84.34897,14.67983],[-84.35393,14.68981],[-84.34478,14.70006],[-84.34583,14.70334],[-84.36373,14.71722],[-84.36726,14.70428],[-84.37777,14.69712],[-84.38448,14.68019],[-84.41445,14.65728],[-84.41221,14.64539],[-84.41459,14.64228],[-84.42486,14.64109],[-84.43217,14.63344],[-84.46279,14.63275],[-84.46825,14.61691],[-84.47258,14.61593],[-84.4961,14.62043],[-84.50332,14.62574],[-84.50783,14.63663],[-84.52339,14.63537],[-84.52668,14.62995],[-84.53051,14.63082],[-84.53862,14.645],[-84.52372,14.6487],[-84.52426,14.65574],[-84.52873,14.65787],[-84.55123,14.65699],[-84.56006,14.65047],[-84.56663,14.65882],[-84.57438,14.6524],[-84.57946,14.65299],[-84.58356,14.65664],[-84.58485,14.66626],[-84.59496,14.65896],[-84.61356,14.66571],[-84.62596,14.66296],[-84.62941,14.66572],[-84.6318,14.67737],[-84.64393,14.67239],[-84.6561,14.67473],[-84.66539,14.67298],[-84.67038,14.67965],[-84.66759,14.69046],[-84.67406,14.69483],[-84.67911,14.69159],[-84.69482,14.66592],[-84.7035,14.66604],[-84.70189,14.67376],[-84.70635,14.68312],[-84.70276,14.6892],[-84.70419,14.69326],[-84.71313,14.69208],[-84.726,14.69864],[-84.72982,14.70928],[-84.74331,14.71299],[-84.74551,14.71669],[-84.74945,14.7317],[-84.74304,14.73908],[-84.74266,14.74879],[-84.7496,14.74796],[-84.75402,14.74175],[-84.75954,14.7409],[-84.77155,14.74944],[-84.76876,14.7608],[-84.76467,14.76064],[-84.75835,14.75305],[-84.75096,14.75463],[-84.74971,14.76736],[-84.75464,14.77477],[-84.76148,14.77562],[-84.78518,14.79248],[-84.7918,14.81277],[-84.79032,14.81628],[-84.81939,14.82941],[-84.84568,14.82387],[-84.85142,14.81367],[-84.85881,14.81164],[-84.87735,14.81648],[-84.88707,14.81284],[-84.89682,14.81551],[-84.90135,14.81351],[-84.93153,14.77108],[-84.92335,14.76595],[-84.92775,14.75891],[-84.9393,14.75895],[-84.94204,14.75485],[-84.96099,14.7567],[-84.97116,14.74767],[-84.97263,14.74229],[-84.98679,14.74047],[-84.99594,14.72604],[-85.02892,14.70214],[-85.02826,14.69692],[-85.02172,14.6931],[-85.0208,14.68693],[-85.02737,14.6731],[-85.04563,14.67129],[-85.05101,14.6608],[-85.0488,14.65026],[-85.03323,14.64747],[-85.02384,14.63312],[-85.02682,14.62552],[-85.0433,14.61189],[-85.03914,14.60813],[-85.02179,14.60934],[-85.04286,14.57486],[-85.05889,14.56861],[-85.06395,14.56089],[-85.07644,14.55899],[-85.08773,14.55249],[-85.09499,14.55287],[-85.10648,14.561],[-85.11303,14.57735],[-85.11891,14.57838],[-85.12235,14.58597],[-85.1334,14.57711],[-85.14431,14.57719],[-85.15249,14.57066],[-85.15008,14.56579],[-85.14282,14.56354],[-85.14049,14.5536],[-85.14778,14.5441],[-85.13897,14.51875],[-85.14817,14.5043],[-85.14981,14.48717],[-85.15314,14.48295],[-85.16251,14.4824],[-85.1678,14.47464],[-85.17459,14.4769],[-85.18234,14.47117],[-85.18514,14.46645],[-85.18157,14.45831],[-85.18562,14.44589],[-85.1808,14.43347],[-85.18177,14.42793],[-85.18894,14.42336],[-85.19178,14.40848],[-85.20175,14.40704],[-85.20608,14.3872],[-85.22173,14.37598],[-85.21773,14.36794],[-85.20882,14.37006],[-85.19669,14.36429],[-85.199,14.35892],[-85.19573,14.35102],[-85.19958,14.34601],[-85.19541,14.34184],[-85.19258,14.32932],[-85.18263,14.33407],[-85.17942,14.31437],[-85.15327,14.30238],[-85.15886,14.28759],[-85.16684,14.28311],[-85.16927,14.27618],[-85.17836,14.2682],[-85.1862,14.24917],[-85.2017,14.25756],[-85.20967,14.25301],[-85.22232,14.255],[-85.22597,14.25174],[-85.24101,14.2524],[-85.25412,14.25932],[-85.26132,14.25821],[-85.26953,14.26229],[-85.26984,14.25908],[-85.28568,14.26041],[-85.28931,14.2513],[-85.2975,14.25],[-85.30991,14.25658],[-85.3288,14.25112],[-85.33203,14.24746],[-85.34063,14.2489],[-85.34177,14.2324],[-85.35626,14.23124],[-85.35541,14.22524],[-85.36135,14.21301],[-85.36881,14.21312],[-85.36699,14.2209],[-85.36993,14.22498],[-85.38339,14.22147],[-85.38328,14.21875],[-85.37484,14.21509],[-85.37702,14.20893],[-85.37365,14.1975],[-85.38094,14.19598],[-85.37517,14.18207],[-85.38158,14.1797],[-85.3892,14.16841],[-85.39784,14.16339],[-85.4009,14.14654],[-85.39539,14.14251],[-85.39534,14.13777],[-85.40332,14.13495],[-85.40551,14.12213],[-85.41347,14.12216],[-85.42007,14.11504],[-85.42606,14.11649],[-85.43126,14.10616],[-85.44224,14.10549],[-85.45388,14.1145],[-85.46557,14.09421],[-85.47695,14.09473],[-85.47903,14.08354],[-85.48235,14.08852],[-85.4926,14.08816],[-85.49067,14.08176],[-85.49447,14.07578],[-85.49749,14.07698],[-85.4991,14.0865],[-85.50554,14.08828],[-85.50904,14.07695],[-85.50669,14.06323],[-85.51115,14.05945],[-85.51901,14.06145],[-85.521,14.05932],[-85.51692,14.05115],[-85.51911,14.04743],[-85.52681,14.04915],[-85.5372,14.04602],[-85.56155,14.05108],[-85.55573,14.0643],[-85.56729,14.06243],[-85.57304,14.06515],[-85.5783,14.05835],[-85.57732,14.0435],[-85.58569,14.03998],[-85.59134,14.04386],[-85.60345,14.02672],[-85.61491,14.01937],[-85.62258,14.02157],[-85.62543,14.01931],[-85.62376,14.00938],[-85.64001,14.0121],[-85.65858,14.01031],[-85.66273,14.01269],[-85.66813,13.99666],[-85.66735,13.98694],[-85.67742,13.97939],[-85.68371,13.98077],[-85.68668,13.98942],[-85.70453,13.99298],[-85.72384,13.98168],[-85.7238,13.97695],[-85.73207,13.96992],[-85.7534,13.96767],[-85.75248,13.95528],[-85.75746,13.94903],[-85.75357,13.94305],[-85.75193,13.92926],[-85.75747,13.912],[-85.7561,13.90317],[-85.76421,13.88522],[-85.76071,13.88185],[-85.75416,13.88237],[-85.73886,13.87191],[-85.73338,13.8611],[-85.74219,13.85273],[-85.73736,13.84526],[-85.73856,13.84249],[-85.74714,13.83995],[-85.75226,13.83241],[-85.75634,13.84274],[-85.76709,13.84891],[-85.79273,13.842],[-85.80385,13.84321],[-85.81348,13.84946],[-85.8195,13.84861],[-85.8228,13.85767],[-85.82677,13.85751],[-85.82657,13.86911],[-85.83619,13.87644],[-85.84083,13.88584],[-85.83748,13.89294],[-85.84139,13.89575],[-85.83703,13.89906],[-85.84559,13.9177],[-85.85255,13.92112],[-85.86915,13.92202],[-85.88212,13.92936],[-85.88411,13.92518],[-85.88836,13.92495],[-85.88717,13.92156],[-85.89236,13.91567],[-85.8907,13.90954],[-85.8976,13.90303],[-85.91318,13.90841],[-85.91604,13.91656],[-85.91267,13.92595],[-85.91894,13.93743],[-85.92106,13.93157],[-85.93517,13.94069],[-85.94783,13.94438],[-85.95505,13.95094],[-85.96514,13.95136],[-85.96656,13.95996],[-85.9767,13.96161],[-85.98418,13.96906],[-85.98784,13.96952],[-85.99138,13.96444],[-85.99599,13.96688],[-85.99534,13.96974],[-86.00072,13.97172],[-86.0021,13.97768],[-86.01034,13.98609],[-86.01585,13.98646],[-86.01732,13.99184],[-86.02205,13.99091],[-86.02744,13.99853],[-86.03385,13.99396],[-86.04216,13.99604],[-86.00868,14.05572],[-86.01136,14.06061],[-86.00366,14.07001],[-86.01164,14.08022],[-86.0387,14.07669],[-86.04322,14.06947],[-86.07608,14.06964],[-86.0771,14.06305],[-86.08699,14.06504],[-86.10695,14.05843],[-86.11847,14.04482],[-86.12627,14.04467],[-86.13508,14.04976],[-86.13277,14.04489],[-86.1537,14.03373],[-86.1575,14.02459],[-86.15035,14.01489],[-86.14431,14.0139],[-86.14461,14.00932],[-86.13978,14.00559],[-86.14169,13.99955],[-86.14586,13.99431],[-86.1514,13.99648],[-86.15496,13.99239],[-86.15757,13.99338],[-86.16702,13.98072],[-86.17538,13.9796],[-86.1866,13.98572],[-86.18965,13.98435],[-86.19253,13.98081],[-86.18487,13.95959],[-86.18622,13.95496],[-86.19348,13.95457],[-86.19803,13.94848],[-86.19505,13.94286],[-86.19907,13.93536],[-86.21692,13.93683],[-86.2259,13.92627],[-86.2265,13.91973],[-86.22231,13.91482],[-86.22514,13.90816],[-86.22784,13.90548],[-86.24211,13.90443],[-86.24909,13.89205],[-86.24703,13.88818],[-86.25684,13.88659],[-86.25652,13.88082],[-86.26807,13.88017],[-86.26879,13.87729],[-86.27809,13.87535],[-86.27585,13.8705],[-86.27917,13.85781],[-86.29516,13.85134],[-86.30244,13.83718],[-86.29514,13.82552],[-86.29659,13.81607],[-86.30336,13.81548],[-86.30344,13.8086],[-86.31638,13.80204],[-86.3154,13.79225],[-86.33064,13.77773],[-86.33414,13.76877],[-86.34181,13.76658],[-86.34652,13.76856],[-86.35002,13.76246],[-86.35699,13.76624],[-86.36386,13.76258],[-86.37258,13.76542],[-86.37684,13.77097],[-86.38679,13.76134],[-86.39804,13.76249],[-86.40171,13.75805],[-86.41003,13.75994],[-86.41614,13.75766],[-86.42644,13.76535],[-86.44007,13.76406],[-86.44648,13.7726],[-86.4527,13.79017],[-86.47336,13.77091],[-86.48212,13.77521],[-86.48297,13.77134],[-86.49173,13.76877],[-86.5036,13.77574],[-86.51412,13.7749],[-86.52291,13.78136],[-86.52217,13.7867],[-86.53095,13.79577],[-86.53048,13.79942],[-86.53954,13.80471],[-86.54773,13.79753],[-86.55665,13.8028],[-86.58559,13.78461],[-86.59585,13.78812],[-86.6095,13.78182],[-86.61955,13.78764],[-86.62383,13.78539],[-86.62776,13.78769],[-86.64414,13.77744],[-86.64963,13.77984],[-86.65962,13.77521],[-86.66425,13.7774],[-86.66591,13.78401],[-86.7234,13.78698],[-86.76099,13.76888],[-86.76944,13.75464],[-86.7595,13.72738],[-86.76249,13.72165],[-86.76082,13.71779],[-86.7645,13.71534],[-86.76819,13.70022],[-86.78612,13.6625],[-86.7679,13.65126],[-86.75525,13.65162],[-86.74915,13.63964],[-86.76952,13.57618],[-86.76499,13.5714],[-86.757,13.5714],[-86.75081,13.56645],[-86.74291,13.52796],[-86.74153,13.48655],[-86.72377,13.45701],[-86.72516,13.44243],[-86.72093,13.43481],[-86.74417,13.40659],[-86.74421,13.40142],[-86.73686,13.38119],[-86.72729,13.37903],[-86.72107,13.38094],[-86.71446,13.37708],[-86.7072,13.36572],[-86.71058,13.35917],[-86.70749,13.32373],[-86.70357,13.3137],[-86.70573,13.30302],[-86.7118,13.29555],[-86.72636,13.29066],[-86.75429,13.26742],[-86.79138,13.29411],[-86.79385,13.29878],[-86.79833,13.29901],[-86.80033,13.30325],[-86.82486,13.31305],[-86.8301,13.31417],[-86.83435,13.31157],[-86.83551,13.30544],[-86.8496,13.30077],[-86.86775,13.30427],[-86.87686,13.28721],[-86.87498,13.28096],[-86.88248,13.27952],[-86.89057,13.27298],[-86.90099,13.27132],[-86.91591,13.26057],[-86.9055,13.25249],[-86.91372,13.23395],[-86.90955,13.22613],[-86.91085,13.22247],[-86.92288,13.22364],[-86.91531,13.21363],[-86.92074,13.20838],[-86.92013,13.19994],[-86.9254,13.19004],[-86.93204,13.18793],[-86.93328,13.18039],[-86.91337,13.15433],[-86.91386,13.15106],[-86.92175,13.15018],[-86.92474,13.14559],[-86.92186,13.14119],[-86.9237,13.13292],[-86.93425,13.12478],[-86.92735,13.11969],[-86.92816,13.10237],[-86.91973,13.10369],[-86.91568,13.09888],[-86.92641,13.08251],[-86.93424,13.07901],[-86.94309,13.06848],[-86.95433,13.06323],[-86.95433,13.05586],[-86.95871,13.05246],[-86.95524,13.03861],[-86.96412,13.03135],[-86.97061,13.03108],[-86.98158,13.02123],[-86.98816,13.02401],[-86.996,13.0209],[-87.00676,13.01219],[-87.00962,13.00303],[-87.01765,13.0002],[-87.01656,13.0048],[-87.02224,13.00845],[-87.02741,13.00278],[-87.02334,12.99793],[-87.02751,12.9869],[-87.0491,12.98826],[-87.05198,12.98452],[-87.04954,12.99164],[-87.06032,12.99324],[-87.06492,13.00236],[-87.14201,12.99768],[-87.14438,13.00052],[-87.15384,13.00078],[-87.17753,12.99553],[-87.18485,13.00192],[-87.18853,12.99856],[-87.19852,13.00023],[-87.20772,13.00267],[-87.20825,13.00602],[-87.21916,13.00782],[-87.21483,13.02123],[-87.22219,13.02624],[-87.21747,13.02766],[-87.21682,13.04131],[-87.22088,13.04106],[-87.22248,13.0457],[-87.20961,13.05924],[-87.20224,13.05603],[-87.1996,13.04262],[-87.19394,13.03309],[-87.19368,13.02407],[-87.19809,13.01333],[-87.19039,13.02382],[-87.18948,13.03387],[-87.19698,13.05165],[-87.1962,13.0626],[-87.18674,13.06351],[-87.19001,13.0465],[-87.17831,13.03207],[-87.17659,13.02408],[-87.18031,13.02193],[-87.17882,13.01828],[-87.17383,13.01918],[-87.17015,13.02448],[-87.15885,13.02307],[-87.15754,13.03531],[-87.15176,13.03711],[-87.1494,13.04175],[-87.14046,13.03918],[-87.14362,13.04653],[-87.13928,13.05039],[-87.141,13.05838],[-87.15335,13.05554],[-87.15782,13.06237],[-87.13706,13.06599],[-87.13531,13.06835],[-87.13851,13.07127],[-87.13969,13.08261],[-87.1439,13.08467],[-87.14838,13.08144],[-87.15389,13.08247],[-87.15836,13.08749],[-87.16704,13.08826],[-87.16704,13.09342],[-87.17186,13.08997],[-87.17177,13.0813],[-87.15875,13.07847],[-87.15042,13.07183],[-87.15164,13.06792],[-87.16098,13.06404],[-87.16571,13.06713],[-87.17294,13.05888],[-87.17805,13.04444],[-87.18595,13.04689],[-87.17977,13.06197],[-87.18622,13.07304],[-87.18386,13.0791],[-87.18833,13.07613],[-87.18964,13.07871],[-87.18413,13.08245],[-87.18649,13.08451],[-87.18493,13.09469],[-87.18046,13.10049],[-87.17335,13.09341],[-87.16561,13.1045],[-87.16678,13.09818],[-87.16166,13.09884],[-87.15817,13.11128],[-87.16943,13.12743],[-87.17522,13.12846],[-87.18604,13.12237],[-87.18219,13.12667],[-87.18338,13.1349],[-87.1869,13.13484],[-87.18624,13.13233],[-87.196,13.14172],[-87.20819,13.14407],[-87.18902,13.13674],[-87.18968,13.12819],[-87.20046,13.12329],[-87.20098,13.12019],[-87.20558,13.12019],[-87.21045,13.12611],[-87.2186,13.12559],[-87.21887,13.13358],[-87.22531,13.13151],[-87.22583,13.11965],[-87.237,13.11127],[-87.23908,13.10573],[-87.24277,13.10598],[-87.24277,13.10238],[-87.26539,13.10931],[-87.26592,13.1155],[-87.27315,13.1124],[-87.27093,13.12528],[-87.24542,13.12183],[-87.23569,13.12532],[-87.22624,13.13512],[-87.23885,13.12506],[-87.24542,13.12505],[-87.24425,13.13072],[-87.24964,13.13845],[-87.24491,13.14],[-87.25097,13.14489],[-87.25345,13.12839],[-87.26147,13.12748],[-87.26292,13.13947],[-87.25689,13.14927],[-87.25228,13.14592],[-87.25159,13.14944],[-87.2569,13.15803],[-87.25352,13.15941],[-87.25335,13.16576],[-87.26467,13.17258],[-87.28096,13.15981],[-87.28543,13.16238],[-87.28582,13.15748],[-87.28043,13.15375],[-87.27726,13.14486],[-87.28053,13.12862],[-87.29144,13.12397],[-87.28406,13.11032],[-87.29011,13.10954],[-87.28629,13.10517],[-87.2935,13.09356],[-87.3106,13.09882],[-87.31376,13.10307],[-87.3177,13.09933],[-87.32888,13.10383],[-87.32704,13.10769],[-87.32008,13.11067],[-87.31824,13.10887],[-87.30261,13.12113],[-87.308,13.12576],[-87.30237,13.13968],[-87.30973,13.14199],[-87.30119,13.14303],[-87.29423,13.14948],[-87.30251,13.15051],[-87.30344,13.15746],[-87.31041,13.15526],[-87.32761,13.13819],[-87.32578,13.14481],[-87.31833,13.14686],[-87.32654,13.14994],[-87.33234,13.13629],[-87.32734,13.13051],[-87.33326,13.13165],[-87.33326,13.13513],[-87.34694,13.1422],[-87.36298,13.13612],[-87.3664,13.14359],[-87.38508,13.14782],[-87.39007,13.14034],[-87.39783,13.14239],[-87.39953,13.13878],[-87.40541,13.14324],[-87.41057,13.1385],[-87.40844,13.12175],[-87.41738,13.11916],[-87.41975,13.12508],[-87.42541,13.12456],[-87.4271,13.11322],[-87.42504,13.13977],[-87.4207,13.14106],[-87.41792,13.13063],[-87.41424,13.13076],[-87.4153,13.1336],[-87.41109,13.13566],[-87.4083,13.14272],[-87.41295,13.14545],[-87.41322,13.15061],[-87.4169,13.14931],[-87.4202,13.15678],[-87.41034,13.15873],[-87.41141,13.16698],[-87.41219,13.15989],[-87.42204,13.15678],[-87.42415,13.15832],[-87.42245,13.16374],[-87.42732,13.16579],[-87.42928,13.15857],[-87.44658,13.20184],[-87.44013,13.1954],[-87.43549,13.1766],[-87.43234,13.18021],[-87.43948,13.20056],[-87.44436,13.20777],[-87.45001,13.20827],[-87.45793,13.22192],[-87.45596,13.2263],[-87.45412,13.2245],[-87.45582,13.21883],[-87.45108,13.21394],[-87.44807,13.22503],[-87.4386,13.22543],[-87.43965,13.22066],[-87.43346,13.21835],[-87.43121,13.20779],[-87.42752,13.20792],[-87.42753,13.21218],[-87.432,13.21217],[-87.43004,13.2199],[-87.43295,13.2266],[-87.42387,13.22533],[-87.42519,13.22842],[-87.4294,13.22764],[-87.43191,13.23511],[-87.42731,13.23795],[-87.41416,13.23539],[-87.41627,13.24209],[-87.4189,13.23848],[-87.42337,13.23911],[-87.4239,13.24362],[-87.42863,13.24155],[-87.43312,13.25069],[-87.446,13.24114],[-87.44916,13.24616],[-87.44232,13.24565],[-87.44194,13.25261],[-87.4497,13.25118],[-87.43998,13.26112],[-87.44551,13.2651],[-87.45024,13.26291],[-87.45654,13.25297],[-87.46075,13.25284],[-87.46219,13.24742],[-87.4544,13.23301],[-87.45703,13.23171],[-87.48247,13.26207],[-87.47523,13.25835],[-87.47247,13.26029],[-87.47075,13.2572],[-87.4659,13.26236],[-87.46985,13.26493],[-87.45709,13.26715],[-87.45158,13.27231],[-87.46209,13.26791],[-87.47485,13.26776],[-87.48816,13.2801],[-87.4863,13.26902],[-87.48867,13.27237],[-87.50579,13.27698],[-87.50053,13.28278],[-87.49526,13.27674],[-87.49817,13.28382],[-87.50212,13.28523],[-87.51158,13.2825],[-87.51182,13.26897],[-87.51458,13.26794],[-87.51107,13.28676],[-87.50346,13.29631],[-87.50016,13.29322],[-87.49741,13.29735],[-87.49398,13.29517],[-87.49488,13.28318],[-87.47869,13.27973],[-87.46999,13.27202],[-87.44475,13.28211],[-87.43817,13.28045],[-87.4366,13.28471],[-87.43976,13.28496],[-87.44003,13.29063],[-87.43676,13.29952],[-87.43321,13.30082],[-87.43241,13.29657],[-87.42979,13.2985],[-87.43269,13.30597],[-87.43743,13.30519],[-87.43796,13.30764],[-87.42243,13.30702],[-87.42022,13.32043],[-87.41535,13.31979],[-87.41824,13.31553],[-87.4135,13.31348],[-87.41403,13.31734],[-87.41101,13.31915],[-87.4172,13.32674],[-87.42957,13.32775],[-87.43194,13.32479],[-87.43195,13.33071],[-87.42274,13.33318],[-87.41405,13.32842],[-87.41433,13.33564],[-87.41117,13.33487],[-87.40667,13.32277],[-87.41061,13.31993],[-87.41008,13.3158],[-87.40613,13.31349],[-87.40403,13.31775],[-87.39903,13.31866],[-87.40286,13.32535],[-87.40144,13.3394],[-87.40697,13.34338],[-87.4167,13.33796],[-87.42632,13.34799],[-87.42277,13.35186],[-87.41672,13.34839],[-87.40869,13.35163],[-87.41371,13.36012],[-87.41253,13.36348],[-87.40753,13.36271],[-87.40649,13.36838],[-87.39911,13.36453],[-87.39622,13.36685],[-87.3912,13.35874],[-87.38675,13.37112],[-87.37938,13.37203],[-87.37596,13.38837],[-87.37361,13.38737],[-87.36507,13.39499],[-87.37073,13.39743],[-87.36732,13.39988],[-87.36798,13.40503],[-87.38892,13.40913],[-87.38866,13.41377],[-87.39947,13.42148],[-87.40421,13.4225],[-87.40605,13.41992],[-87.42475,13.42711],[-87.42751,13.4253],[-87.4242,13.41525],[-87.43026,13.41473],[-87.43606,13.42219],[-87.43842,13.41755],[-87.44369,13.42037],[-87.44974,13.41573],[-87.45711,13.41726],[-87.45607,13.42525],[-87.4716,13.41981],[-87.47423,13.42032],[-87.47504,13.43037],[-87.48319,13.42687],[-87.48662,13.4306],[-87.48978,13.42841],[-87.48522,13.42515],[-87.49068,13.41823],[-87.47895,13.41097],[-87.49211,13.4092],[-87.49725,13.4128],[-87.49157,13.40508],[-87.49394,13.40198],[-87.50172,13.4097],[-87.49525,13.39979],[-87.48789,13.40457],[-87.48393,13.40059],[-87.48471,13.39736],[-87.4955,13.39477],[-87.50828,13.39861],[-87.51102,13.39061],[-87.51262,13.39898],[-87.51605,13.40168],[-87.51918,13.38879],[-87.5288,13.39418],[-87.52945,13.38929],[-87.5251,13.38775],[-87.52838,13.38439],[-87.52258,13.38131],[-87.5239,13.37899],[-87.53022,13.38284],[-87.53366,13.38979],[-87.53576,13.38901],[-87.53219,13.38103],[-87.53944,13.38385],[-87.54011,13.38875],[-87.54287,13.38745],[-87.54434,13.3975],[-87.53633,13.40576],[-87.54264,13.40523],[-87.54576,13.38874],[-87.55235,13.39181],[-87.558,13.38871],[-87.56154,13.3802],[-87.56865,13.38379],[-87.56957,13.38069],[-87.57524,13.3888],[-87.56867,13.38972],[-87.56815,13.39436],[-87.575,13.3955],[-87.57568,13.40671],[-87.58095,13.40979],[-87.57756,13.42062],[-87.58295,13.41945],[-87.58623,13.41287],[-87.59427,13.4171],[-87.58953,13.41853],[-87.58956,13.42935],[-87.5919,13.41827],[-87.59585,13.41851],[-87.59587,13.42895],[-87.59115,13.43476],[-87.59589,13.43449],[-87.59183,13.44249],[-87.59986,13.44389],[-87.59831,13.45381],[-87.57803,13.45425],[-87.58042,13.45952],[-87.56305,13.46459],[-87.56041,13.46163],[-87.55989,13.46601],[-87.57846,13.46623],[-87.57032,13.47836],[-87.57495,13.48685],[-87.5786,13.46945],[-87.58413,13.47021],[-87.58544,13.46673],[-87.58743,13.47317],[-87.59335,13.47148],[-87.59626,13.47675],[-87.60438,13.4632],[-87.60965,13.46371],[-87.61336,13.47182],[-87.61835,13.46845],[-87.6252,13.46973],[-87.62547,13.47333],[-87.62047,13.47322],[-87.61956,13.47618],[-87.62643,13.48441],[-87.62604,13.48982],[-87.63684,13.49057],[-87.63604,13.48464],[-87.63973,13.48541],[-87.64199,13.49519],[-87.64734,13.49244],[-87.65028,13.49427],[-87.65659,13.48884],[-87.66475,13.48844],[-87.67319,13.49279],[-87.67344,13.48983],[-87.66963,13.49126],[-87.66791,13.48868],[-87.66709,13.47967],[-87.65707,13.47171],[-87.66892,13.47335],[-87.66917,13.46935],[-87.67181,13.47064],[-87.67522,13.46728],[-87.68577,13.47395],[-87.68919,13.47175],[-87.68287,13.47125],[-87.68154,13.46777],[-87.68627,13.46493],[-87.68043,13.44562],[-87.68227,13.44381],[-87.69097,13.44971],[-87.68976,13.43992],[-87.69172,13.43631],[-87.69664,13.43801],[-87.69631,13.43063],[-87.69407,13.4305],[-87.7005,13.42314],[-87.70036,13.41825],[-87.69076,13.42265],[-87.68535,13.41906],[-87.68322,13.40902],[-87.69532,13.40744],[-87.69609,13.39829],[-87.69899,13.4015],[-87.70608,13.3953],[-87.70938,13.39889],[-87.71422,13.38832],[-87.71669,13.3926],[-87.72028,13.39036],[-87.71992,13.38633],[-87.72395,13.38571],[-87.72554,13.38957],[-87.72896,13.38724],[-87.72963,13.39265],[-87.73713,13.39315],[-87.74191,13.40447],[-87.74612,13.40523],[-87.73917,13.41247],[-87.73866,13.41917],[-87.74117,13.42071],[-87.74536,13.41374],[-87.75484,13.41551],[-87.76105,13.42271],[-87.7696,13.42243],[-87.77222,13.41778],[-87.78474,13.42212],[-87.78892,13.41232],[-87.79285,13.41208],[-87.78516,13.42811],[-87.78341,13.42951],[-87.77722,13.42417],[-87.77337,13.43034],[-87.75803,13.44115],[-87.74873,13.43667],[-87.73363,13.44716],[-87.72255,13.44339],[-87.72207,13.45944],[-87.71621,13.46609],[-87.72172,13.47619],[-87.72391,13.49439],[-87.71993,13.50504],[-87.73432,13.51167],[-87.74602,13.50585],[-87.7501,13.51803],[-87.75598,13.51879],[-87.76207,13.50825],[-87.77998,13.51025],[-87.78229,13.5139],[-87.77814,13.52065],[-87.79408,13.52444],[-87.78401,13.52972],[-87.78052,13.53604],[-87.78697,13.54294],[-87.78515,13.55657],[-87.77861,13.56689],[-87.78359,13.56928],[-87.77354,13.57364],[-87.77443,13.58338],[-87.77029,13.58518],[-87.76859,13.59545],[-87.75396,13.60367],[-87.75551,13.63596],[-87.75162,13.64582],[-87.75249,13.65685],[-87.75689,13.65985],[-87.75288,13.66755],[-87.75621,13.67249],[-87.75354,13.67835],[-87.75534,13.68889],[-87.73229,13.71565],[-87.73412,13.71973],[-87.72642,13.73409],[-87.73457,13.74055],[-87.7369,13.74819],[-87.73153,13.75047],[-87.72635,13.76323],[-87.71735,13.76981],[-87.70898,13.79027],[-87.70839,13.8016],[-87.71644,13.82002],[-87.72793,13.82099],[-87.73318,13.82895],[-87.74243,13.83049],[-87.74614,13.83466],[-87.7464,13.85425],[-87.74981,13.85903],[-87.77173,13.87556],[-87.7804,13.87521],[-87.78865,13.88534],[-87.79605,13.88923],[-87.79971,13.89413],[-87.79413,13.90479],[-87.80003,13.92068],[-87.8304,13.9184],[-87.84249,13.90626],[-87.84435,13.89806],[-87.85145,13.89536],[-87.87353,13.89627],[-87.88227,13.90269],[-87.88942,13.89841],[-87.89884,13.90345],[-87.90442,13.89958],[-87.90678,13.90165],[-87.9141,13.89668],[-87.91196,13.89344],[-87.9166,13.89253],[-87.91786,13.89589],[-87.92154,13.89381],[-87.9204,13.88671],[-87.92429,13.88501],[-87.934,13.89344],[-87.94429,13.89587],[-87.95137,13.89135],[-87.96018,13.90194],[-87.96373,13.8928],[-87.96866,13.8946],[-87.97844,13.88727],[-87.98594,13.88762],[-87.99611,13.87827],[-88.00518,13.87534],[-88.00731,13.87074],[-88.01285,13.87168],[-88.01726,13.89313],[-88.02863,13.90207],[-88.0437,13.92236],[-88.04552,13.93136],[-88.05688,13.9424],[-88.06204,13.94289],[-88.06532,13.94933],[-88.06482,13.96067],[-88.07312,13.97584],[-88.07264,13.99212],[-88.10808,14.00102],[-88.13264,13.99069],[-88.14903,13.99116],[-88.15997,13.98352],[-88.16455,13.98606],[-88.17321,13.98484],[-88.1774,13.99026],[-88.18716,13.98972],[-88.19749,13.99655],[-88.21841,13.99307],[-88.23007,13.99985],[-88.23828,13.99484],[-88.23438,13.98792],[-88.23582,13.97035],[-88.23175,13.96358],[-88.22007,13.95497],[-88.2275,13.93823],[-88.23686,13.93996],[-88.2653,13.9369],[-88.26656,13.92411],[-88.26276,13.91989],[-88.26553,13.9152],[-88.28134,13.90927],[-88.28818,13.91445],[-88.29677,13.91089],[-88.30713,13.90237],[-88.31353,13.90211],[-88.31723,13.89785],[-88.31736,13.88996],[-88.34552,13.8963],[-88.34991,13.89048],[-88.3507,13.87674],[-88.3562,13.87032],[-88.36176,13.86938],[-88.37076,13.8754],[-88.37601,13.88497],[-88.3853,13.88516],[-88.39382,13.88121],[-88.40228,13.883],[-88.41378,13.87895],[-88.4172,13.88488],[-88.42326,13.87971],[-88.43116,13.87921],[-88.43997,13.85968],[-88.44444,13.8637],[-88.45035,13.86431],[-88.45207,13.85902],[-88.46499,13.86286],[-88.46758,13.8487],[-88.47152,13.85405],[-88.48483,13.86025],[-88.49266,13.85977],[-88.49636,13.86786],[-88.49143,13.87743],[-88.50591,13.90912],[-88.51107,13.9117],[-88.50646,13.92307],[-88.50654,13.94299],[-88.49779,13.95283],[-88.5002,13.96757],[-88.52886,13.98544],[-88.53987,13.98518],[-88.54798,13.9806],[-88.5574,13.98331],[-88.56825,13.97797],[-88.57323,13.98245],[-88.57805,13.99826],[-88.5874,14.00753],[-88.5944,14.00916],[-88.6079,14.00548],[-88.62754,14.02273],[-88.63418,14.02205],[-88.63962,14.017],[-88.65288,14.01756],[-88.6638,14.0239],[-88.66383,14.01906],[-88.67079,14.00992],[-88.68376,14.01012],[-88.68147,14.01941],[-88.68566,14.02505],[-88.68244,14.03211],[-88.6939,14.04393],[-88.70883,14.04657],[-88.71298,14.04426],[-88.73215,14.05055],[-88.73789,14.05626],[-88.74042,14.07189],[-88.72935,14.09131],[-88.72899,14.11433],[-88.73875,14.12182],[-88.74114,14.11677],[-88.75054,14.11489],[-88.75362,14.10966],[-88.76505,14.10917],[-88.76667,14.10478],[-88.77222,14.10584],[-88.7741,14.10261],[-88.78308,14.10484],[-88.79198,14.11468],[-88.80578,14.11109],[-88.81283,14.11257],[-88.81454,14.10864],[-88.82057,14.10945],[-88.83131,14.1044],[-88.82971,14.11211],[-88.83362,14.11454],[-88.84014,14.1315],[-88.84701,14.13085],[-88.84633,14.14155],[-88.84942,14.14935],[-88.85876,14.15288],[-88.86245,14.16874],[-88.86049,14.17235],[-88.86658,14.17846],[-88.88171,14.1893],[-88.9012,14.19147],[-88.90284,14.20567],[-88.92393,14.20841],[-88.93018,14.20344],[-88.94086,14.20279],[-88.96255,14.21209],[-88.97261,14.21328],[-88.97496,14.21923],[-88.97011,14.22498],[-88.97952,14.23828],[-88.97795,14.24106],[-88.98736,14.24803],[-88.99001,14.25667],[-89.00899,14.26817],[-89.02618,14.27213],[-89.02604,14.2806],[-89.02153,14.28854],[-89.02535,14.29894],[-89.02203,14.3122],[-89.03608,14.32211],[-89.03374,14.32541],[-89.03584,14.33245],[-89.06317,14.33462],[-89.0828,14.34141],[-89.08143,14.34744],[-89.08533,14.35087],[-89.07992,14.35855],[-89.08211,14.37677],[-89.09398,14.39933],[-89.10186,14.40447],[-89.11339,14.40114],[-89.11655,14.39296],[-89.12139,14.39034],[-89.12567,14.38045],[-89.14808,14.35282],[-89.16852,14.36593],[-89.18988,14.36684],[-89.20309,14.37077],[-89.20979,14.37451],[-89.21182,14.38702],[-89.21588,14.38891],[-89.23085,14.38569],[-89.27798,14.40119],[-89.29931,14.41588],[-89.32137,14.41112],[-89.34292,14.4196],[-89.35599,14.42063],[-89.35034,14.42685],[-89.34932,14.43318],[-89.35405,14.46017],[-89.35227,14.46413],[-89.35632,14.46789],[-89.30388,14.49459],[-89.30582,14.50726],[-89.28845,14.51607],[-89.2838,14.53252],[-89.27716,14.5412],[-89.26369,14.54752],[-89.25617,14.56067],[-89.25089,14.56369],[-89.25412,14.56871],[-89.23849,14.58485],[-89.20631,14.5829],[-89.19327,14.57543],[-89.18863,14.57727],[-89.16649,14.57122],[-89.16178,14.57162],[-89.15815,14.5754],[-89.15908,14.57881],[-89.15112,14.58338],[-89.15379,14.58714],[-89.14669,14.6115],[-89.15163,14.61637],[-89.15112,14.62175],[-89.14706,14.62577],[-89.15664,14.67326],[-89.14841,14.67648],[-89.13106,14.7131],[-89.16538,14.73159],[-89.16887,14.77497],[-89.19429,14.79729],[-89.2238,14.83477],[-89.22806,14.88265],[-89.20308,14.9023],[-89.19264,14.90187],[-89.18385,14.90703],[-89.17977,14.92201],[-89.17194,14.93136],[-89.17522,14.94109],[-89.16693,14.944],[-89.1621,14.9672],[-89.16422,14.97001],[-89.15654,14.97989],[-89.17923,14.99401],[-89.18391,15.00438],[-89.1786,15.01807],[-89.16978,15.02961],[-89.17531,15.03243],[-89.17587,15.03664],[-89.16565,15.04067],[-89.15219,15.05966],[-89.15492,15.06891],[-88.97398,15.13654],[-88.84649,15.24269],[-88.67815,15.34248],[-88.60527,15.41325],[-88.59157,15.42144],[-88.58571,15.42242],[-88.58425,15.42009],[-88.57063,15.4263],[-88.56137,15.44362],[-88.55225,15.4466],[-88.34443,15.61887],[-88.323,15.65284],[-88.32207,15.6582],[-88.32603,15.66735],[-88.32372,15.6722],[-88.31689,15.66942],[-88.31303,15.68187],[-88.30439,15.67057],[-88.29938,15.67403],[-88.2805,15.67534],[-88.28042,15.68249],[-88.28679,15.68931],[-88.28514,15.69374],[-88.28193,15.69393],[-88.27503,15.68428],[-88.26763,15.6925],[-88.26532,15.68734],[-88.26777,15.68226],[-88.26419,15.68101],[-88.25807,15.68457],[-88.25657,15.69166],[-88.25493,15.68681],[-88.24769,15.68799],[-88.25094,15.69641],[-88.24321,15.69838],[-88.24489,15.70519],[-88.24208,15.71082],[-88.24715,15.7124],[-88.252,15.72308],[-88.229,15.72345],[-88.21514,15.71953],[-88.18496,15.69729],[-88.15749,15.68339],[-88.14552,15.68191],[-88.12188,15.68719],[-88.11406,15.69199],[-88.10959,15.70155],[-88.1027,15.70622],[-88.10235,15.71472],[-88.10818,15.71133],[-88.10835,15.71701],[-88.09713,15.73304],[-88.08702,15.7327],[-88.08145,15.73582],[-88.07633,15.7486],[-88.06849,15.75044],[-88.06586,15.75509],[-88.05815,15.7559],[-88.04715,15.76472],[-88.04764,15.78287],[-88.04364,15.77967],[-88.04047,15.78484],[-87.99473,15.7884],[-87.97774,15.79724],[-87.97484,15.80318],[-87.95702,15.80468],[-87.93884,15.81544],[-87.93265,15.82887],[-87.93563,15.84045],[-87.96333,15.84548],[-87.96309,15.85089],[-87.95357,15.86356],[-87.90487,15.8639],[-87.86825,15.89007],[-87.84881,15.88963],[-87.84004,15.89237],[-87.83447,15.89844],[-87.81372,15.90187],[-87.79401,15.89976],[-87.7908,15.8941],[-87.78815,15.89887],[-87.7663,15.89432],[-87.74927,15.89605],[-87.75005,15.89077],[-87.745,15.89104],[-87.73783,15.89764],[-87.74768,15.89709],[-87.74279,15.90741],[-87.73285,15.91929],[-87.727,15.92099],[-87.71927,15.91818],[-87.72485,15.91533],[-87.72466,15.89948],[-87.71745,15.89178],[-87.71822,15.88637],[-87.72473,15.88248],[-87.71766,15.87709],[-87.7199,15.87155],[-87.71493,15.87229],[-87.71486,15.87478],[-87.72287,15.88184],[-87.71729,15.8856],[-87.71611,15.89153],[-87.7244,15.90077],[-87.72405,15.91494],[-87.71501,15.91922],[-87.671,15.89476],[-87.65421,15.89069],[-87.64664,15.89355],[-87.65326,15.88322],[-87.64764,15.87525],[-87.64058,15.87373],[-87.63287,15.8771],[-87.63317,15.88715],[-87.62918,15.88793],[-87.61742,15.87237],[-87.62518,15.88575],[-87.62977,15.90725],[-87.63376,15.90415],[-87.64162,15.9067],[-87.63883,15.90942],[-87.6382,15.90629],[-87.63296,15.90531],[-87.62953,15.91395],[-87.62314,15.91371],[-87.62129,15.91913],[-87.60134,15.92563],[-87.62884,15.90545],[-87.61837,15.87869],[-87.59793,15.85388],[-87.60085,15.85143],[-87.59552,15.84616],[-87.59737,15.84242],[-87.61333,15.8398],[-87.61651,15.83077],[-87.62989,15.81476],[-87.62624,15.7957],[-87.63788,15.77454],[-87.63228,15.77018],[-87.62297,15.77137],[-87.61606,15.77808],[-87.60019,15.77627],[-87.59694,15.786],[-87.59082,15.78833],[-87.58734,15.78113],[-87.58362,15.7823],[-87.58119,15.77058],[-87.55885,15.76922],[-87.54049,15.77313],[-87.52638,15.76647],[-87.5144,15.76675],[-87.55062,15.77762],[-87.58504,15.81463],[-87.60093,15.82696],[-87.5984,15.83045],[-87.58748,15.83008],[-87.58746,15.82183],[-87.56254,15.80747],[-87.55775,15.80929],[-87.55804,15.81547],[-87.57152,15.82896],[-87.54484,15.80778],[-87.52299,15.79495],[-87.5235,15.78722],[-87.5203,15.78413],[-87.51791,15.78568],[-87.52083,15.78787],[-87.51952,15.79354],[-87.4905,15.78343],[-87.46016,15.78156],[-87.44581,15.78829],[-87.43174,15.80442],[-87.43122,15.81421],[-87.40515,15.81491],[-87.39398,15.81918],[-87.38535,15.83002],[-87.38229,15.82976],[-87.37565,15.8406],[-87.37566,15.84807],[-87.21991,15.80358],[-87.22123,15.79959],[-87.23747,15.80073],[-87.23746,15.79673],[-87.23241,15.79944],[-87.21857,15.79753],[-87.21804,15.8032],[-87.14458,15.78973],[-87.09323,15.78628],[-87.09269,15.78293],[-87.10077,15.78237],[-87.08631,15.77894],[-87.08365,15.77958],[-87.0919,15.78667],[-87.0533,15.7768]],[[-83.53778,15.11176],[-83.53248,15.10915],[-83.53572,15.10254],[-83.54952,15.10471],[-83.55321,15.10299],[-83.55968,15.08979],[-83.57113,15.09429],[-83.57571,15.07854],[-83.58316,15.08167],[-83.58763,15.0784],[-83.60009,15.07929],[-83.59896,15.07364],[-83.59663,15.07765],[-83.58736,15.07776],[-83.58342,15.08089],[-83.57543,15.07777],[-83.56981,15.09456],[-83.56232,15.08899],[-83.55862,15.0898],[-83.55215,15.10249],[-83.53676,15.10124],[-83.53216,15.104],[-83.53236,15.11018],[-83.53778,15.11176]],[[-84.48638,15.82246],[-84.47699,15.82032],[-84.47315,15.80818],[-84.46785,15.80696],[-84.46573,15.81736],[-84.46158,15.80882],[-84.45453,15.80951],[-84.45499,15.81466],[-84.45977,15.81549],[-84.46237,15.82015],[-84.44215,15.81773],[-84.4327,15.81118],[-84.42842,15.81345],[-84.44136,15.81886],[-84.48638,15.82246]]],[[[-83.2411,14.98373],[-83.24775,14.98708],[-83.24085,14.98553],[-83.2411,14.98373]]],[[[-83.28024,14.98979],[-83.28224,14.98721],[-83.27781,14.98093],[-83.27995,14.97814],[-83.2873,14.97857],[-83.29173,14.98792],[-83.28017,14.99289],[-83.28024,14.98979]]],[[[-83.38155,15.20348],[-83.38793,15.21654],[-83.3884,15.22272],[-83.38418,15.22482],[-83.38155,15.20348]]],[[[-83.39896,15.219],[-83.39985,15.22723],[-83.39839,15.22673],[-83.39896,15.219]]],[[[-83.56058,15.29599],[-83.57009,15.29279],[-83.57211,15.30603],[-83.58088,15.30773],[-83.58747,15.30482],[-83.59234,15.31236],[-83.55486,15.30533],[-83.5537,15.29736],[-83.56058,15.29599]]],[[[-83.63371,15.31149],[-83.64673,15.31314],[-83.63905,15.31452],[-83.63371,15.31149]]],[[[-83.66371,15.31358],[-83.66697,15.32011],[-83.66596,15.32385],[-83.66121,15.32545],[-83.65771,15.32189],[-83.66371,15.31358]]],[[[-83.9069,17.40718],[-83.91036,17.40903],[-83.89925,17.41619],[-83.89095,17.41555],[-83.88993,17.41244],[-83.89319,17.41005],[-83.9069,17.40718]]],[[[-83.90128,15.31401],[-83.90582,15.31241],[-83.90573,15.31731],[-83.90315,15.31867],[-83.90128,15.31401]]],[[[-83.9382,17.41088],[-83.93176,17.41129],[-83.92954,17.41576],[-83.92362,17.41721],[-83.91468,17.40704],[-83.94131,17.40102],[-83.94529,17.40352],[-83.94276,17.41069],[-83.9382,17.41088]]],[[[-83.97694,15.4916],[-83.97985,15.49241],[-83.97927,15.49601],[-83.97001,15.49395],[-83.97694,15.4916]]],[[[-84.08,15.48565],[-84.07295,15.47784],[-84.05865,15.47559],[-84.05485,15.47193],[-84.05259,15.45389],[-84.03782,15.41895],[-84.03762,15.41457],[-84.04958,15.4034],[-84.05394,15.40475],[-84.05163,15.41862],[-84.0607,15.43341],[-84.06152,15.45066],[-84.07415,15.46781],[-84.08415,15.47361],[-84.0848,15.48443],[-84.08,15.48565]]],[[[-84.10838,15.46852],[-84.09934,15.46918],[-84.10549,15.4663],[-84.10838,15.46852]]],[[[-85.90616,16.47987],[-85.89974,16.48164],[-85.88683,16.50114],[-85.87853,16.50368],[-85.86787,16.49847],[-85.86622,16.50722],[-85.85923,16.51555],[-85.84428,16.51444],[-85.84165,16.5081],[-85.84887,16.50545],[-85.83181,16.50226],[-85.82483,16.50815],[-85.823,16.50131],[-85.81661,16.49754],[-85.81933,16.49073],[-85.83271,16.48422],[-85.85193,16.48524],[-85.8483,16.46642],[-85.86094,16.45142],[-85.87346,16.45651],[-85.90052,16.44042],[-85.91594,16.4472],[-85.91225,16.44112],[-85.89785,16.43835],[-85.91848,16.4248],[-85.92064,16.42018],[-85.92678,16.41905],[-85.93337,16.40994],[-85.9517,16.40153],[-85.93821,16.42799],[-85.93843,16.43675],[-85.93114,16.4532],[-85.92339,16.45419],[-85.917,16.45043],[-85.9145,16.46754],[-85.90578,16.47626],[-85.90616,16.47987]]],[[[-85.88744,16.43855],[-85.88902,16.4423],[-85.88688,16.44241],[-85.88744,16.43855]]],[[[-86.16617,16.42709],[-86.16869,16.43032],[-86.16694,16.43392],[-86.15676,16.44199],[-86.1458,16.44633],[-86.1378,16.44372],[-86.12286,16.44482],[-86.12929,16.43635],[-86.13919,16.43033],[-86.14227,16.42918],[-86.14825,16.43449],[-86.15653,16.43337],[-86.16617,16.42709]]],[[[-86.18486,16.42612],[-86.19192,16.42732],[-86.18802,16.43452],[-86.18389,16.434],[-86.18486,16.42612]]],[[[-86.22737,16.40762],[-86.22063,16.42524],[-86.20113,16.42852],[-86.193,16.42604],[-86.19114,16.42217],[-86.20543,16.42222],[-86.21828,16.41093],[-86.22737,16.40762]]],[[[-86.20574,16.41063],[-86.20705,16.41566],[-86.20385,16.41552],[-86.20186,16.4119],[-86.20574,16.41063]]],[[[-86.43698,16.38168],[-86.43163,16.38302],[-86.42734,16.38945],[-86.41961,16.38917],[-86.41852,16.39279],[-86.40757,16.39455],[-86.40542,16.39995],[-86.39287,16.40121],[-86.3918,16.40481],[-86.37015,16.41389],[-86.35318,16.41938],[-86.34718,16.41627],[-86.34236,16.42063],[-86.3365,16.41933],[-86.31646,16.42493],[-86.31551,16.4275],[-86.27026,16.42967],[-86.26202,16.42088],[-86.27137,16.41653],[-86.27514,16.40933],[-86.29754,16.41379],[-86.29905,16.40684],[-86.3184,16.40252],[-86.31896,16.39583],[-86.32271,16.39236],[-86.33419,16.39161],[-86.33869,16.4013],[-86.33721,16.40645],[-86.34081,16.40607],[-86.34353,16.39178],[-86.35101,16.38884],[-86.35459,16.39491],[-86.35609,16.3868],[-86.36143,16.38604],[-86.36474,16.39365],[-86.36703,16.38722],[-86.37344,16.38208],[-86.3745,16.3875],[-86.37704,16.3857],[-86.37504,16.38132],[-86.38267,16.37799],[-86.38599,16.38379],[-86.38826,16.3829],[-86.38628,16.37439],[-86.39031,16.36744],[-86.39458,16.36553],[-86.40364,16.36968],[-86.40393,16.3653],[-86.40846,16.36479],[-86.41032,16.36931],[-86.41462,16.3594],[-86.41862,16.35993],[-86.41701,16.36392],[-86.41992,16.36921],[-86.42049,16.3589],[-86.4325,16.35765],[-86.43382,16.36216],[-86.44051,16.35612],[-86.45252,16.35396],[-86.45254,16.34971],[-86.46028,16.3469],[-86.46134,16.35012],[-86.47792,16.33638],[-86.48566,16.33537],[-86.48701,16.33138],[-86.48421,16.32931],[-86.48783,16.32224],[-86.49677,16.32058],[-86.49929,16.3287],[-86.50718,16.32009],[-86.51238,16.32088],[-86.53161,16.31152],[-86.54094,16.31489],[-86.55175,16.3122],[-86.57114,16.29035],[-86.60253,16.26645],[-86.59555,16.28988],[-86.59538,16.30714],[-86.58843,16.31357],[-86.5823,16.31304],[-86.58041,16.32077],[-86.56224,16.33541],[-86.54274,16.34606],[-86.53687,16.34463],[-86.53606,16.34824],[-86.52832,16.35067],[-86.51337,16.3518],[-86.49707,16.35949],[-86.49065,16.36617],[-86.48612,16.36384],[-86.4634,16.37731],[-86.45087,16.37418],[-86.43698,16.38168]]],[[[-86.43785,16.35496],[-86.4373,16.35895],[-86.43571,16.3565],[-86.43785,16.35496]]],[[[-86.47379,15.98019],[-86.46861,15.97528],[-86.4757,15.96383],[-86.47969,15.96731],[-86.47994,15.97402],[-86.48579,15.97583],[-86.47379,15.98019]]],[[[-86.49939,15.96505],[-86.49689,15.95551],[-86.4981,15.9519],[-86.5021,15.95191],[-86.50768,15.95527],[-86.50661,15.95823],[-86.50261,15.95758],[-86.49939,15.96505]]],[[[-86.88842,16.12328],[-86.87429,16.11915],[-86.87256,16.11219],[-86.88296,16.1006],[-86.8827,16.09133],[-86.88897,16.08631],[-86.89323,16.08683],[-86.89176,16.09108],[-86.89536,16.09623],[-86.90429,16.0952],[-86.90861,16.10523],[-86.90081,16.11401],[-86.89801,16.12264],[-86.88842,16.12328]]],[[[-86.91614,16.10938],[-86.91575,16.09341],[-86.92534,16.08826],[-86.92521,16.08233],[-86.91802,16.08349],[-86.93614,16.07628],[-86.94227,16.07628],[-86.95586,16.06881],[-86.96306,16.06894],[-86.96719,16.07023],[-86.97078,16.07667],[-86.96838,16.0844],[-86.97211,16.08363],[-86.97132,16.07603],[-86.99024,16.08106],[-86.98957,16.09188],[-86.98091,16.09999],[-86.97131,16.09986],[-86.95719,16.10875],[-86.95639,16.10591],[-86.94892,16.10462],[-86.94253,16.10784],[-86.94279,16.11647],[-86.93799,16.11995],[-86.92626,16.12072],[-86.92413,16.1175],[-86.92653,16.11145],[-86.92387,16.11351],[-86.91614,16.10938]]],[[[-87.1599,13.02848],[-87.16227,13.03131],[-87.15912,13.0326],[-87.1599,13.02848]]],[[[-87.17594,13.03697],[-87.17805,13.04238],[-87.17279,13.04509],[-87.16675,13.04342],[-87.16569,13.0393],[-87.17594,13.03697]]],[[[-87.18388,13.10088],[-87.18677,13.10706],[-87.19335,13.11041],[-87.19348,13.11453],[-87.176,13.11725],[-87.17047,13.10372],[-87.17178,13.10127],[-87.18388,13.10088]]],[[[-87.18686,13.12203],[-87.18845,13.11702],[-87.19493,13.11775],[-87.19966,13.11401],[-87.20597,13.11581],[-87.20282,13.118],[-87.20045,13.11517],[-87.18686,13.12203]]],[[[-87.20623,13.11297],[-87.21228,13.11439],[-87.21176,13.11787],[-87.20808,13.11813],[-87.20623,13.11297]]],[[[-87.21384,13.09544],[-87.21727,13.10214],[-87.21306,13.10021],[-87.21384,13.09544]]],[[[-87.35487,13.0739],[-87.35028,13.08202],[-87.32663,13.09004],[-87.31163,13.08246],[-87.30954,13.08942],[-87.31005,13.07808],[-87.2969,13.07732],[-87.2885,13.08339],[-87.29192,13.08686],[-87.28299,13.09332],[-87.27352,13.08701],[-87.27246,13.08263],[-87.26733,13.08251],[-87.26971,13.09024],[-87.27602,13.09461],[-87.28141,13.09422],[-87.27644,13.11214],[-87.2742,13.11085],[-87.27538,13.10466],[-87.25092,13.09824],[-87.24802,13.0882],[-87.25169,13.08162],[-87.24381,13.08665],[-87.24434,13.08923],[-87.23251,13.0895],[-87.22068,13.09776],[-87.21291,13.0805],[-87.2204,13.07998],[-87.22303,13.07559],[-87.23617,13.07068],[-87.23721,13.06501],[-87.24089,13.06398],[-87.23642,13.0578],[-87.24193,13.0529],[-87.23772,13.04852],[-87.24588,13.05315],[-87.25823,13.05146],[-87.27954,13.06665],[-87.28742,13.06097],[-87.30083,13.06198],[-87.32264,13.05706],[-87.33789,13.06013],[-87.35487,13.0739]]],[[[-87.26763,12.992],[-87.28445,12.99139],[-87.28932,12.99563],[-87.29037,13.00182],[-87.28106,13.01407],[-87.27738,13.01369],[-87.27607,13.0191],[-87.27147,13.01679],[-87.27658,13.00776],[-87.25975,12.99914],[-87.2474,12.9998],[-87.24925,13.0065],[-87.25871,13.00907],[-87.2574,13.01422],[-87.25372,13.01371],[-87.25136,13.01719],[-87.23664,13.01373],[-87.23953,13.00367],[-87.24517,13.00187],[-87.23926,13.00123],[-87.24056,12.99311],[-87.24359,12.99362],[-87.24359,12.99852],[-87.24858,12.99825],[-87.24858,12.99258],[-87.26763,12.992]]],[[[-87.32734,13.12736],[-87.32195,13.13257],[-87.31516,13.12827],[-87.3151,13.12085],[-87.33611,13.10459],[-87.34742,13.10677],[-87.349,13.10895],[-87.33902,13.11361],[-87.33836,13.1167],[-87.34375,13.11424],[-87.34495,13.12571],[-87.34009,13.13049],[-87.33903,13.12701],[-87.33562,13.12663],[-87.33378,13.13036],[-87.33128,13.12934],[-87.33404,13.12598],[-87.32734,13.12736]]],[[[-87.37269,13.12773],[-87.37981,13.13726],[-87.38665,13.1406],[-87.37166,13.14423],[-87.37114,13.14165],[-87.37573,13.13933],[-87.37269,13.12773]]],[[[-87.37767,13.1169],[-87.38136,13.11948],[-87.38058,13.12437],[-87.37689,13.12464],[-87.37478,13.11794],[-87.37767,13.1169]]],[[[-87.42602,13.40056],[-87.42699,13.40477],[-87.42497,13.40417],[-87.42602,13.40056]]],[[[-87.42645,13.34825],[-87.42909,13.35069],[-87.42699,13.35198],[-87.42645,13.34825]]],[[[-87.43756,13.37993],[-87.44178,13.38108],[-87.44231,13.38456],[-87.43756,13.37993]]],[[[-87.43768,13.29617],[-87.44067,13.29935],[-87.43847,13.30081],[-87.43768,13.29617]]],[[[-87.44861,13.3763],[-87.45599,13.37938],[-87.45693,13.38943],[-87.44599,13.38352],[-87.44559,13.37811],[-87.44861,13.3763]]],[[[-87.46291,13.28376],[-87.47454,13.31105],[-87.464,13.30347],[-87.45875,13.30799],[-87.46718,13.31416],[-87.46165,13.31417],[-87.45719,13.31933],[-87.46615,13.3255],[-87.46536,13.32795],[-87.45695,13.32977],[-87.46062,13.32216],[-87.44799,13.3254],[-87.44666,13.31613],[-87.44903,13.31496],[-87.45325,13.3205],[-87.45916,13.3152],[-87.45731,13.31031],[-87.45152,13.30981],[-87.45453,13.30529],[-87.4636,13.3018],[-87.46291,13.28376]]],[[[-87.44961,13.34937],[-87.45383,13.35258],[-87.44962,13.35388],[-87.44961,13.34937]]],[[[-87.47937,13.35782],[-87.48227,13.36103],[-87.48648,13.35974],[-87.48426,13.36721],[-87.47859,13.36413],[-87.47937,13.35782]]],[[[-87.48341,13.40252],[-87.48631,13.40638],[-87.48368,13.40806],[-87.48341,13.40252]]],[[[-87.48971,13.26515],[-87.50103,13.26938],[-87.49999,13.27145],[-87.48971,13.26515]]],[[[-87.51517,13.35903],[-87.51742,13.36406],[-87.52334,13.3634],[-87.52151,13.37229],[-87.51585,13.36947],[-87.52176,13.36637],[-87.5144,13.36728],[-87.50386,13.36318],[-87.51202,13.36239],[-87.51517,13.35903]]],[[[-87.53435,13.34495],[-87.52909,13.34908],[-87.52225,13.34768],[-87.53435,13.34495]]],[[[-87.54621,13.35356],[-87.54925,13.35677],[-87.54781,13.36399],[-87.53071,13.36557],[-87.5307,13.36274],[-87.54661,13.35652],[-87.54621,13.35356]]],[[[-87.57064,13.33534],[-87.57407,13.33649],[-87.57474,13.34177],[-87.56882,13.345],[-87.56223,13.33986],[-87.55093,13.34492],[-87.55644,13.33756],[-87.57064,13.33534]]],[[[-87.65462,13.3475],[-87.652,13.34983],[-87.65624,13.36193],[-87.65283,13.36348],[-87.64413,13.35887],[-87.64285,13.37305],[-87.63284,13.36972],[-87.63361,13.36225],[-87.62939,13.36071],[-87.61651,13.36461],[-87.5994,13.36375],[-87.5933,13.34675],[-87.58489,13.34909],[-87.57751,13.34666],[-87.58067,13.34433],[-87.58251,13.34678],[-87.58461,13.34432],[-87.58066,13.34021],[-87.58709,13.33607],[-87.58432,13.33144],[-87.58275,13.33531],[-87.57775,13.33609],[-87.57896,13.32974],[-87.57563,13.32914],[-87.57627,13.32321],[-87.58153,13.32037],[-87.58176,13.30825],[-87.58847,13.30656],[-87.59058,13.30952],[-87.58611,13.3094],[-87.58994,13.31519],[-87.60032,13.31027],[-87.60849,13.31399],[-87.61636,13.30791],[-87.64481,13.31905],[-87.64799,13.32639],[-87.65867,13.33461],[-87.65949,13.34569],[-87.65462,13.3475]]],[[[-87.60292,15.83055],[-87.60718,15.83518],[-87.60561,15.83776],[-87.59841,15.83494],[-87.59949,15.83829],[-87.59497,15.84011],[-87.59389,15.83702],[-87.60292,15.83055]]],[[[-87.59873,13.41207],[-87.5977,13.42238],[-87.59663,13.41619],[-87.59873,13.41207]]],[[[-87.64621,13.24921],[-87.66029,13.2524],[-87.66241,13.25729],[-87.66073,13.26992],[-87.66338,13.27687],[-87.65879,13.28075],[-87.65737,13.29364],[-87.64633,13.2947],[-87.64186,13.29896],[-87.63659,13.29421],[-87.62896,13.29345],[-87.625,13.28805],[-87.61685,13.29013],[-87.61446,13.28344],[-87.61669,13.28008],[-87.6126,13.27571],[-87.61519,13.25792],[-87.63069,13.25002],[-87.64621,13.24921]]],[[[-87.66386,13.45378],[-87.67838,13.46624],[-87.66732,13.46652],[-87.66587,13.46395],[-87.66915,13.46162],[-87.66386,13.45378]]],[[[-87.67819,13.30453],[-87.68493,13.31341],[-87.67458,13.33044],[-87.66757,13.31758],[-87.67716,13.31317],[-87.67557,13.30776],[-87.67819,13.30453]]],[[[-87.70531,13.31232],[-87.70559,13.31593],[-87.70322,13.31645],[-87.70531,13.31232]]],[[[-87.71589,13.32827],[-87.71985,13.33496],[-87.71038,13.33563],[-87.708,13.3319],[-87.71589,13.32827]]]]}}]}