{"type":"FeatureCollection","features":[{"type":"Feature","properties":{"ISO_A3":"HTI","WB_A3":"HTI","WB_NAME":"Haiti","WB_REGION":"LCN"},"geometry":{"type":"MultiPolygon","coordinates":[[[[-71.75289,19.27952],[-71.7482,19.27452],[-71.73822,19.2766],[-71.73976,19.27385],[-71.73587,19.26547],[-71.73223,19.26643],[-71.72505,19.27828],[-71.72357,19.26751],[-71.7166,19.26722],[-71.70745,19.25865],[-71.70857,19.25299],[-71.69732,19.24118],[-71.68098,19.23862],[-71.67768,19.23252],[-71.67395,19.23552],[-71.66511,19.22927],[-71.63947,19.22939],[-71.62849,19.21148],[-71.63104,19.20757],[-71.62394,19.20642],[-71.62486,19.20283],[-71.62737,19.20598],[-71.63419,19.20482],[-71.63822,19.19846],[-71.63669,19.19158],[-71.63039,19.18931],[-71.62732,19.18188],[-71.64687,19.17614],[-71.64019,19.1749],[-71.63451,19.16948],[-71.63592,19.16699],[-71.64575,19.16893],[-71.64238,19.15706],[-71.64586,19.15355],[-71.6401,19.14676],[-71.65643,19.14296],[-71.64601,19.13518],[-71.65126,19.12098],[-71.65837,19.11491],[-71.66393,19.11318],[-71.67045,19.11714],[-71.67354,19.1134],[-71.67676,19.1163],[-71.68199,19.11406],[-71.67961,19.11248],[-71.68558,19.10295],[-71.69584,19.10825],[-71.70275,19.10573],[-71.70658,19.09997],[-71.6993,19.09582],[-71.69712,19.08714],[-71.71201,19.08321],[-71.71179,19.07817],[-71.70301,19.07597],[-71.702,19.07244],[-71.71023,19.06729],[-71.71076,19.07044],[-71.71606,19.07092],[-71.72045,19.06581],[-71.71572,19.06289],[-71.71736,19.05851],[-71.7203,19.05968],[-71.7226,19.0539],[-71.73746,19.04967],[-71.73808,19.04502],[-71.75287,19.04537],[-71.76333,19.03393],[-71.76146,19.02707],[-71.76574,19.02678],[-71.76776,19.0315],[-71.77109,19.0314],[-71.78238,19.0181],[-71.77595,19.01264],[-71.78556,19.01214],[-71.79036,19.00846],[-71.79108,19.00083],[-71.78695,18.99622],[-71.78871,18.99299],[-71.79839,18.99607],[-71.79626,19.00012],[-71.80057,19.0052],[-71.8055,19.00226],[-71.8046,18.99937],[-71.82787,18.99389],[-71.83007,19.0038],[-71.83338,19.00563],[-71.83437,19.00136],[-71.84191,18.9993],[-71.84423,18.99139],[-71.85207,18.99259],[-71.85562,18.97801],[-71.86338,18.9791],[-71.86401,18.98351],[-71.86809,18.98171],[-71.86871,18.97438],[-71.87626,18.97107],[-71.87524,18.95796],[-71.88652,18.95834],[-71.88289,18.94209],[-71.87995,18.94175],[-71.87436,18.94866],[-71.86691,18.9461],[-71.86043,18.94835],[-71.8623,18.95798],[-71.85963,18.96335],[-71.85293,18.95572],[-71.84898,18.96079],[-71.84317,18.95663],[-71.83988,18.95884],[-71.84397,18.96333],[-71.84268,18.96629],[-71.83546,18.97],[-71.83254,18.96275],[-71.82673,18.96846],[-71.82205,18.96764],[-71.82604,18.9638],[-71.81601,18.96448],[-71.80162,18.95473],[-71.79639,18.95657],[-71.79413,18.95319],[-71.79041,18.95774],[-71.78137,18.95459],[-71.78287,18.95021],[-71.76844,18.90728],[-71.7611,18.90598],[-71.73957,18.89125],[-71.73705,18.87769],[-71.72271,18.87897],[-71.72598,18.8729],[-71.72664,18.8514],[-71.72646,18.84303],[-71.72059,18.83289],[-71.72165,18.80447],[-71.73799,18.72176],[-71.77047,18.7133],[-71.78534,18.70629],[-71.78954,18.70114],[-71.78724,18.69235],[-71.78918,18.68886],[-71.79504,18.68765],[-71.79986,18.69083],[-71.80748,18.68642],[-71.80336,18.68007],[-71.80463,18.66725],[-71.80927,18.66226],[-71.80685,18.63303],[-71.82158,18.62993],[-71.83017,18.63211],[-71.84733,18.62758],[-71.85006,18.63375],[-71.86874,18.6373],[-71.8754,18.62779],[-71.88105,18.62915],[-71.88326,18.63583],[-71.90297,18.64809],[-71.91367,18.64855],[-71.92452,18.63531],[-71.95327,18.65296],[-71.95549,18.65103],[-71.96509,18.65506],[-71.97,18.65473],[-71.97563,18.64826],[-71.98159,18.63597],[-71.99613,18.63113],[-72.00688,18.62272],[-72.00087,18.61788],[-71.98514,18.61811],[-71.9753,18.60528],[-71.96551,18.60371],[-71.94871,18.57598],[-71.87993,18.50388],[-71.87993,18.49033],[-71.91379,18.4855],[-71.90452,18.45724],[-71.8427,18.42953],[-71.82967,18.39946],[-71.80354,18.39289],[-71.80414,18.38889],[-71.79432,18.37817],[-71.69823,18.34194],[-71.7577,18.24173],[-71.7577,18.22718],[-71.76909,18.21847],[-71.77362,18.20562],[-71.77261,18.19908],[-71.78713,18.18491],[-71.78762,18.17726],[-71.78362,18.17016],[-71.77512,18.16601],[-71.76856,18.16773],[-71.7651,18.157],[-71.75795,18.15272],[-71.75164,18.14317],[-71.74904,18.14883],[-71.74714,18.14768],[-71.74614,18.14211],[-71.75138,18.13815],[-71.74552,18.13697],[-71.7436,18.13198],[-71.74771,18.12994],[-71.7451,18.12652],[-71.74843,18.12531],[-71.74571,18.12288],[-71.75018,18.11221],[-71.74502,18.09862],[-71.73881,18.10005],[-71.73582,18.09608],[-71.73971,18.09104],[-71.73517,18.08123],[-71.73916,18.07726],[-71.73838,18.06885],[-71.74351,18.06558],[-71.74401,18.05322],[-71.75676,18.04122],[-71.75876,18.03167],[-71.76581,18.04162],[-71.78153,18.04938],[-71.81232,18.07389],[-71.81685,18.07949],[-71.81385,18.08518],[-71.81891,18.09876],[-71.84319,18.11976],[-71.84778,18.12021],[-71.86237,18.14058],[-71.88057,18.1506],[-71.88335,18.15596],[-71.89226,18.15802],[-71.90133,18.16856],[-71.91104,18.17021],[-71.91071,18.17434],[-71.92019,18.18603],[-71.93753,18.19258],[-71.98615,18.20225],[-71.99873,18.21351],[-72.00254,18.2134],[-72.00533,18.20778],[-72.01022,18.2058],[-72.01925,18.21263],[-72.03398,18.2171],[-72.03991,18.23174],[-72.05276,18.23721],[-72.07244,18.23597],[-72.08424,18.23846],[-72.08752,18.2353],[-72.10261,18.23527],[-72.1264,18.22881],[-72.13524,18.23228],[-72.14552,18.22986],[-72.1568,18.23183],[-72.19735,18.22163],[-72.21568,18.22073],[-72.24095,18.22354],[-72.24439,18.22732],[-72.27508,18.22841],[-72.29533,18.22209],[-72.30479,18.22278],[-72.31569,18.23104],[-72.32682,18.22999],[-72.33585,18.23428],[-72.35745,18.23124],[-72.35983,18.23435],[-72.37194,18.23465],[-72.42353,18.2248],[-72.43185,18.22697],[-72.44861,18.22307],[-72.46719,18.22345],[-72.47694,18.2192],[-72.48872,18.22463],[-72.5123,18.21413],[-72.51985,18.21448],[-72.53682,18.23234],[-72.5468,18.23131],[-72.55604,18.22538],[-72.55747,18.21947],[-72.55263,18.20989],[-72.55281,18.19701],[-72.54198,18.19149],[-72.54071,18.18554],[-72.543,18.17604],[-72.55329,18.17167],[-72.56784,18.17134],[-72.57101,18.17563],[-72.57869,18.17521],[-72.58227,18.17963],[-72.58818,18.18061],[-72.59334,18.17758],[-72.60322,18.18311],[-72.61857,18.1833],[-72.62416,18.18801],[-72.64028,18.19104],[-72.66112,18.18357],[-72.67345,18.18681],[-72.69322,18.17932],[-72.70317,18.18124],[-72.71294,18.17467],[-72.74171,18.17848],[-72.74141,18.1808],[-72.75216,18.18311],[-72.7565,18.1802],[-72.76067,18.17021],[-72.74893,18.16132],[-72.74714,18.15512],[-72.75737,18.15408],[-72.77642,18.1601],[-72.7829,18.15888],[-72.78193,18.15038],[-72.79223,18.14458],[-72.8073,18.1459],[-72.82215,18.14196],[-72.8358,18.14906],[-72.84521,18.15007],[-72.84872,18.14985],[-72.8531,18.14333],[-72.87296,18.14909],[-72.88643,18.14872],[-72.8864,18.15104],[-72.8977,18.15219],[-72.90289,18.15714],[-72.90681,18.1559],[-72.93253,18.16725],[-72.93363,18.1652],[-72.96297,18.16732],[-72.96643,18.1707],[-72.99465,18.17575],[-73.00027,18.17903],[-73.00463,18.18744],[-73.02314,18.1812],[-73.05599,18.18218],[-73.06833,18.18694],[-73.08559,18.18544],[-73.14096,18.19654],[-73.15113,18.20295],[-73.16512,18.2054],[-73.16965,18.21021],[-73.23538,18.21134],[-73.24126,18.21603],[-73.2674,18.21485],[-73.27088,18.21745],[-73.2704,18.22517],[-73.27856,18.23156],[-73.30606,18.23],[-73.32364,18.22307],[-73.34441,18.21978],[-73.34792,18.21994],[-73.34843,18.22329],[-73.35571,18.22309],[-73.35793,18.21642],[-73.36842,18.21741],[-73.37106,18.22297],[-73.36678,18.23529],[-73.36282,18.24092],[-73.35742,18.24152],[-73.35219,18.2528],[-73.34652,18.25404],[-73.34837,18.25779],[-73.35271,18.25423],[-73.36561,18.25871],[-73.36745,18.26362],[-73.36153,18.2628],[-73.36205,18.26512],[-73.37073,18.26889],[-73.37248,18.27345],[-73.38354,18.27277],[-73.38277,18.26916],[-73.38572,18.26996],[-73.38833,18.27925],[-73.39211,18.27877],[-73.39326,18.27156],[-73.41088,18.26064],[-73.40933,18.25239],[-73.42953,18.255],[-73.43107,18.263],[-73.43618,18.26484],[-73.44536,18.26273],[-73.44829,18.26636],[-73.45369,18.26588],[-73.45244,18.25493],[-73.45804,18.26103],[-73.47181,18.25882],[-73.47683,18.25474],[-73.4754,18.24906],[-73.4818,18.25671],[-73.49205,18.25563],[-73.49262,18.25229],[-73.50777,18.24494],[-73.49488,18.24059],[-73.4957,18.23763],[-73.50842,18.23194],[-73.5146,18.23456],[-73.53133,18.23224],[-73.53749,18.25161],[-73.54592,18.26004],[-73.56697,18.25762],[-73.5732,18.25342],[-73.57513,18.24751],[-73.559,18.22705],[-73.56731,18.21566],[-73.57915,18.21767],[-73.58068,18.22798],[-73.58792,18.23267],[-73.58502,18.22479],[-73.58695,18.21979],[-73.6029,18.21282],[-73.6169,18.2146],[-73.61998,18.21719],[-73.61508,18.22308],[-73.6165,18.23133],[-73.60891,18.23643],[-73.6086,18.24132],[-73.60484,18.23988],[-73.60023,18.24358],[-73.6029,18.24746],[-73.59913,18.24666],[-73.59883,18.25078],[-73.60123,18.25414],[-73.60877,18.25471],[-73.62011,18.25222],[-73.62149,18.24837],[-73.63307,18.24922],[-73.63273,18.22321],[-73.64547,18.21377],[-73.65166,18.2151],[-73.66248,18.20951],[-73.66405,18.21596],[-73.66067,18.218],[-73.66088,18.22573],[-73.65049,18.22694],[-73.64811,18.23877],[-73.64159,18.24542],[-73.64487,18.25652],[-73.64921,18.25372],[-73.65472,18.2383],[-73.66879,18.23119],[-73.67158,18.23636],[-73.66935,18.2451],[-73.6813,18.25111],[-73.6812,18.26442],[-73.68775,18.24857],[-73.68518,18.23748],[-73.6976,18.23499],[-73.70311,18.2188],[-73.70016,18.21621],[-73.70207,18.21262],[-73.7188,18.20964],[-73.72524,18.21329],[-73.73833,18.19213],[-73.7475,18.19064],[-73.75863,18.18028],[-73.77238,18.17831],[-73.80404,18.15816],[-73.80889,18.15794],[-73.81622,18.15077],[-73.81999,18.15105],[-73.83328,18.13671],[-73.84188,18.11925],[-73.84379,18.11714],[-73.84751,18.11954],[-73.84178,18.11461],[-73.84369,18.10999],[-73.84051,18.10224],[-73.81479,18.08199],[-73.80879,18.07423],[-73.80882,18.06857],[-73.7881,18.04809],[-73.79087,18.03677],[-73.7885,18.02826],[-73.79767,18.02651],[-73.79796,18.02317],[-73.80216,18.02542],[-73.80497,18.02192],[-73.8316,18.02518],[-73.88115,18.02212],[-73.90477,18.03282],[-73.90336,18.04363],[-73.91751,18.0638],[-73.92067,18.07489],[-73.91756,18.07719],[-73.9265,18.09012],[-73.93858,18.0974],[-73.94401,18.11236],[-73.94223,18.11648],[-73.95019,18.13132],[-73.96126,18.13281],[-73.97466,18.14524],[-73.98027,18.15403],[-73.9794,18.1633],[-74.00068,18.16521],[-74.00397,18.17939],[-74.01915,18.18694],[-74.01966,18.19158],[-74.0253,18.19509],[-74.03365,18.19577],[-74.04195,18.20586],[-74.05217,18.20926],[-74.05294,18.21725],[-74.061,18.22063],[-74.06393,18.22812],[-74.08465,18.23414],[-74.09025,18.24627],[-74.11017,18.25178],[-74.11472,18.25746],[-74.12416,18.25751],[-74.12898,18.26294],[-74.13842,18.26298],[-74.14164,18.2666],[-74.16641,18.27212],[-74.16639,18.27779],[-74.19029,18.29695],[-74.21106,18.29704],[-74.2296,18.31012],[-74.25819,18.31023],[-74.30035,18.28631],[-74.31034,18.28403],[-74.35802,18.2954],[-74.36746,18.29504],[-74.38305,18.30978],[-74.38358,18.3139],[-74.39679,18.31497],[-74.40109,18.31885],[-74.39715,18.32708],[-74.40212,18.33379],[-74.43176,18.34084],[-74.44738,18.34913],[-74.44979,18.35583],[-74.44583,18.3687],[-74.45146,18.38082],[-74.44845,18.39575],[-74.46256,18.41176],[-74.47604,18.41528],[-74.47278,18.42364],[-74.47925,18.42649],[-74.47221,18.43291],[-74.473,18.43935],[-74.46419,18.45246],[-74.46485,18.45762],[-74.46052,18.45928],[-74.45969,18.46572],[-74.45293,18.46969],[-74.45207,18.4854],[-74.46043,18.48993],[-74.45744,18.49675],[-74.45959,18.49778],[-74.44158,18.51525],[-74.44437,18.53174],[-74.43354,18.53944],[-74.43486,18.54897],[-74.43162,18.54896],[-74.42565,18.55641],[-74.41463,18.58162],[-74.41715,18.59476],[-74.42659,18.59917],[-74.4241,18.61578],[-74.40949,18.62256],[-74.40542,18.62821],[-74.39435,18.62689],[-74.39433,18.63204],[-74.3881,18.63511],[-74.3893,18.64052],[-74.38672,18.64283],[-74.37594,18.63494],[-74.36703,18.63517],[-74.36296,18.63979],[-74.35051,18.64374],[-74.34888,18.64786],[-74.34456,18.64656],[-74.34333,18.65042],[-74.33238,18.65063],[-74.32858,18.65487],[-74.31211,18.65262],[-74.30888,18.649],[-74.30536,18.65131],[-74.30695,18.65878],[-74.2991,18.66094],[-74.29046,18.65924],[-74.28739,18.6515],[-74.27863,18.64722],[-74.25745,18.67031],[-74.25204,18.67016],[-74.24612,18.66473],[-74.24232,18.66935],[-74.20797,18.67513],[-74.19473,18.67508],[-74.19231,18.67198],[-74.16234,18.66785],[-74.14562,18.65967],[-74.14129,18.66274],[-74.13319,18.66051],[-74.12836,18.65418],[-74.11083,18.64688],[-74.10994,18.63709],[-74.06807,18.61088],[-74.00466,18.5987],[-73.99357,18.60174],[-73.95954,18.60001],[-73.93316,18.58582],[-73.93393,18.59291],[-73.93095,18.59405],[-73.928,18.5903],[-73.93128,18.58362],[-73.92521,18.58281],[-73.91933,18.57402],[-73.90358,18.5653],[-73.88116,18.56736],[-73.87303,18.57156],[-73.85738,18.56864],[-73.85683,18.57108],[-73.8517,18.57105],[-73.85172,18.56796],[-73.84359,18.57126],[-73.83351,18.56398],[-73.8059,18.55518],[-73.79247,18.54492],[-73.78833,18.53794],[-73.77954,18.53969],[-73.77916,18.53608],[-73.77197,18.54144],[-73.7682,18.54013],[-73.76683,18.54347],[-73.74846,18.54451],[-73.7214,18.5518],[-73.71784,18.55885],[-73.7146,18.55883],[-73.71401,18.56552],[-73.70996,18.56563],[-73.71125,18.57323],[-73.70106,18.57726],[-73.65645,18.57169],[-73.63612,18.58082],[-73.61664,18.58505],[-73.5691,18.5865],[-73.56561,18.58403],[-73.56567,18.57707],[-73.57578,18.56247],[-73.5918,18.55203],[-73.64329,18.56207],[-73.64978,18.56096],[-73.64767,18.55412],[-73.66307,18.55294],[-73.66576,18.55463],[-73.6595,18.5609],[-73.66437,18.5599],[-73.67026,18.56586],[-73.6962,18.5645],[-73.68003,18.55962],[-73.68278,18.55295],[-73.69196,18.55314],[-73.69279,18.55044],[-73.70848,18.54669],[-73.71012,18.54374],[-73.72036,18.54728],[-73.72159,18.54497],[-73.71096,18.54039],[-73.69445,18.54517],[-73.69288,18.53885],[-73.6896,18.54437],[-73.68366,18.54446],[-73.68493,18.537],[-73.68195,18.53801],[-73.6815,18.54418],[-73.67826,18.54468],[-73.67397,18.53988],[-73.66317,18.54071],[-73.66108,18.53091],[-73.67227,18.5163],[-73.67288,18.50691],[-73.66964,18.5065],[-73.67254,18.49828],[-73.66757,18.4958],[-73.66786,18.49194],[-73.65949,18.49265],[-73.66433,18.4959],[-73.65998,18.49935],[-73.64403,18.50233],[-73.63999,18.50114],[-73.64222,18.49201],[-73.639,18.48929],[-73.63384,18.49375],[-73.63404,18.50328],[-73.63106,18.50404],[-73.6149,18.4998],[-73.60988,18.50272],[-73.60058,18.50188],[-73.59818,18.49813],[-73.59314,18.50311],[-73.58709,18.50114],[-73.58355,18.50472],[-73.5714,18.50437],[-73.56029,18.50943],[-73.55221,18.50796],[-73.55215,18.51465],[-73.54807,18.5181],[-73.5281,18.51756],[-73.52632,18.52529],[-73.52045,18.5287],[-73.51265,18.5249],[-73.50751,18.52808],[-73.47056,18.52238],[-73.45782,18.52845],[-73.3285,18.50225],[-73.29279,18.48339],[-73.27039,18.48331],[-73.24024,18.47583],[-73.2124,18.48046],[-73.19694,18.48855],[-73.16188,18.48577],[-73.15599,18.48146],[-73.14091,18.47861],[-73.14016,18.47295],[-73.1442,18.47427],[-73.14316,18.47001],[-73.13185,18.46822],[-73.12682,18.45929],[-73.1182,18.45843],[-73.10881,18.45306],[-73.10485,18.4453],[-73.09178,18.44285],[-73.09054,18.44645],[-73.08431,18.4487],[-73.08191,18.44597],[-73.07381,18.4464],[-73.07215,18.45076],[-73.06566,18.45185],[-73.06532,18.45764],[-73.04315,18.46141],[-73.04177,18.46461],[-73.03505,18.46248],[-73.02342,18.46519],[-73.00158,18.46393],[-72.98725,18.46764],[-72.98214,18.46489],[-72.97242,18.46594],[-72.9307,18.45777],[-72.91111,18.4488],[-72.89441,18.44694],[-72.8943,18.44462],[-72.90174,18.4429],[-72.90207,18.43853],[-72.89884,18.43772],[-72.89851,18.43154],[-72.89171,18.42464],[-72.87376,18.42611],[-72.85643,18.44278],[-72.84859,18.44398],[-72.81328,18.44177],[-72.79212,18.42982],[-72.76537,18.43375],[-72.73986,18.4256],[-72.72121,18.42769],[-72.71631,18.43149],[-72.7115,18.4286],[-72.70662,18.42983],[-72.70436,18.43766],[-72.69545,18.43857],[-72.67867,18.45266],[-72.65414,18.51105],[-72.65193,18.52453],[-72.64815,18.52539],[-72.62688,18.55061],[-72.61208,18.5575],[-72.58175,18.56483],[-72.55266,18.56098],[-72.55143,18.55196],[-72.54048,18.54422],[-72.5133,18.54811],[-72.50616,18.54789],[-72.50485,18.5453],[-72.46784,18.5479],[-72.43014,18.5416],[-72.41861,18.55546],[-72.4006,18.55058],[-72.38116,18.53423],[-72.37416,18.53272],[-72.36417,18.53309],[-72.34915,18.54485],[-72.34816,18.55616],[-72.35194,18.55647],[-72.34749,18.5649],[-72.35126,18.56547],[-72.35149,18.56856],[-72.34852,18.56839],[-72.34668,18.57364],[-72.34226,18.57165],[-72.3388,18.5749],[-72.33882,18.5936],[-72.34243,18.59571],[-72.34574,18.60837],[-72.35209,18.61618],[-72.34995,18.62413],[-72.35974,18.62813],[-72.35837,18.63017],[-72.34761,18.62706],[-72.34242,18.63123],[-72.33596,18.64735],[-72.31367,18.65655],[-72.31716,18.67514],[-72.31988,18.67415],[-72.32515,18.68194],[-72.35194,18.68721],[-72.36865,18.69813],[-72.37914,18.70072],[-72.38896,18.71217],[-72.42703,18.71335],[-72.45043,18.71959],[-72.45243,18.73056],[-72.45916,18.73245],[-72.45735,18.74504],[-72.46579,18.75828],[-72.47846,18.76077],[-72.48807,18.76823],[-72.49651,18.7641],[-72.50322,18.76715],[-72.52267,18.76753],[-72.54253,18.77681],[-72.54881,18.79027],[-72.56103,18.79635],[-72.57563,18.83361],[-72.59021,18.84409],[-72.59919,18.85824],[-72.61145,18.86238],[-72.6166,18.87069],[-72.61961,18.88746],[-72.62445,18.88945],[-72.63611,18.90659],[-72.64283,18.90925],[-72.64837,18.91897],[-72.68973,18.94085],[-72.70998,18.94223],[-72.71317,18.94784],[-72.72756,18.95342],[-72.72868,18.97068],[-72.73989,18.99244],[-72.76395,19.01423],[-72.79706,19.02788],[-72.8111,19.03063],[-72.82161,19.04491],[-72.82388,19.0578],[-72.82145,19.06704],[-72.80938,19.07887],[-72.76831,19.09331],[-72.72884,19.08845],[-72.7125,19.09558],[-72.70244,19.10781],[-72.70067,19.12838],[-72.70979,19.1348],[-72.74321,19.14757],[-72.76198,19.16436],[-72.7713,19.18305],[-72.77285,19.19852],[-72.77764,19.20475],[-72.77699,19.21285],[-72.77184,19.21318],[-72.77314,19.21731],[-72.76682,19.22367],[-72.75788,19.22343],[-72.75784,19.22678],[-72.74544,19.23139],[-72.74658,19.23784],[-72.75065,19.23699],[-72.75761,19.24312],[-72.76765,19.24233],[-72.76924,19.24506],[-72.77703,19.23023],[-72.7858,19.23342],[-72.7848,19.23676],[-72.77665,19.23833],[-72.77102,19.24783],[-72.76048,19.25016],[-72.7711,19.2483],[-72.77606,19.2418],[-72.7745,19.26701],[-72.76843,19.26526],[-72.76425,19.2737],[-72.7559,19.26974],[-72.74343,19.26972],[-72.74473,19.27346],[-72.73254,19.27344],[-72.71546,19.28353],[-72.70947,19.29452],[-72.71293,19.2997],[-72.73025,19.3025],[-72.73046,19.30585],[-72.71151,19.30433],[-72.70844,19.31008],[-72.71078,19.3177],[-72.70771,19.32346],[-72.70867,19.33286],[-72.71165,19.33264],[-72.70793,19.33749],[-72.70881,19.34213],[-72.70543,19.34157],[-72.70269,19.33382],[-72.70037,19.33482],[-72.69689,19.32216],[-72.6912,19.32183],[-72.68992,19.33559],[-72.69237,19.33459],[-72.70176,19.34204],[-72.70021,19.34666],[-72.69643,19.34481],[-72.69338,19.34966],[-72.69811,19.35101],[-72.68603,19.36116],[-72.68607,19.35845],[-72.67413,19.35945],[-72.67106,19.35555],[-72.67079,19.34641],[-72.66339,19.35134],[-72.66629,19.35729],[-72.65703,19.35048],[-72.65497,19.35226],[-72.65488,19.36847],[-72.662,19.37294],[-72.66122,19.38992],[-72.6544,19.3924],[-72.65972,19.39942],[-72.67218,19.40087],[-72.67458,19.40399],[-72.68031,19.40174],[-72.67985,19.41448],[-72.70013,19.42954],[-72.70009,19.44164],[-72.69648,19.44725],[-72.70234,19.45543],[-72.69664,19.45549],[-72.705,19.45894],[-72.71638,19.45059],[-72.71768,19.45498],[-72.72606,19.45715],[-72.7323,19.44757],[-72.74455,19.4449],[-72.77021,19.45345],[-72.78519,19.47899],[-72.80501,19.50114],[-72.82069,19.51366],[-72.83234,19.51573],[-72.8452,19.52862],[-72.86354,19.53772],[-72.88711,19.5416],[-72.88446,19.54711],[-72.89006,19.54447],[-72.92538,19.56393],[-72.96163,19.57502],[-72.96213,19.5785],[-72.97293,19.58416],[-72.97216,19.59136],[-72.97739,19.59631],[-72.98421,19.59381],[-72.99524,19.6032],[-72.99094,19.61036],[-72.99375,19.61374],[-73.00282,19.6047],[-73.01286,19.60559],[-73.01391,19.60907],[-73.02799,19.61258],[-73.0525,19.62983],[-73.1029,19.64183],[-73.11353,19.63936],[-73.13057,19.62204],[-73.18145,19.63981],[-73.1944,19.64856],[-73.2054,19.66103],[-73.21111,19.66122],[-73.21932,19.65628],[-73.21971,19.64521],[-73.2287,19.63114],[-73.23511,19.62876],[-73.25928,19.62938],[-73.2625,19.63314],[-73.26848,19.63346],[-73.32183,19.62444],[-73.35633,19.62578],[-73.36397,19.62276],[-73.37312,19.63122],[-73.39075,19.63421],[-73.41606,19.64919],[-73.43959,19.67094],[-73.45435,19.68987],[-73.4557,19.73811],[-73.45287,19.75937],[-73.44382,19.7674],[-73.42449,19.79646],[-73.41721,19.79047],[-73.41123,19.79016],[-73.3981,19.79725],[-73.38393,19.79931],[-73.37976,19.80816],[-73.37118,19.80988],[-73.36821,19.82041],[-73.36161,19.82756],[-73.36045,19.83425],[-73.36425,19.83505],[-73.37393,19.81995],[-73.38238,19.81797],[-73.4079,19.8236],[-73.41201,19.82029],[-73.42123,19.82372],[-73.42163,19.82853],[-73.41017,19.84139],[-73.4009,19.84337],[-73.3846,19.8409],[-73.36415,19.84522],[-73.3509,19.83725],[-73.34138,19.83716],[-73.3028,19.85739],[-73.27142,19.86482],[-73.24217,19.87727],[-73.22157,19.89419],[-73.19968,19.90427],[-73.18371,19.92007],[-73.16564,19.92953],[-73.14256,19.92428],[-73.11859,19.92544],[-73.07893,19.91896],[-73.04464,19.91846],[-73.03441,19.90947],[-73.02462,19.90833],[-73.01937,19.91509],[-73.02968,19.91727],[-73.0317,19.91896],[-73.02936,19.92164],[-73.00043,19.9172],[-72.99452,19.92112],[-72.9768,19.92388],[-72.9719,19.92331],[-72.96425,19.91563],[-72.96417,19.91074],[-72.9582,19.90938],[-72.95476,19.9226],[-72.92663,19.93025],[-72.89581,19.93504],[-72.88331,19.93309],[-72.89966,19.92157],[-72.89524,19.9165],[-72.87675,19.91538],[-72.87203,19.92214],[-72.86685,19.92298],[-72.87191,19.93089],[-72.86007,19.94079],[-72.84643,19.94346],[-72.8334,19.9406],[-72.81718,19.95237],[-72.81043,19.94791],[-72.78099,19.95114],[-72.77315,19.94719],[-72.7666,19.94878],[-72.76366,19.94462],[-72.74437,19.94206],[-72.73059,19.93519],[-72.72159,19.93611],[-72.70757,19.9273],[-72.70208,19.93019],[-72.68807,19.92075],[-72.67065,19.92103],[-72.66935,19.91638],[-72.65171,19.91358],[-72.64745,19.90683],[-72.63628,19.90797],[-72.63422,19.8997],[-72.62126,19.8931],[-72.6074,19.89201],[-72.60164,19.89554],[-72.59375,19.89504],[-72.59234,19.89837],[-72.58068,19.8959],[-72.57301,19.89064],[-72.57401,19.88705],[-72.55349,19.87674],[-72.5555,19.87033],[-72.54066,19.86215],[-72.53189,19.8489],[-72.52142,19.8485],[-72.5187,19.83984],[-72.51312,19.8404],[-72.51068,19.84822],[-72.50717,19.8465],[-72.505,19.83746],[-72.49851,19.83505],[-72.50017,19.82452],[-72.48647,19.81404],[-72.46691,19.81273],[-72.4666,19.81504],[-72.47305,19.82028],[-72.49027,19.8231],[-72.49159,19.83418],[-72.48037,19.82154],[-72.47002,19.82268],[-72.46607,19.83138],[-72.44753,19.81747],[-72.4338,19.81715],[-72.43428,19.82951],[-72.42722,19.82915],[-72.42525,19.82474],[-72.42951,19.82223],[-72.42929,19.81888],[-72.40614,19.80426],[-72.3909,19.80494],[-72.38199,19.80121],[-72.38682,19.81338],[-72.38065,19.81637],[-72.382,19.80893],[-72.37873,19.80116],[-72.33858,19.77123],[-72.33305,19.75211],[-72.3374,19.75217],[-72.34101,19.76393],[-72.34268,19.74517],[-72.33286,19.71453],[-72.31859,19.70673],[-72.3107,19.70713],[-72.30427,19.70201],[-72.29768,19.70603],[-72.31228,19.72632],[-72.31348,19.73612],[-72.30803,19.73706],[-72.30942,19.743],[-72.31944,19.74521],[-72.31761,19.7493],[-72.31097,19.74817],[-72.31917,19.76966],[-72.31481,19.77011],[-72.31327,19.76468],[-72.30572,19.76135],[-72.28746,19.76403],[-72.2844,19.76797],[-72.27579,19.76308],[-72.2693,19.76118],[-72.26654,19.76358],[-72.25818,19.75972],[-72.25955,19.77493],[-72.25246,19.77623],[-72.24409,19.77263],[-72.24503,19.7814],[-72.2424,19.78393],[-72.24496,19.78538],[-72.23839,19.78837],[-72.22815,19.78281],[-72.20366,19.78436],[-72.20061,19.78778],[-72.18927,19.78361],[-72.19518,19.76415],[-72.19434,19.75783],[-72.202,19.755],[-72.20713,19.74105],[-72.21112,19.73841],[-72.21215,19.7338],[-72.20812,19.73103],[-72.20177,19.73685],[-72.20502,19.74552],[-72.20301,19.75167],[-72.19624,19.74255],[-72.17721,19.74251],[-72.17273,19.73485],[-72.16341,19.73933],[-72.14561,19.73918],[-72.14467,19.74637],[-72.15088,19.7565],[-72.13434,19.75431],[-72.12706,19.75098],[-72.12677,19.74454],[-72.11922,19.73335],[-72.10222,19.72703],[-72.09969,19.71683],[-72.08811,19.71098],[-72.09131,19.70666],[-72.08945,19.69711],[-72.07662,19.68532],[-72.06708,19.68735],[-72.05734,19.68488],[-72.03304,19.69194],[-72.03296,19.69605],[-72.01885,19.69518],[-72.00299,19.70109],[-71.98806,19.68566],[-71.98507,19.68612],[-71.98024,19.69016],[-71.98594,19.69746],[-71.98124,19.70175],[-71.97805,19.69835],[-71.95454,19.70606],[-71.94397,19.70459],[-71.92424,19.71377],[-71.92514,19.72318],[-71.94432,19.72904],[-71.90824,19.72636],[-71.88936,19.71935],[-71.85111,19.71649],[-71.84573,19.70714],[-71.85107,19.69102],[-71.86111,19.69107],[-71.87211,19.68445],[-71.87191,19.68058],[-71.8843,19.68582],[-71.9056,19.68683],[-71.9029,19.67932],[-71.89478,19.67789],[-71.8871,19.68162],[-71.88595,19.67774],[-71.89512,19.67404],[-71.89962,19.66627],[-71.88865,19.67187],[-71.88392,19.66368],[-71.8737,19.6581],[-71.8707,19.65895],[-71.87168,19.66437],[-71.8665,19.66531],[-71.86507,19.6694],[-71.84997,19.66374],[-71.84142,19.67053],[-71.82773,19.66244],[-71.82623,19.64865],[-71.81697,19.64322],[-71.81569,19.64615],[-71.81902,19.64956],[-71.81629,19.65028],[-71.81557,19.6594],[-71.81948,19.66088],[-71.81564,19.66262],[-71.82018,19.66655],[-71.81877,19.6691],[-71.80887,19.66841],[-71.81033,19.67693],[-71.81902,19.68403],[-71.82273,19.68152],[-71.83076,19.68784],[-71.84147,19.68854],[-71.84223,19.69859],[-71.83962,19.69983],[-71.84414,19.712],[-71.83023,19.71445],[-71.76009,19.70412],[-71.76166,19.69497],[-71.75645,19.69012],[-71.75953,19.68848],[-71.75413,19.68517],[-71.75611,19.67604],[-71.73512,19.66159],[-71.7323,19.64624],[-71.74611,19.63131],[-71.7436,19.58442],[-71.71518,19.55837],[-71.712,19.54856],[-71.71227,19.53276],[-71.70264,19.53306],[-71.70326,19.52101],[-71.69979,19.51977],[-71.6984,19.51155],[-71.69201,19.51109],[-71.68893,19.51394],[-71.68813,19.50281],[-71.69425,19.48991],[-71.69224,19.48209],[-71.69436,19.47717],[-71.68889,19.47182],[-71.6907,19.46906],[-71.6872,19.46726],[-71.68549,19.45581],[-71.68,19.45185],[-71.6784,19.44525],[-71.68103,19.43988],[-71.67962,19.43427],[-71.69107,19.4155],[-71.68898,19.41497],[-71.6906,19.40668],[-71.69753,19.39874],[-71.69756,19.38983],[-71.69113,19.37191],[-71.69413,19.36826],[-71.69217,19.36252],[-71.69433,19.35914],[-71.70102,19.35799],[-71.70348,19.36467],[-71.71389,19.3711],[-71.7183,19.36334],[-71.72409,19.36649],[-71.74551,19.35594],[-71.75594,19.34496],[-71.75275,19.34029],[-71.78609,19.33187],[-71.77963,19.32951],[-71.77305,19.31988],[-71.76938,19.32094],[-71.76472,19.30798],[-71.75582,19.29862],[-71.76046,19.29605],[-71.76128,19.29135],[-71.75364,19.2888],[-71.75547,19.28183],[-71.75289,19.27952]]],[[[-72.37799,19.81299],[-72.37711,19.81709],[-72.37412,19.81654],[-72.37417,19.81371],[-72.37799,19.81299]]],[[[-72.37948,18.69635],[-72.37614,18.69399],[-72.38062,18.69289],[-72.38261,18.69459],[-72.37948,18.69635]]],[[[-72.95867,20.05251],[-72.9647,20.05992],[-72.96959,20.061],[-72.97008,20.06551],[-72.93427,20.07527],[-72.85863,20.08762],[-72.83577,20.0858],[-72.80303,20.08913],[-72.75675,20.0677],[-72.66808,20.03965],[-72.63519,20.01734],[-72.62081,19.99617],[-72.62766,19.99317],[-72.64836,19.99229],[-72.6581,19.99667],[-72.69457,19.9974],[-72.70512,20.00269],[-72.76,20.01124],[-72.77324,20.01848],[-72.81774,20.03024],[-72.88061,20.03319],[-72.88898,20.03895],[-72.90639,20.04096],[-72.92941,20.0505],[-72.95867,20.05251]]],[[[-72.66528,19.39035],[-72.66384,19.39626],[-72.66172,19.39276],[-72.66528,19.39035]]],[[[-72.66741,19.35525],[-72.67078,19.36611],[-72.67613,19.37105],[-72.67367,19.37232],[-72.6664,19.36862],[-72.66579,19.36372],[-72.66946,19.36312],[-72.66741,19.35525]]],[[[-72.67329,19.36073],[-72.67844,19.36118],[-72.67814,19.36336],[-72.67432,19.3646],[-72.67329,19.36073]]],[[[-72.72715,19.30993],[-72.73121,19.31062],[-72.72379,19.31761],[-72.72192,19.31553],[-72.72715,19.30993]]],[[[-72.73943,19.28486],[-72.73785,19.28123],[-72.74137,19.28127],[-72.73943,19.28486]]],[[[-72.76154,19.37316],[-72.76662,19.36859],[-72.77286,19.34859],[-72.76824,19.3681],[-72.76154,19.37316]]],[[[-72.76681,19.33024],[-72.76785,19.33746],[-72.76507,19.33306],[-72.76681,19.33024]]],[[[-72.78167,19.20738],[-72.78484,19.21295],[-72.77983,19.21353],[-72.78167,19.20738]]],[[[-72.79153,19.22037],[-72.78686,19.21439],[-72.7861,19.21104],[-72.78896,19.20952],[-72.79356,19.21035],[-72.79322,19.21524],[-72.79979,19.22072],[-72.79393,19.22271],[-72.79153,19.22037]]],[[[-73.30102,18.91554],[-73.29909,18.9338],[-73.28134,18.94986],[-73.25059,18.96618],[-73.20806,18.96963],[-73.17649,18.96173],[-73.16172,18.95064],[-73.11621,18.93165],[-73.08133,18.92961],[-73.07003,18.92396],[-73.0565,18.92446],[-73.04791,18.91832],[-73.04783,18.91382],[-73.05174,18.9136],[-73.0491,18.90894],[-73.0135,18.90032],[-72.99562,18.87954],[-72.98536,18.87865],[-72.97491,18.87043],[-72.97109,18.87296],[-72.94659,18.8642],[-72.93882,18.8578],[-72.9264,18.85664],[-72.92535,18.85315],[-72.91726,18.8519],[-72.91742,18.84958],[-72.90076,18.85326],[-72.89408,18.84623],[-72.8569,18.83577],[-72.85453,18.83034],[-72.84834,18.82923],[-72.83147,18.81552],[-72.8101,18.78554],[-72.80498,18.75304],[-72.79369,18.73772],[-72.81774,18.72745],[-72.81865,18.71909],[-72.80666,18.70608],[-72.81132,18.70112],[-72.81778,18.70301],[-72.82249,18.69352],[-72.8321,18.70277],[-72.83509,18.70243],[-72.83913,18.72345],[-72.85214,18.72025],[-72.87539,18.72992],[-72.87637,18.7271],[-72.88178,18.72651],[-72.89148,18.72906],[-72.89709,18.73441],[-72.91758,18.73825],[-72.92317,18.74384],[-72.93429,18.74152],[-72.99748,18.74555],[-73.03692,18.75871],[-73.05367,18.77125],[-73.07528,18.79593],[-73.09256,18.79817],[-73.09628,18.80348],[-73.11055,18.80839],[-73.12597,18.82039],[-73.17038,18.8265],[-73.18892,18.83749],[-73.20271,18.83762],[-73.20327,18.83531],[-73.21243,18.83862],[-73.21276,18.84571],[-73.21906,18.85078],[-73.23971,18.85471],[-73.23692,18.85057],[-73.2288,18.85023],[-73.23613,18.84837],[-73.26522,18.88611],[-73.2929,18.90387],[-73.30102,18.91554]]],[[[-73.40203,18.22554],[-73.39656,18.23503],[-73.39235,18.2234],[-73.38832,18.2226],[-73.38862,18.21899],[-73.39238,18.21993],[-73.39376,18.2171],[-73.404,18.21719],[-73.41015,18.22163],[-73.41772,18.21949],[-73.42007,18.22814],[-73.41707,18.23056],[-73.40203,18.22554]]],[[[-73.51749,18.21141],[-73.52047,18.21144],[-73.5207,18.21439],[-73.51479,18.21319],[-73.51749,18.21141]]],[[[-73.6682,18.05966],[-73.6752,18.0592],[-73.67544,18.06332],[-73.68786,18.07731],[-73.68635,18.08142],[-73.70459,18.09094],[-73.70242,18.09338],[-73.70802,18.0996],[-73.70688,18.1086],[-73.69961,18.1083],[-73.69724,18.10158],[-73.69212,18.10181],[-73.69128,18.10644],[-73.68394,18.09686],[-73.67975,18.09966],[-73.67439,18.0955],[-73.66926,18.09779],[-73.6634,18.08925],[-73.64222,18.07712],[-73.61121,18.08192],[-73.61017,18.07728],[-73.59658,18.07693],[-73.59371,18.08193],[-73.57997,18.08247],[-73.5716,18.0685],[-73.57638,18.05991],[-73.58719,18.05509],[-73.65231,18.05981],[-73.66068,18.05704],[-73.6682,18.05966]]],[[[-73.61489,18.09328],[-73.61055,18.09724],[-73.61003,18.09518],[-73.61489,18.09328]]],[[[-73.6314,18.08336],[-73.61949,18.09151],[-73.61897,18.08816],[-73.6314,18.08336]]],[[[-73.66419,18.51316],[-73.66307,18.51882],[-73.65736,18.52315],[-73.64969,18.52078],[-73.65148,18.51564],[-73.65485,18.51721],[-73.66419,18.51316]]],[[[-73.66989,18.22733],[-73.67289,18.22272],[-73.67718,18.22584],[-73.67122,18.22953],[-73.66989,18.22733]]],[[[-73.7843,18.63063],[-73.76909,18.64187],[-73.74369,18.64221],[-73.73671,18.63676],[-73.70463,18.62804],[-73.69848,18.61924],[-73.69935,18.61152],[-73.71488,18.5936],[-73.72844,18.58635],[-73.74439,18.58401],[-73.74545,18.58711],[-73.75945,18.59326],[-73.79075,18.59642],[-73.79488,18.60443],[-73.7968,18.62041],[-73.79406,18.62606],[-73.7843,18.63063]]],[[[-73.80745,18.60425],[-73.81595,18.60508],[-73.81061,18.61561],[-73.80252,18.61324],[-73.80745,18.60425]]]]}}]}