{"type":"FeatureCollection","features":[{"type":"Feature","properties":{"ISO_A3":"HUN","WB_A3":"HUN","WB_NAME":"Hungary","WB_REGION":"ECS"},"geometry":{"type":"MultiPolygon","coordinates":[[[[18.81799,45.91176],[18.8072,45.9032],[18.81256,45.89076],[18.80889,45.87946],[18.791,45.87816],[18.77113,45.88857],[18.76021,45.8886],[18.7569,45.89676],[18.74901,45.89996],[18.72221,45.90501],[18.70495,45.91807],[18.67606,45.91489],[18.66961,45.91068],[18.65949,45.91688],[18.66101,45.89532],[18.65186,45.89452],[18.641,45.8888],[18.64146,45.88473],[18.65499,45.87416],[18.63766,45.86796],[18.63157,45.87661],[18.62743,45.87299],[18.62324,45.85402],[18.6148,45.85307],[18.62322,45.83948],[18.60068,45.8337],[18.60326,45.8282],[18.5927,45.81981],[18.57275,45.81366],[18.57492,45.80028],[18.55926,45.80366],[18.55509,45.79434],[18.53217,45.79339],[18.52113,45.78769],[18.52231,45.78474],[18.51028,45.78467],[18.49969,45.79504],[18.48898,45.79334],[18.4806,45.76635],[18.46381,45.76611],[18.45629,45.7695],[18.44508,45.76039],[18.44899,45.75802],[18.45022,45.7457],[18.44676,45.73708],[18.42924,45.741],[18.41023,45.73873],[18.39795,45.74462],[18.39681,45.74884],[18.4002,45.75479],[18.39655,45.75378],[18.38722,45.7642],[18.37904,45.76519],[18.36413,45.77307],[18.3666,45.7667],[18.35631,45.76681],[18.3445,45.74972],[18.3391,45.747],[18.3332,45.75391],[18.29715,45.76071],[18.2759,45.75549],[18.26272,45.76048],[18.24412,45.76092],[18.23176,45.77785],[18.20592,45.78114],[18.19116,45.78744],[18.16943,45.77582],[18.14776,45.78788],[18.12166,45.78857],[18.1081,45.77177],[18.09837,45.76662],[18.08137,45.76439],[18.05235,45.77335],[18.02677,45.77729],[17.99833,45.79481],[17.9863,45.79413],[17.97269,45.78889],[17.94831,45.79215],[17.92448,45.78628],[17.90614,45.79219],[17.87515,45.77873],[17.86849,45.76795],[17.86155,45.76732],[17.85243,45.77568],[17.85264,45.78214],[17.83364,45.79065],[17.82822,45.80822],[17.82209,45.81031],[17.80842,45.80398],[17.79954,45.80625],[17.78351,45.81676],[17.77635,45.81736],[17.76126,45.81166],[17.74022,45.82926],[17.7095,45.83151],[17.68826,45.83879],[17.67457,45.83483],[17.66222,45.83822],[17.651,45.84911],[17.64621,45.86865],[17.62625,45.89916],[17.6165,45.90849],[17.59882,45.91591],[17.56954,45.93598],[17.55531,45.93799],[17.52878,45.93379],[17.51373,45.93975],[17.47654,45.94222],[17.44431,45.95059],[17.43539,45.95025],[17.4274,45.94228],[17.43735,45.93255],[17.43534,45.9288],[17.42621,45.92715],[17.41223,45.93025],[17.40976,45.93285],[17.41096,45.94015],[17.39179,45.9312],[17.3851,45.93739],[17.38759,45.94144],[17.38602,45.94629],[17.38142,45.9481],[17.35468,45.94097],[17.34436,45.94415],[17.33949,45.95531],[17.34572,45.96088],[17.35,45.95956],[17.34948,45.95472],[17.35334,45.95253],[17.35989,45.95856],[17.38424,45.95624],[17.39011,45.95865],[17.39119,45.96266],[17.38632,45.96566],[17.37016,45.96097],[17.35934,45.96384],[17.36028,45.96784],[17.36576,45.96953],[17.37334,45.968],[17.37523,45.97114],[17.3672,45.97526],[17.37325,45.98172],[17.37432,45.98828],[17.364,45.99166],[17.36021,45.97715],[17.35291,45.97467],[17.34268,45.98443],[17.34186,45.99145],[17.33762,45.99581],[17.33039,45.99479],[17.32739,45.99134],[17.33736,45.98278],[17.33112,45.9713],[17.32396,45.96672],[17.30957,45.9682],[17.30965,45.97333],[17.31664,45.97562],[17.31793,45.98081],[17.32341,45.98448],[17.32258,45.98943],[17.31198,45.9892],[17.3087,45.98157],[17.29731,45.98399],[17.29424,45.99054],[17.30461,45.99645],[17.30441,46.00255],[17.2831,46.00047],[17.25771,46.01205],[17.27369,46.02053],[17.29362,46.02363],[17.29463,46.03111],[17.25943,46.03253],[17.25771,46.04625],[17.27168,46.05338],[17.26996,46.05733],[17.23207,46.06002],[17.2292,46.06335],[17.23208,46.06581],[17.24605,46.06121],[17.23951,46.06694],[17.23869,46.07732],[17.23066,46.08052],[17.20155,46.07747],[17.20309,46.08211],[17.21913,46.08268],[17.21819,46.0867],[17.22335,46.09427],[17.23313,46.09666],[17.23014,46.09973],[17.20949,46.09936],[17.21848,46.10913],[17.21473,46.11431],[17.18577,46.1065],[17.17607,46.10899],[17.1813,46.11784],[17.17447,46.12886],[17.18612,46.13288],[17.17728,46.14516],[17.18072,46.15053],[17.16907,46.15665],[17.16178,46.15494],[17.15617,46.15858],[17.15806,46.17019],[17.13996,46.17256],[17.13405,46.16789],[17.12544,46.16841],[17.12269,46.17892],[17.11108,46.1761],[17.10212,46.18252],[17.10277,46.18535],[17.09007,46.18954],[17.08189,46.18574],[17.07076,46.19221],[17.06574,46.19762],[17.06632,46.20221],[17.05301,46.20276],[17.0058,46.22285],[16.99598,46.22031],[16.99023,46.22472],[16.98341,46.22227],[16.97284,46.22542],[16.97525,46.2403],[16.97321,46.24277],[16.96703,46.24016],[16.95072,46.24093],[16.9356,46.25441],[16.91336,46.26215],[16.90282,46.27433],[16.8879,46.27967],[16.88515,46.2833],[16.88723,46.28984],[16.88516,46.30088],[16.87792,46.30577],[16.87644,46.32106],[16.87354,46.32328],[16.88025,46.33451],[16.87871,46.33693],[16.87237,46.33627],[16.87441,46.34065],[16.87163,46.34407],[16.86146,46.34752],[16.86675,46.35373],[16.85614,46.35237],[16.85074,46.35489],[16.85079,46.3613],[16.83727,46.3644],[16.83872,46.37227],[16.83512,46.37483],[16.82827,46.36747],[16.82348,46.37294],[16.81293,46.37181],[16.81177,46.37581],[16.80354,46.37746],[16.80018,46.38565],[16.7914,46.38711],[16.78103,46.37998],[16.77605,46.37919],[16.77211,46.38508],[16.76806,46.38537],[16.7626,46.37881],[16.7592,46.3792],[16.75525,46.38755],[16.7418,46.38638],[16.73899,46.38962],[16.73965,46.39877],[16.73596,46.40078],[16.72705,46.40049],[16.72264,46.39254],[16.71869,46.39155],[16.71564,46.39816],[16.70443,46.40589],[16.67392,46.4483],[16.6605,46.44507],[16.65716,46.44722],[16.6646,46.45129],[16.66423,46.4592],[16.64625,46.4642],[16.63608,46.46475],[16.63191,46.46152],[16.62322,46.46844],[16.61752,46.46474],[16.60571,46.47641],[16.57986,46.47888],[16.56964,46.48775],[16.52358,46.50539],[16.5252,46.50868],[16.52992,46.50762],[16.53321,46.51447],[16.5258,46.51557],[16.52437,46.51965],[16.5309,46.52522],[16.53251,46.53134],[16.51854,46.53544],[16.51641,46.54205],[16.51873,46.55273],[16.50842,46.56522],[16.49997,46.56239],[16.48298,46.56608],[16.48413,46.57762],[16.47337,46.58763],[16.46912,46.58559],[16.4612,46.59697],[16.45221,46.60068],[16.44553,46.61097],[16.42484,46.61315],[16.40772,46.63077],[16.39177,46.63376],[16.38972,46.63987],[16.39206,46.64074],[16.38589,46.64428],[16.38525,46.6539],[16.39122,46.65649],[16.39597,46.66473],[16.40341,46.66126],[16.40312,46.65882],[16.41924,46.65979],[16.41843,46.66462],[16.42521,46.67167],[16.42035,46.67415],[16.4232,46.68625],[16.42858,46.69399],[16.38048,46.69858],[16.36864,46.70428],[16.37941,46.711],[16.37972,46.71548],[16.37012,46.72156],[16.35624,46.71616],[16.34637,46.73542],[16.3348,46.7434],[16.33256,46.74844],[16.31858,46.75545],[16.32957,46.77815],[16.31219,46.77801],[16.31278,46.7975],[16.33989,46.80402],[16.34025,46.8218],[16.34372,46.82192],[16.34461,46.82973],[16.3506,46.82982],[16.3477,46.84072],[16.33909,46.84307],[16.33973,46.84652],[16.32957,46.84463],[16.31892,46.85595],[16.30149,46.85947],[16.29133,46.87286],[16.26693,46.87174],[16.2314,46.87595],[16.21575,46.86849],[16.18913,46.86645],[16.17845,46.85851],[16.16275,46.85939],[16.15606,46.85373],[16.12656,46.85691],[16.12401,46.86317],[16.11684,46.86391],[16.11383,46.86908],[16.13381,46.87632],[16.13876,46.88518],[16.14519,46.88607],[16.14876,46.89291],[16.15776,46.89681],[16.16301,46.90488],[16.1712,46.90347],[16.17925,46.90666],[16.19052,46.93002],[16.19992,46.9418],[16.20592,46.94255],[16.20722,46.93904],[16.21822,46.94002],[16.21746,46.93612],[16.22184,46.93555],[16.23383,46.94486],[16.24414,46.94613],[16.24649,46.94956],[16.24279,46.95597],[16.24944,46.96131],[16.25532,46.96421],[16.26924,46.96116],[16.2764,46.96266],[16.27707,46.98777],[16.28347,46.99751],[16.28274,47.00416],[16.29008,47.01396],[16.29943,47.0084],[16.2986,47.00132],[16.30226,46.99843],[16.32398,47.00244],[16.33947,46.99669],[16.34982,47.0104],[16.35926,47.00583],[16.36415,47.0074],[16.37288,46.9984],[16.41261,47.00474],[16.4275,46.99314],[16.44548,46.99322],[16.44609,47.00256],[16.45129,47.00415],[16.46379,46.99707],[16.48369,46.99428],[16.49314,46.99998],[16.51231,47.00096],[16.51235,47.0035],[16.49259,47.01012],[16.48182,47.0226],[16.4777,47.02135],[16.47509,47.02729],[16.46338,47.03223],[16.44779,47.02267],[16.4389,47.02972],[16.44407,47.03447],[16.4402,47.03592],[16.44361,47.0382],[16.47583,47.04684],[16.50656,47.04962],[16.52057,47.0562],[16.52048,47.06155],[16.51007,47.06627],[16.50021,47.06969],[16.48703,47.06889],[16.48246,47.07503],[16.47292,47.07359],[16.47085,47.0782],[16.47472,47.08532],[16.46333,47.09498],[16.46636,47.09577],[16.46461,47.09896],[16.47263,47.10056],[16.47466,47.10516],[16.47769,47.10142],[16.48476,47.10262],[16.48288,47.10876],[16.50071,47.11022],[16.49988,47.12342],[16.52933,47.12725],[16.52878,47.13733],[16.52264,47.14002],[16.51678,47.14934],[16.49045,47.14887],[16.46859,47.14273],[16.4548,47.14235],[16.44906,47.15189],[16.45311,47.15771],[16.46062,47.15908],[16.46103,47.1675],[16.46423,47.16819],[16.45309,47.18627],[16.45074,47.1883],[16.42819,47.18504],[16.41949,47.19493],[16.4212,47.19736],[16.4169,47.20535],[16.41895,47.21062],[16.42434,47.20782],[16.43659,47.20994],[16.435,47.21543],[16.43932,47.21789],[16.43679,47.22235],[16.4382,47.23],[16.44275,47.23375],[16.4417,47.24862],[16.43048,47.25036],[16.4318,47.25295],[16.44868,47.25047],[16.44658,47.25337],[16.46901,47.25519],[16.4783,47.26314],[16.47945,47.27801],[16.48941,47.28029],[16.46303,47.33579],[16.44768,47.34001],[16.4444,47.34655],[16.435,47.35221],[16.43734,47.35537],[16.45233,47.35711],[16.45116,47.36048],[16.457,47.36724],[16.45673,47.37221],[16.45115,47.37781],[16.45756,47.3849],[16.44641,47.40062],[16.44543,47.40683],[16.45629,47.41274],[16.48509,47.40854],[16.48964,47.40513],[16.48396,47.40072],[16.48815,47.39905],[16.48883,47.39449],[16.49656,47.3963],[16.49653,47.38992],[16.50992,47.39648],[16.50787,47.40376],[16.51879,47.40993],[16.53996,47.41006],[16.54629,47.4056],[16.57575,47.40637],[16.5751,47.41236],[16.58207,47.41495],[16.57928,47.41788],[16.58889,47.41939],[16.58789,47.42278],[16.5938,47.42226],[16.61524,47.43225],[16.62037,47.43075],[16.62684,47.44165],[16.6462,47.44661],[16.6516,47.44896],[16.64918,47.45131],[16.66204,47.45568],[16.65975,47.46062],[16.67048,47.47426],[16.65234,47.50033],[16.66246,47.50903],[16.66893,47.50354],[16.6898,47.51043],[16.69484,47.51752],[16.7056,47.52319],[16.70317,47.53324],[16.71453,47.53993],[16.71123,47.54309],[16.70586,47.54239],[16.70414,47.54575],[16.69816,47.54565],[16.69005,47.55555],[16.69099,47.55791],[16.684,47.56131],[16.67118,47.56009],[16.66463,47.56618],[16.66314,47.5687],[16.67109,47.57135],[16.67512,47.57879],[16.66638,47.59766],[16.67314,47.60495],[16.65953,47.60612],[16.65293,47.62225],[16.628,47.62787],[16.58976,47.61741],[16.57249,47.61986],[16.5488,47.63359],[16.51666,47.64531],[16.50751,47.64007],[16.49695,47.63935],[16.48732,47.64174],[16.47914,47.65012],[16.43984,47.6567],[16.42207,47.66439],[16.44315,47.67393],[16.44733,47.69631],[16.45399,47.69684],[16.46191,47.68271],[16.47471,47.68126],[16.47628,47.69037],[16.48606,47.69278],[16.48437,47.69498],[16.48725,47.69804],[16.49367,47.6987],[16.5,47.70475],[16.51692,47.70691],[16.52062,47.71225],[16.54046,47.71185],[16.55223,47.72252],[16.53646,47.73664],[16.53757,47.73999],[16.54878,47.74318],[16.54596,47.74932],[16.54797,47.75155],[16.56645,47.75159],[16.58802,47.75545],[16.59253,47.7591],[16.59877,47.75613],[16.60917,47.76037],[16.62796,47.75707],[16.63392,47.75909],[16.6397,47.74828],[16.65718,47.74156],[16.72056,47.73538],[16.72151,47.72262],[16.74902,47.68143],[16.82832,47.68273],[16.83907,47.70459],[16.85552,47.71108],[16.86882,47.72133],[16.87163,47.69011],[16.87513,47.68836],[16.91276,47.68779],[17.0403,47.70435],[17.09308,47.70825],[17.07027,47.72821],[17.07076,47.74994],[17.06717,47.7669],[17.06379,47.77783],[17.06085,47.77765],[17.05819,47.78617],[17.05096,47.79399],[17.07287,47.80961],[17.05971,47.82012],[17.06083,47.82275],[17.04692,47.82836],[17.04972,47.83124],[17.04661,47.8329],[17.05155,47.83791],[17.00995,47.85835],[17.01775,47.86841],[17.04004,47.86682],[17.0496,47.87007],[17.04871,47.87191],[17.07779,47.87756],[17.08518,47.87444],[17.10417,47.89926],[17.0956,47.9043],[17.11271,47.92736],[17.0909,47.9344],[17.11699,47.9609],[17.09466,47.97088],[17.13418,47.994],[17.17558,48.01294],[17.20178,48.02006],[17.22664,48.01622],[17.24044,48.02056],[17.24593,48.01875],[17.24839,48.00383],[17.25722,47.99889],[17.27794,47.99417],[17.30336,47.99606],[17.33464,47.99314],[17.37436,47.96025],[17.40042,47.94992],[17.40947,47.93711],[17.43167,47.92169],[17.45392,47.88525],[17.48139,47.87672],[17.49689,47.86778],[17.52572,47.86617],[17.54308,47.85236],[17.54253,47.84669],[17.54975,47.83183],[17.56631,47.81592],[17.57364,47.81408],[17.58911,47.82094],[17.60839,47.82189],[17.63092,47.80339],[17.68781,47.77519],[17.70733,47.75736],[17.76564,47.74853],[17.77553,47.74103],[17.78403,47.73919],[17.80286,47.74428],[17.82892,47.74003],[17.86711,47.74572],[17.89825,47.73933],[17.91794,47.74414],[17.94622,47.74506],[17.97228,47.75692],[18.00414,47.74722],[18.03772,47.75664],[18.08581,47.75653],[18.17764,47.74053],[18.22628,47.74178],[18.26361,47.73781],[18.28886,47.73122],[18.42808,47.7555],[18.45053,47.76483],[18.47244,47.76169],[18.49247,47.75261],[18.51944,47.75653],[18.54042,47.76464],[18.56717,47.76611],[18.61981,47.75731],[18.66289,47.76114],[18.70561,47.77725],[18.72244,47.78683],[18.7289,47.79241],[18.73444,47.80942],[18.74278,47.81425],[18.79519,47.82275],[18.84803,47.81592],[18.84936,47.82095],[18.85589,47.82608],[18.85117,47.83],[18.83919,47.82917],[18.82803,47.83428],[18.82303,47.84136],[18.82175,47.8505],[18.81358,47.85556],[18.79556,47.85872],[18.79311,47.86514],[18.78158,47.86547],[18.77844,47.86947],[18.76994,47.86842],[18.7695,47.87114],[18.76486,47.87111],[18.76042,47.89569],[18.75722,47.89636],[18.76244,47.90333],[18.75869,47.90525],[18.75953,47.90831],[18.76261,47.90922],[18.75736,47.91772],[18.77258,47.93275],[18.77233,47.95072],[18.77675,47.95542],[18.77067,47.96314],[18.75703,47.97061],[18.75481,47.97536],[18.76878,47.98519],[18.80269,47.986],[18.81597,47.99367],[18.82114,48.00767],[18.81717,48.01106],[18.81575,48.02194],[18.82661,48.03244],[18.82,48.03967],[18.82289,48.04311],[18.82919,48.0415],[18.83326,48.04822],[18.83793,48.04671],[18.84558,48.05258],[18.85589,48.04811],[18.86008,48.05006],[18.87478,48.04683],[18.88336,48.05181],[18.8859,48.05731],[18.90897,48.05114],[18.94392,48.05886],[18.96836,48.05839],[18.98192,48.05369],[18.99069,48.05764],[18.99228,48.06531],[19.00939,48.07075],[19.00758,48.07247],[19.01425,48.07719],[19.03247,48.06833],[19.033,48.065],[19.0445,48.06631],[19.05825,48.05742],[19.06553,48.06469],[19.07847,48.06742],[19.08233,48.07206],[19.08978,48.07247],[19.10783,48.06558],[19.11897,48.06644],[19.12867,48.07392],[19.1355,48.07414],[19.15036,48.06692],[19.18928,48.06033],[19.21147,48.06442],[19.23889,48.05383],[19.24792,48.05772],[19.25403,48.07039],[19.26517,48.07419],[19.27536,48.07358],[19.28436,48.08233],[19.30094,48.08828],[19.35972,48.09033],[19.36736,48.08647],[19.38553,48.09189],[19.40022,48.08233],[19.40831,48.0885],[19.42503,48.08869],[19.43531,48.09958],[19.44264,48.10128],[19.45431,48.10136],[19.45114,48.09444],[19.46242,48.08292],[19.46914,48.08506],[19.46708,48.08867],[19.47194,48.09464],[19.48722,48.09953],[19.48497,48.10547],[19.4945,48.11008],[19.49219,48.11839],[19.49669,48.12489],[19.49406,48.12711],[19.49642,48.13219],[19.49367,48.14042],[19.50883,48.14819],[19.51286,48.15642],[19.50867,48.17103],[19.50458,48.17356],[19.51244,48.18181],[19.52369,48.18439],[19.52953,48.19125],[19.52617,48.20325],[19.54131,48.20933],[19.54594,48.2055],[19.56831,48.21556],[19.578,48.21628],[19.60294,48.23222],[19.60758,48.23853],[19.63083,48.25008],[19.64453,48.23917],[19.65439,48.23814],[19.66578,48.24139],[19.67089,48.23819],[19.67589,48.22386],[19.67467,48.21975],[19.68008,48.21636],[19.67986,48.21303],[19.70536,48.20114],[19.72119,48.20183],[19.73556,48.21558],[19.74619,48.2165],[19.76211,48.21286],[19.76417,48.20747],[19.78133,48.201],[19.78717,48.19253],[19.79872,48.19483],[19.80486,48.18311],[19.78842,48.17311],[19.78958,48.16828],[19.78253,48.16528],[19.79481,48.15353],[19.80647,48.15414],[19.81383,48.16703],[19.82133,48.16908],[19.82914,48.16742],[19.83244,48.16258],[19.84528,48.16275],[19.84394,48.16794],[19.85517,48.17844],[19.85839,48.17475],[19.85611,48.17122],[19.86219,48.16942],[19.88006,48.17022],[19.88239,48.16414],[19.89875,48.16631],[19.90592,48.15131],[19.91453,48.14686],[19.91008,48.13981],[19.90211,48.13658],[19.89831,48.12489],[19.90831,48.12956],[19.92936,48.13011],[19.93882,48.13386],[19.93717,48.13628],[19.94978,48.14628],[19.95156,48.15156],[19.96356,48.15203],[19.97439,48.166],[19.98869,48.16217],[19.99143,48.1684],[20.02808,48.17719],[20.04319,48.173],[20.04428,48.16728],[20.05189,48.16769],[20.06133,48.17836],[20.07147,48.17911],[20.07622,48.18461],[20.0675,48.1885],[20.07003,48.19169],[20.07825,48.19642],[20.09075,48.197],[20.09547,48.204],[20.10022,48.20444],[20.102,48.20944],[20.13222,48.225],[20.13444,48.23558],[20.13919,48.24],[20.13911,48.24392],[20.13225,48.24717],[20.13319,48.25397],[20.14661,48.25497],[20.15406,48.25025],[20.16842,48.25161],[20.18494,48.24797],[20.20617,48.25097],[20.20772,48.25294],[20.20314,48.25925],[20.20611,48.26211],[20.21531,48.25897],[20.22019,48.26261],[20.22847,48.26281],[20.23467,48.27253],[20.22906,48.27506],[20.23494,48.27994],[20.24972,48.27911],[20.26961,48.268],[20.28094,48.26603],[20.28456,48.262],[20.31097,48.26558],[20.30575,48.26989],[20.30911,48.27336],[20.32572,48.27281],[20.32811,48.28844],[20.33342,48.28739],[20.33522,48.29894],[20.35786,48.30975],[20.35644,48.31281],[20.36533,48.31642],[20.37428,48.327],[20.36764,48.33219],[20.38089,48.34147],[20.38644,48.34767],[20.3855,48.35075],[20.40983,48.36586],[20.41183,48.36972],[20.40253,48.38256],[20.41258,48.38775],[20.42061,48.40422],[20.41431,48.41214],[20.41631,48.41864],[20.43447,48.43006],[20.45142,48.44825],[20.47008,48.45483],[20.46953,48.45989],[20.46425,48.46408],[20.48878,48.47583],[20.49508,48.48767],[20.50647,48.48878],[20.50731,48.5095],[20.51044,48.51228],[20.50342,48.51958],[20.50453,48.52586],[20.50197,48.52725],[20.5065,48.53442],[20.51911,48.53753],[20.52522,48.53039],[20.53747,48.52789],[20.5465,48.54431],[20.58658,48.53575],[20.58719,48.53886],[20.60014,48.54261],[20.61642,48.54372],[20.62325,48.55064],[20.63392,48.55092],[20.64153,48.55525],[20.64717,48.55394],[20.65386,48.56142],[20.67861,48.56042],[20.71314,48.57039],[20.73475,48.56669],[20.73392,48.57008],[20.79978,48.57464],[20.83636,48.58283],[20.83958,48.58025],[20.83539,48.5765],[20.83781,48.57422],[20.85044,48.58164],[20.84711,48.56811],[20.85408,48.56697],[20.86817,48.55181],[20.87519,48.55369],[20.87711,48.55078],[20.92017,48.55942],[20.92914,48.55353],[20.93469,48.54119],[20.94153,48.54211],[20.94094,48.53503],[20.95589,48.53397],[20.95619,48.52167],[20.96539,48.52042],[20.97611,48.5245],[20.98158,48.51778],[20.99242,48.52706],[21.00408,48.52736],[21.01511,48.53231],[21.05275,48.52514],[21.05336,48.52214],[21.06633,48.52589],[21.07331,48.52122],[21.08969,48.51778],[21.09778,48.51097],[21.09769,48.50392],[21.09428,48.50111],[21.10114,48.49456],[21.11744,48.49106],[21.13394,48.49542],[21.14267,48.5085],[21.15278,48.51692],[21.15947,48.51794],[21.16108,48.52158],[21.17358,48.52192],[21.17883,48.51828],[21.18803,48.52433],[21.19122,48.52264],[21.19247,48.52653],[21.19964,48.52464],[21.20914,48.52736],[21.20928,48.5335],[21.21656,48.53153],[21.22106,48.5375],[21.23331,48.53417],[21.23292,48.53906],[21.23928,48.53967],[21.26919,48.52533],[21.27056,48.52742],[21.29667,48.52167],[21.30586,48.52239],[21.30867,48.52592],[21.30311,48.52725],[21.31475,48.53131],[21.31319,48.53669],[21.30992,48.53742],[21.31156,48.54047],[21.31839,48.53992],[21.31628,48.54358],[21.32147,48.548],[21.31333,48.55069],[21.32656,48.5535],[21.32619,48.55611],[21.31603,48.55786],[21.31856,48.56058],[21.37961,48.55819],[21.40019,48.56386],[21.40619,48.55997],[21.41656,48.55931],[21.42175,48.56347],[21.42267,48.57883],[21.42886,48.58356],[21.43947,48.58525],[21.44808,48.57675],[21.45828,48.57533],[21.47114,48.56617],[21.51408,48.55106],[21.51836,48.54692],[21.51614,48.53886],[21.52144,48.53453],[21.52522,48.52264],[21.54122,48.51339],[21.54203,48.50839],[21.56117,48.51153],[21.56564,48.50528],[21.57972,48.50469],[21.586,48.51136],[21.59461,48.51325],[21.60569,48.50747],[21.60961,48.51061],[21.61394,48.50942],[21.61461,48.49781],[21.61839,48.49764],[21.62122,48.49214],[21.62228,48.46608],[21.63056,48.45939],[21.62836,48.45647],[21.63014,48.4515],[21.63983,48.44739],[21.6505,48.4375],[21.65956,48.418],[21.66344,48.41792],[21.66739,48.39786],[21.66456,48.39217],[21.66869,48.38922],[21.68114,48.39086],[21.70264,48.37997],[21.70567,48.37517],[21.70242,48.37117],[21.70536,48.36606],[21.71428,48.36631],[21.71189,48.35761],[21.72239,48.35069],[21.74542,48.34856],[21.76406,48.33903],[21.79839,48.3425],[21.81878,48.33644],[21.81983,48.33372],[21.83519,48.33464],[21.83356,48.34022],[21.83689,48.34183],[21.83506,48.34614],[21.83756,48.34906],[21.83511,48.36106],[21.83867,48.36361],[21.85428,48.36628],[21.86297,48.35519],[21.86553,48.35656],[21.86369,48.35886],[21.87239,48.35614],[21.87592,48.36133],[21.88092,48.36261],[21.88156,48.35778],[21.88717,48.35744],[21.883,48.36383],[21.88731,48.36897],[21.88828,48.36339],[21.89561,48.36256],[21.90961,48.36822],[21.91756,48.36339],[21.93039,48.36228],[21.93186,48.36536],[21.92786,48.36742],[21.928,48.37125],[21.93169,48.36978],[21.93925,48.37458],[21.94631,48.37492],[21.948,48.37803],[21.97139,48.38028],[21.99447,48.37733],[22.02297,48.38861],[22.02111,48.39242],[22.02861,48.39203],[22.05461,48.37753],[22.05825,48.37789],[22.05761,48.38133],[22.06958,48.38208],[22.0765,48.38725],[22.08428,48.38092],[22.08261,48.37872],[22.08594,48.37178],[22.09475,48.37728],[22.10133,48.37619],[22.11156,48.38131],[22.12108,48.37831],[22.13497,48.38047],[22.13583,48.3845],[22.13083,48.38969],[22.15281,48.39628],[22.15562,48.40904],[22.18248,48.41447],[22.2012,48.42416],[22.21377,48.42551],[22.22836,48.41313],[22.23884,48.40949],[22.26589,48.40908],[22.25512,48.39209],[22.24055,48.38839],[22.25407,48.37803],[22.26771,48.36076],[22.29889,48.35406],[22.3178,48.35444],[22.32016,48.33913],[22.31271,48.32715],[22.32527,48.31188],[22.33647,48.30817],[22.34013,48.29565],[22.3373,48.29253],[22.34071,48.28289],[22.33867,48.27891],[22.35974,48.26547],[22.37087,48.24385],[22.38441,48.23418],[22.40063,48.24903],[22.41964,48.25072],[22.43244,48.2469],[22.43034,48.25079],[22.4327,48.25233],[22.45706,48.24137],[22.46871,48.24347],[22.48664,48.25376],[22.50214,48.24844],[22.50359,48.24534],[22.49726,48.23957],[22.51541,48.23798],[22.51295,48.22618],[22.53144,48.2093],[22.54433,48.2079],[22.55603,48.19845],[22.57033,48.19619],[22.57175,48.19056],[22.56869,48.18511],[22.56219,48.18467],[22.56143,48.18169],[22.56584,48.17915],[22.57503,48.15933],[22.58292,48.15961],[22.58891,48.15121],[22.59185,48.15246],[22.59817,48.14527],[22.58829,48.14184],[22.5953,48.13531],[22.59259,48.12366],[22.59925,48.11628],[22.59218,48.11334],[22.59027,48.10759],[22.60168,48.10453],[22.61998,48.10594],[22.63309,48.09654],[22.67278,48.09171],[22.70504,48.10984],[22.7216,48.11534],[22.73016,48.11493],[22.73475,48.11963],[22.74466,48.11739],[22.75424,48.12066],[22.7586,48.11921],[22.76363,48.11035],[22.76903,48.10891],[22.77734,48.11122],[22.76949,48.11853],[22.77109,48.12153],[22.79189,48.1169],[22.79789,48.12205],[22.80527,48.12134],[22.80588,48.11579],[22.80147,48.11095],[22.80516,48.10606],[22.81012,48.10771],[22.81333,48.11654],[22.82207,48.1184],[22.83182,48.10863],[22.82778,48.10111],[22.82965,48.09357],[22.83347,48.09339],[22.83589,48.08053],[22.84846,48.08296],[22.85705,48.07794],[22.86424,48.05869],[22.8614,48.05722],[22.86963,48.05141],[22.87346,48.05158],[22.87247,48.05535],[22.88143,48.05487],[22.88039,48.03644],[22.8727,48.02481],[22.8646,48.02203],[22.86528,48.01194],[22.84754,48.00248],[22.83659,47.99107],[22.84588,47.98249],[22.86313,47.97783],[22.86359,47.97514],[22.86894,47.97699],[22.88006,47.96361],[22.89185,47.96731],[22.89201,47.9565],[22.89595,47.95677],[22.89598,47.95413],[22.88721,47.95172],[22.88518,47.94469],[22.8804,47.94386],[22.86334,47.92222],[22.84715,47.90808],[22.82442,47.90711],[22.79313,47.89096],[22.76036,47.89486],[22.75701,47.89034],[22.75839,47.886],[22.7686,47.87861],[22.7622,47.86703],[22.77314,47.86307],[22.77763,47.85209],[22.77708,47.84268],[22.76613,47.84126],[22.75639,47.83489],[22.71579,47.83707],[22.71102,47.83445],[22.70952,47.82393],[22.69976,47.81826],[22.70155,47.81498],[22.68022,47.78771],[22.67086,47.7882],[22.6615,47.78237],[22.64675,47.77904],[22.63689,47.78069],[22.62702,47.77609],[22.61683,47.77751],[22.61164,47.77199],[22.54964,47.7726],[22.53997,47.78195],[22.4815,47.81091],[22.46699,47.80508],[22.44795,47.80308],[22.44092,47.79183],[22.43269,47.76198],[22.42721,47.75449],[22.42598,47.75002],[22.43033,47.74094],[22.41156,47.74237],[22.41049,47.74664],[22.38907,47.74537],[22.35684,47.74896],[22.34643,47.7529],[22.33044,47.76508],[22.31733,47.76592],[22.32097,47.75493],[22.31759,47.74324],[22.30621,47.74132],[22.30338,47.73706],[22.28549,47.72933],[22.26467,47.73112],[22.25941,47.71733],[22.26239,47.7137],[22.25911,47.69814],[22.25429,47.69495],[22.23115,47.6933],[22.22603,47.68794],[22.22294,47.68258],[22.22529,47.68065],[22.22089,47.66046],[22.21173,47.65391],[22.20339,47.65482],[22.19,47.61172],[22.18295,47.60628],[22.17662,47.59432],[22.16003,47.59236],[22.12835,47.598],[22.12919,47.5891],[22.11526,47.57569],[22.10493,47.5726],[22.09374,47.55812],[22.07923,47.56222],[22.05802,47.55088],[22.0546,47.54686],[22.07139,47.53791],[22.06153,47.52894],[22.04548,47.53972],[22.0242,47.5199],[22.01271,47.50135],[22.00744,47.47577],[22.02091,47.45445],[22.03285,47.45092],[22.02597,47.4423],[22.03528,47.42735],[22.02972,47.42266],[22.03551,47.41333],[22.01194,47.37565],[21.9967,47.37799],[21.9952,47.38081],[21.97852,47.37811],[21.9613,47.38128],[21.95258,47.37453],[21.93851,47.37292],[21.93969,47.36755],[21.93468,47.3602],[21.92525,47.35346],[21.91866,47.3375],[21.89613,47.3162],[21.88817,47.29466],[21.87872,47.2875],[21.87886,47.28386],[21.88819,47.27779],[21.88785,47.27201],[21.87999,47.26473],[21.87199,47.26336],[21.85166,47.23897],[21.84684,47.22367],[21.85808,47.22003],[21.85803,47.1869],[21.84753,47.18432],[21.83872,47.17708],[21.83102,47.17876],[21.82923,47.17468],[21.81753,47.17268],[21.81198,47.16576],[21.79852,47.12777],[21.7912,47.12265],[21.79081,47.10584],[21.77234,47.10883],[21.7261,47.09839],[21.71282,47.0825],[21.71635,47.07474],[21.70128,47.06822],[21.70476,47.06327],[21.68856,47.05543],[21.68261,47.04558],[21.64873,47.04031],[21.65006,47.03366],[21.66157,47.02021],[21.6779,47.01857],[21.68267,47.00388],[21.68801,47.00292],[21.68745,46.99923],[21.67932,46.99781],[21.66792,46.97005],[21.68184,46.96678],[21.67882,46.96026],[21.67314,46.95355],[21.66011,46.95573],[21.64906,46.94283],[21.64074,46.93874],[21.63832,46.933],[21.60617,46.93252],[21.59867,46.92745],[21.59901,46.90919],[21.6027,46.90398],[21.60709,46.90432],[21.61419,46.8865],[21.60352,46.88497],[21.60107,46.8789],[21.60327,46.86872],[21.59519,46.8605],[21.55701,46.8537],[21.53789,46.8474],[21.53443,46.83948],[21.52294,46.83896],[21.51919,46.8359],[21.51882,46.82364],[21.52231,46.81324],[21.51864,46.79983],[21.51382,46.79553],[21.51002,46.78459],[21.49342,46.77494],[21.49016,46.77579],[21.48403,46.76487],[21.48473,46.75843],[21.49311,46.75746],[21.52664,46.73918],[21.52932,46.72075],[21.51108,46.71168],[21.51237,46.70779],[21.50746,46.70481],[21.50774,46.69815],[21.49844,46.69406],[21.49187,46.68584],[21.46963,46.69541],[21.45113,46.6885],[21.43435,46.69557],[21.43009,46.69385],[21.42765,46.68945],[21.4312,46.67777],[21.44266,46.66645],[21.45569,46.66711],[21.45463,46.66064],[21.44153,46.65147],[21.41635,46.64258],[21.41,46.62189],[21.3811,46.62841],[21.37832,46.63312],[21.36557,46.63778],[21.35319,46.63023],[21.33485,46.62899],[21.33001,46.6316],[21.31404,46.61754],[21.30107,46.59076],[21.32072,46.58276],[21.2896,46.54425],[21.28027,46.54491],[21.27423,46.5407],[21.27621,46.53511],[21.26052,46.5019],[21.27292,46.48331],[21.27439,46.47639],[21.29643,46.47608],[21.31787,46.45062],[21.31328,46.44945],[21.31191,46.44015],[21.28987,46.41509],[21.29636,46.40662],[21.28324,46.40315],[21.27552,46.40661],[21.22533,46.41364],[21.21914,46.41111],[21.2164,46.40183],[21.20646,46.40314],[21.19667,46.37072],[21.19963,46.34781],[21.19046,46.33906],[21.17627,46.33551],[21.17884,46.33036],[21.17596,46.32947],[21.1776,46.32336],[21.17323,46.31832],[21.18061,46.304],[21.16738,46.29743],[21.14773,46.29912],[21.14552,46.30457],[21.11559,46.30155],[21.10325,46.26249],[21.09402,46.2621],[21.08534,46.25458],[21.08159,46.25589],[21.07989,46.25194],[21.07121,46.25375],[21.06604,46.24263],[21.03666,46.24776],[21.02503,46.26637],[20.99037,46.25937],[20.95256,46.26468],[20.94671,46.27903],[20.92516,46.27615],[20.92222,46.26172],[20.89063,46.27131],[20.87342,46.28729],[20.78927,46.27305],[20.77561,46.27582],[20.74916,46.25051],[20.76212,46.20432],[20.72742,46.20728],[20.72565,46.19645],[20.73321,46.19184],[20.72241,46.18749],[20.71374,46.16599],[20.6943,46.15838],[20.69169,46.15027],[20.6831,46.14444],[20.66591,46.15164],[20.65434,46.14912],[20.64974,46.14405],[20.64773,46.13383],[20.6384,46.12632],[20.62982,46.12816],[20.61043,46.14571],[20.59379,46.14964],[20.55216,46.17536],[20.52191,46.18175],[20.50129,46.18984],[20.49662,46.18859],[20.498,46.18422],[20.492,46.18085],[20.49647,46.17808],[20.49326,46.1738],[20.49516,46.17078],[20.4591,46.14276],[20.44542,46.14168],[20.4263,46.14511],[20.39744,46.15729],[20.39427,46.15242],[20.3811,46.15776],[20.36842,46.15279],[20.35558,46.16955],[20.31259,46.15004],[20.30915,46.15634],[20.2968,46.15211],[20.27168,46.13266],[20.27048,46.12734],[20.2628,46.12578],[20.25492,46.11579],[20.24955,46.11987],[20.25157,46.12646],[20.24822,46.12984],[20.23318,46.12381],[20.22982,46.12907],[20.21034,46.13546],[20.20804,46.14394],[20.18183,46.16006],[20.16924,46.15277],[20.13729,46.14423],[20.13237,46.15016],[20.10686,46.16265],[20.10378,46.17168],[20.10649,46.17332],[20.09581,46.17724],[20.06373,46.14367],[20.05924,46.14772],[20.03673,46.14474],[20.03137,46.14852],[20.02243,46.17332],[20.01633,46.17661],[19.93515,46.1762],[19.91487,46.16398],[19.87427,46.15158],[19.8527,46.14945],[19.84424,46.1414],[19.81782,46.12779],[19.79716,46.13949],[19.75849,46.14787],[19.74103,46.16564],[19.73406,46.16982],[19.72706,46.1681],[19.71794,46.17158],[19.71768,46.17598],[19.69983,46.18746],[19.68255,46.17973],[19.66154,46.19005],[19.6316,46.16924],[19.56763,46.17872],[19.55986,46.17393],[19.56317,46.16976],[19.55864,46.16801],[19.56044,46.1663],[19.52657,46.14769],[19.51675,46.15174],[19.50245,46.14209],[19.50939,46.13741],[19.50809,46.13358],[19.52707,46.12094],[19.50897,46.11072],[19.48577,46.10349],[19.48184,46.1048],[19.46443,46.09528],[19.46653,46.08165],[19.43977,46.06718],[19.41544,46.04572],[19.38018,46.0358],[19.36416,46.05217],[19.28163,46.01453],[19.30271,45.99155],[19.29654,45.9878],[19.28535,45.99676],[19.23666,45.99506],[19.23272,45.99933],[19.20659,45.99886],[19.19956,45.99817],[19.20492,45.99268],[19.14774,45.99612],[19.1472,46.00797],[19.13379,46.03707],[19.10458,46.03998],[19.06568,46.00004],[19.07956,45.96353],[19.03268,45.96465],[19.00582,45.95871],[18.99787,45.94621],[19.00885,45.9233],[18.9947,45.92389],[18.98796,45.93221],[18.96202,45.92587],[18.90601,45.93527],[18.89055,45.92148],[18.87865,45.91611],[18.86516,45.91672],[18.86825,45.91129],[18.8276,45.90478],[18.82164,45.91461],[18.81799,45.91176]]]]}}]}