{"type":"FeatureCollection","features":[{"type":"Feature","properties":{"ISO_A3":"IRQ","WB_A3":"IRQ","WB_NAME":"Iraq","WB_REGION":"MEA"},"geometry":{"type":"MultiPolygon","coordinates":[[[[42.35566,37.05462],[42.37597,37.07601],[42.37521,37.0788],[42.35173,37.08594],[42.35021,37.0918],[42.35286,37.09934],[42.34939,37.11276],[42.35627,37.10863],[42.36036,37.1093],[42.36189,37.11499],[42.40237,37.11295],[42.41095,37.12218],[42.43622,37.12723],[42.44528,37.13679],[42.45042,37.13765],[42.45447,37.13327],[42.46534,37.14327],[42.48145,37.1348],[42.48676,37.13807],[42.49943,37.13728],[42.50804,37.14222],[42.51252,37.14119],[42.52104,37.14675],[42.5305,37.14628],[42.53556,37.14255],[42.54483,37.14803],[42.55775,37.15038],[42.57039,37.14341],[42.57996,37.14826],[42.58217,37.15689],[42.58006,37.16017],[42.58553,37.17062],[42.60073,37.18037],[42.60037,37.19035],[42.60726,37.1941],[42.61014,37.20035],[42.61806,37.20348],[42.6126,37.2145],[42.63043,37.21988],[42.6288,37.2239],[42.6343,37.22686],[42.63737,37.23346],[42.64396,37.23424],[42.6475,37.24247],[42.65506,37.24651],[42.65061,37.2568],[42.65817,37.26338],[42.65402,37.26483],[42.65509,37.26753],[42.65964,37.26767],[42.66108,37.27203],[42.67291,37.2734],[42.67715,37.27304],[42.67722,37.26973],[42.68232,37.27079],[42.68448,37.27942],[42.68128,37.28107],[42.69232,37.291],[42.69735,37.29142],[42.68778,37.30843],[42.7133,37.30818],[42.72437,37.31341],[42.7274,37.31858],[42.73535,37.31836],[42.73394,37.32575],[42.73799,37.32954],[42.73416,37.33227],[42.73785,37.33691],[42.76974,37.36137],[42.77935,37.37533],[42.79412,37.38058],[42.82615,37.37008],[42.82655,37.34953],[42.83589,37.34292],[42.85103,37.34863],[42.86401,37.3453],[42.87063,37.33692],[42.8798,37.33873],[42.89632,37.32814],[42.90543,37.33016],[42.922,37.3275],[42.93355,37.31908],[42.94706,37.31921],[42.95962,37.31229],[42.97272,37.32577],[42.98907,37.32619],[43.01076,37.33223],[43.02086,37.34353],[43.02438,37.35451],[43.06036,37.35698],[43.0722,37.36661],[43.09895,37.36653],[43.11625,37.37287],[43.13644,37.37021],[43.14634,37.37315],[43.16118,37.36241],[43.16278,37.35775],[43.18703,37.3595],[43.19479,37.35745],[43.20095,37.34975],[43.21229,37.34678],[43.23475,37.34806],[43.24213,37.34518],[43.24974,37.33045],[43.26935,37.32912],[43.26928,37.31452],[43.29021,37.31186],[43.30043,37.3041],[43.31777,37.30573],[43.31655,37.31484],[43.32413,37.32174],[43.32643,37.3291],[43.36001,37.32807],[43.37124,37.31753],[43.36921,37.31295],[43.37232,37.30765],[43.38812,37.30597],[43.38839,37.2996],[43.40026,37.29261],[43.40933,37.29248],[43.41327,37.28383],[43.42186,37.27993],[43.45947,37.2711],[43.47604,37.26284],[43.47441,37.25324],[43.4891,37.2494],[43.49656,37.2436],[43.506,37.24365],[43.51405,37.2394],[43.52141,37.24616],[43.55809,37.25196],[43.5657,37.258],[43.57809,37.25107],[43.58357,37.23946],[43.59485,37.23271],[43.60925,37.23914],[43.61668,37.23277],[43.62057,37.22092],[43.63794,37.22024],[43.64199,37.21749],[43.6501,37.22436],[43.67769,37.22651],[43.69227,37.2349],[43.70304,37.23048],[43.70665,37.23118],[43.706,37.23335],[43.72119,37.2348],[43.74105,37.22888],[43.74585,37.22999],[43.74612,37.23444],[43.77687,37.22781],[43.80497,37.22677],[43.81114,37.22306],[43.81451,37.21224],[43.83185,37.19499],[43.84025,37.20295],[43.84322,37.2151],[43.85278,37.22361],[43.88119,37.22386],[43.89503,37.21893],[43.91958,37.22409],[43.92652,37.23777],[43.93709,37.24384],[43.93051,37.24704],[43.94321,37.2499],[43.94732,37.25774],[43.94382,37.26775],[43.9578,37.27111],[43.95417,37.29237],[43.96805,37.29183],[43.97135,37.2952],[43.99295,37.29812],[43.99779,37.30867],[44.021,37.32839],[44.02333,37.31752],[44.03162,37.32612],[44.0343,37.32329],[44.03983,37.32561],[44.04153,37.32211],[44.06132,37.32083],[44.06811,37.31339],[44.08777,37.3171],[44.09939,37.31518],[44.12453,37.32293],[44.1261,37.31929],[44.14096,37.31396],[44.15329,37.30163],[44.16372,37.30376],[44.17194,37.29753],[44.18651,37.29493],[44.21238,37.28048],[44.22782,37.28284],[44.24226,37.2673],[44.25126,37.25011],[44.2676,37.24518],[44.27064,37.22064],[44.26825,37.21725],[44.27094,37.21302],[44.26461,37.20487],[44.26512,37.1981],[44.27303,37.19446],[44.27579,37.19653],[44.28083,37.19087],[44.28156,37.1858],[44.2783,37.18158],[44.2807,37.17827],[44.27633,37.16465],[44.24688,37.15705],[44.23442,37.16136],[44.23125,37.1586],[44.22357,37.15948],[44.21296,37.1366],[44.20449,37.13239],[44.19833,37.11584],[44.18512,37.10847],[44.1844,37.09637],[44.19588,37.09117],[44.19233,37.08043],[44.19642,37.07605],[44.21405,37.06792],[44.21712,37.06123],[44.22816,37.05453],[44.23342,37.04],[44.22209,37.03329],[44.23186,37.02714],[44.23012,37.02155],[44.23421,37.01435],[44.24313,37.01201],[44.24854,37.00021],[44.25673,36.99186],[44.25069,36.98397],[44.26949,36.97571],[44.29084,36.97634],[44.3097,36.96294],[44.3112,36.96814],[44.30579,36.97142],[44.31646,36.98532],[44.3297,36.98894],[44.33101,36.99922],[44.3515,37.01987],[44.36757,37.02536],[44.34952,37.04017],[44.34929,37.04445],[44.35561,37.04643],[44.35958,37.0528],[44.36468,37.05221],[44.38045,37.05966],[44.38546,37.05961],[44.39163,37.05212],[44.39684,37.05073],[44.40046,37.05675],[44.40132,37.05207],[44.41483,37.05348],[44.42073,37.06123],[44.43295,37.06711],[44.44103,37.06603],[44.44852,37.07262],[44.46516,37.07382],[44.47146,37.07967],[44.47782,37.08028],[44.48306,37.0884],[44.49102,37.08792],[44.517,37.10235],[44.51429,37.11306],[44.5248,37.11643],[44.52575,37.12197],[44.5457,37.121],[44.552,37.12432],[44.54892,37.13],[44.55228,37.13707],[44.55816,37.13906],[44.56144,37.1463],[44.55972,37.14961],[44.57607,37.16338],[44.59954,37.16682],[44.60521,37.1744],[44.62011,37.18067],[44.62212,37.18758],[44.62651,37.18975],[44.6355,37.18968],[44.63709,37.19299],[44.64058,37.1877],[44.64878,37.18951],[44.64981,37.18588],[44.66145,37.18134],[44.67449,37.17107],[44.69383,37.17718],[44.69988,37.17175],[44.71598,37.17585],[44.74379,37.1651],[44.75623,37.16491],[44.76327,37.16818],[44.77012,37.16458],[44.77123,37.15454],[44.78468,37.14466],[44.76393,37.13642],[44.76472,37.1296],[44.75242,37.12514],[44.74778,37.11967],[44.74971,37.11229],[44.76341,37.10537],[44.76592,37.09971],[44.78387,37.09243],[44.78455,37.08965],[44.77706,37.08341],[44.77775,37.07564],[44.79913,37.06743],[44.80389,37.05242],[44.80178,37.04827],[44.81713,37.03975],[44.84331,37.04858],[44.85451,37.0471],[44.8586,37.04349],[44.85701,37.03712],[44.86889,37.03158],[44.89392,37.02926],[44.90013,37.02366],[44.90115,37.01364],[44.90551,37.00981],[44.90416,37.00408],[44.89544,36.99734],[44.89224,36.97881],[44.8827,36.95407],[44.88489,36.94677],[44.89624,36.9449],[44.90112,36.93085],[44.91246,36.91668],[44.90899,36.90939],[44.91257,36.89776],[44.90207,36.87651],[44.90372,36.86149],[44.89466,36.85344],[44.883,36.85193],[44.87234,36.84616],[44.86173,36.84631],[44.86108,36.83806],[44.86685,36.83193],[44.85137,36.82974],[44.83835,36.81572],[44.83683,36.79708],[44.84497,36.77876],[44.8587,36.77315],[44.86471,36.77988],[44.89129,36.78246],[44.89536,36.77926],[44.91964,36.77631],[44.94006,36.78597],[44.95819,36.77275],[44.97246,36.74932],[44.98955,36.74767],[44.99825,36.75344],[45.00644,36.7544],[45.0129,36.75325],[45.0122,36.74636],[45.03073,36.74034],[45.0334,36.736],[45.03166,36.73055],[45.04602,36.71769],[45.06577,36.68765],[45.07168,36.65138],[45.07049,36.64333],[45.06773,36.6431],[45.07029,36.63031],[45.06378,36.61568],[45.05496,36.6157],[45.03877,36.60761],[45.03213,36.60784],[45.02667,36.60325],[45.0287,36.58936],[45.03937,36.57992],[45.03914,36.56788],[45.0373,36.56053],[45.01555,36.55767],[45.00473,36.55177],[45.00714,36.54671],[45.00154,36.5383],[45.00748,36.52492],[45.01562,36.518],[45.05392,36.50665],[45.05402,36.48278],[45.06177,36.46323],[45.07619,36.45528],[45.07819,36.43055],[45.08157,36.42551],[45.10402,36.41585],[45.10334,36.41336],[45.11505,36.40541],[45.13733,36.4074],[45.15068,36.40462],[45.15653,36.41677],[45.17995,36.41785],[45.19779,36.42437],[45.20923,36.42417],[45.23154,36.43331],[45.23988,36.4318],[45.24168,36.4183],[45.25262,36.41436],[45.25043,36.40885],[45.25332,36.40221],[45.27168,36.39361],[45.27056,36.38782],[45.27644,36.37649],[45.26864,36.37107],[45.27558,36.36681],[45.27146,36.36056],[45.27186,36.35475],[45.27489,36.35156],[45.27402,36.34512],[45.28182,36.34139],[45.28333,36.3369],[45.27333,36.33144],[45.2707,36.32338],[45.26648,36.32282],[45.26095,36.30138],[45.2687,36.29545],[45.27548,36.29798],[45.30259,36.2747],[45.29982,36.26859],[45.28571,36.2668],[45.26643,36.25296],[45.27792,36.2448],[45.31203,36.23859],[45.3153,36.22157],[45.33065,36.21371],[45.33664,36.20219],[45.32515,36.19423],[45.32538,36.19024],[45.3166,36.18313],[45.32074,36.18232],[45.32282,36.17491],[45.32044,36.16746],[45.32434,36.16733],[45.32928,36.15637],[45.325,36.14805],[45.32716,36.13967],[45.33831,36.13331],[45.35046,36.10856],[45.37064,36.10403],[45.37044,36.09809],[45.3814,36.08406],[45.37245,36.05144],[45.35539,36.03525],[45.35154,36.02875],[45.35344,36.01954],[45.3421,36.00826],[45.34546,36.00086],[45.34245,35.99662],[45.35014,35.98859],[45.34733,35.98098],[45.34952,35.97751],[45.35605,35.97397],[45.36566,35.97655],[45.36391,35.98289],[45.37257,35.98289],[45.37586,35.97931],[45.37437,35.96989],[45.38139,35.97456],[45.38923,35.97283],[45.39328,35.96775],[45.40807,35.97073],[45.4054,35.9743],[45.41161,35.9821],[45.42054,35.98165],[45.4275,35.98524],[45.43308,35.9911],[45.43217,35.99427],[45.43958,35.99923],[45.45353,35.99388],[45.45435,35.98999],[45.46057,35.996],[45.47796,36.00136],[45.50266,36.00278],[45.52209,35.99471],[45.54012,35.99891],[45.55574,35.99874],[45.56184,35.99009],[45.5742,35.98263],[45.57436,35.97612],[45.58321,35.97075],[45.5871,35.97259],[45.58521,35.97732],[45.5894,35.97743],[45.59592,35.97275],[45.59483,35.96533],[45.59972,35.96075],[45.60406,35.95803],[45.60926,35.96008],[45.61774,35.95551],[45.62213,35.95836],[45.62696,35.94674],[45.63977,35.94439],[45.64791,35.93515],[45.65315,35.93585],[45.66557,35.92695],[45.68042,35.89814],[45.694,35.89909],[45.69722,35.89441],[45.69685,35.88563],[45.70941,35.88256],[45.71449,35.87802],[45.7174,35.87286],[45.71719,35.86152],[45.72267,35.86123],[45.72872,35.84741],[45.73728,35.84187],[45.7389,35.82752],[45.74781,35.82545],[45.75574,35.8133],[45.75548,35.80877],[45.76025,35.80635],[45.7637,35.79901],[45.76917,35.8036],[45.77302,35.81347],[45.78029,35.81056],[45.79861,35.81507],[45.80038,35.82704],[45.82333,35.81658],[45.8314,35.80969],[45.86138,35.81882],[45.8742,35.81131],[45.87935,35.81269],[45.88174,35.8307],[45.89634,35.83747],[45.92778,35.83042],[45.93476,35.82407],[45.948,35.82613],[45.95543,35.82303],[45.95619,35.83418],[45.96404,35.8436],[45.97797,35.83405],[45.98624,35.84001],[46.00173,35.83378],[46.01662,35.838],[46.02453,35.83442],[46.04443,35.8447],[46.05454,35.85471],[46.07973,35.85827],[46.08483,35.86364],[46.08518,35.86908],[46.09458,35.86708],[46.09897,35.8571],[46.09695,35.85374],[46.1021,35.8484],[46.13755,35.84325],[46.13508,35.83416],[46.13701,35.82503],[46.15418,35.80644],[46.16781,35.80001],[46.175,35.80098],[46.17964,35.80925],[46.18503,35.81218],[46.19282,35.80735],[46.19516,35.80079],[46.21214,35.79492],[46.23544,35.8146],[46.24826,35.80931],[46.28002,35.81898],[46.29007,35.82768],[46.28937,35.83488],[46.29517,35.83583],[46.29908,35.8347],[46.30099,35.82816],[46.30808,35.82637],[46.31463,35.81956],[46.34003,35.81998],[46.34697,35.78727],[46.33689,35.78006],[46.33915,35.77345],[46.33395,35.76875],[46.33322,35.76325],[46.30611,35.76208],[46.30236,35.75242],[46.28359,35.74486],[46.28086,35.73927],[46.28277,35.73593],[46.27737,35.72905],[46.2627,35.72891],[46.23349,35.71508],[46.21685,35.71975],[46.21573,35.7233],[46.19574,35.72093],[46.19167,35.71497],[46.17973,35.71271],[46.17394,35.70736],[46.17436,35.70035],[46.1649,35.68894],[46.14025,35.69776],[46.12738,35.69577],[46.11523,35.68811],[46.10119,35.68772],[46.09709,35.69294],[46.0859,35.69414],[46.07013,35.69181],[46.06142,35.70093],[46.05023,35.70014],[46.04266,35.70674],[46.0402,35.70413],[46.03568,35.70528],[46.03146,35.70042],[46.0327,35.69389],[46.02629,35.69191],[46.02572,35.68604],[46.01409,35.6845],[46.00953,35.67922],[46.00821,35.67626],[46.01521,35.66687],[46.01074,35.64875],[45.99418,35.64031],[45.99328,35.63406],[46.0102,35.63224],[46.01791,35.60947],[46.01351,35.60265],[46.01425,35.59394],[46.02806,35.5823],[46.02994,35.57659],[46.02421,35.5738],[46.00883,35.57409],[46.00228,35.57856],[45.99494,35.57707],[45.98465,35.58384],[45.97322,35.58447],[45.97266,35.57953],[45.98294,35.56111],[45.99881,35.54765],[45.99716,35.5343],[46.01799,35.5207],[46.00285,35.51652],[45.99278,35.51946],[45.98522,35.49569],[46.01379,35.44391],[46.02614,35.43325],[46.03831,35.40542],[46.04718,35.39774],[46.05089,35.38795],[46.06445,35.37833],[46.06757,35.36877],[46.09201,35.35958],[46.09316,35.35056],[46.11093,35.33978],[46.12775,35.33397],[46.12627,35.32846],[46.14584,35.31239],[46.15125,35.30016],[46.15067,35.29373],[46.15801,35.28333],[46.14891,35.27954],[46.14772,35.27255],[46.13558,35.26431],[46.12257,35.24604],[46.1091,35.24093],[46.11356,35.23842],[46.11234,35.23489],[46.1305,35.2279],[46.14807,35.228],[46.16231,35.22323],[46.17689,35.22874],[46.18815,35.22047],[46.19418,35.21095],[46.194,35.20306],[46.20127,35.20131],[46.19754,35.19784],[46.19829,35.19065],[46.19506,35.18403],[46.18539,35.18434],[46.16607,35.17235],[46.15475,35.1589],[46.16024,35.14905],[46.16089,35.13959],[46.15509,35.12896],[46.17098,35.11821],[46.1764,35.11828],[46.19066,35.11051],[46.16705,35.09792],[46.15934,35.0872],[46.14197,35.08632],[46.1171,35.07444],[46.09784,35.07921],[46.09582,35.0862],[46.09193,35.08803],[46.07304,35.08377],[46.06983,35.07481],[46.07273,35.0695],[46.06846,35.05937],[46.07262,35.057],[46.07932,35.05937],[46.07994,35.05547],[46.06777,35.04836],[46.06731,35.04299],[46.06114,35.03853],[46.05626,35.03934],[46.05083,35.05303],[46.04848,35.05028],[46.03838,35.05071],[46.02521,35.0557],[46.0274,35.0579],[46.02549,35.06072],[46.01613,35.06612],[46.01697,35.06925],[46.01339,35.07147],[46.00352,35.07024],[45.99995,35.06174],[45.99483,35.06305],[45.98151,35.07192],[45.96789,35.07456],[45.96587,35.07987],[45.9564,35.0823],[45.94922,35.08996],[45.94484,35.09102],[45.93196,35.08113],[45.9236,35.09438],[45.92105,35.05478],[45.92826,35.05298],[45.9306,35.04507],[45.89827,35.04623],[45.88041,35.03798],[45.8766,35.03156],[45.8799,35.01635],[45.87529,35.00741],[45.88619,34.99991],[45.89013,34.96934],[45.89736,34.95989],[45.8885,34.9455],[45.88193,34.94544],[45.878,34.93738],[45.87186,34.93541],[45.87309,34.92969],[45.86765,34.92702],[45.86842,34.90872],[45.86384,34.90119],[45.86507,34.89628],[45.84965,34.89451],[45.84549,34.89819],[45.83602,34.8986],[45.8224,34.91068],[45.78818,34.91204],[45.78696,34.90345],[45.7938,34.89215],[45.79796,34.86215],[45.77446,34.83575],[45.74847,34.82874],[45.73654,34.83123],[45.73523,34.83973],[45.72237,34.83801],[45.68988,34.81571],[45.6918,34.80257],[45.69386,34.79918],[45.69713,34.79999],[45.704,34.78953],[45.69292,34.78248],[45.69887,34.77032],[45.69037,34.77037],[45.67824,34.7624],[45.67112,34.73717],[45.65404,34.72439],[45.65785,34.71843],[45.6664,34.71599],[45.67289,34.70971],[45.69111,34.70529],[45.69479,34.69656],[45.70231,34.6944],[45.69692,34.66956],[45.71106,34.66915],[45.71048,34.66221],[45.71544,34.64879],[45.71966,34.63911],[45.72478,34.63524],[45.72996,34.61944],[45.72425,34.61388],[45.72626,34.61075],[45.72307,34.60771],[45.73199,34.59011],[45.7368,34.58984],[45.73993,34.58513],[45.74126,34.57094],[45.73469,34.55797],[45.74243,34.55151],[45.74315,34.53796],[45.71758,34.53785],[45.70899,34.54589],[45.70063,34.54753],[45.68282,34.55992],[45.67993,34.55547],[45.67603,34.55657],[45.67053,34.55186],[45.65091,34.5559],[45.64791,34.55079],[45.63411,34.55891],[45.62789,34.54879],[45.62544,34.55301],[45.60767,34.54891],[45.60016,34.5517],[45.59447,34.55009],[45.59394,34.55543],[45.57695,34.55866],[45.57314,34.56564],[45.57064,34.56293],[45.56547,34.56644],[45.5653,34.57345],[45.55948,34.57391],[45.55862,34.57957],[45.55467,34.58031],[45.55846,34.5845],[45.55448,34.5884],[45.55626,34.59271],[45.54351,34.5966],[45.53459,34.59291],[45.53541,34.60205],[45.52907,34.59987],[45.53146,34.58818],[45.52283,34.57631],[45.52334,34.56091],[45.51312,34.55204],[45.51375,34.5463],[45.52032,34.54294],[45.52666,34.53052],[45.52658,34.50052],[45.52221,34.48257],[45.51576,34.47447],[45.50427,34.47054],[45.47018,34.47805],[45.46163,34.47413],[45.46187,34.46678],[45.44489,34.46409],[45.43989,34.45366],[45.44299,34.44919],[45.4429,34.43936],[45.45594,34.43299],[45.45551,34.41972],[45.46659,34.38372],[45.49632,34.33705],[45.50247,34.34075],[45.50756,34.35217],[45.52986,34.34568],[45.53432,34.35061],[45.54032,34.35073],[45.56066,34.33316],[45.58354,34.30289],[45.58562,34.28671],[45.5811,34.23956],[45.56866,34.21227],[45.5556,34.19824],[45.55501,34.19375],[45.57127,34.17387],[45.57628,34.15456],[45.58159,34.14613],[45.56006,34.13883],[45.54264,34.12507],[45.53092,34.12199],[45.53024,34.11907],[45.52531,34.11851],[45.52086,34.11012],[45.51535,34.11259],[45.50392,34.10308],[45.50699,34.09965],[45.49616,34.09443],[45.49074,34.08585],[45.49533,34.08377],[45.48435,34.07616],[45.48322,34.08079],[45.47339,34.07539],[45.47237,34.06931],[45.46615,34.06341],[45.47925,34.05749],[45.47569,34.05029],[45.47961,34.0431],[45.47769,34.03544],[45.47171,34.03557],[45.47195,34.02157],[45.47033,34.01842],[45.46684,34.01891],[45.4671,34.01035],[45.45233,34.00661],[45.43984,33.99656],[45.43074,33.9955],[45.43136,33.99032],[45.42151,33.99051],[45.42267,33.98185],[45.40913,33.97676],[45.41714,33.96998],[45.42016,33.95975],[45.42987,33.9541],[45.43157,33.94555],[45.43933,33.94805],[45.45798,33.94494],[45.46388,33.94841],[45.48295,33.94765],[45.50285,33.95318],[45.51157,33.94559],[45.51976,33.92337],[45.53474,33.91163],[45.53439,33.90774],[45.55025,33.89174],[45.58579,33.83694],[45.58485,33.83267],[45.60121,33.81846],[45.59965,33.81038],[45.60326,33.80316],[45.62978,33.78909],[45.64379,33.77196],[45.64821,33.76343],[45.63972,33.75222],[45.6421,33.73397],[45.64651,33.73215],[45.64721,33.72826],[45.65713,33.72447],[45.67455,33.69889],[45.69481,33.68958],[45.69462,33.68642],[45.70557,33.67515],[45.70895,33.67507],[45.71899,33.66205],[45.7716,33.63704],[45.77109,33.6239],[45.76593,33.61539],[45.75865,33.61268],[45.75328,33.59327],[45.80807,33.61618],[45.81224,33.61978],[45.81328,33.62747],[45.82451,33.62881],[45.83656,33.6249],[45.85306,33.6282],[45.85851,33.63253],[45.90706,33.6381],[45.91661,33.6276],[45.90525,33.60628],[45.93266,33.59347],[45.95303,33.56806],[45.95895,33.56802],[45.96124,33.56287],[45.95145,33.5471],[45.863,33.49315],[45.8735,33.49384],[45.87891,33.4906],[45.89077,33.49398],[45.90596,33.4889],[45.93358,33.49203],[45.93897,33.48658],[45.93852,33.48201],[45.95391,33.49064],[45.95837,33.49883],[45.96507,33.50208],[45.96954,33.50078],[45.98398,33.50762],[45.99621,33.5083],[45.99822,33.51155],[46.00722,33.50783],[46.00514,33.49025],[46.01487,33.48157],[46.02248,33.48485],[46.0383,33.45324],[46.0446,33.44724],[46.03816,33.44094],[46.0407,33.43134],[46.04529,33.42912],[46.04609,33.41963],[46.06576,33.40174],[46.0707,33.40133],[46.06992,33.39804],[46.07802,33.38795],[46.07792,33.36211],[46.08252,33.35461],[46.081,33.35182],[46.11605,33.32636],[46.11503,33.30929],[46.12397,33.30414],[46.13619,33.29066],[46.16971,33.27058],[46.18983,33.26397],[46.19158,33.25875],[46.18856,33.25668],[46.19075,33.25509],[46.18773,33.25197],[46.18751,33.24297],[46.19256,33.23945],[46.19189,33.23016],[46.1857,33.22677],[46.18241,33.21929],[46.18697,33.21216],[46.18091,33.20584],[46.19734,33.20128],[46.21498,33.20359],[46.19857,33.19197],[46.20035,33.18557],[46.19726,33.18145],[46.18824,33.17861],[46.17609,33.16098],[46.16002,33.15147],[46.15934,33.14275],[46.14998,33.13434],[46.11834,33.11419],[46.11298,33.11547],[46.10602,33.1231],[46.09051,33.11959],[46.08492,33.12322],[46.07208,33.12414],[46.07051,33.12688],[46.0601,33.12436],[46.05288,33.12762],[46.04021,33.09471],[46.07121,33.0891],[46.08432,33.0915],[46.08904,33.0877],[46.10535,33.08444],[46.12074,33.07221],[46.12814,33.07403],[46.14788,33.07043],[46.15653,33.07254],[46.16435,33.06959],[46.15148,33.06167],[46.14772,33.05044],[46.13986,33.04688],[46.13895,33.04122],[46.13188,33.03586],[46.13493,33.03226],[46.1292,33.02077],[46.12033,33.02208],[46.10857,33.01778],[46.10821,33.02089],[46.1008,33.01957],[46.0936,33.00377],[46.09979,33.00031],[46.09396,32.9851],[46.09744,32.9812],[46.13411,32.96036],[46.17356,32.95342],[46.24411,32.97036],[46.25384,32.9687],[46.26634,32.97259],[46.33162,32.96536],[46.35912,32.95481],[46.41051,32.94703],[46.42245,32.93759],[46.44106,32.9312],[46.44662,32.93425],[46.45106,32.9312],[46.45051,32.92648],[46.48079,32.9162],[46.49162,32.90314],[46.51829,32.8987],[46.58523,32.85175],[46.59246,32.85064],[46.59218,32.84786],[46.61385,32.83259],[46.62273,32.82231],[46.64745,32.81453],[46.65607,32.80758],[46.68857,32.79786],[46.69135,32.79342],[46.70801,32.78564],[46.72079,32.78647],[46.75135,32.76036],[46.76635,32.74203],[46.78357,32.73036],[46.79135,32.71203],[46.82551,32.69508],[46.83746,32.67175],[46.88719,32.63203],[46.9558,32.59786],[46.9733,32.58147],[47.03302,32.54453],[47.04441,32.52924],[47.05524,32.52619],[47.07108,32.51175],[47.08857,32.50369],[47.09191,32.49841],[47.1683,32.4573],[47.17995,32.45607],[47.18359,32.46114],[47.19475,32.46283],[47.2234,32.46173],[47.23266,32.46652],[47.24464,32.46339],[47.25108,32.46511],[47.26724,32.47794],[47.27655,32.48108],[47.28349,32.49637],[47.31122,32.48752],[47.32994,32.47674],[47.35428,32.47473],[47.3589,32.47047],[47.36779,32.47071],[47.37121,32.47411],[47.38389,32.4705],[47.39315,32.46458],[47.39518,32.45847],[47.40215,32.45375],[47.43029,32.41821],[47.46532,32.39135],[47.46241,32.38258],[47.466,32.37752],[47.45469,32.36749],[47.45122,32.35824],[47.44079,32.35558],[47.43658,32.35071],[47.45379,32.34401],[47.46309,32.31434],[47.47021,32.31728],[47.47884,32.31029],[47.48436,32.31398],[47.49145,32.31339],[47.49868,32.30478],[47.51889,32.30501],[47.52174,32.30125],[47.52149,32.28926],[47.51026,32.28869],[47.50838,32.28131],[47.49991,32.27815],[47.51821,32.26231],[47.54111,32.23249],[47.55197,32.23337],[47.56327,32.22905],[47.57052,32.21427],[47.56481,32.20315],[47.56536,32.19346],[47.52864,32.16985],[47.53329,32.15644],[47.52915,32.14183],[47.55128,32.13435],[47.56003,32.12124],[47.55894,32.11517],[47.56586,32.11211],[47.57528,32.11122],[47.58007,32.11688],[47.58785,32.11374],[47.59701,32.11731],[47.62148,32.10377],[47.63484,32.09024],[47.65095,32.08227],[47.65414,32.07072],[47.646,32.06003],[47.65362,32.05235],[47.66711,32.04685],[47.67118,32.03201],[47.68762,32.02986],[47.68814,32.02555],[47.68265,32.01846],[47.69031,32.01321],[47.69459,32.01526],[47.69765,32.02228],[47.7117,32.01951],[47.71241,32.01473],[47.70494,32.01752],[47.70138,32.01393],[47.70764,32.00969],[47.70599,32.0055],[47.71295,32.00187],[47.70581,31.99564],[47.70813,31.99095],[47.71331,31.99288],[47.7176,31.98638],[47.71171,31.97026],[47.72524,31.96259],[47.73169,31.93926],[47.75911,31.91224],[47.78108,31.90783],[47.78913,31.88728],[47.80969,31.88152],[47.80886,31.87451],[47.79964,31.86767],[47.79871,31.85836],[47.80659,31.84206],[47.81681,31.8384],[47.82049,31.8401],[47.82522,31.8325],[47.85052,31.8195],[47.85603,31.81303],[47.85612,31.80456],[47.86585,31.78361],[47.68297,31.39461],[47.68283,30.99776],[48.03218,30.99634],[48.02441,30.4773],[48.03799,30.47551],[48.07036,30.46244],[48.10887,30.45261],[48.07981,30.45144],[47.97983,30.46885],[47.9327,30.46926],[47.93189,30.46667],[47.99042,30.46405],[48.02381,30.45878],[48.09067,30.44538],[48.11873,30.42943],[48.14584,30.42527],[48.17114,30.41168],[48.17902,30.39566],[48.18128,30.38414],[48.17832,30.37868],[48.18162,30.37734],[48.19009,30.33524],[48.2023,30.31725],[48.21838,30.31438],[48.25206,30.339],[48.27391,30.3311],[48.34869,30.25013],[48.39715,30.20894],[48.41228,30.19073],[48.41395,30.17226],[48.40328,30.15585],[48.38295,30.13617],[48.37978,30.12196],[48.39066,30.10727],[48.42528,30.08328],[48.44041,30.06404],[48.44465,30.04844],[48.44441,30.01758],[48.45021,29.99893],[48.46108,29.9895],[48.51293,29.95887],[48.59553,29.93714],[48.60636,29.92859],[48.60508,29.92073],[48.59537,29.91939],[48.58785,29.9253],[48.58002,29.91963],[48.58188,29.91581],[48.57731,29.91572],[48.57709,29.9188],[48.54548,29.91385],[48.54438,29.91665],[48.53629,29.91573],[48.52895,29.91997],[48.52366,29.91909],[48.52286,29.91587],[48.51822,29.91822],[48.51838,29.92388],[48.50028,29.92187],[48.48685,29.91608],[48.46458,29.92144],[48.44427,29.91925],[48.44357,29.92361],[48.41586,29.92645],[48.39044,29.93516],[48.31417,29.97283],[48.24326,30.01738],[48.20441,30.03326],[48.18241,30.03832],[48.13423,30.03908],[48.12622,30.04019],[48.12167,30.04433],[48.08839,30.0409],[48.08212,30.04307],[48.08167,30.03844],[48.04811,30.03422],[48.02094,30.01433],[48.01302,30.00284],[47.99292,30.00328],[47.99223,30.00673],[47.98338,30.01116],[47.98361,30.00846],[47.97916,30.009],[47.97578,30.02319],[47.96969,30.02935],[47.97107,30.03735],[47.96319,30.05336],[47.96654,30.06963],[47.96033,30.07951],[47.95908,30.0913],[47.94926,30.10778],[47.94081,30.11349],[47.94584,30.12775],[47.94198,30.13305],[47.94457,30.14982],[47.93676,30.15349],[47.93493,30.15062],[47.93213,30.11689],[47.92448,30.11581],[47.90936,30.14077],[47.91664,30.14917],[47.92045,30.15992],[47.91452,30.16043],[47.92005,30.163],[47.92007,30.16724],[47.92435,30.16747],[47.92564,30.18305],[47.90261,30.18173],[47.90281,30.18482],[47.90672,30.18286],[47.92069,30.18524],[47.92661,30.21854],[47.93021,30.21708],[47.94042,30.2312],[47.94797,30.25515],[47.94504,30.25418],[47.94069,30.26076],[47.95319,30.26825],[47.9595,30.28459],[47.96013,30.29771],[47.95536,30.30813],[47.93765,30.32057],[47.90903,30.32607],[47.90953,30.31965],[47.92245,30.31379],[47.9222,30.30933],[47.91664,30.31018],[47.90643,30.31932],[47.90647,30.32292],[47.89606,30.32422],[47.86822,30.21201],[47.89295,30.18305],[47.89446,30.14916],[47.89899,30.14618],[47.90125,30.13056],[47.90393,30.13011],[47.91092,30.11434],[47.91612,30.1088],[47.92653,30.10674],[47.93087,30.10028],[47.93875,30.0988],[47.9381,30.09595],[47.94808,30.08359],[47.95453,30.06601],[47.95301,30.06276],[47.95084,30.06592],[47.94632,30.06402],[47.95308,30.05544],[47.95304,30.04259],[47.94768,30.04375],[47.93136,30.06534],[47.92569,30.06225],[47.94238,30.04311],[47.94003,30.0428],[47.94134,30.03872],[47.94465,30.04136],[47.95175,30.0315],[47.95481,30.0087],[47.70768,30.1037],[47.37131,30.1037],[47.36129,30.09716],[47.33886,30.0911],[47.28757,30.05871],[47.22725,30.04324],[47.18957,30.02837],[47.1726,30.01747],[47.13943,29.98682],[47.12963,29.97088],[47.12373,29.95327],[47.10455,29.9214],[47.10073,29.90308],[47.08158,29.85139],[47.0626,29.81914],[47.03141,29.75236],[47.00683,29.72211],[47.00341,29.68343],[46.99811,29.66345],[46.97746,29.63514],[46.97012,29.61818],[46.95467,29.60407],[46.93903,29.57099],[46.9187,29.53943],[46.90449,29.525],[46.90277,29.50637],[46.86643,29.43718],[46.81459,29.38072],[46.78425,29.35536],[46.76679,29.32187],[46.70319,29.25066],[46.67107,29.20727],[46.62768,29.16878],[46.59422,29.14686],[46.56691,29.11964],[46.5571,29.10297],[46.55302,29.10118],[46.42453,29.05916],[45.72299,29.12019],[44.71989,29.19648],[43.98811,29.7422],[43.24368,30.28624],[42.67925,30.69092],[42.08382,31.10966],[41.82138,31.21836],[41.4391,31.37118],[41.3621,31.41764],[40.92128,31.66523],[40.41169,31.94605],[39.85245,32.04496],[39.20093,32.15428],[39.30115,32.23026],[39.26,32.3556],[39.04367,32.30412],[38.986,32.47766],[39.08624,32.5016],[38.79367,33.37474],[39.75034,33.86876],[40.64012,34.31513],[40.97774,34.39803],[40.98362,34.41246],[41.00434,34.43668],[41.01528,34.44458],[41.12253,34.65384],[41.22753,34.77739],[41.22566,34.79269],[41.22854,34.80345],[41.22486,34.82344],[41.20875,35.14278],[41.21789,35.20069],[41.22028,35.25889],[41.26541,35.38117],[41.26806,35.48472],[41.38207,35.62526],[41.36953,35.8429],[41.25591,36.0594],[41.27278,36.18194],[41.2845,36.29624],[41.28334,36.34897],[41.3994,36.52377],[41.81717,36.58778],[41.88555,36.63641],[42.35566,37.05462]]],[[[48.09457,30.4492],[48.12478,30.44562],[48.14039,30.43929],[48.16155,30.42561],[48.16757,30.41726],[48.13847,30.43385],[48.10801,30.44088],[48.0945,30.44611],[48.09457,30.4492]]],[[[48.15028,30.42537],[48.11869,30.43071],[48.10873,30.43653],[48.10863,30.43974],[48.13371,30.43413],[48.15028,30.42537]]],[[[47.97275,30.00629],[47.96705,30.00924],[47.96027,30.02348],[47.95914,30.03142],[47.96267,30.04152],[47.96667,30.03134],[47.96493,30.02564],[47.97275,30.00629]]],[[[47.93417,30.30841],[47.93551,30.31307],[47.93821,30.3121],[47.93417,30.30841]]],[[[47.91819,30.28902],[47.92442,30.29841],[47.92592,30.29768],[47.91819,30.28902]]],[[[47.89821,30.26541],[47.90268,30.27374],[47.90353,30.27017],[47.89821,30.26541]]],[[[47.89414,30.19721],[47.88759,30.20297],[47.89643,30.20883],[47.89885,30.20246],[47.89414,30.19721]]],[[[47.88312,30.20877],[47.87988,30.21306],[47.8851,30.21627],[47.88866,30.21147],[47.88312,30.20877]]]]}}]}