{"type":"FeatureCollection","features":[{"type":"Feature","properties":{"ISO_A3":"JAM","WB_A3":"JAM","WB_NAME":"Jamaica","WB_REGION":"LCN"},"geometry":{"type":"MultiPolygon","coordinates":[[[[-75.97128,17.41317],[-75.97289,17.41648],[-75.97002,17.41699],[-75.97128,17.41317]]],[[[-76.69934,18.26649],[-76.68046,18.26475],[-76.67093,18.25557],[-76.66175,18.23917],[-76.64696,18.22822],[-76.61408,18.22786],[-76.59663,18.23483],[-76.57904,18.21154],[-76.56589,18.20276],[-76.54512,18.2001],[-76.53871,18.2071],[-76.52867,18.19907],[-76.51733,18.19607],[-76.51226,18.20216],[-76.50793,18.19923],[-76.50287,18.20636],[-76.4805,18.2064],[-76.46523,18.18411],[-76.45495,18.17891],[-76.45283,18.18344],[-76.44853,18.1845],[-76.44954,18.17728],[-76.4412,18.17786],[-76.44016,18.18327],[-76.44355,18.18582],[-76.44156,18.18919],[-76.43478,18.18409],[-76.42293,18.18443],[-76.41885,18.17983],[-76.42259,18.17594],[-76.42001,18.17419],[-76.41695,18.17778],[-76.40888,18.17913],[-76.40209,18.17325],[-76.40294,18.17788],[-76.38591,18.17067],[-76.38271,18.1752],[-76.37593,18.16984],[-76.37057,18.17245],[-76.35759,18.16662],[-76.35074,18.15237],[-76.33621,18.15441],[-76.33103,18.1462],[-76.33294,18.13177],[-76.32576,18.12576],[-76.31848,18.12517],[-76.31672,18.10509],[-76.28875,18.07438],[-76.2833,18.0654],[-76.28284,18.0569],[-76.27145,18.04616],[-76.27153,18.03869],[-76.27828,18.04097],[-76.27767,18.03093],[-76.2704,18.03072],[-76.27218,18.01602],[-76.26704,18.01348],[-76.26743,18.01039],[-76.25757,17.99932],[-76.25158,17.99671],[-76.24461,17.98143],[-76.23106,17.97444],[-76.23498,17.97065],[-76.23238,17.96426],[-76.23674,17.95212],[-76.23331,17.94287],[-76.22396,17.9352],[-76.2005,17.93555],[-76.19435,17.92993],[-76.19203,17.92055],[-76.18405,17.91948],[-76.1837,17.9079],[-76.19136,17.9063],[-76.18795,17.90227],[-76.19103,17.89993],[-76.19738,17.90163],[-76.20424,17.90887],[-76.1953,17.91188],[-76.19283,17.90733],[-76.19067,17.90941],[-76.19159,17.91335],[-76.19854,17.91543],[-76.19414,17.91983],[-76.19514,17.92386],[-76.20349,17.9243],[-76.19513,17.92962],[-76.20182,17.93432],[-76.21235,17.93447],[-76.21158,17.92931],[-76.21431,17.92808],[-76.21967,17.93001],[-76.2166,17.93392],[-76.2267,17.93666],[-76.22837,17.93256],[-76.21821,17.926],[-76.22837,17.91007],[-76.24403,17.90344],[-76.25832,17.89105],[-76.27691,17.88877],[-76.27742,17.88438],[-76.30077,17.87046],[-76.31759,17.86869],[-76.32091,17.87378],[-76.31539,17.8907],[-76.31231,17.89188],[-76.31356,17.8978],[-76.31653,17.89841],[-76.31635,17.89185],[-76.33496,17.88168],[-76.33257,17.86779],[-76.35007,17.85947],[-76.34974,17.86522],[-76.37387,17.86943],[-76.37497,17.8729],[-76.40005,17.88096],[-76.43574,17.87104],[-76.44699,17.87388],[-76.46886,17.87212],[-76.47974,17.86669],[-76.49327,17.86726],[-76.51117,17.85322],[-76.52862,17.84999],[-76.5432,17.85696],[-76.5423,17.86211],[-76.54759,17.86723],[-76.56186,17.86905],[-76.56674,17.87313],[-76.59574,17.868],[-76.6114,17.87469],[-76.62333,17.9006],[-76.63271,17.91108],[-76.64367,17.91795],[-76.65388,17.93125],[-76.6701,17.94012],[-76.68785,17.9392],[-76.70381,17.94884],[-76.73683,17.94121],[-76.75811,17.9436],[-76.77921,17.92885],[-76.80943,17.93759],[-76.81802,17.93622],[-76.81133,17.93899],[-76.80619,17.9362],[-76.79947,17.93729],[-76.7865,17.93162],[-76.79975,17.93845],[-76.7971,17.94195],[-76.78332,17.93641],[-76.7803,17.94378],[-76.77186,17.94708],[-76.73764,17.94198],[-76.72303,17.94713],[-76.72266,17.94997],[-76.72731,17.95816],[-76.7387,17.96733],[-76.75727,17.96807],[-76.77714,17.96376],[-76.80379,17.96519],[-76.81193,17.9731],[-76.81731,17.97175],[-76.82098,17.97481],[-76.81818,17.97792],[-76.82249,17.97803],[-76.83445,17.98963],[-76.83803,17.98444],[-76.82866,17.97655],[-76.83133,17.97433],[-76.83973,17.97979],[-76.84021,17.98777],[-76.83467,17.99864],[-76.84489,17.99802],[-76.84644,18.00445],[-76.85035,17.99231],[-76.85996,17.98513],[-76.86222,17.96915],[-76.86811,17.9669],[-76.87368,17.95784],[-76.87107,17.94087],[-76.8786,17.92818],[-76.87634,17.91764],[-76.88294,17.91887],[-76.88785,17.925],[-76.8916,17.92419],[-76.89632,17.9123],[-76.88633,17.90853],[-76.89219,17.90358],[-76.89239,17.89689],[-76.89695,17.89607],[-76.8957,17.89248],[-76.90063,17.8878],[-76.904,17.87592],[-76.90841,17.87303],[-76.90743,17.8697],[-76.91385,17.86655],[-76.92497,17.85022],[-76.94158,17.84491],[-76.9461,17.84048],[-76.9571,17.83857],[-76.95824,17.84448],[-76.96658,17.84466],[-76.96827,17.85133],[-76.97313,17.8527],[-76.98221,17.84836],[-76.98378,17.84422],[-76.98756,17.8456],[-76.97608,17.85254],[-76.99282,17.85932],[-77.00109,17.85332],[-76.99527,17.84977],[-76.99724,17.84538],[-77.00237,17.8479],[-77.01705,17.87375],[-77.02451,17.88011],[-77.0294,17.89628],[-77.0264,17.9039],[-77.0185,17.90746],[-77.02859,17.90775],[-77.03352,17.9149],[-77.04533,17.91349],[-77.05197,17.90621],[-77.05592,17.91016],[-77.06943,17.90435],[-77.07415,17.91666],[-77.07846,17.91765],[-77.08027,17.91171],[-77.0865,17.91524],[-77.09338,17.9055],[-77.1062,17.89882],[-77.11727,17.90231],[-77.12853,17.8987],[-77.12764,17.89214],[-77.13416,17.88615],[-77.14187,17.8898],[-77.14425,17.88707],[-77.14074,17.88582],[-77.14163,17.88117],[-77.15718,17.86581],[-77.15816,17.85834],[-77.16412,17.862],[-77.16662,17.85798],[-77.16441,17.84153],[-77.16863,17.83543],[-77.17879,17.83094],[-77.17914,17.82618],[-77.176,17.82209],[-77.16232,17.82431],[-77.14344,17.81924],[-77.14109,17.81373],[-77.14526,17.81394],[-77.14774,17.81893],[-77.16446,17.82261],[-77.17031,17.81868],[-77.16982,17.82216],[-77.17626,17.82158],[-77.18773,17.81424],[-77.18792,17.80781],[-77.19319,17.79925],[-77.19749,17.79906],[-77.1977,17.79418],[-77.20815,17.79148],[-77.20823,17.78749],[-77.22449,17.77675],[-77.22671,17.77158],[-77.20941,17.76328],[-77.18577,17.7638],[-77.1822,17.75727],[-77.14183,17.75154],[-77.12614,17.74283],[-77.12729,17.72634],[-77.13736,17.71592],[-77.14591,17.71056],[-77.16465,17.70572],[-77.18726,17.7092],[-77.21129,17.71923],[-77.22951,17.73731],[-77.23708,17.74108],[-77.25455,17.76353],[-77.26946,17.77392],[-77.29049,17.7796],[-77.29428,17.79165],[-77.299,17.79314],[-77.30177,17.79877],[-77.30098,17.80135],[-77.2941,17.79912],[-77.3013,17.80534],[-77.30585,17.80388],[-77.30975,17.81438],[-77.34496,17.83507],[-77.36775,17.84097],[-77.36603,17.84305],[-77.37895,17.84444],[-77.38089,17.84854],[-77.40013,17.8604],[-77.39989,17.86272],[-77.39265,17.86371],[-77.39282,17.8663],[-77.40008,17.86413],[-77.40201,17.86038],[-77.40664,17.86469],[-77.42197,17.86541],[-77.45821,17.86161],[-77.51197,17.84264],[-77.51897,17.8432],[-77.55397,17.86629],[-77.57174,17.86837],[-77.6047,17.86163],[-77.61847,17.86595],[-77.6373,17.86673],[-77.66515,17.85992],[-77.69452,17.86492],[-77.73871,17.85452],[-77.74156,17.85641],[-77.73996,17.86596],[-77.75482,17.87115],[-77.76603,17.8836],[-77.79151,17.89675],[-77.79937,17.90963],[-77.80001,17.92455],[-77.83987,17.94598],[-77.8356,17.95646],[-77.84128,17.97542],[-77.83116,17.99822],[-77.83677,18.0128],[-77.85189,18.0248],[-77.86375,18.0263],[-77.87275,18.03376],[-77.88486,18.03461],[-77.88669,18.03085],[-77.88863,18.03442],[-77.88326,18.03528],[-77.88454,18.03963],[-77.89715,18.04575],[-77.90453,18.03611],[-77.90868,18.03515],[-77.91032,18.02869],[-77.92324,18.02914],[-77.93206,18.03377],[-77.9362,18.03203],[-77.93639,18.04387],[-77.93861,18.03933],[-77.9443,18.04182],[-77.9509,18.05098],[-77.95037,18.06416],[-77.96544,18.07546],[-77.96522,18.08627],[-77.97134,18.09068],[-77.98144,18.10712],[-77.99223,18.10824],[-77.99561,18.11719],[-78.00231,18.11665],[-78.01969,18.12322],[-78.01768,18.13027],[-78.0257,18.13399],[-78.02542,18.14248],[-78.03291,18.15289],[-78.02772,18.1577],[-78.0286,18.16929],[-78.0374,18.18229],[-78.03871,18.19183],[-78.05302,18.20543],[-78.06934,18.21199],[-78.08981,18.2114],[-78.09162,18.2158],[-78.12818,18.21121],[-78.13484,18.2077],[-78.13801,18.2111],[-78.1542,18.20941],[-78.15443,18.21185],[-78.14607,18.21237],[-78.14223,18.21656],[-78.14877,18.22001],[-78.14936,18.21718],[-78.15531,18.21573],[-78.16881,18.22172],[-78.17859,18.21659],[-78.17674,18.21437],[-78.17945,18.213],[-78.20429,18.2086],[-78.23007,18.19623],[-78.2387,18.1952],[-78.24407,18.19669],[-78.24694,18.20214],[-78.25552,18.20458],[-78.26255,18.21999],[-78.28028,18.2232],[-78.29836,18.22076],[-78.35675,18.24178],[-78.36597,18.2558],[-78.36886,18.26948],[-78.36077,18.27876],[-78.34701,18.27999],[-78.34051,18.29122],[-78.33695,18.33029],[-78.33876,18.33547],[-78.34424,18.33786],[-78.34377,18.34249],[-78.33745,18.34137],[-78.33475,18.35034],[-78.33618,18.35396],[-78.34501,18.35794],[-78.33867,18.36712],[-78.32834,18.37277],[-78.31949,18.3702],[-78.31988,18.36222],[-78.31139,18.36262],[-78.30781,18.3672],[-78.3103,18.37187],[-78.30228,18.37613],[-78.29946,18.39282],[-78.294,18.39699],[-78.28915,18.39679],[-78.28812,18.39394],[-78.27544,18.39479],[-78.27229,18.38909],[-78.26877,18.38994],[-78.26556,18.40572],[-78.2674,18.4087],[-78.27148,18.40632],[-78.26978,18.41131],[-78.2668,18.41243],[-78.26285,18.40684],[-78.25891,18.41682],[-78.25458,18.41804],[-78.2509,18.41232],[-78.24844,18.41448],[-78.25269,18.42127],[-78.24554,18.42705],[-78.24245,18.42623],[-78.23888,18.43904],[-78.22426,18.44243],[-78.22076,18.45062],[-78.21371,18.45283],[-78.21433,18.45644],[-78.17014,18.4545],[-78.16504,18.45262],[-78.17095,18.44602],[-78.17008,18.44163],[-78.16125,18.43725],[-78.15444,18.44166],[-78.15357,18.44525],[-78.15714,18.44942],[-78.15471,18.45761],[-78.13873,18.46226],[-78.12555,18.46026],[-78.11728,18.45512],[-78.10971,18.4559],[-78.1107,18.44498],[-78.10664,18.44634],[-78.10756,18.45587],[-78.09339,18.44871],[-78.09279,18.45179],[-78.08874,18.45224],[-78.08206,18.44879],[-78.06282,18.45441],[-78.04884,18.45201],[-78.04799,18.45418],[-78.02238,18.45442],[-78.01317,18.45647],[-78.01202,18.46082],[-78.00688,18.46177],[-78.0029,18.45798],[-77.99839,18.45886],[-77.99146,18.44932],[-77.97752,18.45288],[-77.93258,18.44213],[-77.92609,18.44866],[-77.93473,18.45702],[-77.95121,18.45934],[-77.94243,18.46681],[-77.9392,18.46673],[-77.94049,18.46311],[-77.94528,18.4597],[-77.93774,18.46032],[-77.93564,18.4637],[-77.93049,18.46262],[-77.92479,18.46773],[-77.93046,18.48385],[-77.92522,18.50066],[-77.89281,18.51428],[-77.891,18.51868],[-77.88423,18.51724],[-77.88051,18.52064],[-77.86167,18.52312],[-77.82447,18.52496],[-77.7685,18.51678],[-77.75575,18.51234],[-77.74119,18.51306],[-77.71874,18.50888],[-77.69961,18.49372],[-77.68385,18.48635],[-77.67561,18.49367],[-77.67205,18.49076],[-77.65706,18.49767],[-77.6401,18.48259],[-77.62556,18.48421],[-77.62646,18.49089],[-77.60398,18.48387],[-77.58277,18.49084],[-77.56278,18.48906],[-77.55284,18.49151],[-77.53987,18.49014],[-77.52547,18.48338],[-77.50635,18.48531],[-77.49764,18.48015],[-77.48711,18.47965],[-77.47975,18.48309],[-77.46501,18.48083],[-77.45926,18.47748],[-77.45604,18.46946],[-77.45124,18.47059],[-77.44906,18.47834],[-77.43937,18.47988],[-77.41713,18.47141],[-77.4143,18.46179],[-77.40999,18.46211],[-77.40969,18.45979],[-77.40001,18.46198],[-77.40362,18.46991],[-77.39905,18.47087],[-77.3874,18.46754],[-77.37637,18.46961],[-77.35412,18.45999],[-77.34581,18.46394],[-77.32397,18.4646],[-77.31303,18.47324],[-77.29542,18.46803],[-77.26869,18.4663],[-77.26243,18.462],[-77.23487,18.45833],[-77.22335,18.45357],[-77.22094,18.44537],[-77.20962,18.44589],[-77.2036,18.43926],[-77.18933,18.44071],[-77.18695,18.44473],[-77.181,18.44364],[-77.16948,18.43901],[-77.15866,18.42575],[-77.14216,18.42207],[-77.14104,18.41848],[-77.13336,18.41908],[-77.11231,18.40722],[-77.108,18.40791],[-77.10618,18.41347],[-77.07921,18.41299],[-77.07174,18.41608],[-77.07239,18.41821],[-77.05581,18.41865],[-77.04616,18.42403],[-77.03929,18.42046],[-77.02293,18.41978],[-77.01201,18.40972],[-77.00586,18.41378],[-76.98447,18.40679],[-76.96396,18.40636],[-76.95825,18.40192],[-76.95232,18.40262],[-76.94783,18.41104],[-76.93924,18.41447],[-76.89687,18.41271],[-76.88749,18.40572],[-76.88701,18.39878],[-76.89462,18.39175],[-76.89213,18.37323],[-76.87913,18.36821],[-76.87538,18.37108],[-76.84985,18.35408],[-76.84466,18.34705],[-76.83928,18.34878],[-76.83706,18.34262],[-76.80807,18.32963],[-76.80776,18.32552],[-76.80329,18.32286],[-76.81115,18.31403],[-76.79701,18.30283],[-76.79361,18.28613],[-76.7797,18.27081],[-76.75067,18.27803],[-76.72168,18.26348],[-76.71657,18.26417],[-76.70882,18.27158],[-76.69934,18.26649]]],[[[-76.45419,18.1851],[-76.45556,18.18779],[-76.45018,18.18912],[-76.45016,18.18616],[-76.45419,18.1851]]],[[[-76.84031,17.93228],[-76.8457,17.93273],[-76.84281,17.93959],[-76.83369,17.942],[-76.82692,17.93845],[-76.83714,17.93823],[-76.84031,17.93228]]],[[[-77.03701,17.89131],[-77.03491,17.89545],[-77.03406,17.89172],[-77.03701,17.89131]]],[[[-77.04744,17.86275],[-77.05255,17.86321],[-77.05759,17.86869],[-77.0557,17.87927],[-77.04652,17.87654],[-77.04744,17.86275]]],[[[-77.06783,17.88249],[-77.0778,17.88354],[-77.0797,17.88635],[-77.06388,17.88934],[-77.06435,17.88382],[-77.06783,17.88249]]],[[[-77.93672,18.4476],[-77.94022,18.44754],[-77.93972,18.45],[-77.93677,18.45056],[-77.93672,18.4476]]]]}}]}