{"type":"FeatureCollection","features":[{"type":"Feature","properties":{"ISO_A3":"JOR","WB_A3":"JOR","WB_NAME":"Jordan","WB_REGION":"MEA"},"geometry":{"type":"MultiPolygon","coordinates":[[[[37.01453,31.5027],[37.00627,31.50057],[37.19127,31.31798],[37.24006,31.27822],[37.26692,31.24494],[37.32851,31.18005],[37.38868,31.12354],[37.53642,30.97256],[37.76373,30.74795],[38.00607,30.50129],[37.67241,30.33393],[37.52852,30.0447],[37.51722,30.00189],[37.47686,29.99154],[37.26235,29.95811],[37.04963,29.9169],[37.03664,29.91711],[36.76571,29.8673],[36.65192,29.70612],[36.60189,29.61712],[36.55058,29.56369],[36.5472,29.54599],[36.52759,29.51464],[36.454,29.44827],[36.33133,29.373],[36.31032,29.35209],[36.22737,29.29685],[36.1505,29.2374],[36.07253,29.18337],[35.84963,29.21625],[35.77689,29.23283],[35.67624,29.24638],[35.51592,29.27372],[34.96087,29.35737],[34.96467,29.3597],[34.96103,29.36914],[34.96563,29.37177],[34.96295,29.37747],[34.96829,29.38793],[34.96429,29.39339],[34.96513,29.39878],[34.97553,29.40557],[34.97753,29.41017],[34.97219,29.42233],[34.97374,29.43414],[34.96782,29.44721],[34.97612,29.45853],[34.97547,29.47063],[34.98055,29.47986],[34.94182,29.47986],[34.97819,29.54259],[34.97868,29.5769],[35.00052,29.62199],[35.01401,29.63888],[35.01918,29.65547],[35.02063,29.67225],[35.01145,29.69646],[35.01301,29.71118],[35.0312,29.77607],[35.04399,29.78821],[35.04554,29.80237],[35.05072,29.8111],[35.04983,29.81916],[35.06181,29.84883],[35.06936,29.86394],[35.07873,29.87198],[35.07878,29.87787],[35.08428,29.88574],[35.08165,29.9226],[35.07732,29.92513],[35.08443,29.9402],[35.08361,29.94726],[35.07537,29.95038],[35.07806,29.95702],[35.08875,29.96366],[35.09204,29.96991],[35.08857,29.97245],[35.09874,29.99167],[35.1155,29.99536],[35.11653,30.00141],[35.11007,30.00343],[35.10986,30.0097],[35.10038,30.01239],[35.1126,30.03975],[35.1306,30.06203],[35.14616,30.06329],[35.15155,30.08443],[35.14824,30.08714],[35.15309,30.09406],[35.16187,30.12267],[35.15755,30.1287],[35.16085,30.13471],[35.15067,30.14368],[35.15481,30.155],[35.14436,30.16267],[35.15114,30.20378],[35.14479,30.2417],[35.1497,30.25362],[35.14584,30.28218],[35.15472,30.30673],[35.19175,30.34588],[35.16487,30.40289],[35.16192,30.44085],[35.18144,30.47134],[35.19286,30.49849],[35.19461,30.53343],[35.2036,30.54804],[35.20363,30.58197],[35.21782,30.60471],[35.22161,30.61878],[35.26309,30.65914],[35.26617,30.6681],[35.26288,30.6726],[35.27068,30.6801],[35.26802,30.68444],[35.27398,30.69016],[35.2819,30.71054],[35.29085,30.70945],[35.29371,30.71304],[35.29398,30.71802],[35.28628,30.72283],[35.29427,30.73435],[35.29461,30.76228],[35.30837,30.76288],[35.31231,30.76907],[35.3149,30.79038],[35.3221,30.79705],[35.33584,30.79928],[35.34038,30.81566],[35.32921,30.84148],[35.3348,30.87318],[35.35396,30.909],[35.37016,30.92669],[35.39298,30.92665],[35.41528,30.9498],[35.41684,31.00307],[35.4252,31.04582],[35.44871,31.08258],[35.45686,31.10738],[35.45801,31.13616],[35.45092,31.16449],[35.40822,31.22185],[35.40133,31.23537],[35.39971,31.25129],[35.41066,31.28669],[35.45492,31.35591],[35.46658,31.38206],[35.47359,31.41095],[35.47721,31.5099],[35.48745,31.5899],[35.51359,31.66894],[35.54262,31.73319],[35.55831,31.75751],[35.55727,31.7661],[35.55328,31.7669],[35.55557,31.77206],[35.54747,31.7829],[35.55146,31.79644],[35.5428,31.80528],[35.54451,31.81564],[35.54178,31.81889],[35.54297,31.82248],[35.54828,31.82335],[35.54781,31.84255],[35.537,31.85544],[35.54292,31.85945],[35.54744,31.86801],[35.54667,31.8733],[35.53965,31.87417],[35.53922,31.87977],[35.53305,31.88324],[35.53508,31.88456],[35.52996,31.89073],[35.53383,31.89203],[35.53326,31.89585],[35.52566,31.90369],[35.52658,31.92225],[35.53632,31.92492],[35.53561,31.9299],[35.5455,31.93639],[35.54107,31.93657],[35.54394,31.94093],[35.54148,31.95618],[35.54499,31.96326],[35.54306,31.96588],[35.54827,31.96856],[35.54774,31.97201],[35.5406,31.97342],[35.54197,31.97751],[35.53535,31.98476],[35.53519,31.99243],[35.53903,31.99521],[35.53485,31.99779],[35.53564,32.00056],[35.52726,32.00093],[35.52643,32.015],[35.52921,32.01868],[35.52166,32.02413],[35.52356,32.02888],[35.51891,32.03577],[35.52327,32.04284],[35.51919,32.04769],[35.53006,32.05112],[35.52842,32.05742],[35.53112,32.06122],[35.53025,32.06782],[35.53522,32.06957],[35.53419,32.07683],[35.53733,32.07504],[35.54064,32.08104],[35.54531,32.08171],[35.54386,32.08945],[35.53249,32.10679],[35.54921,32.12263],[35.55123,32.1282],[35.54591,32.13184],[35.55098,32.13341],[35.54336,32.13968],[35.54571,32.1441],[35.54907,32.14187],[35.55046,32.14575],[35.55748,32.14399],[35.5604,32.15144],[35.55586,32.15364],[35.55791,32.15938],[35.55252,32.16024],[35.54785,32.16661],[35.55675,32.16666],[35.5559,32.17102],[35.55226,32.1713],[35.55425,32.17704],[35.56004,32.17346],[35.5588,32.17952],[35.56246,32.18432],[35.55874,32.18881],[35.56165,32.19008],[35.5644,32.18683],[35.56885,32.19052],[35.56992,32.19756],[35.56696,32.19703],[35.56303,32.20493],[35.57386,32.21245],[35.56882,32.21363],[35.56654,32.2192],[35.56768,32.22585],[35.57221,32.22783],[35.56203,32.23138],[35.5643,32.23832],[35.56182,32.24246],[35.56704,32.24147],[35.5711,32.25093],[35.56247,32.25117],[35.56406,32.26301],[35.5593,32.26571],[35.55757,32.27304],[35.56242,32.27433],[35.56785,32.28382],[35.56245,32.29494],[35.55556,32.29715],[35.56391,32.30971],[35.56101,32.31704],[35.55311,32.32318],[35.5573,32.33083],[35.5539,32.34317],[35.55953,32.34759],[35.55356,32.3667],[35.56088,32.36319],[35.5639,32.37487],[35.55885,32.37941],[35.56298,32.38212],[35.56245,32.3852],[35.54974,32.39298],[35.54682,32.40117],[35.55125,32.40404],[35.55366,32.40007],[35.56045,32.40091],[35.55755,32.40775],[35.56146,32.41103],[35.5566,32.41524],[35.55798,32.41948],[35.55158,32.42001],[35.55282,32.42576],[35.56148,32.42375],[35.55729,32.42758],[35.55812,32.43611],[35.56276,32.43373],[35.56621,32.43608],[35.56842,32.44144],[35.56578,32.44243],[35.56671,32.45309],[35.5705,32.45303],[35.57324,32.45758],[35.5627,32.46311],[35.56759,32.47098],[35.56458,32.47117],[35.56452,32.47423],[35.56918,32.47905],[35.56559,32.4814],[35.58022,32.48797],[35.57611,32.4966],[35.55923,32.50163],[35.56454,32.50777],[35.55263,32.51491],[35.5554,32.52126],[35.56467,32.52123],[35.56711,32.52488],[35.55968,32.53227],[35.56315,32.54065],[35.56117,32.54517],[35.56458,32.54464],[35.56566,32.53941],[35.57145,32.54022],[35.57091,32.5484],[35.57726,32.55205],[35.57719,32.55653],[35.57035,32.56464],[35.5768,32.56883],[35.5781,32.597],[35.5672,32.59659],[35.56702,32.60421],[35.57191,32.60542],[35.5723,32.61424],[35.56269,32.62818],[35.56791,32.63275],[35.56221,32.63886],[35.56699,32.6396],[35.56755,32.64414],[35.56107,32.64526],[35.5695,32.64737],[35.5723,32.64128],[35.57675,32.64068],[35.57872,32.64508],[35.58679,32.6432],[35.59137,32.64536],[35.58934,32.6499],[35.5938,32.65315],[35.60618,32.65177],[35.60657,32.66048],[35.5982,32.66788],[35.60584,32.67096],[35.61268,32.67856],[35.61836,32.6802],[35.62315,32.67766],[35.6351,32.68613],[35.64457,32.67761],[35.65532,32.68512],[35.66612,32.68107],[35.67424,32.68463],[35.67149,32.69429],[35.67459,32.69609],[35.67622,32.70577],[35.69062,32.70796],[35.70358,32.71576],[35.70672,32.71399],[35.71129,32.71877],[35.71535,32.7154],[35.71774,32.72102],[35.72368,32.72178],[35.7258,32.72682],[35.73294,32.72331],[35.73799,32.73319],[35.74431,32.73038],[35.74897,32.73362],[35.75576,32.74458],[35.78669,32.74745],[35.79564,32.75512],[35.80015,32.74833],[35.79475,32.7438],[35.79895,32.74271],[35.80052,32.73659],[35.80464,32.73661],[35.80657,32.74063],[35.81054,32.73579],[35.82613,32.73397],[35.83709,32.7266],[35.84529,32.73171],[35.85417,32.72481],[35.85661,32.72649],[35.85272,32.72937],[35.85542,32.73107],[35.87344,32.73308],[35.88576,32.717],[35.90001,32.71839],[35.90588,32.723],[35.90481,32.71943],[35.91123,32.72329],[35.918,32.71847],[35.92006,32.72222],[35.93504,32.72059],[35.9398,32.70778],[35.93737,32.69998],[35.94893,32.69333],[35.94571,32.68626],[35.94813,32.68135],[35.96752,32.66237],[36.02375,32.6582],[36.02891,32.64006],[36.0238,32.61416],[36.02557,32.60261],[36.02979,32.59714],[36.0623,32.57694],[36.06861,32.56819],[36.07368,32.54956],[36.07913,32.5441],[36.07622,32.53379],[36.0794,32.51329],[36.12314,32.52508],[36.15593,32.52393],[36.16449,32.51487],[36.20191,32.5294],[36.20609,32.51872],[36.20516,32.5057],[36.21072,32.49435],[36.22355,32.49382],[36.23667,32.49983],[36.2418,32.49799],[36.29972,32.45996],[36.30625,32.45909],[36.37168,32.40007],[36.40562,32.37785],[36.4403,32.37151],[36.47371,32.37135],[36.51193,32.35732],[36.54556,32.35549],[36.66569,32.33945],[36.70064,32.33295],[36.71086,32.32183],[36.72513,32.32962],[36.83895,32.31184],[36.8684,32.34051],[36.91565,32.36824],[36.91841,32.37396],[36.92724,32.37881],[36.93967,32.38019],[37.00668,32.41697],[37.0873,32.41868],[37.10993,32.42398],[37.14539,32.47019],[37.14998,32.48584],[37.16713,32.5049],[37.25052,32.55043],[37.26276,32.55506],[37.28635,32.55701],[37.31315,32.55301],[37.33015,32.55446],[37.37287,32.56999],[37.38208,32.57594],[37.38671,32.58541],[37.39575,32.59081],[37.43698,32.60323],[37.46313,32.63216],[37.48422,32.66273],[37.50454,32.68308],[37.57255,32.72525],[37.6137,32.73233],[37.65256,32.73348],[37.75779,32.76167],[37.76682,32.77141],[37.79166,32.84203],[37.79854,32.84712],[38.21156,33.06786],[38.2211,33.07553],[38.32399,33.12755],[38.34166,33.13959],[38.35811,33.16641],[38.43328,33.18528],[38.79367,33.37474],[39.08624,32.5016],[38.986,32.47766],[39.04367,32.30412],[39.26,32.3556],[39.30115,32.23026],[39.00648,32.00062],[38.08992,31.77601],[38.03856,31.76302],[37.98321,31.74454],[37.96058,31.74371],[37.01453,31.5027]]]]}}]}