{"type":"FeatureCollection","features":[{"type":"Feature","properties":{"ISO_A3":"KEN","WB_A3":"KEN","WB_NAME":"Kenya","WB_REGION":"AFE,SSF"},"geometry":{"type":"MultiPolygon","coordinates":[[[[34.36306,0.77677],[34.3735,0.78421],[34.37247,0.78791],[34.37693,0.7938],[34.3839,0.78999],[34.38564,0.80112],[34.39536,0.79966],[34.41411,0.80767],[34.41114,0.81327],[34.41415,0.81764],[34.40852,0.82537],[34.40904,0.82898],[34.41529,0.83212],[34.41571,0.84057],[34.42144,0.84316],[34.42213,0.84762],[34.4416,0.85423],[34.44666,0.86036],[34.44704,0.8737],[34.4528,0.89081],[34.45164,0.89833],[34.4645,0.90831],[34.48075,0.93596],[34.4839,0.96212],[34.49022,0.98063],[34.48797,0.99862],[34.49456,1.0416],[34.50167,1.0553],[34.50382,1.06822],[34.51875,1.08593],[34.52609,1.10632],[34.57472,1.09931],[34.57986,1.14702],[34.61217,1.15618],[34.62451,1.16619],[34.6373,1.16883],[34.64958,1.17607],[34.66512,1.18998],[34.66987,1.20559],[34.70046,1.21297],[34.74468,1.21831],[34.76986,1.21661],[34.77421,1.22069],[34.78389,1.22209],[34.7952,1.21948],[34.80655,1.22899],[34.81223,1.23778],[34.8114,1.24128],[34.81896,1.248],[34.8209,1.26066],[34.83154,1.26674],[34.82931,1.30686],[34.79346,1.35765],[34.79568,1.36918],[34.77167,1.41899],[34.7865,1.42213],[34.78791,1.43327],[34.79028,1.43014],[34.79792,1.43134],[34.81266,1.43927],[34.84726,1.43592],[34.84186,1.44364],[34.84164,1.45268],[34.84598,1.45436],[34.86472,1.52653],[34.89038,1.55315],[34.90608,1.55054],[34.94405,1.57506],[34.96079,1.60397],[34.99078,1.66375],[34.99892,1.73518],[35.03305,1.91447],[34.98615,1.98169],[34.98124,2.04902],[34.94786,2.20304],[34.91746,2.38766],[34.91941,2.39084],[34.91464,2.39357],[34.91786,2.42162],[34.93231,2.42927],[34.93093,2.4355],[34.93736,2.43857],[34.93622,2.44181],[34.94244,2.45106],[34.95186,2.455],[34.95442,2.46405],[34.95496,2.46778],[34.94906,2.46998],[34.93485,2.51342],[34.91476,2.51439],[34.89892,2.5852],[34.8953,2.59029],[34.88198,2.5867],[34.88002,2.57001],[34.86987,2.56805],[34.85383,2.58077],[34.83981,2.60138],[34.83291,2.61777],[34.80054,2.65239],[34.79151,2.68022],[34.77654,2.6944],[34.78488,2.74592],[34.77522,2.7951],[34.76721,2.81916],[34.76178,2.8258],[34.75043,2.82253],[34.7374,2.85193],[34.71296,2.86205],[34.70948,2.87028],[34.70282,2.87422],[34.69361,2.85974],[34.66959,2.86006],[34.65426,2.86433],[34.6407,2.90308],[34.6,2.92123],[34.58842,2.99756],[34.57723,3.01659],[34.57731,3.07356],[34.57422,3.09418],[34.56,3.10666],[34.5459,3.13281],[34.51148,3.14583],[34.49471,3.13835],[34.48297,3.16118],[34.47094,3.1693],[34.46063,3.17075],[34.45567,3.17932],[34.44825,3.27794],[34.42944,3.34075],[34.40155,3.36763],[34.40035,3.37462],[34.40154,3.41168],[34.40965,3.41476],[34.41942,3.4304],[34.41687,3.44791],[34.40622,3.46447],[34.39161,3.47953],[34.3894,3.48888],[34.39689,3.48518],[34.42346,3.48802],[34.43373,3.49536],[34.45094,3.51547],[34.4564,3.57577],[34.45288,3.6089],[34.463,3.66734],[34.45469,3.67447],[34.4029,3.69052],[34.39989,3.70287],[34.37734,3.72806],[34.37008,3.73217],[34.35418,3.73264],[34.32448,3.72501],[34.31786,3.71804],[34.30573,3.68325],[34.30301,3.68329],[34.30808,3.70962],[34.26654,3.74521],[34.24591,3.78146],[34.23278,3.77782],[34.22717,3.77078],[34.22667,3.77922],[34.22134,3.78134],[34.17226,3.76436],[34.16491,3.771],[34.19028,3.77998],[34.18872,3.7921],[34.16997,3.7969],[34.16237,3.79464],[34.15915,3.79872],[34.15356,3.79691],[34.15317,3.80427],[34.16345,3.80753],[34.17944,3.82857],[34.22555,3.82748],[34.22555,3.84711],[34.21583,3.87894],[34.17562,3.87722],[34.16772,3.86742],[34.14907,3.86628],[34.12784,3.86944],[34.08894,3.85835],[34.09131,3.88274],[34.11486,3.89392],[34.11947,3.89916],[34.13455,3.95947],[34.10484,3.97562],[34.0805,4.00109],[34.06178,4.00727],[34.06026,4.02512],[34.08978,4.03448],[34.0923,4.04499],[34.09227,4.05957],[34.08054,4.0827],[34.06375,4.09111],[34.05009,4.11825],[34.06638,4.14007],[34.04738,4.17554],[33.99206,4.21863],[34.08491,4.32387],[34.377,4.61707],[35.59876,4.62404],[35.70226,4.58774],[35.70645,4.59903],[35.70222,4.61147],[35.70636,4.62465],[35.85983,4.62508],[35.949,4.63104],[35.9382,4.58694],[35.96184,4.58006],[35.962,4.5676],[35.9396,4.55127],[36.05009,4.45689],[36.23418,4.45356],[36.24729,4.45914],[36.26292,4.45313],[36.54735,4.44821],[36.62511,4.45754],[36.64469,4.45677],[36.66092,4.44525],[36.68046,4.44443],[36.84345,4.45186],[36.87884,4.43459],[36.90904,4.42744],[36.95761,4.40679],[36.9608,4.40055],[36.96761,4.40296],[36.98443,4.39763],[37.00008,4.38301],[37.00673,4.38352],[37.01924,4.37552],[37.02771,4.38741],[37.04495,4.37812],[37.06172,4.3526],[37.07818,4.35118],[37.08811,4.34641],[37.09282,4.33861],[37.09857,4.33721],[37.10632,4.31835],[37.11485,4.3066],[37.12731,4.2975],[37.13577,4.29789],[37.40959,4.11956],[37.42224,4.11383],[37.64753,3.95956],[37.64847,3.95523],[37.68687,3.92881],[37.9177,3.77558],[37.99112,3.73424],[38.00695,3.73121],[38.01143,3.71833],[38.02256,3.70162],[38.03015,3.69226],[38.04066,3.687],[38.04498,3.6764],[38.05309,3.67444],[38.10337,3.635],[38.12716,3.61041],[38.13328,3.61493],[38.18159,3.62473],[38.44571,3.60708],[38.51946,3.63333],[38.51994,3.64688],[38.51324,3.65531],[38.51671,3.65826],[38.53621,3.65944],[38.54794,3.64678],[38.55517,3.62854],[38.55537,3.61998],[38.57602,3.60944],[38.60195,3.61082],[38.61169,3.61761],[38.61764,3.60726],[38.62073,3.6089],[38.66326,3.59787],[38.67375,3.6134],[38.67018,3.62619],[38.67924,3.63032],[38.68343,3.62917],[38.70975,3.58666],[38.71251,3.57658],[38.8455,3.5373],[38.90267,3.51686],[38.95602,3.52002],[38.95641,3.52898],[38.96557,3.53532],[38.99737,3.52377],[39.00302,3.5315],[39.00786,3.52327],[39.01976,3.51718],[39.02065,3.52801],[39.03258,3.52877],[39.03592,3.53275],[39.0458,3.52722],[39.0551,3.52677],[39.0678,3.53451],[39.07756,3.53637],[39.07861,3.54518],[39.08718,3.54464],[39.10372,3.5275],[39.12998,3.51569],[39.15075,3.51411],[39.14805,3.50711],[39.15004,3.50528],[39.17149,3.49522],[39.17792,3.4938],[39.18839,3.49791],[39.18993,3.48425],[39.22475,3.48601],[39.22835,3.48256],[39.25433,3.4811],[39.26508,3.47577],[39.28479,3.48438],[39.2965,3.47999],[39.30376,3.48258],[39.31571,3.49567],[39.31885,3.50372],[39.32817,3.50617],[39.333,3.50352],[39.33529,3.48396],[39.33168,3.46967],[39.37482,3.47128],[39.40246,3.46729],[39.41214,3.4703],[39.41554,3.46457],[39.42719,3.46988],[39.42926,3.4617],[39.43455,3.46418],[39.43594,3.46001],[39.44087,3.45944],[39.44403,3.46455],[39.45652,3.46008],[39.46324,3.45991],[39.4644,3.464],[39.46951,3.46278],[39.4706,3.46505],[39.48249,3.46331],[39.49302,3.47148],[39.49873,3.46842],[39.51445,3.41383],[39.52902,3.40612],[39.54348,3.40427],[39.55342,3.40469],[39.58811,3.49206],[39.60687,3.5037],[39.77299,3.67145],[39.86573,3.87053],[40.14822,4.01797],[40.15559,4.01715],[40.16137,4.02475],[40.18234,4.03575],[40.18857,4.04879],[40.19468,4.05107],[40.20472,4.04607],[40.38241,4.11814],[40.39243,4.11705],[40.39985,4.12533],[40.69522,4.24444],[40.69827,4.25071],[40.72507,4.25357],[40.73349,4.26218],[40.74232,4.26532],[40.75603,4.28441],[40.76069,4.28556],[40.77478,4.28161],[40.781,4.28325],[40.78978,4.26923],[40.80227,4.26637],[40.80553,4.26129],[40.82244,4.25303],[40.83176,4.2499],[40.83765,4.25271],[40.8462,4.24904],[40.85236,4.23013],[40.86817,4.22825],[40.88402,4.21406],[40.88361,4.19768],[40.89719,4.18611],[40.90558,4.15759],[40.91544,4.1575],[40.93131,4.14977],[40.93999,4.15239],[40.9435,4.14821],[40.95572,4.14512],[40.95913,4.13882],[40.97374,4.13143],[40.98106,4.11533],[40.99791,4.11286],[41.01507,4.08641],[41.02497,4.08395],[41.02716,4.07639],[41.03676,4.07875],[41.04602,4.06159],[41.06406,4.04532],[41.06899,4.02816],[41.07754,4.0274],[41.08251,4.01746],[41.10179,4.01016],[41.09904,4.00216],[41.10299,3.99287],[41.11188,3.98847],[41.11478,3.99312],[41.11722,3.99244],[41.12662,3.98106],[41.12597,3.97402],[41.13139,3.9686],[41.13815,3.96865],[41.13899,3.96484],[41.15195,3.9619],[41.16234,3.95379],[41.16683,3.95446],[41.17363,3.94587],[41.17985,3.9471],[41.18664,3.94264],[41.19085,3.9436],[41.19671,3.93798],[41.20936,3.93732],[41.21018,3.94868],[41.21772,3.94955],[41.21875,3.95653],[41.22949,3.95544],[41.23264,3.95118],[41.24329,3.96143],[41.2461,3.95182],[41.25139,3.95606],[41.25686,3.95457],[41.26539,3.95794],[41.27686,3.94749],[41.28046,3.95178],[41.28383,3.95077],[41.28057,3.94623],[41.28282,3.94406],[41.29749,3.94553],[41.29598,3.95239],[41.29928,3.95282],[41.30492,3.9455],[41.3125,3.94638],[41.31649,3.94183],[41.32628,3.93933],[41.33224,3.94429],[41.33789,3.94251],[41.34603,3.94849],[41.35148,3.9469],[41.35482,3.9598],[41.36174,3.95937],[41.36388,3.95401],[41.3686,3.95622],[41.3784,3.95112],[41.38134,3.95431],[41.37908,3.95875],[41.38627,3.95791],[41.3913,3.9648],[41.41992,3.94897],[41.43629,3.95057],[41.43501,3.95762],[41.43784,3.95889],[41.44605,3.9551],[41.45768,3.96106],[41.46757,3.95569],[41.47374,3.96009],[41.4783,3.95552],[41.47865,3.96452],[41.49986,3.96283],[41.50205,3.96767],[41.50599,3.9677],[41.50986,3.96274],[41.51006,3.95419],[41.5173,3.9542],[41.52366,3.95954],[41.52858,3.97287],[41.551,3.98391],[41.56957,3.968],[41.58088,3.97326],[41.59165,3.97044],[41.60312,3.97557],[41.61681,3.97324],[41.62692,3.98304],[41.63237,3.97929],[41.63588,3.98521],[41.637,3.97566],[41.64006,3.97867],[41.64351,3.97737],[41.6438,3.97319],[41.65361,3.96954],[41.65569,3.96553],[41.66168,3.96801],[41.66731,3.96509],[41.66926,3.96801],[41.67571,3.9588],[41.68207,3.9751],[41.68459,3.97547],[41.68612,3.97005],[41.68875,3.97115],[41.69106,3.97974],[41.70106,3.98241],[41.70378,3.98634],[41.71193,3.98527],[41.71756,3.9948],[41.72096,3.98677],[41.72547,3.989],[41.73412,3.98367],[41.73807,3.98656],[41.75228,3.98243],[41.75227,3.97263],[41.76315,3.97562],[41.7692,3.97261],[41.77462,3.97459],[41.77715,3.98151],[41.78072,3.98176],[41.78432,3.97693],[41.79019,3.97939],[41.79749,3.95855],[41.81957,3.9599],[41.81716,3.95267],[41.82191,3.94912],[41.8254,3.95384],[41.83364,3.9472],[41.8328,3.95596],[41.84171,3.95445],[41.84224,3.95104],[41.84698,3.94993],[41.8512,3.95281],[41.85129,3.96197],[41.86098,3.96089],[41.86589,3.96722],[41.86722,3.96339],[41.87059,3.96394],[41.88548,3.97859],[41.89586,3.98275],[41.90031,3.97813],[41.90695,3.98268],[41.33087,3.15758],[40.99212,2.82181],[40.99122,2.04647],[40.99432,1.7977],[40.99213,1.56509],[40.9957,0.57605],[40.99352,-0.83342],[41.55892,-1.59857],[41.55941,-1.66212],[41.54882,-1.67576],[41.51814,-1.70285],[41.49106,-1.74796],[41.47827,-1.75429],[41.43788,-1.80136],[41.42637,-1.80859],[41.41731,-1.8305],[41.39468,-1.85011],[41.39405,-1.85912],[41.38753,-1.86609],[41.38472,-1.86712],[41.38189,-1.85888],[41.36705,-1.86354],[41.3691,-1.8665],[41.37652,-1.86507],[41.37883,-1.86971],[41.38971,-1.87124],[41.36299,-1.89472],[41.35534,-1.91431],[41.33768,-1.92232],[41.32503,-1.93908],[41.32414,-1.94449],[41.32709,-1.94604],[41.31724,-1.95378],[41.31481,-1.95971],[41.30623,-1.95779],[41.30137,-1.96153],[41.29729,-1.97236],[41.28884,-1.9752],[41.27938,-1.98513],[41.27795,-1.96826],[41.27321,-1.96453],[41.27859,-1.96555],[41.28588,-1.95897],[41.28368,-1.94197],[41.26088,-1.93891],[41.26038,-1.94329],[41.255,-1.94227],[41.25628,-1.94587],[41.25117,-1.94897],[41.25361,-1.95618],[41.25118,-1.95863],[41.24785,-1.95439],[41.24849,-1.95877],[41.24427,-1.95916],[41.24657,-1.95594],[41.24502,-1.95156],[41.23965,-1.95247],[41.23811,-1.94925],[41.24156,-1.94976],[41.24194,-1.94589],[41.23823,-1.94152],[41.24193,-1.93778],[41.24565,-1.93893],[41.24654,-1.93326],[41.25319,-1.93209],[41.25471,-1.91728],[41.25138,-1.91728],[41.25215,-1.91471],[41.24677,-1.91574],[41.24678,-1.92115],[41.23461,-1.92065],[41.23935,-1.9182],[41.23883,-1.91189],[41.22884,-1.91538],[41.22909,-1.90726],[41.22103,-1.91114],[41.22115,-1.9065],[41.22512,-1.90392],[41.2228,-1.89697],[41.22638,-1.89232],[41.22421,-1.89194],[41.21141,-1.90162],[41.20527,-1.90034],[41.19863,-1.91349],[41.18378,-1.92162],[41.18072,-1.92845],[41.17636,-1.92601],[41.17432,-1.93104],[41.16511,-1.93492],[41.16409,-1.93827],[41.16742,-1.93852],[41.16461,-1.94419],[41.14951,-1.95671],[41.14644,-1.95607],[41.14619,-1.95968],[41.15157,-1.96212],[41.17166,-1.95423],[41.17001,-1.96261],[41.17666,-1.9617],[41.17769,-1.96479],[41.17283,-1.96879],[41.14877,-1.97346],[41.14697,-1.96818],[41.15017,-1.96637],[41.14465,-1.96019],[41.13826,-1.96535],[41.13032,-1.96369],[41.13058,-1.9682],[41.12264,-1.96847],[41.11907,-1.97955],[41.117,-1.96461],[41.10049,-1.97442],[41.09268,-1.97185],[41.09013,-1.97856],[41.08142,-1.97921],[41.06952,-1.98709],[41.06339,-2.00178],[41.06647,-2.00461],[41.0602,-2.00617],[41.06084,-2.01003],[41.05815,-2.0072],[41.05316,-2.00875],[41.05495,-2.01158],[41.04408,-2.01894],[41.04486,-2.02847],[41.0382,-2.03067],[41.03182,-2.04692],[41.02592,-2.04254],[41.02324,-2.04821],[41.01645,-2.04951],[41.01902,-2.05337],[41.01185,-2.05274],[41.00339,-2.04798],[41.00826,-2.04733],[41.01093,-2.03612],[41.00849,-2.03226],[40.99147,-2.03717],[40.98902,-2.02378],[40.98415,-2.02172],[40.98338,-2.01786],[40.98989,-2.00883],[40.98745,-1.99788],[40.99409,-1.98409],[40.99266,-1.96244],[40.9865,-1.94982],[41.00248,-1.93254],[41.0058,-1.92249],[41.0122,-1.92003],[41.0127,-1.91384],[41.0273,-1.90855],[41.04828,-1.89177],[41.04942,-1.88713],[41.04032,-1.87799],[41.02062,-1.89683],[41.00513,-1.89672],[41.00092,-1.90832],[40.99478,-1.91451],[40.98491,-1.91091],[40.99223,-1.92302],[40.98993,-1.93023],[40.97904,-1.92535],[40.98148,-1.93244],[40.97329,-1.93554],[40.96638,-1.94469],[40.9646,-1.94946],[40.96818,-1.94856],[40.96921,-1.95113],[40.96948,-1.96196],[40.97563,-1.96349],[40.96962,-1.97819],[40.9745,-1.98643],[40.96555,-1.99778],[40.9676,-2.00035],[40.96543,-2.00448],[40.96197,-2.00448],[40.96262,-2.00835],[40.9575,-2.01196],[40.95355,-2.02562],[40.9597,-2.03515],[40.95869,-2.04417],[40.96549,-2.05164],[40.96011,-2.05139],[40.9609,-2.07432],[40.95142,-2.07047],[40.95143,-2.07974],[40.94708,-2.07962],[40.93939,-2.07228],[40.94373,-2.06249],[40.94141,-2.05218],[40.92051,-2.03417],[40.92243,-2.02785],[40.9342,-2.02256],[40.93612,-2.0156],[40.92023,-2.01098],[40.92304,-2.00092],[40.9206,-1.99397],[40.90676,-1.99205],[40.89447,-1.99464],[40.88063,-1.99066],[40.87705,-1.9877],[40.87844,-1.9716],[40.87574,-1.96464],[40.8719,-1.96426],[40.86397,-1.97406],[40.85577,-1.97059],[40.85819,-1.96002],[40.85011,-1.94715],[40.84037,-1.9402],[40.84705,-1.96222],[40.8345,-1.96031],[40.83552,-1.95811],[40.82041,-1.95749],[40.81886,-1.95336],[40.81195,-1.9544],[40.80734,-1.95157],[40.80656,-1.94719],[40.80016,-1.94514],[40.7853,-1.94387],[40.77402,-1.93898],[40.77413,-1.94261],[40.76762,-1.94041],[40.76762,-1.94337],[40.78812,-1.9494],[40.78954,-1.95468],[40.7971,-1.95712],[40.79838,-1.96254],[40.82016,-1.97063],[40.81786,-1.97424],[40.83221,-1.98157],[40.84733,-1.98194],[40.85809,-1.9894],[40.85835,-1.99339],[40.87066,-2.00021],[40.87348,-2.00897],[40.86605,-2.00653],[40.8617,-2.01207],[40.84915,-2.01222],[40.84532,-2.01699],[40.83379,-2.01752],[40.83303,-2.02074],[40.84532,-2.02034],[40.85146,-2.01673],[40.85928,-2.02419],[40.87042,-2.0158],[40.88348,-2.01901],[40.89423,-2.01217],[40.90153,-2.01126],[40.90499,-2.01447],[40.90235,-2.04888],[40.89325,-2.0458],[40.89248,-2.04116],[40.88376,-2.03872],[40.88505,-2.04426],[40.88019,-2.04594],[40.88455,-2.05405],[40.89147,-2.05482],[40.89494,-2.06487],[40.88686,-2.05908],[40.88071,-2.05896],[40.87586,-2.0685],[40.85973,-2.07315],[40.86127,-2.07663],[40.86997,-2.07559],[40.87049,-2.07804],[40.8774,-2.07184],[40.88482,-2.07003],[40.88598,-2.07338],[40.88253,-2.07777],[40.89328,-2.0744],[40.8938,-2.07685],[40.90084,-2.0762],[40.90097,-2.07955],[40.90482,-2.08096],[40.9084,-2.07902],[40.91059,-2.09139],[40.91444,-2.09422],[40.91218,-2.12901],[40.91949,-2.14137],[40.91463,-2.14898],[40.91976,-2.1522],[40.9166,-2.18338],[40.91996,-2.21095],[40.92151,-2.21816],[40.93317,-2.22485],[40.92088,-2.22525],[40.90371,-2.21716],[40.90011,-2.2133],[40.90305,-2.20762],[40.90113,-2.2044],[40.89652,-2.20776],[40.89319,-2.20403],[40.88756,-2.21177],[40.8864,-2.20326],[40.89023,-2.19785],[40.88882,-2.19192],[40.88549,-2.19218],[40.88217,-2.20172],[40.87167,-2.2056],[40.88038,-2.20598],[40.88424,-2.21847],[40.86886,-2.21501],[40.8631,-2.21772],[40.87912,-2.2244],[40.87631,-2.22673],[40.87887,-2.23162],[40.87452,-2.23047],[40.86351,-2.23576],[40.87862,-2.236],[40.87171,-2.23781],[40.87197,-2.24194],[40.86275,-2.23937],[40.86224,-2.24221],[40.84943,-2.24429],[40.85557,-2.23951],[40.85352,-2.23745],[40.82894,-2.24844],[40.84007,-2.23708],[40.8384,-2.2336],[40.822,-2.23208],[40.80203,-2.24228],[40.80177,-2.23584],[40.79741,-2.23649],[40.7923,-2.24255],[40.79742,-2.24268],[40.80217,-2.24795],[40.7831,-2.26434],[40.78001,-2.25236],[40.77643,-2.25559],[40.77361,-2.25366],[40.77219,-2.24438],[40.76694,-2.24516],[40.77104,-2.24864],[40.76605,-2.25135],[40.76439,-2.25754],[40.75952,-2.25715],[40.73183,-2.24108],[40.729,-2.22639],[40.72644,-2.23142],[40.72105,-2.22099],[40.70233,-2.208],[40.7108,-2.2192],[40.71939,-2.22434],[40.72863,-2.24366],[40.7298,-2.25165],[40.72135,-2.25591],[40.72391,-2.26029],[40.71854,-2.26352],[40.71239,-2.26133],[40.71252,-2.26353],[40.72751,-2.27059],[40.73417,-2.26685],[40.73391,-2.26208],[40.73775,-2.26143],[40.74007,-2.27045],[40.74955,-2.27353],[40.74443,-2.27405],[40.74469,-2.28101],[40.74033,-2.27973],[40.73906,-2.28617],[40.74957,-2.29028],[40.7583,-2.30342],[40.7583,-2.30625],[40.75446,-2.30548],[40.74984,-2.29802],[40.74574,-2.2997],[40.74497,-2.2966],[40.72933,-2.29005],[40.72778,-2.28181],[40.73137,-2.28],[40.72803,-2.27794],[40.72317,-2.28207],[40.71612,-2.28002],[40.71368,-2.27435],[40.70792,-2.27693],[40.71344,-2.28775],[40.70678,-2.28492],[40.69321,-2.29228],[40.69535,-2.29542],[40.70577,-2.29742],[40.70424,-2.30954],[40.72193,-2.31467],[40.72885,-2.31402],[40.72654,-2.31145],[40.72986,-2.30822],[40.74115,-2.31542],[40.76037,-2.32068],[40.7663,-2.35263],[40.77373,-2.35456],[40.77604,-2.35829],[40.7717,-2.36293],[40.78105,-2.36782],[40.77478,-2.37375],[40.76761,-2.37157],[40.77056,-2.3784],[40.7794,-2.37774],[40.76916,-2.38562],[40.77212,-2.39773],[40.77275,-2.38535],[40.77847,-2.38466],[40.78044,-2.38792],[40.789,-2.37451],[40.79372,-2.35376],[40.7991,-2.35504],[40.79935,-2.34963],[40.80294,-2.35542],[40.81704,-2.35836],[40.82204,-2.36338],[40.82539,-2.37498],[40.82324,-2.39457],[40.781,-2.42735],[40.77205,-2.44102],[40.77104,-2.45314],[40.74168,-2.45545],[40.70752,-2.47474],[40.68423,-2.49178],[40.63816,-2.54197],[40.60872,-2.56095],[40.57129,-2.55133],[40.56077,-2.54361],[40.5395,-2.54145],[40.53821,-2.5341],[40.50693,-2.52048],[40.52603,-2.53283],[40.52463,-2.53631],[40.5154,-2.53323],[40.49438,-2.53402],[40.45518,-2.54232],[40.39421,-2.56636],[40.34759,-2.59115],[40.34618,-2.58897],[40.35296,-2.58264],[40.37422,-2.57295],[40.3778,-2.56161],[40.38344,-2.56237],[40.38523,-2.55748],[40.39151,-2.56159],[40.38753,-2.55541],[40.36525,-2.56716],[40.36268,-2.56253],[40.35474,-2.56937],[40.35449,-2.57439],[40.3463,-2.58536],[40.29148,-2.61738],[40.28483,-2.62589],[40.26408,-2.63957],[40.26127,-2.65517],[40.22414,-2.69504],[40.19637,-2.74018],[40.19648,-2.71208],[40.20031,-2.70151],[40.20406,-2.69909],[40.20094,-2.68862],[40.20144,-2.67959],[40.2058,-2.67495],[40.20361,-2.67005],[40.20208,-2.67482],[40.19909,-2.67195],[40.20157,-2.67714],[40.19939,-2.68089],[40.18928,-2.68914],[40.1898,-2.69971],[40.18672,-2.69946],[40.17611,-2.73066],[40.18175,-2.72808],[40.17805,-2.74046],[40.1692,-2.73917],[40.16753,-2.73454],[40.15573,-2.72836],[40.15497,-2.73506],[40.16343,-2.73841],[40.16472,-2.7464],[40.16921,-2.74846],[40.1719,-2.74587],[40.17229,-2.75051],[40.1673,-2.76341],[40.16243,-2.76058],[40.16154,-2.77063],[40.16629,-2.77437],[40.16629,-2.77888],[40.16142,-2.77888],[40.16527,-2.7879],[40.15861,-2.78971],[40.15913,-2.79384],[40.16195,-2.7937],[40.1649,-2.80027],[40.16657,-2.79795],[40.17003,-2.80027],[40.1803,-2.81882],[40.17531,-2.82836],[40.17724,-2.83326],[40.17444,-2.85079],[40.16817,-2.86034],[40.16344,-2.8771],[40.16332,-2.88509],[40.17012,-2.89178],[40.16334,-2.90339],[40.1622,-2.91577],[40.15989,-2.91474],[40.15735,-2.94052],[40.15107,-2.94233],[40.15418,-2.97416],[40.16701,-2.97737],[40.16752,-2.98021],[40.17136,-2.97518],[40.17188,-2.9784],[40.16842,-2.98253],[40.16804,-2.99052],[40.15984,-2.99259],[40.15985,-2.99955],[40.16498,-3.00006],[40.1655,-3.00573],[40.15293,-3.00639],[40.15769,-3.02327],[40.15733,-3.03874],[40.16181,-3.03383],[40.16553,-3.0346],[40.1668,-3.02274],[40.17794,-3.01423],[40.18536,-2.9972],[40.19805,-2.99332],[40.22318,-2.99291],[40.23085,-2.98001],[40.23919,-2.9791],[40.23984,-2.99224],[40.236,-2.99508],[40.23292,-2.99264],[40.22139,-3.00193],[40.20371,-3.00814],[40.19679,-3.01781],[40.19424,-3.03135],[40.18399,-3.03381],[40.17221,-3.0462],[40.17004,-3.05728],[40.1748,-3.06862],[40.16096,-3.07998],[40.157,-3.09055],[40.16384,-3.13024],[40.16218,-3.13695],[40.15155,-3.15526],[40.14489,-3.1603],[40.1354,-3.15941],[40.1268,-3.1522],[40.14311,-3.16997],[40.13056,-3.18442],[40.12173,-3.20118],[40.12173,-3.20821],[40.12996,-3.22515],[40.12716,-3.24887],[40.13269,-3.25711],[40.12411,-3.27285],[40.12517,-3.28001],[40.1199,-3.29193],[40.09581,-3.30974],[40.07453,-3.31969],[40.05813,-3.33427],[40.02993,-3.34771],[40.0225,-3.35674],[40.00865,-3.36101],[39.99405,-3.37611],[39.97559,-3.38914],[39.96969,-3.38773],[39.97173,-3.3769],[39.9825,-3.36903],[39.98635,-3.37109],[39.9916,-3.36683],[39.99338,-3.35316],[39.98387,-3.33229],[39.99502,-3.32055],[39.99296,-3.31771],[39.95732,-3.32909],[39.95039,-3.33335],[39.95554,-3.34675],[39.93835,-3.34883],[39.93798,-3.36353],[39.94068,-3.36894],[39.93581,-3.37075],[39.93517,-3.37436],[39.93684,-3.37694],[39.94248,-3.37409],[39.94454,-3.37796],[39.93621,-3.38725],[39.93865,-3.38957],[39.94787,-3.37963],[39.95224,-3.38685],[39.967,-3.39186],[39.96855,-3.40836],[39.92682,-3.49399],[39.92606,-3.50301],[39.9029,-3.56775],[39.87025,-3.63274],[39.86525,-3.637],[39.84472,-3.63457],[39.84163,-3.62787],[39.83008,-3.62402],[39.82571,-3.61371],[39.81544,-3.60663],[39.79158,-3.60729],[39.7826,-3.61272],[39.77978,-3.60885],[39.77963,-3.59312],[39.77206,-3.58901],[39.76744,-3.59043],[39.77771,-3.59648],[39.77746,-3.59983],[39.77374,-3.60086],[39.78042,-3.61401],[39.79492,-3.61631],[39.80493,-3.61424],[39.80558,-3.62172],[39.81059,-3.62816],[39.79673,-3.62959],[39.79082,-3.6216],[39.78133,-3.62354],[39.78159,-3.6278],[39.78954,-3.62947],[39.79032,-3.63333],[39.79468,-3.63513],[39.79687,-3.6457],[39.8029,-3.64364],[39.80586,-3.64776],[39.82151,-3.64671],[39.82804,-3.63652],[39.83574,-3.6369],[39.83715,-3.63355],[39.84472,-3.63908],[39.84896,-3.63741],[39.86192,-3.64216],[39.86822,-3.65569],[39.86606,-3.67761],[39.85246,-3.68033],[39.83911,-3.67596],[39.83989,-3.6815],[39.83142,-3.68537],[39.83168,-3.69001],[39.84066,-3.68459],[39.8413,-3.67918],[39.85657,-3.6829],[39.8635,-3.67928],[39.86812,-3.68147],[39.87031,-3.69797],[39.8616,-3.71396],[39.85509,-3.74181],[39.8442,-3.76606],[39.82515,-3.83491],[39.7871,-3.90868],[39.77161,-3.94762],[39.76699,-3.95253],[39.75211,-3.95821],[39.73729,-3.9497],[39.72643,-3.95372],[39.71796,-3.95231],[39.71231,-3.94871],[39.71166,-3.93505],[39.7069,-3.93144],[39.70408,-3.93299],[39.70561,-3.91932],[39.71382,-3.91081],[39.71856,-3.89946],[39.71304,-3.89779],[39.70868,-3.90153],[39.7074,-3.90798],[39.70226,-3.9094],[39.69803,-3.91521],[39.692,-3.91186],[39.68777,-3.92322],[39.69078,-3.92291],[39.69021,-3.92578],[39.68688,-3.92604],[39.68765,-3.92888],[39.69201,-3.92617],[39.69702,-3.92784],[39.69407,-3.93506],[39.70281,-3.95181],[39.68844,-3.9495],[39.68831,-3.95182],[39.70641,-3.95671],[39.71027,-3.96263],[39.71013,-3.95464],[39.72823,-3.95682],[39.73516,-3.95333],[39.75134,-3.95976],[39.7593,-3.95898],[39.76328,-3.96284],[39.73109,-3.99948],[39.7261,-4.01289],[39.73124,-4.02037],[39.72342,-4.0263],[39.70265,-4.05881],[39.6911,-4.06449],[39.68545,-4.06269],[39.68159,-4.05521],[39.6817,-4.04463],[39.67366,-4.04217],[39.6776,-4.03846],[39.67695,-4.03201],[39.67173,-4.03123],[39.67027,-4.02506],[39.66115,-4.0212],[39.65999,-4.01424],[39.66795,-4.01204],[39.67115,-4.00366],[39.66703,-3.98072],[39.66408,-3.98278],[39.66446,-3.97866],[39.66099,-3.97634],[39.66303,-3.96499],[39.66098,-3.9601],[39.65276,-3.95984],[39.64917,-3.96268],[39.65507,-3.96307],[39.65611,-3.96861],[39.65328,-3.97093],[39.66061,-3.98743],[39.65946,-3.99181],[39.65099,-3.98872],[39.65265,-3.98202],[39.63942,-3.9761],[39.63122,-3.98461],[39.61709,-3.97844],[39.6158,-3.9698],[39.61901,-3.964],[39.61554,-3.96245],[39.6158,-3.96555],[39.61323,-3.96568],[39.60732,-3.96052],[39.60437,-3.9622],[39.60438,-3.9671],[39.6081,-3.96942],[39.60926,-3.9805],[39.60477,-3.98205],[39.61299,-3.98501],[39.61582,-3.99094],[39.62609,-3.9939],[39.63661,-3.99234],[39.63753,-4.01168],[39.64434,-4.02921],[39.65308,-4.03474],[39.65975,-4.03035],[39.66617,-4.0306],[39.67516,-4.03563],[39.6708,-4.04311],[39.6726,-4.04633],[39.67799,-4.04684],[39.6753,-4.05496],[39.68044,-4.06063],[39.68238,-4.07171],[39.66775,-4.07959],[39.65772,-4.06735],[39.64745,-4.06117],[39.64706,-4.05112],[39.64076,-4.0421],[39.64332,-4.03784],[39.64974,-4.03874],[39.65205,-4.03487],[39.65,-4.03371],[39.64717,-4.03771],[39.63973,-4.0332],[39.63652,-4.03617],[39.63903,-4.0431],[39.62895,-4.04198],[39.62125,-4.04495],[39.61509,-4.04186],[39.58736,-4.04485],[39.58478,-4.02848],[39.5687,-4.02198],[39.56424,-4.01444],[39.55037,-4.02541],[39.5491,-4.03288],[39.54267,-4.02541],[39.54319,-4.02954],[39.53754,-4.03057],[39.53934,-4.03869],[39.54794,-4.03959],[39.54808,-4.04242],[39.54217,-4.04449],[39.54551,-4.04874],[39.56053,-4.05041],[39.56194,-4.04074],[39.5654,-4.04035],[39.57027,-4.03003],[39.57323,-4.02952],[39.57297,-4.03519],[39.56733,-4.03867],[39.56361,-4.04809],[39.57042,-4.0553],[39.57107,-4.06613],[39.57621,-4.07489],[39.57249,-4.08031],[39.56274,-4.08238],[39.55939,-4.07181],[39.53218,-4.07724],[39.53655,-4.08278],[39.5517,-4.07968],[39.55337,-4.08419],[39.56017,-4.08277],[39.57802,-4.09319],[39.58569,-4.10866],[39.57778,-4.11408],[39.58235,-4.1166],[39.58031,-4.1189],[39.59318,-4.10607],[39.58868,-4.09396],[39.58534,-4.09293],[39.58764,-4.07759],[39.59855,-4.0692],[39.59366,-4.06534],[39.60201,-4.06379],[39.61716,-4.06738],[39.61638,-4.06197],[39.621,-4.06042],[39.63025,-4.06351],[39.63769,-4.0586],[39.63769,-4.05061],[39.64592,-4.07368],[39.65337,-4.07457],[39.66082,-4.08191],[39.67481,-4.08461],[39.67469,-4.09389],[39.64983,-4.14445],[39.61341,-4.20609],[39.60342,-4.23988],[39.59818,-4.27108],[39.57344,-4.32575],[39.55063,-4.38662],[39.53885,-4.43819],[39.53423,-4.43858],[39.53691,-4.42272],[39.53189,-4.40648],[39.5211,-4.40829],[39.52174,-4.40417],[39.50851,-4.40108],[39.50672,-4.4065],[39.51006,-4.40856],[39.50686,-4.41991],[39.50737,-4.42274],[39.51199,-4.42068],[39.51251,-4.42841],[39.50841,-4.43873],[39.49789,-4.45111],[39.497,-4.46967],[39.4798,-4.48412],[39.46313,-4.53312],[39.45671,-4.53158],[39.45567,-4.51495],[39.45284,-4.51688],[39.4513,-4.51276],[39.44205,-4.51328],[39.43949,-4.51895],[39.42741,-4.5138],[39.42523,-4.51819],[39.42781,-4.53546],[39.41612,-4.53392],[39.41124,-4.54991],[39.39686,-4.54953],[39.39223,-4.55469],[39.39043,-4.54786],[39.38452,-4.54696],[39.37784,-4.55096],[39.37785,-4.55663],[39.3889,-4.56359],[39.38569,-4.56823],[39.38916,-4.57338],[39.3875,-4.58885],[39.38943,-4.59233],[39.39469,-4.58447],[39.39175,-4.60226],[39.405,-4.64144],[39.40154,-4.6475],[39.38355,-4.64893],[39.35759,-4.63979],[39.34346,-4.63877],[39.33087,-4.64316],[39.32624,-4.6389],[39.3229,-4.63968],[39.32136,-4.6353],[39.31442,-4.63672],[39.30928,-4.6335],[39.30928,-4.62318],[39.31377,-4.61803],[39.31814,-4.61828],[39.32033,-4.62369],[39.32713,-4.61183],[39.31878,-4.60771],[39.31107,-4.60874],[39.31735,-4.58425],[39.32236,-4.57135],[39.33495,-4.5698],[39.32968,-4.56155],[39.33661,-4.56103],[39.33546,-4.55872],[39.32338,-4.56323],[39.31593,-4.55743],[39.31773,-4.56826],[39.30206,-4.57123],[39.2941,-4.56905],[39.28793,-4.57653],[39.28433,-4.57446],[39.27933,-4.58143],[39.26558,-4.58079],[39.26301,-4.58375],[39.26096,-4.57989],[39.25273,-4.57731],[39.24965,-4.5719],[39.24168,-4.57087],[39.2458,-4.58453],[39.24991,-4.58492],[39.25377,-4.59227],[39.24747,-4.59382],[39.25454,-4.59987],[39.25428,-4.60335],[39.24195,-4.60181],[39.24169,-4.6049],[39.23835,-4.60478],[39.23784,-4.61084],[39.23065,-4.61006],[39.22577,-4.61484],[39.22063,-4.62283],[39.2232,-4.62708],[39.22012,-4.63572],[39.21472,-4.6374],[39.2146,-4.64488],[39.21062,-4.65003],[39.22038,-4.65802],[39.21833,-4.66447],[39.21396,-4.66499],[39.21576,-4.66176],[39.21293,-4.6597],[39.21255,-4.66731],[39.20908,-4.67053],[39.20844,-4.66473],[39.19838,-4.66825],[37.78596,-3.67685],[37.76281,-3.61874],[37.74406,-3.54399],[37.72842,-3.54049],[37.71897,-3.53112],[37.69533,-3.52903],[37.68841,-3.51845],[37.67239,-3.50572],[37.66097,-3.50675],[37.64495,-3.51968],[37.62018,-3.52665],[37.60004,-3.5213],[37.60712,-3.50579],[37.61726,-3.49794],[37.61996,-3.49011],[37.62647,-3.48657],[37.62516,-3.46777],[37.61871,-3.46141],[37.60904,-3.46375],[37.59773,-3.45965],[37.58627,-3.4624],[37.58531,-3.44044],[37.66419,-3.35825],[37.68084,-3.35639],[37.68522,-3.35079],[37.68573,-3.32298],[37.71207,-3.31139],[37.67288,-3.06094],[37.60187,-3.01232],[37.50071,-2.94817],[34.0818,-1.02249],[34.06944,-1.02906],[34.06186,-1.03825],[34.0474,-1.03996],[34.03616,-1.03063],[34.0364,-1.01989],[34.02799,-1.00851],[34.02689,-1],[33.93406,-1],[33.92548,-0.56088],[33.92901,-0.45817],[33.98425,-0.13213],[33.91019,0.09858],[33.91062,0.10445],[34.01419,0.24682],[34.02264,0.25297],[34.02377,0.26691],[34.04043,0.27295],[34.04062,0.28905],[34.05057,0.29467],[34.05097,0.30573],[34.0603,0.31098],[34.05903,0.32269],[34.07254,0.32276],[34.09944,0.34701],[34.09903,0.35475],[34.10943,0.37314],[34.10051,0.4138],[34.08948,0.42388],[34.09224,0.44045],[34.08893,0.45546],[34.11916,0.48093],[34.11736,0.50827],[34.12298,0.51651],[34.11708,0.52036],[34.12719,0.5367],[34.12818,0.55503],[34.13876,0.58279],[34.14721,0.58256],[34.17811,0.60648],[34.18656,0.60394],[34.18653,0.61038],[34.197,0.61857],[34.1976,0.62365],[34.21605,0.62338],[34.22211,0.62916],[34.23025,0.62515],[34.23971,0.62781],[34.24313,0.63222],[34.25182,0.62892],[34.26139,0.63704],[34.27762,0.64092],[34.27983,0.64553],[34.27818,0.65959],[34.28092,0.6642],[34.27757,0.67466],[34.27916,0.67984],[34.28791,0.68048],[34.31185,0.69644],[34.31342,0.70042],[34.30933,0.70919],[34.30776,0.72895],[34.31469,0.76126],[34.31922,0.76501],[34.33535,0.76608],[34.346,0.77235],[34.35481,0.77145],[34.36306,0.77677]]],[[[41.49493,-1.77191],[41.49594,-1.76238],[41.50183,-1.76031],[41.49493,-1.77191]]],[[[41.43461,-1.84567],[41.43742,-1.83768],[41.4387,-1.8418],[41.43461,-1.84567]]],[[[41.38552,-1.89134],[41.41107,-1.85601],[41.43052,-1.84645],[41.43091,-1.84928],[41.42515,-1.85148],[41.38552,-1.89134]]],[[[41.39342,-1.86556],[41.39904,-1.8595],[41.40186,-1.86195],[41.39342,-1.86556]]],[[[41.34946,-1.92514],[41.36148,-1.91095],[41.36071,-1.91494],[41.34946,-1.92514]]],[[[41.32799,-1.9481],[41.33284,-1.93817],[41.34281,-1.92965],[41.32799,-1.9481]]],[[[41.2518,-2.03451],[41.26278,-2.01543],[41.27173,-2.00382],[41.2748,-2.00459],[41.27479,-1.99867],[41.284,-1.99324],[41.29372,-1.97906],[41.30702,-1.96822],[41.30498,-1.97569],[41.2518,-2.03451]]],[[[41.2773,-1.96182],[41.27601,-1.95255],[41.28292,-1.9497],[41.28344,-1.95846],[41.2773,-1.96182]]],[[[41.2558,-1.96352],[41.2517,-1.96276],[41.25323,-1.95992],[41.2558,-1.96352]]],[[[41.24371,-1.92773],[41.2455,-1.92154],[41.24729,-1.9227],[41.24371,-1.92773]]],[[[41.22629,-1.92208],[41.22386,-1.91964],[41.22769,-1.91731],[41.22629,-1.92208]]],[[[41.21197,-1.93524],[41.20915,-1.93048],[41.21298,-1.92429],[41.20965,-1.92326],[41.21117,-1.91218],[41.21721,-1.92531],[41.21555,-1.92867],[41.21234,-1.92816],[41.21197,-1.93524]]],[[[41.21515,-2.01936],[41.20388,-2.01474],[41.20413,-2.00675],[41.21079,-2.0088],[41.21515,-2.01936]]],[[[41.19103,-1.98384],[41.18668,-1.9792],[41.18974,-1.97611],[41.19103,-1.98384]]],[[[41.17005,-1.99546],[41.16646,-1.99186],[41.17389,-1.9921],[41.1726,-1.9885],[41.1822,-1.98411],[41.18055,-1.993],[41.16928,-1.99327],[41.17005,-1.99546]]],[[[41.06326,-2.09738],[41.05953,-2.08734],[41.07592,-2.08242],[41.07988,-2.07726],[41.07719,-2.07469],[41.08192,-2.06953],[41.07717,-2.06451],[41.08127,-2.06437],[41.08433,-2.05277],[41.08792,-2.05715],[41.09919,-2.05868],[41.09944,-2.0552],[41.10661,-2.05274],[41.11355,-2.06742],[41.11957,-2.06896],[41.11649,-2.06458],[41.11764,-2.06149],[41.12199,-2.06213],[41.12841,-2.07127],[41.13327,-2.07203],[41.13097,-2.07693],[41.13712,-2.07705],[41.14454,-2.07163],[41.16171,-2.07689],[41.16402,-2.08384],[41.15584,-2.09648],[41.15188,-2.09752],[41.14893,-2.09366],[41.14176,-2.10011],[41.13792,-2.09805],[41.13983,-2.09135],[41.13713,-2.08633],[41.12689,-2.08737],[41.11895,-2.08262],[41.1105,-2.08559],[41.1059,-2.09681],[41.10028,-2.10235],[41.09669,-2.10197],[41.10758,-2.11046],[41.11016,-2.11922],[41.10543,-2.1285],[41.11004,-2.12875],[41.11402,-2.13648],[41.10161,-2.14281],[41.08499,-2.1401],[41.08995,-2.13909],[41.08982,-2.13458],[41.08598,-2.1351],[41.0843,-2.12441],[41.09236,-2.12105],[41.0921,-2.11538],[41.08852,-2.12118],[41.08134,-2.11952],[41.08108,-2.11539],[41.07724,-2.11694],[41.07648,-2.12055],[41.08109,-2.12184],[41.08071,-2.12467],[41.07034,-2.12816],[41.07752,-2.13253],[41.05704,-2.13939],[41.05371,-2.13643],[41.05958,-2.12161],[41.05369,-2.12548],[41.05111,-2.11415],[41.06006,-2.10176],[41.06468,-2.10408],[41.07005,-2.10149],[41.06326,-2.09738]]],[[[41.15877,-1.98697],[41.15979,-1.98272],[41.15416,-1.98389],[41.15236,-1.97951],[41.15645,-1.97731],[41.16222,-1.98156],[41.15877,-1.98697]]],[[[41.1423,-2.11866],[41.12551,-2.10812],[41.13433,-2.09329],[41.13766,-2.09663],[41.13497,-2.09754],[41.13485,-2.10501],[41.14203,-2.11028],[41.14869,-2.10602],[41.151,-2.11195],[41.1551,-2.11168],[41.15254,-2.11774],[41.1423,-2.11866]]],[[[41.15416,-1.98801],[41.14597,-1.98712],[41.1539,-1.98517],[41.15416,-1.98801]]],[[[41.10626,-1.98034],[41.10049,-1.97597],[41.10523,-1.97648],[41.10626,-1.98034]]],[[[41.10038,-1.98421],[41.09947,-1.97958],[41.10268,-1.9788],[41.10038,-1.98421]]],[[[41.09193,-1.98551],[41.08527,-1.98294],[41.08603,-1.97985],[41.09141,-1.98165],[41.09193,-1.98551]]],[[[41.08493,-2.14009],[41.07945,-2.13884],[41.08072,-2.13446],[41.08493,-2.14009]]],[[[40.97966,-2.12248],[40.97146,-2.1194],[40.97209,-2.1109],[40.99539,-2.10211],[40.995,-2.09567],[40.99961,-2.09411],[40.99705,-2.10198],[40.99975,-2.10571],[40.99604,-2.10726],[40.99604,-2.1137],[41.00527,-2.11652],[41.00422,-2.10029],[41.02114,-2.10491],[41.02164,-2.10104],[41.04263,-2.09303],[41.0434,-2.08916],[41.05492,-2.08811],[41.06172,-2.09661],[41.05291,-2.11324],[41.03498,-2.11404],[41.02244,-2.1272],[41.01246,-2.12811],[41.00977,-2.13301],[41.01695,-2.13764],[41.01606,-2.14215],[40.99788,-2.14372],[40.98532,-2.13794],[40.98723,-2.12943],[40.98479,-2.12261],[40.97966,-2.12248]]],[[[41.054,-2.16619],[41.04247,-2.15977],[41.04822,-2.15254],[41.05424,-2.15279],[41.06155,-2.15794],[41.05976,-2.16412],[41.054,-2.16619]]],[[[41.04654,-2.13824],[41.0496,-2.13437],[41.05114,-2.13605],[41.04654,-2.13824]]],[[[41.0258,-2.14794],[41.02119,-2.14395],[41.02298,-2.14137],[41.02772,-2.14407],[41.0258,-2.14794]]],[[[40.98048,-2.15663],[40.97944,-2.14722],[40.98405,-2.14503],[40.99161,-2.14824],[40.98048,-2.15663]]],[[[40.90372,-2.22875],[40.90449,-2.2263],[40.91217,-2.22732],[40.92268,-2.23337],[40.93012,-2.24276],[40.9396,-2.24211],[40.93282,-2.25088],[40.9322,-2.25964],[40.93963,-2.26517],[40.94116,-2.25834],[40.93706,-2.25834],[40.94524,-2.24326],[40.95062,-2.24338],[40.95074,-2.239],[40.94241,-2.23373],[40.94266,-2.23102],[40.95291,-2.23642],[40.95727,-2.23513],[40.95727,-2.24054],[40.96112,-2.24027],[40.96599,-2.24542],[40.95755,-2.25342],[40.96371,-2.26076],[40.96728,-2.25367],[40.97548,-2.25262],[40.97073,-2.24722],[40.97058,-2.23214],[40.96623,-2.23086],[40.96724,-2.22261],[40.97672,-2.22634],[40.97597,-2.23742],[40.99048,-2.26136],[40.97168,-2.28149],[40.96977,-2.29077],[40.96018,-2.30161],[40.95763,-2.3105],[40.94688,-2.31825],[40.9269,-2.32214],[40.91562,-2.31739],[40.91318,-2.31146],[40.92238,-2.29908],[40.92312,-2.30389],[40.92559,-2.29856],[40.93378,-2.29404],[40.9571,-2.29981],[40.96502,-2.28227],[40.95708,-2.2895],[40.94657,-2.28346],[40.93607,-2.28631],[40.92941,-2.28245],[40.91567,-2.26198],[40.91016,-2.25967],[40.90283,-2.23571],[40.90372,-2.22875]]],[[[40.9898,-2.23302],[40.98377,-2.22968],[40.988,-2.22903],[40.9898,-2.23302]]],[[[40.96831,-2.05627],[40.96894,-2.04493],[40.97291,-2.04493],[40.97356,-2.05472],[40.96831,-2.05627]]],[[[40.94163,-2.2269],[40.94098,-2.22304],[40.94316,-2.22303],[40.94163,-2.2269]]],[[[40.93011,-2.23284],[40.93293,-2.23181],[40.93421,-2.2349],[40.93011,-2.23284]]],[[[40.91225,-2.28569],[40.91662,-2.29548],[40.91278,-2.30116],[40.88537,-2.29823],[40.86923,-2.30237],[40.84619,-2.31452],[40.82495,-2.33464],[40.82009,-2.33749],[40.8156,-2.33607],[40.81801,-2.32022],[40.81543,-2.30154],[40.81876,-2.30257],[40.82053,-2.28478],[40.8254,-2.28426],[40.8277,-2.2782],[40.83129,-2.28181],[40.84461,-2.28269],[40.84179,-2.27934],[40.84358,-2.27689],[40.8364,-2.27059],[40.84484,-2.26182],[40.85278,-2.2591],[40.85893,-2.26296],[40.86867,-2.26204],[40.87135,-2.25663],[40.872,-2.26101],[40.8784,-2.25997],[40.88095,-2.25275],[40.88837,-2.2481],[40.89838,-2.25608],[40.89968,-2.2718],[40.91225,-2.28569]]],[[[40.8845,-2.01153],[40.88142,-2.00832],[40.88398,-2.00715],[40.8845,-2.01153]]],[[[40.81896,-2.25605],[40.81588,-2.25464],[40.82484,-2.24896],[40.81896,-2.25605]]],[[[40.81125,-2.2415],[40.81356,-2.23724],[40.81765,-2.23711],[40.81655,-2.24055],[40.81125,-2.2415]]],[[[40.79157,-2.27296],[40.79258,-2.26523],[40.79923,-2.25827],[40.80538,-2.25903],[40.79157,-2.27296]]],[[[40.78442,-2.29166],[40.78031,-2.28831],[40.78735,-2.28173],[40.78837,-2.27529],[40.79157,-2.27632],[40.79234,-2.2807],[40.78442,-2.29166]]],[[[40.75877,-2.27172],[40.75761,-2.26708],[40.76594,-2.26604],[40.75877,-2.27172]]],[[[40.7498,-2.26503],[40.74236,-2.25988],[40.74953,-2.25987],[40.7498,-2.26503]]],[[[40.72064,-2.30823],[40.71372,-2.30631],[40.71166,-2.29729],[40.72012,-2.30063],[40.72064,-2.30823]]],[[[40.36294,-2.57103],[40.35948,-2.56884],[40.36204,-2.5673],[40.36294,-2.57103]]],[[[40.27062,-2.64369],[40.26997,-2.6388],[40.28253,-2.63388],[40.29149,-2.62124],[40.30225,-2.61788],[40.33401,-2.59697],[40.33401,-2.59439],[40.34118,-2.59297],[40.33414,-2.60187],[40.30353,-2.62007],[40.26742,-2.64898],[40.26511,-2.64628],[40.27062,-2.64369]]],[[[40.198,-2.69816],[40.19774,-2.69326],[40.20017,-2.69377],[40.198,-2.69816]]],[[[40.1962,-2.69223],[40.19415,-2.68862],[40.19748,-2.68862],[40.1962,-2.69223]]],[[[40.18627,-2.76004],[40.18473,-2.75643],[40.18882,-2.7456],[40.19266,-2.74585],[40.18627,-2.76004]]],[[[40.18552,-2.78953],[40.18807,-2.76996],[40.19179,-2.76699],[40.18552,-2.78953]]],[[[40.17754,-2.74999],[40.17694,-2.74673],[40.18318,-2.74509],[40.18344,-2.74921],[40.17754,-2.74999]]],[[[40.1832,-2.76894],[40.18089,-2.76572],[40.1832,-2.76494],[40.1832,-2.76894]]],[[[40.17278,-2.85724],[40.17789,-2.84151],[40.18084,-2.84022],[40.17278,-2.85724]]],[[[40.17375,-2.79923],[40.17156,-2.79047],[40.17464,-2.79382],[40.17375,-2.79923]]],[[[40.16287,-2.95057],[40.16286,-2.9409],[40.16004,-2.93987],[40.16118,-2.92324],[40.17038,-2.8972],[40.17205,-2.9008],[40.16439,-2.92943],[40.16582,-2.94696],[40.16287,-2.95057]]],[[[40.16998,-2.87812],[40.16741,-2.87684],[40.17023,-2.87116],[40.16998,-2.87812]]],[[[40.15931,-2.973],[40.15968,-2.96191],[40.16225,-2.96913],[40.15931,-2.973]]],[[[39.97942,-3.36787],[39.97864,-3.36272],[39.9848,-3.36052],[39.97942,-3.36787]]],[[[39.97222,-3.35499],[39.96837,-3.34867],[39.97349,-3.34132],[39.97696,-3.35163],[39.97222,-3.35499]]],[[[39.95915,-3.36905],[39.95351,-3.36893],[39.94889,-3.36481],[39.96274,-3.36105],[39.95915,-3.36905]]],[[[39.66511,-3.99773],[39.66562,-3.99387],[39.66819,-3.99361],[39.66511,-3.99773]]],[[[39.53295,-4.44876],[39.53372,-4.44258],[39.5368,-4.44232],[39.53295,-4.44876]]],[[[39.45157,-4.5321],[39.46236,-4.5375],[39.46122,-4.55504],[39.45454,-4.562],[39.45455,-4.57618],[39.44004,-4.59192],[39.43735,-4.59037],[39.43399,-4.5633],[39.42898,-4.56111],[39.43411,-4.5566],[39.44645,-4.56123],[39.45017,-4.55169],[39.45157,-4.5321]]],[[[39.36402,-4.65435],[39.36737,-4.65822],[39.39049,-4.66195],[39.40077,-4.6582],[39.40502,-4.67032],[39.40014,-4.67213],[39.38921,-4.66736],[39.3612,-4.6666],[39.36402,-4.65435]]],[[[39.3031,-4.59315],[39.29795,-4.57781],[39.31003,-4.57342],[39.31298,-4.57961],[39.3031,-4.59315]]],[[[39.29231,-4.60463],[39.29,-4.59857],[39.28691,-4.59896],[39.28768,-4.59457],[39.29269,-4.6005],[39.29231,-4.60463]]],[[[39.22449,-4.64887],[39.22321,-4.64565],[39.22603,-4.6441],[39.22449,-4.64887]]],[[[39.21397,-4.67815],[39.20851,-4.67852],[39.21319,-4.67014],[39.21859,-4.67581],[39.22514,-4.66911],[39.21922,-4.67937],[39.21397,-4.67815]]]]}},{"type":"Feature","properties":{"ISO_A3":"","WB_A3":"","WB_NAME":"Ilemi Triangle","WB_REGION":"","STATUS":"non-determined","AREA_ID":"ilemi-triangle","CLAIMANTS":"KEN,SSD"},"geometry":{"type":"MultiPolygon","coordinates":[[[[35.59876,4.62404],[35.70636,4.62465],[35.70222,4.61147],[35.70645,4.59903],[35.70226,4.58774],[35.59876,4.62404]]],[[[35.59876,4.62404],[34.377,4.61707],[34.65648,4.76003],[35.0842,4.92049],[35.24482,4.98711],[35.26407,4.94397],[35.40829,5.03342],[35.41434,5.03142],[35.42943,5.00662],[35.38791,4.91714],[35.47003,4.92957],[35.53856,4.91551],[35.56145,4.91818],[35.56609,4.89796],[35.5194,4.79547],[35.52183,4.76003],[35.59876,4.62404]]],[[[35.70636,4.62465],[35.70298,4.63489],[35.70798,4.64042],[35.70539,4.65045],[35.71393,4.65593],[35.71774,4.6711],[35.7278,4.67183],[35.73337,4.68046],[35.74136,4.67766],[35.74929,4.68117],[35.75465,4.67895],[35.77007,4.68486],[35.77337,4.67922],[35.7808,4.67985],[35.78128,4.62508],[35.70636,4.62465]]]]}}]}