{"type":"FeatureCollection","features":[{"type":"Feature","properties":{"ISO_A3":"KGZ","WB_A3":"KGZ","WB_NAME":"Kyrgyz Republic","WB_REGION":"ECS"},"geometry":{"type":"MultiPolygon","coordinates":[[[[71.49953,39.61699],[71.49128,39.62465],[71.48512,39.62582],[71.47427,39.62237],[71.4805,39.61839],[71.484,39.60692],[71.42352,39.59809],[71.42171,39.59417],[71.42685,39.58403],[71.41381,39.57148],[71.39658,39.57265],[71.38705,39.56915],[71.38434,39.57383],[71.37881,39.57303],[71.37542,39.57678],[71.3626,39.57313],[71.33881,39.57283],[71.33991,39.56842],[71.33248,39.5518],[71.33471,39.54357],[71.32703,39.53589],[71.30852,39.52849],[71.2944,39.51352],[71.28564,39.51587],[71.28098,39.52416],[71.27342,39.52891],[71.26659,39.54181],[71.25542,39.53063],[71.24433,39.52713],[71.23093,39.51784],[71.20321,39.51806],[71.19167,39.50863],[71.1596,39.50907],[71.12876,39.51816],[71.0996,39.51864],[71.09794,39.50802],[71.10086,39.50189],[71.08256,39.49808],[71.08668,39.49096],[71.08425,39.48742],[71.08525,39.47834],[71.08027,39.46869],[71.08305,39.46459],[71.08349,39.44914],[71.0764,39.44392],[71.07261,39.42455],[71.0618,39.41725],[71.06155,39.4109],[71.05793,39.40897],[71.04355,39.4125],[71.03492,39.40991],[71.02833,39.4168],[71.01725,39.41069],[71.00755,39.41443],[70.99781,39.41026],[70.95498,39.43061],[70.95099,39.43619],[70.93924,39.43601],[70.94404,39.42853],[70.94303,39.42491],[70.93646,39.4155],[70.93771,39.41071],[70.92498,39.39461],[70.9108,39.39198],[70.90357,39.39634],[70.89095,39.41186],[70.87748,39.41635],[70.86923,39.41227],[70.86824,39.40677],[70.8591,39.40534],[70.85651,39.39531],[70.84158,39.39428],[70.82929,39.38848],[70.7987,39.39302],[70.79103,39.40154],[70.77401,39.40057],[70.76687,39.40364],[70.74889,39.42782],[70.74981,39.4349],[70.76488,39.44828],[70.76252,39.45919],[70.7652,39.46595],[70.75998,39.47609],[70.7613,39.48465],[70.74729,39.49006],[70.74413,39.49652],[70.70959,39.50717],[70.69823,39.51776],[70.69302,39.51841],[70.69281,39.52457],[70.68589,39.52774],[70.68316,39.54741],[70.67372,39.56107],[70.65656,39.57194],[70.65119,39.58429],[70.6279,39.58543],[70.62306,39.59124],[70.6029,39.58545],[70.58611,39.5897],[70.57364,39.5976],[70.56586,39.59446],[70.55888,39.60117],[70.55697,39.61066],[70.54781,39.6102],[70.53193,39.62317],[70.52362,39.62144],[70.51649,39.60624],[70.4967,39.60778],[70.47972,39.60065],[70.46807,39.59078],[70.46354,39.5825],[70.43977,39.60464],[70.43476,39.59773],[70.42903,39.59576],[70.43094,39.58847],[70.42193,39.5749],[70.40802,39.57493],[70.39686,39.58207],[70.38927,39.58236],[70.3772,39.59582],[70.37335,39.59623],[70.36072,39.58881],[70.35803,39.57493],[70.35478,39.57185],[70.34983,39.57147],[70.34076,39.56388],[70.32809,39.56117],[70.33022,39.55536],[70.32799,39.55049],[70.31571,39.54263],[70.31354,39.53534],[70.30745,39.53361],[70.30207,39.52736],[70.29868,39.52942],[70.26913,39.52771],[70.23596,39.53835],[70.24203,39.54611],[70.24304,39.55961],[70.22143,39.56604],[70.21705,39.57533],[70.21159,39.57899],[70.2077,39.57924],[70.19442,39.56565],[70.18575,39.56244],[70.17624,39.55388],[70.16944,39.55346],[70.15062,39.55941],[70.14433,39.57129],[70.13769,39.57179],[70.12886,39.58517],[70.11733,39.59026],[70.10415,39.58763],[70.09315,39.57868],[70.07766,39.57581],[70.06816,39.5638],[70.05765,39.56608],[70.05376,39.57151],[70.03876,39.57103],[70.03237,39.55186],[70.0001,39.53648],[69.99618,39.5366],[69.98769,39.54547],[69.99009,39.55767],[69.97981,39.55826],[69.97911,39.5667],[69.94488,39.56277],[69.92628,39.57094],[69.92263,39.57669],[69.90049,39.57345],[69.89362,39.56797],[69.899,39.55746],[69.88461,39.54618],[69.88558,39.53896],[69.86902,39.52904],[69.85555,39.53795],[69.85269,39.54496],[69.83866,39.54859],[69.82555,39.56161],[69.82023,39.55706],[69.81513,39.55802],[69.80844,39.5691],[69.80127,39.56763],[69.7928,39.57806],[69.77447,39.58011],[69.75622,39.58764],[69.7483,39.58681],[69.73636,39.59479],[69.71755,39.59262],[69.69835,39.59883],[69.6832,39.59177],[69.67853,39.58025],[69.66382,39.57854],[69.64286,39.58101],[69.64042,39.58739],[69.62712,39.59296],[69.61865,39.58889],[69.60197,39.59186],[69.59942,39.58891],[69.60205,39.58255],[69.5867,39.57659],[69.5766,39.55446],[69.55423,39.55751],[69.54669,39.54488],[69.53706,39.53801],[69.53199,39.54421],[69.52572,39.54432],[69.51221,39.53595],[69.49501,39.53986],[69.4857,39.52569],[69.47216,39.53952],[69.44609,39.52769],[69.41523,39.54604],[69.40975,39.54638],[69.40678,39.55092],[69.40939,39.55847],[69.40488,39.56192],[69.39949,39.55925],[69.38118,39.5335],[69.3799,39.52512],[69.37503,39.5213],[69.36313,39.51967],[69.3503,39.52934],[69.33779,39.5469],[69.34701,39.55459],[69.35527,39.56839],[69.35359,39.57595],[69.35953,39.59594],[69.33969,39.60052],[69.33836,39.60444],[69.34456,39.62252],[69.33374,39.62841],[69.32925,39.63547],[69.3313,39.64328],[69.32771,39.65694],[69.3234,39.65792],[69.319,39.66615],[69.31971,39.6822],[69.33644,39.69928],[69.32458,39.72151],[69.30994,39.73135],[69.2971,39.74698],[69.28823,39.75274],[69.29033,39.76347],[69.28639,39.77076],[69.29131,39.77893],[69.28257,39.779],[69.28335,39.78898],[69.2789,39.79027],[69.27833,39.80345],[69.26437,39.80672],[69.26799,39.82564],[69.2704,39.82739],[69.27552,39.82242],[69.28396,39.8268],[69.2857,39.8296],[69.28237,39.83631],[69.30276,39.84645],[69.29693,39.86546],[69.29952,39.87488],[69.31344,39.87127],[69.3261,39.87419],[69.31321,39.8897],[69.30652,39.90489],[69.29758,39.91169],[69.29453,39.91963],[69.31509,39.9381],[69.31651,39.95095],[69.33039,39.95102],[69.33526,39.95856],[69.34307,39.95649],[69.34231,39.9687],[69.35612,39.96856],[69.35785,39.98933],[69.35163,40.0068],[69.34008,40.01924],[69.34609,40.02226],[69.35748,40.01514],[69.36866,40.00254],[69.37164,39.9941],[69.38638,39.99231],[69.39292,40.00006],[69.39966,39.99958],[69.42606,39.98224],[69.43252,39.97533],[69.42962,39.96029],[69.43388,39.94939],[69.42902,39.93626],[69.43048,39.9238],[69.44525,39.9292],[69.44586,39.93717],[69.4514,39.93622],[69.45653,39.93422],[69.45793,39.91945],[69.46182,39.91377],[69.47458,39.92251],[69.47908,39.93186],[69.50394,39.94299],[69.51196,39.94363],[69.52405,39.94296],[69.53806,39.93131],[69.54238,39.9409],[69.53495,39.95585],[69.52897,39.95794],[69.5245,39.9695],[69.49735,39.98603],[69.4974,39.99152],[69.48786,40.00097],[69.49202,40.00832],[69.50836,40.02252],[69.50702,40.03962],[69.51433,40.05917],[69.5217,40.06863],[69.51013,40.07711],[69.5115,40.08163],[69.51953,40.0929],[69.53449,40.09691],[69.52888,40.12237],[69.56244,40.11726],[69.56601,40.10303],[69.58527,40.10189],[69.60906,40.11271],[69.65065,40.12268],[69.67551,40.12231],[69.68193,40.11603],[69.68192,40.10956],[69.68567,40.11136],[69.68843,40.1287],[69.73933,40.15583],[69.76402,40.15105],[69.79536,40.15602],[69.79366,40.17444],[69.78984,40.17369],[69.78864,40.18003],[69.90507,40.20659],[69.95027,40.2113],[69.97438,40.22291],[69.99655,40.22622],[70.00664,40.23323],[70.0175,40.23184],[70.05626,40.2119],[70.17266,40.14636],[70.18388,40.16039],[70.19039,40.16485],[70.19551,40.16221],[70.19905,40.15748],[70.20065,40.13193],[70.20449,40.12903],[70.22115,40.1292],[70.24014,40.12358],[70.2526,40.12586],[70.26407,40.12404],[70.28808,40.13026],[70.30276,40.11892],[70.317,40.11691],[70.35106,40.10237],[70.35438,40.08232],[70.4045,40.07702],[70.41981,40.06748],[70.41755,40.06075],[70.42193,40.0582],[70.44168,40.05288],[70.46447,40.05758],[70.47221,40.04908],[70.48516,40.05251],[70.51112,40.04974],[70.528,40.05414],[70.53358,40.04519],[70.52966,40.04041],[70.53353,40.0323],[70.55469,40.04416],[70.57822,40.02004],[70.58217,40.0029],[70.5762,39.99733],[70.5607,39.99625],[70.5596,39.99202],[70.54964,39.99048],[70.54867,39.98711],[70.55323,39.98513],[70.56212,39.98563],[70.55729,39.98199],[70.51493,39.96951],[70.51429,39.96557],[70.52849,39.9641],[70.53393,39.95596],[70.54048,39.9559],[70.54493,39.95065],[70.55161,39.95389],[70.56518,39.95426],[70.57946,39.96354],[70.58559,39.96238],[70.60129,39.97705],[70.6136,39.97883],[70.62166,39.98585],[70.61824,40.0063],[70.63746,40.0185],[70.63868,40.02459],[70.63623,40.03428],[70.62973,40.03965],[70.62871,40.04453],[70.63387,40.05214],[70.6326,40.06079],[70.64185,40.06205],[70.65332,40.09974],[70.7079,40.11027],[70.77071,40.1166],[70.7771,40.12419],[70.79207,40.12774],[70.79838,40.13285],[70.80286,40.17912],[70.83157,40.18915],[70.82746,40.17095],[70.83229,40.16125],[70.85709,40.16848],[70.85964,40.16475],[70.88224,40.18754],[70.98106,40.21959],[70.98541,40.22198],[70.98032,40.24269],[70.97508,40.25011],[70.97666,40.25718],[70.96091,40.26765],[70.95912,40.28524],[70.96392,40.28851],[70.9877,40.28702],[71.01892,40.29623],[71.03687,40.28665],[71.07451,40.29541],[71.12674,40.33538],[71.15228,40.33359],[71.22923,40.34038],[71.24995,40.33153],[71.24433,40.32776],[71.24445,40.32401],[71.27376,40.34362],[71.28234,40.34161],[71.3009,40.33079],[71.29303,40.32565],[71.2985,40.31507],[71.31069,40.30721],[71.32398,40.31801],[71.33549,40.31704],[71.33428,40.31407],[71.33666,40.3133],[71.34662,40.31504],[71.34593,40.31789],[71.35258,40.32035],[71.35817,40.31651],[71.36989,40.31827],[71.37648,40.31425],[71.36728,40.30627],[71.3901,40.30919],[71.42898,40.28378],[71.47956,40.27488],[71.49142,40.27982],[71.50196,40.27687],[71.51018,40.27059],[71.51262,40.26362],[71.51143,40.24418],[71.51749,40.23898],[71.51289,40.2309],[71.51764,40.22707],[71.56469,40.21647],[71.59283,40.21777],[71.59395,40.21241],[71.61919,40.2071],[71.62094,40.21334],[71.61857,40.2179],[71.62689,40.21523],[71.62869,40.21758],[71.61974,40.23794],[71.6201,40.26716],[71.6292,40.2678],[71.63305,40.26434],[71.64904,40.27022],[71.66794,40.27089],[71.68078,40.26443],[71.68073,40.25627],[71.69424,40.24834],[71.70063,40.23741],[71.6943,40.22468],[71.70433,40.20549],[71.70201,40.20368],[71.69991,40.20753],[71.69302,40.20525],[71.69608,40.19354],[71.68071,40.19679],[71.68331,40.19416],[71.68127,40.18907],[71.68904,40.18724],[71.699,40.17924],[71.71069,40.17717],[71.70949,40.17406],[71.7153,40.17371],[71.72184,40.1625],[71.71989,40.15436],[71.72506,40.15422],[71.72845,40.14909],[71.73153,40.15002],[71.73514,40.16261],[71.75029,40.16989],[71.75599,40.1785],[71.77804,40.18019],[71.80308,40.19317],[71.81383,40.2047],[71.83194,40.20583],[71.83661,40.21043],[71.83133,40.21848],[71.82853,40.24102],[71.83163,40.24585],[71.83859,40.24815],[71.84117,40.25377],[71.8845,40.26259],[71.88631,40.2601],[71.92134,40.25466],[71.92629,40.25251],[71.92703,40.24198],[71.94514,40.23774],[71.96319,40.24075],[71.96694,40.24477],[71.93989,40.25013],[71.94931,40.25613],[71.9785,40.25631],[71.99024,40.26828],[72.00463,40.27567],[72.02472,40.26395],[72.02805,40.26492],[72.02445,40.26834],[72.05014,40.27691],[72.05256,40.2802],[72.05133,40.28699],[72.04337,40.29073],[71.99371,40.29762],[71.97267,40.30887],[71.97201,40.31229],[71.96155,40.31893],[72.04839,40.37087],[72.04457,40.37744],[72.06121,40.3858],[72.06648,40.39545],[72.0891,40.40502],[72.08862,40.40813],[72.0921,40.40867],[72.09812,40.41952],[72.10771,40.42106],[72.11314,40.42707],[72.1127,40.42932],[72.1034,40.42972],[72.10147,40.4393],[72.12186,40.45727],[72.13016,40.45674],[72.12814,40.45973],[72.15919,40.48324],[72.17218,40.48575],[72.17249,40.49468],[72.1761,40.49508],[72.17656,40.49252],[72.18615,40.49594],[72.18752,40.48541],[72.19337,40.48146],[72.19873,40.48151],[72.20037,40.48694],[72.24192,40.48306],[72.24413,40.48581],[72.25387,40.48036],[72.2434,40.46036],[72.27198,40.45098],[72.27338,40.4391],[72.27814,40.43399],[72.30133,40.43675],[72.31208,40.44546],[72.31929,40.43815],[72.35924,40.41361],[72.36548,40.4028],[72.38599,40.39743],[72.41112,40.39757],[72.41559,40.40207],[72.40442,40.41701],[72.40438,40.42192],[72.41709,40.44897],[72.42199,40.45403],[72.43229,40.45462],[72.43163,40.46645],[72.43721,40.48024],[72.42434,40.48566],[72.41942,40.50398],[72.4149,40.50847],[72.3937,40.50704],[72.37858,40.51193],[72.37869,40.51624],[72.3842,40.51865],[72.38242,40.52238],[72.40535,40.52601],[72.40875,40.53323],[72.42178,40.53761],[72.42441,40.54196],[72.4197,40.54292],[72.42001,40.54925],[72.41578,40.55632],[72.41916,40.56223],[72.40932,40.56141],[72.39002,40.56598],[72.38908,40.57016],[72.3965,40.57397],[72.37257,40.58014],[72.3656,40.58809],[72.34455,40.60113],[72.34982,40.60396],[72.38324,40.60155],[72.3864,40.61339],[72.40793,40.61799],[72.41361,40.6155],[72.41555,40.60954],[72.43114,40.60134],[72.45019,40.57302],[72.47489,40.55178],[72.48262,40.55302],[72.49274,40.56934],[72.49944,40.57002],[72.51171,40.55469],[72.51134,40.55052],[72.51801,40.54604],[72.56641,40.53581],[72.57582,40.54084],[72.58725,40.53242],[72.58678,40.52999],[72.60666,40.52355],[72.61024,40.51569],[72.6549,40.51029],[72.66939,40.52335],[72.67083,40.53764],[72.66813,40.55411],[72.6593,40.55992],[72.6733,40.56489],[72.6731,40.56849],[72.66804,40.5784],[72.66199,40.58246],[72.67014,40.58955],[72.69244,40.59727],[72.70225,40.59116],[72.70071,40.58848],[72.71748,40.58972],[72.73482,40.58214],[72.73898,40.58424],[72.74757,40.5803],[72.74483,40.57458],[72.75069,40.57121],[72.75414,40.57406],[72.76025,40.57274],[72.76089,40.57729],[72.75663,40.57946],[72.74891,40.59718],[72.75031,40.61004],[72.76114,40.62681],[72.77662,40.63953],[72.78116,40.64779],[72.79108,40.65371],[72.78571,40.66637],[72.79914,40.6731],[72.80136,40.67736],[72.84695,40.67272],[72.86563,40.70072],[72.85826,40.70087],[72.85958,40.70729],[72.85322,40.70823],[72.85323,40.71234],[72.87297,40.71132],[72.91676,40.72337],[72.93395,40.73118],[72.94651,40.73215],[72.96716,40.75035],[72.99105,40.76466],[73.02003,40.76775],[73.03684,40.76467],[73.0577,40.76693],[73.06361,40.76315],[73.06472,40.7686],[73.09454,40.77024],[73.11795,40.78349],[73.1363,40.7844],[73.1403,40.78953],[73.13978,40.80804],[73.14562,40.81522],[73.14308,40.81856],[73.1481,40.82341],[73.14823,40.83022],[73.12308,40.84072],[73.11824,40.83635],[73.10635,40.84308],[73.06203,40.84111],[73.04355,40.84686],[73.03096,40.83905],[73.02164,40.8465],[73.00555,40.8397],[73.00023,40.84271],[72.99297,40.83048],[72.98099,40.8295],[72.97614,40.81974],[72.96471,40.82101],[72.9576,40.8144],[72.95724,40.8034],[72.93912,40.80054],[72.91511,40.80704],[72.90035,40.81542],[72.90017,40.82212],[72.89024,40.83317],[72.86624,40.84683],[72.83474,40.85765],[72.81236,40.85372],[72.79851,40.85512],[72.76759,40.8444],[72.73786,40.84162],[72.71322,40.84577],[72.6873,40.84543],[72.66873,40.8495],[72.63939,40.86148],[72.59164,40.86471],[72.5725,40.87322],[72.57347,40.87983],[72.58579,40.89145],[72.59297,40.90531],[72.56431,40.93885],[72.55699,40.95481],[72.54979,40.95745],[72.55153,40.96196],[72.54476,40.96563],[72.54066,40.96241],[72.53171,40.96137],[72.52896,40.96372],[72.5252,40.95957],[72.52103,40.96191],[72.52494,40.96602],[72.52012,40.96924],[72.50756,40.96848],[72.50556,40.97096],[72.49936,40.96726],[72.4907,40.97006],[72.48793,40.97472],[72.50052,40.98368],[72.49623,40.98852],[72.48562,40.99097],[72.48799,41.00104],[72.45397,41.02649],[72.44411,41.0319],[72.42603,41.03461],[72.41671,41.0267],[72.39286,41.02765],[72.38145,41.03152],[72.37728,41.04111],[72.36184,41.04343],[72.34758,41.0601],[72.34007,41.04545],[72.32965,41.03919],[72.33029,41.03687],[72.31492,41.03054],[72.29411,41.02981],[72.27824,41.01555],[72.26602,41.01164],[72.25982,41.00591],[72.24855,41.00234],[72.24211,41.00525],[72.23874,41.00223],[72.18806,40.99781],[72.17164,40.98852],[72.17157,40.99508],[72.15935,41.00527],[72.16208,41.01295],[72.18245,41.00677],[72.19751,41.03087],[72.20845,41.02843],[72.2098,41.0504],[72.20735,41.0617],[72.20333,41.06444],[72.20172,41.07305],[72.19328,41.08688],[72.19031,41.10231],[72.17967,41.10642],[72.17879,41.1165],[72.15001,41.12527],[72.15292,41.1387],[72.16514,41.14461],[72.177,41.15664],[72.16852,41.16433],[72.15226,41.15968],[72.1379,41.1625],[72.12076,41.15433],[72.10663,41.15281],[72.09758,41.14507],[72.09347,41.13555],[72.07111,41.11712],[72.04899,41.13217],[72.0152,41.14135],[72.01098,41.14548],[72.01143,41.1559],[71.9594,41.15527],[71.94899,41.14588],[71.94251,41.14535],[71.93507,41.15162],[71.91789,41.15612],[71.914,41.16044],[71.90514,41.15928],[71.8868,41.16725],[71.88366,41.1729],[71.89109,41.1835],[71.88522,41.19709],[71.88481,41.20819],[71.89569,41.21584],[71.89532,41.22001],[71.90761,41.2361],[71.9015,41.25528],[71.89714,41.25922],[71.90806,41.27766],[71.92509,41.29407],[71.90038,41.30898],[71.8911,41.32118],[71.88025,41.3385],[71.89538,41.34298],[71.891,41.34838],[71.89199,41.3521],[71.88361,41.35686],[71.88253,41.36198],[71.87811,41.36232],[71.86556,41.34943],[71.83832,41.35508],[71.83413,41.36147],[71.84088,41.37385],[71.83086,41.37692],[71.83139,41.38725],[71.81299,41.39284],[71.80815,41.40119],[71.80532,41.39963],[71.79368,41.41396],[71.78984,41.44187],[71.781,41.44449],[71.77424,41.43668],[71.76465,41.43562],[71.76616,41.42136],[71.75347,41.41762],[71.74134,41.42292],[71.73376,41.43344],[71.72615,41.4365],[71.71879,41.43202],[71.72147,41.42981],[71.71982,41.42537],[71.71059,41.4204],[71.7049,41.41819],[71.69745,41.42162],[71.69479,41.42557],[71.69543,41.43802],[71.69879,41.4439],[71.69694,41.44603],[71.70782,41.45692],[71.71752,41.46046],[71.72198,41.46705],[71.71365,41.47973],[71.71277,41.49218],[71.72805,41.49319],[71.724,41.50199],[71.73009,41.50476],[71.72843,41.5088],[71.73217,41.51513],[71.72097,41.5234],[71.73979,41.53215],[71.73571,41.54397],[71.7257,41.54869],[71.71705,41.54864],[71.70375,41.53241],[71.67677,41.51632],[71.6696,41.49745],[71.6599,41.49211],[71.65794,41.48684],[71.62418,41.48893],[71.60154,41.47665],[71.66223,41.45198],[71.67207,41.44364],[71.68065,41.42206],[71.67869,41.41594],[71.67147,41.41142],[71.66496,41.40134],[71.65056,41.39846],[71.65096,41.393],[71.6591,41.38957],[71.6621,41.38277],[71.6445,41.35464],[71.63927,41.35248],[71.63467,41.3412],[71.61064,41.3348],[71.59778,41.31649],[71.59779,41.31131],[71.58098,41.29937],[71.57903,41.30234],[71.56911,41.29309],[71.55575,41.29626],[71.54637,41.30467],[71.53654,41.29413],[71.5252,41.29429],[71.51671,41.30716],[71.49889,41.29671],[71.48722,41.2937],[71.48215,41.29621],[71.46544,41.29579],[71.44453,41.28389],[71.44462,41.28033],[71.44967,41.28104],[71.45285,41.27645],[71.4504,41.26854],[71.45669,41.26593],[71.4566,41.26288],[71.4474,41.25789],[71.44256,41.24834],[71.45198,41.24237],[71.45364,41.23583],[71.44761,41.22633],[71.45695,41.22084],[71.46047,41.21397],[71.45878,41.20697],[71.43085,41.18955],[71.43002,41.18497],[71.43651,41.17649],[71.43737,41.16997],[71.44114,41.17214],[71.44942,41.16483],[71.45154,41.15691],[71.4323,41.13276],[71.39601,41.10749],[71.38774,41.12088],[71.37875,41.11992],[71.38138,41.12598],[71.37074,41.1251],[71.36184,41.12865],[71.32363,41.1209],[71.3035,41.10932],[71.29383,41.10762],[71.28869,41.12005],[71.28976,41.13683],[71.27856,41.13303],[71.27447,41.14281],[71.27403,41.17688],[71.25965,41.18327],[71.24983,41.1822],[71.23839,41.19206],[71.23515,41.19132],[71.23655,41.18221],[71.22856,41.1805],[71.20447,41.19358],[71.19452,41.19551],[71.17704,41.18875],[71.16583,41.17684],[71.16137,41.18105],[71.15615,41.18026],[71.14542,41.16986],[71.1475,41.16074],[71.12459,41.14201],[71.12282,41.1449],[71.11519,41.14343],[71.10451,41.15551],[71.09932,41.15449],[71.08331,41.16875],[71.07885,41.16803],[71.07086,41.1774],[71.04914,41.18139],[71.03899,41.19044],[70.98933,41.17715],[70.98248,41.16876],[70.96792,41.16654],[70.96591,41.16284],[70.94301,41.17358],[70.93471,41.19045],[70.92443,41.19281],[70.88892,41.21418],[70.87701,41.23302],[70.85482,41.24993],[70.83278,41.24995],[70.8233,41.2408],[70.80104,41.23053],[70.79599,41.22398],[70.79689,41.21271],[70.78717,41.19536],[70.78345,41.19743],[70.77583,41.21575],[70.77264,41.23589],[70.77481,41.25443],[70.77233,41.26194],[70.76863,41.26251],[70.77072,41.26903],[70.76743,41.2737],[70.77537,41.27731],[70.77735,41.28381],[70.77515,41.2861],[70.77958,41.29226],[70.77606,41.29581],[70.77761,41.29914],[70.77022,41.30217],[70.76945,41.3082],[70.77713,41.31267],[70.77659,41.31612],[70.78511,41.32476],[70.78466,41.32839],[70.77752,41.3294],[70.77638,41.33305],[70.7807,41.33732],[70.77951,41.34434],[70.78479,41.3529],[70.77981,41.35638],[70.78011,41.36527],[70.77707,41.36967],[70.78032,41.37909],[70.77872,41.38844],[70.75612,41.40506],[70.75125,41.41513],[70.74118,41.41944],[70.74262,41.42166],[70.73359,41.42925],[70.73325,41.43478],[70.71814,41.44568],[70.71589,41.45494],[70.72269,41.46473],[70.72,41.46569],[70.70039,41.46595],[70.68692,41.47209],[70.67511,41.46921],[70.66907,41.47118],[70.64837,41.45816],[70.61994,41.45954],[70.60752,41.45222],[70.59358,41.45715],[70.59121,41.44585],[70.5861,41.44291],[70.56927,41.44247],[70.56717,41.42618],[70.55368,41.42169],[70.54886,41.40841],[70.53441,41.40898],[70.51296,41.39852],[70.50418,41.40285],[70.49457,41.39685],[70.46938,41.40895],[70.46967,41.41622],[70.46419,41.42638],[70.45109,41.4327],[70.43888,41.44711],[70.41979,41.45359],[70.41105,41.46027],[70.40683,41.46975],[70.39649,41.47123],[70.381,41.4664],[70.37205,41.47794],[70.36968,41.487],[70.363,41.49291],[70.34886,41.49266],[70.33763,41.49992],[70.32377,41.50111],[70.31271,41.50847],[70.30511,41.51879],[70.29401,41.51925],[70.27495,41.5115],[70.27029,41.49953],[70.2392,41.49151],[70.22869,41.49163],[70.21903,41.49621],[70.21208,41.5042],[70.18928,41.50743],[70.16924,41.51649],[70.17557,41.52518],[70.18058,41.52645],[70.18451,41.54253],[70.18763,41.54487],[70.17927,41.55753],[70.18806,41.56176],[70.18948,41.56837],[70.20967,41.57448],[70.21614,41.59528],[70.20864,41.60413],[70.21068,41.61134],[70.22734,41.61058],[70.24415,41.6163],[70.26555,41.60777],[70.28039,41.62013],[70.29212,41.62168],[70.29973,41.63019],[70.30932,41.63397],[70.34102,41.63856],[70.36662,41.64733],[70.39709,41.68454],[70.41235,41.6913],[70.41965,41.69032],[70.43648,41.70051],[70.45012,41.70266],[70.46676,41.72083],[70.49804,41.72046],[70.5059,41.73675],[70.50503,41.74373],[70.50843,41.74689],[70.50439,41.75036],[70.50886,41.76146],[70.50926,41.77286],[70.52752,41.79863],[70.53325,41.79759],[70.55143,41.80418],[70.5539,41.80764],[70.56895,41.81077],[70.57653,41.81943],[70.596,41.81786],[70.59838,41.81983],[70.59726,41.83476],[70.60247,41.85013],[70.61406,41.85345],[70.62723,41.85179],[70.63042,41.85928],[70.6396,41.86792],[70.63966,41.87204],[70.64731,41.87507],[70.64838,41.88199],[70.65394,41.88392],[70.66225,41.89444],[70.6606,41.89946],[70.66514,41.90717],[70.67224,41.9078],[70.67827,41.91358],[70.72115,41.92087],[70.75129,41.91247],[70.75617,41.91492],[70.7581,41.9366],[70.76665,41.93592],[70.77289,41.92871],[70.78106,41.92663],[70.79166,41.9292],[70.80823,41.92064],[70.81447,41.92681],[70.83485,41.92316],[70.8439,41.93219],[70.84587,41.93879],[70.85393,41.9414],[70.85254,41.94847],[70.85664,41.95268],[70.85229,41.95809],[70.84837,41.97477],[70.85299,41.98623],[70.8517,41.98985],[70.8381,41.99964],[70.8469,42.01874],[70.85943,42.02654],[70.85575,42.04],[70.86222,42.04356],[70.86067,42.04808],[70.86611,42.05403],[70.87979,42.04606],[70.88474,42.04623],[70.88874,42.05217],[70.89566,42.04907],[70.90035,42.0408],[70.91495,42.04165],[70.94225,42.03114],[70.97841,42.03329],[70.9922,42.03009],[71.00202,42.04381],[71.01344,42.05242],[71.00687,42.05737],[71.01596,42.06154],[71.02465,42.06132],[71.02888,42.06678],[71.04136,42.06256],[71.0485,42.08034],[71.05951,42.08525],[71.06513,42.08412],[71.08373,42.09409],[71.09966,42.09422],[71.10378,42.1137],[71.10752,42.1158],[71.11996,42.11208],[71.13126,42.11733],[71.14112,42.134],[71.15295,42.13051],[71.17337,42.14302],[71.19489,42.1435],[71.20001,42.13754],[71.20647,42.1372],[71.21014,42.13356],[71.22228,42.13914],[71.22522,42.144],[71.22079,42.14836],[71.23832,42.15339],[71.24817,42.16619],[71.25919,42.16771],[71.25955,42.17145],[71.25012,42.18218],[71.25657,42.18352],[71.26243,42.19293],[71.26872,42.19596],[71.26507,42.20099],[71.26795,42.20415],[71.25088,42.21083],[71.24552,42.21833],[71.24478,42.22757],[71.23342,42.22869],[71.2256,42.22312],[71.21452,42.22216],[71.20735,42.22515],[71.20506,42.22731],[71.2087,42.23697],[71.19867,42.2434],[71.19297,42.2404],[71.17827,42.25134],[71.17017,42.25298],[71.16539,42.25928],[71.15179,42.26331],[71.13303,42.28226],[71.12381,42.28295],[71.12238,42.27822],[71.10993,42.27328],[71.08577,42.28413],[71.07566,42.28378],[71.06442,42.2947],[71.03872,42.29032],[71.02708,42.29384],[71.01858,42.28155],[71.0085,42.27823],[71.00423,42.26986],[71.00676,42.26672],[71.00384,42.25945],[70.992,42.2533],[70.96302,42.256],[70.93421,42.26945],[70.92161,42.26694],[70.91406,42.26124],[70.90385,42.26139],[70.89158,42.26323],[70.8957,42.27294],[70.89213,42.28099],[70.87549,42.29024],[70.86657,42.29966],[70.87072,42.30984],[70.86608,42.31995],[70.87303,42.32628],[70.88142,42.32761],[70.88668,42.33561],[70.88247,42.34745],[70.89423,42.3636],[70.89871,42.36662],[70.91007,42.36543],[70.91755,42.37017],[70.92205,42.37774],[70.93287,42.38341],[70.93302,42.39121],[70.95233,42.39872],[70.93651,42.41149],[70.93119,42.42122],[70.94216,42.42393],[70.95326,42.4316],[70.9585,42.4443],[70.95962,42.45791],[70.96386,42.46134],[70.96618,42.47158],[70.97944,42.48781],[70.98008,42.49669],[71.06958,42.47448],[71.08997,42.48416],[71.04417,42.53448],[71.00092,42.55925],[71.00208,42.58747],[71.05242,42.59949],[71.09875,42.59991],[71.15673,42.60533],[71.16027,42.59337],[71.16295,42.59308],[71.17976,42.61034],[71.18226,42.61775],[71.17765,42.62463],[71.18261,42.63729],[71.18293,42.64845],[71.17994,42.65576],[71.18169,42.66383],[71.17714,42.66723],[71.17812,42.67331],[71.20179,42.6767],[71.20732,42.68212],[71.21949,42.68496],[71.22422,42.69239],[71.22828,42.69126],[71.22985,42.69553],[71.23499,42.69667],[71.24455,42.71064],[71.25284,42.71374],[71.25406,42.72176],[71.26686,42.72779],[71.26851,42.73398],[71.26588,42.73845],[71.27487,42.74175],[71.27567,42.74485],[71.27411,42.75592],[71.2652,42.77214],[71.33279,42.75614],[71.34561,42.76714],[71.36952,42.7622],[71.38196,42.79827],[71.42105,42.79651],[71.46619,42.78513],[71.49847,42.79507],[71.50824,42.79177],[71.53454,42.80149],[71.54164,42.80832],[71.54936,42.80276],[71.55043,42.79496],[71.56484,42.78085],[71.56965,42.77804],[71.58012,42.78528],[71.5885,42.77867],[71.59184,42.78036],[71.59861,42.77229],[71.65197,42.79403],[71.68163,42.81712],[71.69282,42.81871],[71.71257,42.81003],[71.74892,42.81477],[71.75293,42.81935],[71.76035,42.81623],[71.77144,42.81664],[71.7773,42.81881],[71.77914,42.82296],[71.79926,42.8281],[71.81336,42.83605],[71.83457,42.83572],[71.8373,42.83902],[71.84554,42.83349],[71.86323,42.83001],[71.87701,42.83433],[71.88881,42.82971],[71.88816,42.82578],[71.89251,42.82083],[71.89585,42.8226],[71.91087,42.81804],[71.91865,42.82265],[71.94802,42.81533],[71.95588,42.80616],[71.96085,42.80749],[71.97162,42.8022],[71.97941,42.80496],[71.98936,42.79576],[71.98504,42.78686],[71.99502,42.78033],[72.0033,42.77906],[72.01153,42.78395],[72.03196,42.77732],[72.06648,42.77539],[72.0801,42.75838],[72.08582,42.75725],[72.08639,42.75106],[72.09633,42.74535],[72.11328,42.74618],[72.13804,42.73867],[72.14877,42.73971],[72.15788,42.74931],[72.16366,42.74907],[72.17754,42.75804],[72.18702,42.75685],[72.19107,42.75069],[72.19673,42.75046],[72.20714,42.75324],[72.2144,42.75962],[72.22315,42.75882],[72.23217,42.7634],[72.23784,42.75995],[72.24275,42.76146],[72.24797,42.76711],[72.25932,42.76428],[72.26237,42.75807],[72.2942,42.75881],[72.30773,42.75052],[72.31783,42.75106],[72.31944,42.74719],[72.32959,42.74491],[72.35724,42.74471],[72.36538,42.73696],[72.38405,42.73345],[72.3999,42.72135],[72.40533,42.72262],[72.41255,42.71827],[72.42397,42.72104],[72.42461,42.71377],[72.43894,42.70427],[72.44862,42.70474],[72.45688,42.70273],[72.45788,42.69851],[72.46862,42.69715],[72.48249,42.69011],[72.49718,42.67417],[72.50792,42.67057],[72.51684,42.67339],[72.52109,42.6837],[72.54431,42.67865],[72.56858,42.68457],[72.58692,42.68529],[72.60824,42.68213],[72.61373,42.67673],[72.62935,42.67789],[72.6355,42.67257],[72.64183,42.67568],[72.65181,42.672],[72.65554,42.66567],[72.66367,42.66373],[72.67221,42.65682],[72.69473,42.65033],[72.70088,42.65209],[72.71878,42.64316],[72.73639,42.64598],[72.74458,42.63774],[72.75546,42.63375],[72.758,42.62952],[72.75624,42.62528],[72.76598,42.61244],[72.78029,42.60779],[72.78136,42.60008],[72.79166,42.59579],[72.80261,42.58605],[72.80902,42.57665],[72.80828,42.5719],[72.82489,42.5589],[72.83277,42.55583],[72.85842,42.55504],[72.87095,42.55956],[72.89226,42.54106],[72.91069,42.53611],[72.93777,42.53719],[72.98747,42.53037],[73.02214,42.53889],[73.04883,42.53374],[73.06804,42.53404],[73.08512,42.54179],[73.09551,42.53884],[73.1091,42.5419],[73.11609,42.53799],[73.11957,42.53978],[73.13426,42.53646],[73.14361,42.53041],[73.15241,42.53361],[73.1658,42.52869],[73.17715,42.53049],[73.186,42.5243],[73.20457,42.5235],[73.22626,42.51588],[73.22945,42.523],[73.25421,42.51889],[73.26603,42.51265],[73.30267,42.51109],[73.30794,42.50136],[73.30582,42.49375],[73.30982,42.47947],[73.3065,42.47427],[73.30833,42.45834],[73.30529,42.44903],[73.31141,42.44138],[73.32266,42.4432],[73.33019,42.43516],[73.35527,42.42591],[73.36402,42.42875],[73.38607,42.42084],[73.39732,42.42824],[73.43001,42.4223],[73.44178,42.42534],[73.46704,42.40958],[73.48193,42.41119],[73.50014,42.41672],[73.50615,42.42209],[73.51097,42.41886],[73.51802,42.42016],[73.51642,42.43539],[73.49832,42.45888],[73.47508,42.46561],[73.45945,42.49168],[73.44173,42.50602],[73.43332,42.51777],[73.43439,42.52912],[73.4247,42.54646],[73.42823,42.55352],[73.41754,42.56905],[73.42712,42.58941],[73.4264,42.60104],[73.42041,42.61316],[73.42423,42.62339],[73.42332,42.64108],[73.43088,42.64546],[73.43572,42.65731],[73.44314,42.66568],[73.44826,42.68007],[73.44554,42.68691],[73.45524,42.70243],[73.45807,42.71487],[73.4634,42.7191],[73.46635,42.73126],[73.4791,42.74561],[73.48693,42.74974],[73.50264,42.77178],[73.51206,42.82692],[73.50975,42.84618],[73.51225,42.85107],[73.50744,42.86251],[73.50873,42.87006],[73.50465,42.87503],[73.5045,42.88626],[73.49424,42.89421],[73.49482,42.90379],[73.49837,42.90713],[73.495,42.91575],[73.50908,42.9316],[73.53413,42.94398],[73.54823,42.9665],[73.53865,42.97485],[73.53982,42.9809],[73.53702,42.98531],[73.5395,42.99174],[73.53547,43.00694],[73.54521,43.02833],[73.61532,43.04926],[73.639,43.0594],[73.69149,43.07352],[73.76054,43.10557],[73.79502,43.1133],[73.82571,43.12858],[73.83028,43.12862],[73.83847,43.1178],[73.90553,43.11004],[73.92055,43.13011],[73.92794,43.14672],[73.94802,43.16426],[73.94664,43.17109],[73.95089,43.17173],[73.95674,43.19515],[73.95303,43.20803],[73.96918,43.2229],[74.01745,43.19368],[74.04193,43.17224],[74.07377,43.18682],[74.16946,43.19806],[74.18967,43.19436],[74.21133,43.19552],[74.22212,43.20529],[74.19287,43.25549],[74.20127,43.26462],[74.20599,43.26285],[74.20991,43.26537],[74.2125,43.25951],[74.22225,43.2571],[74.22969,43.25058],[74.24988,43.25361],[74.25263,43.25169],[74.24551,43.25099],[74.2445,43.24714],[74.2523,43.24908],[74.25763,43.24771],[74.25773,43.24401],[74.26949,43.24229],[74.27953,43.24732],[74.28606,43.2453],[74.28542,43.24245],[74.29596,43.23906],[74.29625,43.23266],[74.30231,43.23056],[74.29384,43.22946],[74.30315,43.22647],[74.30071,43.22026],[74.30693,43.215],[74.31508,43.21799],[74.31772,43.21296],[74.32215,43.21655],[74.33091,43.21584],[74.33046,43.21193],[74.34108,43.20986],[74.34126,43.20125],[74.34488,43.20375],[74.35131,43.20169],[74.35172,43.19819],[74.36568,43.19826],[74.36999,43.19473],[74.38323,43.19692],[74.38759,43.18873],[74.39836,43.19133],[74.40396,43.18641],[74.39723,43.18352],[74.40572,43.1728],[74.412,43.17372],[74.4115,43.17075],[74.41513,43.16881],[74.42409,43.17257],[74.42498,43.16994],[74.42053,43.16873],[74.42158,43.16524],[74.4296,43.16479],[74.4431,43.15705],[74.44766,43.15952],[74.4491,43.15499],[74.45569,43.15433],[74.46003,43.15846],[74.46273,43.15002],[74.47293,43.14302],[74.47493,43.14494],[74.47157,43.14767],[74.4802,43.15549],[74.48546,43.15585],[74.4981,43.15114],[74.49811,43.14325],[74.53202,43.14094],[74.53401,43.1352],[74.55068,43.13822],[74.55348,43.13425],[74.56395,43.13488],[74.56356,43.12848],[74.56869,43.13182],[74.57295,43.12845],[74.57593,43.12983],[74.58882,43.11079],[74.59873,43.10892],[74.59645,43.10305],[74.6075,43.09565],[74.61647,43.08227],[74.63186,43.07936],[74.6372,43.06426],[74.64191,43.06018],[74.66212,43.0526],[74.6717,43.04087],[74.69559,43.03651],[74.72799,43.0031],[74.74955,42.98953],[74.77869,42.99447],[74.78224,42.99929],[74.79358,42.99975],[74.79963,42.99552],[74.80895,42.99672],[74.81418,43.00111],[74.81905,42.9979],[74.82917,42.99828],[74.83386,43.00233],[74.853,42.99947],[74.85654,42.99578],[74.87211,42.99345],[74.87233,42.98822],[74.88043,42.98277],[74.89562,42.98064],[74.89649,42.97731],[74.9038,42.97481],[74.903,42.97125],[74.92007,42.97021],[74.9207,42.96217],[74.93605,42.96358],[74.94542,42.95527],[74.94931,42.95573],[74.94972,42.95242],[74.96032,42.95055],[74.9633,42.94468],[74.98744,42.94291],[74.99225,42.9393],[74.99057,42.937],[75.0023,42.93125],[75.02197,42.92889],[75.03854,42.91833],[75.05349,42.92191],[75.06486,42.91447],[75.08274,42.91396],[75.13631,42.88531],[75.16091,42.87755],[75.19147,42.87389],[75.19813,42.86373],[75.22044,42.85368],[75.24447,42.8547],[75.26021,42.85996],[75.287,42.85795],[75.29655,42.86081],[75.30402,42.85564],[75.31855,42.85225],[75.33589,42.85369],[75.34654,42.84738],[75.36912,42.84848],[75.40063,42.84018],[75.42909,42.84048],[75.44184,42.83599],[75.44693,42.83749],[75.45921,42.83123],[75.48787,42.8408],[75.5246,42.83096],[75.55729,42.82998],[75.61011,42.81463],[75.63472,42.81396],[75.67115,42.80205],[75.71516,42.7956],[75.75545,42.82873],[75.77857,42.83733],[75.78351,42.87794],[75.79103,42.88963],[75.7908,42.89868],[75.7963,42.90916],[75.82476,42.93984],[75.82956,42.94035],[75.8367,42.93514],[75.84861,42.94226],[75.8579,42.94471],[75.85951,42.94212],[75.86773,42.94275],[75.8764,42.94596],[75.8955,42.93951],[75.90416,42.94578],[75.91718,42.948],[75.91864,42.95249],[75.92746,42.95706],[75.95277,42.94133],[75.94811,42.93183],[75.95507,42.9348],[75.9706,42.92557],[75.97771,42.93242],[75.98407,42.92805],[75.99053,42.93014],[76.00012,42.92525],[76.01539,42.92565],[76.01856,42.91348],[76.02616,42.90946],[76.04545,42.91675],[76.04939,42.91272],[76.0522,42.91646],[76.06297,42.91598],[76.07053,42.92162],[76.07972,42.9202],[76.08576,42.91347],[76.09953,42.92395],[76.12161,42.92126],[76.18255,42.93211],[76.19654,42.92969],[76.19849,42.91888],[76.20176,42.91638],[76.22026,42.9215],[76.24154,42.92261],[76.24552,42.91933],[76.26466,42.91985],[76.2884,42.9117],[76.30206,42.91124],[76.30838,42.90375],[76.30781,42.89678],[76.30055,42.89178],[76.30456,42.87432],[76.32338,42.87218],[76.3286,42.86352],[76.34316,42.86122],[76.36063,42.86734],[76.37141,42.86617],[76.39206,42.87602],[76.41882,42.87356],[76.4339,42.87934],[76.43737,42.88563],[76.44192,42.88685],[76.44806,42.88369],[76.46613,42.88722],[76.47694,42.88421],[76.48651,42.88895],[76.4932,42.90375],[76.50303,42.90589],[76.50229,42.91231],[76.50683,42.91924],[76.52267,42.92169],[76.54019,42.91688],[76.54696,42.91102],[76.56965,42.91016],[76.58321,42.90608],[76.59821,42.91137],[76.60224,42.91609],[76.63132,42.90625],[76.65019,42.91303],[76.66049,42.90815],[76.67615,42.90994],[76.68781,42.90591],[76.7089,42.90442],[76.7223,42.90804],[76.73587,42.91774],[76.74981,42.92243],[76.75132,42.93091],[76.75586,42.93598],[76.74886,42.94202],[76.75526,42.95003],[76.78075,42.95655],[76.80201,42.94719],[76.8116,42.95326],[76.82196,42.95532],[76.8366,42.97061],[76.83334,42.97681],[76.83708,42.98344],[76.84458,42.98462],[76.84962,42.9776],[76.85896,42.97721],[76.87077,42.97128],[76.88155,42.97625],[76.8994,42.96761],[76.91179,42.96918],[76.91629,42.966],[76.93273,42.97228],[76.9384,42.98065],[76.95601,42.97909],[76.97113,42.98647],[76.98386,42.98176],[76.99723,42.98508],[77.00429,42.98303],[77.00882,42.96992],[77.02597,42.95292],[77.05319,42.96028],[77.06083,42.96536],[77.06221,42.97721],[77.07606,42.97684],[77.08485,42.98125],[77.10431,42.97471],[77.11746,42.97497],[77.12646,42.96991],[77.13495,42.97346],[77.15436,42.97271],[77.156,42.96927],[77.15241,42.96442],[77.156,42.95594],[77.15063,42.94959],[77.1574,42.94297],[77.17828,42.94733],[77.21261,42.92757],[77.22341,42.92703],[77.22525,42.92363],[77.22219,42.917],[77.22573,42.91476],[77.23555,42.91178],[77.27117,42.91357],[77.29589,42.90729],[77.29622,42.91578],[77.30344,42.9167],[77.31436,42.91167],[77.32274,42.91322],[77.3502,42.89987],[77.39403,42.91489],[77.41828,42.9277],[77.43732,42.92554],[77.45497,42.92896],[77.47171,42.93923],[77.47679,42.9382],[77.48292,42.92543],[77.49763,42.9251],[77.50842,42.92949],[77.5192,42.92885],[77.52546,42.93625],[77.54972,42.94019],[77.56583,42.93584],[77.55925,42.92921],[77.5627,42.92581],[77.57549,42.92507],[77.57969,42.91679],[77.59649,42.9152],[77.60168,42.9181],[77.61317,42.91389],[77.62443,42.91981],[77.6428,42.91764],[77.65751,42.9116],[77.66653,42.91353],[77.67104,42.91839],[77.68896,42.9128],[77.69741,42.90409],[77.71899,42.91014],[77.72993,42.90483],[77.74652,42.90922],[77.76197,42.90547],[77.78068,42.91523],[77.80319,42.90344],[77.81107,42.90228],[77.81613,42.89633],[77.81361,42.89356],[77.81622,42.88788],[77.82196,42.88495],[77.84297,42.88102],[77.85375,42.88805],[77.87417,42.88815],[77.88892,42.87917],[77.89957,42.87826],[77.91072,42.87055],[77.91685,42.87476],[77.92442,42.87408],[77.93369,42.88168],[77.9417,42.87544],[77.94251,42.8604],[77.95317,42.85477],[77.9738,42.85192],[77.98796,42.85936],[77.99914,42.86116],[78.00166,42.87012],[78.02462,42.86437],[78.03348,42.86561],[78.05242,42.84796],[78.06747,42.85163],[78.09248,42.84957],[78.11063,42.86444],[78.14152,42.85684],[78.15946,42.86176],[78.17065,42.85992],[78.17943,42.86581],[78.17623,42.87351],[78.1822,42.87847],[78.19723,42.88242],[78.20819,42.87221],[78.21513,42.86976],[78.22209,42.87704],[78.23412,42.87513],[78.23916,42.87883],[78.24754,42.87169],[78.25734,42.8736],[78.27051,42.8698],[78.27045,42.86499],[78.2751,42.86383],[78.28493,42.86441],[78.30737,42.85753],[78.34968,42.85503],[78.36171,42.86268],[78.36233,42.86798],[78.3696,42.87294],[78.36632,42.876],[78.37005,42.88707],[78.37832,42.8893],[78.39062,42.88099],[78.41083,42.87689],[78.41402,42.87962],[78.43429,42.87952],[78.44294,42.88866],[78.45395,42.88656],[78.46449,42.89647],[78.48198,42.89326],[78.49191,42.90094],[78.49845,42.90013],[78.50462,42.8919],[78.51295,42.88837],[78.52094,42.88906],[78.53621,42.88133],[78.54192,42.87404],[78.54084,42.86914],[78.57511,42.86305],[78.58068,42.85879],[78.58412,42.8496],[78.58899,42.84768],[78.61685,42.85512],[78.62517,42.84629],[78.64417,42.84242],[78.64811,42.83958],[78.64397,42.83552],[78.64641,42.82884],[78.66584,42.81487],[78.68479,42.81691],[78.69457,42.81439],[78.70987,42.82606],[78.72748,42.82176],[78.73274,42.81727],[78.75279,42.81876],[78.7757,42.81491],[78.78619,42.80085],[78.80105,42.80986],[78.8292,42.80528],[78.85239,42.7951],[78.86327,42.80092],[78.86903,42.79673],[78.88757,42.79348],[78.89047,42.78936],[78.90464,42.78894],[78.92999,42.77479],[78.94758,42.77638],[78.96708,42.78276],[78.98188,42.77686],[79.02036,42.77842],[79.02817,42.77451],[79.06605,42.77967],[79.06999,42.78086],[79.07402,42.78895],[79.07302,42.7933],[79.07816,42.79841],[79.08833,42.8065],[79.10603,42.81292],[79.10603,42.80798],[79.09651,42.80113],[79.09791,42.79443],[79.09053,42.79081],[79.09007,42.78315],[79.0948,42.77725],[79.15205,42.79442],[79.19943,42.8044],[79.19102,42.78603],[79.17004,42.75515],[79.17257,42.7374],[79.17001,42.73275],[79.17351,42.71871],[79.17722,42.71761],[79.18279,42.7045],[79.18122,42.70025],[79.18546,42.69125],[79.19932,42.67857],[79.20502,42.66788],[79.24302,42.63601],[79.25054,42.63643],[79.25987,42.62559],[79.2684,42.6254],[79.27133,42.62165],[79.28619,42.62312],[79.29905,42.61994],[79.30338,42.61335],[79.31614,42.60711],[79.31914,42.60228],[79.3449,42.60388],[79.35569,42.59654],[79.38009,42.57748],[79.38233,42.56496],[79.39483,42.55796],[79.39858,42.55067],[79.42306,42.53941],[79.42882,42.51695],[79.44858,42.51226],[79.45183,42.50931],[79.4521,42.50106],[79.47719,42.49317],[79.48137,42.48907],[79.48974,42.48867],[79.5015,42.47154],[79.50329,42.46117],[79.5202,42.457],[79.53037,42.45732],[79.53665,42.46105],[79.54872,42.45796],[79.55417,42.46143],[79.55852,42.4578],[79.58239,42.45924],[79.59468,42.45467],[79.60597,42.4546],[79.61424,42.45876],[79.63744,42.45342],[79.64119,42.46422],[79.65288,42.47506],[79.67256,42.4796],[79.69616,42.47701],[79.70935,42.46861],[79.72265,42.47107],[79.73496,42.46549],[79.74081,42.46625],[79.74769,42.46408],[79.74737,42.45364],[79.75885,42.45235],[79.76942,42.45604],[79.78069,42.45418],[79.78887,42.4469],[79.81287,42.4478],[79.81666,42.44383],[79.83238,42.44269],[79.85597,42.44582],[79.86412,42.4391],[79.87212,42.43748],[79.87857,42.44133],[79.89448,42.44102],[79.89929,42.43762],[79.9203,42.44329],[79.92455,42.43656],[79.94181,42.43906],[79.95314,42.43349],[79.9633,42.43634],[79.96871,42.43357],[79.96444,42.42194],[79.97184,42.40986],[79.96801,42.4016],[79.97556,42.39313],[79.98071,42.37949],[79.99954,42.37895],[80.00101,42.3655],[80.01046,42.36107],[80.0195,42.34846],[80.02909,42.34371],[80.08192,42.33942],[80.08403,42.33309],[80.07965,42.32626],[80.08118,42.32222],[80.10879,42.315],[80.13068,42.30054],[80.14044,42.28929],[80.14191,42.2858],[80.11803,42.27626],[80.17441,42.21084],[80.16555,42.19608],[80.16556,42.16944],[80.14028,42.16943],[80.13903,42.14568],[80.15339,42.13319],[80.15034,42.11635],[80.15902,42.11334],[80.16743,42.09839],[80.18179,42.09242],[80.18766,42.08609],[80.19673,42.08386],[80.20902,42.07297],[80.22798,42.06303],[80.21434,42.05097],[80.20993,42.04275],[80.19872,42.03695],[80.17468,42.03861],[80.1481,42.03557],[80.13905,42.03037],[80.07484,42.0462],[80.06661,42.04388],[80.04261,42.04942],[80.03874,42.0471],[80.02431,42.04859],[80.01733,42.04193],[79.99669,42.04131],[79.97544,42.04591],[79.96881,42.04077],[79.94953,42.04517],[79.92892,42.04029],[79.91353,42.04227],[79.89278,42.03466],[79.87982,42.03435],[79.87746,42.03057],[79.85457,42.02239],[79.84468,42.01351],[79.8475,42.00359],[79.84535,42.00157],[79.85193,41.98576],[79.84888,41.98093],[79.83349,41.97634],[79.83123,41.96962],[79.81873,41.9666],[79.8163,41.9597],[79.81856,41.95101],[79.80258,41.93657],[79.80746,41.9308],[79.80189,41.91976],[79.78967,41.91159],[79.78316,41.90121],[79.76873,41.8918],[79.75343,41.9018],[79.74044,41.90243],[79.7207,41.90114],[79.70515,41.89503],[79.67855,41.89621],[79.63188,41.89254],[79.6334,41.88841],[79.61819,41.87687],[79.62111,41.87177],[79.61533,41.86028],[79.56782,41.84182],[79.55595,41.84398],[79.54777,41.83855],[79.48184,41.83754],[79.48702,41.84416],[79.46449,41.8526],[79.44155,41.84306],[79.4098,41.84098],[79.39194,41.82766],[79.38442,41.81502],[79.36872,41.80908],[79.35407,41.79549],[79.34613,41.7952],[79.33477,41.80588],[79.32277,41.80991],[79.31215,41.80076],[79.30876,41.79346],[79.29593,41.7915],[79.2833,41.77695],[79.27148,41.77464],[79.27389,41.76625],[79.24834,41.757],[79.25088,41.74974],[79.24875,41.74513],[79.22892,41.74115],[79.2301,41.73657],[79.21956,41.73123],[79.21761,41.72598],[79.18667,41.72342],[79.18242,41.72726],[79.1634,41.72876],[79.16256,41.72567],[79.14376,41.72127],[79.12517,41.72304],[79.1159,41.70631],[79.11038,41.7022],[79.09635,41.6999],[79.08292,41.68934],[79.06136,41.68917],[79.04345,41.68018],[79.02838,41.67932],[79.0266,41.67682],[79.02972,41.67167],[79.02538,41.66657],[79.02201,41.66688],[79.02213,41.65932],[79.0181,41.65649],[78.9993,41.65763],[78.99821,41.66068],[78.99027,41.66277],[78.97677,41.65506],[78.9545,41.64922],[78.95057,41.64518],[78.94165,41.64518],[78.9357,41.64029],[78.92797,41.64188],[78.92947,41.63315],[78.91852,41.63],[78.92192,41.62444],[78.9057,41.61289],[78.89106,41.61001],[78.88489,41.60529],[78.88721,41.59975],[78.88471,41.59597],[78.87448,41.59307],[78.85954,41.59763],[78.85182,41.58771],[78.85304,41.58017],[78.84105,41.57781],[78.83661,41.57234],[78.82387,41.57151],[78.82183,41.56461],[78.8155,41.55895],[78.79797,41.55909],[78.78887,41.56242],[78.77795,41.56126],[78.77522,41.55832],[78.74864,41.55654],[78.73767,41.55198],[78.7307,41.55524],[78.71322,41.55333],[78.70141,41.54618],[78.70002,41.54073],[78.68995,41.53051],[78.69467,41.52478],[78.70383,41.52144],[78.6949,41.51596],[78.69242,41.51025],[78.68163,41.51013],[78.66326,41.49925],[78.65448,41.48165],[78.64896,41.47855],[78.65054,41.47388],[78.64595,41.47046],[78.63187,41.47166],[78.62037,41.47687],[78.60737,41.46964],[78.58487,41.46864],[78.57997,41.48066],[78.56779,41.48049],[78.55736,41.47686],[78.55257,41.46875],[78.53901,41.45996],[78.53118,41.44729],[78.532,41.44199],[78.52544,41.43894],[78.51304,41.43983],[78.50682,41.43369],[78.47999,41.42672],[78.44882,41.41318],[78.43639,41.41676],[78.42891,41.41248],[78.42294,41.41543],[78.40489,41.4095],[78.40161,41.41388],[78.39351,41.41248],[78.38912,41.40833],[78.39123,41.40027],[78.38223,41.39208],[78.36076,41.3942],[78.35514,41.39131],[78.33667,41.39532],[78.32051,41.38159],[78.30838,41.39],[78.30077,41.3869],[78.28919,41.3924],[78.27832,41.38863],[78.25374,41.39248],[78.23849,41.4004],[78.22729,41.40114],[78.21827,41.39644],[78.18967,41.39421],[78.17106,41.38738],[78.15521,41.38009],[78.15433,41.37437],[78.14603,41.36763],[78.15615,41.34988],[78.15798,41.34018],[78.14882,41.33024],[78.14735,41.32102],[78.13724,41.31206],[78.13948,41.29349],[78.139,41.28674],[78.13388,41.28594],[78.13277,41.28281],[78.13127,41.25933],[78.13375,41.2462],[78.1299,41.24416],[78.13098,41.23989],[78.12396,41.22956],[78.10465,41.22286],[78.09183,41.22549],[78.08667,41.21953],[78.07757,41.21937],[78.06475,41.21126],[78.05569,41.21394],[78.05183,41.21188],[78.05206,41.2068],[78.03689,41.20076],[78.02993,41.2023],[78.0227,41.19385],[78.01201,41.19111],[77.99647,41.19233],[77.98031,41.18301],[77.97322,41.18158],[77.95973,41.19014],[77.93058,41.18609],[77.9219,41.18806],[77.90125,41.1836],[77.88282,41.1752],[77.87963,41.16783],[77.87139,41.16362],[77.83101,41.15002],[77.81084,41.13195],[77.80204,41.1114],[77.80675,41.07562],[77.82492,41.05925],[77.81187,41.04334],[77.79585,41.0487],[77.77783,41.02996],[77.77893,41.02308],[77.77043,41.02145],[77.76578,41.01486],[77.73044,41.03052],[77.72776,41.02248],[77.7081,41.01384],[77.70182,41.00642],[77.68868,41.00292],[77.66022,41.00221],[77.64698,41.01466],[77.62713,41.00369],[77.61873,41.00339],[77.6057,41.00922],[77.59827,41.00219],[77.58431,41.00266],[77.58349,40.99326],[77.55057,41.00454],[77.54273,40.99961],[77.52358,41.00218],[77.51126,40.996],[77.47258,40.99656],[77.46589,41.00452],[77.46591,41.00906],[77.47293,41.01526],[77.47073,41.0209],[77.45045,41.02246],[77.44302,41.01878],[77.43006,41.01899],[77.42494,41.02492],[77.41316,41.02608],[77.41324,41.03425],[77.40768,41.03809],[77.39971,41.0376],[77.39231,41.03093],[77.3792,41.02879],[77.37494,41.0377],[77.36078,41.03733],[77.35557,41.04009],[77.35237,41.03412],[77.31348,41.01896],[77.31195,41.01212],[77.30723,41.00909],[77.29187,41.0039],[77.27429,41.00289],[77.26234,41.00477],[77.26245,41.01386],[77.2424,41.01462],[77.24005,41.01628],[77.2456,41.02394],[77.22955,41.03031],[77.2059,41.02291],[77.18618,41.02304],[77.1871,41.01554],[77.18344,41.01028],[77.16775,41.01098],[77.14167,41.02048],[77.13896,41.02609],[77.1176,41.0274],[77.10027,41.03798],[77.10766,41.04775],[77.0893,41.05552],[77.08548,41.06195],[77.06937,41.05932],[77.043,41.06235],[77.03224,41.05799],[77.02085,41.05773],[77.01316,41.05851],[77.01303,41.06486],[76.99924,41.07124],[76.99178,41.07133],[76.96534,41.05913],[76.95953,41.04608],[76.9538,41.04458],[76.95311,41.04029],[76.92698,41.02475],[76.8933,41.01724],[76.88245,41.02758],[76.86859,41.02453],[76.86633,41.01513],[76.84745,40.99673],[76.85262,40.97692],[76.84651,40.9734],[76.81817,40.97744],[76.7959,40.96981],[76.79491,40.96314],[76.79114,40.95994],[76.78021,40.96045],[76.75366,40.95096],[76.75039,40.94159],[76.75411,40.93415],[76.74366,40.91991],[76.73899,40.91875],[76.73134,40.90416],[76.73081,40.89897],[76.73451,40.89471],[76.73282,40.89003],[76.73884,40.88705],[76.73944,40.87575],[76.72917,40.86343],[76.72657,40.8548],[76.73125,40.84406],[76.71791,40.84259],[76.71736,40.83194],[76.72127,40.82016],[76.72596,40.81731],[76.71069,40.81218],[76.70126,40.78766],[76.69313,40.78188],[76.68466,40.77694],[76.66796,40.78336],[76.66848,40.77387],[76.65493,40.7708],[76.64073,40.76192],[76.64356,40.75523],[76.63991,40.74844],[76.64742,40.73534],[76.64584,40.72578],[76.64916,40.71815],[76.66603,40.70691],[76.66764,40.69732],[76.67263,40.69428],[76.66848,40.68812],[76.65451,40.68004],[76.6582,40.66441],[76.64989,40.65731],[76.64759,40.64843],[76.65323,40.63499],[76.65423,40.6218],[76.63727,40.61307],[76.62792,40.61461],[76.61154,40.6107],[76.60408,40.60358],[76.60479,40.59222],[76.59854,40.58679],[76.5963,40.57853],[76.57387,40.5674],[76.55204,40.54548],[76.55123,40.53267],[76.53191,40.50866],[76.54027,40.50366],[76.5404,40.49087],[76.53513,40.48776],[76.53794,40.47377],[76.53523,40.46758],[76.53797,40.46498],[76.50829,40.44692],[76.50442,40.44124],[76.50496,40.42752],[76.481,40.42708],[76.48029,40.4228],[76.47171,40.41478],[76.45963,40.41592],[76.4533,40.41317],[76.45447,40.40618],[76.45224,40.40274],[76.44358,40.40137],[76.4473,40.39534],[76.43913,40.38916],[76.42464,40.38429],[76.40976,40.38525],[76.40238,40.37874],[76.3841,40.37589],[76.38074,40.38521],[76.36286,40.38316],[76.35269,40.3642],[76.34291,40.35676],[76.33965,40.34812],[76.34274,40.34071],[76.33988,40.33948],[76.33396,40.33891],[76.3247,40.35993],[76.31607,40.36421],[76.32694,40.38679],[76.32521,40.39049],[76.31481,40.39412],[76.31198,40.40603],[76.29317,40.40532],[76.27982,40.41349],[76.28597,40.42984],[76.27343,40.43845],[76.27012,40.43767],[76.26264,40.42534],[76.25165,40.42233],[76.24982,40.41822],[76.23292,40.41514],[76.22779,40.40416],[76.21495,40.39905],[76.21509,40.39631],[76.20796,40.39225],[76.19473,40.38898],[76.18504,40.38001],[76.1781,40.37946],[76.17003,40.36859],[76.15976,40.36615],[76.13774,40.36785],[76.12598,40.37541],[76.08495,40.37564],[76.07692,40.38296],[76.06801,40.38265],[76.05411,40.37251],[76.04353,40.37067],[76.04146,40.36714],[76.04724,40.35645],[76.0455,40.35525],[76.02206,40.35293],[76.0127,40.3564],[76.00948,40.36168],[76.01081,40.36497],[75.99634,40.36977],[75.99774,40.37586],[75.99131,40.38146],[75.97519,40.38115],[75.95469,40.3761],[75.95232,40.37391],[75.95979,40.36366],[75.94665,40.35152],[75.94227,40.3415],[75.927,40.33577],[75.92327,40.32203],[75.93139,40.31198],[75.92786,40.30678],[75.92954,40.30248],[75.92236,40.29818],[75.92246,40.29486],[75.91331,40.2923],[75.90939,40.29495],[75.90759,40.30299],[75.89386,40.30709],[75.88546,40.30623],[75.87875,40.31265],[75.8503,40.31126],[75.83303,40.31476],[75.82668,40.32286],[75.82675,40.32732],[75.82145,40.32855],[75.81051,40.32662],[75.80426,40.31311],[75.78953,40.31087],[75.77936,40.30155],[75.75507,40.30396],[75.74491,40.29537],[75.74089,40.29572],[75.73724,40.3018],[75.72786,40.30064],[75.72187,40.29774],[75.71906,40.28739],[75.70876,40.28529],[75.70485,40.28094],[75.69755,40.2815],[75.69217,40.28483],[75.69088,40.29157],[75.69208,40.29999],[75.69601,40.29941],[75.69965,40.3038],[75.69576,40.31442],[75.68486,40.3226],[75.68594,40.33065],[75.68054,40.33762],[75.6813,40.34476],[75.66451,40.35418],[75.66125,40.36336],[75.66459,40.37136],[75.6728,40.37745],[75.66941,40.38495],[75.6698,40.397],[75.67983,40.42009],[75.68976,40.42443],[75.69066,40.4288],[75.71019,40.44358],[75.70747,40.45433],[75.72081,40.46223],[75.7195,40.4657],[75.7233,40.47109],[75.72165,40.47541],[75.70788,40.48211],[75.69317,40.48532],[75.68697,40.49117],[75.68732,40.49905],[75.67778,40.5006],[75.66888,40.49665],[75.66627,40.50018],[75.648,40.50505],[75.63917,40.52115],[75.64137,40.5281],[75.62352,40.54661],[75.62176,40.60169],[75.63169,40.62009],[75.61931,40.62762],[75.6178,40.63185],[75.61013,40.63363],[75.61611,40.64104],[75.6117,40.64602],[75.59726,40.64561],[75.59881,40.65696],[75.59109,40.66286],[75.53368,40.64504],[75.52778,40.63676],[75.51669,40.63446],[75.48765,40.61918],[75.47772,40.60615],[75.46203,40.60311],[75.45796,40.59158],[75.44829,40.57955],[75.43472,40.57341],[75.42942,40.56494],[75.41468,40.5554],[75.39188,40.55255],[75.38051,40.54497],[75.37481,40.54865],[75.37041,40.54719],[75.35412,40.5368],[75.34553,40.53568],[75.34136,40.53105],[75.32802,40.53193],[75.3293,40.52035],[75.31568,40.51595],[75.30145,40.50447],[75.29964,40.49941],[75.30394,40.49611],[75.30114,40.4904],[75.28503,40.48005],[75.26474,40.48296],[75.25746,40.47998],[75.26075,40.47203],[75.23844,40.46046],[75.23861,40.44841],[75.2219,40.44499],[75.21617,40.44847],[75.20776,40.4453],[75.18354,40.4487],[75.17734,40.45523],[75.14564,40.45701],[75.13974,40.46126],[75.12449,40.45828],[75.11856,40.45151],[75.10627,40.44556],[75.1018,40.43689],[75.08982,40.43511],[75.08469,40.44251],[75.07609,40.44073],[75.05642,40.44739],[75.05244,40.44419],[75.04532,40.44867],[75.04493,40.45269],[75.03517,40.45223],[75.01807,40.46658],[74.98882,40.45188],[74.96484,40.46101],[74.95412,40.46957],[74.92871,40.47777],[74.91844,40.48573],[74.92154,40.49261],[74.91242,40.4972],[74.89023,40.50325],[74.87776,40.51139],[74.87032,40.51044],[74.83739,40.52063],[74.81594,40.50491],[74.81951,40.48967],[74.81164,40.47379],[74.81565,40.46806],[74.81086,40.46498],[74.80807,40.45523],[74.79027,40.45579],[74.78939,40.44796],[74.79556,40.44046],[74.79628,40.43467],[74.80472,40.42631],[74.8144,40.42331],[74.81539,40.41834],[74.82242,40.41626],[74.82643,40.41093],[74.83851,40.40744],[74.84401,40.40148],[74.84493,40.39513],[74.85761,40.39133],[74.85827,40.38549],[74.86343,40.38359],[74.86565,40.37658],[74.879,40.36296],[74.90522,40.35358],[74.91037,40.34641],[74.89882,40.33921],[74.88901,40.34082],[74.88211,40.33389],[74.87138,40.33219],[74.86142,40.32385],[74.85036,40.32627],[74.83039,40.34065],[74.82287,40.34153],[74.82137,40.34504],[74.8149,40.34566],[74.811,40.34967],[74.78901,40.35336],[74.76398,40.34741],[74.74834,40.35235],[74.73461,40.34452],[74.71115,40.34936],[74.69175,40.34936],[74.69701,40.33814],[74.70198,40.33452],[74.69447,40.31414],[74.67897,40.2968],[74.68451,40.28931],[74.66112,40.27329],[74.65371,40.27184],[74.64103,40.27193],[74.63847,40.27917],[74.63141,40.28293],[74.61656,40.27973],[74.60621,40.28415],[74.60111,40.28122],[74.59132,40.28223],[74.5852,40.27775],[74.58157,40.26868],[74.5639,40.25891],[74.55861,40.24558],[74.55031,40.24063],[74.54019,40.22301],[74.52491,40.20863],[74.4993,40.20475],[74.49165,40.19991],[74.48529,40.18662],[74.47313,40.18154],[74.45372,40.15658],[74.42435,40.14266],[74.42245,40.13819],[74.40499,40.13457],[74.39963,40.13003],[74.40022,40.12631],[74.3937,40.12507],[74.39126,40.11927],[74.37658,40.11591],[74.36897,40.10277],[74.36247,40.10339],[74.34624,40.09353],[74.33858,40.0936],[74.32981,40.09997],[74.31981,40.10188],[74.31122,40.11235],[74.30387,40.1145],[74.28868,40.10342],[74.27865,40.10399],[74.26505,40.11856],[74.2665,40.12401],[74.25777,40.1334],[74.23842,40.12283],[74.22957,40.12134],[74.22347,40.12555],[74.21486,40.12617],[74.17496,40.11433],[74.15923,40.1149],[74.15587,40.10966],[74.14604,40.10509],[74.12339,40.1105],[74.1138,40.10339],[74.11532,40.09945],[74.10916,40.09492],[74.10569,40.08629],[74.0928,40.08856],[74.08806,40.08192],[74.0772,40.07962],[74.0665,40.07946],[74.05433,40.09341],[74.0417,40.09908],[74.01167,40.07923],[74.01784,40.07085],[74.00353,40.06421],[73.99811,40.04544],[73.98282,40.04786],[73.95433,40.03335],[73.93693,40.03202],[73.9346,40.02179],[73.96935,40.01473],[73.97547,40.00511],[73.95913,39.97586],[73.9511,39.97346],[73.93196,39.95777],[73.90751,39.9197],[73.90596,39.91093],[73.92088,39.90633],[73.91167,39.88019],[73.91331,39.87457],[73.90764,39.86564],[73.90381,39.86247],[73.88287,39.86255],[73.87824,39.85204],[73.85814,39.84598],[73.85793,39.8418],[73.84715,39.83505],[73.84917,39.83357],[73.83913,39.80814],[73.83944,39.79323],[73.83332,39.78198],[73.83985,39.76752],[73.83928,39.75585],[73.86171,39.75737],[73.86643,39.75625],[73.86757,39.7477],[73.90532,39.74493],[73.90637,39.7359],[73.91279,39.72849],[73.91938,39.72656],[73.91249,39.72005],[73.91318,39.71632],[73.9263,39.70568],[73.92681,39.70085],[73.92304,39.69615],[73.92468,39.68538],[73.93717,39.66527],[73.94133,39.63061],[73.94904,39.62187],[73.94494,39.61219],[73.94858,39.60221],[73.94717,39.59786],[73.93593,39.5978],[73.93269,39.59276],[73.92623,39.59454],[73.91075,39.59001],[73.91448,39.58416],[73.9124,39.57712],[73.91689,39.57053],[73.91449,39.56367],[73.90586,39.56113],[73.90168,39.55584],[73.89263,39.55572],[73.88852,39.54722],[73.87798,39.54409],[73.89238,39.53374],[73.88837,39.52519],[73.88291,39.52378],[73.87318,39.51275],[73.87432,39.50387],[73.87109,39.49895],[73.87708,39.49328],[73.87398,39.48286],[73.84559,39.47687],[73.8382,39.47215],[73.81249,39.46753],[73.77944,39.4687],[73.75799,39.46243],[73.72408,39.46086],[73.69564,39.46567],[73.67649,39.46274],[73.66387,39.47182],[73.65288,39.47021],[73.64434,39.47463],[73.6191,39.46865],[73.61252,39.46175],[73.60001,39.45883],[73.59338,39.46717],[73.58737,39.46818],[73.56708,39.4559],[73.54008,39.46268],[73.53091,39.46929],[73.52018,39.46934],[73.51375,39.47455],[73.49374,39.46851],[73.47696,39.47107],[73.46602,39.46444],[73.45111,39.46384],[73.44528,39.46006],[73.44166,39.45186],[73.43026,39.44912],[73.39365,39.45319],[73.39267,39.44668],[73.38259,39.4438],[73.3711,39.43285],[73.35721,39.43463],[73.35186,39.43142],[73.35228,39.42568],[73.3598,39.42119],[73.36322,39.4087],[73.35373,39.39793],[73.35367,39.39311],[73.32652,39.39035],[73.32024,39.38228],[73.29506,39.38686],[73.27541,39.38135],[73.26059,39.38549],[73.25203,39.38097],[73.24395,39.36181],[73.23118,39.35795],[73.21741,39.36375],[73.1903,39.3509],[73.1852,39.35363],[73.16196,39.35165],[73.12709,39.37066],[73.10655,39.37518],[73.09437,39.3701],[73.07393,39.36901],[73.07087,39.36769],[73.06919,39.35932],[73.05959,39.35859],[73.04721,39.3523],[73.02234,39.35547],[73.00772,39.3643],[72.98458,39.35726],[72.97177,39.35801],[72.95694,39.34775],[72.94217,39.36054],[72.93902,39.37133],[72.9328,39.3723],[72.90392,39.3656],[72.88395,39.35214],[72.87782,39.34453],[72.85664,39.35224],[72.84472,39.35266],[72.83187,39.36294],[72.81663,39.36096],[72.79051,39.34601],[72.78383,39.34868],[72.78392,39.35842],[72.77964,39.36423],[72.76582,39.36537],[72.75305,39.37186],[72.74086,39.37215],[72.71663,39.38433],[72.70631,39.38565],[72.69447,39.39607],[72.67481,39.38841],[72.66265,39.39172],[72.64635,39.38737],[72.62893,39.39438],[72.61317,39.39499],[72.59834,39.36551],[72.59101,39.36347],[72.58315,39.35576],[72.56872,39.35123],[72.56282,39.35332],[72.56029,39.35985],[72.55254,39.36631],[72.55098,39.37586],[72.54731,39.37933],[72.52353,39.38151],[72.50115,39.37618],[72.49064,39.37944],[72.48533,39.37826],[72.47246,39.362],[72.48084,39.35494],[72.47766,39.34944],[72.43622,39.34689],[72.4328,39.3423],[72.40065,39.34204],[72.39568,39.3406],[72.39292,39.33457],[72.37774,39.32952],[72.34504,39.33328],[72.33919,39.32985],[72.33165,39.3174],[72.3117,39.31544],[72.31594,39.30853],[72.30936,39.29648],[72.29979,39.28996],[72.30243,39.27722],[72.28838,39.25993],[72.28317,39.24071],[72.27456,39.23165],[72.27626,39.2262],[72.26312,39.2234],[72.26495,39.21821],[72.2441,39.20847],[72.24733,39.19154],[72.24387,39.18398],[72.23224,39.1805],[72.21545,39.19536],[72.20938,39.2198],[72.21188,39.23288],[72.20024,39.24202],[72.18537,39.24108],[72.18226,39.24382],[72.17987,39.25318],[72.1817,39.25889],[72.17376,39.26945],[72.1629,39.26772],[72.15246,39.27331],[72.10689,39.26643],[72.08917,39.27748],[72.07463,39.30631],[72.08098,39.32054],[72.06963,39.33261],[72.07165,39.33818],[72.06682,39.34301],[72.07027,39.35295],[72.04274,39.37056],[72.02899,39.35569],[72.01524,39.34981],[71.99548,39.35323],[71.97859,39.34795],[71.97809,39.3391],[71.95846,39.33898],[71.94616,39.31969],[71.93191,39.3214],[71.92879,39.31812],[71.92563,39.29706],[71.90421,39.28602],[71.86385,39.2875],[71.85869,39.28516],[71.84537,39.29061],[71.82705,39.28453],[71.81725,39.27634],[71.80751,39.27681],[71.8037,39.27179],[71.79353,39.27884],[71.78994,39.29074],[71.77375,39.30593],[71.77246,39.31205],[71.75995,39.32734],[71.75309,39.33074],[71.75195,39.33506],[71.77436,39.3569],[71.76863,39.36364],[71.79552,39.37356],[71.80872,39.39033],[71.80856,39.3999],[71.8018,39.40934],[71.80258,39.42793],[71.79509,39.43538],[71.79019,39.43566],[71.78309,39.44547],[71.78181,39.45329],[71.78609,39.45727],[71.78535,39.46117],[71.77676,39.4638],[71.76037,39.46216],[71.74872,39.458],[71.74214,39.45893],[71.73411,39.4539],[71.7281,39.45705],[71.72239,39.45422],[71.71076,39.45869],[71.70202,39.45491],[71.6904,39.45639],[71.67808,39.4495],[71.63284,39.44548],[71.62396,39.45536],[71.62302,39.46232],[71.61096,39.45972],[71.59747,39.4469],[71.58087,39.4577],[71.56147,39.45916],[71.55235,39.46831],[71.55257,39.47526],[71.5571,39.47915],[71.54704,39.48847],[71.53862,39.51406],[71.54659,39.53126],[71.55444,39.53519],[71.55155,39.5431],[71.5568,39.5445],[71.55799,39.55097],[71.57007,39.56228],[71.56584,39.5701],[71.56697,39.5752],[71.54266,39.59997],[71.52583,39.59897],[71.51856,39.61003],[71.50406,39.61129],[71.49953,39.61699]],[[71.79215,40.00831],[71.79672,40.00189],[71.78164,39.99573],[71.78848,39.99181],[71.77632,39.98737],[71.76333,39.97733],[71.73823,39.9768],[71.71565,39.96811],[71.71696,39.95219],[71.72183,39.9587],[71.74734,39.95361],[71.74253,39.93804],[71.745,39.93381],[71.75391,39.935],[71.77431,39.95032],[71.77732,39.96207],[71.79,39.9667],[71.7959,39.95897],[71.82654,39.9563],[71.84544,39.94642],[71.84795,39.96069],[71.85497,39.96932],[71.85887,39.98421],[71.8287,39.98592],[71.82001,39.98976],[71.81874,40.00102],[71.81589,40.0031],[71.79215,40.00831]],[[71.66051,40.20687],[71.66028,40.20181],[71.67109,40.19668],[71.67244,40.20159],[71.66051,40.20687]],[[71.19967,39.95235],[71.14381,39.95169],[71.13306,39.95479],[71.13254,39.95865],[71.15902,39.96411],[71.16951,39.97504],[71.16643,39.97757],[71.16834,39.98708],[71.14195,40.00032],[71.18325,40.00084],[71.18689,40.01086],[71.19451,40.01437],[71.20868,40.03666],[71.18677,40.03277],[71.18042,40.02734],[71.1418,40.0266],[71.13544,40.01841],[71.12634,40.01599],[71.11594,40.02061],[71.11892,40.03688],[71.10283,40.05657],[71.1037,40.06615],[71.10047,40.07593],[71.1025,40.08783],[71.09713,40.09374],[71.09026,40.09427],[71.09204,40.10713],[71.08359,40.12043],[71.07749,40.14941],[71.06815,40.1655],[71.0462,40.18423],[71.04233,40.18196],[71.04624,40.17594],[71.03913,40.17297],[71.03603,40.18078],[71.02095,40.17815],[71.0006,40.18513],[71.0003,40.17925],[71.00867,40.16693],[71.01933,40.12024],[71.01509,40.09237],[71.00491,40.08142],[71.0102,40.05099],[71.02419,40.03653],[71.04656,40.02335],[71.0749,40.02464],[71.09487,40.01961],[71.10801,40.02162],[71.11472,40.01503],[71.11362,39.99317],[71.10678,39.99061],[71.10231,39.99926],[71.09391,39.9965],[71.08991,39.99026],[71.09928,39.9817],[71.0984,39.97249],[71.10733,39.96776],[71.11891,39.96824],[71.12092,39.95957],[71.09094,39.94937],[71.07762,39.93569],[71.07777,39.91515],[71.0666,39.90841],[71.05788,39.90848],[71.04825,39.90108],[71.06639,39.89556],[71.0818,39.89642],[71.0937,39.89076],[71.09444,39.88539],[71.09906,39.88863],[71.09485,39.89828],[71.09853,39.91369],[71.10353,39.91401],[71.10305,39.90756],[71.10781,39.90604],[71.10599,39.9131],[71.10908,39.91722],[71.12047,39.92252],[71.13543,39.90789],[71.12887,39.89747],[71.13117,39.88614],[71.16666,39.88771],[71.17453,39.89536],[71.19322,39.89648],[71.19983,39.90227],[71.19351,39.90674],[71.1974,39.91283],[71.21434,39.91218],[71.21765,39.91526],[71.21572,39.9275],[71.19274,39.93398],[71.19386,39.94041],[71.1885,39.94234],[71.19022,39.94824],[71.20408,39.94651],[71.21533,39.95108],[71.19967,39.95235]],[[71.03661,40.25831],[71.02531,40.24334],[71.02507,40.23927],[71.03415,40.22611],[71.03905,40.22684],[71.04131,40.23148],[71.04013,40.24403],[71.04479,40.25326],[71.04324,40.26568],[71.04099,40.2669],[71.03661,40.25831]],[[70.53007,39.88425],[70.53135,39.88031],[70.52673,39.87921],[70.52935,39.87349],[70.5214,39.86877],[70.53424,39.85176],[70.55611,39.83549],[70.54246,39.83039],[70.54244,39.82776],[70.57174,39.81544],[70.5752,39.82026],[70.58537,39.82231],[70.60326,39.8222],[70.61318,39.81561],[70.60156,39.77096],[70.60684,39.769],[70.61316,39.77532],[70.63575,39.7811],[70.64496,39.80105],[70.65039,39.8048],[70.69183,39.82939],[70.73051,39.84755],[70.72891,39.87758],[70.69185,39.86902],[70.62543,39.87513],[70.58951,39.88518],[70.52928,39.88954],[70.52626,39.88714],[70.53007,39.88425]],[[69.54567,40.07704],[69.5417,40.0657],[69.54357,40.05924],[69.54786,40.06087],[69.54931,40.06615],[69.54567,40.07704]]],[[[72.77239,40.6773],[72.77449,40.67737],[72.77472,40.66394],[72.76751,40.66],[72.75816,40.6658],[72.76021,40.67614],[72.77239,40.6773]]]]}}]}