{"type":"FeatureCollection","features":[{"type":"Feature","properties":{"ISO_A3":"KHM","WB_A3":"KHM","WB_NAME":"Cambodia","WB_REGION":"EAS"},"geometry":{"type":"MultiPolygon","coordinates":[[[[102.35661,13.47589],[102.36215,13.48936],[102.36053,13.50068],[102.36302,13.50697],[102.35757,13.51053],[102.35913,13.51211],[102.34803,13.52389],[102.34715,13.52893],[102.33906,13.5322],[102.33398,13.54082],[102.33734,13.5452],[102.33845,13.55699],[102.35853,13.56571],[102.36497,13.57768],[102.37854,13.57662],[102.39861,13.56655],[102.40579,13.56881],[102.40992,13.56683],[102.42106,13.57158],[102.43146,13.56172],[102.43911,13.55993],[102.44339,13.56309],[102.45774,13.5613],[102.48084,13.57275],[102.52415,13.56482],[102.53707,13.5666],[102.54937,13.57736],[102.55319,13.57504],[102.56264,13.57882],[102.56985,13.5852],[102.57413,13.60382],[102.59519,13.60832],[102.61042,13.60502],[102.61314,13.60788],[102.62447,13.60817],[102.62143,13.61296],[102.6067,13.61638],[102.5866,13.62973],[102.57625,13.62919],[102.57138,13.63532],[102.57055,13.64278],[102.55807,13.64838],[102.54887,13.65959],[102.55054,13.66523],[102.56973,13.6916],[102.5771,13.6926],[102.57969,13.69964],[102.59085,13.707],[102.65193,13.73783],[102.68751,13.75078],[102.70126,13.76794],[102.72452,13.76856],[102.73299,13.77358],[102.73255,13.78513],[102.72168,13.79223],[102.75602,13.84662],[102.76633,13.85635],[102.78334,13.93313],[102.80374,13.94333],[102.81549,13.96527],[102.84812,13.98688],[102.86243,14.00495],[102.87623,14.00421],[102.88292,14.00693],[102.88229,14.00967],[102.89274,14.0097],[102.89493,14.01372],[102.90759,14.01693],[102.90684,14.02942],[102.90337,14.04161],[102.89933,14.04363],[102.89706,14.05704],[102.90195,14.07203],[102.90084,14.082],[102.90759,14.09512],[102.91334,14.0963],[102.92342,14.10547],[102.92551,14.13423],[102.93976,14.14696],[102.94039,14.15669],[102.93027,14.17582],[102.94022,14.18524],[102.93835,14.19464],[102.94456,14.19732],[102.95599,14.1956],[102.95883,14.19756],[102.95194,14.20637],[102.96351,14.21174],[102.99929,14.21389],[103.01346,14.23034],[103.02316,14.2295],[103.03635,14.24142],[103.03691,14.25263],[103.05694,14.27399],[103.05696,14.28567],[103.07476,14.28602],[103.08113,14.29764],[103.089,14.29506],[103.12337,14.30208],[103.13048,14.30698],[103.12819,14.31485],[103.13038,14.32027],[103.14119,14.32614],[103.14637,14.32489],[103.15262,14.31454],[103.16616,14.33437],[103.18244,14.33647],[103.19387,14.33341],[103.19964,14.32678],[103.20943,14.32861],[103.21865,14.32438],[103.22832,14.32749],[103.24367,14.33953],[103.25347,14.34052],[103.26429,14.35251],[103.28116,14.34674],[103.28568,14.35007],[103.31923,14.35574],[103.32706,14.35074],[103.34818,14.35477],[103.36137,14.35126],[103.41066,14.3582],[103.41334,14.37496],[103.42507,14.38565],[103.43554,14.39019],[103.43931,14.37868],[103.44485,14.37883],[103.45089,14.36822],[103.46662,14.36492],[103.46983,14.36659],[103.47458,14.37974],[103.48133,14.38123],[103.48246,14.38731],[103.49312,14.38534],[103.49762,14.39886],[103.51575,14.40482],[103.52558,14.40081],[103.52584,14.4079],[103.53242,14.41228],[103.53192,14.41514],[103.55108,14.41898],[103.55723,14.42509],[103.57182,14.42107],[103.58016,14.42815],[103.59694,14.41712],[103.61021,14.41638],[103.61573,14.40141],[103.62392,14.39816],[103.63666,14.40606],[103.65428,14.40995],[103.65539,14.41841],[103.64123,14.4222],[103.64505,14.43023],[103.65717,14.43918],[103.66615,14.43568],[103.6792,14.43561],[103.68959,14.43982],[103.70856,14.43263],[103.7079,14.41458],[103.70053,14.39459],[103.70072,14.38793],[103.70723,14.37739],[103.72284,14.37877],[103.7341,14.38336],[103.75351,14.3719],[103.75782,14.37764],[103.77871,14.36271],[103.78494,14.36707],[103.79949,14.36582],[103.80264,14.35733],[103.80643,14.35614],[103.81852,14.35695],[103.83511,14.37078],[103.84574,14.37226],[103.86339,14.36799],[103.85989,14.35669],[103.86748,14.35515],[103.88126,14.34172],[103.89785,14.34486],[103.90076,14.33795],[103.9456,14.33069],[103.94969,14.33362],[103.94683,14.34382],[103.94888,14.34947],[103.97091,14.34829],[103.97963,14.35518],[103.99178,14.3458],[103.99656,14.34602],[104.00238,14.35644],[104.01167,14.35502],[104.01025,14.35044],[104.01543,14.34175],[104.02526,14.34116],[104.0297,14.33765],[104.03225,14.34031],[104.04998,14.34133],[104.05487,14.34499],[104.07759,14.34542],[104.08173,14.35268],[104.09507,14.35753],[104.10107,14.36908],[104.10778,14.37272],[104.10821,14.37926],[104.12798,14.37538],[104.13717,14.37686],[104.14012,14.36714],[104.13631,14.35871],[104.14426,14.35321],[104.17355,14.3583],[104.17396,14.3724],[104.17129,14.37579],[104.17687,14.38104],[104.18869,14.38488],[104.2016,14.38083],[104.21055,14.36766],[104.22776,14.36879],[104.24445,14.37428],[104.25323,14.38176],[104.25141,14.39078],[104.25668,14.4013],[104.26846,14.39914],[104.27719,14.40875],[104.2864,14.39859],[104.2916,14.39923],[104.30843,14.38159],[104.31513,14.38261],[104.32401,14.37306],[104.33935,14.36713],[104.35937,14.37136],[104.36646,14.36745],[104.38216,14.36766],[104.39196,14.37438],[104.39664,14.37412],[104.40381,14.36597],[104.41212,14.37003],[104.4218,14.36949],[104.43704,14.35818],[104.45229,14.35702],[104.45575,14.36099],[104.46088,14.3603],[104.46421,14.354],[104.46115,14.34676],[104.471,14.34541],[104.47338,14.35094],[104.47924,14.35267],[104.47585,14.3598],[104.48003,14.3655],[104.49999,14.37588],[104.51817,14.36901],[104.52135,14.3626],[104.53736,14.35389],[104.54688,14.35617],[104.56358,14.35302],[104.56938,14.3603],[104.58023,14.35926],[104.57799,14.36716],[104.58041,14.37317],[104.59759,14.39073],[104.60445,14.39651],[104.61399,14.39678],[104.62852,14.40576],[104.63075,14.41199],[104.64304,14.4233],[104.65184,14.42221],[104.65565,14.41502],[104.65378,14.40597],[104.65979,14.40022],[104.67127,14.39924],[104.67932,14.39088],[104.67931,14.39874],[104.68457,14.39721],[104.69515,14.42095],[104.70626,14.43231],[104.7178,14.43199],[104.72492,14.42621],[104.725,14.41723],[104.72059,14.40853],[104.72321,14.40294],[104.73238,14.41223],[104.73994,14.41351],[104.74847,14.40962],[104.75241,14.40399],[104.76538,14.42292],[104.77597,14.42426],[104.78825,14.43297],[104.80554,14.43755],[104.81615,14.42922],[104.82039,14.41787],[104.82775,14.41928],[104.84012,14.41355],[104.8411,14.40347],[104.85007,14.40511],[104.8571,14.4128],[104.85839,14.40945],[104.86305,14.41002],[104.86849,14.41803],[104.87918,14.41145],[104.89898,14.40681],[104.90214,14.40087],[104.90772,14.39915],[104.92406,14.40119],[104.94307,14.38359],[104.95587,14.38154],[104.95972,14.39135],[104.96496,14.388],[104.96886,14.39078],[104.99352,14.37864],[105.00263,14.36278],[104.99264,14.3443],[104.9934,14.32833],[104.99004,14.32121],[104.98365,14.31939],[104.99019,14.31136],[105.00203,14.30473],[105.00405,14.29342],[105.0162,14.27701],[105.02228,14.25637],[105.02138,14.24182],[105.04466,14.22723],[105.05107,14.21456],[105.07806,14.21279],[105.08124,14.20989],[105.0936,14.21558],[105.10758,14.21344],[105.11032,14.21803],[105.1282,14.2253],[105.14459,14.2397],[105.15578,14.25849],[105.14318,14.2619],[105.15397,14.26969],[105.1503,14.27555],[105.1519,14.28645],[105.16021,14.28864],[105.16078,14.29986],[105.17112,14.30317],[105.17774,14.31701],[105.16595,14.32853],[105.16911,14.33556],[105.17542,14.34513],[105.18653,14.34137],[105.19748,14.34841],[105.20647,14.34334],[105.20559,14.31655],[105.20934,14.30112],[105.20625,14.28542],[105.20875,14.27427],[105.2491,14.23755],[105.24939,14.23016],[105.25714,14.22518],[105.25797,14.20819],[105.26699,14.20197],[105.26713,14.19628],[105.27496,14.18481],[105.27518,14.17715],[105.28311,14.17026],[105.29549,14.17203],[105.29832,14.16471],[105.31302,14.16157],[105.31255,14.16401],[105.32528,14.15923],[105.32451,14.15319],[105.32752,14.15183],[105.3252,14.14661],[105.33952,14.13389],[105.33932,14.1291],[105.35667,14.11699],[105.36186,14.10423],[105.36794,14.10685],[105.37115,14.10204],[105.37333,14.10418],[105.37722,14.10195],[105.38475,14.1055],[105.39151,14.10014],[105.39824,14.10078],[105.40043,14.10541],[105.40194,14.10201],[105.40708,14.10451],[105.40644,14.1098],[105.41744,14.1106],[105.422,14.10531],[105.42679,14.10791],[105.43119,14.10584],[105.43388,14.10967],[105.43947,14.10665],[105.44448,14.10793],[105.44552,14.10416],[105.45204,14.10153],[105.45529,14.10258],[105.45649,14.1086],[105.46746,14.1122],[105.47458,14.12021],[105.47902,14.1171],[105.48951,14.12116],[105.49037,14.12594],[105.49898,14.12876],[105.49868,14.13366],[105.5075,14.13191],[105.51215,14.13551],[105.51434,14.13343],[105.51855,14.13979],[105.5315,14.14412],[105.53185,14.14791],[105.55944,14.16005],[105.56799,14.15507],[105.57332,14.14534],[105.58552,14.13807],[105.58922,14.14021],[105.58483,14.14854],[105.594,14.14542],[105.60188,14.148],[105.60849,14.14432],[105.60817,14.13549],[105.61597,14.12628],[105.62102,14.13432],[105.62551,14.13015],[105.63366,14.13076],[105.63051,14.12443],[105.63542,14.11909],[105.63228,14.10914],[105.64531,14.09722],[105.6488,14.09831],[105.65273,14.11142],[105.66002,14.10994],[105.66162,14.11355],[105.6552,14.11862],[105.65745,14.11987],[105.68241,14.10855],[105.6884,14.09926],[105.70479,14.08675],[105.70974,14.09012],[105.71754,14.10643],[105.72592,14.10888],[105.73794,14.09407],[105.74153,14.09595],[105.786,14.08353],[105.7878,14.07334],[105.78234,14.05893],[105.79004,14.02554],[105.82094,14.00373],[105.837,13.98487],[105.89374,13.94823],[105.89884,13.93663],[105.9122,13.92836],[105.94646,13.93179],[105.9897,13.92226],[105.99339,13.92968],[106.00936,13.92954],[106.02364,13.92613],[106.03378,13.91961],[106.06388,13.91775],[106.10405,13.9091],[106.10759,13.91089],[106.10811,13.91543],[106.10512,13.92919],[106.1074,13.94468],[106.10278,13.96473],[106.10808,13.97034],[106.10084,13.98067],[106.10354,13.99352],[106.12275,13.99472],[106.12391,13.99875],[106.12992,14.00143],[106.12865,14.00602],[106.13145,14.01005],[106.14338,14.02111],[106.15645,14.02146],[106.1596,14.01731],[106.16725,14.01917],[106.17552,14.02757],[106.17726,14.04206],[106.18805,14.06267],[106.17126,14.07447],[106.15273,14.08244],[106.1439,14.08879],[106.13459,14.10247],[106.12194,14.10977],[106.12075,14.12283],[106.11185,14.14572],[106.11346,14.17367],[106.10941,14.18695],[106.07457,14.19331],[106.05232,14.20272],[106.05181,14.21131],[106.04781,14.21754],[106.03558,14.22838],[106.03203,14.24308],[106.02746,14.24623],[106.02791,14.26333],[106.03548,14.26998],[106.02377,14.29686],[106.02558,14.3089],[106.0167,14.31523],[106.00704,14.31033],[106.00231,14.31354],[106.00264,14.31773],[105.99643,14.32554],[106.00143,14.34157],[105.99479,14.34855],[106.00305,14.37044],[106.00933,14.36689],[106.01927,14.35235],[106.03243,14.34326],[106.05221,14.34757],[106.05863,14.34348],[106.06073,14.35102],[106.0741,14.35171],[106.07848,14.3401],[106.08213,14.33934],[106.08589,14.35138],[106.08184,14.36422],[106.08787,14.36494],[106.09823,14.37709],[106.10509,14.37295],[106.10666,14.36598],[106.11858,14.3625],[106.11872,14.35801],[106.1255,14.35953],[106.14211,14.37131],[106.14732,14.37144],[106.16079,14.35359],[106.17159,14.35031],[106.18774,14.35125],[106.2044,14.37202],[106.21171,14.36572],[106.22603,14.37062],[106.22567,14.38494],[106.236,14.39532],[106.23414,14.40074],[106.23759,14.40369],[106.23721,14.42385],[106.24266,14.42875],[106.24438,14.43632],[106.25013,14.43722],[106.25347,14.44246],[106.24407,14.45478],[106.24204,14.46292],[106.25356,14.48712],[106.26429,14.48167],[106.26548,14.47241],[106.26959,14.47817],[106.2751,14.47736],[106.27968,14.47101],[106.28761,14.47235],[106.29396,14.46783],[106.29489,14.45693],[106.29934,14.45103],[106.31062,14.44993],[106.31529,14.44094],[106.32569,14.44188],[106.33128,14.4388],[106.34117,14.44496],[106.37435,14.45458],[106.39306,14.45017],[106.40929,14.45101],[106.42043,14.46055],[106.42142,14.4725],[106.43939,14.48686],[106.44041,14.49211],[106.43138,14.50265],[106.42986,14.51248],[106.43613,14.5223],[106.44047,14.52362],[106.47392,14.51019],[106.4792,14.51504],[106.45948,14.53949],[106.45734,14.54528],[106.46144,14.55257],[106.48701,14.56687],[106.50272,14.58295],[106.51613,14.59018],[106.54478,14.59269],[106.54958,14.57401],[106.55922,14.56456],[106.55834,14.54941],[106.56308,14.547],[106.56258,14.53732],[106.57045,14.53304],[106.57133,14.51933],[106.5627,14.50879],[106.56286,14.50153],[106.56524,14.49944],[106.57762,14.50144],[106.58578,14.50827],[106.59779,14.5046],[106.60148,14.5067],[106.60334,14.49494],[106.61064,14.49756],[106.61317,14.49523],[106.61783,14.47241],[106.61556,14.46702],[106.62179,14.45842],[106.627,14.45824],[106.63116,14.44354],[106.6402,14.44879],[106.64924,14.44717],[106.65934,14.44992],[106.6638,14.43929],[106.67483,14.43634],[106.67761,14.43235],[106.68206,14.43379],[106.69096,14.4284],[106.70374,14.42982],[106.70538,14.42465],[106.71667,14.4219],[106.72449,14.43552],[106.73737,14.431],[106.74286,14.42674],[106.74263,14.42187],[106.74914,14.41671],[106.74864,14.41258],[106.75721,14.39995],[106.75461,14.38826],[106.77006,14.37989],[106.7712,14.37232],[106.7774,14.36768],[106.77745,14.36022],[106.786,14.35037],[106.78586,14.34215],[106.79385,14.34043],[106.79708,14.32792],[106.81464,14.31147],[106.83266,14.31239],[106.83632,14.30667],[106.83789,14.29295],[106.8491,14.29207],[106.85087,14.30219],[106.86836,14.31909],[106.88813,14.31663],[106.8921,14.31286],[106.89479,14.31483],[106.89442,14.32272],[106.90135,14.32922],[106.90135,14.33462],[106.93712,14.32556],[106.94608,14.31432],[106.95659,14.31633],[106.96702,14.31411],[106.97902,14.33513],[106.97075,14.33953],[106.97627,14.35886],[106.98972,14.35961],[106.99471,14.35601],[107.0086,14.38514],[107.01465,14.38972],[107.01565,14.39727],[107.03566,14.41192],[107.04615,14.41574],[107.04667,14.42618],[107.04063,14.43271],[107.04225,14.43593],[107.03751,14.44635],[107.04218,14.44903],[107.05276,14.43959],[107.06201,14.43878],[107.07093,14.42809],[107.07753,14.42673],[107.07904,14.42221],[107.07509,14.41471],[107.07982,14.40191],[107.08343,14.39515],[107.09472,14.39181],[107.10644,14.39792],[107.10961,14.39369],[107.12146,14.39821],[107.12227,14.40223],[107.13231,14.40687],[107.13493,14.41458],[107.14603,14.41477],[107.14969,14.42204],[107.15456,14.42343],[107.15848,14.42082],[107.15975,14.41422],[107.16366,14.41531],[107.17452,14.4246],[107.17564,14.4331],[107.1889,14.43687],[107.18961,14.4416],[107.1931,14.44315],[107.20071,14.4772],[107.20713,14.48836],[107.21804,14.48757],[107.2221,14.48276],[107.22781,14.4859],[107.23142,14.48127],[107.23848,14.4793],[107.25754,14.49209],[107.25321,14.52293],[107.25923,14.53786],[107.26156,14.54333],[107.27655,14.54162],[107.28524,14.55903],[107.28209,14.56349],[107.28252,14.57051],[107.29013,14.57403],[107.28808,14.58166],[107.29139,14.58078],[107.29771,14.58764],[107.31986,14.58752],[107.32846,14.59148],[107.33987,14.58514],[107.34006,14.58171],[107.34705,14.57632],[107.35492,14.57507],[107.3566,14.57011],[107.36471,14.56456],[107.36255,14.55539],[107.37531,14.54055],[107.38522,14.54136],[107.38888,14.53847],[107.39506,14.54291],[107.41743,14.53342],[107.42078,14.52897],[107.43766,14.52376],[107.44956,14.5288],[107.45488,14.53286],[107.45084,14.53567],[107.44836,14.54902],[107.45544,14.557],[107.45842,14.57591],[107.45233,14.5856],[107.45948,14.59162],[107.46607,14.59044],[107.46834,14.59672],[107.46111,14.60712],[107.46565,14.61753],[107.47833,14.62486],[107.49286,14.62257],[107.49811,14.62771],[107.49744,14.63406],[107.50086,14.63837],[107.50703,14.6391],[107.50921,14.64452],[107.51835,14.64816],[107.52466,14.66243],[107.52541,14.68223],[107.53025,14.68305],[107.5358,14.69002],[107.55656,14.68611],[107.54908,14.6768],[107.54957,14.67208],[107.55785,14.66498],[107.55596,14.66092],[107.54782,14.65864],[107.55182,14.64282],[107.55844,14.63409],[107.55886,14.6233],[107.54495,14.61826],[107.54375,14.60848],[107.53312,14.59872],[107.52479,14.59846],[107.52252,14.58962],[107.51775,14.58752],[107.52355,14.5746],[107.52508,14.56043],[107.53187,14.55553],[107.52975,14.5499],[107.53176,14.54588],[107.52728,14.54317],[107.52752,14.53783],[107.52172,14.52926],[107.52149,14.51944],[107.51499,14.5119],[107.50558,14.50763],[107.50635,14.5042],[107.51176,14.50228],[107.51246,14.49774],[107.50806,14.49524],[107.50797,14.48862],[107.5028,14.48218],[107.50255,14.46998],[107.49639,14.46061],[107.50163,14.45562],[107.50095,14.44907],[107.49689,14.43632],[107.4893,14.42985],[107.489,14.40659],[107.48188,14.40346],[107.47587,14.40745],[107.46671,14.40485],[107.45978,14.40648],[107.45742,14.41395],[107.44892,14.41823],[107.44764,14.40282],[107.44067,14.39682],[107.4404,14.3823],[107.43297,14.38091],[107.41182,14.36081],[107.40879,14.34709],[107.40094,14.34103],[107.40044,14.33381],[107.3896,14.32631],[107.39063,14.31657],[107.39687,14.31153],[107.39753,14.30673],[107.40126,14.30277],[107.40737,14.30274],[107.40589,14.2859],[107.40972,14.27687],[107.40947,14.26487],[107.39941,14.24913],[107.40664,14.23352],[107.39805,14.22712],[107.39303,14.21095],[107.38758,14.20855],[107.37646,14.17867],[107.36959,14.1808],[107.35753,14.16972],[107.36226,14.1641],[107.36139,14.16016],[107.35243,14.15476],[107.3538,14.14924],[107.34056,14.13262],[107.33453,14.11543],[107.33465,14.10686],[107.34238,14.10754],[107.34709,14.10072],[107.3583,14.09641],[107.35996,14.08859],[107.37344,14.08281],[107.37016,14.07875],[107.37061,14.06848],[107.365,14.0627],[107.36649,14.05675],[107.36194,14.05106],[107.3649,14.03735],[107.35709,14.02802],[107.35722,14.01669],[107.36543,14.0121],[107.37966,13.99406],[107.38525,13.99132],[107.40443,13.98959],[107.41444,13.99462],[107.42355,13.9948],[107.42802,13.99881],[107.43097,13.99366],[107.44288,13.99791],[107.44484,13.99001],[107.45586,13.98001],[107.45329,13.92987],[107.45912,13.92206],[107.47222,13.92034],[107.4732,13.91688],[107.46915,13.88913],[107.45398,13.87096],[107.47122,13.85815],[107.47297,13.85385],[107.4551,13.82656],[107.46143,13.81659],[107.45147,13.79474],[107.47233,13.7781],[107.4948,13.77189],[107.53558,13.74179],[107.55228,13.6943],[107.57054,13.6629],[107.57253,13.62538],[107.61708,13.52646],[107.62769,13.36701],[107.55034,13.17643],[107.49477,13.0228],[107.49116,13.02149],[107.49171,13.00044],[107.49812,12.99815],[107.49788,12.98185],[107.5038,12.97683],[107.50267,12.97338],[107.48879,12.97127],[107.48726,12.96753],[107.48996,12.96449],[107.4853,12.95295],[107.48767,12.95016],[107.48422,12.94821],[107.48426,12.9442],[107.49269,12.93769],[107.49237,12.92489],[107.50219,12.91594],[107.49415,12.90878],[107.49718,12.90473],[107.49133,12.89825],[107.49265,12.89373],[107.49676,12.89281],[107.49871,12.87744],[107.51162,12.86884],[107.5115,12.85709],[107.51982,12.85464],[107.5251,12.84874],[107.52674,12.8402],[107.53946,12.83561],[107.54649,12.82155],[107.55028,12.82347],[107.55455,12.81726],[107.5523,12.80653],[107.55726,12.80449],[107.56291,12.78718],[107.5602,12.78662],[107.55942,12.77925],[107.56242,12.77413],[107.55886,12.76177],[107.55978,12.74633],[107.56471,12.74626],[107.56321,12.7393],[107.56787,12.72804],[107.55919,12.71494],[107.55992,12.70781],[107.56735,12.70268],[107.57059,12.69188],[107.58215,12.67953],[107.57632,12.67577],[107.57633,12.67034],[107.57089,12.66792],[107.56972,12.65716],[107.57392,12.65102],[107.56915,12.64304],[107.57221,12.64024],[107.5728,12.62611],[107.57885,12.62287],[107.58409,12.61422],[107.58072,12.61018],[107.58562,12.60322],[107.57994,12.57498],[107.58974,12.55939],[107.57566,12.54193],[107.5777,12.53537],[107.56811,12.5299],[107.56254,12.52237],[107.56173,12.51735],[107.56931,12.51214],[107.57093,12.50159],[107.58064,12.49698],[107.57553,12.47792],[107.56859,12.47582],[107.56578,12.45072],[107.55986,12.44387],[107.55064,12.41966],[107.54416,12.41615],[107.54226,12.41121],[107.54509,12.39435],[107.55412,12.37946],[107.54466,12.37105],[107.54726,12.35974],[107.5439,12.35088],[107.53607,12.35131],[107.53533,12.34657],[107.51589,12.33671],[107.51035,12.32838],[107.47157,12.31263],[107.46333,12.2981],[107.4468,12.29112],[107.44388,12.28744],[107.44413,12.27924],[107.43833,12.27143],[107.44226,12.26591],[107.43661,12.25812],[107.43489,12.24447],[107.42228,12.24693],[107.41698,12.23995],[107.41602,12.24525],[107.40035,12.25587],[107.39924,12.26096],[107.38701,12.27203],[107.38594,12.28034],[107.38872,12.28498],[107.38335,12.28818],[107.3822,12.2957],[107.37756,12.29675],[107.37549,12.30534],[107.36269,12.31946],[107.3495,12.32684],[107.34637,12.33401],[107.33753,12.3264],[107.3261,12.32591],[107.319,12.32104],[107.31385,12.32169],[107.31284,12.32994],[107.30947,12.33251],[107.30411,12.32767],[107.29164,12.32851],[107.28432,12.32283],[107.26844,12.32531],[107.26479,12.31711],[107.25626,12.31486],[107.22945,12.29571],[107.21849,12.29984],[107.20612,12.29609],[107.20196,12.29847],[107.19068,12.29511],[107.18343,12.28331],[107.18048,12.28552],[107.16762,12.27812],[107.1554,12.27867],[107.15165,12.27381],[107.15268,12.26687],[107.1452,12.26402],[107.14851,12.26012],[107.1438,12.25903],[107.14597,12.25356],[107.13921,12.24879],[107.14088,12.24553],[107.13774,12.24526],[107.1402,12.23349],[107.13797,12.22987],[107.13281,12.22953],[107.12977,12.22428],[107.12638,12.2276],[107.12395,12.22216],[107.12066,12.22302],[107.12061,12.21981],[107.11715,12.22018],[107.1146,12.21639],[107.11041,12.21823],[107.10674,12.2102],[107.10095,12.20699],[107.10203,12.20322],[107.09282,12.1815],[107.07599,12.1886],[107.07024,12.17844],[107.08066,12.16913],[107.0795,12.16375],[107.06661,12.16143],[107.06396,12.15799],[107.05875,12.16087],[107.05848,12.15377],[107.0538,12.14677],[107.05515,12.14316],[107.05014,12.14252],[107.04514,12.1315],[107.03712,12.13121],[107.02612,12.12068],[107.02293,12.1272],[107.0198,12.12441],[107.02202,12.12106],[107.01677,12.11735],[107.015,12.12137],[107.00849,12.1151],[107.00518,12.1155],[107.00374,12.11405],[107.00775,12.11174],[107.01314,12.11223],[107.01231,12.10888],[107.00203,12.10923],[107.00174,12.10583],[107.00766,12.10402],[107.00221,12.10125],[106.99957,12.09476],[106.99441,12.09579],[106.96526,12.08272],[106.96387,12.07733],[106.95101,12.07442],[106.94574,12.06762],[106.94024,12.06863],[106.91647,12.06183],[106.91255,12.06682],[106.89724,12.06598],[106.88657,12.07305],[106.88007,12.07371],[106.85284,12.0677],[106.84506,12.07416],[106.83935,12.07253],[106.82949,12.0777],[106.82593,12.08429],[106.81549,12.08337],[106.81307,12.07932],[106.80231,12.07984],[106.79921,12.08403],[106.79339,12.08274],[106.78613,12.07341],[106.78036,12.07378],[106.78146,12.06867],[106.77876,12.06646],[106.78243,12.06359],[106.77155,12.05621],[106.75614,12.02514],[106.74825,12.01877],[106.74514,12.00063],[106.74186,12.00236],[106.73872,11.99873],[106.74401,11.99149],[106.74185,11.98823],[106.74401,11.98355],[106.72677,11.9815],[106.72498,11.97559],[106.72054,11.97604],[106.72093,11.96853],[106.71769,11.97311],[106.71027,11.9678],[106.70253,11.96926],[106.69507,11.96402],[106.6838,11.96454],[106.67523,11.97848],[106.67072,11.97679],[106.66588,11.98369],[106.65694,11.98858],[106.64934,11.98129],[106.65381,11.97134],[106.6601,11.96611],[106.6556,11.96306],[106.65339,11.96578],[106.64851,11.96458],[106.64179,11.96895],[106.64134,11.97401],[106.63531,11.96791],[106.63495,11.96073],[106.6316,11.96102],[106.63135,11.96889],[106.62659,11.97358],[106.531,11.96854],[106.52923,11.97088],[106.53664,11.97543],[106.53344,11.97826],[106.52705,11.97697],[106.51607,11.98068],[106.51048,11.98043],[106.50893,11.9767],[106.50114,11.97477],[106.49418,11.96817],[106.46823,11.97415],[106.46562,11.98216],[106.45593,11.98887],[106.44098,11.98541],[106.43269,11.97636],[106.43428,11.97374],[106.42453,11.97107],[106.41145,11.9748],[106.46705,11.86683],[106.46079,11.86232],[106.45384,11.86705],[106.44998,11.86483],[106.44828,11.86679],[106.44389,11.85818],[106.43983,11.85757],[106.43827,11.85162],[106.44074,11.8457],[106.43805,11.83933],[106.4478,11.82427],[106.44059,11.81732],[106.43545,11.8026],[106.42106,11.78233],[106.41427,11.7662],[106.41959,11.75794],[106.42373,11.74188],[106.42204,11.73855],[106.43486,11.71811],[106.43356,11.71489],[106.43864,11.71017],[106.43797,11.70494],[106.45324,11.69093],[106.45286,11.67262],[106.45036,11.67047],[106.43537,11.66978],[106.42786,11.67301],[106.42571,11.67809],[106.41456,11.67822],[106.39974,11.69134],[106.38486,11.69673],[106.3696,11.69717],[106.3387,11.68131],[106.32908,11.68661],[106.31631,11.67517],[106.29764,11.67373],[106.29786,11.68077],[106.29148,11.68838],[106.27005,11.706],[106.27292,11.71223],[106.26556,11.72093],[106.24843,11.72818],[106.24283,11.72667],[106.22886,11.73176],[106.21246,11.72928],[106.19538,11.74121],[106.19136,11.75349],[106.18461,11.75252],[106.18218,11.74806],[106.16615,11.74655],[106.15443,11.73692],[106.13113,11.74549],[106.11793,11.74244],[106.10377,11.74832],[106.10166,11.75428],[106.09353,11.75773],[106.09023,11.76555],[106.06937,11.77615],[106.04809,11.77487],[106.04211,11.77813],[106.02293,11.77328],[106.01446,11.7636],[106.01073,11.75],[106.01614,11.73613],[106.01451,11.72566],[106.00915,11.72102],[106.0037,11.70512],[105.99621,11.70279],[105.97753,11.68483],[105.98149,11.67886],[105.98184,11.6679],[105.95251,11.64004],[105.9259,11.64932],[105.90112,11.66584],[105.89239,11.67512],[105.88371,11.67664],[105.85384,11.66326],[105.84109,11.64775],[105.83652,11.64684],[105.83595,11.63337],[105.82769,11.6196],[105.80942,11.61911],[105.81223,11.60805],[105.80869,11.6013],[105.81067,11.58783],[105.81522,11.58477],[105.81529,11.57423],[105.81922,11.56994],[105.8238,11.57023],[105.82725,11.56444],[105.84101,11.56526],[105.84516,11.56209],[105.86156,11.56663],[105.86927,11.55536],[105.87408,11.55476],[105.87247,11.5515],[105.88143,11.54252],[105.88532,11.52586],[105.87857,11.50185],[105.88386,11.49334],[105.88451,11.48265],[105.87953,11.48229],[105.87688,11.47535],[105.87886,11.46909],[105.87444,11.46085],[105.88657,11.45088],[105.89969,11.45186],[105.90006,11.44662],[105.9033,11.44671],[105.90038,11.42766],[105.89174,11.42519],[105.88523,11.41141],[105.87407,11.40552],[105.87894,11.38934],[105.87097,11.37405],[105.88545,11.36381],[105.87819,11.34777],[105.87823,11.33187],[105.86898,11.31988],[105.87144,11.29918],[105.86511,11.28524],[105.86998,11.28306],[105.87568,11.28781],[105.89277,11.29021],[105.89971,11.28925],[105.90428,11.28385],[105.90872,11.28672],[105.90804,11.27549],[105.91245,11.26772],[105.90782,11.25587],[105.90914,11.24781],[105.91202,11.23813],[105.92623,11.21792],[105.94138,11.2058],[105.96389,11.19565],[105.97579,11.19836],[105.99621,11.1912],[106.01051,11.1912],[106.01413,11.18557],[106.01797,11.15151],[106.02203,11.14249],[106.05473,11.12266],[106.06691,11.11211],[106.07436,11.09917],[106.0888,11.10144],[106.10008,11.08684],[106.09881,11.07804],[106.10197,11.07368],[106.10928,11.07202],[106.12193,11.08954],[106.14341,11.1008],[106.15346,11.10196],[106.18715,11.05285],[106.19456,11.00012],[106.20626,10.97672],[106.18989,10.97171],[106.15917,10.97873],[106.15428,10.98249],[106.14477,10.97803],[106.14505,10.94997],[106.15062,10.93951],[106.13767,10.91552],[106.16549,10.88247],[106.18687,10.84138],[106.18951,10.79026],[106.1653,10.81135],[106.09588,10.80761],[106.0729,10.81074],[106.01669,10.84887],[105.97653,10.89005],[105.94426,10.91672],[105.94472,10.9095],[105.95169,10.89722],[105.9506,10.88921],[105.95634,10.88361],[105.9308,10.86419],[105.93055,10.84977],[105.93593,10.84699],[105.93628,10.83963],[105.89839,10.84423],[105.84949,10.86273],[105.84846,10.86691],[105.86445,10.89933],[105.80697,10.97297],[105.7796,11.03128],[105.77619,11.03218],[105.75505,11.0263],[105.72798,11.02503],[105.71181,11.01745],[105.69444,11.00164],[105.66514,10.98674],[105.57394,10.96232],[105.55239,10.9594],[105.53731,10.95216],[105.50511,10.949],[105.5001,10.95266],[105.49536,10.94885],[105.483,10.95279],[105.48345,10.95781],[105.47335,10.96471],[105.46489,10.96442],[105.45196,10.95489],[105.4424,10.96031],[105.43317,10.97313],[105.42723,10.9727],[105.40565,10.93018],[105.39612,10.9269],[105.39627,10.92403],[105.39345,10.92466],[105.38458,10.91699],[105.37958,10.90223],[105.37301,10.90347],[105.36921,10.89693],[105.36806,10.8877],[105.35947,10.88678],[105.36028,10.88154],[105.3546,10.88018],[105.34591,10.86755],[105.34047,10.86772],[105.33755,10.86078],[105.2839,10.88853],[105.27594,10.88839],[105.26488,10.89684],[105.23895,10.89272],[105.1965,10.91131],[105.19059,10.93338],[105.18816,10.9672],[105.19252,10.98374],[105.19107,11.00019],[105.18421,11.00019],[105.17909,10.95486],[105.18066,10.91209],[105.15506,10.92329],[105.10327,10.92078],[105.10452,10.92692],[105.11699,10.9429],[105.11646,10.96211],[105.0959,10.95455],[105.08319,10.95649],[105.07886,10.95112],[105.07903,10.93593],[105.06669,10.93853],[105.05079,10.92787],[105.05231,10.91805],[105.04159,10.91136],[105.04488,10.90245],[105.02925,10.89244],[105.03611,10.86662],[105.05881,10.81913],[105.05775,10.81425],[105.05531,10.82074],[105.0454,10.82358],[105.04449,10.83363],[105.03797,10.83376],[105.02937,10.82873],[105.02442,10.83866],[105.01816,10.83609],[105.00929,10.84704],[104.98974,10.85],[105.00747,10.8473],[105.01738,10.83544],[105.02455,10.83698],[105.02754,10.82899],[105.03119,10.82757],[105.04345,10.83286],[105.04658,10.82048],[105.05362,10.82074],[105.05635,10.81687],[105.05505,10.80373],[105.06231,10.79731],[105.06397,10.78039],[105.07392,10.77871],[105.09239,10.75595],[105.09842,10.72086],[104.9567,10.6376],[104.93571,10.61303],[104.89776,10.54801],[104.86879,10.52197],[104.75379,10.51793],[104.69461,10.53688],[104.64654,10.53961],[104.64607,10.52873],[104.61642,10.52673],[104.60718,10.5318],[104.59605,10.53256],[104.587,10.52694],[104.58659,10.51198],[104.58257,10.50439],[104.55993,10.49331],[104.55798,10.47339],[104.55141,10.45684],[104.54189,10.44798],[104.52824,10.44702],[104.51736,10.43965],[104.49838,10.40454],[104.4787,10.43121],[104.44558,10.42402],[104.43587,10.44546],[104.43078,10.44881],[104.42882,10.45525],[104.43116,10.45564],[104.42308,10.46258],[104.4275,10.46568],[104.42592,10.47199],[104.42305,10.47534],[104.41719,10.47317],[104.42018,10.4774],[104.41368,10.47648],[104.41939,10.48616],[104.41548,10.48589],[104.41704,10.48912],[104.42127,10.49095],[104.41936,10.4993],[104.42457,10.49957],[104.42404,10.50318],[104.41609,10.50703],[104.4166,10.51579],[104.42141,10.51851],[104.42793,10.51646],[104.44341,10.52254],[104.43625,10.52446],[104.42792,10.51955],[104.42088,10.52199],[104.41281,10.52043],[104.41231,10.51115],[104.4071,10.50908],[104.40685,10.50547],[104.4135,10.50187],[104.40973,10.49645],[104.40114,10.49257],[104.3983,10.48406],[104.39102,10.47812],[104.38606,10.48223],[104.37174,10.47808],[104.35035,10.49621],[104.34608,10.50479],[104.34238,10.49709],[104.31549,10.47925],[104.30326,10.47549],[104.28919,10.47816],[104.28949,10.51631],[104.28635,10.52558],[104.28283,10.52635],[104.2764,10.54824],[104.26818,10.55209],[104.26616,10.55944],[104.26114,10.55774],[104.25068,10.57176],[104.24234,10.57522],[104.24389,10.58193],[104.23866,10.5872],[104.23524,10.60098],[104.22506,10.60817],[104.22427,10.61307],[104.22896,10.61334],[104.22815,10.62558],[104.21827,10.61614],[104.22297,10.61049],[104.21698,10.61047],[104.22431,10.59876],[104.22952,10.59865],[104.23474,10.59325],[104.23751,10.58114],[104.23531,10.5734],[104.21318,10.57064],[104.19411,10.5916],[104.18027,10.60161],[104.17607,10.61294],[104.1704,10.61819],[104.1691,10.63715],[104.16335,10.64384],[104.17078,10.6445],[104.17142,10.64695],[104.16582,10.64758],[104.16101,10.64097],[104.16766,10.63985],[104.16627,10.624],[104.17779,10.60547],[104.1774,10.60238],[104.16934,10.59849],[104.17237,10.58407],[104.1649,10.56696],[104.15355,10.56018],[104.14495,10.56428],[104.13505,10.56348],[104.12777,10.55792],[104.11241,10.55736],[104.10695,10.55193],[104.0942,10.5488],[104.06033,10.55102],[104.04966,10.54867],[104.02879,10.55943],[104.01498,10.56145],[104.01,10.56942],[103.99333,10.5713],[103.97752,10.58427],[103.97219,10.58258],[103.9568,10.58845],[103.95249,10.59243],[103.96184,10.60123],[103.94378,10.58725],[103.93883,10.58826],[103.93894,10.59316],[103.92471,10.60188],[103.92196,10.60728],[103.92408,10.61201],[103.9179,10.61474],[103.91367,10.63199],[103.90427,10.63737],[103.90698,10.64537],[103.91074,10.64912],[103.91309,10.64732],[103.91096,10.6593],[103.90234,10.66726],[103.90027,10.66261],[103.89013,10.65716],[103.88386,10.66165],[103.88761,10.66978],[103.87811,10.66614],[103.8776,10.66202],[103.86717,10.66584],[103.86856,10.6777],[103.86555,10.68156],[103.86956,10.68802],[103.86824,10.69368],[103.86575,10.69728],[103.86002,10.697],[103.85399,10.70651],[103.85363,10.69749],[103.86643,10.69007],[103.86084,10.68541],[103.86205,10.67485],[103.85414,10.66683],[103.85847,10.6586],[103.85393,10.65343],[103.85105,10.65522],[103.84875,10.64464],[103.84536,10.64605],[103.8446,10.64025],[103.84776,10.63098],[103.86053,10.63051],[103.85587,10.62045],[103.85042,10.61682],[103.8524,10.60961],[103.824,10.57729],[103.80945,10.56615],[103.80493,10.55634],[103.80512,10.54088],[103.79627,10.54149],[103.78614,10.53475],[103.77649,10.53755],[103.76818,10.52992],[103.75594,10.53103],[103.75358,10.53579],[103.74602,10.53808],[103.74443,10.54348],[103.73611,10.54152],[103.74019,10.5615],[103.72144,10.56143],[103.70969,10.56886],[103.70162,10.56843],[103.69144,10.5729],[103.68725,10.57881],[103.68127,10.57634],[103.68728,10.57057],[103.69719,10.56816],[103.71082,10.54824],[103.71446,10.54839],[103.71603,10.54595],[103.7137,10.54439],[103.72413,10.53966],[103.72676,10.53336],[103.73668,10.52954],[103.73816,10.51743],[103.73029,10.49897],[103.72456,10.49856],[103.705,10.50737],[103.67765,10.50881],[103.67401,10.50634],[103.6743,10.50068],[103.66231,10.50256],[103.64775,10.49837],[103.64333,10.49565],[103.64388,10.48895],[103.63555,10.48943],[103.63296,10.48659],[103.62693,10.49558],[103.60867,10.5022],[103.61079,10.52334],[103.61518,10.53109],[103.61149,10.54267],[103.60062,10.55499],[103.58914,10.55984],[103.57308,10.54173],[103.56502,10.53834],[103.56085,10.55595],[103.53586,10.59335],[103.52278,10.60553],[103.51731,10.60421],[103.51078,10.60882],[103.50285,10.60582],[103.49078,10.62328],[103.4983,10.63105],[103.50057,10.64575],[103.51475,10.64878],[103.51981,10.65383],[103.52092,10.66659],[103.52508,10.66712],[103.52895,10.67629],[103.53961,10.68085],[103.54336,10.68667],[103.54564,10.69982],[103.54386,10.71836],[103.55792,10.721],[103.55868,10.72384],[103.57013,10.72853],[103.58023,10.74159],[103.5857,10.74175],[103.59264,10.73431],[103.61491,10.73582],[103.61377,10.73002],[103.61871,10.73185],[103.62133,10.72851],[103.61652,10.72642],[103.61692,10.72333],[103.62606,10.7208],[103.62826,10.72338],[103.61862,10.72283],[103.61783,10.72566],[103.62316,10.72748],[103.61438,10.73853],[103.61695,10.74704],[103.6232,10.7472],[103.63167,10.73817],[103.63758,10.73747],[103.64641,10.74356],[103.6739,10.74291],[103.67435,10.7393],[103.67925,10.74306],[103.69071,10.74259],[103.69565,10.74635],[103.69014,10.75432],[103.68288,10.74617],[103.66591,10.75241],[103.66147,10.75548],[103.65802,10.76913],[103.66454,10.76774],[103.67205,10.77872],[103.67145,10.79779],[103.67479,10.8094],[103.68415,10.81292],[103.68517,10.81923],[103.69871,10.82316],[103.70314,10.82189],[103.70447,10.81777],[103.70837,10.81856],[103.70718,10.8219],[103.71279,10.82141],[103.70834,10.82487],[103.70209,10.8242],[103.7137,10.85182],[103.7111,10.88119],[103.70461,10.9041],[103.71274,10.90699],[103.7121,10.90301],[103.7182,10.89591],[103.72551,10.89478],[103.72864,10.89569],[103.72821,10.90317],[103.73173,10.90357],[103.73731,10.89631],[103.72938,10.90536],[103.72652,10.90367],[103.72577,10.8962],[103.72263,10.89722],[103.71505,10.9026],[103.71541,10.91033],[103.70564,10.90568],[103.69063,10.94115],[103.69517,10.94632],[103.68958,10.94449],[103.68551,10.94989],[103.67917,10.9679],[103.65804,10.99795],[103.66455,11.00146],[103.66626,10.99696],[103.67134,10.99775],[103.66742,10.99967],[103.66122,11.01523],[103.66571,11.03162],[103.6619,11.03765],[103.6542,11.04071],[103.66272,11.05969],[103.67763,11.05074],[103.69042,11.04873],[103.69692,11.05378],[103.69904,11.04658],[103.70714,11.04391],[103.70869,11.04546],[103.69914,11.05225],[103.69897,11.06101],[103.705,11.05498],[103.717,11.054],[103.73443,11.06657],[103.75022,11.06457],[103.7541,11.07232],[103.75238,11.07798],[103.74223,11.07189],[103.73777,11.07741],[103.73048,11.07506],[103.71612,11.07757],[103.72655,11.07775],[103.72967,11.08201],[103.73386,11.07713],[103.74806,11.08235],[103.74765,11.08621],[103.74191,11.08722],[103.7382,11.10009],[103.72633,11.10004],[103.7272,11.1097],[103.738,11.11581],[103.73133,11.11874],[103.74591,11.12627],[103.76287,11.1266],[103.77275,11.13682],[103.77952,11.13891],[103.78558,11.12618],[103.79183,11.12827],[103.80059,11.12431],[103.79847,11.11616],[103.80216,11.12199],[103.80045,11.12663],[103.796,11.12931],[103.78557,11.12734],[103.78082,11.13982],[103.77091,11.13849],[103.76221,11.13008],[103.75188,11.13403],[103.74262,11.13257],[103.73882,11.1372],[103.74009,11.14468],[103.71738,11.14767],[103.71636,11.14174],[103.72472,11.14023],[103.72684,11.13328],[103.73152,11.13511],[103.73287,11.12455],[103.72868,11.12891],[103.72268,11.12914],[103.71726,11.11417],[103.71309,11.11312],[103.71312,11.10823],[103.70868,11.10872],[103.69411,11.09951],[103.6924,11.10144],[103.70072,11.10843],[103.70213,11.11436],[103.69847,11.11525],[103.69715,11.12027],[103.68229,11.11737],[103.68154,11.11002],[103.6625,11.10852],[103.66094,11.1062],[103.64656,11.11206],[103.64328,11.11797],[103.65245,11.13785],[103.65126,11.14068],[103.64722,11.14015],[103.64723,11.13654],[103.6376,11.13237],[103.64192,11.12956],[103.63945,11.1262],[103.64259,11.12608],[103.63962,11.11821],[103.64111,11.10611],[103.62942,11.09472],[103.62017,11.0939],[103.61641,11.08924],[103.59969,11.09342],[103.59469,11.10319],[103.58868,11.10406],[103.57962,11.11639],[103.58324,11.12259],[103.57692,11.13493],[103.57806,11.14163],[103.55974,11.15211],[103.55462,11.15956],[103.55549,11.16884],[103.56279,11.17029],[103.56505,11.16371],[103.56855,11.16542],[103.57301,11.16184],[103.57521,11.16481],[103.58102,11.16073],[103.5782,11.16753],[103.57378,11.16377],[103.5709,11.16634],[103.56569,11.16451],[103.56865,11.17199],[103.56069,11.17131],[103.56015,11.17505],[103.56341,11.17661],[103.56013,11.18084],[103.55871,11.17736],[103.55204,11.18055],[103.55079,11.16856],[103.52702,11.17437],[103.51373,11.16979],[103.50642,11.17092],[103.49331,11.18245],[103.48909,11.19028],[103.47133,11.19432],[103.45482,11.20673],[103.45215,11.21754],[103.44222,11.22006],[103.44772,11.24173],[103.4577,11.25493],[103.45647,11.26523],[103.4641,11.27802],[103.47282,11.28309],[103.47949,11.30425],[103.48627,11.30583],[103.49024,11.32118],[103.50043,11.31995],[103.51945,11.32752],[103.53359,11.31831],[103.54177,11.32014],[103.54515,11.33035],[103.53725,11.33648],[103.54436,11.32739],[103.53228,11.31933],[103.5265,11.32626],[103.52023,11.32829],[103.49833,11.32071],[103.48997,11.32196],[103.48484,11.30557],[103.47909,11.30605],[103.47086,11.28282],[103.46461,11.27983],[103.45554,11.26702],[103.45652,11.25595],[103.44341,11.24248],[103.43945,11.2252],[103.44197,11.21826],[103.45177,11.21547],[103.45378,11.20543],[103.49687,11.17551],[103.4989,11.16109],[103.4955,11.16184],[103.49435,11.1572],[103.4828,11.14619],[103.47901,11.14785],[103.48431,11.15741],[103.48037,11.16138],[103.47334,11.15967],[103.47726,11.15802],[103.47846,11.15325],[103.47472,11.14396],[103.4509,11.10983],[103.43739,11.09829],[103.43317,11.10716],[103.42248,11.1062],[103.41924,11.10245],[103.41879,11.08827],[103.40862,11.08745],[103.4093,11.08307],[103.41006,11.08771],[103.4179,11.08479],[103.41851,11.09317],[103.42485,11.1026],[103.42759,11.10172],[103.42775,11.09695],[103.43506,11.09596],[103.46789,11.10412],[103.46871,11.09523],[103.46354,11.08593],[103.45572,11.08486],[103.45627,11.08048],[103.44732,11.07064],[103.44705,11.04797],[103.42665,11.00895],[103.42067,10.98161],[103.41109,10.96816],[103.40802,10.95655],[103.41241,10.94021],[103.40969,10.93724],[103.41425,10.93739],[103.42069,10.92802],[103.42085,10.92209],[103.41612,10.90403],[103.41313,10.90337],[103.40643,10.88878],[103.38734,10.87605],[103.3833,10.87577],[103.38171,10.88079],[103.36659,10.87981],[103.35492,10.86996],[103.35494,10.86558],[103.3505,10.86658],[103.35055,10.88153],[103.34409,10.89541],[103.33336,10.90256],[103.32474,10.90509],[103.32136,10.90327],[103.32069,10.90713],[103.31299,10.9085],[103.31165,10.91455],[103.30116,10.92635],[103.29018,10.93066],[103.27898,10.92983],[103.27829,10.93549],[103.26826,10.93556],[103.23743,10.94672],[103.25952,10.93642],[103.26202,10.93205],[103.24381,10.9246],[103.23629,10.91773],[103.24077,10.90952],[103.23243,10.90934],[103.22674,10.90274],[103.22678,10.89552],[103.22132,10.89382],[103.21422,10.90395],[103.20849,10.90314],[103.20876,10.90031],[103.19967,10.89523],[103.19852,10.89149],[103.20141,10.88842],[103.19767,10.88092],[103.1785,10.88313],[103.17461,10.88116],[103.17801,10.87746],[103.17505,10.87177],[103.17929,10.86008],[103.17252,10.85888],[103.16229,10.87041],[103.15262,10.87409],[103.14612,10.87186],[103.14694,10.86516],[103.14253,10.86192],[103.12241,10.87043],[103.12446,10.8752],[103.12942,10.87485],[103.13128,10.88903],[103.12011,10.90506],[103.09762,10.91639],[103.09662,10.93004],[103.10155,10.93316],[103.09593,10.93596],[103.09782,10.9455],[103.09572,10.94755],[103.09906,10.95607],[103.10865,10.96515],[103.10701,11.01743],[103.11911,11.02215],[103.1236,11.01264],[103.13035,11.01693],[103.12436,11.01664],[103.11962,11.02318],[103.10921,11.01964],[103.1062,11.02181],[103.09655,11.06168],[103.09673,11.0743],[103.08836,11.07915],[103.09471,11.08434],[103.09749,11.07792],[103.1044,11.07835],[103.11047,11.08804],[103.11094,11.09578],[103.11718,11.09916],[103.11035,11.14678],[103.12253,11.13977],[103.12949,11.13144],[103.12567,11.11828],[103.12923,11.11148],[103.14253,11.11143],[103.14194,11.10241],[103.14782,11.10039],[103.14616,11.09419],[103.13951,11.09544],[103.13913,11.0926],[103.14372,11.08928],[103.14787,11.0924],[103.15206,11.08998],[103.15243,11.09268],[103.14733,11.09574],[103.15746,11.10302],[103.14068,11.11515],[103.12974,11.1129],[103.12803,11.11546],[103.12939,11.12732],[103.14111,11.13049],[103.13688,11.13948],[103.14155,11.14311],[103.13997,11.14619],[103.13412,11.14204],[103.13353,11.15363],[103.13232,11.13893],[103.12881,11.13672],[103.12721,11.14199],[103.12408,11.14249],[103.12693,11.14534],[103.12144,11.14737],[103.12322,11.15382],[103.11712,11.14863],[103.11228,11.17127],[103.10611,11.17767],[103.11306,11.15092],[103.11256,11.14783],[103.10706,11.15217],[103.09732,11.1856],[103.08158,11.21796],[103.07632,11.22334],[103.06615,11.22262],[103.05393,11.21649],[103.0471,11.22289],[103.05084,11.22935],[103.05489,11.22873],[103.05655,11.23377],[103.07049,11.23759],[103.06951,11.24751],[103.06502,11.25521],[103.06668,11.26024],[103.07427,11.25733],[103.08418,11.25842],[103.08658,11.25097],[103.07929,11.24886],[103.08349,11.24528],[103.08947,11.24725],[103.09257,11.25242],[103.10361,11.24038],[103.10752,11.24067],[103.10881,11.24389],[103.10124,11.24333],[103.09623,11.25129],[103.10062,11.25827],[103.09596,11.25334],[103.08913,11.25923],[103.0934,11.26518],[103.10407,11.26963],[103.09993,11.28403],[103.09284,11.29068],[103.09542,11.29533],[103.11015,11.29826],[103.10711,11.30339],[103.11977,11.30451],[103.13447,11.31155],[103.14271,11.30903],[103.14321,11.2919],[103.15988,11.2969],[103.16693,11.28695],[103.16388,11.28366],[103.16631,11.27182],[103.17683,11.26739],[103.16787,11.2726],[103.1648,11.28366],[103.1687,11.28575],[103.16247,11.30001],[103.15518,11.29687],[103.14759,11.3003],[103.15133,11.30805],[103.15049,11.31603],[103.13982,11.33245],[103.13898,11.33992],[103.13403,11.33963],[103.13401,11.34221],[103.14028,11.34135],[103.15055,11.34772],[103.15222,11.35147],[103.14735,11.35749],[103.14598,11.34872],[103.13844,11.34314],[103.13699,11.3448],[103.14233,11.34741],[103.14321,11.35309],[103.13548,11.35742],[103.1355,11.35355],[103.12744,11.34899],[103.12443,11.35039],[103.12162,11.36042],[103.11849,11.36066],[103.1235,11.35167],[103.11155,11.3431],[103.10451,11.34279],[103.10292,11.34639],[103.10721,11.34796],[103.10419,11.35181],[103.09558,11.35098],[103.0893,11.37232],[103.08705,11.39601],[103.08899,11.39898],[103.0946,11.39915],[103.08897,11.40246],[103.08787,11.41031],[103.085,11.41016],[103.07814,11.42042],[103.07466,11.43251],[103.08091,11.4359],[103.08721,11.43104],[103.09347,11.4316],[103.09627,11.44321],[103.10151,11.44093],[103.09937,11.44709],[103.10927,11.45115],[103.1164,11.4588],[103.11417,11.46033],[103.10927,11.45205],[103.09909,11.45108],[103.1095,11.45669],[103.11233,11.46212],[103.11807,11.46409],[103.13009,11.46172],[103.14743,11.44689],[103.1479,11.4353],[103.15145,11.43146],[103.1619,11.42946],[103.19287,11.40621],[103.20124,11.4042],[103.20732,11.39239],[103.22881,11.37925],[103.2424,11.37701],[103.2536,11.36097],[103.25645,11.36434],[103.2535,11.3772],[103.2581,11.39321],[103.25053,11.41351],[103.26089,11.42813],[103.24949,11.41377],[103.25706,11.39294],[103.2522,11.37617],[103.25372,11.36278],[103.24527,11.37741],[103.22723,11.38117],[103.20914,11.39317],[103.20306,11.40498],[103.18813,11.41262],[103.17288,11.42876],[103.15195,11.43494],[103.15322,11.43997],[103.15534,11.43483],[103.16083,11.43422],[103.14347,11.45356],[103.14212,11.46012],[103.1489,11.46158],[103.1468,11.46389],[103.13663,11.46112],[103.1344,11.46303],[103.1439,11.4868],[103.12726,11.49545],[103.12554,11.49956],[103.13746,11.51329],[103.13945,11.52799],[103.14479,11.53034],[103.14575,11.54426],[103.14911,11.54866],[103.14513,11.55855],[103.12891,11.56244],[103.12915,11.58485],[103.14048,11.59085],[103.14438,11.60067],[103.15578,11.6077],[103.15851,11.59084],[103.16815,11.59502],[103.17366,11.59093],[103.17926,11.59371],[103.17182,11.5926],[103.16683,11.59604],[103.15824,11.592],[103.15674,11.60784],[103.14678,11.60506],[103.13994,11.59239],[103.12823,11.58614],[103.12611,11.57015],[103.10527,11.58019],[103.09895,11.57864],[103.09793,11.58501],[103.09854,11.57856],[103.10979,11.57745],[103.12534,11.56834],[103.12866,11.56051],[103.14017,11.55762],[103.14635,11.55173],[103.13642,11.53183],[103.13456,11.51688],[103.1298,11.50628],[103.12395,11.50161],[103.13136,11.48826],[103.12997,11.4813],[103.11723,11.47155],[103.1081,11.46982],[103.09707,11.47877],[103.09106,11.4804],[103.08664,11.47715],[103.08711,11.48463],[103.09154,11.4853],[103.09428,11.4901],[103.08736,11.48682],[103.07908,11.49385],[103.07294,11.49368],[103.06764,11.50511],[103.06533,11.49942],[103.05382,11.50244],[103.05231,11.51222],[103.05896,11.51484],[103.05976,11.51124],[103.06275,11.51383],[103.05816,11.51689],[103.05216,11.51544],[103.05032,11.51671],[103.05343,11.52021],[103.04663,11.5212],[103.05014,11.52431],[103.0475,11.5279],[103.05257,11.53115],[103.04708,11.53202],[103.04267,11.52787],[103.04187,11.5495],[103.04823,11.53615],[103.06197,11.53238],[103.05435,11.53889],[103.05891,11.53983],[103.05446,11.54211],[103.05779,11.55193],[103.05617,11.55861],[103.04655,11.57091],[103.04542,11.58288],[103.04307,11.583],[103.04696,11.58727],[103.05446,11.57921],[103.05903,11.58014],[103.05809,11.59234],[103.05637,11.58682],[103.05876,11.58156],[103.04633,11.58963],[103.04069,11.5871],[103.03841,11.57678],[103.03898,11.58915],[103.03699,11.59313],[103.03255,11.59362],[103.03473,11.5984],[103.03315,11.60122],[103.02598,11.59911],[103.03352,11.58551],[103.02686,11.58546],[103.02687,11.58301],[103.03172,11.5806],[103.03466,11.57109],[103.03587,11.54714],[103.03156,11.54763],[103.02419,11.55634],[103.02157,11.55657],[103.02343,11.55169],[103.01952,11.55064],[103.0183,11.55758],[103.02142,11.55992],[103.01495,11.56889],[103.00881,11.56988],[103.009,11.56087],[103.00586,11.56162],[103.00589,11.55724],[103.01089,11.55315],[103.00882,11.55005],[103.00069,11.55437],[103.00337,11.56237],[103.00045,11.56983],[102.99561,11.57095],[102.9925,11.56719],[102.99435,11.56412],[102.98234,11.56249],[102.9815,11.57021],[102.97638,11.57378],[102.98225,11.57562],[102.98269,11.56919],[102.99026,11.56898],[102.98115,11.58257],[102.97267,11.582],[102.97664,11.59233],[102.97882,11.61604],[102.96287,11.61748],[102.96149,11.59235],[102.95231,11.59679],[102.95356,11.60492],[102.94348,11.6261],[102.93905,11.62387],[102.93601,11.62836],[102.93938,11.63173],[102.93556,11.63634],[102.92665,11.63989],[102.91864,11.62811],[102.9091,11.65016],[102.91487,11.65293],[102.91079,11.68138],[102.91125,11.74489],[102.90468,11.7673],[102.89163,11.78701],[102.88215,11.78953],[102.88375,11.79951],[102.86594,11.80597],[102.85938,11.81963],[102.86062,11.82404],[102.85218,11.82596],[102.84445,11.8454],[102.8341,11.85481],[102.82025,11.88965],[102.82231,11.90693],[102.81443,11.92137],[102.81522,11.93381],[102.80843,11.94547],[102.79982,11.94975],[102.79182,11.97332],[102.7889,11.97734],[102.78443,11.97747],[102.78064,11.98861],[102.77603,12.01403],[102.77943,12.02519],[102.77424,12.03299],[102.77454,12.05186],[102.76975,12.0674],[102.77164,12.0714],[102.7578,12.08097],[102.75168,12.09454],[102.73456,12.11168],[102.72993,12.12909],[102.72142,12.13369],[102.71642,12.1449],[102.71075,12.14972],[102.70855,12.16725],[102.70413,12.17193],[102.71166,12.19739],[102.70826,12.20412],[102.70942,12.21036],[102.71253,12.22036],[102.71723,12.22287],[102.71755,12.24999],[102.71438,12.26659],[102.72633,12.30175],[102.72343,12.34777],[102.72558,12.36341],[102.74279,12.38794],[102.75037,12.39222],[102.7721,12.39529],[102.78444,12.40173],[102.78724,12.41445],[102.78202,12.43418],[102.77428,12.43424],[102.77119,12.43785],[102.76964,12.44855],[102.76464,12.45669],[102.75392,12.45691],[102.75015,12.46267],[102.74621,12.45738],[102.74171,12.46586],[102.73645,12.46615],[102.74014,12.48267],[102.73391,12.4892],[102.72714,12.48983],[102.72214,12.48519],[102.71985,12.48837],[102.72477,12.49518],[102.72299,12.50176],[102.72864,12.51267],[102.72427,12.51325],[102.71726,12.50762],[102.71048,12.50918],[102.70478,12.51438],[102.70498,12.52016],[102.69558,12.52064],[102.69677,12.52718],[102.69291,12.53201],[102.67742,12.53984],[102.68489,12.54866],[102.675,12.56014],[102.66746,12.56322],[102.66568,12.57627],[102.66009,12.58203],[102.6444,12.58532],[102.64425,12.59411],[102.64801,12.6001],[102.64638,12.60932],[102.64324,12.61183],[102.62913,12.61016],[102.627,12.61542],[102.61759,12.61525],[102.60591,12.62774],[102.58234,12.64456],[102.57983,12.65321],[102.57133,12.65354],[102.56611,12.65764],[102.55284,12.65261],[102.54421,12.65612],[102.53978,12.65171],[102.53139,12.65426],[102.51036,12.67019],[102.5051,12.68332],[102.51025,12.6912],[102.49726,12.70435],[102.50352,12.71296],[102.50446,12.73185],[102.50003,12.73949],[102.50622,12.75046],[102.51003,12.75361],[102.51742,12.75141],[102.52443,12.76307],[102.53105,12.76615],[102.53622,12.78364],[102.52824,12.79662],[102.53248,12.81215],[102.52866,12.81759],[102.515,12.82279],[102.51641,12.83925],[102.50196,12.84935],[102.49798,12.85928],[102.50578,12.86588],[102.50538,12.87891],[102.50922,12.88286],[102.5021,12.90156],[102.5013,12.91663],[102.49523,12.92202],[102.48617,12.94741],[102.49721,12.95287],[102.50146,12.95996],[102.49691,12.96857],[102.48626,12.97659],[102.48843,12.98338],[102.4986,12.9859],[102.50218,12.9922],[102.50841,12.99567],[102.51233,12.99499],[102.5134,12.991],[102.52117,12.99959],[102.53025,13.00218],[102.52568,13.00568],[102.506,13.00583],[102.49558,13.01333],[102.45911,13.08282],[102.44424,13.087],[102.44174,13.0846],[102.43497,13.08959],[102.43346,13.10089],[102.4154,13.12528],[102.4162,13.13931],[102.4069,13.14444],[102.39874,13.15703],[102.40071,13.15912],[102.39755,13.16073],[102.39815,13.17178],[102.39144,13.18385],[102.3944,13.1917],[102.39077,13.19533],[102.38848,13.21004],[102.37072,13.23545],[102.36607,13.26246],[102.35767,13.27119],[102.35027,13.27278],[102.34925,13.29306],[102.35873,13.30938],[102.35838,13.32029],[102.35039,13.3301],[102.34935,13.34264],[102.34517,13.34856],[102.34729,13.36244],[102.35526,13.37759],[102.35479,13.38933],[102.36024,13.40166],[102.35949,13.41799],[102.36214,13.42183],[102.36113,13.43083],[102.35808,13.43337],[102.36017,13.44252],[102.35595,13.44667],[102.35661,13.47589]],[[104.26817,10.56011],[104.26696,10.55971],[104.26722,10.55975],[104.26817,10.56011]],[[103.8454,11.07194],[103.83406,11.0729],[103.82284,11.05758],[103.81665,11.05582],[103.81175,11.07513],[103.81324,11.09421],[103.80668,11.10269],[103.81095,11.11146],[103.7985,11.11603],[103.80964,11.11133],[103.80616,11.10217],[103.81219,11.09472],[103.81097,11.07487],[103.81639,11.05543],[103.82447,11.05766],[103.83407,11.072],[103.8454,11.07194]],[[103.59606,11.16535],[103.58515,11.16022],[103.58421,11.16434],[103.58151,11.16066],[103.58737,11.15992],[103.59606,11.16535]]],[[[104.42054,10.46405],[104.41786,10.46837],[104.42306,10.47302],[104.42333,10.46658],[104.42054,10.46405]]],[[[104.38976,10.45221],[104.38351,10.45709],[104.37801,10.4683],[104.38271,10.46624],[104.38296,10.46985],[104.39051,10.4718],[104.41969,10.46142],[104.41762,10.45638],[104.39887,10.45532],[104.39756,10.46009],[104.40289,10.46577],[104.39221,10.46781],[104.39483,10.45699],[104.38976,10.45221]]],[[[104.40684,10.47569],[104.40989,10.48305],[104.41133,10.47712],[104.40684,10.47569]]],[[[104.40014,10.47414],[104.39727,10.47426],[104.39883,10.47826],[104.40014,10.47414]]],[[[104.34322,10.42235],[104.34243,10.42595],[104.34477,10.42751],[104.34322,10.42235]]],[[[104.3268,10.42966],[104.3195,10.43274],[104.32182,10.44421],[104.33407,10.43908],[104.33252,10.43238],[104.3268,10.42966]]],[[[104.33,10.39319],[104.32634,10.39757],[104.33297,10.40145],[104.33,10.39319]]],[[[104.17887,10.54259],[104.17065,10.54566],[104.16682,10.56678],[104.17149,10.57247],[104.17445,10.58742],[104.17038,10.59824],[104.17481,10.59915],[104.1795,10.59929],[104.19541,10.58902],[104.1983,10.58156],[104.20586,10.57874],[104.20731,10.5705],[104.20459,10.56675],[104.18338,10.55858],[104.17887,10.54259]]],[[[104.16347,10.55479],[104.15734,10.55774],[104.16448,10.56446],[104.16347,10.55479]]],[[[103.90577,10.65593],[103.89977,10.65604],[103.89924,10.65797],[103.90577,10.65593]]],[[[103.84945,10.59749],[103.84787,10.60032],[103.84995,10.602],[103.84945,10.59749]]],[[[103.80591,10.40314],[103.79493,10.41611],[103.78817,10.41441],[103.78412,10.4171],[103.78241,10.42251],[103.78838,10.42588],[103.78549,10.43386],[103.78756,10.43747],[103.7925,10.43788],[103.79799,10.43262],[103.80267,10.43264],[103.80321,10.42954],[103.81779,10.4296],[103.82313,10.42653],[103.82197,10.42343],[103.81586,10.42212],[103.81574,10.41864],[103.80923,10.41939],[103.80508,10.41615],[103.80889,10.4074],[103.80591,10.40314]]],[[[103.7701,10.44102],[103.76826,10.44513],[103.75861,10.44973],[103.74761,10.46515],[103.73951,10.47143],[103.73483,10.47103],[103.73297,10.48107],[103.74757,10.47598],[103.7513,10.48553],[103.75074,10.49635],[103.7567,10.50384],[103.75575,10.51441],[103.76251,10.51662],[103.77997,10.51334],[103.79603,10.50168],[103.79763,10.45736],[103.78112,10.45214],[103.7788,10.4462],[103.7701,10.44102]]],[[[103.69277,11.10762],[103.68885,11.10838],[103.68909,11.11199],[103.69223,11.11174],[103.69277,11.10762]]],[[[103.69007,10.74508],[103.68549,10.74631],[103.69015,10.75213],[103.69245,10.74796],[103.69007,10.74508]]],[[[103.62179,10.48125],[103.61982,10.48318],[103.62229,10.48602],[103.62179,10.48125]]],[[[103.60047,10.47369],[103.59734,10.4738],[103.59341,10.48023],[103.58065,10.48172],[103.58803,10.49051],[103.57834,10.50155],[103.58078,10.50865],[103.60033,10.50526],[103.59906,10.49778],[103.60428,10.49471],[103.60836,10.48493],[103.60772,10.48222],[103.60005,10.48026],[103.60047,10.47369]]],[[[103.56083,10.48691],[103.55637,10.49501],[103.55194,10.4955],[103.56025,10.50121],[103.56732,10.49094],[103.56083,10.48691]]],[[[103.54324,10.51956],[103.54048,10.52354],[103.54761,10.53182],[103.54324,10.51956]]],[[[103.49095,11.18501],[103.48676,11.18666],[103.48596,11.19027],[103.49095,11.18501]]],[[[103.48102,10.62169],[103.4724,10.62655],[103.47523,10.63403],[103.47656,10.6294],[103.48488,10.6315],[103.48815,10.6292],[103.48102,10.62169]]],[[[103.40818,10.60433],[103.4131,10.61028],[103.41934,10.61198],[103.43238,10.6096],[103.42979,10.60637],[103.40818,10.60433]]],[[[103.31236,10.55217],[103.30264,10.56757],[103.29484,10.56637],[103.29583,10.57617],[103.28339,10.58744],[103.27948,10.61189],[103.29374,10.62344],[103.29873,10.61689],[103.31457,10.62445],[103.31657,10.61544],[103.32219,10.61199],[103.32365,10.60698],[103.3014,10.60402],[103.30641,10.59375],[103.31136,10.59248],[103.30489,10.58601],[103.30687,10.58086],[103.31694,10.57332],[103.32579,10.57324],[103.33065,10.58949],[103.33325,10.58977],[103.33865,10.57794],[103.33946,10.57408],[103.32495,10.56061],[103.3253,10.54386],[103.31893,10.54215],[103.31071,10.54481],[103.31236,10.55217]]],[[[103.20506,10.7117],[103.20139,10.71554],[103.20515,10.71994],[103.20092,10.72919],[103.20272,10.73436],[103.19383,10.73881],[103.18814,10.73221],[103.18211,10.7381],[103.186,10.74044],[103.19101,10.75361],[103.18964,10.76468],[103.19807,10.77104],[103.20957,10.76544],[103.22259,10.76539],[103.22972,10.77161],[103.23267,10.78013],[103.25657,10.77099],[103.24995,10.76683],[103.2564,10.75399],[103.25805,10.73905],[103.25273,10.7358],[103.25393,10.73027],[103.25696,10.72526],[103.26112,10.7258],[103.26037,10.72077],[103.26599,10.71797],[103.27026,10.7234],[103.27704,10.72099],[103.28171,10.72501],[103.28928,10.72299],[103.29625,10.7117],[103.29173,10.70471],[103.30035,10.70025],[103.30862,10.71254],[103.31594,10.70794],[103.31347,10.70612],[103.31534,10.69814],[103.31212,10.69168],[103.29914,10.68311],[103.29838,10.67873],[103.29159,10.68268],[103.28326,10.68083],[103.27357,10.66648],[103.27349,10.65798],[103.26806,10.65099],[103.26416,10.65058],[103.25971,10.65378],[103.25921,10.67284],[103.24628,10.70266],[103.23987,10.70752],[103.23074,10.70837],[103.22662,10.70113],[103.21776,10.70172],[103.21045,10.70464],[103.20506,10.7117]]],[[[103.29998,10.6263],[103.29592,10.6295],[103.29785,10.63467],[103.30357,10.63676],[103.30348,10.62877],[103.29998,10.6263]]],[[[103.19451,10.80014],[103.1924,10.8045],[103.19942,10.80699],[103.20438,10.8047],[103.19451,10.80014]]],[[[103.17721,10.81627],[103.17159,10.81997],[103.16592,10.83101],[103.17322,10.82951],[103.18205,10.83549],[103.19684,10.82347],[103.19569,10.82024],[103.17721,10.81627]]],[[[103.1696,10.25135],[103.17059,10.26011],[103.17685,10.25732],[103.1696,10.25135]]],[[[103.17267,10.8353],[103.1716,10.83852],[103.17473,10.83905],[103.17267,10.8353]]],[[[103.14662,10.26732],[103.14285,10.28959],[103.12852,10.29388],[103.12508,10.30288],[103.13335,10.31246],[103.13614,10.32459],[103.13906,10.31507],[103.15024,10.31513],[103.15131,10.31153],[103.14013,10.30889],[103.13847,10.30425],[103.13825,10.29677],[103.14862,10.28137],[103.15435,10.28076],[103.15621,10.27266],[103.15023,10.27301],[103.14662,10.26732]]],[[[103.15094,11.10234],[103.14726,11.10708],[103.1517,11.10582],[103.15094,11.10234]]],[[[103.13829,11.52669],[103.14319,11.536],[103.14414,11.53111],[103.13829,11.52669]]],[[[103.11465,11.46703],[103.13271,11.48106],[103.13384,11.48725],[103.13934,11.48599],[103.14171,11.48214],[103.13627,11.47606],[103.11465,11.46703]]],[[[103.13347,11.46419],[103.12758,11.46737],[103.13473,11.4718],[103.13347,11.46419]]],[[[103.12378,11.30994],[103.11955,11.31803],[103.12767,11.3128],[103.12378,11.30994]]],[[[103.10188,11.46244],[103.0944,11.46793],[103.09553,11.47579],[103.11125,11.46765],[103.10188,11.46244]]],[[[103.09539,11.45647],[103.08311,11.45742],[103.08513,11.46877],[103.09074,11.46945],[103.09194,11.46482],[103.10008,11.45934],[103.09539,11.45647]]],[[[103.08768,11.43852],[103.08297,11.44042],[103.09806,11.44863],[103.08768,11.43852]]],[[[103.08693,11.434],[103.09367,11.44126],[103.0946,11.43856],[103.08693,11.434]]],[[[103.08841,11.05029],[103.08761,11.05364],[103.09205,11.05238],[103.08841,11.05029]]],[[[103.07799,10.8878],[103.06664,10.88914],[103.07162,10.90515],[103.07448,10.90594],[103.08524,10.8957],[103.0902,10.8947],[103.09088,10.8893],[103.07799,10.8878]]],[[[103.08995,11.25395],[103.08616,11.2556],[103.08626,11.25921],[103.08995,11.25395]]],[[[103.08497,11.45344],[103.0787,11.4543],[103.08625,11.45744],[103.0894,11.45489],[103.08497,11.45344]]],[[[103.08131,11.05939],[103.07947,11.06157],[103.08467,11.06521],[103.08131,11.05939]]],[[[103.07018,10.92588],[103.07193,10.93761],[103.0797,10.94552],[103.08001,10.93818],[103.07018,10.92588]]],[[[103.0678,10.97172],[103.06584,10.97338],[103.07061,10.98152],[103.08052,10.98017],[103.0709,10.97663],[103.0678,10.97172]]],[[[103.06332,11.44969],[103.0582,11.45326],[103.05749,11.46202],[103.06321,11.46528],[103.07132,11.46417],[103.07372,11.45646],[103.0714,11.45245],[103.06332,11.44969]]],[[[103.07219,11.05856],[103.07008,11.06203],[103.07321,11.06179],[103.07219,11.05856]]],[[[103.0473,11.5002],[103.05466,11.49394],[103.04843,11.48772],[103.0581,11.48688],[103.05964,11.4914],[103.0655,11.49324],[103.07009,11.49018],[103.07013,11.48477],[103.06518,11.48306],[103.06625,11.47972],[103.04848,11.48115],[103.04368,11.49567],[103.04733,11.49621],[103.0473,11.5002]]],[[[103.04576,11.45911],[103.04437,11.47017],[103.04085,11.46989],[103.03466,11.47758],[103.06839,11.47239],[103.06815,11.46866],[103.04934,11.46995],[103.0465,11.46504],[103.04849,11.46067],[103.04576,11.45911]]],[[[103.06158,10.92647],[103.06521,10.92958],[103.06601,10.92675],[103.06158,10.92647]]],[[[103.05963,10.9052],[103.05725,10.91034],[103.06342,10.90956],[103.05963,10.9052]]],[[[103.05306,10.95385],[103.04732,10.95471],[103.05015,10.9604],[103.05744,10.96122],[103.05306,10.95385]]],[[[103.05234,11.45078],[103.05025,11.45102],[103.05282,11.45696],[103.05234,11.45078]]],[[[103.0477,11.55675],[103.04125,11.56315],[103.04186,11.56998],[103.0463,11.56937],[103.04243,11.56264],[103.04713,11.56319],[103.0477,11.55675]]],[[[102.97674,11.35895],[102.97964,11.37262],[102.97036,11.39394],[102.9797,11.42027],[102.9869,11.41698],[102.98258,11.40072],[103.00322,11.41734],[103.0147,11.41871],[103.02354,11.40563],[103.01977,11.40226],[103.03165,11.38379],[103.03187,11.3704],[103.02368,11.34664],[103.03088,11.34411],[103.0406,11.3349],[103.03731,11.31943],[103.04458,11.30608],[103.03964,11.28492],[103.03197,11.27946],[103.03135,11.27508],[103.03477,11.27124],[103.0278,11.2596],[103.02553,11.24825],[103.01696,11.24239],[103.00594,11.25082],[103.00087,11.2486],[102.99416,11.25667],[102.99052,11.25407],[102.98937,11.26913],[102.98019,11.27654],[102.98462,11.27695],[102.98567,11.29538],[102.98064,11.30513],[102.99021,11.31808],[102.98632,11.33351],[102.98849,11.33996],[102.97533,11.35507],[102.97674,11.35895]]],[[[103.04375,11.49999],[103.04074,11.50518],[103.04387,11.50546],[103.04375,11.49999]]],[[[103.02432,11.42483],[103.0209,11.42803],[103.01677,11.4213],[103.01239,11.43183],[103.00649,11.43566],[103.01172,11.43415],[103.01482,11.43855],[103.01261,11.45656],[103.01854,11.44888],[103.01898,11.44167],[103.01588,11.43727],[103.0202,11.43498],[103.02165,11.45225],[103.02437,11.45484],[103.03124,11.44407],[103.03908,11.44206],[103.03704,11.43548],[103.03284,11.43828],[103.03028,11.43067],[103.02273,11.42804],[103.02432,11.42483]]],[[[103.02758,11.48217],[103.03537,11.48827],[103.03878,11.48559],[103.0388,11.48276],[103.02758,11.48217]]],[[[103.03469,11.51094],[103.03466,11.51596],[103.03702,11.51443],[103.03469,11.51094]]],[[[103.02915,11.51927],[103.02908,11.52919],[103.03195,11.52895],[103.03214,11.52136],[103.02915,11.51927]]],[[[103.02581,11.47353],[103.02004,11.47645],[103.02209,11.48316],[103.02525,11.47867],[103.02994,11.48025],[103.03152,11.47782],[103.03128,11.47498],[103.02581,11.47353]]],[[[103.02379,11.50018],[103.02273,11.50287],[103.02586,11.50354],[103.02379,11.50018]]],[[[103.0231,11.48742],[103.02035,11.4883],[103.02463,11.49258],[103.0231,11.48742]]],[[[102.99431,11.4947],[103.00948,11.47483],[103.01427,11.46147],[103.01245,11.45991],[102.99122,11.49016],[102.99231,11.49345],[102.98659,11.4976],[102.98367,11.50531],[102.9853,11.51382],[102.99431,11.4947]]],[[[102.98632,11.55453],[102.98447,11.55683],[102.98786,11.5584],[102.98957,11.5561],[102.98632,11.55453]]],[[[102.97761,11.56748],[102.96893,11.57502],[102.97468,11.57403],[102.97761,11.56748]]],[[[102.95634,10.36884],[102.95203,10.37113],[102.95344,10.37397],[102.96696,10.37612],[102.96775,10.3738],[102.95657,10.37244],[102.95634,10.36884]]],[[[102.95845,11.54352],[102.95243,11.54476],[102.95028,11.55299],[102.96428,11.56829],[102.95784,11.5551],[102.95199,11.55094],[102.95845,11.54352]]],[[[102.96152,11.58771],[102.95889,11.5904],[102.96216,11.58991],[102.96152,11.58771]]],[[[102.96026,11.5823],[102.94946,11.59445],[102.95669,11.59356],[102.96026,11.5823]]],[[[102.95795,11.57635],[102.95424,11.58341],[102.95957,11.5813],[102.95795,11.57635]]],[[[102.95463,11.565],[102.94975,11.5723],[102.94793,11.571],[102.94076,11.58667],[102.9367,11.58844],[102.93332,11.58558],[102.93105,11.59252],[102.93426,11.60066],[102.94124,11.59311],[102.93956,11.58975],[102.95018,11.58416],[102.94721,11.58027],[102.95118,11.57257],[102.95748,11.56927],[102.95463,11.565]]],[[[102.93894,11.60314],[102.92724,11.63062],[102.93252,11.62344],[102.93789,11.62168],[102.93504,11.61857],[102.93894,11.60314]]],[[[102.93193,9.91464],[102.91718,9.92576],[102.91259,9.93397],[102.91726,9.93478],[102.92277,9.92541],[102.9376,9.92202],[102.93789,9.9179],[102.93193,9.91464]]],[[[102.90154,9.91368],[102.88132,9.92656],[102.87908,9.9317],[102.88792,9.93124],[102.89162,9.92199],[102.90672,9.91719],[102.90154,9.91368]]]]}}]}