{"type":"FeatureCollection","features":[{"type":"Feature","properties":{"ISO_A3":"KIR","WB_A3":"KIR","WB_NAME":"Kiribati","WB_REGION":"EAS"},"geometry":{"type":"MultiPolygon","coordinates":[[[[176.84684,-2.67257],[176.82966,-2.65413],[176.81966,-2.63737],[176.79044,-2.61261],[176.80813,-2.61661],[176.82377,-2.62783],[176.84363,-2.65542],[176.84684,-2.67257]]],[[[176.42913,-1.31277],[176.43989,-1.3147],[176.44988,-1.32412],[176.45922,-1.35403],[176.46908,-1.36924],[176.48893,-1.38575],[176.49315,-1.40457],[176.48419,-1.4007],[176.47509,-1.39142],[176.4733,-1.37904],[176.46882,-1.37182],[176.40517,-1.31689],[176.40428,-1.31289],[176.41017,-1.3116],[176.42913,-1.31277]]],[[[175.99263,-1.31237],[176.00721,-1.33945],[176.02488,-1.35982],[176.02962,-1.36962],[176.02257,-1.37542],[176.00695,-1.362],[175.99542,-1.3571],[175.9839,-1.34202],[175.98391,-1.33738],[175.9939,-1.33661],[175.99402,-1.34563],[175.9985,-1.34898],[175.99786,-1.34176],[175.98865,-1.31521],[175.97726,-1.29947],[175.9455,-1.29534],[175.94409,-1.28786],[175.95499,-1.26969],[175.98136,-1.29329],[175.99263,-1.31237]]],[[[175.9991,-2.51543],[175.99192,-2.51465],[175.96605,-2.49181],[175.96657,-2.48369],[175.97247,-2.48357],[175.98169,-2.4895],[175.99936,-2.50808],[175.9991,-2.51543]]],[[[175.52665,-1.79209],[175.55917,-1.80861],[175.56055,-1.81505],[175.55377,-1.84134],[175.5671,-1.85799],[175.57015,-1.85644],[175.57757,-1.86327],[175.606,-1.87335],[175.61816,-1.88754],[175.62007,-1.89682],[175.61544,-1.91718],[175.59531,-1.9432],[175.61288,-1.91718],[175.61532,-1.9079],[175.61406,-1.89114],[175.60216,-1.87683],[175.58192,-1.86985],[175.5681,-1.8612],[175.55159,-1.83954],[175.55443,-1.81634],[175.54995,-1.81144],[175.53253,-1.80604],[175.52857,-1.79982],[175.52639,-1.80292],[175.51998,-1.80214],[175.51897,-1.79105],[175.52665,-1.79209]]],[[[175.58827,-1.94499],[175.59019,-1.94691],[175.58698,-1.94963],[175.58545,-1.9468],[175.58827,-1.94499]]],[[[175.57982,-1.93957],[175.58801,-1.94164],[175.58212,-1.94589],[175.58544,-1.95182],[175.5779,-1.95389],[175.56981,-1.95155],[175.57008,-1.94472],[175.57281,-1.94489],[175.57674,-1.93828],[175.57982,-1.93957]]],[[[175.05183,-1.47442],[175.04928,-1.47223],[175.05466,-1.46618],[175.06951,-1.46696],[175.06848,-1.47134],[175.07769,-1.4796],[175.07717,-1.493],[175.07576,-1.49557],[175.06949,-1.49453],[175.06948,-1.4984],[175.07512,-1.49712],[175.07778,-1.52444],[175.07356,-1.52211],[175.07548,-1.51851],[175.0682,-1.49866],[175.07231,-1.48307],[175.05874,-1.48151],[175.05183,-1.47442]]],[[[175.06178,-1.52339],[175.06601,-1.52004],[175.06868,-1.53654],[175.07303,-1.53964],[175.06458,-1.53576],[175.06178,-1.52339]]],[[[175.0457,-1.45921],[175.0521,-1.46282],[175.04787,-1.47003],[175.04135,-1.46333],[175.0457,-1.45921]]],[[[175.01013,-1.43599],[175.01141,-1.43264],[175.02664,-1.43806],[175.02779,-1.44579],[175.03368,-1.44168],[175.037,-1.45096],[175.04315,-1.45521],[175.03879,-1.45959],[175.01883,-1.44398],[175.01281,-1.44733],[175.01013,-1.43599]]],[[[175.00604,-1.42928],[175.00501,-1.44088],[175.00117,-1.44062],[174.99861,-1.43881],[175.00604,-1.42928]]],[[[174.99017,-1.42772],[174.99529,-1.42708],[174.9981,-1.43159],[174.99567,-1.43391],[174.99042,-1.43159],[174.99017,-1.42772]]],[[[174.98402,-1.42514],[174.98915,-1.42257],[174.98722,-1.42901],[174.98402,-1.42514]]],[[[174.98096,-1.41998],[174.98005,-1.4272],[174.97698,-1.42797],[174.98096,-1.41998]]],[[[174.97481,-1.41972],[174.97353,-1.42719],[174.97174,-1.42023],[174.97481,-1.41972]]],[[[174.96227,-1.41945],[174.96303,-1.42293],[174.95817,-1.4228],[174.96227,-1.41945]]],[[[174.95151,-1.41907],[174.94486,-1.41171],[174.94871,-1.40939],[174.95024,-1.41506],[174.95344,-1.41584],[174.95151,-1.41907]]],[[[174.94103,-1.40784],[174.94525,-1.40604],[174.94282,-1.4108],[174.94103,-1.40784]]],[[[174.929,-1.40319],[174.929,-1.39778],[174.93092,-1.39907],[174.929,-1.40319]]],[[[174.89957,-1.38203],[174.89906,-1.38641],[174.90627,-1.38384],[174.90929,-1.38935],[174.90596,-1.39131],[174.89598,-1.38899],[174.89368,-1.3846],[174.89957,-1.38203]]],[[[174.89036,-1.3712],[174.89421,-1.36773],[174.89817,-1.37533],[174.89535,-1.37636],[174.89472,-1.37275],[174.89036,-1.3712]]],[[[174.88755,-1.36759],[174.88486,-1.36527],[174.88704,-1.36167],[174.89012,-1.3627],[174.88755,-1.36759]]],[[[174.87323,-1.35212],[174.87886,-1.35393],[174.8754,-1.36062],[174.87092,-1.35328],[174.87323,-1.35212]]],[[[174.87297,-1.35057],[174.86837,-1.3498],[174.87016,-1.34593],[174.87297,-1.35057]]],[[[174.86274,-1.33897],[174.86786,-1.34232],[174.86581,-1.34683],[174.86044,-1.34283],[174.86274,-1.33897]]],[[[174.84917,-1.34128],[174.85404,-1.33561],[174.85647,-1.3369],[174.85327,-1.34231],[174.84917,-1.3436],[174.84917,-1.34128]]],[[[174.81719,-1.3245],[174.81987,-1.32296],[174.81795,-1.32914],[174.81719,-1.3245]]],[[[174.66404,-1.10537],[174.66557,-1.10396],[174.6758,-1.11466],[174.68091,-1.12471],[174.69524,-1.13168],[174.69933,-1.1407],[174.70087,-1.13709],[174.7088,-1.14663],[174.71852,-1.14831],[174.72696,-1.15747],[174.73463,-1.17448],[174.7446,-1.18221],[174.74971,-1.19871],[174.75816,-1.19949],[174.78079,-1.22604],[174.77861,-1.23107],[174.78424,-1.22965],[174.79166,-1.23919],[174.79433,-1.25697],[174.79011,-1.25517],[174.79842,-1.26883],[174.80262,-1.29627],[174.7975,-1.29666],[174.79803,-1.27527],[174.78857,-1.25748],[174.78718,-1.2428],[174.77388,-1.22372],[174.75738,-1.21392],[174.73385,-1.18929],[174.72809,-1.18143],[174.72657,-1.17241],[174.71749,-1.16364],[174.67399,-1.13617],[174.66529,-1.135],[174.66018,-1.12765],[174.66594,-1.12676],[174.66671,-1.11877],[174.66249,-1.12134],[174.66057,-1.11954],[174.6639,-1.11722],[174.66404,-1.10537]]],[[[174.41994,-0.63649],[174.41022,-0.63018],[174.3936,-0.60686],[174.38567,-0.60557],[174.36367,-0.58881],[174.36802,-0.58482],[174.38286,-0.59513],[174.41457,-0.62735],[174.44169,-0.64436],[174.45153,-0.65725],[174.45587,-0.68429],[174.45329,-0.71933],[174.46837,-0.75025],[174.47782,-0.78683],[174.47563,-0.80744],[174.46513,-0.81426],[174.45055,-0.80265],[174.45286,-0.79866],[174.46066,-0.80228],[174.46437,-0.81078],[174.46949,-0.80692],[174.47204,-0.80885],[174.47653,-0.79868],[174.47551,-0.78889],[174.46632,-0.75746],[174.45174,-0.73504],[174.44945,-0.71469],[174.45177,-0.68326],[174.44641,-0.66986],[174.4459,-0.65286],[174.43759,-0.65209],[174.43516,-0.65002],[174.4358,-0.64217],[174.42335,-0.64006],[174.41994,-0.63649]]],[[[174.35907,-0.58675],[174.34756,-0.58056],[174.33246,-0.58107],[174.32863,-0.5754],[174.32121,-0.57604],[174.32249,-0.5727],[174.33937,-0.57966],[174.34039,-0.57631],[174.35728,-0.57761],[174.36329,-0.58302],[174.35907,-0.58675]]],[[[174.31839,-0.5763],[174.31456,-0.56767],[174.31993,-0.57063],[174.31839,-0.5763]]],[[[174.30842,-0.56625],[174.29921,-0.55581],[174.28488,-0.55401],[174.28617,-0.54976],[174.29026,-0.54899],[174.29947,-0.5544],[174.31021,-0.56368],[174.31251,-0.56703],[174.31033,-0.57063],[174.30842,-0.56625]]],[[[174.27363,-0.55619],[174.27337,-0.55027],[174.279,-0.54898],[174.27862,-0.55413],[174.27363,-0.55619]]],[[[174.25495,-0.55283],[174.25879,-0.54807],[174.26288,-0.55],[174.25495,-0.55283]]],[[[174.24651,-0.54691],[174.24273,-0.54459],[174.24882,-0.5451],[174.24651,-0.54691]]],[[[174.2427,-0.54451],[174.24114,-0.53969],[174.24408,-0.54098],[174.2427,-0.54451]]],[[[174.23551,-0.54407],[174.23347,-0.54175],[174.23795,-0.5348],[174.22989,-0.5281],[174.22784,-0.53196],[174.22337,-0.53221],[174.2304,-0.5241],[174.2391,-0.53711],[174.23551,-0.54407]]],[[[173.94304,0.3475],[173.93639,0.34532],[173.93448,0.36399],[173.92055,0.40082],[173.92541,0.40365],[173.94215,0.3627],[173.94304,0.3475]]],[[[173.94457,0.34132],[173.94227,0.34132],[173.94367,0.31969],[173.93791,0.30721],[173.9287,0.30489],[173.90578,0.3071],[173.90568,0.31172],[173.92973,0.31416],[173.93485,0.31738],[173.93498,0.34184],[173.93716,0.34467],[173.94457,0.34132]]],[[[173.82082,0.48996],[173.83975,0.49446],[173.85944,0.48144],[173.91391,0.43558],[173.92145,0.41936],[173.92286,0.41369],[173.9203,0.41112],[173.92413,0.41086],[173.92541,0.40597],[173.91965,0.40416],[173.90969,0.42528],[173.85279,0.48054],[173.84103,0.4875],[173.83156,0.48699],[173.82465,0.48172],[173.8043,0.45133],[173.80111,0.45443],[173.80392,0.46318],[173.81032,0.47013],[173.80994,0.47734],[173.82082,0.48996]]],[[[173.84712,0.3465],[173.8489,0.33994],[173.84187,0.34316],[173.84712,0.3465]]],[[[173.76783,0.39366],[173.78497,0.3867],[173.79289,0.37858],[173.76552,0.38284],[173.76105,0.38903],[173.76783,0.39366]]],[[[173.63152,0.20305],[173.64152,0.18507],[173.64395,0.16626],[173.63026,0.12969],[173.61222,0.1181],[173.61759,0.13355],[173.62373,0.13355],[173.62808,0.1387],[173.63678,0.15957],[173.63794,0.1727],[173.62988,0.18327],[173.63065,0.18867],[173.63525,0.18687],[173.63743,0.19254],[173.63152,0.20305]]],[[[173.6199,0.19331],[173.61965,0.19821],[173.62566,0.20799],[173.6199,0.19331]]],[[[173.54519,0.18894],[173.56707,0.18533],[173.56617,0.17787],[173.58357,0.17361],[173.58306,0.17155],[173.56233,0.17001],[173.54442,0.17671],[173.53726,0.18122],[173.53777,0.18534],[173.54519,0.18894]]],[[[173.41265,0.23147],[173.43389,0.22657],[173.45257,0.21575],[173.45282,0.21343],[173.4367,0.20635],[173.42723,0.19553],[173.42032,0.19437],[173.42045,0.20081],[173.41495,0.20545],[173.4115,0.22735],[173.40536,0.24049],[173.38028,0.25956],[173.38732,0.27128],[173.40408,0.25852],[173.41265,0.23147]]],[[[173.26101,2.03424],[173.26252,2.01491],[173.25867,2.00384],[173.25787,1.98478],[173.26017,1.98117],[173.29601,1.97171],[173.30204,1.97931],[173.29087,1.99568],[173.29835,1.99657],[173.30869,1.97878],[173.3042,1.97132],[173.29524,1.96991],[173.25556,1.97538],[173.25135,1.98659],[173.25174,1.99792],[173.25958,2.01363],[173.25703,2.02549],[173.25859,2.04275],[173.26694,2.05948],[173.27513,2.05973],[173.28242,2.04941],[173.29912,1.99824],[173.29297,1.99606],[173.2857,2.01617],[173.28546,2.02828],[173.27908,2.04169],[173.26179,2.03836],[173.26101,2.03424]]],[[[172.98334,1.33038],[172.99881,1.33123],[173.0211,1.33817],[173.03595,1.34653],[173.03878,1.35477],[173.04595,1.35824],[173.06003,1.35746],[173.08487,1.36543],[173.11559,1.3645],[173.12353,1.36926],[173.13812,1.36461],[173.14529,1.36576],[173.14517,1.37864],[173.13839,1.37968],[173.1334,1.38793],[173.13738,1.39514],[173.16514,1.37347],[173.16398,1.36188],[173.15988,1.35866],[173.12967,1.36436],[173.10919,1.3618],[173.08896,1.36349],[173.07129,1.35668],[173.0462,1.35631],[173.04748,1.35219],[173.02852,1.33816],[173.00752,1.32916],[173.00573,1.33238],[172.9992,1.32878],[172.97321,1.327],[172.97398,1.33163],[172.98334,1.33038]]],[[[173.08775,1.44054],[173.09312,1.43061],[173.09927,1.43434],[173.10054,1.42713],[173.10694,1.42325],[173.11896,1.40662],[173.13584,1.39514],[173.1343,1.38947],[173.12023,1.39425],[173.11639,1.40392],[173.10233,1.42055],[173.08825,1.42855],[173.08569,1.42714],[173.08032,1.43307],[173.08775,1.44054]]],[[[173.13199,1.38175],[173.13507,1.38509],[173.13532,1.382],[173.13199,1.38175]]],[[[173.077,1.44106],[173.08033,1.44415],[173.08494,1.4426],[173.08007,1.43513],[173.07648,1.43552],[173.0793,1.44029],[173.077,1.44106]]],[[[173.05653,1.45989],[173.06575,1.45782],[173.06395,1.45499],[173.07662,1.44647],[173.07316,1.44055],[173.06804,1.44236],[173.06612,1.44751],[173.0619,1.447],[173.06242,1.45293],[173.05217,1.45332],[173.05064,1.45603],[173.05653,1.45989]]],[[[173.04287,0.99376],[173.02738,1.00201],[173.02163,1.00846],[173.02448,1.01323],[173.02081,1.01471],[173.0136,1.01113],[173.00336,1.02169],[173.00322,1.01431],[173.00045,1.01391],[172.99476,1.02394],[172.99937,1.0305],[173.01728,1.02379],[173.05592,0.99426],[173.0714,0.9775],[173.07216,0.9708],[173.06793,0.95663],[173.04335,0.94003],[173.03079,0.9247],[173.00464,0.85592],[172.9944,0.84329],[172.9839,0.83827],[172.97366,0.84743],[172.97469,0.85258],[172.98185,0.8415],[172.98825,0.84162],[172.99158,0.84304],[172.99082,0.84587],[172.9967,0.84742],[172.99837,0.8518],[172.99517,0.85528],[173.00093,0.85772],[173.00094,0.86262],[172.99722,0.85953],[172.9939,0.86185],[173.0117,0.88477],[173.02772,0.92844],[173.06204,0.95715],[173.06358,0.96617],[173.06077,0.97442],[173.04287,0.99376]]],[[[172.97802,1.56536],[172.99632,1.55271],[172.99445,1.55088],[172.99785,1.5491],[172.99912,1.53983],[173.01421,1.51817],[173.01471,1.5058],[173.02507,1.4969],[173.02262,1.49351],[173.02738,1.49522],[173.03415,1.48233],[173.03351,1.47769],[173.04195,1.47717],[173.04963,1.4684],[173.04937,1.46363],[173.04297,1.46583],[173.04502,1.46892],[173.03581,1.47395],[173.03849,1.46893],[173.0358,1.46751],[173.02762,1.4777],[173.02583,1.48826],[173.0133,1.49858],[173.0087,1.51315],[173.00282,1.51934],[172.99273,1.54731],[172.97878,1.55608],[172.96932,1.57155],[172.96921,1.59294],[172.96206,1.60635],[172.9531,1.60867],[172.96271,1.62413],[172.96195,1.62967],[172.96464,1.63186],[172.96631,1.62979],[172.9682,1.60505],[172.97318,1.58649],[172.97586,1.5852],[172.97419,1.57528],[172.97802,1.56536]]],[[[172.97567,1.89108],[172.9662,1.89702],[172.96019,1.90553],[172.95072,1.90696],[172.94586,1.91173],[172.94357,1.92359],[172.93717,1.92695],[172.91773,1.94874],[172.90915,1.95017],[172.90979,1.95494],[172.91671,1.95248],[172.95329,1.91379],[172.97836,1.8952],[172.98846,1.87921],[172.99045,1.86588],[173.01926,1.82481],[173.0465,1.79669],[173.04852,1.77092],[173.04158,1.74464],[173.02337,1.7207],[173.01171,1.71208],[172.99328,1.71416],[172.98496,1.71945],[172.98509,1.7228],[172.99047,1.72718],[172.9938,1.72073],[173.00429,1.71595],[173.01838,1.7189],[173.03813,1.74619],[173.04442,1.76397],[173.04495,1.78123],[173.0355,1.80211],[172.99151,1.85885],[172.98539,1.87664],[172.97567,1.89108]]],[[[173.02327,1.00388],[173.0179,1.00196],[173.01226,1.00724],[173.01423,1.00925],[173.01638,1.0046],[173.02327,1.00388]]],[[[172.98456,3.38231],[172.99613,3.39543],[173.00202,3.39297],[173.00767,3.39489],[173.00984,3.39231],[173.00661,3.37866],[172.99866,3.37983],[172.98387,3.35783],[172.97673,3.3746],[172.98456,3.38231]]],[[[173.00733,1.01017],[173.00237,1.00411],[173.00349,1.0123],[173.00631,1.01471],[173.00733,1.01017]]],[[[172.99031,0.8567],[172.98596,0.86134],[172.99159,0.86507],[172.99031,0.8567]]],[[[172.98114,3.33929],[172.98244,3.34856],[172.98552,3.34701],[172.98114,3.33929]]],[[[172.98087,3.33156],[172.98089,3.33877],[172.98294,3.33851],[172.98087,3.33156]]],[[[172.9716,3.30864],[172.972,3.31972],[172.97831,3.33079],[172.97919,3.32202],[172.9716,3.30864]]],[[[172.94644,3.15884],[172.96289,3.18059],[172.97006,3.17696],[172.9716,3.18005],[172.96754,3.20042],[172.96164,3.19785],[172.96576,3.20583],[172.96175,3.21142],[172.96321,3.2146],[172.95578,3.21861],[172.95938,3.22131],[172.9627,3.21898],[172.97149,3.18985],[172.9716,3.17645],[172.94566,3.15498],[172.91435,3.137],[172.90716,3.13044],[172.89892,3.10804],[172.89627,3.11027],[172.8961,3.10598],[172.88943,3.10663],[172.89201,3.11423],[172.90974,3.13765],[172.94644,3.15884]]],[[[172.96771,3.29035],[172.96515,3.29087],[172.96567,3.29499],[172.97031,3.30452],[172.97221,3.29575],[172.96771,3.29035]]],[[[172.96393,3.18935],[172.96676,3.19308],[172.96803,3.19088],[172.96393,3.18935]]],[[[172.96366,3.18381],[172.96521,3.18909],[172.96559,3.1847],[172.96366,3.18381]]],[[[172.9617,1.63057],[172.9553,1.63676],[172.96068,1.6365],[172.9617,1.63057]]],[[[172.95759,3.22402],[172.95336,3.22776],[172.95658,3.23214],[172.96079,3.22491],[172.95759,3.22402]]],[[[172.93509,1.36362],[172.93325,1.36002],[172.94557,1.35124],[172.93303,1.35434],[172.91895,1.35332],[172.91998,1.35977],[172.92458,1.35783],[172.93509,1.36362]]],[[[172.92145,3.22988],[172.93043,3.23489],[172.93145,3.23296],[172.92145,3.22988]]],[[[172.90082,1.95108],[172.89596,1.95225],[172.89622,1.95637],[172.90134,1.95533],[172.90082,1.95108]]],[[[172.87968,3.1024],[172.8869,3.09905],[172.89267,3.10032],[172.89045,3.10444],[172.89404,3.10418],[172.90108,3.09437],[172.89966,3.09115],[172.86635,3.09856],[172.8248,3.09129],[172.80145,3.07934],[172.79426,3.06995],[172.77476,3.06173],[172.76501,3.05363],[172.76371,3.04552],[172.76628,3.04513],[172.7637,3.0401],[172.75845,3.03973],[172.76001,3.05287],[172.75401,3.06705],[172.74287,3.07944],[172.74608,3.08047],[172.75888,3.06666],[172.76605,3.06536],[172.78939,3.07009],[172.79992,3.08244],[172.81634,3.08937],[172.8202,3.09658],[172.82482,3.09824],[172.84354,3.10233],[172.87968,3.1024]]],[[[172.87665,1.86117],[172.87025,1.8653],[172.87256,1.86697],[172.87665,1.86117]]],[[[172.87625,1.96181],[172.87343,1.96258],[172.87369,1.96542],[172.87625,1.96181]]],[[[172.85857,1.95667],[172.86011,1.96492],[172.86524,1.97135],[172.86934,1.97186],[172.86882,1.96413],[172.85857,1.95667]]],[[[172.83503,1.88289],[172.78831,1.88781],[172.79011,1.89103],[172.83503,1.88289]]],[[[172.78473,1.89065],[172.78013,1.89645],[172.7832,1.89709],[172.78473,1.89065]]],[[[172.72027,3.13154],[172.71233,3.13606],[172.71336,3.13696],[172.72027,3.13154]]],[[[172.70476,3.20862],[172.69605,3.21637],[172.70297,3.21249],[172.70476,3.20862]]],[[[172.69536,3.2625],[172.6978,3.26843],[172.69844,3.26482],[172.69536,3.2625]]],[[[172.68842,3.25607],[172.68063,3.27207],[172.68844,3.26329],[172.69203,3.26303],[172.68842,3.25607]]],[[[169.54307,-0.87421],[169.5377,-0.86699],[169.5272,-0.86634],[169.52221,-0.85848],[169.52337,-0.84894],[169.52849,-0.84546],[169.54001,-0.84598],[169.54833,-0.85385],[169.54781,-0.86622],[169.54307,-0.87421]]],[[[-150.19768,-9.95785],[-150.19985,-9.93186],[-150.202,-9.92313],[-150.20707,-9.9224],[-150.21033,-9.90543],[-150.20801,-9.90373],[-150.20213,-9.90896],[-150.19865,-9.92104],[-150.19551,-9.95345],[-150.19768,-9.95785]]],[[[-150.20071,-9.96817],[-150.20077,-9.96174],[-150.19855,-9.96275],[-150.20071,-9.96817]]],[[[-150.20669,-9.93733],[-150.20655,-9.92342],[-150.20317,-9.92365],[-150.20669,-9.93733]]],[[[-150.21199,-9.98578],[-150.21334,-9.97961],[-150.20612,-9.97363],[-150.20519,-9.97645],[-150.21199,-9.98578]]],[[[-150.21067,-9.95719],[-150.21302,-9.9563],[-150.2123,-9.94986],[-150.20892,-9.95022],[-150.21067,-9.95719]]],[[[-150.217,-9.97693],[-150.21938,-9.97219],[-150.21405,-9.95747],[-150.21145,-9.95745],[-150.217,-9.97693]]],[[[-150.21506,-9.99147],[-150.21766,-9.99123],[-150.21641,-9.98581],[-150.21237,-9.98707],[-150.21506,-9.99147]]],[[[-150.22021,-9.99666],[-150.21973,-9.99202],[-150.21634,-9.99302],[-150.22021,-9.99666]]],[[[-150.22425,-10.01021],[-150.23457,-10.00296],[-150.23269,-9.99496],[-150.22666,-10.00173],[-150.222,-10.00028],[-150.22425,-10.01021]]],[[[-150.22881,-9.99274],[-150.23129,-9.99212],[-150.22966,-9.98489],[-150.22602,-9.98486],[-150.22881,-9.99274]]],[[[-151.81473,-11.44339],[-151.82683,-11.42489],[-151.82478,-11.41303],[-151.81835,-11.42176],[-151.81029,-11.44363],[-151.81237,-11.44609],[-151.81473,-11.44339]]],[[[-154.96998,-4.01006],[-154.96867,-4.00053],[-154.96585,-3.99861],[-154.9253,-3.99638],[-154.9086,-3.98869],[-154.89218,-3.98706],[-154.89129,-3.99298],[-154.90483,-4.02362],[-154.90334,-4.04424],[-154.91953,-4.0518],[-154.9253,-4.0514],[-154.97102,-4.01625],[-154.96998,-4.01006]]],[[[-155.89023,-5.6211],[-155.8792,-5.62721],[-155.85554,-5.62423],[-155.84299,-5.63318],[-155.83905,-5.64118],[-155.84254,-5.64567],[-155.85747,-5.64998],[-155.87835,-5.66326],[-155.88913,-5.65845],[-155.90935,-5.64186],[-155.92887,-5.63829],[-155.93475,-5.63221],[-155.89848,-5.62711],[-155.89023,-5.6211]]],[[[-157.43907,1.86666],[-157.43558,1.86509],[-157.43174,1.86805],[-157.44504,1.88352],[-157.43327,1.87604],[-157.42891,1.88119],[-157.43172,1.89073],[-157.42762,1.88583],[-157.43173,1.87243],[-157.4238,1.86392],[-157.4188,1.86984],[-157.42021,1.8719],[-157.41277,1.87563],[-157.41405,1.8786],[-157.40893,1.87885],[-157.40483,1.88323],[-157.40482,1.88916],[-157.40162,1.88451],[-157.40035,1.87085],[-157.39305,1.87587],[-157.39125,1.88193],[-157.39766,1.8782],[-157.39149,1.89456],[-157.39687,1.89856],[-157.39763,1.9032],[-157.40429,1.90539],[-157.40301,1.90797],[-157.39968,1.9041],[-157.3943,1.90448],[-157.39649,1.89997],[-157.39072,1.89791],[-157.39032,1.91646],[-157.39301,1.91982],[-157.39608,1.91776],[-157.40056,1.92343],[-157.39876,1.93142],[-157.4017,1.93503],[-157.40785,1.93427],[-157.4081,1.94277],[-157.40323,1.94406],[-157.40118,1.94947],[-157.39322,1.94582],[-157.38632,1.94932],[-157.40246,1.95256],[-157.40706,1.95643],[-157.41102,1.97113],[-157.40889,1.97336],[-157.40193,1.96802],[-157.39731,1.97227],[-157.39833,1.97936],[-157.40396,1.98362],[-157.41038,1.97396],[-157.4155,1.97461],[-157.4137,1.97796],[-157.41025,1.97731],[-157.40832,1.98491],[-157.41036,1.98723],[-157.4137,1.98569],[-157.42789,2.00349],[-157.43417,2.00272],[-157.43801,2.00853],[-157.44493,2.0017],[-157.44903,2.00415],[-157.45379,2.00898],[-157.45281,2.01181],[-157.44704,2.00878],[-157.44396,2.01444],[-157.4509,2.01701],[-157.44761,2.01825],[-157.45533,2.02586],[-157.45847,2.01892],[-157.46588,2.02087],[-157.46567,2.02643],[-157.46017,2.02308],[-157.4578,2.03075],[-157.46644,2.03039],[-157.48283,2.02081],[-157.48463,2.01411],[-157.47889,1.99258],[-157.47671,1.98897],[-157.4712,1.99077],[-157.47121,1.98098],[-157.47864,1.98408],[-157.48259,2.00083],[-157.49653,2.03023],[-157.49383,2.04286],[-157.48101,2.04762],[-157.44976,2.04823],[-157.42364,2.03893],[-157.41008,2.01907],[-157.375,1.99699],[-157.35912,1.99208],[-157.31353,1.98598],[-157.30317,1.97179],[-157.30409,1.95324],[-157.33164,1.93754],[-157.34627,1.90354],[-157.34044,1.84605],[-157.32957,1.83006],[-157.31753,1.8267],[-157.31062,1.81716],[-157.29501,1.80838],[-157.27554,1.80501],[-157.26326,1.79598],[-157.24918,1.79159],[-157.23331,1.77959],[-157.18056,1.76601],[-157.17365,1.76033],[-157.1679,1.75105],[-157.16408,1.73017],[-157.16358,1.71367],[-157.16756,1.70118],[-157.21085,1.69349],[-157.23569,1.70034],[-157.25641,1.72059],[-157.28739,1.73776],[-157.31349,1.75827],[-157.3478,1.77286],[-157.36394,1.77674],[-157.39442,1.7778],[-157.43181,1.78557],[-157.44051,1.79047],[-157.46585,1.81176],[-157.48299,1.8476],[-157.49988,1.85908],[-157.5232,1.8533],[-157.53627,1.84661],[-157.54344,1.84945],[-157.5588,1.86738],[-157.56186,1.87641],[-157.53777,1.89598],[-157.53238,1.90783],[-157.48983,1.93537],[-157.49047,1.92893],[-157.50239,1.92378],[-157.50573,1.91502],[-157.51264,1.91658],[-157.5106,1.91271],[-157.5147,1.90884],[-157.53379,1.89855],[-157.53867,1.88464],[-157.53702,1.87432],[-157.52062,1.8805],[-157.49807,1.88073],[-157.4909,1.88537],[-157.46734,1.87349],[-157.46594,1.86215],[-157.46094,1.86756],[-157.46172,1.85183],[-157.45891,1.84539],[-157.44995,1.84023],[-157.44174,1.85207],[-157.44276,1.85646],[-157.4402,1.85671],[-157.4402,1.85259],[-157.43687,1.85387],[-157.43278,1.84743],[-157.41971,1.85592],[-157.42432,1.85799],[-157.42303,1.86082],[-157.42892,1.86057],[-157.43003,1.86538],[-157.43994,1.86341],[-157.43907,1.86666]]],[[[-157.3989,1.92034],[-157.39789,1.90758],[-157.40083,1.91338],[-157.40493,1.91107],[-157.40659,1.91313],[-157.3989,1.92034]]],[[[-157.40302,1.89947],[-157.40046,1.89611],[-157.40251,1.89276],[-157.40507,1.89586],[-157.40302,1.89947]]],[[[-157.40402,1.91931],[-157.40556,1.91571],[-157.40735,1.91957],[-157.40402,1.91931]]],[[[-157.41396,1.97822],[-157.41729,1.97938],[-157.41779,1.98582],[-157.41319,1.98376],[-157.41396,1.97822]]],[[[-157.42271,1.93067],[-157.41657,1.93092],[-157.41682,1.92835],[-157.424,1.92874],[-157.42271,1.93067]]],[[[-157.41762,1.89793],[-157.41903,1.89458],[-157.42351,1.89459],[-157.41762,1.89793]]],[[[-157.42726,1.99692],[-157.41882,1.98892],[-157.42599,1.99099],[-157.42944,1.9946],[-157.42726,1.99692]]],[[[-157.42893,1.85799],[-157.43341,1.85387],[-157.43354,1.85645],[-157.42893,1.85799]]],[[[-157.44428,1.87553],[-157.44044,1.87514],[-157.43949,1.86737],[-157.44224,1.8678],[-157.44403,1.87102],[-157.4407,1.87347],[-157.44428,1.87553]]],[[[-157.45365,2.00107],[-157.4434,1.99693],[-157.44648,1.99487],[-157.45365,2.00107]]],[[[-157.48058,1.9632],[-157.4802,1.95418],[-157.48546,1.95341],[-157.48058,1.9632]]],[[[-159.28219,3.81128],[-159.28168,3.81721],[-159.27963,3.81225],[-159.27757,3.81386],[-159.27975,3.82005],[-159.27629,3.82508],[-159.26885,3.82805],[-159.26654,3.82586],[-159.26679,3.83204],[-159.25653,3.83347],[-159.24844,3.84198],[-159.24639,3.84945],[-159.25063,3.86131],[-159.24627,3.8626],[-159.24473,3.85912],[-159.24293,3.86312],[-159.24164,3.84095],[-159.25037,3.82896],[-159.28014,3.81038],[-159.31248,3.80612],[-159.33404,3.81101],[-159.35651,3.83781],[-159.36345,3.8556],[-159.3587,3.85792],[-159.35151,3.85071],[-159.34842,3.83756],[-159.34149,3.82622],[-159.30889,3.81527],[-159.28566,3.81824],[-159.28501,3.81103],[-159.28219,3.81128]]],[[[-159.31765,3.90822],[-159.31662,3.89997],[-159.30635,3.88979],[-159.29325,3.88296],[-159.26835,3.88052],[-159.25115,3.87292],[-159.25102,3.86699],[-159.25705,3.86441],[-159.26552,3.87124],[-159.28863,3.87213],[-159.29504,3.87496],[-159.29659,3.88373],[-159.30352,3.88656],[-159.30378,3.88192],[-159.29761,3.88115],[-159.2989,3.87909],[-159.31559,3.88695],[-159.3197,3.89468],[-159.3161,3.89533],[-159.32406,3.89971],[-159.3265,3.90564],[-159.32419,3.90615],[-159.32484,3.91775],[-159.32061,3.92678],[-159.32433,3.93297],[-159.33139,3.93399],[-159.33203,3.93773],[-159.32536,3.93503],[-159.31855,3.92549],[-159.31765,3.90822]]],[[[-159.33614,3.92703],[-159.33832,3.92832],[-159.33434,3.93399],[-159.33293,3.92987],[-159.33614,3.92703]]],[[[-159.36104,3.92547],[-159.37259,3.92482],[-159.38427,3.9136],[-159.38477,3.8922],[-159.38233,3.88627],[-159.3641,3.87623],[-159.36628,3.8654],[-159.38284,3.87725],[-159.39453,3.89942],[-159.38863,3.91541],[-159.37798,3.92766],[-159.34898,3.94082],[-159.34102,3.93799],[-159.34641,3.93798],[-159.34435,3.92948],[-159.34872,3.93051],[-159.36104,3.92547]]],[[[-160.39921,4.69997],[-160.38045,4.69717],[-160.35295,4.68717],[-160.35112,4.67403],[-160.35754,4.67002],[-160.37192,4.66974],[-160.39557,4.67845],[-160.40934,4.69041],[-160.4082,4.69557],[-160.39921,4.69997]]],[[[-170.71623,-3.7164],[-170.70789,-3.72052],[-170.71007,-3.72581],[-170.71636,-3.72001],[-170.71623,-3.7164]]],[[[-171.0755,-3.14404],[-171.08346,-3.14713],[-171.09051,-3.14533],[-171.09192,-3.10846],[-171.08704,-3.10343],[-171.08127,-3.10588],[-171.08179,-3.11697],[-171.0755,-3.14404]]],[[[-171.2557,-4.44582],[-171.24491,-4.43873],[-171.23848,-4.44015],[-171.22526,-4.4613],[-171.2259,-4.46517],[-171.23746,-4.46813],[-171.25673,-4.4649],[-171.26276,-4.45226],[-171.2557,-4.44582]]],[[[-171.51564,-3.59009],[-171.52077,-3.58093],[-171.51435,-3.58274],[-171.51564,-3.59009]]],[[[-171.62092,-2.86592],[-171.61925,-2.85741],[-171.62694,-2.84555],[-171.63782,-2.80971],[-171.66012,-2.79887],[-171.6901,-2.77397],[-171.71343,-2.76867],[-171.71651,-2.77099],[-171.71626,-2.78078],[-171.71216,-2.78208],[-171.71806,-2.78542],[-171.7187,-2.79135],[-171.71525,-2.81095],[-171.7182,-2.80682],[-171.71717,-2.79703],[-171.72344,-2.78748],[-171.72049,-2.78465],[-171.72035,-2.76609],[-171.71394,-2.76506],[-171.68908,-2.77229],[-171.66165,-2.79371],[-171.63756,-2.80507],[-171.62693,-2.82776],[-171.62463,-2.84375],[-171.61515,-2.86154],[-171.61554,-2.86902],[-171.62041,-2.87082],[-171.6563,-2.84076],[-171.67552,-2.83366],[-171.7045,-2.83468],[-171.70719,-2.8321],[-171.71359,-2.81972],[-171.71346,-2.81508],[-171.71064,-2.81495],[-171.71013,-2.82075],[-171.70245,-2.83236],[-171.68603,-2.83069],[-171.65527,-2.83986],[-171.62092,-2.86592]]],[[[-172.14817,-4.51908],[-172.14984,-4.51689],[-172.14509,-4.51676],[-172.13853,-4.51046],[-172.13787,-4.50118],[-172.13466,-4.50325],[-172.13622,-4.51433],[-172.14817,-4.51908]]],[[[-172.14069,-4.49654],[-172.15609,-4.48788],[-172.17189,-4.49056],[-172.17175,-4.48785],[-172.15454,-4.48607],[-172.13863,-4.49396],[-172.14069,-4.49654]]],[[[-172.16745,-4.52549],[-172.15973,-4.52009],[-172.15074,-4.51985],[-172.16745,-4.52549]]],[[[-172.20369,-4.53832],[-172.2219,-4.52527],[-172.22458,-4.51444],[-172.21802,-4.50891],[-172.17972,-4.49312],[-172.17999,-4.49673],[-172.18744,-4.50187],[-172.20787,-4.50725],[-172.21931,-4.51432],[-172.21882,-4.52399],[-172.21035,-4.53135],[-172.19444,-4.53769],[-172.18596,-4.53848],[-172.17799,-4.53025],[-172.17323,-4.52948],[-172.19111,-4.54273],[-172.20369,-4.53832]]],[[[-172.17716,-4.49467],[-172.17947,-4.49183],[-172.17484,-4.48978],[-172.17716,-4.49467]]],[[[-174.12142,-3.59956],[-174.12601,-3.59247],[-174.11909,-3.59378],[-174.12142,-3.59956]]],[[[-174.53909,-4.66612],[-174.54258,-4.65789],[-174.53887,-4.65478],[-174.5098,-4.6722],[-174.49499,-4.6858],[-174.49251,-4.69673],[-174.51386,-4.68522],[-174.53416,-4.6813],[-174.54137,-4.67308],[-174.53857,-4.66843],[-174.53236,-4.68013],[-174.51387,-4.68135],[-174.49766,-4.69328],[-174.49343,-4.69094],[-174.51262,-4.67246],[-174.5274,-4.66762],[-174.53217,-4.6612],[-174.53512,-4.6625],[-174.53498,-4.66662],[-174.53909,-4.66612]]]]}}]}