{"type":"FeatureCollection","features":[{"type":"Feature","properties":{"ISO_A3":"KNA","WB_A3":"KNA","WB_NAME":"Saint Kitts and Nevis","WB_REGION":"LCN"},"geometry":{"type":"MultiPolygon","coordinates":[[[[-62.5413,17.1341],[-62.54948,17.1111],[-62.55485,17.10635],[-62.56557,17.10663],[-62.59935,17.09408],[-62.61113,17.09732],[-62.62249,17.10971],[-62.63347,17.13257],[-62.62967,17.13677],[-62.62718,17.17283],[-62.60929,17.205],[-62.58088,17.20765],[-62.5667,17.19551],[-62.55598,17.19459],[-62.54516,17.18013],[-62.53935,17.14406],[-62.5413,17.1341]]],[[[-62.84578,17.34736],[-62.85442,17.36415],[-62.86421,17.37021],[-62.86366,17.3867],[-62.85869,17.39648],[-62.84419,17.40987],[-62.81037,17.4177],[-62.80287,17.40777],[-62.79455,17.40944],[-62.77631,17.4013],[-62.75889,17.38441],[-62.73986,17.37653],[-62.73906,17.3724],[-62.73316,17.36956],[-62.70397,17.33474],[-62.69903,17.3216],[-62.69113,17.31308],[-62.69044,17.30428],[-62.68418,17.30225],[-62.68353,17.28783],[-62.68072,17.28383],[-62.67697,17.28421],[-62.67537,17.27931],[-62.65849,17.26911],[-62.65475,17.26202],[-62.64444,17.2571],[-62.64218,17.24989],[-62.63815,17.25014],[-62.63613,17.25529],[-62.62555,17.25037],[-62.62142,17.24006],[-62.62773,17.23492],[-62.62573,17.22796],[-62.63096,17.22669],[-62.63444,17.22939],[-62.64062,17.22206],[-62.64892,17.22684],[-62.65228,17.22388],[-62.65109,17.21512],[-62.65806,17.21333],[-62.66005,17.22519],[-62.66447,17.22725],[-62.6646,17.23112],[-62.65452,17.24166],[-62.64783,17.23547],[-62.643,17.24216],[-62.64432,17.24834],[-62.65599,17.24604],[-62.65972,17.26022],[-62.66761,17.26951],[-62.69011,17.28127],[-62.70272,17.28245],[-62.70901,17.28709],[-62.70967,17.29328],[-62.72683,17.29369],[-62.73247,17.28944],[-62.74078,17.28958],[-62.7755,17.29645],[-62.7767,17.29954],[-62.78877,17.30278],[-62.79983,17.31925],[-62.82522,17.33038],[-62.84578,17.34736]]]]}}]}