{"type":"FeatureCollection","features":[{"type":"Feature","properties":{"ISO_A3":"KOS","WB_A3":"XKX","WB_NAME":"Kosovo","WB_REGION":"ECS"},"geometry":{"type":"MultiPolygon","coordinates":[[[[21.11804,42.20686],[21.10416,42.20602],[21.09091,42.19402],[21.06748,42.18555],[21.04876,42.16594],[21.02874,42.15641],[21.02676,42.15247],[20.96979,42.13649],[20.94409,42.138],[20.92844,42.12763],[20.91968,42.12821],[20.91439,42.11514],[20.89157,42.09749],[20.84319,42.09861],[20.83397,42.08586],[20.80265,42.08164],[20.79289,42.08366],[20.78465,42.07889],[20.78585,42.07165],[20.76958,42.0585],[20.75843,42.0536],[20.76347,42.04066],[20.7485,42.0268],[20.75193,42.01518],[20.74823,41.98545],[20.76713,41.96274],[20.76571,41.9534],[20.75471,41.94666],[20.77173,41.92713],[20.77216,41.92107],[20.77571,41.91842],[20.75568,41.90607],[20.74971,41.89486],[20.74113,41.89346],[20.72797,41.86428],[20.70615,41.86464],[20.68282,41.85789],[20.67848,41.86853],[20.67055,41.87341],[20.64843,41.87453],[20.63641,41.86353],[20.61925,41.85779],[20.59438,41.87717],[20.59337,41.88453],[20.57479,41.91646],[20.58528,41.91732],[20.59107,41.92707],[20.60595,41.93109],[20.61807,41.93851],[20.62642,41.96283],[20.62432,41.97422],[20.61162,41.98668],[20.60155,42.01703],[20.59727,42.01968],[20.59472,42.04277],[20.5759,42.05813],[20.57039,42.05869],[20.55776,42.0752],[20.5591,42.07859],[20.55515,42.08405],[20.56697,42.09888],[20.56022,42.10691],[20.56839,42.12093],[20.55546,42.14029],[20.55813,42.14715],[20.54364,42.16009],[20.54705,42.16437],[20.54299,42.1662],[20.5427,42.17153],[20.53149,42.18594],[20.52388,42.21152],[20.51411,42.22434],[20.50225,42.22815],[20.49537,42.2421],[20.4769,42.25346],[20.47538,42.25875],[20.45636,42.27233],[20.40477,42.28487],[20.39468,42.29866],[20.35339,42.30963],[20.35402,42.3171],[20.33917,42.32767],[20.32733,42.32773],[20.30551,42.31491],[20.29278,42.32343],[20.25758,42.31901],[20.25539,42.32268],[20.24811,42.32272],[20.24265,42.32701],[20.24782,42.33279],[20.23614,42.34711],[20.24467,42.35261],[20.24615,42.36762],[20.24074,42.3736],[20.23923,42.38113],[20.20814,42.40133],[20.21399,42.40962],[20.22514,42.41374],[20.22761,42.41943],[20.22057,42.43384],[20.1929,42.45261],[20.19187,42.45631],[20.19679,42.46235],[20.18312,42.47402],[20.18026,42.48659],[20.16971,42.49148],[20.16521,42.50663],[20.09799,42.53424],[20.08715,42.5517],[20.07842,42.55594],[20.08801,42.57371],[20.08797,42.57921],[20.08637,42.58742],[20.07506,42.60174],[20.0731,42.60823],[20.07518,42.62034],[20.0877,42.62895],[20.09654,42.64249],[20.10877,42.64782],[20.11195,42.65544],[20.08857,42.66872],[20.08339,42.68004],[20.06827,42.68029],[20.06348,42.68492],[20.05421,42.68482],[20.04629,42.69455],[20.03323,42.69743],[20.03371,42.71143],[20.01592,42.7098],[20.0165,42.71252],[20.03208,42.71975],[20.01492,42.72834],[20.01428,42.74074],[20.02364,42.75293],[20.02448,42.76508],[20.03288,42.76518],[20.03336,42.76897],[20.04361,42.7746],[20.06119,42.7791],[20.06909,42.77506],[20.098,42.77675],[20.11487,42.76393],[20.14302,42.75536],[20.1469,42.75458],[20.14888,42.76335],[20.15499,42.76841],[20.17376,42.75549],[20.18275,42.75362],[20.18971,42.74638],[20.20157,42.7504],[20.21276,42.74631],[20.22168,42.7526],[20.23432,42.75275],[20.23677,42.75685],[20.25044,42.75917],[20.25332,42.7672],[20.26635,42.77936],[20.26277,42.80417],[20.25863,42.80459],[20.25255,42.81169],[20.27368,42.81993],[20.28113,42.83068],[20.29184,42.82529],[20.29801,42.8362],[20.31565,42.83599],[20.31654,42.8292],[20.32105,42.82759],[20.33526,42.83589],[20.36367,42.8323],[20.38406,42.84287],[20.4089,42.84699],[20.41525,42.84661],[20.42931,42.83516],[20.44087,42.83349],[20.48583,42.8676],[20.53824,42.88312],[20.53529,42.88911],[20.52046,42.89358],[20.52061,42.89817],[20.50551,42.90532],[20.49987,42.91771],[20.48627,42.92906],[20.48552,42.93394],[20.4929,42.94042],[20.49618,42.95234],[20.50745,42.96368],[20.51359,42.9655],[20.51454,42.97052],[20.52975,42.9751],[20.53574,42.97408],[20.54033,42.96433],[20.54657,42.96124],[20.5542,42.97122],[20.5519,42.97557],[20.56493,42.98471],[20.56778,42.99634],[20.58124,43.00197],[20.58136,43.01279],[20.59045,43.01459],[20.59084,43.01703],[20.61005,43.01546],[20.61854,43.01769],[20.61532,43.00461],[20.61951,43.00272],[20.62985,43.00913],[20.64051,43.00683],[20.63687,43.01638],[20.64138,43.02268],[20.651,43.0221],[20.65212,43.03344],[20.66339,43.03421],[20.67138,43.03909],[20.67011,43.04797],[20.66587,43.04988],[20.67046,43.05704],[20.66911,43.06522],[20.66205,43.06673],[20.65645,43.07377],[20.66215,43.07841],[20.67005,43.0778],[20.68729,43.08366],[20.69264,43.09071],[20.69324,43.09487],[20.6875,43.10297],[20.69314,43.10575],[20.69279,43.10893],[20.68477,43.12323],[20.67343,43.12671],[20.67275,43.13149],[20.66568,43.13536],[20.65759,43.13694],[20.66204,43.14424],[20.65749,43.15029],[20.65874,43.15343],[20.63985,43.16259],[20.61162,43.1694],[20.60865,43.17718],[20.61382,43.17988],[20.60942,43.19218],[20.59384,43.20509],[20.60087,43.21085],[20.6042,43.20697],[20.61529,43.20431],[20.63314,43.20968],[20.6418,43.20672],[20.65248,43.21106],[20.67157,43.20862],[20.68873,43.2149],[20.68836,43.21848],[20.70053,43.22546],[20.70947,43.22722],[20.72767,43.24836],[20.76164,43.24392],[20.77034,43.24803],[20.7747,43.25462],[20.78601,43.25413],[20.79112,43.26424],[20.81213,43.27283],[20.81944,43.27269],[20.83087,43.26254],[20.83566,43.26221],[20.83671,43.25718],[20.8506,43.25179],[20.86181,43.238],[20.87132,43.23185],[20.88082,43.22215],[20.87991,43.2115],[20.88922,43.20552],[20.88817,43.20289],[20.86372,43.2075],[20.84943,43.20498],[20.84356,43.20709],[20.8413,43.2028],[20.84399,43.19718],[20.85521,43.19021],[20.85103,43.18551],[20.83521,43.18433],[20.83084,43.1794],[20.83875,43.17286],[20.85612,43.17437],[20.86321,43.16472],[20.87897,43.16764],[20.8916,43.15473],[20.90027,43.15592],[20.90651,43.14818],[20.92104,43.14763],[20.92906,43.14428],[20.93347,43.13451],[20.96451,43.1246],[20.96763,43.12487],[20.96874,43.13044],[20.97535,43.13547],[20.9978,43.13807],[21.0255,43.12925],[21.04944,43.10814],[21.07625,43.11508],[21.07944,43.119],[21.07837,43.12725],[21.08799,43.1353],[21.09804,43.1279],[21.10138,43.11854],[21.10774,43.11736],[21.11277,43.11126],[21.1358,43.11398],[21.14069,43.1106],[21.15022,43.09119],[21.13975,43.08222],[21.15305,43.05976],[21.15246,43.0403],[21.15578,43.0296],[21.16772,43.02627],[21.16348,43.01434],[21.16945,43.00392],[21.17553,42.99978],[21.19263,43.00763],[21.19199,43.01513],[21.19691,43.02166],[21.20553,43.02464],[21.22464,43.02063],[21.23205,43.00961],[21.23528,43.00965],[21.23753,42.99502],[21.24386,42.98077],[21.23514,42.96075],[21.23568,42.95041],[21.24588,42.93337],[21.25122,42.93109],[21.2703,42.90979],[21.27119,42.89706],[21.27585,42.89423],[21.28238,42.89518],[21.28694,42.90084],[21.30185,42.90195],[21.30455,42.90612],[21.31469,42.90208],[21.33094,42.90262],[21.34362,42.89792],[21.34404,42.89095],[21.35125,42.88751],[21.35019,42.88068],[21.36534,42.87091],[21.36974,42.87341],[21.38014,42.87237],[21.38542,42.86656],[21.39347,42.86751],[21.39439,42.87144],[21.39967,42.87379],[21.43436,42.87275],[21.43676,42.85148],[21.42356,42.84706],[21.42423,42.8326],[21.41715,42.82548],[21.42289,42.80594],[21.41008,42.80531],[21.40642,42.79444],[21.41321,42.79014],[21.40836,42.78773],[21.40772,42.78181],[21.41129,42.77609],[21.4075,42.76679],[21.40288,42.76716],[21.38907,42.75778],[21.38948,42.75007],[21.4033,42.74517],[21.42697,42.74974],[21.44315,42.74759],[21.44885,42.7497],[21.45261,42.74439],[21.46753,42.73651],[21.47522,42.74702],[21.4797,42.74747],[21.5056,42.73249],[21.54049,42.72306],[21.54358,42.72979],[21.55274,42.73097],[21.56002,42.73727],[21.57123,42.72807],[21.59242,42.72579],[21.59379,42.71832],[21.58665,42.70395],[21.59557,42.70418],[21.60358,42.69864],[21.61858,42.69518],[21.62839,42.70035],[21.6338,42.69963],[21.64159,42.691],[21.64401,42.68017],[21.66063,42.66557],[21.66288,42.66995],[21.66988,42.67179],[21.67459,42.68789],[21.6895,42.69157],[21.71526,42.69001],[21.72521,42.69538],[21.73377,42.69395],[21.7541,42.70237],[21.75297,42.69532],[21.76007,42.68364],[21.77202,42.67683],[21.77132,42.66733],[21.77865,42.66419],[21.78987,42.65123],[21.77933,42.64672],[21.77574,42.63765],[21.76862,42.63369],[21.75994,42.63795],[21.75338,42.63012],[21.75731,42.61832],[21.752,42.6138],[21.75219,42.60967],[21.74834,42.60671],[21.74353,42.60908],[21.73412,42.60065],[21.74779,42.57971],[21.74779,42.56976],[21.74485,42.56548],[21.7489,42.5615],[21.74775,42.5588],[21.72937,42.5475],[21.70612,42.54928],[21.70132,42.54087],[21.69472,42.5401],[21.69669,42.53095],[21.70976,42.51906],[21.70779,42.51325],[21.69265,42.51516],[21.69114,42.50273],[21.66726,42.49285],[21.67113,42.48427],[21.65783,42.48367],[21.66026,42.48028],[21.65795,42.47613],[21.64242,42.46878],[21.6224,42.4531],[21.63799,42.42847],[21.63707,42.42077],[21.64645,42.41363],[21.64506,42.40874],[21.6356,42.40356],[21.63718,42.39904],[21.62774,42.39128],[21.62065,42.37799],[21.60571,42.37532],[21.5956,42.38364],[21.57793,42.37857],[21.5743,42.37558],[21.57838,42.36684],[21.57291,42.36526],[21.56119,42.36789],[21.55305,42.36564],[21.55205,42.36245],[21.54161,42.37227],[21.53206,42.36596],[21.5354,42.35966],[21.52527,42.342],[21.52696,42.33279],[21.52413,42.32698],[21.54141,42.30962],[21.5608,42.31428],[21.56553,42.30982],[21.56183,42.29884],[21.58429,42.2823],[21.58225,42.27948],[21.58922,42.2697],[21.59007,42.26617],[21.58316,42.25929],[21.56905,42.25074],[21.54378,42.25325],[21.53204,42.24062],[21.52128,42.24147],[21.51875,42.26267],[21.51149,42.26569],[21.51109,42.27055],[21.50325,42.26992],[21.49548,42.27457],[21.48671,42.27389],[21.46919,42.28011],[21.45911,42.27674],[21.44486,42.2779],[21.44121,42.27425],[21.44042,42.26234],[21.43251,42.2593],[21.43483,42.24975],[21.44371,42.23576],[21.43394,42.23169],[21.41997,42.24405],[21.4015,42.24915],[21.38656,42.24667],[21.38215,42.24461],[21.38567,42.24153],[21.37765,42.23791],[21.36968,42.22729],[21.37129,42.22425],[21.35777,42.2202],[21.34578,42.20477],[21.3379,42.20409],[21.33607,42.20711],[21.33199,42.20206],[21.33556,42.19184],[21.32866,42.17896],[21.31729,42.17016],[21.32122,42.16142],[21.31032,42.14897],[21.31051,42.14483],[21.30239,42.14131],[21.32084,42.10782],[21.3035,42.10447],[21.29736,42.11255],[21.2929,42.10637],[21.27261,42.09593],[21.24917,42.09243],[21.23344,42.09531],[21.23247,42.09822],[21.22139,42.09633],[21.21285,42.11033],[21.21687,42.12411],[21.21337,42.13433],[21.19148,42.15915],[21.1806,42.16675],[21.16248,42.19666],[21.12581,42.20203],[21.11804,42.20686]]]]}}]}