{"type":"FeatureCollection","features":[{"type":"Feature","properties":{"ISO_A3":"KWT","WB_A3":"KWT","WB_NAME":"Kuwait","WB_REGION":"MEA"},"geometry":{"type":"MultiPolygon","coordinates":[[[[48.65058,28.67647],[48.65045,28.68186],[48.65306,28.68268],[48.65058,28.67647]]],[[[48.49098,29.07007],[48.49062,29.07289],[48.495,29.07297],[48.49098,29.07007]]],[[[48.13347,29.13545],[48.1427,29.07673],[48.14913,29.07198],[48.15507,29.04203],[48.15738,29.03796],[48.16381,29.03784],[48.16138,29.03059],[48.15761,29.02923],[48.15944,29.01616],[48.184,28.95703],[48.20282,28.94174],[48.21103,28.91903],[48.23054,28.90504],[48.23631,28.89668],[48.25937,28.88635],[48.28992,28.88003],[48.28049,28.8549],[48.27963,28.80963],[48.29587,28.77962],[48.32222,28.75932],[48.35588,28.74328],[48.38334,28.74188],[48.39641,28.74432],[48.3832,28.7181],[48.37904,28.69825],[48.38079,28.68617],[48.39388,28.66405],[48.39282,28.65966],[48.38445,28.65642],[48.3819,28.65932],[48.37333,28.64064],[48.36492,28.64472],[48.36139,28.6516],[48.3626,28.65573],[48.35598,28.65843],[48.35231,28.6653],[48.34853,28.66459],[48.34945,28.65728],[48.35959,28.65375],[48.35853,28.63791],[48.36372,28.63442],[48.3535,28.62368],[48.35672,28.62297],[48.3562,28.6263],[48.36668,28.63267],[48.36202,28.63824],[48.36517,28.64049],[48.37311,28.63768],[48.3811,28.64427],[48.38609,28.6549],[48.39274,28.65709],[48.39078,28.6478],[48.39335,28.63833],[48.39168,28.63496],[48.38803,28.6354],[48.38571,28.62302],[48.38616,28.6166],[48.38998,28.61538],[48.38767,28.60866],[48.39818,28.596],[48.40287,28.57115],[48.43056,28.53433],[47.70446,28.52433],[47.70902,28.54308],[47.65378,28.59635],[47.63891,28.63022],[47.60591,28.65523],[47.59568,28.6885],[47.5939,28.72751],[47.60002,28.75889],[47.58717,28.83668],[47.56462,28.86216],[47.54311,28.89868],[47.51378,28.93117],[47.49194,28.97412],[47.4657,29.00026],[46.55302,29.10118],[46.5571,29.10297],[46.56691,29.11964],[46.59422,29.14686],[46.62768,29.16878],[46.67107,29.20727],[46.70319,29.25066],[46.76679,29.32187],[46.78425,29.35536],[46.81459,29.38072],[46.86643,29.43718],[46.90277,29.50637],[46.90449,29.525],[46.9187,29.53943],[46.93903,29.57099],[46.95467,29.60407],[46.97012,29.61818],[46.97746,29.63514],[46.99811,29.66345],[47.00341,29.68343],[47.00683,29.72211],[47.03141,29.75236],[47.0626,29.81914],[47.08158,29.85139],[47.10073,29.90308],[47.10455,29.9214],[47.13943,29.98682],[47.1726,30.01747],[47.18957,30.02837],[47.22725,30.04324],[47.28757,30.05871],[47.33886,30.0911],[47.36129,30.09716],[47.37131,30.1037],[47.70768,30.1037],[47.95481,30.0087],[47.95735,29.99796],[47.96081,29.99599],[47.96161,29.98418],[47.96903,29.98307],[47.97963,29.97432],[47.96625,29.98712],[47.96547,29.99327],[47.98436,29.99332],[48.00789,29.98679],[48.00096,29.95681],[48.01644,29.91296],[48.00956,29.88658],[48.00967,29.87296],[48.02184,29.83057],[48.03877,29.80139],[48.05292,29.76598],[48.06004,29.75946],[48.07133,29.75611],[48.07939,29.74215],[48.0953,29.74199],[48.10469,29.73294],[48.10453,29.71289],[48.10842,29.69549],[48.1304,29.65741],[48.1443,29.62378],[48.15148,29.61957],[48.16182,29.58663],[48.17303,29.57505],[48.1741,29.568],[48.1788,29.56848],[48.18836,29.54709],[48.16536,29.51782],[48.14154,29.53915],[48.14596,29.544],[48.16603,29.54122],[48.17025,29.53746],[48.1758,29.5386],[48.17846,29.54354],[48.17276,29.5528],[48.13919,29.55478],[48.14137,29.53992],[48.09099,29.56453],[48.05192,29.57344],[48.01208,29.57833],[47.97401,29.5731],[47.87879,29.52373],[47.84736,29.50435],[47.81881,29.47771],[47.80241,29.46704],[47.78536,29.43964],[47.7682,29.42496],[47.76407,29.41638],[47.75574,29.41515],[47.75013,29.39779],[47.74209,29.39708],[47.74372,29.40098],[47.74067,29.40476],[47.72865,29.40421],[47.71419,29.3928],[47.71482,29.3869],[47.71122,29.38052],[47.70162,29.37961],[47.70041,29.37447],[47.70509,29.36122],[47.70339,29.35925],[47.71489,29.35761],[47.73156,29.35917],[47.74435,29.36758],[47.74407,29.37169],[47.75881,29.3696],[47.76153,29.37321],[47.77376,29.36997],[47.78159,29.37286],[47.78352,29.37676],[47.78487,29.37114],[47.78809,29.37147],[47.78703,29.3771],[47.79331,29.37802],[47.79456,29.37086],[47.79996,29.37176],[47.79962,29.37817],[47.79543,29.38064],[47.80164,29.38388],[47.80094,29.37155],[47.80334,29.37158],[47.84718,29.38689],[47.84839,29.38088],[47.82709,29.3724],[47.8189,29.36193],[47.81961,29.35809],[47.8248,29.35616],[47.8256,29.34924],[47.82151,29.33937],[47.82322,29.32682],[47.83453,29.32156],[47.85277,29.31968],[47.88332,29.3276],[47.88603,29.32547],[47.90252,29.33524],[47.91532,29.34547],[47.90161,29.35347],[47.90759,29.35939],[47.91673,29.35793],[47.92422,29.36247],[47.93195,29.35892],[47.91869,29.35116],[47.92561,29.34554],[47.93536,29.35296],[47.95017,29.35819],[47.96046,29.36729],[47.96593,29.37564],[47.96604,29.38181],[47.96992,29.38485],[47.97465,29.38355],[47.98001,29.39087],[48.00347,29.39165],[48.00722,29.37375],[48.02508,29.36515],[48.02989,29.36603],[48.02624,29.36048],[48.02799,29.3557],[48.04177,29.34624],[48.05777,29.34055],[48.09267,29.35135],[48.10192,29.3509],[48.09145,29.32703],[48.08843,29.30434],[48.09091,29.26352],[48.10254,29.23418],[48.10291,29.22265],[48.12271,29.1799],[48.12445,29.17017],[48.12827,29.16973],[48.12478,29.15835],[48.12761,29.15121],[48.13083,29.15115],[48.13347,29.13545]]],[[[48.34764,29.4199],[48.33835,29.42692],[48.31802,29.42959],[48.30427,29.42752],[48.29094,29.43213],[48.26872,29.42821],[48.272,29.44833],[48.28789,29.46947],[48.28854,29.46692],[48.30319,29.46863],[48.31212,29.47511],[48.31562,29.46489],[48.35476,29.45115],[48.37589,29.42882],[48.40299,29.40827],[48.40245,29.39515],[48.38739,29.39267],[48.36189,29.40245],[48.34764,29.4199]]],[[[48.13526,29.94168],[48.12371,29.94824],[48.12229,29.9513],[48.12908,29.95119],[48.12088,29.95923],[48.1065,29.96149],[48.10804,29.97463],[48.13411,29.98163],[48.15298,29.98268],[48.18215,29.97444],[48.22002,29.95031],[48.28524,29.89126],[48.30087,29.86922],[48.33508,29.80848],[48.3654,29.78775],[48.36696,29.80115],[48.37283,29.79072],[48.37768,29.76306],[48.37667,29.7453],[48.36549,29.7168],[48.35,29.68975],[48.32803,29.66309],[48.25681,29.59775],[48.22695,29.58197],[48.21047,29.58214],[48.19447,29.58655],[48.18289,29.59582],[48.16901,29.61866],[48.16493,29.64351],[48.15576,29.65051],[48.15136,29.68126],[48.12701,29.70425],[48.12396,29.71845],[48.11986,29.72273],[48.12142,29.74025],[48.10763,29.74868],[48.10804,29.76],[48.10378,29.76479],[48.06496,29.77756],[48.06528,29.79196],[48.07807,29.79777],[48.0884,29.79748],[48.1001,29.79003],[48.12014,29.79021],[48.1168,29.79348],[48.10531,29.79336],[48.11583,29.80156],[48.10091,29.79288],[48.09729,29.7955],[48.09569,29.80009],[48.09997,29.80481],[48.11173,29.80584],[48.1118,29.81355],[48.09192,29.81825],[48.0915,29.82249],[48.09758,29.82622],[48.10805,29.82118],[48.11774,29.82229],[48.13026,29.81742],[48.14076,29.82163],[48.13626,29.82925],[48.12854,29.82625],[48.10745,29.82656],[48.10384,29.8342],[48.1091,29.83598],[48.12019,29.82967],[48.11902,29.83427],[48.1063,29.8408],[48.10369,29.84447],[48.10703,29.84635],[48.11519,29.8392],[48.15845,29.83166],[48.1722,29.82514],[48.17532,29.81904],[48.18076,29.82455],[48.17889,29.82837],[48.18176,29.831],[48.18548,29.85087],[48.18082,29.85411],[48.18618,29.86271],[48.1929,29.86491],[48.19021,29.87668],[48.19356,29.87829],[48.19385,29.8837],[48.19092,29.89366],[48.20055,29.89733],[48.2009,29.90569],[48.21248,29.91365],[48.21497,29.92501],[48.20157,29.93475],[48.17745,29.94208],[48.17727,29.93822],[48.16905,29.93676],[48.16513,29.90814],[48.15219,29.91185],[48.14921,29.9078],[48.14351,29.91629],[48.15109,29.93496],[48.13882,29.9514],[48.13846,29.94342],[48.13526,29.94168]]],[[[48.25525,29.4814],[48.24741,29.48869],[48.25269,29.48906],[48.25525,29.4814]]],[[[48.17594,29.84925],[48.17374,29.85422],[48.17758,29.85404],[48.17594,29.84925]]],[[[48.17344,29.82298],[48.17364,29.8262],[48.1763,29.82613],[48.17344,29.82298]]],[[[48.16598,29.89929],[48.16229,29.90435],[48.16397,29.90748],[48.16722,29.90729],[48.16991,29.90092],[48.16598,29.89929]]],[[[48.16364,29.87778],[48.16066,29.87861],[48.15958,29.8854],[48.16489,29.88025],[48.16364,29.87778]]],[[[48.16196,29.83263],[48.15825,29.83872],[48.14997,29.8397],[48.14684,29.84619],[48.15032,29.84806],[48.16205,29.84009],[48.16468,29.83577],[48.16196,29.83263]]],[[[48.15522,29.89366],[48.1511,29.89683],[48.15201,29.90285],[48.1636,29.90001],[48.15522,29.89366]]],[[[48.15381,29.84993],[48.14519,29.85219],[48.1427,29.85689],[48.1266,29.85269],[48.11632,29.86172],[48.13035,29.86588],[48.13112,29.87001],[48.14046,29.86314],[48.1475,29.86445],[48.15613,29.85127],[48.15381,29.84993]]],[[[48.03432,29.98661],[48.04549,30.00331],[48.05356,30.00992],[48.06906,30.01515],[48.0969,30.01757],[48.12728,30.01387],[48.13211,30.01012],[48.13973,30.01221],[48.15538,30.00728],[48.12648,30.00048],[48.12407,30.00574],[48.12043,30.00575],[48.12234,30.00091],[48.1135,30.00508],[48.0987,30.00116],[48.09791,29.99818],[48.0942,29.99875],[48.0868,29.98406],[48.06693,29.97719],[48.05769,29.97017],[48.06014,29.96714],[48.03816,29.96151],[48.03092,29.967],[48.02264,29.95731],[48.01982,29.95801],[48.02027,29.97267],[48.02499,29.97779],[48.03109,29.976],[48.02938,29.97905],[48.03432,29.98661]]],[[[48.1547,29.87052],[48.14466,29.87081],[48.13819,29.88057],[48.15239,29.87921],[48.15102,29.87532],[48.1547,29.87052]]],[[[48.05962,29.93462],[48.07503,29.94242],[48.08931,29.95867],[48.08849,29.96161],[48.09791,29.96773],[48.10533,29.95607],[48.11639,29.95468],[48.10432,29.94011],[48.09465,29.93771],[48.09211,29.93367],[48.09802,29.923],[48.09677,29.93583],[48.11244,29.94504],[48.12016,29.94341],[48.13255,29.9334],[48.13993,29.9333],[48.14381,29.92657],[48.13804,29.91668],[48.13118,29.91422],[48.13075,29.90354],[48.12191,29.90322],[48.12079,29.896],[48.11511,29.89331],[48.10845,29.89907],[48.09648,29.89984],[48.09324,29.90478],[48.08368,29.90894],[48.08373,29.91215],[48.07799,29.91177],[48.07465,29.91516],[48.07146,29.91329],[48.0629,29.92338],[48.05336,29.9215],[48.05203,29.92661],[48.04419,29.93235],[48.04356,29.93876],[48.05524,29.93799],[48.05962,29.93462]]],[[[48.11293,29.8565],[48.11429,29.86039],[48.11568,29.8581],[48.11293,29.8565]]],[[[48.09211,29.80142],[48.07806,29.8033],[48.07663,29.80686],[48.0895,29.8101],[48.08385,29.81191],[48.09085,29.8145],[48.09941,29.81405],[48.10381,29.80978],[48.09211,29.80142]]],[[[48.09651,29.83275],[48.08405,29.84044],[48.09853,29.84449],[48.10276,29.84111],[48.09651,29.83275]]],[[[48.09212,29.87224],[48.09376,29.8769],[48.09953,29.87626],[48.09212,29.87224]]],[[[48.08965,29.84558],[48.07501,29.85232],[48.07032,29.85119],[48.07453,29.84846],[48.07317,29.8447],[48.06625,29.84943],[48.05062,29.84947],[48.04967,29.85176],[48.05696,29.85449],[48.05281,29.85504],[48.05068,29.86232],[48.06564,29.86008],[48.06313,29.8653],[48.08053,29.8653],[48.09054,29.86089],[48.08841,29.85789],[48.07982,29.85911],[48.08468,29.85434],[48.0952,29.85251],[48.08965,29.84558]]],[[[48.09112,29.89676],[48.09067,29.90202],[48.0949,29.89839],[48.09112,29.89676]]],[[[48.08778,29.82896],[48.07601,29.83821],[48.08965,29.83568],[48.09211,29.83188],[48.08778,29.82896]]],[[[48.0852,29.81618],[48.07908,29.819],[48.0809,29.82225],[48.08503,29.82196],[48.0852,29.81618]]],[[[48.07414,29.81144],[48.06731,29.81321],[48.04948,29.82811],[48.06331,29.82893],[48.07552,29.82458],[48.07247,29.81808],[48.07516,29.81686],[48.07414,29.81144]]],[[[48.04934,29.83286],[48.03209,29.84288],[48.03408,29.85051],[48.06142,29.84303],[48.07133,29.83682],[48.07231,29.83363],[48.04934,29.83286]]],[[[48.0568,29.79961],[48.0551,29.80729],[48.04951,29.81192],[48.0437,29.82412],[48.05499,29.82129],[48.06708,29.81102],[48.0639,29.80375],[48.05756,29.80374],[48.0568,29.79961]]],[[[48.04719,29.82562],[48.03735,29.82951],[48.03485,29.83446],[48.04741,29.82832],[48.04719,29.82562]]],[[[48.04431,29.86346],[48.03309,29.86887],[48.02369,29.88742],[48.02613,29.88966],[48.04641,29.86711],[48.04431,29.86346]]],[[[47.85541,29.3768],[47.86466,29.38152],[47.86625,29.38721],[47.87063,29.3877],[47.87181,29.38272],[47.86909,29.38047],[47.85541,29.3768]]]]}}]}