{"type":"FeatureCollection","features":[{"type":"Feature","properties":{"ISO_A3":"LAO","WB_A3":"LAO","WB_NAME":"Lao People's Democratic Republic","WB_REGION":"EAS"},"geometry":{"type":"MultiPolygon","coordinates":[[[[100.43796,19.79067],[100.44435,19.82204],[100.44888,19.82736],[100.4424,19.8357],[100.45126,19.84952],[100.46152,19.85681],[100.47358,19.85626],[100.49037,19.86591],[100.49655,19.86518],[100.5012,19.87018],[100.50103,19.88332],[100.5128,19.89041],[100.51892,19.90321],[100.51486,19.90874],[100.51991,19.91454],[100.52228,19.92912],[100.51683,19.93546],[100.51728,19.94438],[100.52583,19.95912],[100.5305,19.98016],[100.5436,20.01146],[100.54162,20.02199],[100.55124,20.03024],[100.55075,20.04319],[100.55391,20.04637],[100.561,20.08738],[100.56886,20.09725],[100.57219,20.14426],[100.57817,20.16803],[100.56575,20.17586],[100.55263,20.1755],[100.53084,20.1458],[100.52308,20.14286],[100.50759,20.15102],[100.4877,20.17913],[100.47497,20.19145],[100.46211,20.19866],[100.45611,20.19872],[100.45328,20.20408],[100.45474,20.22855],[100.41503,20.25323],[100.40598,20.28216],[100.38243,20.31431],[100.37575,20.34994],[100.36734,20.35531],[100.35939,20.35523],[100.35847,20.37268],[100.33015,20.39862],[100.31099,20.4009],[100.29966,20.39749],[100.27222,20.40078],[100.26137,20.39587],[100.25195,20.38399],[100.24638,20.36823],[100.22755,20.3563],[100.22431,20.34952],[100.2284,20.32916],[100.22363,20.31997],[100.2175,20.31421],[100.19415,20.3107],[100.16878,20.30015],[100.16661,20.29243],[100.16875,20.28468],[100.1747,20.27896],[100.17984,20.26172],[100.17541,20.24987],[100.1645,20.2442],[100.11171,20.25029],[100.09557,20.26267],[100.09111,20.27987],[100.09901,20.30922],[100.08465,20.35227],[100.09095,20.37193],[100.12317,20.40328],[100.12553,20.41548],[100.11781,20.4305],[100.11845,20.43886],[100.13064,20.46736],[100.12789,20.47033],[100.1275,20.48364],[100.13847,20.49877],[100.13961,20.51694],[100.16316,20.58235],[100.16894,20.6174],[100.17757,20.63995],[100.18635,20.65681],[100.20449,20.67445],[100.20801,20.69139],[100.22454,20.71445],[100.23848,20.72231],[100.25448,20.75014],[100.2692,20.75736],[100.27897,20.76894],[100.29577,20.7795],[100.33088,20.78628],[100.34002,20.79572],[100.34396,20.79572],[100.3549,20.80769],[100.36079,20.83016],[100.38018,20.82808],[100.39723,20.83291],[100.41873,20.83208],[100.42617,20.83105],[100.43686,20.82352],[100.4575,20.82541],[100.49352,20.81536],[100.51838,20.81589],[100.54277,20.82403],[100.57012,20.82303],[100.58226,20.83097],[100.60764,20.83958],[100.62253,20.85322],[100.63564,20.87094],[100.64786,20.87958],[100.64953,20.8908],[100.64697,20.8953],[100.63642,20.89871],[100.58212,20.88499],[100.57637,20.88047],[100.56437,20.87997],[100.55757,20.87119],[100.54424,20.8706],[100.52174,20.87499],[100.50971,20.88763],[100.50952,20.89649],[100.51574,20.90702],[100.52524,20.96221],[100.53218,20.97312],[100.55073,20.98823],[100.55254,21.00606],[100.54575,21.02307],[100.5732,21.03056],[100.58736,21.02762],[100.59795,21.02942],[100.61508,21.0517],[100.636,21.06028],[100.64341,21.07659],[100.64194,21.09206],[100.64552,21.104],[100.66449,21.11661],[100.67385,21.12866],[100.67938,21.14105],[100.68224,21.1603],[100.6866,21.16869],[100.69687,21.17416],[100.6989,21.18066],[100.6994,21.21877],[100.71112,21.25632],[100.7184,21.26787],[100.71728,21.28526],[100.72284,21.30987],[100.72698,21.31426],[100.73736,21.31428],[100.76108,21.30748],[100.7825,21.29701],[100.80588,21.29307],[100.82916,21.29707],[100.83371,21.30273],[100.8409,21.30509],[100.84979,21.30504],[100.87318,21.32448],[100.88598,21.34901],[100.89251,21.35165],[100.9022,21.34967],[100.90609,21.35601],[100.9192,21.35642],[100.94636,21.37756],[100.97124,21.38717],[100.99982,21.38653],[101.03118,21.41917],[101.04076,21.43828],[101.0614,21.45592],[101.07331,21.45997],[101.09131,21.46092],[101.10283,21.47614],[101.11939,21.48939],[101.1248,21.49925],[101.14385,21.51261],[101.14838,21.52019],[101.16069,21.52272],[101.16393,21.52749],[101.15646,21.5428],[101.15688,21.55096],[101.14394,21.56375],[101.17277,21.56342],[101.18266,21.55634],[101.20847,21.56136],[101.2129,21.54671],[101.20819,21.54329],[101.21481,21.5346],[101.20498,21.52967],[101.20311,21.52088],[101.20757,21.51465],[101.20538,21.50974],[101.21028,21.50104],[101.2191,21.50232],[101.22071,21.49959],[101.21646,21.49259],[101.1906,21.4737],[101.1921,21.45447],[101.19873,21.45119],[101.19689,21.44627],[101.20177,21.44314],[101.19306,21.4262],[101.17733,21.41476],[101.16831,21.42077],[101.15761,21.41847],[101.14242,21.41175],[101.14119,21.40671],[101.15242,21.39373],[101.15907,21.38012],[101.16316,21.37981],[101.16452,21.36564],[101.18351,21.3494],[101.1801,21.33899],[101.18519,21.32844],[101.19977,21.31825],[101.21101,21.32074],[101.216,21.31031],[101.23926,21.30845],[101.2504,21.29518],[101.24809,21.28124],[101.24127,21.27685],[101.24089,21.26935],[101.23148,21.26497],[101.232,21.25865],[101.22358,21.25655],[101.22866,21.24735],[101.22166,21.23973],[101.21486,21.23746],[101.21764,21.23012],[101.22553,21.23362],[101.22676,21.22783],[101.2337,21.2224],[101.24034,21.22463],[101.24654,21.22228],[101.24903,21.21836],[101.24552,21.20372],[101.27136,21.1953],[101.28487,21.17661],[101.29781,21.18026],[101.30381,21.18878],[101.31611,21.19535],[101.32638,21.19069],[101.33349,21.19775],[101.34248,21.1988],[101.35113,21.20867],[101.36189,21.21122],[101.36288,21.21824],[101.3795,21.22127],[101.38646,21.22928],[101.39073,21.22761],[101.40083,21.23066],[101.40638,21.22598],[101.43244,21.23225],[101.44893,21.22965],[101.45173,21.22628],[101.4561,21.22712],[101.46302,21.23717],[101.47078,21.23792],[101.48066,21.24725],[101.50627,21.24784],[101.51337,21.25292],[101.52413,21.24863],[101.53241,21.25593],[101.54523,21.25054],[101.55164,21.25341],[101.5577,21.24616],[101.58472,21.23971],[101.58796,21.23387],[101.6001,21.24049],[101.60974,21.23424],[101.61361,21.22724],[101.60319,21.2229],[101.60014,21.21613],[101.60285,21.21019],[101.59046,21.19418],[101.58863,21.18578],[101.59608,21.17746],[101.6038,21.17956],[101.60954,21.17524],[101.63289,21.199],[101.64559,21.1949],[101.65958,21.20113],[101.67321,21.20277],[101.67797,21.19592],[101.67616,21.19131],[101.68143,21.18836],[101.68097,21.18268],[101.69025,21.17428],[101.69776,21.17375],[101.70185,21.1651],[101.70196,21.1619],[101.69377,21.15525],[101.69794,21.14784],[101.70876,21.1487],[101.71548,21.14617],[101.71747,21.14194],[101.7279,21.14557],[101.73784,21.1434],[101.74494,21.14587],[101.75565,21.14203],[101.76118,21.14478],[101.76391,21.15355],[101.76863,21.15394],[101.77181,21.161],[101.77986,21.16405],[101.78708,21.1816],[101.7841,21.18848],[101.7866,21.19883],[101.79414,21.2037],[101.79392,21.20884],[101.79927,21.20737],[101.81642,21.21403],[101.82615,21.21227],[101.8268,21.20618],[101.83915,21.2091],[101.83964,21.21816],[101.83517,21.22198],[101.83463,21.22988],[101.84318,21.25284],[101.83805,21.25718],[101.8242,21.26061],[101.81211,21.2572],[101.79936,21.27769],[101.79886,21.29187],[101.78746,21.28802],[101.7822,21.2943],[101.77262,21.2928],[101.76667,21.28794],[101.75756,21.29165],[101.74188,21.30836],[101.74066,21.31475],[101.7335,21.32353],[101.72637,21.35478],[101.74036,21.36666],[101.73675,21.37135],[101.74358,21.38],[101.73805,21.38823],[101.73801,21.40594],[101.74356,21.41174],[101.75201,21.40857],[101.75189,21.41588],[101.74431,21.43287],[101.75509,21.44297],[101.74854,21.45651],[101.74215,21.45726],[101.74082,21.46024],[101.74596,21.46389],[101.73848,21.48107],[101.73469,21.4817],[101.75322,21.49719],[101.761,21.4999],[101.76643,21.51123],[101.77825,21.51722],[101.77006,21.52715],[101.76073,21.52862],[101.7587,21.53173],[101.75357,21.54602],[101.76374,21.56277],[101.75162,21.56486],[101.74777,21.57957],[101.75033,21.58419],[101.7625,21.58372],[101.76399,21.58621],[101.76792,21.58203],[101.78345,21.57711],[101.80402,21.57847],[101.81002,21.58803],[101.82462,21.59073],[101.82665,21.60709],[101.83438,21.61865],[101.83398,21.62639],[101.82789,21.63111],[101.81566,21.62527],[101.81167,21.62664],[101.80831,21.63974],[101.81086,21.64263],[101.80709,21.64712],[101.79953,21.6437],[101.79382,21.64527],[101.78691,21.63839],[101.78106,21.64031],[101.78085,21.65483],[101.77505,21.65917],[101.76884,21.6593],[101.7744,21.68852],[101.76943,21.69263],[101.7722,21.70292],[101.76982,21.71253],[101.756,21.72615],[101.74634,21.72801],[101.74739,21.73682],[101.74347,21.7469],[101.75826,21.75854],[101.76018,21.76743],[101.75768,21.78065],[101.76179,21.78872],[101.76844,21.79345],[101.77334,21.81424],[101.77135,21.81832],[101.78473,21.82516],[101.77629,21.82899],[101.7738,21.83672],[101.76227,21.83469],[101.751,21.8386],[101.73985,21.84785],[101.73658,21.85515],[101.73903,21.87347],[101.73563,21.87824],[101.7229,21.88469],[101.71493,21.88206],[101.69827,21.90026],[101.69718,21.90827],[101.7005,21.9094],[101.70611,21.92578],[101.70287,21.92868],[101.699,21.94593],[101.68771,21.94726],[101.67007,21.93279],[101.65772,21.9427],[101.65335,21.9538],[101.63256,21.95524],[101.62388,21.96888],[101.61186,21.97187],[101.60298,21.96893],[101.60156,21.97124],[101.6175,21.97946],[101.61588,21.99065],[101.61904,22.00353],[101.62591,22.00665],[101.63163,22.01437],[101.61727,22.02682],[101.61194,22.03854],[101.6149,22.0415],[101.61125,22.05442],[101.60512,22.06278],[101.59444,22.06527],[101.59562,22.08507],[101.5873,22.0909],[101.5868,22.10204],[101.5781,22.10387],[101.57786,22.10968],[101.57427,22.11177],[101.57684,22.12751],[101.58227,22.12674],[101.59061,22.13096],[101.59626,22.12744],[101.60085,22.13043],[101.59708,22.14738],[101.60395,22.15722],[101.58981,22.16793],[101.58901,22.18472],[101.57729,22.18915],[101.57174,22.19766],[101.57158,22.2127],[101.55248,22.22826],[101.55063,22.23423],[101.55387,22.23891],[101.54949,22.2425],[101.54932,22.24565],[101.55474,22.24875],[101.55497,22.25541],[101.56598,22.26451],[101.56638,22.27605],[101.58962,22.27179],[101.59185,22.26878],[101.61374,22.27748],[101.61538,22.27501],[101.62518,22.2757],[101.62943,22.2869],[101.62588,22.29848],[101.62723,22.30406],[101.63011,22.3049],[101.633,22.31613],[101.64575,22.32421],[101.65266,22.33643],[101.64927,22.34341],[101.65087,22.35022],[101.64443,22.3588],[101.6486,22.36047],[101.6503,22.36629],[101.6619,22.36552],[101.67003,22.37205],[101.66915,22.38215],[101.65468,22.39486],[101.64961,22.40538],[101.64937,22.41353],[101.66628,22.42146],[101.66241,22.43118],[101.66853,22.4417],[101.66679,22.44863],[101.67108,22.45764],[101.67801,22.46065],[101.67741,22.46479],[101.67165,22.46914],[101.67261,22.47541],[101.68388,22.4771],[101.69439,22.47161],[101.70117,22.475],[101.70527,22.47291],[101.71509,22.48308],[101.72018,22.47994],[101.72555,22.48304],[101.73042,22.49097],[101.72832,22.49811],[101.73799,22.49975],[101.74986,22.49459],[101.76136,22.50844],[101.78373,22.50103],[101.79756,22.48228],[101.80949,22.4834],[101.80618,22.4769],[101.81141,22.46631],[101.82116,22.46668],[101.8219,22.46111],[101.82694,22.45728],[101.82437,22.43869],[101.83455,22.41565],[101.84698,22.41157],[101.85239,22.40409],[101.85657,22.40498],[101.85516,22.40205],[101.86511,22.38887],[101.87972,22.38682],[101.88863,22.38888],[101.89453,22.38238],[101.90258,22.38503],[101.91194,22.40188],[101.91203,22.41929],[101.91509,22.42441],[101.91001,22.4309],[101.91009,22.43606],[101.91311,22.4409],[101.92272,22.4412],[101.93244,22.43703],[101.95255,22.44335],[101.96491,22.42961],[101.98521,22.42921],[101.99833,22.43292],[101.99985,22.44478],[102.00999,22.44271],[102.02028,22.45109],[102.02187,22.45676],[102.04067,22.45664],[102.04371,22.45903],[102.05609,22.45],[102.08134,22.44328],[102.09199,22.44504],[102.10504,22.44253],[102.12944,22.43434],[102.12666,22.42683],[102.12817,22.41528],[102.1341,22.40656],[102.14718,22.39823],[102.14862,22.38963],[102.15883,22.38462],[102.17066,22.37132],[102.16299,22.36163],[102.16742,22.35001],[102.17706,22.33881],[102.1852,22.34135],[102.19582,22.3357],[102.18872,22.32589],[102.18157,22.32297],[102.17774,22.31492],[102.17786,22.30462],[102.18996,22.30248],[102.20474,22.29158],[102.21139,22.29024],[102.21146,22.28692],[102.23233,22.28462],[102.23515,22.28234],[102.23223,22.26396],[102.23916,22.26062],[102.24273,22.25388],[102.23838,22.24832],[102.24119,22.23824],[102.26017,22.23606],[102.26244,22.23348],[102.26733,22.2368],[102.27304,22.23598],[102.27156,22.22514],[102.27859,22.21966],[102.27664,22.21291],[102.2797,22.2055],[102.29769,22.20565],[102.30291,22.20102],[102.31334,22.20731],[102.32191,22.20241],[102.33399,22.18796],[102.33456,22.16693],[102.34523,22.1632],[102.35807,22.1671],[102.36572,22.16322],[102.37475,22.15338],[102.38399,22.14924],[102.38459,22.12969],[102.40235,22.12583],[102.40795,22.12818],[102.42178,22.11598],[102.43361,22.11437],[102.44047,22.10192],[102.43791,22.09149],[102.44581,22.08483],[102.44589,22.08],[102.44063,22.07804],[102.44149,22.0747],[102.47288,22.06129],[102.47252,22.05787],[102.48418,22.04185],[102.49273,22.03846],[102.49501,22.03343],[102.50846,22.03662],[102.51826,22.03182],[102.52148,22.02412],[102.50773,22.01409],[102.49214,22.01348],[102.487,22.00075],[102.4935,21.98773],[102.5145,21.96543],[102.52419,21.96532],[102.54924,21.95188],[102.56439,21.93857],[102.57961,21.93448],[102.5838,21.92876],[102.59482,21.92421],[102.60276,21.92525],[102.61501,21.91649],[102.62119,21.89827],[102.61008,21.87964],[102.61442,21.87294],[102.62916,21.86926],[102.62783,21.86588],[102.63324,21.86138],[102.64453,21.85859],[102.64572,21.85436],[102.64188,21.84807],[102.65088,21.8234],[102.6484,21.80675],[102.65936,21.79922],[102.66168,21.79314],[102.65671,21.77355],[102.6482,21.75897],[102.64895,21.742],[102.64533,21.73218],[102.65063,21.72804],[102.65248,21.71961],[102.66016,21.7097],[102.66073,21.7],[102.66734,21.68514],[102.6625,21.67972],[102.66784,21.67625],[102.67493,21.65499],[102.68527,21.6552],[102.68867,21.65795],[102.68754,21.66163],[102.69334,21.66429],[102.70051,21.66148],[102.70972,21.66447],[102.71615,21.66214],[102.73193,21.66365],[102.73694,21.65886],[102.74053,21.65949],[102.75098,21.66601],[102.75481,21.67402],[102.76212,21.67499],[102.76871,21.6818],[102.76994,21.68903],[102.78557,21.70526],[102.79914,21.70777],[102.8036,21.71674],[102.81071,21.72008],[102.809,21.72427],[102.81591,21.73203],[102.81986,21.73086],[102.82708,21.73552],[102.82023,21.76185],[102.82046,21.77834],[102.81483,21.79106],[102.82042,21.79847],[102.81813,21.8083],[102.81069,21.81929],[102.81073,21.82456],[102.81818,21.83377],[102.81693,21.8399],[102.82617,21.84388],[102.84528,21.84582],[102.84974,21.84464],[102.85225,21.83888],[102.85342,21.82535],[102.85787,21.8182],[102.85471,21.81114],[102.85621,21.80216],[102.85973,21.7985],[102.85446,21.78887],[102.85897,21.78353],[102.85577,21.76977],[102.86169,21.76632],[102.86086,21.75428],[102.85535,21.74665],[102.85471,21.73939],[102.85892,21.73035],[102.85667,21.72135],[102.87012,21.71302],[102.8782,21.70229],[102.88618,21.71248],[102.89888,21.71489],[102.90289,21.71881],[102.90738,21.71713],[102.92115,21.72422],[102.95489,21.72818],[102.96441,21.74312],[102.97011,21.74656],[102.97468,21.74492],[102.97309,21.73647],[102.98292,21.72873],[102.99006,21.71149],[102.9893,21.70605],[102.97846,21.69479],[102.98051,21.68899],[102.98998,21.68434],[102.98666,21.66144],[102.98044,21.65735],[102.98308,21.65497],[102.97973,21.65198],[102.98083,21.64381],[102.98664,21.64388],[102.98402,21.6399],[102.98678,21.63676],[102.98273,21.63601],[102.99005,21.6226],[102.98473,21.60606],[102.99109,21.60289],[102.99134,21.58517],[102.98465,21.58211],[102.9789,21.57127],[102.97052,21.56748],[102.95888,21.55329],[102.96129,21.54598],[102.9465,21.53558],[102.94108,21.5262],[102.93198,21.52364],[102.93275,21.51682],[102.91925,21.50972],[102.9197,21.50567],[102.91318,21.50174],[102.91485,21.49539],[102.91217,21.48809],[102.90729,21.4853],[102.90733,21.47848],[102.88575,21.47637],[102.89091,21.47017],[102.88447,21.46235],[102.88669,21.4532],[102.88429,21.4479],[102.87737,21.44565],[102.87826,21.43829],[102.86957,21.42899],[102.87077,21.42545],[102.87892,21.42438],[102.89026,21.42805],[102.89223,21.43237],[102.89905,21.43542],[102.90472,21.43048],[102.92278,21.45529],[102.93748,21.45887],[102.94278,21.4562],[102.93192,21.44604],[102.92362,21.43094],[102.91921,21.41898],[102.91915,21.40662],[102.90976,21.39936],[102.90892,21.39391],[102.89621,21.38536],[102.89885,21.37463],[102.89532,21.36991],[102.89946,21.36613],[102.8935,21.35958],[102.89704,21.35621],[102.88975,21.33184],[102.89942,21.31789],[102.89758,21.30482],[102.88449,21.29958],[102.87723,21.30259],[102.8594,21.29831],[102.852,21.2997],[102.84867,21.28988],[102.84098,21.29154],[102.83889,21.28257],[102.83466,21.28382],[102.83202,21.27758],[102.81626,21.2722],[102.81455,21.2664],[102.81023,21.26705],[102.80766,21.26349],[102.81536,21.25601],[102.8113,21.25287],[102.81365,21.25074],[102.82005,21.25344],[102.82226,21.24634],[102.84198,21.24764],[102.85001,21.25395],[102.86321,21.25739],[102.89155,21.24647],[102.90348,21.23197],[102.91206,21.22944],[102.90788,21.21807],[102.91061,21.20309],[102.90357,21.18974],[102.90927,21.17991],[102.90389,21.17494],[102.9035,21.16741],[102.90873,21.16253],[102.91758,21.16123],[102.92245,21.15591],[102.92799,21.16258],[102.93736,21.15901],[102.93687,21.1552],[102.94429,21.1444],[102.94963,21.14122],[102.93957,21.12895],[102.94369,21.12325],[102.95454,21.11948],[102.96131,21.1131],[102.96798,21.09426],[102.96133,21.0804],[102.96865,21.07001],[103.00106,21.05907],[103.0139,21.06454],[103.02524,21.05763],[103.03433,21.05793],[103.03382,21.05052],[103.04061,21.04287],[103.03863,21.0378],[103.04948,21.02724],[103.05853,21.01166],[103.05749,21.00496],[103.0607,20.99904],[103.07013,20.99139],[103.07099,20.98063],[103.07692,20.97798],[103.07923,20.97127],[103.08411,20.97103],[103.08597,20.9555],[103.08334,20.94398],[103.09248,20.93476],[103.1044,20.93418],[103.10723,20.92496],[103.10535,20.91811],[103.11043,20.91729],[103.11265,20.91129],[103.11,20.90977],[103.10948,20.90171],[103.11467,20.89656],[103.11867,20.89635],[103.12644,20.90881],[103.1505,20.90366],[103.15802,20.90549],[103.16544,20.91135],[103.16666,20.91665],[103.17383,20.91052],[103.18297,20.90851],[103.18639,20.90267],[103.1916,20.9013],[103.19787,20.90626],[103.20116,20.90144],[103.21043,20.90123],[103.21701,20.89596],[103.21206,20.89016],[103.22223,20.88654],[103.2266,20.87902],[103.23476,20.87336],[103.22488,20.85101],[103.22714,20.84228],[103.2336,20.84087],[103.23174,20.83719],[103.2363,20.8332],[103.2409,20.83402],[103.25554,20.824],[103.26377,20.82245],[103.28317,20.83356],[103.28465,20.83855],[103.28951,20.83873],[103.29527,20.83468],[103.2923,20.82469],[103.29462,20.82197],[103.32016,20.81946],[103.35211,20.80202],[103.35887,20.80745],[103.36491,20.80679],[103.37322,20.79462],[103.38257,20.78556],[103.38776,20.78445],[103.39464,20.78632],[103.39877,20.78258],[103.40728,20.78611],[103.40996,20.79338],[103.41576,20.7974],[103.42105,20.79426],[103.43133,20.79715],[103.4357,20.79345],[103.44222,20.79748],[103.44017,20.80573],[103.44661,20.82042],[103.45172,20.81957],[103.4619,20.82864],[103.48069,20.81055],[103.47909,20.79429],[103.48426,20.78503],[103.49097,20.78629],[103.4944,20.78094],[103.49178,20.77791],[103.49815,20.77712],[103.50749,20.75462],[103.52016,20.74985],[103.53683,20.75394],[103.53798,20.75089],[103.55227,20.74492],[103.56133,20.75012],[103.57264,20.74692],[103.58242,20.74987],[103.59266,20.7449],[103.59988,20.74538],[103.60896,20.73093],[103.61457,20.73145],[103.63628,20.7212],[103.64764,20.70022],[103.65566,20.69592],[103.66652,20.70068],[103.67394,20.68325],[103.67341,20.67452],[103.67595,20.67271],[103.67358,20.67014],[103.68475,20.66098],[103.71457,20.6685],[103.72519,20.66527],[103.73526,20.66763],[103.7369,20.67242],[103.74667,20.67988],[103.74154,20.68955],[103.73496,20.69402],[103.73701,20.70872],[103.7284,20.7221],[103.73182,20.72447],[103.73172,20.73318],[103.73968,20.73513],[103.7534,20.73254],[103.76483,20.7386],[103.77232,20.73622],[103.79235,20.74973],[103.78502,20.76064],[103.78859,20.77674],[103.77719,20.79296],[103.7797,20.79578],[103.77522,20.80473],[103.79644,20.82256],[103.80643,20.827],[103.80011,20.85006],[103.80324,20.85368],[103.81091,20.85321],[103.80946,20.86603],[103.81543,20.86471],[103.82225,20.8713],[103.83131,20.87196],[103.83952,20.86325],[103.85016,20.861],[103.85822,20.87319],[103.87805,20.89026],[103.88188,20.89844],[103.89624,20.90694],[103.91742,20.90031],[103.92946,20.90389],[103.93701,20.90226],[103.94428,20.89364],[103.96126,20.89951],[103.96961,20.90554],[103.97111,20.91303],[103.97446,20.91409],[103.97704,20.91011],[103.99141,20.90867],[103.99242,20.90461],[103.99821,20.90304],[104.02022,20.90556],[104.03093,20.90238],[104.04877,20.91441],[104.04809,20.93141],[104.05729,20.94153],[104.05094,20.95052],[104.06533,20.95475],[104.06976,20.95977],[104.07461,20.96139],[104.07973,20.95887],[104.09311,20.96551],[104.10391,20.97821],[104.11948,20.97099],[104.12604,20.96445],[104.1309,20.94894],[104.13697,20.94795],[104.15672,20.9555],[104.17826,20.95396],[104.18821,20.9566],[104.1931,20.94674],[104.20389,20.94653],[104.21353,20.94216],[104.21562,20.93801],[104.22843,20.93868],[104.23015,20.93426],[104.241,20.93292],[104.24189,20.92651],[104.23572,20.91914],[104.23935,20.91763],[104.23762,20.91283],[104.24683,20.90304],[104.25724,20.89845],[104.26344,20.90787],[104.26017,20.91057],[104.26176,20.91751],[104.28289,20.9269],[104.29152,20.92297],[104.29447,20.91735],[104.29216,20.91239],[104.29588,20.90862],[104.30104,20.90932],[104.31279,20.90367],[104.31854,20.89377],[104.32765,20.88899],[104.3314,20.8833],[104.33508,20.8716],[104.32653,20.85905],[104.32921,20.85621],[104.33673,20.8596],[104.34093,20.85065],[104.34678,20.85135],[104.35259,20.83935],[104.35643,20.83996],[104.36855,20.82522],[104.37774,20.82019],[104.3931,20.82292],[104.41953,20.7954],[104.44828,20.79854],[104.45155,20.78244],[104.46931,20.77975],[104.47092,20.77343],[104.48428,20.76795],[104.48187,20.76208],[104.48946,20.74462],[104.48873,20.72855],[104.49916,20.71079],[104.51011,20.7095],[104.5205,20.70023],[104.52859,20.7062],[104.5298,20.71326],[104.53652,20.71721],[104.54044,20.71526],[104.55231,20.72248],[104.56711,20.7158],[104.58262,20.70213],[104.58742,20.69442],[104.58471,20.68235],[104.59052,20.67966],[104.59156,20.67543],[104.60537,20.67204],[104.63664,20.67322],[104.63911,20.65445],[104.63152,20.64256],[104.63155,20.63512],[104.6263,20.62563],[104.61186,20.61995],[104.60115,20.6054],[104.58615,20.61003],[104.57487,20.60635],[104.56789,20.60854],[104.54317,20.59892],[104.53575,20.5884],[104.53448,20.57555],[104.52654,20.56974],[104.52365,20.56141],[104.52832,20.55658],[104.52708,20.55325],[104.52248,20.54886],[104.51376,20.54873],[104.50809,20.54344],[104.49742,20.54509],[104.48388,20.52848],[104.4832,20.52352],[104.4763,20.51791],[104.44473,20.50692],[104.43824,20.50938],[104.43511,20.50277],[104.4237,20.49322],[104.41342,20.48888],[104.38758,20.48802],[104.39055,20.4774],[104.38105,20.47401],[104.37426,20.46563],[104.38012,20.45706],[104.38095,20.44856],[104.37695,20.44303],[104.3866,20.44288],[104.41157,20.42523],[104.41467,20.42656],[104.4058,20.41239],[104.4047,20.40213],[104.40749,20.38872],[104.41476,20.38063],[104.4202,20.37651],[104.42748,20.37853],[104.43849,20.37559],[104.44725,20.37958],[104.45289,20.3781],[104.45573,20.37264],[104.475,20.36873],[104.49101,20.37651],[104.49694,20.38309],[104.51377,20.38549],[104.51572,20.38926],[104.52668,20.39387],[104.52723,20.41301],[104.54499,20.40777],[104.56398,20.41615],[104.59825,20.41625],[104.61181,20.42371],[104.61852,20.43423],[104.61837,20.44197],[104.61301,20.44651],[104.62053,20.45],[104.62563,20.46166],[104.63774,20.46484],[104.65191,20.47345],[104.65672,20.47405],[104.66232,20.46887],[104.66706,20.4701],[104.67033,20.46344],[104.66308,20.45958],[104.66453,20.45251],[104.68592,20.44224],[104.68849,20.43266],[104.69579,20.43059],[104.70831,20.41182],[104.71815,20.40732],[104.71702,20.40238],[104.71387,20.39924],[104.70152,20.39823],[104.68377,20.40339],[104.68362,20.39709],[104.66994,20.38764],[104.66542,20.3882],[104.6557,20.37975],[104.64673,20.37902],[104.64422,20.37268],[104.623,20.36593],[104.61682,20.36058],[104.61469,20.3509],[104.62131,20.34216],[104.61741,20.32665],[104.62018,20.32022],[104.61483,20.3117],[104.61707,20.30076],[104.62263,20.29434],[104.61723,20.29206],[104.61537,20.28094],[104.61188,20.28],[104.61396,20.27603],[104.61032,20.27531],[104.61215,20.2643],[104.60911,20.25616],[104.61238,20.25295],[104.61297,20.24411],[104.62988,20.22934],[104.64478,20.2347],[104.66189,20.23273],[104.66678,20.22733],[104.66853,20.21803],[104.68601,20.21782],[104.70273,20.2118],[104.7098,20.20488],[104.71513,20.20579],[104.71927,20.20088],[104.73297,20.2025],[104.7407,20.19907],[104.77535,20.19823],[104.82094,20.17015],[104.82301,20.16144],[104.83046,20.15594],[104.83576,20.15662],[104.84275,20.14843],[104.84912,20.15006],[104.86029,20.14246],[104.89758,20.1468],[104.91188,20.15507],[104.9273,20.15852],[104.92955,20.14937],[104.92124,20.14547],[104.92165,20.14149],[104.93488,20.12607],[104.94763,20.12207],[104.9533,20.11474],[104.96152,20.11201],[104.96043,20.10518],[104.96503,20.09972],[104.99282,20.09446],[104.97559,20.0782],[104.97211,20.06161],[104.96619,20.0594],[104.96064,20.05065],[104.94892,20.04704],[104.94328,20.04062],[104.93587,20.03814],[104.92583,20.02082],[104.91831,20.01577],[104.92046,20.00955],[104.91215,20.00245],[104.91633,19.99615],[104.92122,19.99765],[104.9112,19.98816],[104.91066,19.97701],[104.90632,19.97001],[104.88767,19.95236],[104.8642,19.9457],[104.84417,19.92532],[104.84246,19.91623],[104.85081,19.91155],[104.84621,19.90772],[104.84162,19.88605],[104.85035,19.87094],[104.84539,19.86185],[104.83514,19.85783],[104.8339,19.85338],[104.84963,19.84314],[104.84793,19.83735],[104.83883,19.83521],[104.83507,19.81364],[104.83926,19.80755],[104.83696,19.79513],[104.82476,19.78624],[104.80267,19.78631],[104.79963,19.79041],[104.7843,19.78444],[104.77658,19.77593],[104.76357,19.77605],[104.76822,19.76372],[104.75829,19.75694],[104.75648,19.74983],[104.73867,19.74928],[104.73095,19.75642],[104.7244,19.75501],[104.71273,19.74189],[104.70917,19.74219],[104.70931,19.73904],[104.70185,19.73742],[104.69718,19.7252],[104.68674,19.72295],[104.67821,19.71021],[104.66462,19.70372],[104.66344,19.70045],[104.67158,19.68325],[104.66552,19.68092],[104.66585,19.67553],[104.66034,19.67261],[104.66069,19.65984],[104.64765,19.65514],[104.65358,19.63651],[104.64936,19.62651],[104.64205,19.6217],[104.63497,19.62279],[104.62986,19.62785],[104.61949,19.62796],[104.61309,19.63375],[104.60407,19.63249],[104.60183,19.62929],[104.58339,19.62845],[104.57318,19.62086],[104.57043,19.61348],[104.56058,19.61014],[104.54606,19.61928],[104.53908,19.61199],[104.52832,19.61285],[104.51653,19.62092],[104.50816,19.6213],[104.50602,19.63135],[104.49928,19.63612],[104.49519,19.65017],[104.49077,19.65382],[104.47813,19.65537],[104.46755,19.64852],[104.4633,19.64905],[104.4341,19.66531],[104.43394,19.67161],[104.42727,19.67183],[104.42663,19.67652],[104.41932,19.68062],[104.42295,19.68451],[104.42395,19.69049],[104.41998,19.69278],[104.4239,19.69902],[104.41576,19.70646],[104.40708,19.70484],[104.4048,19.69986],[104.39744,19.69644],[104.38871,19.69958],[104.38392,19.696],[104.36792,19.69593],[104.3629,19.69155],[104.35338,19.69291],[104.34269,19.68647],[104.33889,19.67691],[104.32068,19.66842],[104.31858,19.6728],[104.32269,19.68247],[104.32136,19.68597],[104.30542,19.69706],[104.28696,19.69398],[104.26902,19.69721],[104.26296,19.7037],[104.25396,19.7029],[104.23625,19.70752],[104.20904,19.70224],[104.19868,19.69246],[104.19408,19.69519],[104.18017,19.69294],[104.1757,19.68792],[104.17414,19.69239],[104.16394,19.69684],[104.15649,19.68632],[104.1571,19.67038],[104.15281,19.66621],[104.13373,19.66012],[104.13024,19.66255],[104.10784,19.66052],[104.09293,19.66525],[104.07206,19.68197],[104.06871,19.66274],[104.05753,19.65151],[104.06925,19.63657],[104.0619,19.62555],[104.06276,19.61201],[104.07293,19.60477],[104.07327,19.60012],[104.08679,19.58057],[104.09533,19.57837],[104.10764,19.56932],[104.10507,19.55433],[104.1097,19.53392],[104.10728,19.5256],[104.10384,19.52393],[104.12326,19.50372],[104.12171,19.50046],[104.11807,19.49951],[104.11527,19.49081],[104.10812,19.48826],[104.09884,19.49231],[104.09292,19.48899],[104.08493,19.47801],[104.0861,19.46674],[104.06503,19.4529],[104.07568,19.45014],[104.07111,19.41556],[104.0541,19.41828],[104.04946,19.42553],[104.0304,19.41441],[104.02301,19.41595],[104.01429,19.40231],[103.99666,19.40525],[103.99173,19.40449],[103.98885,19.39935],[103.97639,19.39844],[103.97427,19.39384],[103.95694,19.38227],[103.96107,19.37666],[103.95999,19.37],[103.95225,19.36387],[103.95218,19.35751],[103.93101,19.34446],[103.91973,19.34239],[103.91635,19.33466],[103.90782,19.32978],[103.89222,19.33033],[103.88496,19.32628],[103.87555,19.31807],[103.8758,19.30586],[103.89008,19.30064],[103.89281,19.30613],[103.90018,19.3088],[103.91786,19.30152],[103.91696,19.29664],[103.92411,19.28526],[103.9612,19.25181],[103.99385,19.23889],[103.99779,19.23107],[104.00267,19.22913],[104.02017,19.23677],[104.04997,19.24068],[104.05707,19.24431],[104.06274,19.24288],[104.0716,19.24684],[104.07864,19.23777],[104.09359,19.22987],[104.10368,19.21241],[104.11315,19.22331],[104.13039,19.20443],[104.13769,19.20482],[104.14797,19.20001],[104.18199,19.19781],[104.1952,19.18077],[104.2006,19.16148],[104.21496,19.1599],[104.22542,19.15499],[104.2264,19.14754],[104.21944,19.14153],[104.21986,19.1304],[104.21382,19.12044],[104.23427,19.11167],[104.24022,19.11434],[104.25037,19.11004],[104.27147,19.11964],[104.28206,19.1196],[104.29607,19.11153],[104.30148,19.11227],[104.3054,19.09525],[104.31021,19.08892],[104.31774,19.08784],[104.35145,19.07084],[104.36668,19.07376],[104.3843,19.05998],[104.39792,19.05826],[104.40305,19.05519],[104.40408,19.05067],[104.40137,19.04817],[104.40098,19.03851],[104.42658,19.01548],[104.42276,19.00619],[104.43137,19.00494],[104.43742,18.99678],[104.44606,18.99299],[104.44879,18.98539],[104.45445,18.98522],[104.46285,18.99102],[104.4739,18.9881],[104.47695,18.99894],[104.48507,19.00499],[104.49704,19.00369],[104.50535,18.99791],[104.50534,18.99266],[104.51369,18.9812],[104.52092,18.9801],[104.5295,18.9854],[104.54378,18.97373],[104.54611,18.95372],[104.55755,18.94064],[104.56109,18.94066],[104.5668,18.92587],[104.5782,18.91171],[104.58009,18.90116],[104.58949,18.90361],[104.60006,18.89678],[104.60917,18.89305],[104.61618,18.89385],[104.62838,18.88764],[104.62717,18.88],[104.63595,18.8698],[104.65596,18.86485],[104.6601,18.85798],[104.66884,18.85312],[104.66922,18.84556],[104.67686,18.8373],[104.69031,18.83507],[104.69888,18.84037],[104.70579,18.83613],[104.71541,18.84029],[104.71414,18.82876],[104.71862,18.82674],[104.72187,18.81709],[104.72687,18.81849],[104.7368,18.81407],[104.73926,18.80048],[104.74799,18.80089],[104.75904,18.79523],[104.78484,18.80191],[104.79008,18.7895],[104.79977,18.78237],[104.84215,18.78523],[104.85706,18.77441],[104.86342,18.78118],[104.86963,18.78062],[104.87267,18.78622],[104.88981,18.78415],[104.91171,18.78885],[104.91832,18.78322],[104.92392,18.78614],[104.92856,18.77901],[104.93859,18.77308],[104.93378,18.75896],[104.93904,18.75391],[104.94276,18.73845],[104.96808,18.74279],[104.98262,18.73863],[104.99033,18.74436],[104.99906,18.73663],[105.01907,18.7448],[105.02043,18.7419],[105.01653,18.73442],[105.02018,18.7308],[105.04182,18.7241],[105.05167,18.72904],[105.06,18.72282],[105.05003,18.70735],[105.06744,18.70803],[105.07189,18.70214],[105.08226,18.70795],[105.1058,18.70308],[105.11485,18.71325],[105.12309,18.71108],[105.13429,18.7139],[105.13784,18.70593],[105.14559,18.70139],[105.13901,18.69687],[105.13843,18.68865],[105.13451,18.68868],[105.13773,18.683],[105.14154,18.67867],[105.14873,18.6768],[105.15107,18.67893],[105.15585,18.67551],[105.1684,18.65734],[105.18374,18.65753],[105.19092,18.64676],[105.19521,18.64805],[105.19958,18.63905],[105.1928,18.63277],[105.19115,18.6241],[105.19505,18.61737],[105.19156,18.61276],[105.19179,18.60427],[105.18022,18.60318],[105.15982,18.61324],[105.1559,18.60655],[105.15091,18.6057],[105.13489,18.59129],[105.1387,18.58345],[105.13585,18.58203],[105.13444,18.56949],[105.14022,18.56212],[105.12812,18.5552],[105.12957,18.54896],[105.1162,18.53873],[105.11557,18.52762],[105.11983,18.52255],[105.11124,18.51185],[105.11045,18.50086],[105.11311,18.49654],[105.11103,18.49416],[105.11398,18.49129],[105.10746,18.47535],[105.10896,18.46556],[105.10501,18.46059],[105.10876,18.45556],[105.10399,18.44745],[105.11072,18.4341],[105.11868,18.43261],[105.12383,18.41716],[105.13821,18.41615],[105.13844,18.40785],[105.147,18.40409],[105.14577,18.40079],[105.1522,18.38772],[105.16518,18.38687],[105.1675,18.39201],[105.17199,18.39221],[105.18449,18.38636],[105.17867,18.37166],[105.19012,18.34714],[105.18444,18.32518],[105.19382,18.31807],[105.21111,18.31249],[105.21788,18.30287],[105.23102,18.30291],[105.24298,18.29606],[105.25825,18.26762],[105.25634,18.25901],[105.26973,18.25975],[105.27753,18.254],[105.28189,18.26086],[105.28761,18.25876],[105.288,18.25533],[105.29929,18.255],[105.29593,18.24172],[105.30095,18.23593],[105.30682,18.25125],[105.30712,18.26347],[105.31072,18.26623],[105.32836,18.2649],[105.33132,18.25232],[105.32351,18.22898],[105.32598,18.20952],[105.3201,18.20035],[105.331,18.19146],[105.33795,18.19104],[105.33762,18.1839],[105.35362,18.18267],[105.36822,18.16011],[105.37695,18.16124],[105.37652,18.16543],[105.38396,18.16995],[105.39238,18.1594],[105.40431,18.1594],[105.4097,18.1534],[105.42005,18.18249],[105.42644,18.18325],[105.43158,18.17906],[105.43962,18.18166],[105.44681,18.19429],[105.44713,18.19949],[105.44272,18.201],[105.44395,18.20434],[105.45227,18.20451],[105.45305,18.2022],[105.45924,18.20487],[105.48069,18.19583],[105.49201,18.20224],[105.49285,18.19652],[105.48655,18.18285],[105.49062,18.17587],[105.49347,18.17629],[105.49992,18.18919],[105.50189,18.1879],[105.51284,18.15006],[105.5061,18.14432],[105.50391,18.12836],[105.51181,18.11975],[105.51302,18.12432],[105.51967,18.1261],[105.52715,18.12051],[105.53867,18.12026],[105.53648,18.10825],[105.5399,18.10492],[105.53985,18.08095],[105.55945,18.08049],[105.56816,18.08497],[105.57139,18.08093],[105.57525,18.07077],[105.57347,18.06269],[105.58054,18.06323],[105.58567,18.04313],[105.57966,18.02677],[105.58392,18.02027],[105.58133,18.01394],[105.59447,18.00806],[105.59883,18.00214],[105.60479,18.0097],[105.61309,18.01186],[105.6221,17.99951],[105.6332,17.99176],[105.64368,17.99245],[105.64235,17.96151],[105.62849,17.95186],[105.62793,17.94487],[105.62302,17.942],[105.62256,17.91937],[105.61693,17.90441],[105.60784,17.89537],[105.60897,17.8902],[105.61488,17.88054],[105.62763,17.87583],[105.62799,17.87025],[105.63303,17.86905],[105.63986,17.85787],[105.66138,17.85522],[105.67461,17.84637],[105.67749,17.83514],[105.68313,17.83454],[105.68458,17.82169],[105.67472,17.79725],[105.67715,17.7924],[105.68902,17.78451],[105.69316,17.7701],[105.69958,17.76343],[105.70502,17.75877],[105.71853,17.75637],[105.72221,17.74974],[105.73034,17.7447],[105.72878,17.724],[105.7303,17.72123],[105.74393,17.71918],[105.75117,17.66855],[105.78159,17.6763],[105.78351,17.67068],[105.79227,17.66925],[105.79908,17.65779],[105.80621,17.65867],[105.80606,17.65517],[105.81671,17.64496],[105.81911,17.64445],[105.82311,17.65299],[105.82921,17.65409],[105.83233,17.63407],[105.83619,17.62979],[105.84075,17.63497],[105.84468,17.63134],[105.854,17.63488],[105.8533,17.62007],[105.85844,17.62366],[106.09197,17.36077],[106.10454,17.35244],[106.1106,17.35322],[106.10997,17.3509],[106.12404,17.33917],[106.12751,17.33989],[106.13578,17.33362],[106.13647,17.32873],[106.1448,17.32506],[106.1433,17.31472],[106.1611,17.30486],[106.16502,17.30188],[106.164,17.29904],[106.17165,17.29805],[106.18068,17.29159],[106.19737,17.27438],[106.22381,17.26072],[106.23202,17.25149],[106.24725,17.24847],[106.25158,17.24452],[106.25105,17.25014],[106.25414,17.25315],[106.26228,17.25348],[106.27583,17.2617],[106.27897,17.26692],[106.28119,17.27655],[106.27514,17.28624],[106.27553,17.29582],[106.30381,17.29511],[106.30863,17.27081],[106.30619,17.26519],[106.31084,17.25155],[106.31466,17.25156],[106.31458,17.24845],[106.32852,17.23477],[106.33441,17.23382],[106.33184,17.22637],[106.32845,17.2258],[106.32289,17.21727],[106.31441,17.21981],[106.30781,17.21756],[106.30712,17.21217],[106.3031,17.20981],[106.3263,17.1993],[106.32133,17.19262],[106.32568,17.18832],[106.32666,17.18123],[106.33835,17.16799],[106.35627,17.15878],[106.35464,17.15417],[106.35738,17.15058],[106.35326,17.14527],[106.35653,17.13458],[106.37057,17.12421],[106.37332,17.11103],[106.39168,17.10313],[106.4077,17.08891],[106.40993,17.08135],[106.41767,17.07817],[106.4024,17.05144],[106.41198,17.04021],[106.42489,17.03201],[106.42747,17.0066],[106.43805,16.99605],[106.46052,17.00073],[106.46259,16.99222],[106.4713,16.9833],[106.49263,16.9833],[106.5056,16.97352],[106.51507,16.97136],[106.53132,16.97846],[106.53757,16.99347],[106.54316,16.99484],[106.54497,17.00527],[106.54997,17.00576],[106.54761,16.92588],[106.52497,16.92579],[106.52496,16.9209],[106.52108,16.92211],[106.51655,16.91451],[106.51657,16.90663],[106.51881,16.90522],[106.51864,16.88963],[106.53139,16.88292],[106.53898,16.87305],[106.55113,16.86777],[106.55212,16.6942],[106.55807,16.67393],[106.56676,16.66136],[106.56536,16.64132],[106.58944,16.62436],[106.59063,16.61681],[106.58168,16.60913],[106.58607,16.60097],[106.59767,16.60624],[106.61693,16.60564],[106.62691,16.60041],[106.62444,16.5881],[106.6277,16.58236],[106.63032,16.58225],[106.63263,16.59141],[106.64451,16.59387],[106.64868,16.59344],[106.65742,16.58132],[106.66728,16.58331],[106.66242,16.57244],[106.67239,16.56235],[106.67162,16.55903],[106.66018,16.55431],[106.64756,16.54056],[106.64705,16.52256],[106.65316,16.51861],[106.65437,16.50999],[106.66536,16.50317],[106.65979,16.49318],[106.66407,16.48593],[106.66059,16.47461],[106.66243,16.47239],[106.67354,16.47614],[106.67536,16.45305],[106.67797,16.4517],[106.68444,16.45783],[106.69326,16.44939],[106.68784,16.44568],[106.68762,16.43918],[106.69521,16.44001],[106.71423,16.43349],[106.72584,16.42515],[106.73033,16.42835],[106.72395,16.43347],[106.72627,16.43684],[106.733,16.43991],[106.73624,16.43806],[106.73424,16.42541],[106.73849,16.41174],[106.741,16.41201],[106.74622,16.41736],[106.74591,16.424],[106.76324,16.42477],[106.77232,16.43201],[106.7753,16.45986],[106.77089,16.46761],[106.78997,16.47356],[106.80239,16.46392],[106.8055,16.47578],[106.81381,16.48636],[106.82884,16.52195],[106.82272,16.52935],[106.82958,16.53677],[106.82914,16.54791],[106.83531,16.55009],[106.86204,16.54075],[106.86831,16.53293],[106.87512,16.53222],[106.8788,16.52482],[106.88685,16.52162],[106.89076,16.51125],[106.88727,16.50932],[106.8904,16.50128],[106.88679,16.49154],[106.87911,16.4845],[106.87666,16.47562],[106.87672,16.46983],[106.88436,16.4677],[106.88843,16.45151],[106.87175,16.43588],[106.87178,16.42928],[106.88526,16.42153],[106.88455,16.41274],[106.89142,16.41006],[106.89791,16.39165],[106.92262,16.37009],[106.92807,16.37033],[106.93166,16.36575],[106.95277,16.35834],[106.96261,16.3588],[106.96759,16.34705],[106.9653,16.31893],[106.97007,16.30156],[107.00501,16.31319],[107.01581,16.30792],[107.01525,16.30285],[107.02079,16.30289],[107.02803,16.31128],[107.04787,16.29986],[107.0523,16.30668],[107.07159,16.30379],[107.08119,16.31209],[107.08816,16.31124],[107.14758,16.26965],[107.14903,16.26388],[107.15667,16.25664],[107.15337,16.25248],[107.15324,16.2423],[107.149,16.2381],[107.15445,16.23017],[107.14688,16.2215],[107.14451,16.21316],[107.14825,16.20893],[107.14924,16.18958],[107.15483,16.18426],[107.16046,16.16765],[107.1701,16.16625],[107.17602,16.15773],[107.19416,16.14459],[107.20947,16.145],[107.22316,16.13908],[107.24372,16.14764],[107.25438,16.13586],[107.26299,16.13692],[107.2683,16.12017],[107.27232,16.11589],[107.28437,16.11872],[107.30853,16.08052],[107.31317,16.07897],[107.31993,16.06987],[107.32592,16.0703],[107.33441,16.05488],[107.33896,16.05528],[107.34627,16.06201],[107.35934,16.0634],[107.36553,16.06092],[107.37794,16.07406],[107.38926,16.06232],[107.39892,16.06211],[107.40355,16.07766],[107.40925,16.08404],[107.42711,16.07795],[107.43582,16.08284],[107.44349,16.0828],[107.44646,16.09079],[107.4565,16.08337],[107.46055,16.07109],[107.45008,16.0632],[107.44613,16.05375],[107.44691,16.04086],[107.44823,16.03756],[107.45363,16.03698],[107.4597,16.02806],[107.46783,16.02536],[107.46419,16.01512],[107.45601,16.00504],[107.45305,15.994],[107.44863,15.99001],[107.44356,15.9907],[107.44677,15.98057],[107.43496,15.96056],[107.42693,15.93633],[107.42841,15.93059],[107.41995,15.92654],[107.41546,15.91214],[107.40956,15.90999],[107.40678,15.90114],[107.39864,15.89374],[107.38462,15.88731],[107.37149,15.89816],[107.36154,15.89169],[107.34872,15.89389],[107.33345,15.88769],[107.32882,15.89001],[107.31549,15.88381],[107.31207,15.87348],[107.30273,15.86584],[107.29876,15.86921],[107.28903,15.86471],[107.28316,15.8577],[107.27565,15.8615],[107.27126,15.85903],[107.26954,15.85099],[107.25626,15.84783],[107.24813,15.83847],[107.23342,15.84345],[107.23169,15.83766],[107.2213,15.83557],[107.22145,15.83108],[107.21487,15.82421],[107.22871,15.80324],[107.22574,15.80054],[107.2296,15.78337],[107.21889,15.77648],[107.21682,15.75957],[107.21113,15.75454],[107.21381,15.73879],[107.22323,15.74287],[107.24806,15.74491],[107.25446,15.73831],[107.24929,15.72574],[107.2525,15.72175],[107.26651,15.72068],[107.26643,15.71209],[107.27143,15.70622],[107.27682,15.70688],[107.27237,15.70234],[107.27737,15.69577],[107.27306,15.6882],[107.27654,15.68378],[107.26764,15.67078],[107.26498,15.65443],[107.27753,15.65256],[107.27453,15.64399],[107.27575,15.63464],[107.29221,15.62315],[107.31846,15.62594],[107.33418,15.62232],[107.34199,15.61394],[107.34223,15.60277],[107.34832,15.60193],[107.35361,15.59133],[107.34248,15.57727],[107.34505,15.57249],[107.35121,15.57297],[107.35338,15.56882],[107.35953,15.57227],[107.36438,15.57021],[107.36452,15.54797],[107.37286,15.53695],[107.38157,15.49415],[107.386,15.49271],[107.39305,15.49572],[107.41078,15.49176],[107.41411,15.49516],[107.41596,15.49035],[107.42243,15.49345],[107.43002,15.4902],[107.43016,15.49917],[107.4337,15.50282],[107.45127,15.504],[107.47318,15.49608],[107.4825,15.48781],[107.47849,15.47775],[107.49279,15.47911],[107.51389,15.47294],[107.51612,15.46193],[107.52265,15.45713],[107.52222,15.44666],[107.52731,15.44209],[107.51841,15.41651],[107.53062,15.4054],[107.54665,15.40526],[107.56024,15.39474],[107.57373,15.39766],[107.58919,15.41245],[107.59995,15.41464],[107.60395,15.42139],[107.62416,15.41455],[107.61487,15.40319],[107.61397,15.39402],[107.60889,15.39339],[107.59639,15.38293],[107.60906,15.36775],[107.60514,15.3531],[107.6093,15.34955],[107.61015,15.33503],[107.61726,15.32818],[107.62251,15.33283],[107.62673,15.33227],[107.62684,15.32732],[107.63353,15.3196],[107.63429,15.31453],[107.62955,15.31027],[107.62508,15.31139],[107.62033,15.30113],[107.62225,15.29547],[107.61548,15.2881],[107.61578,15.27096],[107.61859,15.27108],[107.62077,15.26443],[107.61934,15.24572],[107.62392,15.24003],[107.6249,15.23204],[107.63356,15.23085],[107.63072,15.22772],[107.6214,15.22669],[107.61919,15.22328],[107.62129,15.21394],[107.61165,15.2121],[107.60247,15.20425],[107.59494,15.2111],[107.59455,15.2056],[107.58545,15.20125],[107.58392,15.19752],[107.59663,15.19013],[107.61162,15.16947],[107.61617,15.15544],[107.62686,15.14969],[107.6231,15.14561],[107.62567,15.14119],[107.62152,15.13452],[107.60764,15.13287],[107.6191,15.11851],[107.62244,15.10486],[107.61765,15.10447],[107.59782,15.08865],[107.61099,15.06654],[107.61443,15.06672],[107.62132,15.05087],[107.61589,15.04584],[107.61151,15.04779],[107.60494,15.04442],[107.59236,15.04402],[107.58755,15.03529],[107.58843,15.02976],[107.58427,15.02797],[107.54062,15.04954],[107.53094,15.04057],[107.51959,15.03844],[107.51588,15.0302],[107.50142,15.02162],[107.49602,15.01984],[107.49215,15.02369],[107.47299,15.01894],[107.46763,15.00777],[107.47175,14.99491],[107.47837,14.99209],[107.47643,14.98716],[107.46692,14.98518],[107.48121,14.97029],[107.47856,14.95757],[107.48297,14.95121],[107.49004,14.94368],[107.49968,14.94286],[107.49886,14.93678],[107.5057,14.92869],[107.51546,14.9311],[107.52994,14.92843],[107.53272,14.91684],[107.54419,14.90592],[107.55454,14.90089],[107.56191,14.90279],[107.57345,14.89122],[107.5858,14.89114],[107.5879,14.87597],[107.59154,14.87282],[107.58926,14.86375],[107.57926,14.85444],[107.57065,14.85273],[107.5626,14.83995],[107.55463,14.83388],[107.54588,14.83074],[107.54096,14.82626],[107.54078,14.82012],[107.5223,14.81307],[107.52269,14.80358],[107.51046,14.79615],[107.50542,14.78566],[107.51534,14.78456],[107.51969,14.77625],[107.52578,14.7761],[107.53077,14.77149],[107.53382,14.75999],[107.542,14.75052],[107.53793,14.74102],[107.52593,14.73467],[107.52138,14.72774],[107.52529,14.72235],[107.53548,14.72485],[107.55616,14.72094],[107.55524,14.7114],[107.55971,14.70481],[107.5599,14.69576],[107.55656,14.68611],[107.5358,14.69002],[107.53025,14.68305],[107.52541,14.68223],[107.52466,14.66243],[107.51964,14.65001],[107.50921,14.64452],[107.50703,14.6391],[107.50086,14.63837],[107.49744,14.63406],[107.49811,14.62771],[107.49286,14.62257],[107.47833,14.62486],[107.46565,14.61753],[107.46111,14.60712],[107.46834,14.59672],[107.46607,14.59044],[107.45948,14.59162],[107.45233,14.5856],[107.45842,14.57591],[107.45544,14.557],[107.44836,14.54902],[107.45084,14.53567],[107.45488,14.53286],[107.43766,14.52376],[107.42078,14.52897],[107.41743,14.53342],[107.39506,14.54291],[107.38888,14.53847],[107.38522,14.54136],[107.37531,14.54055],[107.36255,14.55539],[107.36471,14.56456],[107.3566,14.57011],[107.35492,14.57507],[107.34705,14.57632],[107.34006,14.58171],[107.33987,14.58514],[107.32846,14.59148],[107.31986,14.58752],[107.29771,14.58764],[107.29139,14.58078],[107.28808,14.58166],[107.29013,14.57403],[107.28252,14.57051],[107.28209,14.56349],[107.28524,14.55903],[107.27655,14.54162],[107.26156,14.54333],[107.25923,14.53786],[107.25321,14.52293],[107.25754,14.49209],[107.23848,14.4793],[107.23142,14.48127],[107.22781,14.4859],[107.2221,14.48276],[107.21804,14.48757],[107.20713,14.48836],[107.20071,14.4772],[107.1931,14.44315],[107.18961,14.4416],[107.1889,14.43687],[107.17564,14.4331],[107.17452,14.4246],[107.16366,14.41531],[107.15975,14.41422],[107.15848,14.42082],[107.15456,14.42343],[107.14969,14.42204],[107.14603,14.41477],[107.13493,14.41458],[107.13231,14.40687],[107.12227,14.40223],[107.12146,14.39821],[107.10961,14.39369],[107.10644,14.39792],[107.09472,14.39181],[107.08343,14.39515],[107.07982,14.40191],[107.07509,14.41471],[107.07904,14.42221],[107.07753,14.42673],[107.07093,14.42809],[107.06201,14.43878],[107.05276,14.43959],[107.04218,14.44903],[107.03733,14.44325],[107.04225,14.43593],[107.04179,14.43056],[107.04667,14.42618],[107.04615,14.41574],[107.03566,14.41192],[107.01565,14.39727],[107.01465,14.38972],[107.0086,14.38514],[106.99471,14.35601],[106.98972,14.35961],[106.97627,14.35886],[106.97075,14.33953],[106.97902,14.33513],[106.96702,14.31411],[106.95659,14.31633],[106.94608,14.31432],[106.93712,14.32556],[106.90135,14.33462],[106.90135,14.32922],[106.89442,14.32272],[106.89479,14.31483],[106.8921,14.31286],[106.88813,14.31663],[106.86836,14.31909],[106.86304,14.31654],[106.85087,14.30219],[106.8491,14.29207],[106.83789,14.29295],[106.83632,14.30667],[106.83266,14.31239],[106.81464,14.31147],[106.79708,14.32792],[106.79385,14.34043],[106.78586,14.34215],[106.786,14.35037],[106.77745,14.36022],[106.7774,14.36768],[106.7712,14.37232],[106.77006,14.37989],[106.75461,14.38826],[106.75721,14.39995],[106.74864,14.41258],[106.74914,14.41671],[106.74263,14.42187],[106.74286,14.42674],[106.73737,14.431],[106.72449,14.43552],[106.71667,14.4219],[106.70538,14.42465],[106.70374,14.42982],[106.69096,14.4284],[106.68206,14.43379],[106.67761,14.43235],[106.67483,14.43634],[106.6638,14.43929],[106.65934,14.44992],[106.64924,14.44717],[106.6402,14.44879],[106.63116,14.44354],[106.627,14.45824],[106.62179,14.45842],[106.61556,14.46702],[106.61783,14.47241],[106.61317,14.49523],[106.61064,14.49756],[106.60334,14.49494],[106.60148,14.5067],[106.59779,14.5046],[106.58578,14.50827],[106.57762,14.50144],[106.56524,14.49944],[106.56286,14.50153],[106.5627,14.50879],[106.57133,14.51933],[106.57045,14.53304],[106.56258,14.53732],[106.56308,14.547],[106.55834,14.54941],[106.55922,14.56456],[106.54958,14.57401],[106.54478,14.59269],[106.51613,14.59018],[106.50272,14.58295],[106.48701,14.56687],[106.46144,14.55257],[106.45734,14.54528],[106.45948,14.53949],[106.4792,14.51504],[106.47392,14.51019],[106.44047,14.52362],[106.43613,14.5223],[106.42986,14.51248],[106.43138,14.50265],[106.44041,14.49211],[106.43939,14.48686],[106.42142,14.4725],[106.42043,14.46055],[106.40929,14.45101],[106.39306,14.45017],[106.37435,14.45458],[106.34117,14.44496],[106.33128,14.4388],[106.32569,14.44188],[106.31529,14.44094],[106.31062,14.44993],[106.29934,14.45103],[106.29489,14.45693],[106.29396,14.46783],[106.28761,14.47235],[106.27968,14.47101],[106.2751,14.47736],[106.26959,14.47817],[106.26548,14.47241],[106.26429,14.48167],[106.25356,14.48712],[106.24204,14.46292],[106.24407,14.45478],[106.25347,14.44246],[106.25013,14.43722],[106.24438,14.43632],[106.24266,14.42875],[106.23721,14.42385],[106.23759,14.40369],[106.23414,14.40074],[106.236,14.39532],[106.22567,14.38494],[106.22603,14.37062],[106.21171,14.36572],[106.2044,14.37202],[106.18774,14.35125],[106.17159,14.35031],[106.16079,14.35359],[106.14732,14.37144],[106.14211,14.37131],[106.1255,14.35953],[106.11872,14.35801],[106.11858,14.3625],[106.10666,14.36598],[106.10509,14.37295],[106.09823,14.37709],[106.08787,14.36494],[106.08184,14.36422],[106.08589,14.35138],[106.08213,14.33934],[106.07848,14.3401],[106.0741,14.35171],[106.06073,14.35102],[106.05863,14.34348],[106.05221,14.34757],[106.03243,14.34326],[106.01927,14.35235],[106.00933,14.36689],[106.00305,14.37044],[105.99577,14.35283],[105.99479,14.34855],[106.00143,14.34157],[105.99643,14.32554],[106.00264,14.31773],[106.00231,14.31354],[106.0095,14.31028],[106.0167,14.31523],[106.02558,14.3089],[106.02377,14.29686],[106.03548,14.26998],[106.02791,14.26333],[106.02746,14.24623],[106.03203,14.24308],[106.03558,14.22838],[106.05181,14.21131],[106.05232,14.20272],[106.07457,14.19331],[106.10941,14.18695],[106.11346,14.17367],[106.11185,14.14572],[106.12075,14.12283],[106.12194,14.10977],[106.13459,14.10247],[106.1439,14.08879],[106.15273,14.08244],[106.17126,14.07447],[106.18805,14.06267],[106.17726,14.04206],[106.17552,14.02757],[106.16725,14.01917],[106.1596,14.01731],[106.15645,14.02146],[106.14338,14.02111],[106.13145,14.01005],[106.12865,14.00602],[106.12992,14.00143],[106.12391,13.99875],[106.12275,13.99472],[106.10354,13.99352],[106.10084,13.98067],[106.10808,13.97034],[106.10278,13.96473],[106.1074,13.94468],[106.10512,13.92919],[106.10811,13.91543],[106.10759,13.91089],[106.10405,13.9091],[106.06388,13.91775],[106.03378,13.91961],[106.02364,13.92613],[106.00936,13.92954],[105.99339,13.92968],[105.9897,13.92226],[105.94646,13.93179],[105.9122,13.92836],[105.89884,13.93663],[105.89374,13.94823],[105.837,13.98487],[105.82094,14.00373],[105.79004,14.02554],[105.78234,14.05893],[105.7878,14.07334],[105.786,14.08353],[105.74153,14.09595],[105.73794,14.09407],[105.72592,14.10888],[105.71754,14.10643],[105.70974,14.09012],[105.70479,14.08675],[105.6884,14.09926],[105.68241,14.10855],[105.65745,14.11987],[105.6552,14.11862],[105.66162,14.11355],[105.66002,14.10994],[105.65273,14.11142],[105.6488,14.09831],[105.64531,14.09722],[105.63228,14.10914],[105.63542,14.11909],[105.63051,14.12443],[105.63366,14.13076],[105.62551,14.13015],[105.62102,14.13432],[105.61597,14.12628],[105.60817,14.13549],[105.60849,14.14432],[105.60188,14.148],[105.594,14.14542],[105.58483,14.14854],[105.58922,14.14021],[105.58552,14.13807],[105.57332,14.14534],[105.56799,14.15507],[105.55944,14.16005],[105.53185,14.14791],[105.5315,14.14412],[105.51855,14.13979],[105.51434,14.13343],[105.51215,14.13551],[105.5075,14.13191],[105.49868,14.13366],[105.49898,14.12876],[105.49037,14.12594],[105.48951,14.12116],[105.47902,14.1171],[105.47458,14.12021],[105.46746,14.1122],[105.45649,14.1086],[105.45529,14.10258],[105.45204,14.10153],[105.44552,14.10416],[105.44448,14.10793],[105.43947,14.10665],[105.43388,14.10967],[105.43119,14.10584],[105.42679,14.10791],[105.422,14.10531],[105.41744,14.1106],[105.40644,14.1098],[105.40708,14.10451],[105.40194,14.10201],[105.40043,14.10541],[105.39824,14.10078],[105.39151,14.10014],[105.38475,14.1055],[105.37722,14.10195],[105.37333,14.10418],[105.37115,14.10204],[105.36794,14.10685],[105.36186,14.10423],[105.35667,14.11699],[105.33932,14.1291],[105.33952,14.13389],[105.3252,14.14661],[105.32752,14.15183],[105.32451,14.15319],[105.32528,14.15923],[105.31255,14.16401],[105.31302,14.16157],[105.29832,14.16471],[105.29549,14.17203],[105.28311,14.17026],[105.27518,14.17715],[105.27496,14.18481],[105.26713,14.19628],[105.26699,14.20197],[105.25797,14.20819],[105.25714,14.22518],[105.24939,14.23016],[105.2491,14.23755],[105.20875,14.27427],[105.20625,14.28542],[105.20934,14.30112],[105.20559,14.31655],[105.20647,14.34334],[105.21666,14.33512],[105.22863,14.33368],[105.23421,14.33804],[105.23469,14.35103],[105.23799,14.35251],[105.24164,14.34982],[105.24812,14.35966],[105.25879,14.3615],[105.27533,14.35454],[105.28307,14.35571],[105.28271,14.36349],[105.29201,14.36912],[105.30029,14.36633],[105.30345,14.36911],[105.30469,14.37811],[105.3084,14.37891],[105.31166,14.38739],[105.32321,14.39824],[105.34172,14.38458],[105.34853,14.38855],[105.35927,14.38671],[105.37385,14.39957],[105.38171,14.40161],[105.38713,14.39678],[105.3887,14.40769],[105.40275,14.41114],[105.40657,14.42837],[105.41383,14.4282],[105.42306,14.4212],[105.42356,14.41726],[105.42944,14.41619],[105.43229,14.42382],[105.43047,14.42646],[105.44192,14.4294],[105.4381,14.43636],[105.4396,14.43939],[105.45706,14.45534],[105.46037,14.46665],[105.47133,14.47249],[105.48119,14.49518],[105.48608,14.49965],[105.48296,14.50102],[105.48285,14.50558],[105.5006,14.51431],[105.50138,14.52188],[105.50692,14.52276],[105.51631,14.53813],[105.5264,14.5376],[105.52459,14.55186],[105.53371,14.55353],[105.53502,14.55885],[105.52832,14.57147],[105.53964,14.58304],[105.53601,14.59218],[105.5282,14.59703],[105.53112,14.60998],[105.54226,14.61938],[105.5408,14.62188],[105.53059,14.62268],[105.52498,14.63242],[105.53056,14.64214],[105.5277,14.64776],[105.51804,14.65118],[105.51853,14.67078],[105.52672,14.68087],[105.51633,14.69488],[105.52419,14.7023],[105.52506,14.70888],[105.52038,14.71483],[105.52336,14.72403],[105.51995,14.72571],[105.52145,14.72875],[105.54675,14.73127],[105.54354,14.73955],[105.53336,14.73907],[105.51318,14.75296],[105.51717,14.76085],[105.51714,14.76381],[105.51274,14.76541],[105.51429,14.77314],[105.52571,14.78345],[105.51573,14.79244],[105.52018,14.79525],[105.51127,14.79887],[105.52192,14.82463],[105.5381,14.82032],[105.54276,14.83026],[105.56019,14.84],[105.55217,14.84517],[105.54284,14.86338],[105.5494,14.87492],[105.58053,14.88079],[105.57675,14.89657],[105.56389,14.91138],[105.55879,14.92395],[105.54584,14.92608],[105.55272,14.94035],[105.55074,14.94747],[105.55437,14.95374],[105.56749,14.95528],[105.56981,14.94961],[105.58167,14.9426],[105.58632,14.94568],[105.59082,14.95974],[105.59463,14.96004],[105.59605,14.96408],[105.60564,14.96605],[105.60712,14.97122],[105.62372,14.97502],[105.60331,14.99421],[105.5749,14.99831],[105.5717,15.02151],[105.5662,15.02328],[105.56292,15.03026],[105.5552,15.02908],[105.54819,15.03616],[105.54132,15.03717],[105.55076,15.0464],[105.55473,15.06224],[105.53932,15.06854],[105.53713,15.06371],[105.5137,15.06366],[105.51493,15.08473],[105.48338,15.09677],[105.48368,15.11275],[105.47722,15.1155],[105.46704,15.12874],[105.46965,15.13555],[105.4765,15.13781],[105.48541,15.151],[105.46926,15.1592],[105.47116,15.16527],[105.47773,15.16814],[105.474,15.17698],[105.48013,15.186],[105.49291,15.19426],[105.49086,15.19815],[105.49344,15.20507],[105.51598,15.21905],[105.52742,15.24187],[105.53962,15.2518],[105.54631,15.25416],[105.55443,15.25175],[105.55504,15.2571],[105.56048,15.26248],[105.56836,15.26383],[105.57388,15.25888],[105.58228,15.26016],[105.59036,15.27083],[105.59074,15.27993],[105.58299,15.30037],[105.58434,15.31451],[105.57859,15.31848],[105.57424,15.32837],[105.5583,15.32222],[105.53932,15.32422],[105.5182,15.32162],[105.50388,15.31556],[105.50138,15.32068],[105.49497,15.32167],[105.48837,15.32824],[105.47344,15.33527],[105.46776,15.35118],[105.47523,15.36862],[105.49198,15.3851],[105.52136,15.3932],[105.54121,15.39231],[105.55266,15.3962],[105.57373,15.4048],[105.58739,15.41845],[105.59537,15.43607],[105.6027,15.47737],[105.59271,15.50847],[105.60818,15.54583],[105.62422,15.56234],[105.62856,15.60625],[105.63655,15.63337],[105.63592,15.65808],[105.62599,15.67683],[105.61096,15.6911],[105.60177,15.71918],[105.59252,15.72662],[105.56323,15.737],[105.55388,15.74909],[105.53219,15.74888],[105.52248,15.75653],[105.5139,15.75863],[105.51155,15.76392],[105.50542,15.76723],[105.49497,15.76567],[105.46634,15.74578],[105.43499,15.75457],[105.42188,15.77124],[105.41891,15.7788],[105.42077,15.78785],[105.41236,15.79407],[105.40047,15.79556],[105.39056,15.80865],[105.38606,15.83666],[105.37298,15.85769],[105.35233,15.90614],[105.34343,15.91282],[105.34255,15.92156],[105.34958,15.94258],[105.36135,15.9532],[105.36714,15.96875],[105.37332,15.97343],[105.37775,15.98419],[105.39441,15.99165],[105.41628,15.98572],[105.4233,15.98881],[105.42575,15.99447],[105.42375,16.00595],[105.41727,16.01242],[105.40614,16.01664],[105.36535,16.02073],[105.34911,16.02954],[105.31131,16.03],[105.29959,16.03916],[105.21328,16.0491],[105.13305,16.07961],[105.11943,16.07715],[105.10142,16.0906],[105.09063,16.09075],[105.08502,16.08545],[105.04631,16.10237],[105.04046,16.10965],[105.03589,16.13437],[105.01158,16.19302],[105.01124,16.20618],[105.01689,16.2322],[105.0139,16.24545],[104.9874,16.27337],[104.9562,16.29414],[104.92434,16.33555],[104.90617,16.33786],[104.89407,16.34407],[104.88551,16.35552],[104.88476,16.36954],[104.86271,16.39973],[104.86198,16.42295],[104.85044,16.44573],[104.82874,16.46551],[104.80087,16.47724],[104.77672,16.49241],[104.75327,16.51616],[104.73687,16.54067],[104.73347,16.56825],[104.73996,16.59768],[104.74295,16.63352],[104.76282,16.69568],[104.75936,16.70467],[104.75817,16.74267],[104.74611,16.76489],[104.73696,16.80209],[104.74186,16.82251],[104.75984,16.84466],[104.75709,16.86169],[104.73565,16.91524],[104.73266,16.94135],[104.73462,16.96595],[104.72894,17.00608],[104.73493,17.02856],[104.75043,17.04933],[104.77639,17.10606],[104.79137,17.1308],[104.80095,17.1629],[104.80658,17.23029],[104.80282,17.2702],[104.80554,17.31548],[104.80049,17.3926],[104.77978,17.4228],[104.74406,17.46029],[104.7205,17.50832],[104.69396,17.53067],[104.46854,17.65434],[104.40451,17.7393],[104.35511,17.82267],[104.33626,17.83655],[104.2979,17.84402],[104.27906,17.85397],[104.22061,17.98669],[104.17395,18.04173],[104.10418,18.11336],[104.08853,18.1607],[104.07015,18.18793],[104.0588,18.22275],[104.00239,18.29782],[103.99105,18.31845],[103.97466,18.33595],[103.95613,18.33959],[103.93749,18.33432],[103.91257,18.32001],[103.88631,18.29395],[103.85717,18.28404],[103.84897,18.29287],[103.83699,18.32413],[103.82102,18.33704],[103.7858,18.34333],[103.75339,18.33979],[103.74667,18.3428],[103.69788,18.34315],[103.64541,18.38337],[103.61277,18.40242],[103.59552,18.40554],[103.5721,18.40469],[103.5481,18.41861],[103.52743,18.42581],[103.48593,18.42401],[103.47161,18.42737],[103.45689,18.42504],[103.43281,18.43997],[103.40596,18.44864],[103.3548,18.43493],[103.30984,18.43286],[103.29395,18.4227],[103.27979,18.39948],[103.26218,18.38223],[103.2449,18.37055],[103.24257,18.35816],[103.24884,18.34146],[103.25808,18.33455],[103.27483,18.33207],[103.28848,18.32529],[103.29769,18.31481],[103.29825,18.3041],[103.27483,18.29137],[103.2396,18.28341],[103.20609,18.2701],[103.18192,18.26563],[103.16827,18.25706],[103.15106,18.2292],[103.15571,18.19818],[103.14852,18.1728],[103.13158,18.15771],[103.08898,18.13583],[103.08064,18.12636],[103.07209,18.07681],[103.08106,18.04951],[103.07839,18.03328],[103.06063,18.00369],[103.04232,17.9826],[103.02912,17.9734],[103.0193,17.97123],[103.01001,17.97584],[102.98636,17.99723],[102.96665,18.00445],[102.95256,18.00464],[102.93697,18.00102],[102.89635,17.9801],[102.85612,17.97137],[102.81941,17.9423],[102.81271,17.93902],[102.79614,17.93885],[102.78543,17.93393],[102.76819,17.90193],[102.75735,17.89321],[102.73056,17.88313],[102.69951,17.87667],[102.69009,17.87147],[102.68532,17.86675],[102.67922,17.84263],[102.68269,17.83509],[102.69814,17.81979],[102.68636,17.80458],[102.67011,17.8044],[102.6387,17.83174],[102.60236,17.83216],[102.59491,17.83446],[102.58917,17.84131],[102.59095,17.85597],[102.6063,17.8847],[102.61266,17.90645],[102.61318,17.94094],[102.603,17.95536],[102.59252,17.9609],[102.55972,17.96783],[102.52722,17.96323],[102.50966,17.97152],[102.48495,17.96647],[102.4676,17.96852],[102.42111,17.98894],[102.38815,18.01607],[102.34452,18.04572],[102.33288,18.05046],[102.30619,18.05425],[102.29748,18.05139],[102.28808,18.05484],[102.27754,18.06269],[102.26965,18.0767],[102.24885,18.09777],[102.18564,18.1478],[102.16317,18.20451],[102.14361,18.20637],[102.14152,18.21252],[102.13339,18.21606],[102.11383,18.21085],[102.08735,18.22019],[102.04411,18.19713],[102.0343,18.1608],[102.02706,18.15091],[102.01999,18.15009],[101.99394,18.12277],[101.98594,18.12335],[101.96972,18.11149],[101.96306,18.10265],[101.95644,18.1045],[101.95316,18.1018],[101.9546,18.09318],[101.93961,18.08264],[101.9365,18.07137],[101.90969,18.03328],[101.90436,18.03],[101.87498,18.02824],[101.86345,18.03942],[101.83375,18.05232],[101.8269,18.0589],[101.79567,18.06437],[101.78698,18.07136],[101.7843,18.07008],[101.76606,18.05457],[101.75631,18.03409],[101.75442,18.00679],[101.74552,17.99296],[101.74251,17.974],[101.72897,17.94713],[101.73233,17.92214],[101.72269,17.91139],[101.71011,17.90338],[101.70413,17.90318],[101.70278,17.91095],[101.69252,17.91255],[101.64859,17.89608],[101.61664,17.89351],[101.61149,17.88551],[101.61173,17.87462],[101.60691,17.86296],[101.59505,17.84981],[101.58674,17.85095],[101.57983,17.86721],[101.57366,17.86892],[101.56962,17.86443],[101.56405,17.84014],[101.5515,17.82098],[101.55159,17.81069],[101.55446,17.8074],[101.56033,17.80879],[101.56791,17.80259],[101.57438,17.78456],[101.55291,17.789],[101.54817,17.7876],[101.53745,17.77496],[101.52265,17.7769],[101.5217,17.77282],[101.50493,17.76001],[101.50394,17.75548],[101.49699,17.75349],[101.50262,17.74504],[101.49536,17.74042],[101.49377,17.7274],[101.49053,17.72405],[101.48511,17.7274],[101.49054,17.7465],[101.48284,17.74389],[101.47697,17.74526],[101.47509,17.74976],[101.48266,17.75414],[101.484,17.75852],[101.48143,17.76041],[101.46369,17.75454],[101.46734,17.74784],[101.45621,17.74699],[101.45431,17.73991],[101.44778,17.7368],[101.44555,17.72933],[101.44333,17.73334],[101.43651,17.73185],[101.4242,17.7374],[101.41753,17.72985],[101.41547,17.73557],[101.40403,17.73555],[101.3973,17.72708],[101.40161,17.72353],[101.41554,17.72534],[101.43115,17.71635],[101.42982,17.71316],[101.42093,17.71213],[101.40604,17.70064],[101.40933,17.68889],[101.40181,17.68232],[101.39822,17.68994],[101.38307,17.69808],[101.3782,17.69246],[101.37767,17.68192],[101.36722,17.67921],[101.36121,17.68117],[101.35553,17.66812],[101.34542,17.65897],[101.33762,17.6597],[101.3317,17.65409],[101.32355,17.65638],[101.30601,17.64975],[101.31181,17.63797],[101.3075,17.63208],[101.29872,17.63358],[101.28852,17.62379],[101.28222,17.6101],[101.27961,17.60805],[101.27781,17.61131],[101.2737,17.61063],[101.25964,17.59802],[101.25978,17.58965],[101.24931,17.57853],[101.24777,17.56226],[101.24287,17.55435],[101.23294,17.55499],[101.22913,17.53602],[101.21285,17.53115],[101.18821,17.53099],[101.1824,17.52942],[101.18351,17.52626],[101.17516,17.52437],[101.18291,17.49765],[101.16547,17.49095],[101.16241,17.48284],[101.16752,17.48012],[101.16438,17.4781],[101.16382,17.46983],[101.14928,17.46657],[101.14468,17.47864],[101.13111,17.47286],[101.12988,17.47843],[101.13464,17.48048],[101.13456,17.48347],[101.1271,17.48165],[101.12175,17.48394],[101.115,17.4783],[101.11002,17.47984],[101.10629,17.49269],[101.09405,17.49545],[101.10282,17.50904],[101.09217,17.50847],[101.07987,17.50255],[101.06471,17.5147],[101.06184,17.512],[101.06061,17.52719],[101.04635,17.52981],[101.04577,17.54479],[101.03986,17.54092],[101.03754,17.54654],[101.02408,17.55174],[101.01779,17.55775],[101.00316,17.55628],[100.99277,17.56636],[100.98522,17.56572],[100.97745,17.57235],[100.97408,17.57257],[100.97365,17.56902],[100.96746,17.57157],[100.96504,17.58116],[100.9686,17.59266],[100.97673,17.59561],[100.98733,17.61145],[100.98787,17.61828],[100.99142,17.6182],[100.99513,17.64304],[100.99161,17.6491],[100.99543,17.65837],[100.99048,17.66556],[100.99309,17.67547],[100.99889,17.67928],[101.00932,17.69991],[101.00068,17.69878],[101.00458,17.70175],[101.00269,17.71294],[101.00746,17.73069],[100.9902,17.74001],[100.98677,17.74787],[100.97818,17.75529],[100.97823,17.7634],[100.98288,17.7699],[100.98975,17.76791],[100.99899,17.77128],[101.00647,17.78424],[101.0024,17.79551],[100.99223,17.80583],[100.99967,17.81776],[100.99837,17.82067],[101.01789,17.82955],[101.03053,17.83053],[101.03275,17.8341],[101.02917,17.83928],[101.03221,17.84284],[101.03027,17.84569],[101.03312,17.84672],[101.0335,17.86142],[101.02856,17.86555],[101.02795,17.87197],[101.02045,17.87761],[101.02082,17.88232],[101.01634,17.884],[101.01893,17.89257],[101.03182,17.9015],[101.03111,17.90447],[101.04089,17.90686],[101.05353,17.91623],[101.05634,17.91398],[101.06485,17.91711],[101.07051,17.91383],[101.0707,17.9195],[101.08907,17.92605],[101.09503,17.93116],[101.09444,17.93762],[101.10373,17.94651],[101.11736,17.95125],[101.11502,17.96664],[101.11856,17.97339],[101.1216,17.99969],[101.12952,18.00595],[101.133,18.01447],[101.13986,18.02022],[101.14069,18.02673],[101.14882,18.03502],[101.15358,18.03729],[101.16226,18.0316],[101.17779,18.05115],[101.17575,18.05273],[101.18446,18.06639],[101.17356,18.07588],[101.17553,18.08875],[101.16755,18.09689],[101.16652,18.11367],[101.16121,18.1229],[101.168,18.13761],[101.17517,18.16324],[101.17355,18.1658],[101.17858,18.17233],[101.17639,18.17672],[101.19305,18.21316],[101.17892,18.22453],[101.1733,18.21723],[101.16634,18.2171],[101.16405,18.22235],[101.16695,18.23004],[101.16239,18.23279],[101.15996,18.24406],[101.14379,18.25961],[101.15078,18.26943],[101.16347,18.27919],[101.1597,18.28398],[101.15575,18.28334],[101.14813,18.2958],[101.15988,18.30455],[101.15932,18.31062],[101.16508,18.31377],[101.1694,18.32135],[101.17281,18.32028],[101.17932,18.32654],[101.18193,18.3405],[101.15501,18.3489],[101.15013,18.34665],[101.13255,18.36572],[101.10946,18.37125],[101.09486,18.38114],[101.08575,18.38029],[101.08247,18.38363],[101.0835,18.39689],[101.07945,18.4048],[101.06986,18.40852],[101.05833,18.42253],[101.05212,18.42522],[101.05662,18.43569],[101.05317,18.44193],[101.08332,18.47629],[101.09298,18.47845],[101.09069,18.49872],[101.09818,18.50234],[101.10287,18.52001],[101.10879,18.52547],[101.13797,18.52724],[101.14177,18.53781],[101.14853,18.54211],[101.14869,18.55166],[101.17067,18.55677],[101.17465,18.56034],[101.17747,18.55747],[101.18262,18.55985],[101.18156,18.56878],[101.18652,18.58051],[101.17937,18.58858],[101.18187,18.60328],[101.17923,18.60463],[101.18294,18.61251],[101.21406,18.61874],[101.21829,18.62432],[101.2266,18.62406],[101.23498,18.63528],[101.24201,18.63892],[101.24097,18.65091],[101.25003,18.65643],[101.25348,18.66584],[101.25837,18.66854],[101.2587,18.67656],[101.27101,18.68961],[101.26732,18.69871],[101.26046,18.69974],[101.24701,18.71304],[101.23519,18.7114],[101.23295,18.72329],[101.2262,18.72533],[101.22349,18.73198],[101.23535,18.73979],[101.24043,18.76559],[101.24507,18.77085],[101.25232,18.77105],[101.24857,18.77527],[101.25187,18.78394],[101.24823,18.78916],[101.25822,18.80948],[101.24815,18.81757],[101.24307,18.83118],[101.24564,18.83824],[101.2545,18.84661],[101.25186,18.86156],[101.2539,18.86462],[101.24857,18.875],[101.24698,18.89231],[101.2538,18.90633],[101.27449,18.91698],[101.27422,18.92987],[101.28252,18.93654],[101.28687,18.93439],[101.29402,18.93698],[101.29625,18.94637],[101.29314,18.95154],[101.29587,18.9547],[101.2921,18.96588],[101.29265,18.98097],[101.30446,18.9878],[101.30641,18.99845],[101.31083,19.00265],[101.33563,19.0041],[101.33922,19.00947],[101.34058,19.02195],[101.34594,19.02663],[101.35525,19.04514],[101.3558,19.05132],[101.35065,19.05201],[101.33861,19.07058],[101.33128,19.06873],[101.32515,19.07529],[101.32517,19.08008],[101.31396,19.08177],[101.29744,19.09365],[101.29383,19.1044],[101.28869,19.10447],[101.28513,19.10992],[101.27129,19.11429],[101.25656,19.12513],[101.25353,19.13301],[101.25828,19.13917],[101.25686,19.15129],[101.25291,19.17078],[101.24566,19.18069],[101.25234,19.19217],[101.25194,19.21715],[101.26014,19.23112],[101.25102,19.24118],[101.23922,19.28481],[101.22929,19.29691],[101.22696,19.30986],[101.23066,19.31789],[101.24104,19.32389],[101.24032,19.32835],[101.23348,19.33473],[101.22849,19.34713],[101.21979,19.34414],[101.20491,19.34976],[101.20232,19.36389],[101.19884,19.37119],[101.19003,19.37849],[101.1871,19.39067],[101.18641,19.40007],[101.19595,19.4001],[101.19499,19.40607],[101.2034,19.4131],[101.21458,19.43233],[101.20958,19.43705],[101.21222,19.44461],[101.20728,19.44893],[101.20871,19.4537],[101.20509,19.45723],[101.21091,19.46357],[101.21223,19.47635],[101.22184,19.47196],[101.236,19.4781],[101.24155,19.47186],[101.24702,19.47445],[101.26463,19.47016],[101.26852,19.48097],[101.26725,19.50323],[101.27127,19.5119],[101.27473,19.51208],[101.27813,19.52036],[101.28568,19.52745],[101.28503,19.53404],[101.28032,19.53715],[101.275,19.55122],[101.28815,19.56926],[101.27492,19.5866],[101.26257,19.59354],[101.25508,19.59123],[101.24775,19.59456],[101.24335,19.6036],[101.22762,19.60286],[101.22471,19.60558],[101.21699,19.60218],[101.20607,19.60573],[101.20151,19.59198],[101.20282,19.58548],[101.19667,19.57673],[101.17905,19.57826],[101.16951,19.58598],[101.16615,19.58156],[101.15379,19.58211],[101.1475,19.57744],[101.1402,19.57916],[101.12055,19.57297],[101.11627,19.58368],[101.0978,19.58448],[101.08746,19.59173],[101.09087,19.59552],[101.08939,19.59852],[101.07702,19.60534],[101.06952,19.60296],[101.0665,19.60498],[101.067,19.61302],[101.06109,19.62016],[101.05053,19.62036],[101.03541,19.62897],[101.02468,19.63083],[101.01407,19.62002],[101.00681,19.62374],[101.00115,19.62178],[100.99927,19.62622],[100.98141,19.62707],[100.97339,19.61902],[100.96169,19.62475],[100.95058,19.62558],[100.93882,19.62608],[100.93334,19.62203],[100.92922,19.62616],[100.91743,19.62159],[100.91333,19.62707],[100.89759,19.63498],[100.89294,19.63409],[100.88747,19.62474],[100.88365,19.60643],[100.8793,19.60637],[100.87888,19.60163],[100.87335,19.59968],[100.86627,19.58515],[100.85845,19.5828],[100.86011,19.57327],[100.84811,19.56931],[100.83854,19.55259],[100.81888,19.53311],[100.817,19.52493],[100.79093,19.5104],[100.7831,19.4973],[100.771,19.48701],[100.76631,19.49038],[100.76574,19.49886],[100.75623,19.50515],[100.75917,19.50776],[100.75748,19.51162],[100.75187,19.51084],[100.73866,19.52061],[100.73587,19.51955],[100.73327,19.52447],[100.71416,19.52946],[100.70774,19.53581],[100.69238,19.53643],[100.69198,19.5397],[100.68411,19.54144],[100.67241,19.55],[100.66071,19.54743],[100.65142,19.55723],[100.64425,19.55458],[100.63107,19.55601],[100.60898,19.5484],[100.61083,19.53404],[100.60236,19.5289],[100.59916,19.5108],[100.58224,19.50013],[100.5742,19.49979],[100.56569,19.50786],[100.55817,19.50979],[100.54948,19.5194],[100.53989,19.52004],[100.53329,19.52467],[100.52337,19.519],[100.51161,19.52461],[100.50172,19.53828],[100.48641,19.54326],[100.4815,19.56032],[100.48893,19.56768],[100.49142,19.57715],[100.48986,19.58332],[100.4842,19.58758],[100.48691,19.59615],[100.48171,19.60602],[100.48333,19.60925],[100.45959,19.61891],[100.45675,19.62746],[100.44725,19.62761],[100.44494,19.63052],[100.4421,19.64236],[100.44407,19.66268],[100.42835,19.6726],[100.43016,19.68361],[100.44628,19.70636],[100.43956,19.71208],[100.43755,19.71926],[100.43042,19.72188],[100.4255,19.72846],[100.4184,19.72886],[100.41753,19.73236],[100.4062,19.73632],[100.40404,19.7434],[100.40378,19.75152],[100.41589,19.7816],[100.43796,19.79067]]]]}}]}