{"type":"FeatureCollection","features":[{"type":"Feature","properties":{"ISO_A3":"LBN","WB_A3":"LBN","WB_NAME":"Lebanon","WB_REGION":"MEA"},"geometry":{"type":"MultiPolygon","coordinates":[[[[36.44434,34.63462],[36.45453,34.63781],[36.46471,34.63667],[36.46102,34.62605],[36.45731,34.62455],[36.4607,34.61111],[36.45765,34.5992],[36.45201,34.59166],[36.43161,34.5933],[36.42722,34.60265],[36.41451,34.60595],[36.41488,34.61105],[36.40388,34.60727],[36.40735,34.60067],[36.4022,34.59162],[36.39993,34.57315],[36.41016,34.56398],[36.4111,34.55731],[36.39194,34.54346],[36.35935,34.52944],[36.33326,34.52361],[36.33653,34.51456],[36.33528,34.50273],[36.35219,34.50164],[36.36364,34.49691],[36.36848,34.49995],[36.37651,34.4995],[36.38073,34.50377],[36.38569,34.50114],[36.38595,34.49647],[36.40245,34.50049],[36.40919,34.50538],[36.42284,34.49911],[36.44631,34.50604],[36.44772,34.48416],[36.44938,34.48111],[36.45975,34.47953],[36.46354,34.46434],[36.47151,34.46001],[36.48562,34.4582],[36.49563,34.44975],[36.50819,34.44907],[36.51386,34.44377],[36.5119,34.43926],[36.52198,34.43476],[36.52341,34.42796],[36.52727,34.42814],[36.52889,34.43279],[36.53352,34.43002],[36.53265,34.4265],[36.55612,34.41232],[36.5581,34.40277],[36.55535,34.39123],[36.52871,34.37014],[36.53624,34.36452],[36.54363,34.35109],[36.5483,34.3339],[36.56307,34.32603],[36.55992,34.31532],[36.57742,34.30769],[36.587,34.31073],[36.59841,34.30433],[36.60204,34.29223],[36.59383,34.28373],[36.58914,34.28649],[36.58317,34.28143],[36.59157,34.2737],[36.59283,34.26772],[36.58864,34.2618],[36.59086,34.25576],[36.5846,34.24805],[36.58525,34.23715],[36.58218,34.23],[36.58927,34.22305],[36.60625,34.21823],[36.62375,34.20181],[36.62264,34.19491],[36.60531,34.19149],[36.60133,34.18617],[36.59272,34.18653],[36.59106,34.17976],[36.58671,34.17763],[36.58857,34.16789],[36.58263,34.15927],[36.56904,34.15203],[36.57361,34.14481],[36.56892,34.1412],[36.56664,34.1335],[36.54201,34.12668],[36.54098,34.12159],[36.5251,34.11385],[36.51523,34.10013],[36.51068,34.09949],[36.50759,34.09009],[36.51527,34.07393],[36.49982,34.05595],[36.50102,34.048],[36.48924,34.0491],[36.47902,34.0378],[36.47169,34.04328],[36.45568,34.04338],[36.44781,34.04914],[36.43203,34.0497],[36.42697,34.05419],[36.42268,34.04829],[36.42512,34.04039],[36.40558,34.04417],[36.40234,34.03967],[36.40714,34.03164],[36.40555,34.02818],[36.39085,34.02856],[36.3866,34.01783],[36.39706,34.00778],[36.39607,34.00122],[36.39017,33.99961],[36.38031,34.0025],[36.36926,33.99605],[36.3638,33.98245],[36.35396,33.98555],[36.3507,33.9802],[36.3424,33.97889],[36.34072,33.97351],[36.33189,33.97078],[36.3321,33.96615],[36.32011,33.94904],[36.31885,33.94271],[36.30249,33.94239],[36.30139,33.9291],[36.29187,33.92632],[36.28962,33.92199],[36.27744,33.91637],[36.27516,33.90754],[36.27898,33.90377],[36.28124,33.90652],[36.29366,33.90461],[36.29683,33.89903],[36.30648,33.8993],[36.31665,33.8945],[36.31879,33.88553],[36.32624,33.88482],[36.32934,33.87858],[36.33732,33.87456],[36.35211,33.87692],[36.36799,33.87481],[36.37052,33.86395],[36.39058,33.85259],[36.39149,33.82711],[36.38457,33.82115],[36.37583,33.82028],[36.32023,33.82888],[36.31554,33.83108],[36.31291,33.83745],[36.30623,33.84001],[36.29436,33.83943],[36.28178,33.8473],[36.25016,33.85306],[36.24405,33.85115],[36.23869,33.84224],[36.23883,33.82758],[36.23567,33.82825],[36.22806,33.81992],[36.21984,33.82099],[36.2081,33.83134],[36.19919,33.83347],[36.19157,33.84311],[36.14819,33.82918],[36.13538,33.83595],[36.11892,33.83134],[36.1102,33.82297],[36.09696,33.81772],[36.06283,33.81146],[36.04953,33.78573],[36.03621,33.77308],[36.03345,33.76562],[36.01963,33.75823],[36.01404,33.76301],[36.00943,33.75715],[36.00507,33.75757],[36.00109,33.74548],[35.98761,33.72774],[35.97712,33.72807],[35.97159,33.7201],[35.97017,33.71438],[35.97295,33.71016],[35.96802,33.7013],[35.97517,33.68896],[35.96945,33.68437],[35.96731,33.67501],[35.95,33.67384],[35.94105,33.65433],[35.93482,33.64951],[35.94203,33.62393],[35.94777,33.6183],[35.96047,33.61883],[35.96987,33.62284],[35.99112,33.61441],[36.00364,33.61454],[36.01013,33.60742],[36.01566,33.60754],[36.04271,33.59329],[36.04744,33.57196],[36.05319,33.56739],[36.03994,33.55646],[36.01554,33.52355],[35.9968,33.53856],[35.98913,33.53404],[35.98893,33.53106],[35.9827,33.53025],[35.9727,33.53861],[35.96451,33.52511],[35.95582,33.52095],[35.948,33.5231],[35.93947,33.52081],[35.9326,33.51067],[35.94266,33.50536],[35.95303,33.47585],[35.95063,33.47058],[35.94579,33.46935],[35.94168,33.46218],[35.93852,33.4628],[35.93587,33.45364],[35.92604,33.45697],[35.91305,33.44576],[35.90303,33.44501],[35.89782,33.44129],[35.89814,33.43439],[35.88866,33.42714],[35.88398,33.42821],[35.85615,33.41334],[35.84613,33.41253],[35.84456,33.40786],[35.82847,33.3986],[35.81955,33.38676],[35.81634,33.37368],[35.81559,33.36914],[35.82094,33.36041],[35.81816,33.35314],[35.81167,33.3522],[35.79122,33.3357],[35.77351,33.33263],[35.76775,33.33435],[35.76394,33.331],[35.75069,33.32901],[35.73853,33.31799],[35.72922,33.32918],[35.72113,33.32918],[35.71411,33.32507],[35.71353,33.31905],[35.71083,33.31802],[35.71512,33.31187],[35.71097,33.30519],[35.69565,33.29663],[35.68929,33.29754],[35.68222,33.29148],[35.67738,33.29429],[35.6586,33.27406],[35.64297,33.28044],[35.62227,33.27846],[35.61908,33.27482],[35.62267,33.26432],[35.62025,33.25315],[35.62401,33.25252],[35.62449,33.24237],[35.60088,33.25296],[35.58516,33.26585],[35.58475,33.28151],[35.5804,33.28501],[35.56863,33.29061],[35.56529,33.28842],[35.56415,33.27319],[35.5555,33.25832],[35.54608,33.25437],[35.54629,33.2376],[35.53747,33.23255],[35.53695,33.20881],[35.54242,33.19852],[35.52657,33.13917],[35.53228,33.13384],[35.51987,33.11619],[35.50243,33.11336],[35.50363,33.08949],[35.46315,33.09318],[35.44583,33.09067],[35.43104,33.06585],[35.39571,33.06087],[35.38193,33.06239],[35.37813,33.05503],[35.34845,33.05948],[35.32078,33.08779],[35.32463,33.09574],[35.31716,33.10501],[35.30096,33.10049],[35.29947,33.10501],[35.29347,33.10798],[35.28162,33.10134],[35.23932,33.09229],[35.23212,33.09335],[35.22701,33.0983],[35.21141,33.0998],[35.20714,33.09495],[35.20678,33.08826],[35.19662,33.08619],[35.1785,33.09401],[35.15769,33.08631],[35.15586,33.09155],[35.10342,33.09408],[35.11423,33.11373],[35.14916,33.13125],[35.1674,33.16473],[35.17994,33.16528],[35.1865,33.17082],[35.196,33.19674],[35.2028,33.19957],[35.21104,33.22924],[35.21136,33.25442],[35.20052,33.2672],[35.19134,33.26711],[35.19186,33.27558],[35.20249,33.27269],[35.21024,33.27654],[35.21834,33.28847],[35.22283,33.30844],[35.22808,33.3104],[35.23376,33.32289],[35.2449,33.33374],[35.25118,33.38143],[35.2551,33.38495],[35.25699,33.39879],[35.26622,33.41199],[35.2678,33.42584],[35.28537,33.45892],[35.28948,33.46347],[35.30181,33.46581],[35.3033,33.47016],[35.31456,33.47277],[35.33914,33.50289],[35.35483,33.51621],[35.3642,33.55587],[35.36825,33.55836],[35.36662,33.56584],[35.37385,33.5666],[35.38215,33.57813],[35.38799,33.60629],[35.39749,33.61099],[35.39886,33.64925],[35.41242,33.65091],[35.41513,33.65433],[35.41813,33.68485],[35.41578,33.68849],[35.42102,33.69468],[35.4365,33.69862],[35.44249,33.70929],[35.4461,33.73903],[35.45127,33.75306],[35.46559,33.76973],[35.4784,33.79235],[35.48213,33.81488],[35.47646,33.84249],[35.48349,33.84081],[35.48131,33.87169],[35.47853,33.88228],[35.47258,33.88407],[35.47109,33.89116],[35.46671,33.89433],[35.46838,33.89867],[35.48176,33.90341],[35.49682,33.90182],[35.49752,33.90476],[35.50806,33.90699],[35.51157,33.90576],[35.50764,33.90301],[35.51123,33.89934],[35.53054,33.9064],[35.53062,33.90897],[35.53647,33.90898],[35.54305,33.90229],[35.54988,33.90382],[35.55034,33.89854],[35.5699,33.90366],[35.58213,33.91561],[35.5796,33.91874],[35.58256,33.92999],[35.5852,33.9307],[35.58616,33.94211],[35.59103,33.94497],[35.59357,33.95575],[35.59984,33.96097],[35.60043,33.97021],[35.60969,33.97566],[35.61326,33.98638],[35.61842,33.98858],[35.62719,33.98313],[35.63217,33.98443],[35.64338,33.99781],[35.64362,34.01065],[35.62331,34.01725],[35.62179,34.02294],[35.62488,34.03829],[35.63525,34.05425],[35.64107,34.05773],[35.64209,34.07081],[35.64935,34.08555],[35.6508,34.09734],[35.64811,34.11513],[35.64431,34.11727],[35.63997,34.13149],[35.64146,34.1348],[35.62897,34.14072],[35.62617,34.15003],[35.63282,34.16016],[35.62975,34.17564],[35.63459,34.1871],[35.63148,34.19154],[35.64062,34.20701],[35.64818,34.21059],[35.65355,34.22009],[35.65508,34.23432],[35.6591,34.23924],[35.66026,34.24641],[35.65567,34.25294],[35.65811,34.2665],[35.6525,34.2751],[35.65728,34.28463],[35.66556,34.28689],[35.67343,34.30573],[35.68295,34.3131],[35.68948,34.31399],[35.70128,34.30512],[35.70872,34.3056],[35.72001,34.31498],[35.72337,34.32313],[35.72165,34.32728],[35.72986,34.33686],[35.72697,34.34335],[35.73108,34.35559],[35.7282,34.35745],[35.72877,34.36052],[35.73324,34.36116],[35.7364,34.37615],[35.77504,34.38286],[35.79336,34.39323],[35.80032,34.40073],[35.81358,34.40459],[35.82105,34.41469],[35.82122,34.41982],[35.82075,34.42446],[35.81339,34.43131],[35.81352,34.44441],[35.80694,34.44713],[35.80586,34.45178],[35.81002,34.45579],[35.82506,34.45108],[35.82758,34.45217],[35.82511,34.45724],[35.83007,34.45858],[35.83663,34.45389],[35.84328,34.45785],[35.84382,34.45552],[35.85535,34.45565],[35.89447,34.46731],[35.9025,34.46635],[35.92114,34.48042],[35.92999,34.4927],[35.93925,34.49719],[35.94428,34.50786],[35.95303,34.50945],[35.96138,34.51734],[35.97501,34.51662],[35.98333,34.52361],[35.98894,34.53735],[35.99204,34.57195],[35.98552,34.60679],[35.97538,34.63375],[35.97805,34.63511],[35.97577,34.64275],[35.98143,34.64531],[35.98032,34.6491],[35.99004,34.65059],[35.98961,34.64373],[35.99603,34.64246],[36.00679,34.64541],[36.00555,34.64244],[36.02378,34.63495],[36.02832,34.6297],[36.03224,34.63071],[36.03314,34.62755],[36.04628,34.6298],[36.05215,34.62769],[36.05444,34.63222],[36.06448,34.63556],[36.07314,34.63185],[36.07337,34.62829],[36.07847,34.6339],[36.09286,34.62917],[36.0986,34.63649],[36.11435,34.63352],[36.12163,34.64127],[36.12681,34.64218],[36.14085,34.63435],[36.16189,34.63338],[36.17039,34.62857],[36.1895,34.63734],[36.20476,34.63566],[36.22421,34.6261],[36.22701,34.62611],[36.22699,34.62933],[36.23769,34.62748],[36.24336,34.63558],[36.26616,34.62681],[36.2853,34.63242],[36.28791,34.63004],[36.29775,34.63553],[36.30868,34.65537],[36.30304,34.6675],[36.31148,34.68301],[36.31677,34.68363],[36.32174,34.68962],[36.33936,34.69195],[36.34065,34.68842],[36.3441,34.68953],[36.35567,34.68323],[36.35423,34.67371],[36.35023,34.67063],[36.35064,34.66032],[36.36547,34.64253],[36.37119,34.64157],[36.38049,34.63387],[36.39051,34.63039],[36.40205,34.63764],[36.41735,34.62648],[36.42648,34.62569],[36.44434,34.63462]]],[[[35.77523,34.49641],[35.77671,34.49406],[35.77306,34.49158],[35.77039,34.49523],[35.77523,34.49641]]]]}},{"type":"Feature","properties":{"ISO_A3":"","WB_A3":"","WB_NAME":"Shebaa Farms Dispute","WB_REGION":"","STATUS":"non-determined","AREA_ID":"shebaa-farms-dispute","CLAIMANTS":"LBN,SYR,ISR"},"geometry":{"type":"MultiPolygon","coordinates":[[[[35.73853,33.31799],[35.73799,33.31057],[35.72341,33.29167],[35.6842,33.25392],[35.66906,33.247],[35.65448,33.25016],[35.62449,33.24237],[35.62401,33.25252],[35.62025,33.25315],[35.62267,33.26432],[35.61886,33.27457],[35.62227,33.27846],[35.64297,33.28044],[35.6586,33.27406],[35.67738,33.29429],[35.68222,33.29148],[35.68929,33.29754],[35.69565,33.29663],[35.71097,33.30519],[35.71512,33.31187],[35.71083,33.31802],[35.71353,33.31905],[35.71411,33.32507],[35.72113,33.32918],[35.72922,33.32918],[35.73853,33.31799]]]]}}]}