{"type":"FeatureCollection","features":[{"type":"Feature","properties":{"ISO_A3":"LBR","WB_A3":"LBR","WB_NAME":"Liberia","WB_REGION":"AFW,SSF"},"geometry":{"type":"MultiPolygon","coordinates":[[[[-9.28063,7.3751],[-9.26984,7.37686],[-9.26092,7.38338],[-9.24869,7.38439],[-9.24029,7.39027],[-9.21751,7.38563],[-9.20743,7.38931],[-9.20136,7.38358],[-9.205,7.37537],[-9.20551,7.367],[-9.20273,7.36534],[-9.20723,7.35108],[-9.20147,7.33767],[-9.20245,7.31854],[-9.19745,7.31783],[-9.19338,7.3078],[-9.1797,7.30189],[-9.17854,7.29505],[-9.16888,7.28621],[-9.16895,7.28059],[-9.15548,7.27222],[-9.12341,7.27329],[-9.12571,7.25477],[-9.11977,7.24985],[-9.11195,7.24996],[-9.11261,7.23746],[-9.10531,7.23878],[-9.1043,7.23593],[-9.10542,7.22766],[-9.10174,7.21957],[-9.11158,7.20295],[-9.10842,7.19127],[-9.10623,7.20093],[-9.09615,7.21041],[-9.09115,7.20259],[-9.07707,7.20365],[-9.06987,7.19841],[-9.07173,7.2023],[-9.06755,7.20736],[-9.06156,7.20716],[-9.05739,7.21347],[-9.04342,7.22068],[-9.04032,7.22467],[-9.04426,7.23158],[-9.03298,7.23458],[-9.03421,7.23942],[-9.02764,7.24186],[-9.02478,7.24698],[-9.02183,7.24383],[-9.0167,7.24856],[-9.01133,7.24361],[-8.99244,7.25427],[-8.98392,7.25007],[-8.98307,7.25395],[-8.9701,7.25301],[-8.96109,7.26362],[-8.96693,7.26714],[-8.95706,7.2745],[-8.9462,7.27098],[-8.95132,7.2644],[-8.94316,7.26611],[-8.94294,7.27566],[-8.93724,7.2775],[-8.94455,7.28427],[-8.94063,7.29059],[-8.94014,7.28703],[-8.93284,7.28583],[-8.92891,7.28971],[-8.91517,7.29341],[-8.91679,7.28047],[-8.91172,7.2734],[-8.91139,7.27608],[-8.90835,7.27548],[-8.91142,7.26663],[-8.90571,7.26408],[-8.90484,7.25582],[-8.8956,7.26529],[-8.87128,7.25646],[-8.87013,7.26014],[-8.8634,7.25943],[-8.86224,7.26648],[-8.85821,7.26772],[-8.85259,7.26303],[-8.83712,7.27675],[-8.83656,7.29061],[-8.83989,7.2917],[-8.84243,7.30308],[-8.83831,7.30452],[-8.84121,7.30939],[-8.83619,7.31219],[-8.83837,7.31656],[-8.84787,7.31964],[-8.8433,7.33445],[-8.84782,7.33607],[-8.84679,7.34135],[-8.85341,7.34908],[-8.8429,7.35705],[-8.83135,7.37401],[-8.81708,7.3961],[-8.81551,7.40641],[-8.81221,7.40784],[-8.80853,7.40494],[-8.80114,7.40808],[-8.80072,7.41616],[-8.79505,7.41266],[-8.79116,7.41612],[-8.77948,7.41246],[-8.77817,7.43591],[-8.77247,7.44771],[-8.7782,7.45335],[-8.76556,7.46047],[-8.7611,7.4567],[-8.75709,7.46467],[-8.75364,7.46465],[-8.74343,7.47917],[-8.7369,7.4834],[-8.72697,7.49911],[-8.7087,7.51586],[-8.71179,7.52781],[-8.71683,7.52741],[-8.71132,7.5459],[-8.71496,7.5452],[-8.71511,7.54933],[-8.71157,7.55172],[-8.71526,7.554],[-8.71815,7.54912],[-8.72378,7.55631],[-8.71826,7.56675],[-8.7235,7.5746],[-8.71238,7.59549],[-8.71321,7.61063],[-8.70494,7.6236],[-8.71383,7.64153],[-8.70564,7.64524],[-8.69633,7.6623],[-8.681,7.67062],[-8.67782,7.67933],[-8.68108,7.68109],[-8.68129,7.68614],[-8.67689,7.69085],[-8.67663,7.69644],[-8.55025,7.70112],[-8.55861,7.68644],[-8.55451,7.67311],[-8.55727,7.66526],[-8.55425,7.65563],[-8.5557,7.65012],[-8.56988,7.63297],[-8.48229,7.56695],[-8.45553,7.53311],[-8.44799,7.53049],[-8.43919,7.53672],[-8.43242,7.53732],[-8.42574,7.53453],[-8.4235,7.50986],[-8.41534,7.49916],[-8.41634,7.48966],[-8.41109,7.48542],[-8.40941,7.4642],[-8.40585,7.45889],[-8.40847,7.44262],[-8.41399,7.43758],[-8.41454,7.43149],[-8.41389,7.42564],[-8.40604,7.42095],[-8.40096,7.41301],[-8.39719,7.39241],[-8.39945,7.37812],[-8.39685,7.35819],[-8.39932,7.34976],[-8.396,7.34849],[-8.39417,7.34047],[-8.39555,7.32797],[-8.37659,7.30446],[-8.37652,7.29928],[-8.3703,7.29022],[-8.36592,7.28975],[-8.36494,7.27648],[-8.36127,7.27793],[-8.35585,7.27203],[-8.35755,7.26249],[-8.36352,7.25859],[-8.3622,7.25483],[-8.36932,7.24748],[-8.36587,7.24703],[-8.36531,7.24053],[-8.34696,7.23116],[-8.34935,7.22845],[-8.3464,7.22529],[-8.34465,7.22795],[-8.34052,7.22658],[-8.34044,7.21985],[-8.33575,7.21596],[-8.3359,7.212],[-8.3392,7.21109],[-8.33182,7.20339],[-8.32668,7.20696],[-8.31863,7.2036],[-8.31669,7.19789],[-8.30675,7.19434],[-8.30748,7.19097],[-8.30019,7.19098],[-8.29442,7.18502],[-8.29622,7.18324],[-8.29114,7.18159],[-8.29075,7.18568],[-8.28221,7.18321],[-8.28527,7.17049],[-8.28056,7.16225],[-8.28266,7.15263],[-8.30339,7.13591],[-8.29776,7.13415],[-8.29993,7.13013],[-8.29619,7.12646],[-8.29628,7.12115],[-8.30351,7.10808],[-8.30547,7.10015],[-8.30206,7.09529],[-8.30735,7.08772],[-8.30385,7.08491],[-8.30358,7.07556],[-8.29881,7.07259],[-8.30375,7.06506],[-8.29945,7.06182],[-8.28968,7.03198],[-8.29321,7.0224],[-8.28987,7.01867],[-8.27924,7.0182],[-8.28289,7.01213],[-8.27489,7.00457],[-8.27888,7.00082],[-8.2857,7.00145],[-8.28774,6.99635],[-8.28487,6.9871],[-8.28725,6.98987],[-8.29145,6.989],[-8.29618,6.98372],[-8.30201,6.98247],[-8.30291,6.9771],[-8.30712,6.97404],[-8.3091,6.97806],[-8.31102,6.97447],[-8.32733,6.97009],[-8.32167,6.9596],[-8.32444,6.95665],[-8.32149,6.95218],[-8.31797,6.92486],[-8.30828,6.91192],[-8.31366,6.90347],[-8.32738,6.90425],[-8.32517,6.89694],[-8.33458,6.89109],[-8.33661,6.88612],[-8.32954,6.87407],[-8.3261,6.87594],[-8.32956,6.8711],[-8.31969,6.85706],[-8.31354,6.86705],[-8.30931,6.86382],[-8.31304,6.8601],[-8.31038,6.85601],[-8.31829,6.84271],[-8.32992,6.83682],[-8.32901,6.82883],[-8.32178,6.82287],[-8.32029,6.81547],[-8.32628,6.81274],[-8.33131,6.81647],[-8.32948,6.80409],[-8.33925,6.79778],[-8.34851,6.79733],[-8.34863,6.77941],[-8.34319,6.76181],[-8.34788,6.75989],[-8.3492,6.76543],[-8.35935,6.76812],[-8.3642,6.76185],[-8.36032,6.75904],[-8.36049,6.75152],[-8.36742,6.74581],[-8.36949,6.75011],[-8.37334,6.74878],[-8.37566,6.73815],[-8.37991,6.74106],[-8.38655,6.73845],[-8.38732,6.73113],[-8.37885,6.73006],[-8.38361,6.72254],[-8.39057,6.72787],[-8.3957,6.72794],[-8.39167,6.71806],[-8.39924,6.71432],[-8.40802,6.71556],[-8.41174,6.70896],[-8.41198,6.70478],[-8.40628,6.70143],[-8.40909,6.6926],[-8.4059,6.68524],[-8.41164,6.6869],[-8.41927,6.67546],[-8.42471,6.67307],[-8.42784,6.67778],[-8.43102,6.67704],[-8.43287,6.66351],[-8.43672,6.6594],[-8.44398,6.66758],[-8.45414,6.66166],[-8.45522,6.65058],[-8.45216,6.64295],[-8.45895,6.63874],[-8.46616,6.6411],[-8.46625,6.63384],[-8.47121,6.63371],[-8.47499,6.63909],[-8.47906,6.63152],[-8.48745,6.63277],[-8.49098,6.62759],[-8.48594,6.61943],[-8.48835,6.61385],[-8.49532,6.61215],[-8.4943,6.6169],[-8.49949,6.62135],[-8.50966,6.61634],[-8.50753,6.60498],[-8.51194,6.59636],[-8.51777,6.60052],[-8.52675,6.59854],[-8.52472,6.60575],[-8.53026,6.61355],[-8.54048,6.60992],[-8.53461,6.60153],[-8.53567,6.58733],[-8.531,6.57841],[-8.53329,6.57359],[-8.53932,6.56853],[-8.54157,6.56111],[-8.54755,6.56237],[-8.54957,6.56759],[-8.55615,6.56712],[-8.56304,6.57123],[-8.56996,6.55735],[-8.56406,6.55452],[-8.55984,6.55646],[-8.55701,6.55252],[-8.56939,6.53992],[-8.57225,6.52372],[-8.58278,6.52311],[-8.58726,6.52892],[-8.59597,6.52671],[-8.60198,6.506],[-8.5981,6.50647],[-8.59674,6.50272],[-8.58772,6.49917],[-8.57736,6.50468],[-8.5708,6.5038],[-8.56925,6.50082],[-8.55282,6.50073],[-8.53025,6.48516],[-8.52573,6.47117],[-8.51156,6.44989],[-8.5,6.44039],[-8.48234,6.435],[-8.47457,6.44021],[-8.47237,6.45713],[-8.46228,6.46289],[-8.45656,6.4732],[-8.46629,6.50071],[-8.46328,6.50397],[-8.45822,6.50361],[-8.44353,6.49856],[-8.43456,6.46858],[-8.42659,6.46053],[-8.41639,6.45773],[-8.40598,6.44752],[-8.39631,6.44338],[-8.4058,6.43872],[-8.41248,6.43246],[-8.41257,6.42859],[-8.40896,6.42591],[-8.40637,6.4335],[-8.40326,6.43182],[-8.40273,6.4216],[-8.39321,6.40968],[-8.39592,6.40265],[-8.3942,6.39694],[-8.38496,6.38661],[-8.38542,6.38328],[-8.41459,6.37016],[-8.40512,6.36814],[-8.39773,6.35405],[-8.38941,6.3505],[-8.38706,6.35913],[-8.38259,6.36249],[-8.3755,6.36127],[-8.37479,6.36712],[-8.3642,6.36087],[-8.36391,6.3641],[-8.35836,6.36665],[-8.35217,6.36566],[-8.34319,6.37861],[-8.33939,6.3723],[-8.33365,6.37269],[-8.31839,6.35952],[-8.31387,6.36044],[-8.30602,6.3492],[-8.29984,6.35535],[-8.28537,6.35336],[-8.28343,6.34123],[-8.27244,6.3415],[-8.26844,6.33581],[-8.2859,6.32969],[-8.28347,6.32398],[-8.26393,6.32203],[-8.25889,6.3257],[-8.25253,6.32128],[-8.24462,6.3261],[-8.2222,6.3076],[-8.21311,6.31145],[-8.20984,6.30563],[-8.20471,6.30608],[-8.20077,6.31013],[-8.19071,6.30312],[-8.18909,6.2944],[-8.17713,6.28897],[-8.17541,6.27968],[-8.16362,6.28102],[-8.16275,6.28446],[-8.146,6.28077],[-8.13661,6.28528],[-8.13072,6.28265],[-8.11253,6.29344],[-8.10139,6.29328],[-8.09676,6.30308],[-8.08967,6.30786],[-8.0798,6.30079],[-8.06556,6.30882],[-8.05219,6.30584],[-8.04426,6.31503],[-8.03868,6.31389],[-8.00762,6.32236],[-7.99862,6.31457],[-7.99631,6.29988],[-7.99252,6.29611],[-7.98789,6.30079],[-7.98228,6.30125],[-7.98043,6.29391],[-7.97449,6.29989],[-7.96502,6.28623],[-7.9595,6.28556],[-7.94911,6.30017],[-7.93187,6.28127],[-7.92082,6.29308],[-7.91493,6.27318],[-7.91211,6.28384],[-7.90464,6.28554],[-7.90162,6.28236],[-7.90411,6.27569],[-7.89439,6.25787],[-7.89116,6.25435],[-7.88592,6.25548],[-7.88236,6.24783],[-7.85792,6.2327],[-7.83776,6.20666],[-7.82328,6.19617],[-7.82539,6.19074],[-7.84416,6.19224],[-7.8444,6.18642],[-7.83684,6.18314],[-7.84143,6.17297],[-7.84041,6.16836],[-7.83418,6.16355],[-7.85172,6.15259],[-7.85035,6.13342],[-7.85349,6.12895],[-7.85409,6.11611],[-7.85199,6.10459],[-7.85594,6.09409],[-7.84673,6.09215],[-7.85154,6.07611],[-7.8372,6.08255],[-7.83894,6.08691],[-7.83071,6.09751],[-7.8124,6.0843],[-7.81092,6.0928],[-7.80254,6.09355],[-7.79417,6.08235],[-7.79144,6.07092],[-7.80112,6.05931],[-7.77011,6.03566],[-7.77076,6.0304],[-7.78851,6.0223],[-7.79111,6.01476],[-7.78444,6.01056],[-7.78383,6.00393],[-7.79266,6.00005],[-7.79359,5.98929],[-7.78751,5.98058],[-7.76538,5.97579],[-7.76458,5.95373],[-7.75205,5.94806],[-7.74148,5.93261],[-7.73602,5.93628],[-7.73029,5.93357],[-7.71783,5.92401],[-7.71526,5.91805],[-7.68765,5.89817],[-7.67657,5.90761],[-7.68346,5.9149],[-7.68881,5.92897],[-7.68027,5.9305],[-7.67539,5.94363],[-7.66747,5.95317],[-7.66317,5.95265],[-7.66468,5.94595],[-7.6588,5.93634],[-7.66286,5.91498],[-7.65987,5.91376],[-7.65058,5.91898],[-7.64186,5.90802],[-7.63566,5.91054],[-7.62069,5.90558],[-7.61669,5.90767],[-7.61467,5.89762],[-7.60825,5.89779],[-7.60111,5.88872],[-7.59489,5.8992],[-7.58199,5.89721],[-7.55544,5.86855],[-7.55832,5.86573],[-7.56787,5.87091],[-7.57341,5.87032],[-7.57689,5.8657],[-7.564,5.86369],[-7.56029,5.84818],[-7.55371,5.8422],[-7.54934,5.83117],[-7.54366,5.8386],[-7.54519,5.84724],[-7.53658,5.84641],[-7.52696,5.85745],[-7.5178,5.85624],[-7.51354,5.85171],[-7.51321,5.84533],[-7.52331,5.83776],[-7.50697,5.83429],[-7.50642,5.82745],[-7.50367,5.82459],[-7.50088,5.82589],[-7.50064,5.81979],[-7.49764,5.82141],[-7.48483,5.81255],[-7.47741,5.81182],[-7.47626,5.82741],[-7.47064,5.83587],[-7.47322,5.84503],[-7.46653,5.86284],[-7.45387,5.8569],[-7.44748,5.86212],[-7.44302,5.85028],[-7.43503,5.84286],[-7.42516,5.84534],[-7.42342,5.83975],[-7.43227,5.83957],[-7.43215,5.82247],[-7.43927,5.8055],[-7.44397,5.80232],[-7.44014,5.79065],[-7.43263,5.7881],[-7.42868,5.77284],[-7.44439,5.75508],[-7.43493,5.73734],[-7.43526,5.71334],[-7.43021,5.71071],[-7.43098,5.69587],[-7.41843,5.69426],[-7.41671,5.68909],[-7.42076,5.6821],[-7.41169,5.67148],[-7.40961,5.65355],[-7.39632,5.6394],[-7.39711,5.63367],[-7.38028,5.62688],[-7.37692,5.62244],[-7.37556,5.61396],[-7.38256,5.59899],[-7.37362,5.58254],[-7.37533,5.58058],[-7.39095,5.58367],[-7.3962,5.57987],[-7.3937,5.55874],[-7.39938,5.54615],[-7.38126,5.5326],[-7.38204,5.5278],[-7.38418,5.52342],[-7.39078,5.52104],[-7.39946,5.52455],[-7.40567,5.5223],[-7.39185,5.51096],[-7.39303,5.50589],[-7.4041,5.50249],[-7.40436,5.4939],[-7.40999,5.48501],[-7.41903,5.48558],[-7.42422,5.47626],[-7.42455,5.46429],[-7.41723,5.44895],[-7.42081,5.43238],[-7.42252,5.42932],[-7.43616,5.43429],[-7.43909,5.44464],[-7.449,5.43706],[-7.45023,5.43244],[-7.44506,5.42175],[-7.4305,5.40492],[-7.43051,5.3952],[-7.42618,5.38638],[-7.40639,5.37078],[-7.40463,5.36617],[-7.39815,5.36449],[-7.39097,5.36904],[-7.38651,5.38463],[-7.37633,5.38654],[-7.38193,5.37433],[-7.38432,5.3434],[-7.37788,5.33701],[-7.36861,5.3348],[-7.3767,5.31965],[-7.38527,5.32013],[-7.38551,5.31708],[-7.39354,5.31464],[-7.39575,5.30914],[-7.39068,5.29237],[-7.40501,5.28277],[-7.40529,5.27478],[-7.41542,5.26039],[-7.42699,5.25881],[-7.42786,5.26094],[-7.4223,5.26599],[-7.42011,5.27658],[-7.42754,5.27982],[-7.42735,5.28376],[-7.4217,5.28442],[-7.41476,5.29922],[-7.43042,5.29822],[-7.44031,5.28876],[-7.45156,5.28776],[-7.46279,5.27575],[-7.47276,5.28312],[-7.47684,5.27847],[-7.47722,5.26344],[-7.46542,5.25869],[-7.4676,5.25318],[-7.46409,5.24174],[-7.46701,5.23537],[-7.47886,5.23197],[-7.48476,5.22047],[-7.48399,5.21344],[-7.47006,5.20125],[-7.47691,5.19132],[-7.47155,5.18279],[-7.47122,5.16611],[-7.47464,5.15201],[-7.48332,5.13981],[-7.48457,5.12737],[-7.48799,5.12181],[-7.4964,5.12102],[-7.5004,5.1155],[-7.49826,5.11015],[-7.50831,5.09595],[-7.51442,5.09831],[-7.51288,5.10836],[-7.51843,5.11362],[-7.53007,5.10781],[-7.53303,5.10062],[-7.53721,5.10138],[-7.53955,5.09701],[-7.54907,5.09454],[-7.55219,5.08708],[-7.56097,5.08338],[-7.56196,5.07875],[-7.55527,5.06898],[-7.55516,5.06182],[-7.55114,5.05993],[-7.55211,5.05109],[-7.54628,5.04351],[-7.54877,5.03542],[-7.55373,5.03102],[-7.55541,5.01906],[-7.54197,5.00137],[-7.54698,4.98736],[-7.56037,4.9765],[-7.56034,4.97284],[-7.54598,4.9675],[-7.53454,4.95566],[-7.53863,4.95008],[-7.53754,4.93852],[-7.52802,4.92792],[-7.52704,4.92161],[-7.53944,4.91741],[-7.54483,4.91943],[-7.5478,4.92498],[-7.5612,4.92367],[-7.56726,4.90882],[-7.57482,4.90854],[-7.57913,4.91257],[-7.59222,4.90931],[-7.60036,4.89937],[-7.60108,4.89378],[-7.60075,4.89017],[-7.58908,4.88176],[-7.59242,4.8769],[-7.58966,4.87262],[-7.59228,4.86894],[-7.59119,4.86481],[-7.58599,4.86352],[-7.58558,4.85838],[-7.59075,4.85567],[-7.59335,4.84894],[-7.58324,4.82877],[-7.59391,4.8222],[-7.59524,4.80126],[-7.57998,4.78846],[-7.56785,4.78658],[-7.56152,4.78202],[-7.56808,4.76692],[-7.56398,4.76227],[-7.56555,4.74939],[-7.56017,4.73855],[-7.56381,4.71665],[-7.55844,4.70478],[-7.55821,4.69473],[-7.55934,4.69126],[-7.56783,4.69131],[-7.57158,4.68548],[-7.56013,4.66738],[-7.57279,4.66331],[-7.57704,4.65378],[-7.57512,4.65004],[-7.56353,4.64925],[-7.5573,4.63699],[-7.55579,4.61997],[-7.54888,4.60939],[-7.55979,4.59204],[-7.57183,4.59024],[-7.57461,4.58419],[-7.55924,4.56482],[-7.56234,4.55529],[-7.5584,4.54186],[-7.56352,4.54304],[-7.56623,4.53623],[-7.56509,4.52849],[-7.55318,4.51223],[-7.55728,4.50226],[-7.55413,4.48704],[-7.56262,4.47977],[-7.56844,4.45736],[-7.55883,4.44574],[-7.541,4.43694],[-7.56016,4.4228],[-7.57073,4.40066],[-7.56844,4.39034],[-7.55409,4.37408],[-7.54126,4.37173],[-7.53075,4.36192],[-7.58673,4.36061],[-7.5965,4.35508],[-7.61755,4.35461],[-7.62884,4.363],[-7.64296,4.36509],[-7.70946,4.37114],[-7.72692,4.36898],[-7.71908,4.37799],[-7.72305,4.38263],[-7.72124,4.38882],[-7.72561,4.38805],[-7.72817,4.39192],[-7.73356,4.38987],[-7.72394,4.38547],[-7.72383,4.37258],[-7.73409,4.38201],[-7.78338,4.39163],[-7.78516,4.40284],[-7.80287,4.41293],[-7.82854,4.41915],[-7.81786,4.43099],[-7.82554,4.44699],[-7.81693,4.44904],[-7.8191,4.46038],[-7.82225,4.4625],[-7.82693,4.46171],[-7.82418,4.4626],[-7.81936,4.45781],[-7.81809,4.4511],[-7.82333,4.44918],[-7.82938,4.45679],[-7.8349,4.45667],[-7.86236,4.47089],[-7.93964,4.4955],[-7.93436,4.50129],[-7.93603,4.50439],[-7.94322,4.5044],[-7.95349,4.51047],[-7.99611,4.52239],[-8.05235,4.53432],[-8.04632,4.54769],[-8.04864,4.55438],[-8.04115,4.55292],[-8.0442,4.55541],[-8.04873,4.55713],[-8.04759,4.54527],[-8.05621,4.5351],[-8.1407,4.55274],[-8.19285,4.55744],[-8.25012,4.57194],[-8.26963,4.59078],[-8.29326,4.59995],[-8.29415,4.6064],[-8.30146,4.61491],[-8.32226,4.62899],[-8.33613,4.63415],[-8.33894,4.64769],[-8.33149,4.64717],[-8.3392,4.64885],[-8.34127,4.63584],[-8.40832,4.6524],[-8.41628,4.65923],[-8.43118,4.66324],[-8.43246,4.66737],[-8.45172,4.6746],[-8.45275,4.68208],[-8.46944,4.6906],[-8.47162,4.70117],[-8.47033,4.7047],[-8.46674,4.70117],[-8.46917,4.70839],[-8.47356,4.70158],[-8.50745,4.72311],[-8.51104,4.72905],[-8.56319,4.75461],[-8.57219,4.75564],[-8.57578,4.7608],[-8.59326,4.7652],[-8.61252,4.7781],[-8.62897,4.78043],[-8.6336,4.78481],[-8.67137,4.79592],[-8.67497,4.79992],[-8.71609,4.80728],[-8.72636,4.82895],[-8.74872,4.83643],[-8.74794,4.84056],[-8.76542,4.8425],[-8.76863,4.84907],[-8.76851,4.84211],[-8.75668,4.84017],[-8.75437,4.83721],[-8.79215,4.85282],[-8.7942,4.86068],[-8.80551,4.86842],[-8.80859,4.87745],[-8.84766,4.89744],[-8.84522,4.90427],[-8.8492,4.91252],[-8.86308,4.92361],[-8.88107,4.93393],[-8.91577,4.94657],[-8.89623,4.94376],[-8.89662,4.94115],[-8.88724,4.93805],[-8.88081,4.93986],[-8.88433,4.94944],[-8.88038,4.95039],[-8.88698,4.95404],[-8.88515,4.94524],[-8.89036,4.94161],[-8.89649,4.95004],[-8.90419,4.94516],[-8.90832,4.9472],[-8.90694,4.95034],[-8.91666,4.95056],[-8.91166,4.9641],[-8.89289,4.965],[-8.89289,4.96796],[-8.90317,4.97028],[-8.90754,4.97467],[-8.92477,4.97029],[-8.92348,4.97725],[-8.92965,4.97725],[-8.93531,4.98859],[-8.93788,4.98795],[-8.93659,4.98086],[-8.93222,4.9788],[-8.93376,4.97544],[-8.93993,4.97506],[-8.93993,4.97093],[-8.93184,4.97029],[-8.92965,4.95894],[-8.91911,4.95469],[-8.92014,4.94889],[-9.0366,4.98047],[-9.0438,4.98473],[-9.03943,4.9913],[-9.0336,4.99229],[-9.03107,5.00175],[-9.01673,4.98793],[-9.01693,4.99059],[-9.01308,4.99117],[-9.02297,4.99531],[-9.02632,5.00355],[-9.02452,5.00548],[-9.01577,5.00136],[-9.01423,5.00561],[-9.024,5.00896],[-9.02606,5.01348],[-9.03256,5.01186],[-9.02889,5.01451],[-9.02117,5.01373],[-9.01601,5.01838],[-9.00909,5.01734],[-9.00378,5.02857],[-9.00703,5.0216],[-9.02375,5.01537],[-9.02902,5.02211],[-9.02812,5.02753],[-9.03506,5.02907],[-9.0312,5.03604],[-9.0366,5.0381],[-9.03763,5.03294],[-9.04213,5.03887],[-9.03583,5.02598],[-9.03711,5.02057],[-9.03377,5.02044],[-9.03531,5.01773],[-9.03236,5.01515],[-9.03429,5.00948],[-9.02953,5.00871],[-9.02966,5.00484],[-9.03634,4.99891],[-9.04071,5.00716],[-9.05717,5.01747],[-9.11605,5.04144],[-9.12376,5.04763],[-9.12222,5.05407],[-9.11579,5.05588],[-9.11862,5.06078],[-9.11541,5.06568],[-9.12325,5.06709],[-9.12042,5.06323],[-9.12029,5.05897],[-9.12299,5.06],[-9.16568,5.07778],[-9.19988,5.09982],[-9.20117,5.1042],[-9.19191,5.09724],[-9.17983,5.10163],[-9.17803,5.09957],[-9.1734,5.10099],[-9.17212,5.10769],[-9.177,5.10434],[-9.18391,5.10741],[-9.1846,5.10327],[-9.19268,5.09905],[-9.19801,5.10653],[-9.25749,5.13009],[-9.2647,5.13679],[-9.29839,5.1507],[-9.28579,5.15161],[-9.28001,5.15664],[-9.28039,5.16102],[-9.27628,5.16193],[-9.26831,5.16051],[-9.2665,5.15652],[-9.26368,5.15794],[-9.25622,5.15239],[-9.2476,5.1515],[-9.2575,5.15484],[-9.25931,5.16619],[-9.24002,5.16723],[-9.24645,5.17393],[-9.26438,5.16913],[-9.26394,5.16335],[-9.2678,5.1685],[-9.27011,5.16567],[-9.27988,5.16979],[-9.28413,5.16721],[-9.29866,5.18422],[-9.34548,5.20482],[-9.34291,5.20972],[-9.33905,5.20637],[-9.33931,5.21423],[-9.33622,5.2123],[-9.32028,5.21566],[-9.31694,5.21334],[-9.31462,5.21863],[-9.30845,5.2158],[-9.30974,5.22289],[-9.31951,5.21876],[-9.31771,5.22804],[-9.31206,5.23229],[-9.30305,5.22689],[-9.30241,5.22031],[-9.29907,5.22031],[-9.29611,5.23011],[-9.30074,5.23011],[-9.30615,5.23952],[-9.31592,5.24132],[-9.30949,5.24532],[-9.30783,5.25976],[-9.31155,5.24557],[-9.31837,5.24454],[-9.32133,5.2564],[-9.32441,5.24918],[-9.33187,5.25188],[-9.33547,5.24685],[-9.33547,5.2435],[-9.32364,5.24544],[-9.32491,5.2252],[-9.33018,5.21823],[-9.33443,5.21746],[-9.32603,5.23276],[-9.32749,5.23499],[-9.33353,5.23267],[-9.33212,5.22803],[-9.33572,5.23112],[-9.3388,5.22532],[-9.3491,5.23808],[-9.35038,5.23163],[-9.34652,5.2257],[-9.34951,5.22269],[-9.3451,5.22158],[-9.34433,5.21668],[-9.34934,5.21101],[-9.35705,5.21397],[-9.37609,5.22646],[-9.37751,5.23033],[-9.37365,5.23239],[-9.37584,5.23987],[-9.4062,5.25661],[-9.43502,5.27876],[-9.4479,5.29731],[-9.46153,5.30555],[-9.46489,5.31664],[-9.47132,5.32076],[-9.47725,5.33313],[-9.48883,5.34201],[-9.49026,5.36509],[-9.49477,5.38029],[-9.55526,5.41917],[-9.59386,5.43203],[-9.59027,5.44337],[-9.5846,5.43655],[-9.58023,5.43655],[-9.57766,5.44016],[-9.57598,5.43411],[-9.56917,5.43424],[-9.56375,5.42484],[-9.56016,5.43051],[-9.56608,5.43489],[-9.57201,5.44752],[-9.5751,5.44751],[-9.57433,5.45035],[-9.56764,5.4519],[-9.56223,5.44546],[-9.5558,5.44637],[-9.55503,5.45166],[-9.5625,5.45397],[-9.56019,5.46312],[-9.55182,5.45372],[-9.54435,5.45707],[-9.54861,5.45821],[-9.54887,5.46352],[-9.5553,5.46171],[-9.55775,5.46686],[-9.55235,5.46867],[-9.55312,5.4728],[-9.55891,5.47395],[-9.5665,5.46595],[-9.55801,5.47544],[-9.54528,5.47409],[-9.5301,5.48197],[-9.52767,5.49009],[-9.53167,5.50633],[-9.53037,5.48648],[-9.54554,5.47757],[-9.5584,5.47834],[-9.55635,5.4862],[-9.55995,5.48697],[-9.56072,5.48207],[-9.57178,5.48206],[-9.57462,5.48618],[-9.57244,5.49212],[-9.57809,5.48953],[-9.58067,5.49262],[-9.58208,5.48837],[-9.5898,5.48707],[-9.58786,5.48256],[-9.58002,5.48669],[-9.58529,5.47973],[-9.58233,5.47599],[-9.57821,5.47948],[-9.56561,5.4782],[-9.57163,5.45937],[-9.57356,5.45679],[-9.58051,5.45988],[-9.58342,5.44716],[-9.58373,5.4622],[-9.59416,5.47559],[-9.632,5.49721],[-9.66445,5.52244],[-9.67294,5.52591],[-9.68273,5.5366],[-9.72161,5.55847],[-9.72995,5.57281],[-9.74248,5.577],[-9.75458,5.58807],[-9.77827,5.60145],[-9.79142,5.61948],[-9.83806,5.66453],[-9.84297,5.67457],[-9.83679,5.67768],[-9.83229,5.67485],[-9.83062,5.67846],[-9.83746,5.69263],[-9.85033,5.69338],[-9.8471,5.68823],[-9.84067,5.69004],[-9.83667,5.67871],[-9.84503,5.67715],[-9.84632,5.68153],[-9.87132,5.70572],[-9.89888,5.71728],[-9.90249,5.72346],[-9.93754,5.75176],[-9.95843,5.77699],[-9.97079,5.78496],[-9.96771,5.78793],[-9.96901,5.7976],[-9.96258,5.79799],[-9.96014,5.80045],[-9.9617,5.80339],[-9.95782,5.80045],[-9.95516,5.80342],[-9.95963,5.80496],[-9.96261,5.79966],[-9.96912,5.79893],[-9.97329,5.81332],[-9.97934,5.81434],[-9.97432,5.81202],[-9.97392,5.80919],[-9.97959,5.80866],[-9.97263,5.80429],[-9.9775,5.79501],[-9.97287,5.79527],[-9.97273,5.78715],[-10.00687,5.80836],[-10.0083,5.81557],[-10.01978,5.83231],[-10.05897,5.86446],[-10.06009,5.86695],[-10.05473,5.87117],[-10.05322,5.88509],[-10.05658,5.89437],[-10.06767,5.90672],[-10.06965,5.91574],[-10.06524,5.91188],[-10.05417,5.91138],[-10.05226,5.90348],[-10.04707,5.90444],[-10.05004,5.90907],[-10.04241,5.90943],[-10.03564,5.914],[-10.03434,5.91013],[-10.02674,5.90654],[-10.02636,5.91144],[-10.02044,5.91016],[-10.01837,5.90629],[-10.0163,5.909],[-10.00859,5.90554],[-10.0068,5.9125],[-10.01709,5.91081],[-10.01539,5.91678],[-10.02239,5.91789],[-10.01995,5.92356],[-10.01325,5.921],[-10.01197,5.92474],[-10.02047,5.92666],[-10.01997,5.93284],[-10.02253,5.92897],[-10.03644,5.92998],[-10.03849,5.92649],[-10.03797,5.9243],[-10.03437,5.9256],[-10.03306,5.91452],[-10.04247,5.92146],[-10.03989,5.91528],[-10.04207,5.91192],[-10.04953,5.91204],[-10.0556,5.91886],[-10.05779,5.91898],[-10.05701,5.9155],[-10.06486,5.9152],[-10.06925,5.92089],[-10.05921,5.92452],[-10.0573,5.93406],[-10.05113,5.93794],[-10.04369,5.9511],[-10.04295,5.96863],[-10.03446,5.97226],[-10.02611,5.98207],[-10.02266,5.99574],[-10.00079,6.00364],[-9.99343,5.99347],[-9.98918,5.99051],[-9.98696,5.99256],[-9.99212,5.99438],[-9.99866,6.0039],[-10.00671,6.00466],[-10.01674,5.99871],[-10.02241,5.99947],[-10.03177,5.97948],[-10.04462,5.97069],[-10.04627,5.95831],[-10.05525,5.94128],[-10.06451,5.93611],[-10.06735,5.93881],[-10.07352,5.93622],[-10.07546,5.93892],[-10.06941,5.94048],[-10.06852,5.94461],[-10.07302,5.94138],[-10.07585,5.94356],[-10.07932,5.93969],[-10.08808,5.94295],[-10.08783,5.94818],[-10.0841,5.94999],[-10.09171,5.95307],[-10.09081,5.9572],[-10.09365,5.95771],[-10.09314,5.96029],[-10.08515,5.95927],[-10.08928,5.96519],[-10.08388,5.96649],[-10.08646,5.96958],[-10.0817,5.9701],[-10.08364,5.97732],[-10.08802,5.97666],[-10.0843,5.98247],[-10.08658,5.9865],[-10.09241,5.98349],[-10.09088,5.98993],[-10.09499,5.98812],[-10.09832,5.9769],[-10.10632,5.98578],[-10.10941,5.98629],[-10.10785,5.97907],[-10.11029,5.97675],[-10.11838,5.98178],[-10.11417,5.97352],[-10.10706,5.97237],[-10.10834,5.96799],[-10.10422,5.96619],[-10.10807,5.96232],[-10.10626,5.95768],[-10.10909,5.95742],[-10.10922,5.95407],[-10.10589,5.95101],[-10.10663,5.95336],[-10.10291,5.95408],[-10.09994,5.95177],[-10.09967,5.94661],[-10.09181,5.94044],[-10.09128,5.93503],[-10.08021,5.93312],[-10.07606,5.91882],[-10.11228,5.93937],[-10.11963,5.94683],[-10.13328,5.95196],[-10.14618,5.96211],[-10.14851,5.96791],[-10.19643,5.98636],[-10.20457,5.99923],[-10.21674,6.0304],[-10.23777,6.05187],[-10.30015,6.07995],[-10.35943,6.1021],[-10.36615,6.11072],[-10.37285,6.11302],[-10.37108,6.12436],[-10.35563,6.12775],[-10.35356,6.12248],[-10.33975,6.11783],[-10.33398,6.12059],[-10.33014,6.1273],[-10.32293,6.12938],[-10.32189,6.12565],[-10.3255,6.12422],[-10.31865,6.11315],[-10.31079,6.11395],[-10.30537,6.10868],[-10.30035,6.10882],[-10.29686,6.10084],[-10.28824,6.10498],[-10.28684,6.11375],[-10.28273,6.11556],[-10.28143,6.11067],[-10.28451,6.10886],[-10.27678,6.1063],[-10.27314,6.09084],[-10.26604,6.08959],[-10.27018,6.09149],[-10.27771,6.11609],[-10.27283,6.12126],[-10.27515,6.12383],[-10.27939,6.11918],[-10.28017,6.12278],[-10.28506,6.12032],[-10.29099,6.12392],[-10.28894,6.1274],[-10.29488,6.13615],[-10.29026,6.14441],[-10.28563,6.14468],[-10.28899,6.14802],[-10.29953,6.14297],[-10.30571,6.14296],[-10.30714,6.14592],[-10.30958,6.14385],[-10.30325,6.1351],[-10.31547,6.13301],[-10.32734,6.14045],[-10.33531,6.13708],[-10.33903,6.14472],[-10.34589,6.14466],[-10.35105,6.14916],[-10.35465,6.14503],[-10.36135,6.14733],[-10.36136,6.15003],[-10.35543,6.15095],[-10.34992,6.16128],[-10.35628,6.17827],[-10.33895,6.19919],[-10.35526,6.2324],[-10.35012,6.23731],[-10.34463,6.25717],[-10.32794,6.2768],[-10.33192,6.27557],[-10.346,6.25648],[-10.35115,6.23757],[-10.35629,6.23343],[-10.34231,6.20485],[-10.34164,6.19687],[-10.35962,6.17788],[-10.35523,6.17003],[-10.35495,6.16152],[-10.36265,6.15261],[-10.36651,6.15299],[-10.36743,6.15711],[-10.36318,6.16021],[-10.36448,6.1624],[-10.37244,6.15555],[-10.37735,6.16069],[-10.40003,6.1663],[-10.41127,6.18277],[-10.42762,6.18144],[-10.43214,6.18426],[-10.43848,6.1979],[-10.46243,6.19822],[-10.46942,6.20903],[-10.49182,6.20703],[-10.4983,6.22067],[-10.50785,6.22864],[-10.51532,6.23042],[-10.52096,6.22216],[-10.52483,6.2224],[-10.52614,6.23271],[-10.53335,6.23075],[-10.5398,6.23499],[-10.54137,6.24336],[-10.53211,6.2479],[-10.53547,6.25201],[-10.53751,6.24376],[-10.54577,6.24914],[-10.55142,6.24526],[-10.53901,6.22906],[-10.53489,6.22766],[-10.52923,6.23076],[-10.52739,6.21724],[-10.52335,6.21536],[-10.51634,6.22603],[-10.50887,6.2267],[-10.49906,6.21758],[-10.498,6.2083],[-10.49361,6.20252],[-10.47182,6.20571],[-10.47195,6.19446],[-10.46809,6.19318],[-10.46833,6.1888],[-10.46396,6.19216],[-10.45442,6.18832],[-10.45366,6.19193],[-10.44903,6.19246],[-10.44413,6.19041],[-10.43972,6.17805],[-10.43482,6.17497],[-10.41215,6.17503],[-10.39924,6.15999],[-10.37978,6.15527],[-10.38347,6.13645],[-10.44998,6.16398],[-10.51158,6.18442],[-10.60669,6.21185],[-10.69406,6.23245],[-10.70685,6.24555],[-10.7119,6.25572],[-10.76115,6.27243],[-10.77277,6.28309],[-10.79496,6.29371],[-10.80207,6.30219],[-10.81768,6.31115],[-10.8172,6.32146],[-10.80974,6.32355],[-10.80847,6.32922],[-10.80332,6.33027],[-10.80651,6.32201],[-10.79838,6.31637],[-10.7924,6.29887],[-10.7803,6.30059],[-10.77231,6.29765],[-10.77528,6.30254],[-10.76615,6.30437],[-10.76084,6.29743],[-10.75625,6.29882],[-10.75542,6.29204],[-10.74717,6.29129],[-10.74174,6.28487],[-10.74261,6.27378],[-10.72869,6.26983],[-10.72639,6.27538],[-10.72253,6.27552],[-10.71709,6.26601],[-10.71387,6.26615],[-10.72086,6.27798],[-10.71997,6.28043],[-10.7152,6.27877],[-10.7182,6.2919],[-10.71024,6.29773],[-10.71308,6.29965],[-10.7231,6.29421],[-10.72711,6.29806],[-10.72391,6.30541],[-10.72906,6.30527],[-10.73219,6.31763],[-10.73942,6.32134],[-10.74018,6.31683],[-10.74609,6.31423],[-10.74793,6.32608],[-10.75024,6.32298],[-10.75746,6.32399],[-10.76663,6.33194],[-10.7601,6.34562],[-10.76474,6.34406],[-10.76552,6.34818],[-10.76221,6.35953],[-10.76634,6.36081],[-10.76903,6.35564],[-10.76991,6.35074],[-10.76602,6.34406],[-10.76856,6.33129],[-10.77911,6.32984],[-10.78064,6.32519],[-10.79478,6.31664],[-10.79853,6.32049],[-10.79121,6.32658],[-10.78245,6.32699],[-10.7799,6.33344],[-10.77527,6.33501],[-10.77759,6.33796],[-10.78234,6.33292],[-10.78294,6.33599],[-10.78374,6.32699],[-10.79186,6.32825],[-10.80381,6.32215],[-10.79986,6.33363],[-10.81188,6.34622],[-10.80673,6.34649],[-10.8071,6.34134],[-10.79922,6.33518],[-10.7945,6.34731],[-10.79378,6.36303],[-10.79911,6.37847],[-10.79203,6.37798],[-10.7895,6.3883],[-10.7873,6.38766],[-10.78425,6.39441],[-10.79118,6.39345],[-10.79322,6.38726],[-10.79889,6.38775],[-10.80144,6.38053],[-10.81933,6.41396],[-10.83909,6.43038],[-10.86045,6.45775],[-10.9103,6.49377],[-10.95497,6.5204],[-10.95731,6.52451],[-11.00197,6.54855],[-11.04817,6.56769],[-11.04767,6.57298],[-11.04121,6.56643],[-11.01024,6.55367],[-11.0052,6.55953],[-11.01128,6.55612],[-11.01722,6.55957],[-11.01801,6.56421],[-11.01002,6.5645],[-11.00214,6.55731],[-11.00301,6.54958],[-10.99991,6.54805],[-10.99761,6.55192],[-10.99784,6.54677],[-10.97749,6.54775],[-10.99141,6.55014],[-11.01571,6.56834],[-11.01521,6.57414],[-11.01984,6.57245],[-11.03198,6.57961],[-11.03445,6.58424],[-11.05935,6.59225],[-11.06917,6.60033],[-11.07683,6.61318],[-11.08649,6.63085],[-11.0835,6.63917],[-11.07553,6.64346],[-11.06682,6.65406],[-11.02691,6.66182],[-11.02707,6.66878],[-11.02169,6.67685],[-11.02613,6.69094],[-11.02548,6.70022],[-11.00882,6.71381],[-10.99929,6.71308],[-10.98858,6.72034],[-10.98897,6.71196],[-10.98555,6.71159],[-10.97919,6.71998],[-10.9864,6.71262],[-10.98875,6.72137],[-11.00083,6.71359],[-11.01046,6.71579],[-11.02707,6.70047],[-11.02298,6.67756],[-11.02857,6.66234],[-11.06786,6.65727],[-11.09135,6.63527],[-11.09184,6.63063],[-11.08318,6.62217],[-11.0807,6.61497],[-11.08181,6.60362],[-11.07452,6.58459],[-11.05697,6.57719],[-11.05166,6.57154],[-11.13208,6.60985],[-11.35925,6.70594],[-11.36909,6.71568],[-11.37301,6.72674],[-11.37922,6.73135],[-11.38533,6.74317],[-11.38432,6.74755],[-11.37303,6.75765],[-11.36947,6.76823],[-11.36994,6.75741],[-11.3667,6.75421],[-11.35539,6.7598],[-11.33637,6.74289],[-11.33759,6.72897],[-11.33332,6.72616],[-11.3312,6.71277],[-11.3226,6.7111],[-11.32811,6.7133],[-11.33202,6.72385],[-11.32661,6.72323],[-11.32611,6.72568],[-11.33049,6.72695],[-11.32767,6.73018],[-11.30698,6.71315],[-11.2902,6.70588],[-11.28118,6.70683],[-11.25791,6.68942],[-11.23056,6.68014],[-11.2151,6.68201],[-11.20089,6.67306],[-11.19806,6.67449],[-11.19308,6.68378],[-11.19464,6.68687],[-11.18233,6.70032],[-11.18186,6.70985],[-11.17708,6.70614],[-11.17232,6.70809],[-11.1788,6.71505],[-11.19104,6.71625],[-11.19456,6.72603],[-11.20297,6.73424],[-11.21173,6.73329],[-11.2053,6.7368],[-11.20417,6.74196],[-11.20757,6.75328],[-11.21625,6.76316],[-11.22412,6.76371],[-11.22897,6.7681],[-11.21477,6.77927],[-11.20731,6.78136],[-11.20707,6.78626],[-11.21249,6.78778],[-11.2148,6.78442],[-11.21791,6.78801],[-11.22573,6.78076],[-11.22961,6.78163],[-11.2264,6.78617],[-11.22669,6.79338],[-11.22953,6.79285],[-11.23083,6.7962],[-11.23417,6.79463],[-11.24479,6.80592],[-11.24813,6.80577],[-11.24007,6.78842],[-11.23543,6.7869],[-11.23591,6.77981],[-11.24262,6.78197],[-11.25085,6.77807],[-11.25087,6.78296],[-11.26118,6.78407],[-11.26785,6.7767],[-11.28821,6.77609],[-11.28999,6.77196],[-11.31368,6.7667],[-11.32496,6.75608],[-11.3309,6.75824],[-11.337,6.7671],[-11.33733,6.78281],[-11.33378,6.79468],[-11.32406,6.80039],[-11.33317,6.80164],[-11.34266,6.79103],[-11.35502,6.79046],[-11.36238,6.81927],[-11.3734,6.8339],[-11.3742,6.83827],[-11.37047,6.83907],[-11.37087,6.8419],[-11.38389,6.84286],[-11.37639,6.83904],[-11.37481,6.83132],[-11.38151,6.83167],[-11.3919,6.84669],[-11.39459,6.84487],[-11.38445,6.82715],[-11.37441,6.82848],[-11.37181,6.8236],[-11.37294,6.81742],[-11.3697,6.81486],[-11.37653,6.81482],[-11.37014,6.79965],[-11.36512,6.80019],[-11.35927,6.7894],[-11.36362,6.78372],[-11.36366,6.77627],[-11.37431,6.80865],[-11.39939,6.85051],[-11.41491,6.86267],[-11.45627,6.88629],[-11.45917,6.89761],[-11.47134,6.90913],[-11.499,6.92423],[-11.49247,6.92171],[-11.46922,6.92612],[-11.45872,6.92375],[-11.4493,6.9367],[-11.43712,6.94156],[-11.41779,6.93877],[-11.42154,6.95273],[-11.43208,6.96897],[-11.41563,6.9712],[-11.41479,6.98644],[-11.41092,6.98963],[-11.39753,6.98766],[-11.39321,7.00528],[-11.38417,7.01077],[-11.37787,7.01035],[-11.36931,7.02246],[-11.36816,7.0462],[-11.36386,7.04813],[-11.36324,7.05194],[-11.37558,7.06477],[-11.37213,7.07512],[-11.36323,7.08118],[-11.3345,7.07679],[-11.3326,7.0801],[-11.33523,7.09272],[-11.33309,7.09983],[-11.33675,7.10559],[-11.33395,7.11555],[-11.35225,7.13994],[-11.34744,7.14741],[-11.33434,7.14372],[-11.32844,7.14797],[-11.33133,7.15716],[-11.33524,7.15852],[-11.3187,7.17088],[-11.31217,7.1849],[-11.31351,7.19328],[-11.30883,7.20155],[-11.30922,7.21129],[-11.30422,7.21399],[-11.30247,7.20518],[-11.28976,7.20391],[-11.29758,7.19842],[-11.29347,7.19664],[-11.28689,7.19987],[-11.28591,7.21486],[-11.28105,7.21607],[-11.27649,7.2274],[-11.27223,7.22923],[-11.27449,7.23689],[-11.27228,7.23915],[-11.26787,7.23697],[-11.26706,7.23195],[-11.25176,7.23043],[-11.23528,7.25017],[-11.22171,7.24403],[-11.2138,7.25102],[-11.20318,7.25316],[-11.18275,7.26427],[-11.17938,7.26875],[-11.183,7.27718],[-11.17783,7.27909],[-11.1753,7.28636],[-11.18038,7.28991],[-11.17306,7.29532],[-11.17024,7.30599],[-11.15994,7.30653],[-11.14391,7.32166],[-11.14361,7.34097],[-11.12778,7.35272],[-11.1259,7.36153],[-11.11417,7.37029],[-11.11403,7.37545],[-11.10482,7.38193],[-11.10316,7.38877],[-11.09207,7.39218],[-11.08339,7.39061],[-11.05994,7.40318],[-11.04074,7.42521],[-11.03295,7.42686],[-11.0343,7.43483],[-11.03175,7.4363],[-11.02831,7.4324],[-11.02511,7.43833],[-11.00981,7.44222],[-11.00938,7.44942],[-11.00027,7.45453],[-10.99009,7.46599],[-10.97578,7.47173],[-10.97672,7.47711],[-10.97128,7.4837],[-10.93301,7.51367],[-10.92797,7.50567],[-10.92845,7.50079],[-10.92232,7.49761],[-10.91759,7.50375],[-10.89596,7.51507],[-10.88918,7.52533],[-10.88088,7.52555],[-10.84346,7.54977],[-10.83352,7.56398],[-10.82668,7.56282],[-10.82481,7.57242],[-10.8187,7.57805],[-10.82191,7.58092],[-10.81397,7.58987],[-10.81664,7.59433],[-10.79978,7.59124],[-10.7934,7.60096],[-10.78937,7.60192],[-10.79114,7.62043],[-10.77635,7.63572],[-10.77277,7.64815],[-10.77448,7.65374],[-10.76859,7.64713],[-10.76188,7.65711],[-10.74811,7.66149],[-10.75135,7.66739],[-10.74276,7.67908],[-10.72747,7.6879],[-10.72678,7.69558],[-10.71806,7.70442],[-10.72005,7.70583],[-10.70992,7.71335],[-10.70762,7.72872],[-10.70125,7.73588],[-10.69559,7.73545],[-10.69568,7.73998],[-10.69149,7.73932],[-10.69236,7.74243],[-10.68697,7.74217],[-10.68097,7.74909],[-10.67693,7.746],[-10.6706,7.74775],[-10.64484,7.769],[-10.62941,7.76661],[-10.60595,7.77439],[-10.60595,8.03967],[-10.57589,8.04814],[-10.5548,8.08122],[-10.53687,8.09929],[-10.53535,8.10763],[-10.53068,8.10922],[-10.53127,8.11419],[-10.52421,8.12084],[-10.52441,8.12904],[-10.50078,8.14554],[-10.4852,8.14684],[-10.48475,8.14929],[-10.47542,8.15011],[-10.46296,8.15658],[-10.44993,8.15615],[-10.44776,8.15929],[-10.43859,8.15348],[-10.43398,8.15527],[-10.42618,8.1491],[-10.40102,8.15118],[-10.3975,8.14849],[-10.3896,8.14997],[-10.39067,8.15603],[-10.38639,8.16271],[-10.37703,8.16574],[-10.35117,8.15078],[-10.3323,8.17072],[-10.3189,8.19494],[-10.30134,8.19873],[-10.29585,8.22727],[-10.30099,8.23201],[-10.30157,8.2415],[-10.30911,8.24295],[-10.30792,8.25338],[-10.32021,8.2848],[-10.30077,8.29778],[-10.3035,8.30405],[-10.29851,8.3086],[-10.29471,8.33363],[-10.29082,8.33522],[-10.28875,8.34098],[-10.29329,8.34428],[-10.28995,8.35198],[-10.29542,8.3576],[-10.28621,8.37275],[-10.29037,8.38027],[-10.28619,8.39057],[-10.27883,8.39512],[-10.28044,8.40675],[-10.27666,8.40903],[-10.27382,8.42127],[-10.281,8.42834],[-10.27147,8.44517],[-10.27546,8.45016],[-10.27699,8.46044],[-10.28219,8.46443],[-10.27461,8.47256],[-10.27923,8.48469],[-10.27519,8.49084],[-10.26939,8.49151],[-10.2649,8.48658],[-10.2588,8.48659],[-10.24316,8.49272],[-10.23551,8.4855],[-10.22811,8.49293],[-10.2253,8.48722],[-10.22893,8.48159],[-10.22105,8.47892],[-10.21385,8.48185],[-10.20731,8.47863],[-10.20202,8.48256],[-10.19872,8.49382],[-10.19017,8.50105],[-10.15802,8.51857],[-10.16271,8.52442],[-10.1612,8.52613],[-10.12762,8.52224],[-10.1195,8.53452],[-10.10155,8.51669],[-10.10145,8.51274],[-10.08218,8.5191],[-10.0799,8.51495],[-10.07358,8.51631],[-10.07209,8.50917],[-10.06208,8.51049],[-10.0466,8.49915],[-10.04304,8.4893],[-10.05612,8.4661],[-10.05524,8.45915],[-10.05949,8.4489],[-10.05909,8.42832],[-10.05319,8.42661],[-10.03806,8.42842],[-10.02928,8.43515],[-10.0238,8.43256],[-10.01242,8.44057],[-9.99008,8.4454],[-9.98315,8.4555],[-9.97335,8.46271],[-9.96583,8.46332],[-9.96096,8.47185],[-9.94105,8.48621],[-9.93478,8.48485],[-9.9347,8.48898],[-9.91583,8.49831],[-9.89616,8.49892],[-9.88548,8.49368],[-9.88287,8.49766],[-9.85443,8.50056],[-9.84162,8.4839],[-9.83707,8.49371],[-9.83022,8.4955],[-9.83168,8.50122],[-9.80647,8.50118],[-9.79031,8.50827],[-9.78938,8.51576],[-9.79659,8.52011],[-9.79659,8.52603],[-9.80053,8.52673],[-9.79495,8.53546],[-9.78691,8.53213],[-9.7751,8.54996],[-9.76938,8.55201],[-9.75023,8.54485],[-9.74232,8.53585],[-9.73111,8.53183],[-9.72493,8.52557],[-9.72624,8.51468],[-9.73037,8.51166],[-9.74003,8.51184],[-9.74333,8.50965],[-9.7438,8.5034],[-9.73383,8.47156],[-9.72624,8.46364],[-9.72209,8.46568],[-9.71503,8.45479],[-9.71774,8.43931],[-9.71079,8.44132],[-9.69932,8.456],[-9.70199,8.46488],[-9.69793,8.48424],[-9.66313,8.50158],[-9.65655,8.49301],[-9.6478,8.49175],[-9.65281,8.47346],[-9.63021,8.47305],[-9.63006,8.46765],[-9.62056,8.45648],[-9.62047,8.45137],[-9.62569,8.44786],[-9.63365,8.43315],[-9.64428,8.4261],[-9.64897,8.42616],[-9.65802,8.41015],[-9.65656,8.40314],[-9.65095,8.40286],[-9.64605,8.39813],[-9.63526,8.40516],[-9.62423,8.40673],[-9.60823,8.40291],[-9.59186,8.41462],[-9.59336,8.42329],[-9.59003,8.42483],[-9.58782,8.42063],[-9.57759,8.41742],[-9.56775,8.40943],[-9.56011,8.39158],[-9.55391,8.38992],[-9.55191,8.38135],[-9.51428,8.37923],[-9.5066,8.37363],[-9.49731,8.37289],[-9.49343,8.3642],[-9.48765,8.36338],[-9.48086,8.35528],[-9.4788,8.34378],[-9.48785,8.34345],[-9.48986,8.33928],[-9.49515,8.33866],[-9.50756,8.32945],[-9.51019,8.32291],[-9.51868,8.31896],[-9.51818,8.3137],[-9.51019,8.30695],[-9.49602,8.305],[-9.49544,8.29827],[-9.50211,8.28834],[-9.50258,8.28152],[-9.50081,8.2776],[-9.49093,8.27501],[-9.48939,8.265],[-9.51222,8.24175],[-9.49942,8.23773],[-9.50575,8.22949],[-9.50482,8.20785],[-9.5158,8.19417],[-9.5155,8.18934],[-9.50665,8.18384],[-9.49471,8.1869],[-9.49391,8.17589],[-9.48708,8.17575],[-9.48047,8.18083],[-9.46227,8.1766],[-9.45942,8.16168],[-9.46137,8.14127],[-9.46408,8.1385],[-9.4623,8.13558],[-9.44896,8.1328],[-9.45526,8.12421],[-9.45272,8.11604],[-9.45667,8.11303],[-9.44672,8.09422],[-9.44795,8.09081],[-9.44107,8.08408],[-9.44758,8.06824],[-9.46162,8.05004],[-9.45885,8.04231],[-9.4524,8.05021],[-9.42052,8.06513],[-9.40977,8.06091],[-9.41156,8.05736],[-9.40555,8.04793],[-9.40852,8.02851],[-9.4047,8.02038],[-9.41427,8.01271],[-9.436,7.98179],[-9.43415,7.9652],[-9.42834,7.95359],[-9.43354,7.93749],[-9.42539,7.91877],[-9.43001,7.90335],[-9.42798,7.88825],[-9.42266,7.88249],[-9.42496,7.86719],[-9.4107,7.85109],[-9.40854,7.83711],[-9.39541,7.82832],[-9.3881,7.80476],[-9.37148,7.80859],[-9.36888,7.80646],[-9.36858,7.79883],[-9.36256,7.796],[-9.35967,7.78699],[-9.36176,7.77624],[-9.35767,7.77762],[-9.35493,7.7748],[-9.35408,7.76361],[-9.35777,7.76067],[-9.3544,7.75673],[-9.35505,7.75156],[-9.34868,7.74992],[-9.35718,7.73545],[-9.35677,7.72278],[-9.36128,7.72024],[-9.37276,7.6982],[-9.37627,7.67416],[-9.37369,7.66581],[-9.37997,7.659],[-9.37654,7.65194],[-9.37872,7.64755],[-9.37659,7.63777],[-9.36951,7.63041],[-9.36926,7.62627],[-9.35926,7.62754],[-9.35907,7.61544],[-9.36381,7.61445],[-9.36858,7.59851],[-9.37869,7.58962],[-9.37728,7.58387],[-9.3841,7.57697],[-9.38616,7.56007],[-9.39581,7.54263],[-9.40096,7.53989],[-9.40732,7.51594],[-9.41493,7.50446],[-9.42549,7.47263],[-9.43001,7.46737],[-9.43358,7.46753],[-9.4419,7.45566],[-9.44696,7.45471],[-9.44721,7.45136],[-9.45626,7.45112],[-9.46848,7.42965],[-9.46917,7.42257],[-9.46621,7.41956],[-9.47226,7.41403],[-9.47138,7.40474],[-9.47717,7.38568],[-9.48432,7.37541],[-9.48125,7.37402],[-9.48226,7.36712],[-9.47511,7.36706],[-9.46818,7.38212],[-9.46714,7.39606],[-9.45141,7.40131],[-9.4508,7.40453],[-9.43629,7.41204],[-9.4358,7.41588],[-9.42638,7.41558],[-9.42275,7.42459],[-9.41792,7.42693],[-9.41041,7.4234],[-9.41288,7.4198],[-9.40801,7.41219],[-9.40293,7.41134],[-9.40543,7.40503],[-9.40227,7.40049],[-9.40761,7.39142],[-9.40138,7.38811],[-9.39903,7.39374],[-9.38376,7.3956],[-9.38053,7.40906],[-9.37214,7.41411],[-9.36211,7.4153],[-9.36764,7.42199],[-9.36307,7.42614],[-9.36371,7.43149],[-9.35886,7.4334],[-9.33044,7.42706],[-9.32166,7.43559],[-9.31227,7.43473],[-9.30665,7.42359],[-9.29977,7.42717],[-9.29421,7.42623],[-9.29111,7.41861],[-9.29324,7.4154],[-9.28764,7.40893],[-9.29236,7.38833],[-9.28837,7.38692],[-9.28611,7.37637],[-9.28063,7.3751]],[[-9.00084,5.05021],[-9.00048,5.04131],[-9.00716,5.03346],[-9.00611,5.03123],[-8.99971,5.04094],[-9.00084,5.05021]],[[-9.005,5.03077],[-9.00356,5.03019],[-9.0035,5.03061],[-9.005,5.03077]],[[-10.1096,5.95284],[-10.11191,5.95097],[-10.10727,5.9493],[-10.1096,5.95284]],[[-10.78278,6.33655],[-10.77814,6.34724],[-10.77093,6.34739],[-10.77171,6.35074],[-10.77597,6.35124],[-10.77891,6.34762],[-10.78278,6.33655]]],[[[-8.9168,4.95611],[-8.9204,4.95868],[-8.91603,4.96448],[-8.91281,4.96307],[-8.9168,4.95611]]],[[[-9.24722,5.16787],[-9.24954,5.1707],[-9.24568,5.17083],[-9.24722,5.16787]]],[[[-9.31412,5.23294],[-9.31454,5.23483],[-9.31026,5.23539],[-9.31412,5.23294]]],[[[-9.32234,5.2203],[-9.32209,5.22752],[-9.31951,5.22443],[-9.32234,5.2203]]],[[[-10.0508,5.94602],[-10.05013,5.95315],[-10.0473,5.9537],[-10.0508,5.94602]]],[[[-10.09725,5.95963],[-10.09959,5.96749],[-10.09482,5.96724],[-10.09378,5.96209],[-10.09725,5.95963]]],[[[-10.09625,5.97343],[-10.09703,5.97858],[-10.0951,5.97833],[-10.09625,5.97343]]],[[[-10.30307,6.11345],[-10.30076,6.11861],[-10.29432,6.11914],[-10.29535,6.11592],[-10.30307,6.11345]]],[[[-10.30874,6.11769],[-10.30515,6.12247],[-10.30347,6.11989],[-10.30874,6.11769]]],[[[-10.31263,6.12786],[-10.31547,6.13043],[-10.31032,6.13225],[-10.31263,6.12786]]],[[[-10.33863,6.1229],[-10.35099,6.12545],[-10.34817,6.13099],[-10.35334,6.13704],[-10.35066,6.14555],[-10.3384,6.13656],[-10.33863,6.1229]]],[[[-10.35772,6.13857],[-10.35645,6.14451],[-10.35386,6.14039],[-10.35772,6.13857]]],[[[-10.36646,6.13249],[-10.37961,6.13981],[-10.37783,6.14651],[-10.36316,6.1499],[-10.36379,6.14474],[-10.36854,6.14138],[-10.36377,6.13572],[-10.36646,6.13249]]],[[[-10.72564,6.28157],[-10.72514,6.28673],[-10.72268,6.28287],[-10.72564,6.28157]]],[[[-10.73539,6.27252],[-10.73452,6.28077],[-10.72794,6.27667],[-10.72767,6.27383],[-10.73539,6.27252]]],[[[-10.74041,6.30884],[-10.73828,6.31641],[-10.73528,6.31684],[-10.73449,6.30976],[-10.74041,6.30884]]],[[[-11.02266,6.56728],[-11.02474,6.57217],[-11.0214,6.57347],[-11.02266,6.56728]]],[[[-11.02677,6.56533],[-11.02576,6.56946],[-11.0233,6.56754],[-11.02677,6.56533]]],[[[-11.03251,6.57105],[-11.03571,6.57277],[-11.03358,6.57507],[-11.03251,6.57105]]],[[[-11.05104,6.57696],[-11.06756,6.58513],[-11.06683,6.59596],[-11.06411,6.59185],[-11.06602,6.58591],[-11.05055,6.58237],[-11.05104,6.57696]]],[[[-11.07298,6.59513],[-11.07626,6.6003],[-11.07458,6.60082],[-11.07298,6.59513]]],[[[-11.08003,6.60904],[-11.07832,6.60184],[-11.08065,6.60311],[-11.08003,6.60904]]],[[[-11.23408,6.79297],[-11.23252,6.7897],[-11.23673,6.78986],[-11.23649,6.79359],[-11.23408,6.79297]]],[[[-11.32176,6.73317],[-11.3246,6.73393],[-11.32579,6.74114],[-11.31773,6.75148],[-11.31396,6.74454],[-11.32176,6.73317]]],[[[-11.34637,6.75881],[-11.35749,6.76855],[-11.34679,6.76628],[-11.34637,6.75881]]]]}}]}