{"type":"FeatureCollection","features":[{"type":"Feature","properties":{"ISO_A3":"LBY","WB_A3":"LBY","WB_NAME":"Libya","WB_REGION":"MEA"},"geometry":{"type":"MultiPolygon","coordinates":[[[[25,28.09322],[25,20],[24,20],[24,19.5],[23.02317,20.01445],[22.04001,20.52345],[21.05035,21.0268],[20.05407,21.52434],[19.05103,22.01585],[18.04108,22.50116],[17.02411,22.98006],[16,23.45236],[15,23],[14.18959,22.64451],[14.03006,22.77754],[13.93839,22.86218],[13.78312,22.99398],[13.70108,23.0592],[13.57072,23.13507],[13.52673,23.15589],[11.99816,23.5159],[11.9785,23.5415],[11.60295,24.26582],[11.58166,24.25369],[11.56911,24.25419],[11.53289,24.24456],[11.50078,24.22777],[11.44758,24.21344],[11.42156,24.20062],[11.13179,24.39244],[11.09174,24.40825],[11.07528,24.41058],[11.06161,24.422],[11.04777,24.42484],[11.03744,24.44355],[11.0098,24.46978],[10.98126,24.49125],[10.95158,24.52906],[10.89739,24.5548],[10.8783,24.5538],[10.84985,24.56628],[10.83345,24.56883],[10.81343,24.56305],[10.79196,24.54277],[10.7927,24.53106],[10.79958,24.52626],[10.76541,24.50839],[10.75602,24.52486],[10.73946,24.53551],[10.73191,24.5458],[10.72661,24.56074],[10.72822,24.56412],[10.71492,24.5701],[10.63739,24.56847],[10.62966,24.56489],[10.61631,24.57283],[10.60042,24.55866],[10.58872,24.55412],[10.58775,24.5393],[10.58152,24.5371],[10.57275,24.54179],[10.54423,24.53186],[10.52872,24.5366],[10.5073,24.53701],[10.48311,24.54216],[10.45261,24.53239],[10.41072,24.53046],[10.39738,24.53361],[10.35582,24.53333],[10.34044,24.55659],[10.32418,24.56843],[10.30202,24.59706],[10.28602,24.59866],[10.27904,24.61118],[10.26377,24.62255],[10.25253,24.62545],[10.22322,24.64565],[10.21499,24.64776],[10.21309,24.66125],[10.19591,24.68184],[10.19784,24.70044],[10.17637,24.72459],[10.17034,24.74344],[10.13539,24.81069],[10.11237,24.83371],[10.10579,24.84463],[10.1025,24.8714],[10.09633,24.88551],[10.06949,24.91772],[10.06505,24.93044],[10.0411,24.95552],[10.02839,25.35414],[9.39984,26.19543],[9.43517,26.23965],[9.48695,26.33343],[9.50915,26.38104],[9.86347,26.51628],[9.91374,26.64623],[9.9024,26.74312],[9.93041,26.85794],[9.90665,26.87336],[9.89056,26.9014],[9.87308,26.91361],[9.86877,26.92486],[9.86135,26.9334],[9.83888,27.02164],[9.83893,27.04768],[9.83203,27.06807],[9.8342,27.08087],[9.83015,27.10591],[9.82366,27.11409],[9.82299,27.12631],[9.81685,27.13194],[9.81839,27.14644],[9.79976,27.16874],[9.8006,27.18855],[9.79571,27.1993],[9.79533,27.22797],[9.78132,27.26266],[9.79175,27.29755],[9.7908,27.30539],[9.79588,27.31439],[9.7984,27.34059],[9.79754,27.35088],[9.78742,27.35088],[9.78801,27.35509],[9.79665,27.37046],[9.79813,27.38055],[9.81554,27.40996],[9.81219,27.4336],[9.81988,27.44703],[9.81717,27.46166],[9.83209,27.48551],[9.85018,27.49644],[9.86656,27.50132],[9.86766,27.52101],[9.87307,27.54177],[9.88158,27.55871],[9.8296,27.55871],[9.82206,27.56173],[9.81967,27.56948],[9.82501,27.57585],[9.86932,27.58344],[9.89498,27.61051],[9.92641,27.67285],[9.92901,27.69723],[9.94568,27.73247],[9.94315,27.75794],[9.94589,27.8432],[9.96425,27.86],[9.96594,27.88286],[9.83481,28.28628],[9.90432,28.7582],[9.87352,29.02732],[9.78311,29.42707],[9.53884,29.90392],[9.41537,30.04151],[9.39364,30.14676],[9.39221,30.16767],[9.40091,30.1792],[9.41773,30.18731],[9.43313,30.18558],[9.52097,30.22311],[9.54798,30.2263],[9.60358,30.2404],[9.63863,30.25516],[9.66138,30.27261],[9.82516,30.34133],[9.87423,30.34089],[9.89823,30.35283],[9.94012,30.38213],[9.95152,30.40201],[9.98421,30.43526],[10.0306,30.5046],[10.05734,30.53091],[10.09061,30.55747],[10.15638,30.65377],[10.19746,30.69463],[10.21525,30.70828],[10.24254,30.75237],[10.24727,30.76963],[10.26856,30.8011],[10.27985,30.83785],[10.28783,30.87898],[10.30256,30.89557],[10.28571,30.95923],[10.27008,31.03877],[10.28431,31.08522],[10.2605,31.11891],[10.25101,31.16466],[10.25716,31.18234],[10.23833,31.19429],[10.23302,31.21413],[10.2003,31.28166],[10.17957,31.3361],[10.15603,31.38524],[10.14751,31.41024],[10.14463,31.43796],[10.12718,31.46603],[10.1281,31.47843],[10.14884,31.50559],[10.20634,31.56416],[10.28892,31.68347],[10.30715,31.70127],[10.38043,31.73906],[10.40975,31.73095],[10.47054,31.73239],[10.49889,31.74392],[10.52442,31.73964],[10.54847,31.76021],[10.56175,31.77799],[10.56483,31.79935],[10.57852,31.81751],[10.61932,31.85001],[10.62712,31.86182],[10.63638,31.87948],[10.62863,31.89935],[10.6172,31.90811],[10.61647,31.91275],[10.62164,31.91701],[10.61925,31.92064],[10.62874,31.92499],[10.62953,31.93799],[10.63412,31.93254],[10.64017,31.94307],[10.64419,31.94459],[10.63593,31.94559],[10.63574,31.95204],[10.64567,31.96164],[10.64339,31.96336],[10.64955,31.96667],[10.6511,31.9743],[10.67276,31.97844],[10.70913,31.96765],[10.72246,31.96771],[10.74982,31.98698],[10.75884,31.98461],[10.77835,31.98876],[10.79722,31.99759],[10.82521,32.03771],[10.86318,32.08323],[10.86322,32.10639],[10.98563,32.18033],[11.03051,32.19858],[11.0603,32.21982],[11.13615,32.24897],[11.16927,32.26643],[11.35542,32.31695],[11.41696,32.35184],[11.45315,32.3589],[11.51994,32.39776],[11.54816,32.40479],[11.57869,32.43627],[11.60267,32.45156],[11.60762,32.46234],[11.59996,32.51509],[11.58457,32.54238],[11.55146,32.58038],[11.50658,32.60685],[11.48349,32.65344],[11.49534,32.69956],[11.49558,32.7258],[11.48828,32.76211],[11.48965,32.78468],[11.50306,32.8455],[11.48819,32.89046],[11.50148,32.93205],[11.5142,32.95619],[11.51817,32.9769],[11.52906,32.98625],[11.52148,33.01124],[11.52541,33.07366],[11.53439,33.08722],[11.55975,33.14289],[11.56162,33.16704],[11.56976,33.16298],[11.60011,33.13537],[11.60795,33.12698],[11.61084,33.11613],[11.61654,33.1128],[11.63541,33.11073],[11.64269,33.09901],[11.65081,33.09498],[11.73184,33.07949],[11.81003,33.07158],[11.81214,33.07552],[11.80529,33.08081],[11.78982,33.08861],[11.77419,33.09153],[11.77135,33.09339],[11.77209,33.09761],[11.81663,33.0776],[11.86537,33.06531],[11.90507,33.04743],[11.97439,33.00405],[12.01788,32.98266],[12.05945,32.95179],[12.09292,32.93484],[12.10644,32.9313],[12.10961,32.92752],[12.12124,32.92599],[12.11904,32.92337],[12.12278,32.91601],[12.1485,32.90246],[12.1919,32.88829],[12.20424,32.87366],[12.2303,32.86782],[12.2681,32.84655],[12.35251,32.82305],[12.39135,32.81667],[12.4489,32.81568],[12.48444,32.80727],[12.50485,32.80665],[12.51654,32.802],[12.55487,32.79925],[12.55808,32.79614],[12.65709,32.79161],[12.78265,32.79582],[12.89249,32.80941],[12.9915,32.83199],[13.03255,32.84806],[13.04985,32.85052],[13.07429,32.86131],[13.09068,32.86361],[13.11687,32.87827],[13.12574,32.87622],[13.13271,32.87813],[13.13505,32.88253],[13.14882,32.87991],[13.15786,32.88467],[13.17151,32.90209],[13.19357,32.91089],[13.19428,32.90602],[13.18915,32.9035],[13.18543,32.90666],[13.17654,32.90191],[13.18504,32.89625],[13.21691,32.90197],[13.22018,32.90613],[13.23776,32.91088],[13.28837,32.90953],[13.31874,32.89876],[13.34074,32.89545],[13.3852,32.89694],[13.3938,32.89281],[13.4049,32.87701],[13.41524,32.86943],[13.45913,32.85019],[13.47625,32.84654],[13.51067,32.82742],[13.59646,32.79319],[13.66103,32.78966],[13.703,32.79164],[13.7066,32.79489],[13.72212,32.79557],[13.72988,32.79513],[13.73282,32.79169],[13.74316,32.79231],[13.75404,32.79833],[13.80237,32.80253],[13.81101,32.79413],[13.84278,32.7853],[13.86594,32.78217],[13.88326,32.78464],[13.94182,32.77345],[13.94825,32.76991],[13.95444,32.76096],[13.98868,32.74659],[14.00435,32.73245],[14.01473,32.72944],[14.05311,32.72383],[14.06344,32.72493],[14.10337,32.71571],[14.11947,32.71788],[14.12863,32.71409],[14.17671,32.71095],[14.2057,32.69892],[14.22886,32.69303],[14.24041,32.69322],[14.24638,32.68825],[14.23778,32.681],[14.24817,32.6736],[14.25312,32.66335],[14.2711,32.65793],[14.27849,32.6455],[14.33058,32.62857],[14.33245,32.62163],[14.33933,32.61602],[14.33876,32.61164],[14.3536,32.59655],[14.38441,32.57601],[14.43375,32.55272],[14.43546,32.5463],[14.44352,32.54273],[14.44603,32.52963],[14.47131,32.5138],[14.48469,32.50987],[14.56575,32.4981],[14.57333,32.50069],[14.57729,32.49723],[14.60611,32.49681],[14.61402,32.4917],[14.65471,32.48102],[14.68997,32.45913],[14.70576,32.45274],[14.75502,32.43862],[14.84254,32.4373],[14.85891,32.44195],[14.8962,32.43993],[14.95381,32.428],[14.96049,32.42055],[14.96958,32.41862],[15.00595,32.41773],[15.03475,32.41104],[15.099,32.41075],[15.19896,32.38222],[15.21651,32.37229],[15.21301,32.36767],[15.21436,32.36098],[15.2168,32.36741],[15.22134,32.36766],[15.22118,32.36123],[15.2233,32.36122],[15.22513,32.36868],[15.22511,32.35942],[15.22177,32.35634],[15.23431,32.34321],[15.2419,32.34949],[15.2528,32.34973],[15.24189,32.34872],[15.23582,32.3432],[15.2476,32.33264],[15.27119,32.31922],[15.27132,32.31331],[15.29812,32.26851],[15.29779,32.26157],[15.31789,32.21216],[15.35672,32.16449],[15.35978,32.13594],[15.35316,32.10356],[15.35493,32.09199],[15.34851,32.07221],[15.35501,32.03362],[15.35613,32.0133],[15.35246,32.00072],[15.35778,31.9719],[15.38814,31.87436],[15.44397,31.76645],[15.48026,31.68326],[15.52553,31.60672],[15.56763,31.56257],[15.61032,31.50014],[15.65888,31.45002],[15.73976,31.39815],[15.81407,31.35939],[15.88157,31.33515],[15.98265,31.28968],[16.03188,31.27387],[16.10089,31.26147],[16.12233,31.25241],[16.23163,31.23354],[16.39298,31.21749],[16.60109,31.21083],[16.69666,31.21873],[16.70382,31.21774],[16.70467,31.21515],[16.76383,31.2114],[16.81407,31.19515],[16.88407,31.18077],[16.91542,31.17825],[17.00659,31.16285],[17.02824,31.1548],[17.05537,31.15116],[17.11718,31.13499],[17.14054,31.12393],[17.16736,31.12065],[17.20562,31.10805],[17.23724,31.10609],[17.2642,31.09662],[17.2901,31.09282],[17.29561,31.08604],[17.30391,31.08332],[17.39334,31.07617],[17.39229,31.07002],[17.39755,31.06555],[17.43297,31.04946],[17.45784,31.02971],[17.51015,31.00981],[17.60086,30.9872],[17.68757,30.95162],[17.74565,30.93845],[17.85613,30.92372],[17.86723,30.91589],[17.86595,30.90795],[17.8698,30.90221],[17.88198,30.89603],[17.88116,30.88834],[17.88492,30.88465],[17.88709,30.87253],[17.91102,30.85593],[18.01842,30.82836],[18.09212,30.80395],[18.17293,30.78968],[18.191,30.78275],[18.18976,30.77912],[18.19301,30.77508],[18.22215,30.76568],[18.22054,30.75948],[18.22423,30.75545],[18.24669,30.74025],[18.25205,30.73471],[18.25266,30.72906],[18.28021,30.71191],[18.29493,30.69628],[18.29098,30.69388],[18.29201,30.68902],[18.32332,30.65908],[18.34301,30.64587],[18.36671,30.63799],[18.37029,30.62637],[18.38537,30.61845],[18.38792,30.61182],[18.40358,30.60416],[18.40551,30.59855],[18.43076,30.58774],[18.44509,30.57362],[18.47273,30.56183],[18.49664,30.54468],[18.51462,30.53821],[18.51597,30.53181],[18.52806,30.52356],[18.57465,30.51299],[18.57113,30.511],[18.56943,30.50171],[18.58624,30.48853],[18.59064,30.49041],[18.58637,30.48326],[18.60549,30.47205],[18.60574,30.46768],[18.62168,30.45923],[18.62901,30.45063],[18.65124,30.4392],[18.64835,30.42964],[18.65039,30.42531],[18.67241,30.41002],[18.71299,30.39942],[18.72111,30.39468],[18.74193,30.39221],[18.7429,30.38838],[18.75067,30.38594],[18.79195,30.3833],[18.79183,30.36864],[18.80143,30.35724],[18.84334,30.33865],[18.88341,30.32902],[18.89679,30.32024],[18.90169,30.31274],[18.9458,30.28644],[18.99613,30.27385],[19.0555,30.26729],[19.11524,30.27215],[19.12093,30.26927],[19.15711,30.26657],[19.1891,30.26689],[19.2877,30.28647],[19.38199,30.31802],[19.47964,30.36676],[19.49343,30.37682],[19.51613,30.38582],[19.54642,30.40313],[19.54755,30.407],[19.55521,30.41069],[19.565,30.41041],[19.57083,30.4178],[19.58031,30.41894],[19.58039,30.41328],[19.5932,30.40943],[19.60409,30.41559],[19.60859,30.41243],[19.61979,30.41717],[19.62774,30.42201],[19.63821,30.43704],[19.68301,30.46013],[19.72028,30.49239],[19.76329,30.5198],[19.78563,30.53853],[19.79931,30.56154],[19.82249,30.58618],[19.86255,30.61714],[19.90929,30.6646],[19.96386,30.73602],[19.97744,30.76081],[20.00916,30.78935],[20.04213,30.82894],[20.06445,30.86202],[20.07479,30.88729],[20.07443,30.89877],[20.08578,30.9082],[20.09981,30.93761],[20.11295,30.95262],[20.16128,31.05632],[20.17322,31.12582],[20.17511,31.14898],[20.17287,31.16568],[20.15041,31.2365],[20.13473,31.24977],[20.11392,31.29874],[20.08746,31.34098],[20.07498,31.34552],[20.06767,31.35807],[20.05237,31.35963],[20.03636,31.38638],[20.03048,31.39057],[20.02181,31.41674],[20.0165,31.42274],[20.01618,31.45359],[20.01272,31.46925],[20.0056,31.47601],[19.99254,31.47681],[19.98999,31.51844],[19.98216,31.5482],[19.96584,31.58484],[19.96624,31.60387],[19.95842,31.63158],[19.95586,31.67167],[19.94353,31.69882],[19.93378,31.71031],[19.92316,31.74416],[19.92117,31.76034],[19.93099,31.79616],[19.92596,31.82697],[19.94204,31.86927],[19.94631,31.90504],[19.95296,31.92952],[19.95222,31.94186],[19.94308,31.95027],[19.94866,31.97602],[19.96114,31.9931],[19.9773,32.00454],[19.98085,32.01151],[20.03196,32.05742],[20.04487,32.07886],[20.04521,32.0903],[20.05239,32.09665],[20.05067,32.10204],[20.04086,32.10132],[20.03962,32.10478],[20.04504,32.10637],[20.04193,32.11483],[20.04554,32.11665],[20.05328,32.11286],[20.0532,32.10617],[20.05637,32.10619],[20.05809,32.11495],[20.05094,32.11965],[20.06117,32.12371],[20.07583,32.13848],[20.10186,32.1798],[20.11014,32.18346],[20.12723,32.19875],[20.20184,32.27637],[20.24332,32.31056],[20.29661,32.34841],[20.38123,32.42032],[20.57403,32.54504],[20.67341,32.59303],[20.75564,32.62021],[20.80541,32.64395],[20.88347,32.67529],[20.92509,32.6982],[20.94606,32.71479],[20.96309,32.71956],[20.99137,32.73422],[21.02423,32.7427],[21.06075,32.76094],[21.08174,32.76671],[21.11553,32.77067],[21.14504,32.77115],[21.15843,32.76844],[21.20713,32.77312],[21.23998,32.76959],[21.2829,32.774],[21.2899,32.77206],[21.35594,32.77472],[21.40651,32.7869],[21.44127,32.79964],[21.4776,32.81982],[21.48247,32.81851],[21.49285,32.82503],[21.4941,32.82939],[21.50905,32.83525],[21.51029,32.83987],[21.5461,32.868],[21.55646,32.86949],[21.56473,32.87537],[21.56507,32.88077],[21.58893,32.89569],[21.59018,32.90045],[21.59582,32.90145],[21.60211,32.90771],[21.60576,32.90628],[21.61341,32.9101],[21.61804,32.91856],[21.62474,32.91853],[21.62815,32.92635],[21.63453,32.92349],[21.64524,32.92909],[21.68124,32.9325],[21.7005,32.93934],[21.71636,32.94092],[21.7702,32.92646],[21.78202,32.91932],[21.79846,32.91703],[21.80756,32.91221],[21.92258,32.89419],[21.93146,32.89824],[21.94333,32.89712],[21.97326,32.90371],[21.99001,32.90229],[22.00559,32.90602],[22.01593,32.90362],[22.02557,32.90714],[22.07131,32.9101],[22.11413,32.93441],[22.13151,32.93438],[22.14528,32.93837],[22.17409,32.92743],[22.17655,32.91738],[22.16963,32.91231],[22.16755,32.90487],[22.1806,32.88932],[22.19358,32.88072],[22.24466,32.87315],[22.29825,32.87183],[22.31568,32.87615],[22.32936,32.87446],[22.34177,32.86868],[22.37472,32.87256],[22.38898,32.86867],[22.41828,32.85331],[22.43454,32.85094],[22.4376,32.84242],[22.46722,32.82897],[22.49311,32.81157],[22.52285,32.80645],[22.52341,32.80362],[22.55291,32.80236],[22.56305,32.79902],[22.56277,32.79157],[22.5852,32.7864],[22.59385,32.77652],[22.60627,32.77341],[22.64251,32.77525],[22.6542,32.76597],[22.65259,32.76111],[22.65533,32.7612],[22.65558,32.75799],[22.77626,32.72305],[22.81382,32.7157],[22.8446,32.70471],[22.8677,32.68984],[22.87076,32.69096],[22.90024,32.67625],[22.91144,32.67415],[22.91289,32.67079],[22.93445,32.6702],[22.95378,32.66476],[22.95461,32.66102],[22.958,32.66315],[22.99273,32.65348],[23.00489,32.65367],[23.00237,32.6496],[23.00661,32.64914],[23.01128,32.65395],[23.02832,32.65509],[23.03051,32.65146],[23.03253,32.65348],[23.05609,32.64744],[23.06116,32.64299],[23.07695,32.64273],[23.0823,32.63776],[23.08872,32.63958],[23.10195,32.63358],[23.10743,32.63425],[23.12525,32.61699],[23.12722,32.60436],[23.11873,32.59166],[23.11812,32.58498],[23.09961,32.57244],[23.09968,32.55625],[23.10652,32.53686],[23.10202,32.52614],[23.10805,32.51807],[23.10559,32.51683],[23.1093,32.50674],[23.11639,32.4984],[23.12213,32.49778],[23.13082,32.48042],[23.14321,32.47854],[23.14456,32.4717],[23.15833,32.45784],[23.15522,32.44826],[23.15048,32.44616],[23.15121,32.43895],[23.14784,32.4372],[23.14565,32.42799],[23.13837,32.42773],[23.13416,32.42253],[23.13828,32.40472],[23.1365,32.39345],[23.13295,32.39068],[23.12118,32.39255],[23.12141,32.39601],[23.1138,32.4009],[23.11206,32.40414],[23.11602,32.4051],[23.12774,32.40092],[23.13361,32.40557],[23.1215,32.41246],[23.10604,32.43174],[23.09577,32.43333],[23.09577,32.42009],[23.08897,32.42097],[23.08897,32.41455],[23.09881,32.40744],[23.09978,32.39072],[23.08225,32.36582],[23.08177,32.35838],[23.08911,32.32844],[23.09755,32.32033],[23.09523,32.31163],[23.09795,32.31801],[23.10157,32.31744],[23.1104,32.30649],[23.11792,32.30457],[23.12328,32.30731],[23.12512,32.31473],[23.12754,32.31495],[23.15095,32.30619],[23.16127,32.30769],[23.16644,32.29603],[23.17824,32.29596],[23.2009,32.28182],[23.20873,32.28039],[23.21584,32.2741],[23.21728,32.26482],[23.22113,32.26167],[23.22018,32.25346],[23.25314,32.2043],[23.26449,32.1987],[23.28899,32.19941],[23.29991,32.1829],[23.30231,32.16409],[23.30742,32.16322],[23.30852,32.15884],[23.31924,32.15247],[23.32637,32.15363],[23.31912,32.16584],[23.31822,32.18385],[23.3061,32.20052],[23.30934,32.2092],[23.31807,32.21353],[23.32849,32.20717],[23.34207,32.20628],[23.35374,32.20157],[23.36499,32.20444],[23.37099,32.20266],[23.41365,32.18103],[23.4207,32.17357],[23.447,32.17384],[23.46223,32.17817],[23.46906,32.17392],[23.5005,32.1742],[23.50522,32.17026],[23.52585,32.17306],[23.53758,32.17102],[23.56095,32.17492],[23.64011,32.17458],[23.66721,32.18172],[23.71755,32.17756],[23.72588,32.17314],[23.77278,32.16544],[23.78016,32.15963],[23.79336,32.15677],[23.79389,32.15418],[23.81502,32.14883],[23.82073,32.14305],[23.82649,32.14369],[23.8249,32.1409],[23.83,32.14002],[23.83022,32.13731],[23.83783,32.13907],[23.842,32.13744],[23.84161,32.13462],[23.8519,32.13516],[23.85904,32.13166],[23.85767,32.12655],[23.86263,32.12566],[23.8629,32.12951],[23.87095,32.12625],[23.86919,32.11832],[23.87281,32.11824],[23.87383,32.12181],[23.90057,32.1176],[23.90576,32.11941],[23.91024,32.1179],[23.91069,32.113],[23.91716,32.11697],[23.92433,32.11474],[23.9295,32.10627],[23.93877,32.11287],[23.94163,32.10818],[23.94354,32.11096],[23.95195,32.10973],[23.95302,32.10534],[23.95945,32.10815],[23.98041,32.1029],[23.98176,32.09811],[23.98933,32.09884],[24.00952,32.0857],[24.00404,32.08249],[24.00785,32.07204],[23.96848,32.07941],[23.96561,32.07472],[23.96919,32.07336],[23.96994,32.06871],[23.97881,32.06311],[23.98786,32.06302],[24.01432,32.05421],[24.00997,32.04871],[24.01891,32.05226],[24.02846,32.04606],[24.02709,32.04166],[24.03577,32.04392],[24.04351,32.03305],[24.06275,32.02091],[24.08156,32.01749],[24.08746,32.0121],[24.1092,32.01131],[24.13292,32.00517],[24.18943,32.00129],[24.20041,31.99743],[24.22148,31.99866],[24.24356,32.00672],[24.25059,32.00354],[24.25987,32.00592],[24.2678,32.00288],[24.26889,32.00689],[24.28165,32.00343],[24.28236,32.00011],[24.2884,31.99972],[24.28833,32.00204],[24.29808,31.99865],[24.33703,31.99716],[24.34565,32.00158],[24.35412,32.0006],[24.3614,31.99921],[24.36669,31.99328],[24.37019,31.99759],[24.37567,31.99591],[24.37648,31.99901],[24.38568,31.9938],[24.38669,31.98997],[24.39045,31.99583],[24.40791,31.99695],[24.41275,31.99641],[24.41413,31.99014],[24.41686,31.99495],[24.42063,31.99503],[24.42257,31.99031],[24.42646,31.99129],[24.42512,31.99602],[24.44925,31.99587],[24.45817,31.98962],[24.46482,31.98898],[24.46896,31.99215],[24.49004,31.99334],[24.52457,31.98772],[24.52455,31.98271],[24.53037,31.98488],[24.54556,31.9808],[24.56762,31.99035],[24.60183,31.99692],[24.66394,32.02146],[24.68634,32.01853],[24.71007,32.02269],[24.73578,32.01994],[24.74311,32.01647],[24.76178,32.0177],[24.78326,32.00279],[24.82212,31.99202],[24.83539,31.99225],[24.83453,31.99018],[24.84361,31.98905],[24.84519,31.98573],[24.87476,31.98546],[24.87439,31.9816],[24.87944,31.97847],[24.90326,31.97874],[24.91061,31.97372],[24.93136,31.97611],[24.94206,31.96973],[24.95589,31.97176],[24.97074,31.96814],[24.97764,31.96966],[24.99681,31.96174],[24.9966,31.95788],[25.00313,31.95567],[25.00248,31.95078],[25.03295,31.93583],[25.0393,31.92745],[25.04097,31.92002],[25.0327,31.89778],[25.03162,31.87052],[25.02698,31.85528],[25.04395,31.82881],[25.05932,31.81362],[25.06384,31.80649],[25.06268,31.79696],[25.07147,31.79427],[25.07473,31.78917],[25.07223,31.78631],[25.07736,31.78587],[25.07722,31.77829],[25.07989,31.77974],[25.08544,31.7734],[25.08385,31.77055],[25.0944,31.76942],[25.09299,31.76477],[25.09614,31.76507],[25.09728,31.76124],[25.08801,31.75081],[25.09796,31.74968],[25.09756,31.75456],[25.10146,31.75551],[25.10813,31.75291],[25.12469,31.72231],[25.12969,31.72033],[25.12943,31.71107],[25.12148,31.70967],[25.12139,31.70709],[25.13117,31.70672],[25.13525,31.69779],[25.13368,31.69391],[25.14175,31.68117],[25.14001,31.67806],[25.14621,31.67609],[25.14929,31.65737],[25.13665,31.65339],[25.14366,31.66887],[25.13466,31.66977],[25.12717,31.64932],[25.10487,31.63481],[25.09059,31.62007],[25.07559,31.5879],[25.07647,31.55106],[24.98128,31.49986],[24.93865,31.46801],[24.90855,31.43977],[24.85954,31.40363],[24.86062,31.35457],[24.86879,31.33358],[24.87776,31.32162],[24.88347,31.30335],[24.88968,31.24661],[24.87913,31.22354],[24.87571,31.16337],[24.86889,31.15521],[24.88889,31.10731],[24.91499,31.06908],[24.93423,31.0143],[24.947,30.98963],[24.94743,30.96696],[24.98068,30.90041],[24.98746,30.87543],[24.98795,30.85448],[25.01607,30.7772],[25.0117,30.76305],[25.00035,30.7437],[24.98813,30.68631],[24.98064,30.67636],[24.98264,30.65561],[24.97843,30.63756],[24.9671,30.61556],[24.94965,30.59342],[24.94521,30.57528],[24.94923,30.54803],[24.94533,30.52177],[24.93006,30.49494],[24.92191,30.47061],[24.88341,30.43916],[24.8624,30.39896],[24.82657,30.35883],[24.80116,30.34131],[24.78255,30.32356],[24.77536,30.3103],[24.76887,30.27984],[24.72609,30.21872],[24.69677,30.15588],[24.70798,30.13677],[24.75426,30.08531],[24.76269,30.06494],[24.76663,30.0433],[24.78872,29.98117],[24.79466,29.96607],[24.80667,29.94911],[24.80883,29.94298],[24.8056,29.94012],[24.81189,29.91783],[24.82351,29.89846],[24.82484,29.87633],[24.81801,29.82736],[24.81848,29.80608],[24.9124,29.60886],[24.88415,29.58557],[24.87058,29.56217],[24.86496,29.53694],[24.8699,29.50481],[24.8806,29.48479],[24.89962,29.46525],[25,29.25311],[25,28.09322]]],[[[23.28684,32.2222],[23.27734,32.22905],[23.27447,32.23528],[23.27695,32.23767],[23.28729,32.23402],[23.28684,32.2222]]],[[[11.76525,33.09365],[11.76043,33.09569],[11.75786,33.10127],[11.74727,33.10433],[11.72935,33.10729],[11.71373,33.10584],[11.70696,33.11395],[11.69819,33.11684],[11.69956,33.12156],[11.68938,33.12345],[11.6887,33.12616],[11.76877,33.09884],[11.76961,33.09625],[11.76525,33.09365]]]]}}]}