{"type":"FeatureCollection","features":[{"type":"Feature","properties":{"ISO_A3":"LCA","WB_A3":"LCA","WB_NAME":"Saint Lucia","WB_REGION":"LCN"},"geometry":{"type":"MultiPolygon","coordinates":[[[[-61.05601,13.93485],[-61.05041,13.93455],[-61.04431,13.93888],[-61.04451,13.94609],[-61.03792,13.95725],[-61.03322,13.95937],[-61.03063,13.96607],[-61.02457,13.96551],[-61.03007,13.96942],[-61.02624,13.98561],[-61.01255,13.98267],[-61.01106,13.98729],[-61.01617,13.99171],[-61.01445,14.00767],[-61.00863,14.00891],[-61.00383,14.01556],[-61.00149,14.01155],[-60.99465,14.00956],[-60.98988,14.01184],[-60.99654,14.01351],[-61.00508,14.02356],[-60.99768,14.02453],[-60.99587,14.02091],[-60.99138,14.02138],[-60.97346,14.03488],[-60.97332,14.06553],[-60.96402,14.07228],[-60.95743,14.07158],[-60.95406,14.08005],[-60.95727,14.08961],[-60.96623,14.09174],[-60.96541,14.09444],[-60.95487,14.09242],[-60.9443,14.10933],[-60.93336,14.1082],[-60.93129,14.10407],[-60.92257,14.10476],[-60.91838,14.10086],[-60.91768,14.09159],[-60.92758,14.09038],[-60.92696,14.08613],[-60.92221,14.08647],[-60.91886,14.07769],[-60.9115,14.07441],[-60.91402,14.05885],[-60.90181,14.06685],[-60.89209,14.06149],[-60.88453,14.05164],[-60.88807,14.03982],[-60.89599,14.03937],[-60.89232,14.03728],[-60.89331,14.02905],[-60.88764,14.02926],[-60.88854,14.01768],[-60.88484,14.0179],[-60.88665,14.00787],[-60.88192,13.99109],[-60.87561,13.98898],[-60.87753,13.98178],[-60.87446,13.9712],[-60.8795,13.96316],[-60.87547,13.94674],[-60.87919,13.94445],[-60.87617,13.93841],[-60.87951,13.9375],[-60.87877,13.93183],[-60.88803,13.92843],[-60.89005,13.92472],[-60.89023,13.91854],[-60.88263,13.91332],[-60.88978,13.9099],[-60.89061,13.90592],[-60.88406,13.90174],[-60.88488,13.8984],[-60.88066,13.89862],[-60.88018,13.89321],[-60.88335,13.88976],[-60.88102,13.8882],[-60.88473,13.88527],[-60.88344,13.88268],[-60.8956,13.87944],[-60.89457,13.87569],[-60.89775,13.87443],[-60.89516,13.86977],[-60.88485,13.872],[-60.88416,13.86144],[-60.87795,13.86357],[-60.88049,13.85935],[-60.88827,13.85928],[-60.88333,13.83684],[-60.89151,13.836],[-60.89339,13.83126],[-60.88839,13.8307],[-60.88816,13.82722],[-60.89948,13.82848],[-60.89582,13.82574],[-60.8953,13.80938],[-60.90086,13.79243],[-60.89858,13.78237],[-60.90279,13.78215],[-60.901,13.77698],[-60.90711,13.77085],[-60.90449,13.7698],[-60.90505,13.7653],[-60.91071,13.76599],[-60.91338,13.7624],[-60.91276,13.7727],[-60.9253,13.76946],[-60.93168,13.76307],[-60.92672,13.75801],[-60.93926,13.74047],[-60.93788,13.73248],[-60.94706,13.72174],[-60.93922,13.71446],[-60.93913,13.71034],[-60.95691,13.71036],[-60.95846,13.71333],[-60.95504,13.7133],[-60.95195,13.71997],[-60.95455,13.72463],[-60.95964,13.72918],[-60.97703,13.72997],[-60.97971,13.73572],[-60.98948,13.73677],[-60.99367,13.74066],[-60.99582,13.75073],[-61.02478,13.75302],[-61.03633,13.75823],[-61.05956,13.78549],[-61.06874,13.79123],[-61.06761,13.8005],[-61.07848,13.80779],[-61.06267,13.8239],[-61.06237,13.82866],[-61.06826,13.8327],[-61.0594,13.85246],[-61.06291,13.85828],[-61.06846,13.85691],[-61.07395,13.86223],[-61.07896,13.8624],[-61.07893,13.88223],[-61.06593,13.90789],[-61.06666,13.91536],[-61.05976,13.91995],[-61.05707,13.92636],[-61.05859,13.93436],[-61.05601,13.93485]]]]}}]}