{"type":"FeatureCollection","features":[{"type":"Feature","properties":{"ISO_A3":"LKA","WB_A3":"LKA","WB_NAME":"Sri Lanka","WB_REGION":"SAS"},"geometry":{"type":"MultiPolygon","coordinates":[[[[81.82034,7.45146],[81.82469,7.434],[81.84092,7.40897],[81.86517,7.3303],[81.86753,7.28364],[81.85716,7.12409],[81.85841,7.10063],[81.86915,7.04931],[81.87865,7.02558],[81.86568,6.98539],[81.86772,6.97353],[81.84542,6.91196],[81.8445,6.89933],[81.83933,6.8938],[81.83418,6.90167],[81.83122,6.9009],[81.83042,6.88982],[81.8357,6.88452],[81.83957,6.88516],[81.83958,6.89212],[81.84502,6.9001],[81.84759,6.89804],[81.84409,6.88515],[81.84638,6.87278],[81.83153,6.8572],[81.8287,6.86507],[81.82149,6.87037],[81.81104,6.86742],[81.81707,6.85246],[81.82017,6.85052],[81.82559,6.85451],[81.83255,6.85347],[81.83241,6.84522],[81.83511,6.84096],[81.83975,6.84082],[81.84013,6.83773],[81.82307,6.81688],[81.82434,6.80502],[81.81942,6.78904],[81.82405,6.78104],[81.82325,6.76893],[81.81205,6.77578],[81.80663,6.77463],[81.80365,6.77025],[81.80378,6.76535],[81.81371,6.76894],[81.81822,6.76546],[81.82518,6.76764],[81.82621,6.76506],[81.81187,6.75013],[81.80256,6.7339],[81.80007,6.70839],[81.78664,6.69475],[81.77216,6.67028],[81.7724,6.65558],[81.77767,6.6481],[81.77106,6.62646],[81.76034,6.60791],[81.7629,6.59837],[81.74108,6.57636],[81.73772,6.56799],[81.73141,6.57186],[81.73076,6.56825],[81.73707,6.56696],[81.72647,6.54558],[81.71526,6.5474],[81.71629,6.54275],[81.7217,6.54094],[81.72377,6.54403],[81.72492,6.53784],[81.7059,6.5117],[81.70502,6.50462],[81.69276,6.48826],[81.66089,6.46472],[81.65843,6.45621],[81.64579,6.44489],[81.62439,6.43653],[81.61471,6.42636],[81.60273,6.42921],[81.59733,6.4345],[81.59706,6.43025],[81.61973,6.4212],[81.59909,6.4006],[81.56815,6.38401],[81.56273,6.37757],[81.55938,6.37963],[81.55499,6.37216],[81.56427,6.37396],[81.55731,6.36907],[81.53489,6.36574],[81.50627,6.35378],[81.49789,6.34476],[81.50046,6.33961],[81.49517,6.3311],[81.48408,6.32493],[81.48188,6.31281],[81.43948,6.29674],[81.42788,6.2863],[81.42736,6.2796],[81.42079,6.27651],[81.41666,6.26698],[81.41086,6.2644],[81.40157,6.25268],[81.38225,6.24728],[81.37413,6.24278],[81.37309,6.23736],[81.34243,6.2263],[81.33792,6.22269],[81.33843,6.21599],[81.32683,6.20903],[81.32489,6.20207],[81.2972,6.19848],[81.27994,6.1932],[81.2704,6.18676],[81.24077,6.18317],[81.23356,6.18047],[81.23253,6.17518],[81.22699,6.17273],[81.22647,6.16732],[81.19208,6.16256],[81.19131,6.16501],[81.19749,6.16656],[81.2029,6.17558],[81.21449,6.17712],[81.21501,6.18022],[81.22029,6.18202],[81.21515,6.19723],[81.19991,6.2005],[81.19956,6.19272],[81.21064,6.19182],[81.20909,6.18331],[81.21462,6.17815],[81.20368,6.17893],[81.19827,6.18589],[81.18771,6.19028],[81.1881,6.19312],[81.18371,6.19028],[81.18307,6.18461],[81.17946,6.18577],[81.17663,6.18255],[81.1801,6.17662],[81.17585,6.1694],[81.17894,6.16399],[81.18486,6.16231],[81.18383,6.15973],[81.16863,6.14762],[81.15369,6.14543],[81.14467,6.13809],[81.13257,6.1359],[81.12793,6.131],[81.12741,6.12559],[81.13102,6.12352],[81.09908,6.12056],[81.09573,6.11721],[81.06971,6.1118],[81.05503,6.11258],[81.05142,6.10884],[81.00326,6.10381],[80.97879,6.08976],[80.94144,6.08525],[80.93629,6.0779],[80.91955,6.0739],[80.90539,6.06616],[80.89354,6.065],[80.89624,6.06681],[80.8898,6.07274],[80.89843,6.07609],[80.8907,6.07815],[80.88916,6.0855],[80.88581,6.07738],[80.87873,6.07557],[80.88221,6.06487],[80.89199,6.06629],[80.87216,6.06074],[80.86341,6.04579],[80.83431,6.04604],[80.80392,6.03791],[80.79864,6.02991],[80.80032,6.02282],[80.79028,6.02089],[80.78152,6.00851],[80.74779,5.99973],[80.74574,5.99006],[80.73904,5.98812],[80.7366,5.98399],[80.73956,5.9809],[80.73802,5.9742],[80.73132,5.98167],[80.72294,5.97975],[80.7182,5.96272],[80.71099,5.9622],[80.70764,5.96503],[80.70738,5.96181],[80.69991,5.96167],[80.69811,5.96606],[80.65125,5.95778],[80.64404,5.9552],[80.6425,5.94759],[80.63954,5.94656],[80.63709,5.95042],[80.62525,5.949],[80.61753,5.93855],[80.62037,5.93494],[80.59449,5.92796],[80.59411,5.92216],[80.58793,5.92138],[80.58277,5.93414],[80.57376,5.94032],[80.54208,5.94507],[80.54156,5.94893],[80.53771,5.9421],[80.52149,5.93783],[80.49496,5.9427],[80.47849,5.93934],[80.46071,5.9468],[80.45531,5.94666],[80.45428,5.9437],[80.44758,5.94717],[80.45311,5.95233],[80.4531,5.96677],[80.43906,5.97488],[80.42644,5.97319],[80.41873,5.959],[80.40997,5.95951],[80.39091,5.96735],[80.37134,5.96965],[80.3363,5.98495],[80.33938,5.99178],[80.34505,5.99243],[80.34298,5.99707],[80.34839,5.99811],[80.34066,6.00274],[80.34065,6.00622],[80.33318,6.0075],[80.32931,6.01768],[80.32468,6.01664],[80.31952,6.02205],[80.31681,6.0223],[80.32083,6.00413],[80.31645,6.00258],[80.33565,5.99294],[80.33604,5.9852],[80.31312,5.99407],[80.26495,6.00174],[80.25026,6.01203],[80.24318,6.00854],[80.23674,6.01549],[80.24264,6.03097],[80.23838,6.03522],[80.22138,6.03816],[80.21804,6.03222],[80.22024,6.02707],[80.21767,6.02655],[80.20941,6.0384],[80.1915,6.04585],[80.18041,6.05434],[80.1786,6.06284],[80.15114,6.08085],[80.12638,6.10246],[80.1225,6.11457],[80.10006,6.13335],[80.0994,6.1483],[80.10325,6.15347],[80.11394,6.15013],[80.11692,6.14459],[80.12284,6.1446],[80.12077,6.14808],[80.12255,6.16342],[80.11626,6.15426],[80.11239,6.15503],[80.11122,6.15967],[80.1102,6.15348],[80.10299,6.15463],[80.09913,6.15037],[80.08415,6.1747],[80.06313,6.19361],[80.06388,6.20521],[80.05315,6.2302],[80.06809,6.22623],[80.0802,6.22664],[80.08123,6.2296],[80.07633,6.22766],[80.0722,6.23255],[80.07581,6.23282],[80.07503,6.23591],[80.06781,6.23976],[80.06846,6.23538],[80.0646,6.23486],[80.06397,6.2297],[80.0534,6.23136],[80.05301,6.23639],[80.03828,6.2575],[80.03336,6.27063],[80.03567,6.27837],[80.03398,6.28662],[80.03796,6.29591],[80.03484,6.30698],[80.02852,6.31522],[80.03069,6.32528],[80.02835,6.33404],[80.00869,6.37782],[80.00322,6.40488],[79.99547,6.41904],[79.99519,6.42858],[79.99854,6.42962],[79.99349,6.44224],[79.98033,6.45072],[79.97502,6.46179],[79.97371,6.4721],[79.98028,6.47495],[79.98323,6.4814],[79.98243,6.49326],[79.97739,6.50446],[79.98188,6.51285],[79.96594,6.55457],[79.96309,6.56514],[79.96422,6.57597],[79.95917,6.5891],[79.96715,6.59402],[79.98308,6.62111],[79.98952,6.62216],[79.99054,6.62809],[80.00317,6.62928],[80.01166,6.63483],[80.0189,6.62776],[80.02483,6.62713],[80.02848,6.60329],[80.02831,6.62353],[80.0256,6.62816],[80.01915,6.62879],[80.01037,6.63702],[80.00471,6.63057],[79.9895,6.62963],[79.98797,6.62332],[79.98204,6.62317],[79.96946,6.59982],[79.95466,6.58909],[79.92912,6.65915],[79.90102,6.71537],[79.90539,6.71967],[79.90368,6.73462],[79.89656,6.75033],[79.89788,6.75385],[79.89396,6.75625],[79.89679,6.76296],[79.88748,6.77351],[79.8925,6.77635],[79.89857,6.77121],[79.89846,6.76503],[79.9128,6.7648],[79.91769,6.75631],[79.9101,6.74701],[79.91897,6.75006],[79.91959,6.756],[79.92634,6.74872],[79.93998,6.74875],[79.9475,6.74387],[79.95626,6.74646],[79.96104,6.74274],[79.9626,6.73475],[79.96245,6.743],[79.95651,6.7475],[79.94878,6.74439],[79.9426,6.74926],[79.92414,6.75116],[79.92246,6.75632],[79.9289,6.75813],[79.91018,6.76943],[79.91572,6.77202],[79.91389,6.78246],[79.90963,6.78464],[79.90742,6.79456],[79.90471,6.79546],[79.90757,6.78386],[79.90514,6.77625],[79.90179,6.77521],[79.89558,6.781],[79.88888,6.78189],[79.88618,6.77737],[79.89214,6.76576],[79.89216,6.75702],[79.90328,6.72413],[79.9014,6.71889],[79.86338,6.82423],[79.85784,6.87474],[79.84028,6.93785],[79.8445,6.9541],[79.84656,6.95307],[79.84517,6.94276],[79.84904,6.94225],[79.85673,6.96263],[79.86806,6.96936],[79.86959,6.97912],[79.87448,6.98136],[79.88016,6.98176],[79.88417,6.97795],[79.878,6.965],[79.88125,6.95651],[79.89956,6.95706],[79.89638,6.95159],[79.90034,6.95797],[79.8828,6.95638],[79.8797,6.96571],[79.88521,6.97275],[79.88519,6.9792],[79.88196,6.9828],[79.86945,6.98174],[79.86837,7.00236],[79.84229,7.11416],[79.82852,7.15408],[79.81729,7.20302],[79.82051,7.20857],[79.82566,7.20936],[79.82439,7.20471],[79.82904,7.20254],[79.82354,7.18268],[79.83356,7.15048],[79.8386,7.14714],[79.83877,7.13142],[79.84421,7.12267],[79.84449,7.11262],[79.85188,7.09846],[79.8554,7.08223],[79.86416,7.08844],[79.86312,7.09411],[79.87034,7.09387],[79.87302,7.10573],[79.86927,7.10817],[79.87713,7.11296],[79.86751,7.14541],[79.86685,7.15082],[79.87032,7.15392],[79.86317,7.17607],[79.85202,7.19821],[79.84918,7.20001],[79.83873,7.19689],[79.83819,7.20771],[79.83498,7.20075],[79.82889,7.20924],[79.83866,7.22267],[79.84251,7.27289],[79.85236,7.27339],[79.84189,7.27474],[79.81962,7.39892],[79.80161,7.47104],[79.78954,7.53828],[79.78625,7.60709],[79.79438,7.60995],[79.79989,7.62466],[79.79841,7.69373],[79.78527,7.77127],[79.74368,7.93765],[79.70581,8.05764],[79.70726,8.09089],[79.7015,8.11227],[79.70472,8.15635],[79.69226,8.21043],[79.70233,8.21652],[79.71293,8.21681],[79.73048,8.2322],[79.74558,8.28302],[79.75845,8.3042],[79.76471,8.32973],[79.77037,8.34006],[79.77518,8.37384],[79.77931,8.37669],[79.78542,8.37052],[79.77196,8.32976],[79.76794,8.33026],[79.76553,8.31608],[79.76101,8.31194],[79.75977,8.29737],[79.7528,8.2913],[79.75725,8.27417],[79.75466,8.27403],[79.75056,8.26397],[79.75625,8.26399],[79.75899,8.26769],[79.76065,8.26181],[79.75189,8.25237],[79.7511,8.25456],[79.73896,8.25027],[79.72945,8.22988],[79.73437,8.22796],[79.74005,8.23043],[79.74726,8.24102],[79.75089,8.24026],[79.7643,8.25525],[79.76764,8.26247],[79.77695,8.26147],[79.77761,8.2589],[79.76538,8.24082],[79.7702,8.22898],[79.76907,8.21725],[79.75663,8.22494],[79.75018,8.21951],[79.74487,8.21936],[79.74372,8.21588],[79.74088,8.21626],[79.74099,8.22064],[79.73284,8.22151],[79.74399,8.21446],[79.7405,8.21059],[79.7422,8.20479],[79.73923,8.20388],[79.73939,8.19486],[79.74639,8.19024],[79.74913,8.18252],[79.7432,8.1758],[79.74439,8.1664],[79.73885,8.16006],[79.74057,8.14924],[79.73826,8.14421],[79.73308,8.14419],[79.72806,8.13787],[79.72746,8.12188],[79.73434,8.11546],[79.73591,8.10928],[79.73333,8.10721],[79.73107,8.0853],[79.74056,8.06986],[79.75376,8.065],[79.74177,8.05337],[79.74519,8.03508],[79.7362,8.01572],[79.74881,7.99153],[79.78686,7.97863],[79.81039,7.97767],[79.8165,7.96673],[79.80801,7.95099],[79.81306,7.94997],[79.82015,7.95592],[79.8189,7.93942],[79.82206,7.92138],[79.81651,7.91583],[79.82013,7.91674],[79.81963,7.91107],[79.82401,7.91804],[79.82172,7.95051],[79.82554,7.96856],[79.81913,7.99715],[79.82895,7.99796],[79.83242,8.00595],[79.83617,8.00622],[79.83602,8.01086],[79.82964,8.02914],[79.79267,8.06796],[79.79564,8.07054],[79.79616,8.06758],[79.80393,8.06619],[79.81062,8.07574],[79.80583,8.07985],[79.80684,8.0863],[79.81367,8.09366],[79.81056,8.09688],[79.81624,8.10076],[79.82033,8.11701],[79.82344,8.11521],[79.82393,8.12346],[79.83919,8.12428],[79.83033,8.14642],[79.83433,8.14901],[79.83277,8.15287],[79.82097,8.16263],[79.81901,8.17062],[79.82328,8.1714],[79.81691,8.17989],[79.82494,8.17836],[79.81864,8.20644],[79.79907,8.22223],[79.81213,8.22137],[79.80059,8.23281],[79.79024,8.232],[79.81014,8.23812],[79.81858,8.27216],[79.82604,8.28585],[79.83405,8.28896],[79.83353,8.29231],[79.84129,8.29285],[79.84428,8.2877],[79.84237,8.27842],[79.84471,8.27288],[79.84807,8.27354],[79.84805,8.28153],[79.85192,8.28438],[79.84388,8.29208],[79.84696,8.29995],[79.84101,8.30058],[79.83815,8.3047],[79.83916,8.31127],[79.84613,8.31864],[79.84585,8.32547],[79.84093,8.32687],[79.84169,8.33358],[79.83714,8.34104],[79.84616,8.35086],[79.8426,8.41812],[79.84438,8.42946],[79.84732,8.44056],[79.8556,8.44341],[79.8645,8.45246],[79.86146,8.47488],[79.86545,8.48365],[79.86867,8.53031],[79.87473,8.54038],[79.87629,8.53742],[79.8838,8.53667],[79.90733,8.54859],[79.91613,8.54926],[79.9205,8.56371],[79.92807,8.5639],[79.91918,8.56938],[79.91874,8.58871],[79.93331,8.61272],[79.94081,8.61635],[79.94595,8.62925],[79.9429,8.65553],[79.94947,8.66637],[79.95203,8.67901],[79.94948,8.70916],[79.95928,8.72646],[79.94183,8.75811],[79.93087,8.7872],[79.92242,8.79723],[79.92474,8.80188],[79.92927,8.80292],[79.92472,8.80652],[79.92575,8.81168],[79.91939,8.81372],[79.92521,8.81786],[79.92104,8.82713],[79.92414,8.82804],[79.92281,8.84079],[79.92589,8.85111],[79.93018,8.84777],[79.92928,8.84339],[79.93147,8.84752],[79.93053,8.85821],[79.93528,8.87356],[79.93226,8.88708],[79.89098,8.95642],[79.89602,8.96069],[79.90134,8.958],[79.90254,8.94705],[79.89303,8.95085],[79.90906,8.93483],[79.9109,8.92607],[79.92001,8.91347],[79.92234,8.91476],[79.92231,8.92224],[79.91596,8.92428],[79.91475,8.93665],[79.90398,8.94177],[79.91314,8.95713],[79.91833,8.95547],[79.91383,8.94257],[79.92302,8.94724],[79.91568,8.97518],[79.89781,8.96985],[79.89394,8.96223],[79.88797,8.96466],[79.88562,8.97149],[79.88381,8.96839],[79.88004,8.97186],[79.84428,9.01066],[79.81543,9.03299],[79.75205,9.06616],[79.72635,9.07458],[79.6973,9.07834],[79.69713,9.08929],[79.70189,9.10103],[79.70655,9.10311],[79.73142,9.10784],[79.75269,9.10611],[79.79006,9.09902],[79.85444,9.07745],[79.86509,9.07078],[79.90019,9.0388],[79.90983,9.02246],[79.92594,9.01246],[79.92569,9.00949],[79.91687,9.01127],[79.9114,9.01937],[79.87038,9.03678],[79.87691,9.01979],[79.8894,9.00616],[79.9024,8.99525],[79.92524,8.98385],[79.92669,8.97509],[79.9162,8.97506],[79.92336,8.94733],[79.9308,8.94649],[79.93172,8.93928],[79.92226,8.94092],[79.92227,8.93873],[79.92929,8.93102],[79.93603,8.92898],[79.94828,8.9382],[79.94533,8.94047],[79.93769,8.93775],[79.93421,8.93284],[79.93122,8.93592],[79.93184,8.94366],[79.95075,8.94887],[79.95409,8.95867],[79.9634,8.96617],[79.97402,8.97123],[79.98309,8.97009],[79.99265,8.98094],[79.99393,8.98739],[80.00794,8.98537],[80.01334,8.99878],[80.02086,9.00099],[80.0258,8.99534],[80.0354,8.99214],[80.03835,9.00323],[80.03367,9.00709],[80.03405,9.01082],[80.05115,9.01615],[80.05166,9.01834],[80.04803,9.01859],[80.05087,9.02633],[80.06071,9.02932],[80.06407,9.03371],[80.0648,9.05202],[80.07128,9.05435],[80.07606,9.06055],[80.07397,9.06415],[80.07808,9.07885],[80.07016,9.08657],[80.07144,9.09237],[80.07753,9.09251],[80.0807,9.12178],[80.08768,9.13069],[80.08495,9.13197],[80.0874,9.13842],[80.08325,9.13892],[80.09853,9.14798],[80.09708,9.15545],[80.10289,9.16745],[80.10106,9.17299],[80.10609,9.18228],[80.10736,9.19389],[80.11062,9.18771],[80.11239,9.20421],[80.11422,9.19828],[80.11772,9.20216],[80.11967,9.19804],[80.12185,9.2099],[80.11898,9.21453],[80.12078,9.2233],[80.11711,9.23824],[80.12224,9.25965],[80.1108,9.2707],[80.11027,9.27612],[80.11478,9.28618],[80.12022,9.2898],[80.12282,9.28826],[80.12489,9.29278],[80.13137,9.29241],[80.13266,9.29911],[80.13071,9.30039],[80.12942,9.29421],[80.12514,9.29394],[80.11629,9.30758],[80.08509,9.32992],[80.07704,9.3339],[80.07341,9.32899],[80.06679,9.33322],[80.06039,9.34867],[80.06283,9.35796],[80.05424,9.36799],[80.0567,9.36903],[80.05378,9.39118],[80.0727,9.40348],[80.11082,9.41646],[80.14478,9.43549],[80.15604,9.44609],[80.1637,9.44688],[80.16605,9.44276],[80.16268,9.43682],[80.164,9.43025],[80.16867,9.43014],[80.1697,9.43387],[80.16568,9.43245],[80.1658,9.43709],[80.1702,9.44071],[80.1698,9.44663],[80.16186,9.45564],[80.17118,9.46739],[80.18363,9.47322],[80.18529,9.48121],[80.18554,9.4874],[80.17837,9.50001],[80.15025,9.53229],[80.10081,9.57147],[80.05348,9.59815],[80.06019,9.61131],[80.06475,9.60772],[80.0623,9.60204],[80.09244,9.59349],[80.09661,9.58821],[80.10804,9.58721],[80.10806,9.58025],[80.11431,9.57434],[80.12728,9.57747],[80.1437,9.55715],[80.17308,9.54227],[80.17879,9.54086],[80.1954,9.54541],[80.19864,9.56703],[80.19397,9.54361],[80.19567,9.54052],[80.20944,9.53694],[80.21283,9.53063],[80.21789,9.53258],[80.218,9.53954],[80.22657,9.53981],[80.22905,9.53569],[80.22737,9.53054],[80.24349,9.52284],[80.2448,9.51743],[80.26532,9.51361],[80.28184,9.49946],[80.28302,9.49354],[80.27939,9.48928],[80.27185,9.49313],[80.27263,9.49545],[80.26509,9.49698],[80.26484,9.49453],[80.24847,9.5021],[80.24926,9.49347],[80.25861,9.49465],[80.25499,9.48897],[80.25681,9.48704],[80.27682,9.47741],[80.2654,9.47662],[80.2571,9.47196],[80.25268,9.47427],[80.24906,9.46924],[80.24749,9.47606],[80.24281,9.47683],[80.23789,9.47334],[80.24595,9.46678],[80.25295,9.46783],[80.27894,9.45577],[80.29971,9.45671],[80.31034,9.4606],[80.31656,9.46693],[80.30785,9.4758],[80.33318,9.46399],[80.31916,9.46526],[80.32281,9.45753],[80.32931,9.45561],[80.33372,9.45678],[80.33992,9.47393],[80.35005,9.46751],[80.36692,9.47205],[80.37365,9.48134],[80.39065,9.48472],[80.39167,9.49684],[80.39659,9.50587],[80.39203,9.51101],[80.39281,9.51437],[80.40216,9.51374],[80.40565,9.51877],[80.398,9.51554],[80.39799,9.51902],[80.39124,9.51991],[80.38774,9.51487],[80.38268,9.51486],[80.37083,9.53186],[80.35327,9.54909],[80.34158,9.55564],[80.32935,9.56851],[80.3291,9.56232],[80.31622,9.57171],[80.29555,9.58713],[80.29034,9.59563],[80.2313,9.62914],[80.20894,9.64004],[80.20305,9.64148],[80.20193,9.63861],[80.18996,9.64811],[80.17098,9.65606],[80.15659,9.64559],[80.16426,9.64277],[80.16944,9.64742],[80.17313,9.62836],[80.17029,9.62178],[80.15937,9.62394],[80.17289,9.61959],[80.17625,9.62424],[80.19287,9.6248],[80.19795,9.61888],[80.19497,9.61617],[80.18925,9.61821],[80.19199,9.61397],[80.19032,9.60649],[80.18201,9.60544],[80.17953,9.61317],[80.17006,9.60889],[80.17319,9.60348],[80.1854,9.6021],[80.18475,9.59926],[80.19293,9.60263],[80.19009,9.59321],[80.20855,9.58655],[80.20362,9.58139],[80.19687,9.58253],[80.16982,9.59858],[80.14275,9.62351],[80.09594,9.64556],[80.07027,9.66358],[80.06888,9.6616],[80.07642,9.65878],[80.07437,9.65079],[80.07698,9.64461],[80.09779,9.63513],[80.10014,9.62972],[80.11184,9.62331],[80.11758,9.61379],[80.13266,9.60906],[80.13137,9.60673],[80.09965,9.61709],[80.06816,9.6402],[80.05178,9.64815],[80.04424,9.65006],[80.03984,9.64592],[80.02061,9.64909],[80.00524,9.66194],[79.99033,9.64144],[79.99961,9.63666],[79.99234,9.63561],[79.98722,9.63834],[79.98403,9.63507],[79.98224,9.62295],[79.97383,9.61262],[79.96201,9.61387],[79.95238,9.62273],[79.93703,9.63016],[79.91755,9.63268],[79.90513,9.61563],[79.89968,9.61638],[79.89238,9.62306],[79.86244,9.60685],[79.8586,9.59189],[79.86088,9.57038],[79.85725,9.56805],[79.84271,9.56749],[79.80477,9.57689],[79.80356,9.58887],[79.8081,9.58966],[79.81079,9.59895],[79.80675,9.60254],[79.81057,9.62524],[79.81394,9.62679],[79.815,9.6219],[79.82057,9.62553],[79.81987,9.60182],[79.82521,9.59591],[79.83496,9.59413],[79.83507,9.59852],[79.84754,9.59727],[79.84117,9.60111],[79.84127,9.60859],[79.8379,9.606],[79.83921,9.60356],[79.83569,9.60651],[79.82466,9.60505],[79.82334,9.61214],[79.83933,9.60966],[79.83477,9.61217],[79.84048,9.61348],[79.84383,9.61968],[79.86179,9.60724],[79.89212,9.62345],[79.86883,9.63935],[79.8654,9.65558],[79.85784,9.66122],[79.84688,9.6769],[79.84542,9.68824],[79.85061,9.68877],[79.84136,9.69776],[79.84095,9.70317],[79.84849,9.70049],[79.86372,9.70308],[79.87189,9.69297],[79.88616,9.69946],[79.90011,9.68301],[79.89507,9.675],[79.89951,9.6696],[79.92234,9.67741],[79.92155,9.68037],[79.93429,9.67744],[79.93275,9.66958],[79.93041,9.67034],[79.93147,9.66545],[79.92472,9.66234],[79.9453,9.64526],[79.96715,9.63231],[79.98144,9.633],[79.98091,9.63545],[79.98704,9.63852],[79.9853,9.64319],[79.99015,9.64162],[80.0049,9.66202],[79.99938,9.66965],[79.99855,9.68692],[79.98931,9.69192],[79.9844,9.68494],[79.98037,9.68532],[79.98075,9.68841],[79.96995,9.69405],[79.96702,9.70573],[79.9576,9.69929],[79.95618,9.69401],[79.9449,9.68985],[79.93669,9.6991],[79.9377,9.70606],[79.93093,9.713],[79.93323,9.72229],[79.92005,9.74402],[79.89343,9.7402],[79.88879,9.72782],[79.89183,9.71197],[79.87991,9.70369],[79.85065,9.71403],[79.86062,9.72515],[79.86097,9.73597],[79.85495,9.74987],[79.86076,9.75994],[79.86465,9.76266],[79.88076,9.76116],[79.89789,9.76676],[79.89972,9.76316],[79.89452,9.76392],[79.89754,9.75413],[79.89408,9.74123],[79.92004,9.74441],[79.91378,9.75251],[79.90806,9.75468],[79.90557,9.76137],[79.90749,9.77143],[79.91267,9.77596],[79.93059,9.77795],[79.94355,9.78675],[79.94717,9.79488],[79.97052,9.80552],[80.01466,9.81596],[80.03961,9.81784],[80.07029,9.81135],[80.10252,9.80899],[80.13263,9.82041],[80.12759,9.80944],[80.12907,9.79243],[80.12259,9.78468],[80.12585,9.7798],[80.12779,9.78264],[80.13053,9.77981],[80.13368,9.78248],[80.12987,9.78522],[80.13168,9.78857],[80.13739,9.79117],[80.131,9.79837],[80.13281,9.80353],[80.13032,9.81125],[80.13964,9.82506],[80.16952,9.82488],[80.19161,9.82816],[80.20822,9.83503],[80.25113,9.82623],[80.2767,9.77628],[80.31945,9.71374],[80.36397,9.66253],[80.54211,9.51846],[80.6719,9.41911],[80.66412,9.41549],[80.66218,9.40814],[80.65439,9.41058],[80.65335,9.41329],[80.65763,9.41342],[80.65685,9.41755],[80.65048,9.42579],[80.63775,9.43261],[80.62711,9.43234],[80.63309,9.42719],[80.64503,9.42527],[80.64894,9.41161],[80.664,9.40647],[80.68088,9.39334],[80.68401,9.38509],[80.70816,9.37222],[80.7144,9.35431],[80.72271,9.35058],[80.71868,9.36372],[80.69958,9.38691],[80.67217,9.40983],[80.67152,9.41653],[80.67385,9.41756],[80.74088,9.35085],[80.78918,9.31544],[80.81254,9.29161],[80.82476,9.26249],[80.84514,9.22976],[80.85735,9.18336],[80.88254,9.12717],[80.8767,9.12704],[80.87216,9.13078],[80.87021,9.14212],[80.86333,9.14908],[80.86074,9.14959],[80.8597,9.14624],[80.85607,9.15088],[80.85542,9.15397],[80.85879,9.15565],[80.84504,9.16132],[80.83531,9.15989],[80.82403,9.14855],[80.82741,9.14262],[80.83597,9.14391],[80.83857,9.13785],[80.8645,9.13748],[80.86334,9.13052],[80.87294,9.11841],[80.87022,9.11557],[80.86451,9.11789],[80.86361,9.11299],[80.87126,9.10526],[80.8745,9.10578],[80.87372,9.11016],[80.88474,9.12589],[80.93962,9.02794],[80.96322,8.99237],[80.95064,8.98799],[80.92471,9.02433],[80.9011,9.04843],[80.89254,9.04984],[80.8893,9.04469],[80.89073,9.03785],[80.87699,9.03179],[80.87673,9.02457],[80.89256,9.0095],[80.90319,9.00396],[80.90189,8.99983],[80.9098,9.00035],[80.92264,9.00938],[80.92354,9.00216],[80.91758,8.99726],[80.91538,8.98953],[80.91927,8.98927],[80.91936,8.98554],[80.92368,8.98837],[80.92394,8.98463],[80.91551,8.9787],[80.92601,8.97032],[80.9299,8.97123],[80.9264,8.96375],[80.91772,8.96852],[80.91461,8.96671],[80.90916,8.97032],[80.90631,8.96813],[80.90605,8.95988],[80.90929,8.95627],[80.90567,8.94905],[80.9115,8.9524],[80.91254,8.93874],[80.92304,8.9341],[80.92395,8.92869],[80.93121,8.93746],[80.93587,8.92972],[80.94391,8.92869],[80.94767,8.93849],[80.93976,8.9421],[80.95324,8.95151],[80.9605,8.94816],[80.96387,8.95009],[80.96374,8.95937],[80.95829,8.96943],[80.9605,8.97819],[80.9675,8.98567],[81.00328,8.93501],[80.99576,8.93179],[80.99343,8.92612],[81.00665,8.93772],[81.00898,8.93514],[81.01611,8.91349],[81.01365,8.91078],[81.01028,8.91516],[81.00859,8.90704],[81.01352,8.9055],[81.0152,8.8939],[81.01961,8.8948],[81.01818,8.9122],[81.03918,8.88049],[81.06367,8.85858],[81.07119,8.85857],[81.06548,8.84453],[81.06133,8.84233],[81.05758,8.84362],[81.05861,8.84826],[81.05473,8.85471],[81.052,8.85639],[81.04604,8.85188],[81.05226,8.85213],[81.05693,8.84852],[81.05939,8.8395],[81.05459,8.83473],[81.05667,8.83241],[81.0603,8.84027],[81.07325,8.83692],[81.07481,8.86167],[81.08466,8.85934],[81.09593,8.82789],[81.11937,8.79308],[81.10849,8.79502],[81.09515,8.8132],[81.09605,8.80701],[81.1015,8.8034],[81.10046,8.79773],[81.10512,8.79721],[81.1094,8.79154],[81.11847,8.78922],[81.12248,8.79128],[81.13802,8.77117],[81.14774,8.76652],[81.16276,8.7428],[81.17429,8.73403],[81.16755,8.72746],[81.15848,8.72849],[81.14527,8.74332],[81.13762,8.73095],[81.13878,8.72399],[81.14241,8.72373],[81.14397,8.73714],[81.15122,8.72927],[81.16651,8.72656],[81.16158,8.71444],[81.16391,8.71109],[81.17039,8.71276],[81.17389,8.70902],[81.17168,8.69021],[81.18229,8.68118],[81.18047,8.66417],[81.18945,8.66451],[81.18928,8.6737],[81.1917,8.67541],[81.17828,8.69433],[81.17544,8.70902],[81.17246,8.7125],[81.16262,8.71418],[81.16962,8.72681],[81.17662,8.72913],[81.20315,8.67859],[81.22567,8.65306],[81.22359,8.63656],[81.22656,8.62754],[81.22086,8.6229],[81.21827,8.62496],[81.21412,8.61981],[81.21128,8.62329],[81.2004,8.62471],[81.19949,8.61827],[81.20557,8.61015],[81.21062,8.61362],[81.2092,8.6211],[81.21594,8.61826],[81.21969,8.62109],[81.22098,8.6046],[81.23171,8.58152],[81.24052,8.57648],[81.24583,8.58293],[81.24544,8.57622],[81.23883,8.57107],[81.24646,8.55972],[81.2449,8.54426],[81.22702,8.5355],[81.2291,8.54646],[81.22159,8.54273],[81.23416,8.56154],[81.22731,8.57417],[81.22213,8.57456],[81.2128,8.56864],[81.21047,8.57186],[81.22006,8.58036],[81.22006,8.5841],[81.20684,8.5707],[81.19856,8.5778],[81.1983,8.5729],[81.1939,8.5738],[81.19234,8.56955],[81.19868,8.56826],[81.19182,8.56298],[81.19259,8.55408],[81.20554,8.55614],[81.20424,8.55214],[81.19375,8.54893],[81.19375,8.54583],[81.20269,8.54299],[81.20165,8.53951],[81.2054,8.53526],[81.2019,8.53513],[81.20087,8.52985],[81.20734,8.52546],[81.21018,8.50909],[81.1971,8.50587],[81.1905,8.5131],[81.1861,8.51194],[81.18856,8.53037],[81.18481,8.5363],[81.17976,8.53604],[81.18131,8.5314],[81.17756,8.52586],[81.16798,8.53798],[81.15296,8.54701],[81.14623,8.53889],[81.14726,8.52987],[81.14208,8.52884],[81.14182,8.52343],[81.13172,8.52072],[81.12977,8.51596],[81.12447,8.51647],[81.11449,8.50977],[81.11048,8.49302],[81.12368,8.4907],[81.12226,8.48786],[81.12549,8.48348],[81.13326,8.48554],[81.133,8.47909],[81.1286,8.47471],[81.14646,8.47445],[81.15125,8.48269],[81.14634,8.49816],[81.1488,8.50487],[81.16318,8.50821],[81.16382,8.4997],[81.16357,8.51092],[81.16719,8.51182],[81.1671,8.50211],[81.16797,8.51104],[81.17224,8.5113],[81.17599,8.50279],[81.17456,8.49532],[81.17793,8.49557],[81.17794,8.50924],[81.19075,8.50588],[81.19424,8.48525],[81.20161,8.47262],[81.19281,8.46399],[81.19552,8.46154],[81.20031,8.46308],[81.20122,8.4605],[81.18231,8.45046],[81.18852,8.44736],[81.18788,8.45084],[81.19487,8.45754],[81.1972,8.45573],[81.20135,8.45947],[81.20342,8.45406],[81.20808,8.45534],[81.202,8.46437],[81.20808,8.46746],[81.22284,8.46088],[81.25287,8.46215],[81.24899,8.4597],[81.24096,8.46125],[81.24018,8.45777],[81.24924,8.4548],[81.25158,8.45815],[81.25714,8.45789],[81.25831,8.46343],[81.27618,8.46522],[81.27514,8.45633],[81.28057,8.45414],[81.28083,8.45001],[81.28751,8.45102],[81.28005,8.45117],[81.28187,8.45762],[81.28873,8.45967],[81.28977,8.46483],[81.28627,8.45929],[81.27643,8.45697],[81.27605,8.46174],[81.27902,8.46174],[81.27799,8.46638],[81.2833,8.47205],[81.28797,8.48623],[81.28061,8.5075],[81.30185,8.50916],[81.31195,8.51431],[81.3174,8.52526],[81.32258,8.52461],[81.33059,8.5139],[81.35375,8.49571],[81.35271,8.48772],[81.3633,8.45471],[81.38134,8.37659],[81.38599,8.36575],[81.39285,8.35956],[81.38948,8.3566],[81.38664,8.3633],[81.38301,8.36473],[81.3799,8.36086],[81.37615,8.36396],[81.36532,8.40161],[81.3551,8.41554],[81.34682,8.41245],[81.33904,8.40369],[81.3393,8.39879],[81.34629,8.3975],[81.35172,8.39234],[81.35145,8.38435],[81.35869,8.37313],[81.35261,8.37249],[81.35454,8.36488],[81.36566,8.35624],[81.36462,8.34747],[81.36876,8.34566],[81.37187,8.35004],[81.37136,8.3619],[81.37731,8.357],[81.37742,8.33921],[81.37744,8.35339],[81.38352,8.35738],[81.38986,8.3557],[81.38945,8.32476],[81.41148,8.23013],[81.41483,8.21827],[81.42297,8.20666],[81.42618,8.18732],[81.4329,8.17829],[81.43687,8.14001],[81.44926,8.11795],[81.46012,8.11072],[81.4579,8.09397],[81.47065,8.04781],[81.48265,8.02382],[81.50137,8.00215],[81.50861,7.99711],[81.51533,7.99684],[81.52489,7.98562],[81.53109,7.98342],[81.54247,7.98817],[81.5479,7.98585],[81.55218,7.99177],[81.55346,7.98764],[81.55255,7.98416],[81.54272,7.97812],[81.53882,7.9642],[81.53495,7.96769],[81.52331,7.9659],[81.50664,7.97842],[81.49787,7.99519],[81.47138,8.00695],[81.47732,7.99908],[81.48663,7.99649],[81.5016,7.97882],[81.50484,7.98049],[81.5065,7.96914],[81.51685,7.97042],[81.51866,7.96655],[81.52667,7.96448],[81.52641,7.9619],[81.53493,7.95648],[81.53234,7.94746],[81.53854,7.94461],[81.53155,7.94217],[81.53051,7.93728],[81.52029,7.932],[81.51265,7.92157],[81.51418,7.90507],[81.51095,7.90108],[81.51881,7.88432],[81.51376,7.88071],[81.51816,7.88071],[81.51828,7.87284],[81.52447,7.85879],[81.52809,7.85956],[81.53544,7.84924],[81.54008,7.83866],[81.53891,7.83247],[81.54511,7.83182],[81.54718,7.82834],[81.54252,7.82744],[81.53607,7.83286],[81.53154,7.83119],[81.53192,7.82655],[81.5128,7.8307],[81.5115,7.82503],[81.51485,7.82039],[81.51122,7.80931],[81.5151,7.81369],[81.52053,7.81316],[81.52183,7.8169],[81.52777,7.81651],[81.52881,7.82063],[81.53295,7.82088],[81.53553,7.8174],[81.5438,7.81906],[81.55053,7.82601],[81.55093,7.8322],[81.54099,7.8433],[81.54461,7.84407],[81.54384,7.84819],[81.53932,7.84743],[81.5339,7.85774],[81.52512,7.86446],[81.51945,7.87942],[81.52295,7.88483],[81.51482,7.89901],[81.51948,7.90545],[81.51601,7.92221],[81.52028,7.91912],[81.52921,7.92722],[81.54136,7.92708],[81.55197,7.93325],[81.55379,7.94227],[81.55715,7.94278],[81.56167,7.93736],[81.56205,7.92783],[81.56515,7.92537],[81.57549,7.92665],[81.58169,7.92161],[81.58298,7.91929],[81.56876,7.91828],[81.56369,7.89947],[81.56521,7.8809],[81.57784,7.84995],[81.59371,7.83085],[81.60223,7.82569],[81.61386,7.82309],[81.6202,7.82824],[81.63644,7.79625],[81.65179,7.7787],[81.67451,7.76371],[81.68537,7.76189],[81.68587,7.75054],[81.7047,7.73015],[81.70546,7.72061],[81.70933,7.71931],[81.71064,7.72962],[81.68924,7.75905],[81.70008,7.75181],[81.75304,7.66717],[81.77854,7.61995],[81.79653,7.56913],[81.82034,7.45146]],[[81.28764,8.45089],[81.28963,8.44678],[81.29688,8.44948],[81.29843,8.44536],[81.30102,8.44729],[81.29792,8.45477],[81.30245,8.45683],[81.30207,8.46237],[81.29728,8.45941],[81.2952,8.44987],[81.29092,8.44717],[81.28764,8.45089]],[[79.85209,7.27528],[79.85543,7.27761],[79.85651,7.27529],[79.85182,7.27799],[79.85209,7.27528]]],[[[81.53283,7.93109],[81.52624,7.93329],[81.52793,7.93573],[81.5331,7.94178],[81.5362,7.93998],[81.54578,7.94641],[81.54939,7.94138],[81.54577,7.93687],[81.53283,7.93109]]],[[[81.54009,7.94384],[81.53415,7.94745],[81.5361,7.95622],[81.53145,7.9588],[81.52926,7.96486],[81.53572,7.96601],[81.53908,7.96343],[81.54475,7.94667],[81.54009,7.94384]]],[[[81.36852,8.36281],[81.36801,8.37479],[81.37357,8.36757],[81.36852,8.36281]]],[[[81.20994,8.53925],[81.20579,8.54402],[81.20968,8.54905],[81.21357,8.54763],[81.2133,8.54067],[81.20994,8.53925]]],[[[81.12756,8.48438],[81.13093,8.48992],[81.13145,8.48579],[81.12756,8.48438]]],[[[80.95919,8.98501],[80.95808,8.98494],[80.95977,8.98507],[80.95919,8.98501]]],[[[80.87592,9.1197],[80.87489,9.12214],[80.88072,9.12279],[80.87592,9.1197]]],[[[80.32418,6.00117],[80.32289,6.00504],[80.32585,6.00298],[80.32418,6.00117]]],[[[80.30619,9.46343],[80.29671,9.46521],[80.28904,9.47061],[80.29137,9.47332],[80.29449,9.46907],[80.30332,9.46832],[80.30619,9.46343]]],[[[80.29036,9.45914],[80.28593,9.46803],[80.29359,9.46675],[80.29036,9.45914]]],[[[80.27165,9.46593],[80.26749,9.46979],[80.27138,9.47006],[80.27165,9.46593]]],[[[80.26465,9.46412],[80.25997,9.46539],[80.26178,9.47004],[80.26465,9.46412]]],[[[80.25051,9.51834],[80.24193,9.52464],[80.24686,9.52388],[80.25051,9.51834]]],[[[80.20042,9.62108],[80.19652,9.62145],[80.19937,9.62404],[80.1965,9.6279],[80.20896,9.63076],[80.20457,9.62237],[80.20042,9.62108]]],[[[80.2036,9.59234],[80.19502,9.59593],[80.19839,9.59749],[80.2036,9.59234]]],[[[80.16244,9.64444],[80.15957,9.6474],[80.16139,9.64818],[80.16244,9.64444]]],[[[80.10465,9.59403],[80.09763,9.59505],[80.09477,9.59813],[80.10465,9.59403]]],[[[80.08825,9.31137],[80.07943,9.31277],[80.07551,9.32036],[80.08252,9.31986],[80.08825,9.31137]]],[[[80.08672,9.59837],[80.06617,9.6094],[80.07059,9.60954],[80.08672,9.59837]]],[[[80.06964,6.22752],[80.06629,6.22855],[80.06937,6.23384],[80.06964,6.22752]]],[[[80.05784,9.32959],[80.05329,9.33216],[80.05224,9.33937],[80.05663,9.34609],[80.05784,9.32959]]],[[[80.03305,8.9969],[80.02631,8.99688],[80.02332,9.0001],[80.02343,9.00783],[80.02834,9.013],[80.03511,9.00503],[80.03305,8.9969]]],[[[80.01153,9.46556],[80.00409,9.47997],[80.0081,9.485],[80.01277,9.48515],[80.01811,9.47949],[80.01153,9.46556]]],[[[80.01362,9.64108],[80.00529,9.64493],[80.00451,9.64776],[80.01362,9.64108]]],[[[80.00482,9.62907],[79.99988,9.63189],[80.00013,9.63486],[80.00585,9.63307],[80.00482,9.62907]]],[[[79.98804,9.59706],[79.9818,9.59743],[79.96853,9.60551],[79.97737,9.60386],[79.98046,9.61032],[79.98488,9.61033],[79.98445,9.6227],[79.98948,9.63405],[80.0056,9.62843],[80.00252,9.61708],[80.00461,9.61116],[80.00048,9.60342],[79.98804,9.59706]]],[[[79.99885,9.26989],[79.99544,9.28226],[79.98635,9.28494],[79.97676,9.28053],[79.9709,9.2876],[79.97205,9.29636],[79.97879,9.29819],[79.98421,9.30658],[79.98759,9.30569],[79.99518,9.28354],[79.99776,9.28716],[80.00529,9.28692],[80.00517,9.2828],[79.99803,9.28381],[79.99857,9.27659],[80.00351,9.27429],[79.99885,9.26989]]],[[[80.00506,9.63784],[79.99244,9.64334],[79.99724,9.64722],[80.00506,9.63784]]],[[[79.99518,6.43246],[79.98872,6.44196],[79.99091,6.44223],[79.99518,6.43246]]],[[[79.93587,9.67036],[79.93532,9.67925],[79.9391,9.67488],[79.93587,9.67036]]],[[[79.91825,8.80444],[79.91421,8.81474],[79.9164,8.81655],[79.91825,8.80444]]],[[[79.90809,9.74579],[79.9034,9.75106],[79.90833,9.75056],[79.90809,9.74579]]],[[[79.8936,9.72822],[79.89047,9.73066],[79.8928,9.73504],[79.8936,9.72822]]],[[[79.88857,9.43748],[79.88441,9.44069],[79.88856,9.4407],[79.88857,9.43748]]],[[[79.85968,9.61857],[79.85224,9.6295],[79.86172,9.62721],[79.85968,9.61857]]],[[[79.83371,7.19314],[79.8324,7.19971],[79.83498,7.20023],[79.83371,7.19314]]],[[[79.81948,7.96507],[79.81441,7.97317],[79.81814,7.97937],[79.82228,7.98015],[79.82269,7.96984],[79.81948,7.96507]]],[[[79.81244,9.68516],[79.80759,9.6961],[79.80975,9.70977],[79.81454,9.71545],[79.81244,9.68516]]],[[[79.8099,8.40359],[79.8042,8.40512],[79.80601,8.40796],[79.8099,8.40359]]],[[[79.80907,8.16517],[79.80606,8.17393],[79.80852,8.17342],[79.80907,8.16517]]],[[[79.80675,8.07251],[79.80235,8.07533],[79.80467,8.0774],[79.80778,8.07573],[79.80675,8.07251]]],[[[79.80418,8.32831],[79.80299,8.33655],[79.80441,8.33656],[79.80418,8.32831]]],[[[79.80158,8.41568],[79.79974,8.42598],[79.80207,8.42573],[79.80158,8.41568]]],[[[79.79982,9.57984],[79.79318,9.58626],[79.79666,9.59194],[79.802,9.58784],[79.79982,9.57984]]],[[[79.79433,9.59129],[79.79134,9.59192],[79.79404,9.59863],[79.79705,9.59323],[79.79433,9.59129]]],[[[79.79392,8.45181],[79.78276,8.47361],[79.77765,8.49473],[79.77955,8.50788],[79.7874,8.52233],[79.78025,8.49138],[79.78458,8.47297],[79.79158,8.47028],[79.78784,8.46409],[79.79392,8.45181]]],[[[79.7935,9.67827],[79.79139,9.68857],[79.7936,9.68806],[79.7935,9.67827]]],[[[79.77622,9.64393],[79.77141,9.64623],[79.77204,9.65087],[79.76463,9.65342],[79.76332,9.6578],[79.7704,9.67458],[79.78256,9.68712],[79.78601,9.66548],[79.77938,9.65588],[79.77463,9.65449],[79.77386,9.65165],[79.77737,9.65063],[79.77622,9.64393]]],[[[79.77745,8.26779],[79.77563,8.27088],[79.779,8.26998],[79.77745,8.26779]]],[[[79.77384,9.58439],[79.7633,9.58976],[79.76168,9.60728],[79.7627,9.61347],[79.77059,9.62213],[79.77475,9.62073],[79.77384,9.58439]]],[[[79.7044,9.47564],[79.65757,9.50201],[79.65217,9.52234],[79.65053,9.54476],[79.65918,9.55613],[79.67009,9.55385],[79.67975,9.53997],[79.69797,9.52883],[79.72368,9.52725],[79.7316,9.49146],[79.72968,9.48372],[79.72024,9.47479],[79.7044,9.47564]]],[[[79.69031,9.07625],[79.68642,9.07624],[79.68615,9.07869],[79.69031,9.07625]]],[[[79.65688,9.0702],[79.65506,9.07316],[79.66905,9.07502],[79.66906,9.0727],[79.65688,9.0702]]],[[[79.63875,9.06666],[79.64158,9.07066],[79.64522,9.0699],[79.63875,9.06666]]],[[[79.62501,9.06648],[79.62266,9.07072],[79.62706,9.07087],[79.62501,9.06648]]],[[[79.53319,9.09876],[79.53333,9.10375],[79.53503,9.1013],[79.53319,9.09876]]],[[[79.52725,9.38358],[79.52361,9.38421],[79.52202,9.39245],[79.52539,9.39337],[79.53047,9.38759],[79.52725,9.38358]]]]}}]}