{"type":"FeatureCollection","features":[{"type":"Feature","properties":{"ISO_A3":"LSO","WB_A3":"LSO","WB_NAME":"Lesotho","WB_REGION":"AFE,SSF"},"geometry":{"type":"MultiPolygon","coordinates":[[[[27.51234,-29.28271],[27.52014,-29.27632],[27.52459,-29.26613],[27.54099,-29.25966],[27.54802,-29.24648],[27.52953,-29.23669],[27.52143,-29.24048],[27.52472,-29.23206],[27.51505,-29.22361],[27.52575,-29.21689],[27.52975,-29.21943],[27.53428,-29.21794],[27.54022,-29.20601],[27.55099,-29.19613],[27.56511,-29.1923],[27.56633,-29.18768],[27.57617,-29.18303],[27.5801,-29.16639],[27.59075,-29.16587],[27.59608,-29.17127],[27.61558,-29.16216],[27.61701,-29.15223],[27.60092,-29.13734],[27.6102,-29.13352],[27.61869,-29.1355],[27.63125,-29.13231],[27.63461,-29.12989],[27.63559,-29.12197],[27.63107,-29.12038],[27.63218,-29.1155],[27.64609,-29.11784],[27.65241,-29.10086],[27.64806,-29.09507],[27.65094,-29.09052],[27.64776,-29.08622],[27.63994,-29.08566],[27.6425,-29.07963],[27.64937,-29.07803],[27.66145,-29.08571],[27.6649,-29.0783],[27.67266,-29.07956],[27.67682,-29.07346],[27.67585,-29.06648],[27.66607,-29.06307],[27.66105,-29.05625],[27.652,-29.06152],[27.65262,-29.05678],[27.64395,-29.05569],[27.64107,-29.04574],[27.65116,-29.04141],[27.65779,-29.04871],[27.67291,-29.04407],[27.67573,-29.03551],[27.6704,-29.027],[27.68185,-29.02846],[27.681,-29.02517],[27.68819,-29.02372],[27.68085,-29.01655],[27.68428,-29.00408],[27.71222,-29.01166],[27.71718,-28.9994],[27.7143,-28.9967],[27.71522,-28.99079],[27.70937,-28.99036],[27.70728,-28.98213],[27.71679,-28.98244],[27.72337,-28.97457],[27.72525,-28.96689],[27.72007,-28.96322],[27.72056,-28.95784],[27.72547,-28.95685],[27.72395,-28.94917],[27.7282,-28.95093],[27.73837,-28.93816],[27.74272,-28.94241],[27.76011,-28.94115],[27.76191,-28.93802],[27.75698,-28.93504],[27.76664,-28.91858],[27.76354,-28.91329],[27.75674,-28.91254],[27.75392,-28.9036],[27.75554,-28.897],[27.76264,-28.89762],[27.77507,-28.90612],[27.79303,-28.90916],[27.79216,-28.91519],[27.79848,-28.91881],[27.80837,-28.9173],[27.818,-28.92098],[27.82723,-28.91258],[27.83075,-28.91289],[27.82902,-28.90532],[27.83237,-28.90568],[27.83989,-28.9154],[27.84826,-28.90923],[27.84739,-28.9042],[27.85074,-28.90298],[27.85379,-28.90949],[27.86941,-28.92006],[27.88336,-28.91479],[27.88759,-28.91701],[27.89615,-28.90831],[27.90012,-28.89415],[27.88776,-28.88725],[27.89366,-28.87887],[27.90825,-28.88187],[27.92045,-28.87722],[27.9157,-28.86678],[27.91824,-28.8611],[27.92061,-28.859],[27.92838,-28.86115],[27.92665,-28.85809],[27.93059,-28.85251],[27.93837,-28.85262],[27.93992,-28.84867],[27.96106,-28.85943],[27.96528,-28.87054],[27.97127,-28.87483],[27.98343,-28.87689],[27.98924,-28.88238],[27.99163,-28.88276],[27.99132,-28.87921],[27.98746,-28.87665],[27.99344,-28.87595],[27.99426,-28.87233],[28.00093,-28.87745],[28.00513,-28.87149],[28.01287,-28.8796],[28.0261,-28.87455],[28.02801,-28.87888],[28.03256,-28.86746],[28.02904,-28.86699],[28.02949,-28.85909],[28.02579,-28.86211],[28.02375,-28.85954],[28.041,-28.85026],[28.04108,-28.84647],[28.04761,-28.8418],[28.05207,-28.84404],[28.05481,-28.8414],[28.05485,-28.83495],[28.05069,-28.83085],[28.05096,-28.81767],[28.06159,-28.81412],[28.07518,-28.81468],[28.07883,-28.81035],[28.07709,-28.80771],[28.08691,-28.79937],[28.08605,-28.79433],[28.09782,-28.7816],[28.09602,-28.77805],[28.09977,-28.76863],[28.10649,-28.76615],[28.11423,-28.75746],[28.12013,-28.75687],[28.11836,-28.7418],[28.12163,-28.74002],[28.12799,-28.74677],[28.13788,-28.73441],[28.14183,-28.73628],[28.14372,-28.72863],[28.14897,-28.72328],[28.15482,-28.72923],[28.15513,-28.72426],[28.16002,-28.7252],[28.16,-28.72125],[28.15578,-28.71856],[28.15961,-28.71896],[28.16198,-28.71682],[28.15994,-28.7149],[28.16605,-28.7128],[28.16758,-28.7051],[28.18378,-28.70875],[28.18177,-28.69978],[28.18503,-28.69583],[28.18841,-28.69569],[28.19121,-28.70688],[28.19627,-28.71116],[28.21212,-28.70605],[28.21407,-28.70209],[28.22375,-28.70409],[28.2292,-28.70189],[28.23264,-28.69492],[28.24149,-28.69687],[28.24249,-28.70179],[28.25729,-28.69992],[28.26002,-28.70864],[28.26903,-28.70628],[28.27996,-28.71436],[28.29439,-28.70799],[28.29602,-28.70303],[28.29701,-28.70768],[28.30243,-28.70523],[28.30006,-28.70347],[28.30444,-28.69881],[28.30528,-28.69215],[28.31063,-28.70049],[28.32046,-28.70372],[28.32838,-28.70354],[28.32666,-28.6998],[28.33174,-28.69906],[28.33336,-28.69568],[28.34411,-28.69522],[28.34336,-28.69825],[28.35208,-28.70129],[28.36081,-28.68826],[28.37335,-28.6795],[28.36948,-28.67608],[28.36971,-28.6666],[28.3738,-28.66188],[28.38575,-28.65607],[28.39045,-28.64424],[28.403,-28.64446],[28.40225,-28.62398],[28.40921,-28.62164],[28.41101,-28.62553],[28.41954,-28.62762],[28.43051,-28.61979],[28.43768,-28.62147],[28.44028,-28.61807],[28.44185,-28.62024],[28.44777,-28.61729],[28.45413,-28.61912],[28.45678,-28.61266],[28.46514,-28.60844],[28.46961,-28.60976],[28.4715,-28.60532],[28.47663,-28.60595],[28.47744,-28.60884],[28.48218,-28.60779],[28.48617,-28.61248],[28.48855,-28.6072],[28.50199,-28.60757],[28.50432,-28.61681],[28.51401,-28.6111],[28.5183,-28.60231],[28.52491,-28.60097],[28.53072,-28.6104],[28.54068,-28.60254],[28.54266,-28.6068],[28.54759,-28.6078],[28.55531,-28.6022],[28.56629,-28.60817],[28.57712,-28.60799],[28.57815,-28.60386],[28.58728,-28.60489],[28.58996,-28.60841],[28.59512,-28.60202],[28.60385,-28.60077],[28.60795,-28.59516],[28.6124,-28.59737],[28.62259,-28.57974],[28.63169,-28.5828],[28.63585,-28.57601],[28.64842,-28.57107],[28.66416,-28.57702],[28.68202,-28.58953],[28.68584,-28.59888],[28.69722,-28.6085],[28.70324,-28.6183],[28.69773,-28.62723],[28.70019,-28.63641],[28.6955,-28.6447],[28.70606,-28.65154],[28.70508,-28.67182],[28.7262,-28.68347],[28.72671,-28.68763],[28.75891,-28.68592],[28.77644,-28.69952],[28.78094,-28.70175],[28.79345,-28.69877],[28.79968,-28.70722],[28.8063,-28.70978],[28.80635,-28.71654],[28.8096,-28.71908],[28.80017,-28.74265],[28.80429,-28.74619],[28.80371,-28.7589],[28.80748,-28.76376],[28.80806,-28.77173],[28.81804,-28.77486],[28.83039,-28.76303],[28.84098,-28.7582],[28.85169,-28.759],[28.85724,-28.75528],[28.86921,-28.76128],[28.87316,-28.77156],[28.88527,-28.77495],[28.90452,-28.75874],[28.91283,-28.76061],[28.91673,-28.77069],[28.92159,-28.77014],[28.94445,-28.78273],[28.94479,-28.78659],[28.93943,-28.78736],[28.93734,-28.79102],[28.93981,-28.79522],[28.94851,-28.79775],[28.94895,-28.80355],[28.94153,-28.80596],[28.9356,-28.80412],[28.92313,-28.81451],[28.9309,-28.81927],[28.93833,-28.81826],[28.93845,-28.82318],[28.94638,-28.82436],[28.94921,-28.82837],[28.94586,-28.84432],[28.95337,-28.85263],[28.94618,-28.85378],[28.93996,-28.8612],[28.948,-28.86839],[28.96081,-28.86873],[28.96335,-28.87229],[28.95802,-28.87509],[28.95939,-28.87857],[28.96735,-28.88854],[28.97438,-28.89178],[28.97535,-28.90848],[28.98224,-28.91471],[28.98932,-28.91471],[28.99626,-28.90398],[29.00641,-28.90221],[29.00441,-28.89937],[29.0105,-28.89836],[29.01359,-28.89327],[29.01024,-28.89137],[29.01125,-28.88508],[29.01726,-28.88237],[29.02294,-28.88458],[29.02994,-28.89035],[29.02797,-28.89851],[29.03554,-28.9022],[29.0413,-28.9138],[29.05748,-28.91733],[29.06253,-28.91479],[29.07633,-28.91924],[29.07224,-28.92324],[29.07605,-28.92772],[29.07381,-28.93744],[29.09341,-28.9372],[29.10113,-28.94847],[29.10836,-28.9495],[29.12713,-28.96447],[29.13041,-28.96879],[29.12608,-28.96798],[29.12233,-28.97186],[29.1246,-28.97988],[29.13573,-28.98492],[29.1397,-28.98221],[29.15001,-28.98784],[29.15038,-28.99296],[29.16038,-29.00402],[29.17796,-29.0025],[29.18451,-29.01311],[29.19083,-29.01607],[29.19965,-29.01353],[29.21489,-29.02504],[29.2176,-29.03185],[29.21015,-29.03778],[29.22983,-29.05572],[29.2296,-29.06167],[29.22667,-29.06211],[29.25257,-29.08197],[29.2569,-29.08981],[29.27848,-29.07564],[29.31162,-29.07844],[29.32593,-29.1003],[29.33474,-29.10392],[29.35584,-29.12766],[29.35409,-29.13152],[29.35769,-29.13414],[29.35213,-29.13826],[29.35293,-29.14663],[29.34329,-29.15392],[29.34857,-29.16234],[29.34318,-29.17675],[29.34397,-29.1865],[29.35489,-29.19543],[29.35897,-29.20308],[29.36391,-29.20494],[29.38167,-29.20197],[29.40158,-29.20811],[29.41019,-29.21468],[29.4147,-29.22191],[29.40812,-29.22213],[29.40673,-29.22866],[29.41573,-29.23135],[29.42452,-29.24363],[29.4257,-29.25029],[29.41909,-29.25216],[29.41895,-29.25959],[29.43291,-29.26225],[29.43927,-29.26873],[29.44105,-29.27423],[29.43552,-29.27943],[29.44389,-29.30179],[29.4384,-29.30553],[29.43816,-29.30963],[29.45113,-29.32097],[29.45601,-29.33764],[29.45574,-29.34024],[29.44223,-29.34497],[29.44288,-29.36146],[29.44843,-29.36801],[29.44649,-29.3775],[29.43541,-29.38647],[29.43693,-29.39448],[29.41874,-29.39616],[29.41865,-29.40826],[29.42261,-29.41361],[29.42059,-29.41668],[29.41111,-29.41677],[29.40525,-29.4226],[29.39905,-29.43477],[29.40189,-29.44222],[29.39993,-29.4459],[29.38726,-29.45179],[29.38621,-29.45568],[29.37645,-29.45557],[29.3748,-29.46195],[29.36149,-29.4696],[29.34636,-29.46495],[29.34093,-29.4667],[29.33895,-29.47136],[29.32774,-29.47018],[29.3254,-29.47388],[29.32061,-29.47327],[29.31857,-29.48053],[29.32339,-29.48766],[29.31145,-29.48743],[29.30701,-29.48279],[29.29301,-29.48961],[29.30424,-29.50324],[29.30646,-29.51098],[29.30554,-29.517],[29.29508,-29.51957],[29.30803,-29.53572],[29.31263,-29.53745],[29.3124,-29.54535],[29.30517,-29.55277],[29.3247,-29.56872],[29.31823,-29.58199],[29.28621,-29.5844],[29.28869,-29.59714],[29.29244,-29.60024],[29.29332,-29.6156],[29.28415,-29.61874],[29.28742,-29.62658],[29.28275,-29.6412],[29.27683,-29.64369],[29.26377,-29.63909],[29.24083,-29.64232],[29.23592,-29.63873],[29.22949,-29.64616],[29.21822,-29.64722],[29.21444,-29.65555],[29.20751,-29.65975],[29.20192,-29.6589],[29.1925,-29.67004],[29.18725,-29.67097],[29.18274,-29.66764],[29.1762,-29.67668],[29.162,-29.67713],[29.16044,-29.70669],[29.15142,-29.7075],[29.14501,-29.71609],[29.15069,-29.73233],[29.14516,-29.73961],[29.13622,-29.73889],[29.13433,-29.7427],[29.14036,-29.75117],[29.13976,-29.75931],[29.13409,-29.7615],[29.13502,-29.76439],[29.12446,-29.76657],[29.13091,-29.77352],[29.12999,-29.78845],[29.1261,-29.7921],[29.12437,-29.80174],[29.12642,-29.81171],[29.13155,-29.81366],[29.12956,-29.82073],[29.13158,-29.82664],[29.12856,-29.83158],[29.11908,-29.83256],[29.11597,-29.83928],[29.10141,-29.84761],[29.11264,-29.85383],[29.13685,-29.85945],[29.14516,-29.86742],[29.14214,-29.87397],[29.14887,-29.88307],[29.16321,-29.88383],[29.16097,-29.89506],[29.16293,-29.90257],[29.15921,-29.90454],[29.16869,-29.91174],[29.16916,-29.91626],[29.15525,-29.92548],[29.12945,-29.92891],[29.10956,-29.93685],[29.10284,-29.95805],[29.1036,-29.96607],[29.08826,-29.96017],[29.08366,-29.9608],[29.07873,-29.96714],[29.07205,-29.96476],[29.06742,-29.97202],[29.05517,-29.98035],[29.03367,-29.98619],[29.03083,-29.99634],[29.02548,-29.99942],[29.01893,-29.99728],[29.01091,-30.00455],[29.00541,-30.00439],[28.99084,-30.01998],[28.98996,-30.02821],[28.98537,-30.03176],[28.97792,-30.02957],[28.96891,-30.0342],[28.96473,-30.03295],[28.95858,-30.03897],[28.94132,-30.03603],[28.93588,-30.05033],[28.92963,-30.05455],[28.9206,-30.05365],[28.91875,-30.05793],[28.91065,-30.05925],[28.90197,-30.06605],[28.89532,-30.06498],[28.89279,-30.06839],[28.87836,-30.0702],[28.86858,-30.07725],[28.85754,-30.07763],[28.85883,-30.08768],[28.85369,-30.09042],[28.84053,-30.09149],[28.83155,-30.09691],[28.80702,-30.09722],[28.79581,-30.1006],[28.79153,-30.10911],[28.75805,-30.10538],[28.7466,-30.10729],[28.7385,-30.11513],[28.73627,-30.11256],[28.72204,-30.11473],[28.70588,-30.1211],[28.69941,-30.12709],[28.69182,-30.12433],[28.66755,-30.14081],[28.63496,-30.13096],[28.61774,-30.13555],[28.59779,-30.13156],[28.59077,-30.12656],[28.57472,-30.12716],[28.56812,-30.12274],[28.55522,-30.12395],[28.55204,-30.12035],[28.53711,-30.12466],[28.53249,-30.1322],[28.50624,-30.14437],[28.50077,-30.15047],[28.48226,-30.14837],[28.47197,-30.15521],[28.45729,-30.15757],[28.44147,-30.15592],[28.39998,-30.14361],[28.39029,-30.1627],[28.38292,-30.16602],[28.38314,-30.16861],[28.36548,-30.16874],[28.34566,-30.21198],[28.34377,-30.22322],[28.34645,-30.23174],[28.34019,-30.23478],[28.33308,-30.23355],[28.33062,-30.23004],[28.32466,-30.23769],[28.31347,-30.24121],[28.3089,-30.25396],[28.30275,-30.25639],[28.2731,-30.25578],[28.26664,-30.25145],[28.25978,-30.2565],[28.2356,-30.26049],[28.23534,-30.26559],[28.2235,-30.27264],[28.21429,-30.28643],[28.20692,-30.29146],[28.21585,-30.30663],[28.22898,-30.30941],[28.24775,-30.32319],[28.25269,-30.32315],[28.25493,-30.34502],[28.26458,-30.34798],[28.2714,-30.35566],[28.26803,-30.3595],[28.2707,-30.36819],[28.26364,-30.3948],[28.25933,-30.40193],[28.25229,-30.40399],[28.25747,-30.41727],[28.24948,-30.41883],[28.23894,-30.41339],[28.2284,-30.43028],[28.21552,-30.43051],[28.20552,-30.43712],[28.19853,-30.43303],[28.18761,-30.43463],[28.1803,-30.4385],[28.16252,-30.46207],[28.1573,-30.46434],[28.15545,-30.4708],[28.16516,-30.47625],[28.16933,-30.48415],[28.17904,-30.48873],[28.18151,-30.49513],[28.18116,-30.49986],[28.17262,-30.50942],[28.17639,-30.52663],[28.16783,-30.52825],[28.16239,-30.53945],[28.15767,-30.54267],[28.15899,-30.55065],[28.16408,-30.55559],[28.16116,-30.55851],[28.1595,-30.57297],[28.1532,-30.57596],[28.15079,-30.58391],[28.13644,-30.59216],[28.13036,-30.59154],[28.12168,-30.59837],[28.11361,-30.599],[28.11113,-30.60712],[28.11248,-30.61459],[28.11879,-30.62308],[28.11651,-30.63452],[28.12321,-30.64811],[28.12366,-30.65626],[28.12287,-30.66701],[28.10852,-30.67775],[28.09646,-30.66228],[28.08523,-30.65502],[28.06833,-30.65976],[28.06374,-30.65728],[28.0497,-30.65977],[28.03404,-30.65528],[28.0253,-30.65861],[28.00432,-30.65927],[27.98952,-30.65133],[27.97969,-30.65513],[27.93567,-30.64369],[27.92314,-30.63117],[27.91145,-30.63144],[27.88492,-30.61399],[27.83026,-30.61368],[27.78794,-30.61889],[27.75899,-30.60707],[27.74227,-30.60378],[27.73723,-30.59405],[27.7204,-30.57898],[27.71724,-30.56963],[27.69562,-30.56042],[27.69341,-30.55657],[27.69663,-30.55378],[27.69562,-30.55043],[27.69149,-30.54884],[27.69323,-30.54505],[27.6895,-30.5404],[27.67972,-30.53455],[27.67141,-30.53522],[27.66369,-30.52437],[27.65769,-30.52302],[27.65784,-30.51942],[27.65248,-30.51714],[27.64619,-30.51995],[27.62871,-30.50972],[27.62135,-30.50442],[27.61963,-30.49356],[27.60973,-30.49566],[27.60696,-30.49227],[27.61493,-30.48855],[27.61489,-30.47765],[27.60385,-30.45848],[27.59752,-30.45698],[27.60444,-30.44984],[27.60208,-30.44667],[27.59276,-30.45051],[27.57244,-30.44816],[27.56731,-30.44477],[27.56493,-30.43345],[27.57159,-30.42974],[27.57083,-30.42673],[27.56185,-30.41784],[27.55401,-30.40191],[27.53761,-30.39161],[27.53422,-30.38462],[27.52038,-30.38328],[27.50788,-30.38783],[27.50081,-30.37672],[27.50269,-30.37282],[27.49219,-30.37446],[27.48907,-30.37213],[27.48978,-30.3652],[27.47422,-30.35465],[27.47681,-30.34955],[27.47481,-30.32107],[27.46344,-30.3135],[27.45597,-30.31321],[27.44091,-30.3221],[27.41945,-30.32458],[27.39433,-30.33978],[27.38224,-30.33631],[27.38126,-30.33002],[27.37651,-30.32567],[27.38388,-30.31994],[27.38694,-30.3241],[27.39103,-30.32203],[27.39201,-30.31897],[27.38551,-30.31225],[27.38667,-30.30872],[27.3952,-30.30958],[27.3949,-30.30576],[27.39319,-30.30349],[27.38324,-30.3041],[27.38008,-30.29934],[27.38891,-30.29369],[27.38527,-30.29023],[27.3896,-30.2851],[27.3878,-30.28185],[27.38231,-30.28158],[27.38073,-30.27532],[27.37397,-30.2806],[27.3674,-30.27512],[27.37014,-30.26552],[27.36583,-30.25789],[27.37047,-30.24698],[27.36645,-30.23723],[27.37011,-30.22635],[27.36541,-30.21888],[27.37406,-30.20635],[27.37527,-30.19857],[27.37109,-30.19757],[27.36825,-30.19149],[27.38592,-30.19351],[27.38631,-30.18229],[27.38193,-30.1814],[27.38084,-30.17751],[27.38823,-30.17884],[27.39139,-30.17633],[27.39293,-30.16653],[27.40078,-30.16422],[27.40146,-30.15825],[27.40895,-30.15591],[27.40984,-30.1521],[27.40454,-30.14886],[27.40714,-30.14435],[27.40203,-30.13943],[27.38864,-30.14353],[27.32654,-30.14767],[27.29649,-30.05602],[27.2913,-30.05021],[27.2682,-30.04205],[27.26542,-30.0331],[27.26948,-30.02583],[27.25388,-30.02589],[27.2348,-30.00828],[27.21898,-30.01005],[27.22413,-30.00581],[27.22288,-29.9967],[27.09644,-29.72977],[27.08314,-29.72301],[27.08778,-29.71928],[27.06385,-29.70514],[27.02445,-29.66542],[27.02109,-29.66632],[27.013,-29.66035],[27.01176,-29.64824],[27.02821,-29.63889],[27.02476,-29.62713],[27.01805,-29.62062],[27.02076,-29.61543],[27.03533,-29.61489],[27.04483,-29.63082],[27.05632,-29.6372],[27.06635,-29.61944],[27.06578,-29.59749],[27.07669,-29.60307],[27.08082,-29.61378],[27.08549,-29.61492],[27.0968,-29.60387],[27.10529,-29.6037],[27.10355,-29.5913],[27.11459,-29.58502],[27.119,-29.57759],[27.13328,-29.57323],[27.14004,-29.57554],[27.15815,-29.55954],[27.18592,-29.56611],[27.18922,-29.57031],[27.19387,-29.56773],[27.2015,-29.56882],[27.20832,-29.56644],[27.20607,-29.55836],[27.2178,-29.55235],[27.22136,-29.54953],[27.22062,-29.54533],[27.22558,-29.54331],[27.23038,-29.55287],[27.24369,-29.55468],[27.25518,-29.54854],[27.25718,-29.53333],[27.2759,-29.52644],[27.28267,-29.52754],[27.28843,-29.53333],[27.30509,-29.53408],[27.30644,-29.53055],[27.29945,-29.51229],[27.30483,-29.50647],[27.30548,-29.49726],[27.32762,-29.48124],[27.33409,-29.48084],[27.34066,-29.48644],[27.34908,-29.48835],[27.36141,-29.48553],[27.36351,-29.48152],[27.35672,-29.46702],[27.35636,-29.4526],[27.3704,-29.44885],[27.38067,-29.44022],[27.38166,-29.43304],[27.39216,-29.42309],[27.39119,-29.41719],[27.39582,-29.4106],[27.4054,-29.41388],[27.4227,-29.40784],[27.42496,-29.40262],[27.42158,-29.39702],[27.42168,-29.38736],[27.4111,-29.3796],[27.40523,-29.37143],[27.40554,-29.36527],[27.41135,-29.36423],[27.42999,-29.37415],[27.43765,-29.36557],[27.43373,-29.35237],[27.43621,-29.33401],[27.44374,-29.32878],[27.46071,-29.32694],[27.47228,-29.32027],[27.4647,-29.31344],[27.46396,-29.30732],[27.45681,-29.305],[27.45463,-29.29761],[27.48052,-29.29341],[27.48514,-29.29779],[27.484,-29.30099],[27.48945,-29.30185],[27.4944,-29.28425],[27.51234,-29.28271]]]]}}]}