{"type":"FeatureCollection","features":[{"type":"Feature","properties":{"ISO_A3":"LTU","WB_A3":"LTU","WB_NAME":"Lithuania","WB_REGION":"ECS"},"geometry":{"type":"MultiPolygon","coordinates":[[[[23.91938,53.96814],[23.91303,53.96969],[23.90778,53.9668],[23.90828,53.9541],[23.88581,53.94364],[23.87382,53.94425],[23.86092,53.95349],[23.84148,53.95591],[23.81799,53.94238],[23.79768,53.93487],[23.79782,53.92801],[23.81611,53.91881],[23.81822,53.91236],[23.79411,53.89952],[23.7746,53.89994],[23.77396,53.90324],[23.78096,53.91038],[23.76778,53.91635],[23.76585,53.92338],[23.73036,53.93052],[23.72097,53.9369],[23.68202,53.93197],[23.67509,53.93496],[23.66671,53.93104],[23.65206,53.93497],[23.61037,53.92472],[23.60217,53.92767],[23.59809,53.93684],[23.58653,53.9367],[23.58178,53.93885],[23.58136,53.94274],[23.56879,53.94457],[23.56176,53.93916],[23.5457,53.94392],[23.53733,53.94178],[23.52782,53.95497],[23.51795,53.95433],[23.51185,53.96267],[23.49111,53.97349],[23.48284,53.99066],[23.48474,53.9927],[23.48192,53.99984],[23.50897,54.0118],[23.5162,54.02858],[23.52487,54.03108],[23.52328,54.03769],[23.52734,54.04736],[23.52591,54.05687],[23.52861,54.06579],[23.51838,54.07867],[23.51832,54.0898],[23.50696,54.09948],[23.50201,54.11294],[23.49646,54.11302],[23.49261,54.11702],[23.49533,54.13257],[23.49117,54.13555],[23.48583,54.15324],[23.47332,54.15808],[23.4755,54.16342],[23.4612,54.16778],[23.45898,54.17554],[23.42448,54.17753],[23.41916,54.19112],[23.40638,54.19634],[23.39795,54.20723],[23.39669,54.21371],[23.38674,54.21827],[23.38679,54.22483],[23.38131,54.22882],[23.36172,54.23101],[23.34839,54.2457],[23.33753,54.25173],[23.29663,54.25553],[23.28176,54.26068],[23.24886,54.25683],[23.23388,54.26091],[23.20241,54.28863],[23.17643,54.29087],[23.16958,54.29495],[23.15419,54.29701],[23.15975,54.30961],[23.14877,54.31436],[23.14037,54.31595],[23.09215,54.29846],[23.04211,54.31599],[23.05091,54.33354],[23.06316,54.34096],[23.04769,54.3492],[23.00937,54.35572],[22.99391,54.3619],[23.0102,54.3828],[22.98478,54.38454],[22.98384,54.38958],[22.88751,54.39994],[22.88798,54.4091],[22.85471,54.41043],[22.83631,54.40649],[22.81142,54.37097],[22.792,54.36332],[22.7894,54.36869],[22.76611,54.38696],[22.73644,54.44292],[22.70213,54.45315],[22.70405,54.4659],[22.69675,54.48996],[22.69599,54.50507],[22.69936,54.50725],[22.68455,54.51841],[22.68157,54.52449],[22.6838,54.52931],[22.68058,54.53303],[22.69182,54.54213],[22.6941,54.55023],[22.70313,54.55395],[22.70659,54.56011],[22.71335,54.56389],[22.70094,54.56921],[22.70002,54.57605],[22.68592,54.57983],[22.68383,54.58598],[22.68633,54.59095],[22.6978,54.59463],[22.70567,54.60287],[22.71985,54.60655],[22.72209,54.6181],[22.72767,54.62317],[22.74404,54.62677],[22.74876,54.6309],[22.75038,54.63869],[22.7417,54.64246],[22.74605,54.64718],[22.75446,54.64749],[22.75729,54.65242],[22.73126,54.66615],[22.73055,54.66966],[22.74059,54.67349],[22.73777,54.67964],[22.72869,54.67888],[22.72367,54.68558],[22.72961,54.69668],[22.73862,54.69934],[22.73804,54.70268],[22.74622,54.70654],[22.7474,54.71028],[22.73915,54.71571],[22.74591,54.72552],[22.74158,54.72815],[22.76732,54.73849],[22.7734,54.74518],[22.77413,54.7512],[22.79443,54.75362],[22.80102,54.74727],[22.80716,54.74801],[22.80731,54.75317],[22.81137,54.75175],[22.81539,54.75489],[22.80732,54.75834],[22.81303,54.76652],[22.82589,54.76411],[22.8342,54.76929],[22.84283,54.76682],[22.84958,54.77172],[22.84889,54.77475],[22.85957,54.77767],[22.84834,54.78488],[22.85407,54.78962],[22.87357,54.78888],[22.87849,54.79192],[22.87189,54.79806],[22.87465,54.7999],[22.87337,54.8052],[22.87799,54.81137],[22.88492,54.81125],[22.88639,54.81466],[22.87102,54.82014],[22.88,54.82588],[22.8766,54.83359],[22.85928,54.83839],[22.86469,54.84915],[22.86869,54.85002],[22.8682,54.85375],[22.83967,54.86454],[22.84365,54.87507],[22.8552,54.88586],[22.84711,54.89095],[22.84644,54.89729],[22.83541,54.8999],[22.83496,54.90435],[22.82517,54.90719],[22.82133,54.91174],[22.8128,54.91127],[22.8,54.90273],[22.79366,54.90353],[22.78781,54.90958],[22.78886,54.91954],[22.78259,54.92492],[22.76739,54.92279],[22.76255,54.91725],[22.75478,54.91844],[22.74895,54.924],[22.75113,54.92695],[22.76725,54.93415],[22.76211,54.93778],[22.74307,54.93898],[22.72802,54.95463],[22.72921,54.96036],[22.72597,54.96326],[22.70462,54.97381],[22.69493,54.97057],[22.68898,54.97275],[22.68757,54.98082],[22.67676,54.98792],[22.6711,54.98822],[22.65924,54.98171],[22.66487,54.97367],[22.66381,54.97104],[22.66821,54.96835],[22.66176,54.96425],[22.65708,54.96778],[22.65278,54.96508],[22.6416,54.97258],[22.64317,54.98389],[22.63624,54.98507],[22.63508,54.98944],[22.62654,54.9956],[22.62627,55.00233],[22.61408,55.01277],[22.60377,55.01331],[22.60255,55.0196],[22.59756,55.02337],[22.59464,55.03409],[22.5975,55.04599],[22.5903,55.05443],[22.58924,55.07006],[22.54831,55.06603],[22.47812,55.04485],[22.46131,55.04436],[22.42738,55.05376],[22.39641,55.05302],[22.34895,55.06163],[22.29183,55.065],[22.211,55.05935],[22.18725,55.05355],[22.15812,55.05569],[22.13267,55.04594],[22.12743,55.03306],[22.11723,55.02627],[22.07557,55.02454],[22.04648,55.03363],[22.03083,55.04887],[22.03249,55.06133],[22.04091,55.07155],[22.03828,55.08212],[22.03013,55.08494],[21.99175,55.08599],[21.97995,55.08247],[21.96732,55.07363],[21.91872,55.08006],[21.88051,55.09457],[21.85155,55.09746],[21.81495,55.12064],[21.77696,55.12063],[21.72091,55.13467],[21.71492,55.14982],[21.68434,55.16549],[21.67229,55.16799],[21.65462,55.18204],[21.59431,55.18914],[21.57386,55.1991],[21.54789,55.19871],[21.52723,55.19457],[21.51998,55.18782],[21.50162,55.18725],[21.48795,55.20421],[21.45766,55.2179],[21.449,55.22485],[21.43841,55.23872],[21.43583,55.24974],[21.41672,55.26543],[21.3979,55.28969],[21.38561,55.29524],[21.37753,55.29451],[21.3723,55.28772],[21.35433,55.28573],[21.34305,55.27859],[21.33137,55.27606],[21.32008,55.26726],[21.30345,55.26295],[21.29078,55.27783],[21.29019,55.28884],[21.28619,55.295],[21.2896,55.30088],[21.28875,55.30754],[21.28185,55.31575],[21.28277,55.31831],[21.27519,55.32653],[21.24671,55.33323],[21.2753,55.34227],[21.30094,55.3458],[21.35753,55.34206],[21.3832,55.3247],[21.38497,55.32034],[21.38079,55.30702],[21.38301,55.30498],[21.38766,55.3211],[21.37744,55.3324],[21.36203,55.34218],[21.30679,55.34706],[21.30591,55.34899],[21.32213,55.35421],[21.33156,55.35238],[21.34124,55.35478],[21.34512,55.36143],[21.34358,55.36528],[21.34923,55.36898],[21.34883,55.37423],[21.35266,55.37524],[21.33855,55.38246],[21.32597,55.38325],[21.31852,55.3802],[21.31281,55.36895],[21.31369,55.36626],[21.32312,55.36508],[21.31269,55.35384],[21.30096,55.34785],[21.24472,55.33863],[21.24204,55.34132],[21.25179,55.34433],[21.25244,55.35052],[21.24674,55.34955],[21.2457,55.3522],[21.25245,55.35423],[21.2525,55.36115],[21.24592,55.36261],[21.2405,55.35878],[21.24028,55.34709],[21.23441,55.34262],[21.18946,55.3409],[21.24858,55.41724],[21.24985,55.4746],[21.24612,55.491],[21.23425,55.50562],[21.23318,55.51536],[21.21113,55.5282],[21.20691,55.54178],[21.20699,55.55663],[21.20163,55.56868],[21.17755,55.59074],[21.16435,55.6243],[21.15129,55.63969],[21.15131,55.64583],[21.14522,55.65071],[21.14794,55.65147],[21.14321,55.66095],[21.14707,55.66172],[21.15269,55.65198],[21.16059,55.64531],[21.16512,55.64633],[21.15702,55.65914],[21.15114,55.66081],[21.13856,55.68938],[21.12184,55.70605],[21.12321,55.71066],[21.10782,55.72142],[21.08334,55.72977],[21.08539,55.73553],[21.08315,55.75064],[21.06913,55.7865],[21.0642,55.81979],[21.05831,55.83797],[21.05744,55.86614],[21.05154,55.87895],[21.05292,55.88945],[21.04975,55.90302],[21.04909,55.92019],[21.05411,55.92453],[21.07039,55.97189],[21.07228,56.01056],[21.06866,56.02849],[21.07189,56.04283],[21.06445,56.06916],[21.14334,56.08002],[21.14587,56.08411],[21.16189,56.08623],[21.18223,56.07476],[21.19912,56.07666],[21.20899,56.08477],[21.21327,56.09142],[21.21165,56.0959],[21.22512,56.10337],[21.22079,56.10822],[21.22479,56.11269],[21.23538,56.1157],[21.23333,56.11938],[21.23854,56.12277],[21.23506,56.12827],[21.23857,56.13044],[21.23562,56.1351],[21.22995,56.13659],[21.22706,56.14604],[21.22917,56.15228],[21.22581,56.15664],[21.23118,56.16256],[21.25691,56.16601],[21.25793,56.1688],[21.27435,56.17196],[21.2825,56.18489],[21.29845,56.19175],[21.32939,56.21847],[21.33807,56.21737],[21.35462,56.22488],[21.37959,56.22814],[21.41694,56.24187],[21.4313,56.24068],[21.45256,56.24883],[21.46522,56.26053],[21.46707,56.27077],[21.49154,56.29106],[21.50221,56.2955],[21.51621,56.29102],[21.5362,56.29405],[21.55637,56.30489],[21.5611,56.31608],[21.57587,56.31499],[21.5867,56.32263],[21.61093,56.32519],[21.64584,56.32082],[21.65206,56.31737],[21.65975,56.31856],[21.67557,56.31189],[21.7259,56.31417],[21.72637,56.31931],[21.73412,56.32183],[21.74668,56.33282],[21.78873,56.34456],[21.80634,56.35642],[21.8081,56.36241],[21.82439,56.36486],[21.83566,56.37162],[21.86648,56.36606],[21.87297,56.36146],[21.91935,56.36848],[21.92042,56.37238],[21.94496,56.37604],[21.95434,56.3816],[21.96943,56.37666],[21.97821,56.38514],[21.97751,56.39352],[21.98797,56.4002],[21.99371,56.41221],[22.01452,56.41452],[22.01158,56.42087],[22.02063,56.4251],[22.03345,56.42485],[22.04539,56.4173],[22.05353,56.42071],[22.06573,56.4202],[22.07179,56.42531],[22.08144,56.42262],[22.08874,56.42807],[22.10252,56.42614],[22.12513,56.43226],[22.16575,56.41963],[22.20798,56.42431],[22.21138,56.42285],[22.21528,56.41252],[22.22077,56.41189],[22.22428,56.40723],[22.23154,56.40808],[22.23647,56.40451],[22.23588,56.40134],[22.24437,56.39977],[22.27862,56.40361],[22.28753,56.4101],[22.29749,56.40704],[22.3115,56.41],[22.31934,56.40815],[22.32164,56.40213],[22.3331,56.40132],[22.34853,56.3938],[22.36574,56.40202],[22.39211,56.40114],[22.4044,56.40733],[22.42283,56.41004],[22.4469,56.40304],[22.47557,56.40404],[22.4939,56.39627],[22.51196,56.3928],[22.52881,56.39374],[22.53703,56.38938],[22.55783,56.38763],[22.58031,56.39053],[22.58675,56.38522],[22.61669,56.38235],[22.63956,56.3643],[22.66211,56.36176],[22.68002,56.35159],[22.69742,56.3532],[22.70639,56.36147],[22.72988,56.37302],[22.74979,56.37222],[22.76071,56.36728],[22.84036,56.36568],[22.89978,56.37418],[22.91917,56.37902],[22.92861,56.38811],[22.92053,56.39911],[22.93624,56.40249],[22.9357,56.41064],[22.9415,56.41485],[22.96924,56.41387],[22.9776,56.4057],[23.00225,56.40642],[23.0189,56.37062],[23.0051,56.36846],[23.01531,56.34609],[23.02408,56.34033],[23.02694,56.33115],[23.04523,56.32004],[23.07042,56.32436],[23.0851,56.31744],[23.09427,56.30496],[23.11518,56.30806],[23.11241,56.3129],[23.14602,56.32677],[23.18411,56.33742],[23.18419,56.34233],[23.17618,56.34472],[23.17245,56.35461],[23.18135,56.3584],[23.17037,56.36657],[23.27938,56.37203],[23.30425,56.37846],[23.30643,56.38305],[23.38797,56.37892],[23.41847,56.3705],[23.43937,56.3517],[23.48128,56.34773],[23.5105,56.33583],[23.54494,56.3321],[23.57243,56.33847],[23.58276,56.34545],[23.60268,56.34907],[23.63008,56.35993],[23.66136,56.36474],[23.7042,56.36625],[23.71329,56.36949],[23.7441,56.36916],[23.7648,56.37332],[23.78052,56.3677],[23.78027,56.3607],[23.77284,56.35482],[23.76214,56.3366],[23.76233,56.33324],[23.7678,56.33281],[23.76657,56.32381],[23.78148,56.32052],[23.79526,56.33907],[23.80362,56.34221],[23.82886,56.33808],[23.91262,56.33869],[23.91515,56.33112],[24.01894,56.32975],[24.02263,56.31071],[24.04924,56.29934],[24.04601,56.27966],[24.09769,56.27729],[24.09622,56.27106],[24.1189,56.26176],[24.11458,56.25092],[24.12162,56.24889],[24.15413,56.25369],[24.17679,56.25088],[24.20105,56.26706],[24.2404,56.27803],[24.25764,56.27693],[24.26964,56.28318],[24.29013,56.2856],[24.28573,56.30065],[24.29493,56.29851],[24.31701,56.30097],[24.34188,56.29506],[24.35775,56.27232],[24.38006,56.27913],[24.39221,56.2784],[24.42298,56.26112],[24.45415,56.25816],[24.46005,56.26014],[24.46174,56.26633],[24.48375,56.26947],[24.51924,56.28126],[24.56477,56.2892],[24.57955,56.28831],[24.58333,56.30559],[24.5756,56.31562],[24.57675,56.32315],[24.58174,56.32416],[24.58808,56.33255],[24.60297,56.33442],[24.60765,56.33652],[24.60814,56.34049],[24.62689,56.3494],[24.62782,56.35543],[24.62398,56.3621],[24.63051,56.36675],[24.62698,56.37339],[24.63115,56.37615],[24.69,56.3771],[24.70473,56.38829],[24.69876,56.39667],[24.70195,56.40384],[24.71486,56.40066],[24.72514,56.4029],[24.74068,56.40044],[24.76309,56.40442],[24.77449,56.39953],[24.7768,56.40271],[24.78665,56.40297],[24.80332,56.4116],[24.80537,56.41585],[24.79951,56.41771],[24.80084,56.41992],[24.80995,56.42162],[24.82087,56.41859],[24.82359,56.41107],[24.86184,56.41582],[24.86172,56.42197],[24.8517,56.4276],[24.85194,56.43652],[24.85731,56.43695],[24.87347,56.44989],[24.88652,56.45027],[24.88945,56.44682],[24.9072,56.44621],[24.9081,56.44338],[24.91877,56.43979],[24.91943,56.43519],[24.91286,56.43041],[24.9114,56.42534],[24.90244,56.42064],[24.9056,56.41277],[24.91772,56.40191],[24.92264,56.40348],[24.92712,56.40037],[24.94445,56.3751],[24.9488,56.37721],[24.955,56.37034],[24.96899,56.36588],[24.97179,56.35055],[24.96817,56.34988],[24.96677,56.34387],[24.97079,56.33698],[24.96737,56.33536],[24.97186,56.33295],[24.96853,56.32837],[24.97365,56.31817],[24.9732,56.31052],[24.98741,56.30557],[24.99139,56.29922],[25.01615,56.29161],[25.01416,56.28374],[25.01923,56.28231],[25.01893,56.27702],[25.03299,56.27222],[25.04172,56.2741],[25.0441,56.27149],[25.0416,56.26913],[25.05569,56.2661],[25.05505,56.26223],[25.05912,56.25778],[25.05613,56.25491],[25.0636,56.24945],[25.05709,56.24446],[25.06907,56.23859],[25.06319,56.22631],[25.06768,56.22613],[25.07493,56.21781],[25.07132,56.21464],[25.07136,56.20781],[25.07755,56.19808],[25.08606,56.1965],[25.09204,56.18604],[25.12258,56.1848],[25.14253,56.17997],[25.15111,56.17445],[25.16981,56.17414],[25.20036,56.1765],[25.21434,56.18698],[25.23364,56.19223],[25.23916,56.18654],[25.24799,56.1852],[25.25437,56.17333],[25.27015,56.17049],[25.27948,56.1585],[25.31486,56.1449],[25.33694,56.15407],[25.3526,56.15301],[25.40408,56.15822],[25.40249,56.14847],[25.42075,56.14498],[25.43158,56.15439],[25.45497,56.15266],[25.45404,56.14707],[25.47977,56.14282],[25.50474,56.14454],[25.50962,56.15909],[25.53609,56.16541],[25.5513,56.16199],[25.56537,56.13986],[25.60204,56.13441],[25.65095,56.13492],[25.67295,56.14948],[25.68444,56.144],[25.67642,56.13007],[25.69963,56.11947],[25.69301,56.10394],[25.69925,56.10112],[25.69544,56.09489],[25.68717,56.09301],[25.68777,56.08654],[25.73658,56.07683],[25.76071,56.06369],[25.82004,56.05474],[25.8248,56.04394],[25.83522,56.03262],[25.85025,56.03052],[25.85869,56.02252],[25.85968,56.01483],[25.84892,56.00824],[25.86029,55.99974],[25.89281,56.00082],[25.9448,55.98787],[25.94638,55.98452],[25.97417,55.98159],[25.98011,55.97565],[25.98875,55.97378],[26.0001,55.96282],[26.01036,55.96702],[26.04595,55.95423],[26.04528,55.94503],[26.05498,55.93479],[26.06376,55.93013],[26.08999,55.90091],[26.12028,55.87946],[26.15115,55.87679],[26.17323,55.86537],[26.18391,55.8685],[26.20375,55.85888],[26.22939,55.83821],[26.2356,55.81979],[26.23116,55.81285],[26.26862,55.76773],[26.30824,55.74481],[26.32737,55.74147],[26.33312,55.74377],[26.35003,55.74239],[26.36553,55.73155],[26.37563,55.7094],[26.38583,55.70453],[26.4035,55.71141],[26.45709,55.70634],[26.45963,55.70339],[26.49099,55.69597],[26.49268,55.68807],[26.51243,55.68716],[26.51949,55.67909],[26.53144,55.67684],[26.57239,55.68007],[26.57417,55.67652],[26.5975,55.67467],[26.61879,55.68114],[26.63036,55.68067],[26.63091,55.65886],[26.63766,55.65415],[26.63238,55.6082],[26.6362,55.59749],[26.62786,55.57232],[26.62156,55.5701],[26.62375,55.56586],[26.61952,55.56307],[26.61534,55.56557],[26.60793,55.56235],[26.60451,55.55677],[26.59896,55.55519],[26.59888,55.5517],[26.58597,55.54552],[26.58718,55.53884],[26.58141,55.53546],[26.56623,55.53407],[26.55823,55.52716],[26.53411,55.52489],[26.52422,55.50993],[26.53963,55.49385],[26.5388,55.48441],[26.55035,55.4773],[26.55696,55.46344],[26.54947,55.46031],[26.54191,55.45066],[26.56025,55.4381],[26.54431,55.44254],[26.53873,55.43952],[26.55936,55.41109],[26.548,55.40786],[26.55415,55.38884],[26.51101,55.37946],[26.5034,55.36982],[26.49498,55.36891],[26.48787,55.37304],[26.47482,55.37007],[26.47199,55.35673],[26.4413,55.34763],[26.44734,55.34213],[26.47716,55.34084],[26.51548,55.32998],[26.54616,55.32902],[26.55457,55.32177],[26.56589,55.3212],[26.58052,55.32511],[26.58892,55.31906],[26.5962,55.32159],[26.6064,55.31955],[26.60866,55.32366],[26.61814,55.32751],[26.61566,55.33026],[26.62677,55.33491],[26.63045,55.33395],[26.62483,55.32647],[26.63166,55.32207],[26.64096,55.32544],[26.6429,55.33378],[26.65998,55.33518],[26.66294,55.33849],[26.68426,55.33143],[26.70798,55.32915],[26.7206,55.3217],[26.73977,55.32418],[26.76475,55.32304],[26.77724,55.31857],[26.79291,55.32068],[26.79631,55.31762],[26.81434,55.31482],[26.81354,55.31007],[26.81802,55.30807],[26.83211,55.3069],[26.83009,55.30269],[26.834,55.29753],[26.83548,55.28551],[26.82913,55.27635],[26.7982,55.27364],[26.798,55.26686],[26.79488,55.26537],[26.78583,55.26741],[26.78037,55.2599],[26.76107,55.25821],[26.74934,55.25259],[26.74681,55.2545],[26.73146,55.24519],[26.72593,55.23807],[26.72971,55.21563],[26.70069,55.20054],[26.69355,55.20557],[26.67493,55.19739],[26.67656,55.1888],[26.68721,55.17756],[26.70041,55.1785],[26.70586,55.172],[26.69459,55.16694],[26.67793,55.17038],[26.67649,55.15883],[26.66869,55.15598],[26.65355,55.16099],[26.6179,55.14667],[26.58887,55.15361],[26.57509,55.14883],[26.55804,55.14826],[26.55217,55.14378],[26.53804,55.1447],[26.51691,55.16094],[26.48038,55.14869],[26.47526,55.13599],[26.46113,55.12856],[26.45743,55.13652],[26.45077,55.13299],[26.42382,55.13981],[26.4176,55.13627],[26.41046,55.13898],[26.39619,55.13387],[26.39169,55.13635],[26.39349,55.14157],[26.37076,55.14969],[26.35775,55.15054],[26.35001,55.14646],[26.32353,55.14494],[26.32556,55.14081],[26.32346,55.13551],[26.30504,55.13451],[26.30315,55.13231],[26.31039,55.13115],[26.3019,55.1252],[26.25814,55.11967],[26.22931,55.10561],[26.2714,55.07759],[26.26155,55.07409],[26.26584,55.07032],[26.26331,55.06635],[26.24621,55.07008],[26.23701,55.06455],[26.23713,55.05774],[26.24525,55.05653],[26.24505,55.05185],[26.23781,55.05104],[26.24185,55.04039],[26.23336,55.03455],[26.21679,55.01404],[26.20884,55.0124],[26.20852,54.99741],[26.186,54.9916],[26.1562,54.99237],[26.14186,54.98568],[26.12077,54.98944],[26.11798,54.98696],[26.11871,54.97999],[26.10984,54.97194],[26.0762,54.97011],[26.07271,54.96304],[26.08077,54.9547],[26.05536,54.94972],[26.05267,54.94746],[26.06418,54.94308],[26.06192,54.94161],[26.02326,54.94306],[25.99034,54.95172],[25.99043,54.95789],[25.98396,54.95783],[25.97898,54.95383],[25.94387,54.9475],[25.92777,54.93768],[25.90839,54.93139],[25.88362,54.93668],[25.87795,54.92982],[25.85783,54.9276],[25.85324,54.91917],[25.85777,54.91666],[25.85429,54.91144],[25.85889,54.90597],[25.85316,54.89659],[25.82502,54.88401],[25.8218,54.87875],[25.81668,54.87938],[25.81297,54.87648],[25.81638,54.87292],[25.80961,54.87207],[25.80873,54.86735],[25.78348,54.85808],[25.77829,54.85289],[25.77915,54.84329],[25.78432,54.83978],[25.7736,54.82337],[25.75176,54.82368],[25.74299,54.81506],[25.74157,54.80948],[25.73388,54.80238],[25.73998,54.77854],[25.7495,54.76449],[25.74538,54.75318],[25.74664,54.73032],[25.74206,54.70856],[25.73535,54.70157],[25.73985,54.68611],[25.73031,54.6828],[25.74853,54.63776],[25.74378,54.6322],[25.74863,54.6291],[25.74606,54.62673],[25.75683,54.61934],[25.75272,54.61015],[25.75811,54.60096],[25.75524,54.59296],[25.76,54.58976],[25.76163,54.58265],[25.7588,54.58088],[25.76263,54.5769],[25.74979,54.56805],[25.75037,54.56491],[25.7466,54.56245],[25.68238,54.53642],[25.65693,54.50857],[25.64932,54.48884],[25.63772,54.47704],[25.64088,54.47603],[25.63656,54.47086],[25.62052,54.46941],[25.60231,54.46085],[25.60607,54.45643],[25.61271,54.4559],[25.61726,54.45902],[25.62623,54.45633],[25.62715,54.45371],[25.61968,54.45057],[25.62152,54.44048],[25.62449,54.44031],[25.63278,54.42345],[25.60513,54.39641],[25.59617,54.39698],[25.59052,54.40144],[25.58568,54.39144],[25.59367,54.37537],[25.56222,54.36583],[25.55591,54.34238],[25.53195,54.34182],[25.53204,54.33835],[25.53604,54.3317],[25.5484,54.33171],[25.5516,54.32606],[25.54654,54.32383],[25.55235,54.31499],[25.58724,54.32231],[25.58934,54.31593],[25.62018,54.31036],[25.63037,54.31821],[25.64254,54.31082],[25.66196,54.32224],[25.67717,54.32382],[25.68432,54.31919],[25.71064,54.29691],[25.69982,54.29062],[25.7078,54.28547],[25.69872,54.28054],[25.71279,54.27155],[25.72138,54.27633],[25.74047,54.27131],[25.74385,54.27317],[25.7509,54.26811],[25.74656,54.26601],[25.75692,54.25169],[25.77456,54.23752],[25.7847,54.23801],[25.78574,54.23363],[25.75015,54.22192],[25.75884,54.2089],[25.77766,54.19969],[25.78037,54.19382],[25.77049,54.18321],[25.77881,54.17775],[25.77911,54.16784],[25.78859,54.1652],[25.78589,54.15506],[25.77916,54.15563],[25.78109,54.15973],[25.74086,54.16112],[25.73936,54.15619],[25.73461,54.15698],[25.73577,54.16163],[25.72449,54.16277],[25.71911,54.16734],[25.70151,54.16849],[25.70736,54.16364],[25.70003,54.15808],[25.68744,54.15495],[25.68942,54.14818],[25.68489,54.1407],[25.66413,54.14071],[25.65382,54.13493],[25.64998,54.12842],[25.62859,54.1308],[25.62976,54.13551],[25.62296,54.13915],[25.62697,54.14223],[25.62284,54.14338],[25.60112,54.14253],[25.60195,54.14587],[25.56408,54.15113],[25.5551,54.1462],[25.54851,54.15297],[25.53389,54.15604],[25.52709,54.16822],[25.52398,54.16564],[25.51892,54.16796],[25.51535,54.17526],[25.51096,54.17503],[25.51635,54.18633],[25.56226,54.1992],[25.5646,54.21219],[25.56184,54.21702],[25.54814,54.22025],[25.54738,54.22773],[25.55829,54.22822],[25.56419,54.23253],[25.57618,54.22468],[25.58935,54.22504],[25.59008,54.23212],[25.57056,54.24568],[25.56741,54.25114],[25.57198,54.25172],[25.56843,54.25746],[25.56444,54.257],[25.56366,54.26164],[25.55221,54.26573],[25.56549,54.2704],[25.56311,54.27485],[25.55741,54.27323],[25.52035,54.2811],[25.51113,54.3013],[25.51363,54.30787],[25.49701,54.3098],[25.494,54.30204],[25.48097,54.30241],[25.47813,54.29424],[25.45888,54.29094],[25.4534,54.29142],[25.45521,54.29797],[25.43406,54.29561],[25.40958,54.2873],[25.40548,54.27934],[25.39538,54.27422],[25.38104,54.2781],[25.37673,54.27277],[25.36519,54.27164],[25.35344,54.26398],[25.34566,54.2632],[25.33936,54.26638],[25.3214,54.26197],[25.2907,54.26184],[25.27439,54.27437],[25.26894,54.27447],[25.25161,54.25108],[25.2344,54.26336],[25.22539,54.26053],[25.2149,54.25594],[25.21702,54.25428],[25.21452,54.24352],[25.205,54.2365],[25.20434,54.22443],[25.19565,54.21301],[25.16076,54.19882],[25.16284,54.19161],[25.13971,54.18365],[25.09152,54.14608],[25.07705,54.14269],[25.07053,54.13365],[25.05524,54.13751],[25.01582,54.13752],[24.99354,54.14407],[24.98442,54.149],[24.98252,54.15565],[24.97682,54.15888],[24.98138,54.16012],[24.97544,54.16606],[24.95739,54.17206],[24.86582,54.14698],[24.85823,54.14983],[24.83854,54.14682],[24.82866,54.14912],[24.82762,54.14662],[24.81339,54.14487],[24.83125,54.1325],[24.7938,54.11549],[24.78643,54.11489],[24.78025,54.11905],[24.77374,54.1177],[24.77672,54.10412],[24.77909,54.09984],[24.79743,54.09196],[24.81761,54.07129],[24.82541,54.05573],[24.82258,54.04344],[24.83465,54.03951],[24.84101,54.03383],[24.85724,54.03559],[24.86391,54.03938],[24.87129,54.03491],[24.86184,54.02697],[24.85779,54.0306],[24.83188,54.02719],[24.83924,54.02104],[24.83197,54.016],[24.83239,54.01244],[24.8235,54.01332],[24.8137,54.00467],[24.8081,54.00482],[24.81556,53.99619],[24.80848,53.99492],[24.79391,54.00021],[24.78383,53.99463],[24.7667,53.99264],[24.75765,54.00016],[24.75027,53.99441],[24.75522,53.99272],[24.75569,53.98914],[24.73182,53.97326],[24.7408,53.96889],[24.73884,53.96599],[24.70112,53.96577],[24.68461,53.96212],[24.6937,53.9742],[24.69386,53.99121],[24.69969,53.99509],[24.7056,54.00995],[24.69784,54.01714],[24.67254,54.01698],[24.66004,54.00556],[24.64329,54.00628],[24.64364,54.00863],[24.63128,54.00572],[24.62595,54.01048],[24.60674,53.99936],[24.60129,53.99909],[24.6018,53.99347],[24.56888,53.98594],[24.55831,53.97728],[24.52877,53.96673],[24.51706,53.96642],[24.50761,53.96037],[24.5098,53.95424],[24.50385,53.94548],[24.48738,53.93515],[24.47196,53.92987],[24.4708,53.92575],[24.46076,53.91883],[24.45568,53.90846],[24.44789,53.90414],[24.43428,53.9014],[24.43397,53.90444],[24.38971,53.90347],[24.35207,53.89679],[24.31617,53.90767],[24.30547,53.91374],[24.30358,53.92004],[24.30931,53.92627],[24.30663,53.92735],[24.28677,53.922],[24.27342,53.93532],[24.26345,53.93613],[24.26314,53.93987],[24.25733,53.94259],[24.25971,53.94906],[24.25041,53.95287],[24.25056,53.95016],[24.24062,53.95063],[24.23317,53.94485],[24.21028,53.94977],[24.21116,53.95495],[24.21605,53.9573],[24.20162,53.97001],[24.17343,53.96194],[24.15422,53.96111],[24.1422,53.95384],[24.11448,53.95802],[24.10348,53.95072],[24.10312,53.94052],[23.9829,53.92395],[23.96835,53.9267],[23.96551,53.93489],[23.97166,53.93324],[23.97055,53.94154],[23.96138,53.95455],[23.94917,53.95919],[23.93433,53.95878],[23.91938,53.96814]]],[[[21.26432,55.2457],[21.26233,55.24895],[21.27108,55.25124],[21.27268,55.25457],[21.2647,55.26714],[21.26455,55.27827],[21.29411,55.2727],[21.30411,55.26038],[21.2962,55.25285],[21.26432,55.2457]]],[[[21.2838,55.27413],[21.26633,55.2784],[21.28348,55.29115],[21.28943,55.27758],[21.2838,55.27413]]],[[[21.13844,55.65494],[21.13596,55.66019],[21.13959,55.6607],[21.14138,55.65609],[21.13844,55.65494]]],[[[20.98428,55.27753],[20.95364,55.28086],[21.00254,55.33836],[21.04417,55.40008],[21.06946,55.45077],[21.09577,55.52681],[21.10498,55.59287],[21.106,55.63589],[21.10204,55.68046],[21.09398,55.7222],[21.10056,55.72015],[21.1148,55.70477],[21.13332,55.68247],[21.13511,55.67581],[21.12916,55.65789],[21.1336,55.63177],[21.13243,55.61897],[21.13625,55.61282],[21.13032,55.59823],[21.13323,55.58977],[21.12847,55.58517],[21.13115,55.57594],[21.12795,55.56494],[21.12928,55.55392],[21.11838,55.53601],[21.11517,55.52039],[21.11967,55.51347],[21.11308,55.49939],[21.11891,55.48761],[21.1101,55.48198],[21.1026,55.4615],[21.09944,55.45971],[21.09807,55.44973],[21.09038,55.44],[21.10702,55.4282],[21.11173,55.42128],[21.08761,55.40952],[21.09435,55.40197],[21.0743,55.38981],[21.07856,55.38597],[21.07766,55.38238],[21.0682,55.37291],[21.05695,55.3678],[21.05401,55.35576],[21.06029,55.35166],[21.06006,55.34833],[21.05308,55.33604],[21.05735,55.33015],[21.02185,55.31864],[21.01376,55.31326],[21.00927,55.30942],[21.00792,55.30174],[20.99849,55.29814],[21.00119,55.28869],[20.99042,55.28547],[20.98428,55.27753]]]]}}]}