{"type":"FeatureCollection","features":[{"type":"Feature","properties":{"ISO_A3":"LUX","WB_A3":"LUX","WB_NAME":"Luxembourg","WB_REGION":"ECS"},"geometry":{"type":"MultiPolygon","coordinates":[[[[5.86884,50.04741],[5.85423,50.0589],[5.86066,50.06928],[5.88662,50.07854],[5.88645,50.09085],[5.89458,50.10109],[5.89524,50.11212],[5.90052,50.11598],[5.9299,50.12628],[5.96132,50.13138],[5.95857,50.1389],[5.96128,50.14983],[5.95816,50.15138],[5.96716,50.15527],[5.96359,50.16105],[5.96436,50.17088],[5.97113,50.17498],[6.00383,50.17652],[6.02478,50.18282],[6.02955,50.16591],[6.03341,50.1624],[6.06419,50.1534],[6.07861,50.15655],[6.07925,50.17079],[6.10246,50.17054],[6.11929,50.16355],[6.11494,50.15587],[6.12434,50.1509],[6.11723,50.14668],[6.11219,50.138],[6.13778,50.12986],[6.13617,50.1238],[6.13005,50.12185],[6.12797,50.11606],[6.13506,50.11336],[6.1311,50.10842],[6.13477,50.10489],[6.13315,50.10253],[6.12559,50.10139],[6.12999,50.09232],[6.12001,50.09169],[6.12223,50.08321],[6.11591,50.07455],[6.12172,50.07289],[6.12513,50.07696],[6.12917,50.07326],[6.12146,50.06902],[6.12077,50.06493],[6.11578,50.06572],[6.11248,50.06056],[6.11994,50.05656],[6.12026,50.05943],[6.1242,50.05852],[6.12109,50.05424],[6.13442,50.04018],[6.13015,50.02931],[6.14591,50.02223],[6.138,50.01596],[6.12984,50.01793],[6.14012,50.01056],[6.14809,50.01031],[6.14946,50.00657],[6.14544,49.99854],[6.13801,49.99814],[6.1426,49.99465],[6.15084,49.99422],[6.15731,49.9872],[6.17223,49.98495],[6.1691,49.98369],[6.16521,49.96977],[6.17052,49.96291],[6.17583,49.96163],[6.17724,49.95471],[6.18114,49.9528],[6.18842,49.95633],[6.18162,49.96286],[6.18461,49.96747],[6.18995,49.96884],[6.1973,49.95115],[6.20542,49.95522],[6.21149,49.95018],[6.22398,49.95008],[6.2166,49.94455],[6.22726,49.93666],[6.22379,49.9345],[6.2261,49.92943],[6.21861,49.92263],[6.22946,49.92101],[6.23388,49.91445],[6.22729,49.91027],[6.23217,49.9064],[6.23379,49.90017],[6.24567,49.8956],[6.26272,49.88075],[6.29187,49.87458],[6.29574,49.86691],[6.31058,49.87002],[6.31362,49.86762],[6.31365,49.86146],[6.32267,49.85169],[6.31992,49.84107],[6.32732,49.83603],[6.33402,49.83748],[6.33993,49.8479],[6.36451,49.85072],[6.39745,49.82224],[6.42526,49.81607],[6.42771,49.8115],[6.44211,49.81385],[6.4436,49.81147],[6.45371,49.81146],[6.47215,49.82236],[6.48492,49.81358],[6.50643,49.80896],[6.51041,49.80217],[6.52163,49.813],[6.52916,49.80962],[6.52956,49.80392],[6.50586,49.7899],[6.51717,49.78226],[6.50998,49.77357],[6.51759,49.7689],[6.51852,49.76247],[6.50049,49.75206],[6.50203,49.73274],[6.51668,49.72477],[6.51601,49.72213],[6.51167,49.72075],[6.50547,49.72569],[6.49739,49.72655],[6.49551,49.72367],[6.50626,49.71658],[6.50657,49.7129],[6.49455,49.70852],[6.4812,49.69759],[6.45935,49.691],[6.44722,49.67827],[6.42823,49.66676],[6.42604,49.66333],[6.42817,49.66036],[6.43974,49.659],[6.43966,49.65271],[6.4215,49.62042],[6.399,49.60208],[6.38698,49.59978],[6.37529,49.59177],[6.37669,49.58502],[6.38181,49.58166],[6.38156,49.57697],[6.36875,49.57886],[6.35804,49.57391],[6.36059,49.5695],[6.3814,49.5586],[6.3821,49.5546],[6.35739,49.5323],[6.36797,49.50257],[6.36884,49.45987],[6.36449,49.4595],[6.35285,49.46732],[6.33403,49.46695],[6.3129,49.48038],[6.29624,49.48022],[6.29833,49.48655],[6.28753,49.48609],[6.28439,49.49148],[6.28881,49.49172],[6.28759,49.49434],[6.27977,49.49441],[6.27938,49.5034],[6.26361,49.50393],[6.25699,49.50981],[6.24844,49.50851],[6.23911,49.51362],[6.2361,49.50821],[6.22758,49.51035],[6.19575,49.50538],[6.17831,49.50696],[6.17498,49.51032],[6.15388,49.50163],[6.16234,49.49389],[6.14078,49.48668],[6.14178,49.49172],[6.13374,49.48997],[6.12806,49.49393],[6.12746,49.48229],[6.12205,49.47273],[6.10201,49.47039],[6.09825,49.46434],[6.09978,49.45306],[6.08778,49.45475],[6.08076,49.45854],[6.07922,49.46384],[6.05805,49.46645],[6.0418,49.44788],[6.02726,49.44826],[6.02741,49.45392],[6.02326,49.45507],[6.00784,49.45164],[6.00123,49.4565],[5.98199,49.45107],[5.9793,49.45524],[5.98574,49.45577],[5.98807,49.46128],[5.98255,49.4635],[5.97929,49.46091],[5.97401,49.46548],[5.97196,49.46958],[5.97477,49.48201],[5.9681,49.48639],[5.9738,49.4891],[5.9721,49.49141],[5.952,49.49422],[5.94006,49.50096],[5.92751,49.49836],[5.91207,49.502],[5.89658,49.49661],[5.86626,49.49992],[5.84977,49.50892],[5.84842,49.51449],[5.83634,49.51975],[5.83413,49.52641],[5.84578,49.52994],[5.83656,49.54267],[5.81716,49.53701],[5.80813,49.54254],[5.826,49.55218],[5.828,49.54999],[5.84183,49.55309],[5.84628,49.55771],[5.8432,49.56049],[5.87276,49.57434],[5.86974,49.57674],[5.8719,49.5796],[5.86599,49.58056],[5.87314,49.58402],[5.8714,49.58797],[5.85013,49.58694],[5.84784,49.59578],[5.87653,49.60851],[5.87689,49.62091],[5.88631,49.62726],[5.88271,49.63095],[5.88692,49.63496],[5.89896,49.63438],[5.90613,49.63838],[5.90223,49.64894],[5.90297,49.6576],[5.91067,49.66248],[5.90802,49.66566],[5.90323,49.66418],[5.88998,49.66963],[5.88665,49.66789],[5.88223,49.67184],[5.8654,49.67605],[5.86179,49.68107],[5.86341,49.68849],[5.88598,49.70972],[5.87474,49.71588],[5.87518,49.72189],[5.86519,49.72689],[5.84454,49.72134],[5.82632,49.72356],[5.82538,49.73204],[5.82804,49.73288],[5.82743,49.73914],[5.83265,49.74144],[5.83039,49.74337],[5.83233,49.74685],[5.81791,49.75402],[5.81595,49.76221],[5.80946,49.76534],[5.80708,49.77256],[5.79195,49.78723],[5.7934,49.79066],[5.79041,49.79572],[5.78534,49.79626],[5.78132,49.79232],[5.77733,49.79455],[5.75513,49.79145],[5.75119,49.81484],[5.74695,49.81536],[5.74339,49.82098],[5.74812,49.82468],[5.73934,49.83367],[5.74087,49.83874],[5.75048,49.84005],[5.74824,49.84646],[5.75735,49.84566],[5.75832,49.84915],[5.75473,49.85182],[5.74628,49.85212],[5.76065,49.85681],[5.75486,49.86104],[5.75696,49.8651],[5.75277,49.86822],[5.75397,49.87208],[5.75875,49.87285],[5.76305,49.86946],[5.77132,49.87205],[5.77377,49.86753],[5.78222,49.87377],[5.78331,49.87894],[5.77061,49.88706],[5.73573,49.89704],[5.74008,49.90422],[5.76358,49.91545],[5.76062,49.91748],[5.76401,49.93146],[5.77094,49.93166],[5.77068,49.93578],[5.77516,49.9377],[5.77035,49.94959],[5.77722,49.95774],[5.77503,49.9608],[5.79125,49.96181],[5.79575,49.96571],[5.80661,49.96231],[5.81055,49.96411],[5.81249,49.97223],[5.81949,49.97204],[5.83577,49.97888],[5.83943,49.98959],[5.8325,49.99045],[5.82275,49.99794],[5.81899,50.0128],[5.85246,50.02291],[5.85325,50.02757],[5.85988,50.02888],[5.85624,50.03634],[5.86336,50.03937],[5.86884,50.04741]]]]}}]}