{"type":"FeatureCollection","features":[{"type":"Feature","properties":{"ISO_A3":"LVA","WB_A3":"LVA","WB_NAME":"Latvia","WB_REGION":"ECS"},"geometry":{"type":"MultiPolygon","coordinates":[[[[24.11876,57.08635],[24.20193,57.12031],[24.26146,57.15915],[24.28061,57.14869],[24.26831,57.14303],[24.26947,57.13691],[24.27605,57.13385],[24.2952,57.13606],[24.27741,57.13452],[24.27205,57.13697],[24.27156,57.14362],[24.28268,57.14616],[24.2779,57.15348],[24.26673,57.16119],[24.31359,57.18128],[24.36867,57.21587],[24.3978,57.24466],[24.41129,57.27132],[24.41165,57.28642],[24.40631,57.30169],[24.40843,57.31198],[24.40427,57.31394],[24.40472,57.34443],[24.4011,57.35563],[24.39979,57.39402],[24.38439,57.4503],[24.38516,57.4662],[24.37975,57.48197],[24.38064,57.50939],[24.37385,57.53102],[24.36266,57.54103],[24.36952,57.55808],[24.36495,57.5818],[24.37251,57.59272],[24.37223,57.59988],[24.38681,57.61274],[24.38727,57.61633],[24.36723,57.64921],[24.36951,57.65719],[24.36444,57.67451],[24.35408,57.69196],[24.34636,57.69615],[24.34218,57.70426],[24.34652,57.75276],[24.3574,57.75465],[24.38025,57.75203],[24.34876,57.75818],[24.34715,57.79324],[24.33335,57.81779],[24.33598,57.83692],[24.34459,57.85081],[24.34344,57.86334],[24.35238,57.86916],[24.35089,57.8763],[24.40933,57.87169],[24.41209,57.86473],[24.45987,57.88013],[24.45241,57.89945],[24.45954,57.9065],[24.44549,57.90804],[24.46226,57.92495],[24.51304,57.93069],[24.50985,57.93495],[24.51832,57.93672],[24.52068,57.94345],[24.53102,57.94693],[24.54311,57.94482],[24.54866,57.94976],[24.57309,57.95432],[24.58509,57.96205],[24.60992,57.95117],[24.61665,57.94354],[24.62841,57.94187],[24.64576,57.95278],[24.64143,57.95427],[24.64435,57.95915],[24.67484,57.95923],[24.69209,57.94642],[24.71511,57.96253],[24.74354,57.96488],[24.74214,57.98204],[24.8083,57.99052],[24.83233,57.97194],[24.94887,58.00936],[24.99474,58.01097],[25.02041,58.01783],[25.07695,58.06639],[25.10507,58.06622],[25.10584,58.07783],[25.13444,58.07976],[25.15378,58.07472],[25.19123,58.07602],[25.18941,58.07995],[25.19943,58.08557],[25.21218,58.08079],[25.21658,58.07405],[25.20373,58.06504],[25.20549,58.06129],[25.21624,58.05962],[25.21754,58.04932],[25.22828,58.0535],[25.22564,58.04694],[25.2169,58.03966],[25.21948,58.03016],[25.22551,58.02177],[25.22702,58.02445],[25.23646,58.02437],[25.24602,58.01861],[25.23326,58.01764],[25.23127,58.01472],[25.24587,58.00296],[25.25601,58.00296],[25.25626,57.99385],[25.26742,57.9946],[25.28283,57.98964],[25.30141,57.99312],[25.29576,57.99984],[25.30221,58.00056],[25.29714,58.01465],[25.3006,58.01538],[25.30374,58.03427],[25.29333,58.04642],[25.27959,58.05066],[25.26487,58.06009],[25.26608,58.06723],[25.28118,58.07002],[25.28683,58.08162],[25.29567,58.08145],[25.31874,58.0695],[25.32952,58.05875],[25.33601,58.05726],[25.36386,58.0314],[25.37216,58.02877],[25.40832,58.02914],[25.4486,58.01706],[25.46688,58.00515],[25.45063,58.00156],[25.4449,57.99515],[25.47863,57.98254],[25.48585,57.97482],[25.51958,57.98019],[25.52269,57.97449],[25.51201,57.96979],[25.51708,57.96753],[25.5228,57.96792],[25.52527,57.97186],[25.55138,57.97237],[25.55687,57.96042],[25.56574,57.96264],[25.56526,57.96752],[25.5747,57.97402],[25.5805,57.97195],[25.59434,57.95958],[25.58046,57.9442],[25.63865,57.93073],[25.64718,57.92256],[25.64868,57.91666],[25.67779,57.91237],[25.67897,57.90439],[25.70326,57.90332],[25.72084,57.91306],[25.727,57.92212],[25.73746,57.92416],[25.78829,57.90458],[25.78513,57.89923],[25.82027,57.86486],[25.85913,57.85728],[25.87611,57.86514],[25.87652,57.85971],[25.88618,57.85621],[25.88374,57.84985],[25.88813,57.84705],[25.8954,57.85063],[25.93151,57.85343],[25.96196,57.84588],[25.99854,57.85904],[26.0109,57.85819],[26.02066,57.84619],[26.03618,57.85029],[26.05646,57.84843],[26.05848,57.83668],[26.05047,57.82258],[26.03862,57.81015],[26.03294,57.78978],[26.02467,57.78326],[26.02743,57.78146],[26.02711,57.77474],[26.02043,57.77186],[26.0241,57.76862],[26.03369,57.77168],[26.05053,57.76196],[26.05913,57.7609],[26.07056,57.76697],[26.07467,57.76455],[26.0816,57.76617],[26.13619,57.75096],[26.14163,57.74498],[26.13726,57.7395],[26.14488,57.73296],[26.17257,57.72942],[26.20574,57.71499],[26.17937,57.68747],[26.21153,57.67961],[26.2145,57.66828],[26.21233,57.6657],[26.23477,57.65788],[26.24305,57.65177],[26.23279,57.64895],[26.23277,57.64653],[26.23996,57.64646],[26.2465,57.63881],[26.2477,57.63549],[26.24198,57.63519],[26.24151,57.63261],[26.24981,57.62744],[26.2483,57.62497],[26.25636,57.61811],[26.25654,57.61331],[26.26747,57.60841],[26.27427,57.60078],[26.27359,57.59789],[26.28444,57.5954],[26.28487,57.59225],[26.31106,57.59294],[26.30944,57.5903],[26.31238,57.58426],[26.33508,57.57961],[26.345,57.58406],[26.40157,57.57223],[26.46949,57.57556],[26.49097,57.54547],[26.49987,57.52451],[26.52491,57.51625],[26.55743,57.51395],[26.56606,57.51967],[26.56068,57.52444],[26.5613,57.52835],[26.58552,57.53883],[26.58895,57.53663],[26.58725,57.52667],[26.59163,57.52458],[26.59,57.52216],[26.5927,57.52016],[26.58935,57.51868],[26.59064,57.51593],[26.60552,57.51459],[26.60458,57.51185],[26.61657,57.50931],[26.61462,57.52929],[26.64277,57.54651],[26.64708,57.55401],[26.67046,57.55427],[26.67238,57.55806],[26.66994,57.56306],[26.6759,57.56665],[26.69228,57.56613],[26.7005,57.57087],[26.71238,57.56684],[26.72376,57.5724],[26.7308,57.56927],[26.73781,57.57587],[26.72904,57.58025],[26.73781,57.58772],[26.75383,57.57959],[26.76714,57.58],[26.77347,57.57434],[26.75363,57.56239],[26.77502,57.56126],[26.78685,57.57529],[26.78112,57.5763],[26.78201,57.57867],[26.7928,57.57332],[26.79837,57.58221],[26.83538,57.58344],[26.86167,57.59204],[26.86362,57.5943],[26.85757,57.60093],[26.86435,57.60839],[26.85787,57.60972],[26.86453,57.61593],[26.88643,57.62154],[26.90687,57.63311],[26.92637,57.63331],[26.92959,57.63064],[26.9303,57.62341],[26.94021,57.61992],[26.95046,57.62051],[26.95119,57.61548],[26.93991,57.60908],[26.94559,57.60278],[26.95962,57.60638],[26.9708,57.6048],[26.97527,57.61252],[26.98745,57.60903],[26.9927,57.61083],[26.99521,57.60459],[27.03145,57.60452],[27.0446,57.59677],[27.04137,57.58756],[27.03363,57.58516],[27.08737,57.57676],[27.09002,57.57237],[27.10236,57.56589],[27.11735,57.56201],[27.16131,57.56048],[27.19413,57.55054],[27.22542,57.55462],[27.24861,57.54865],[27.25788,57.55074],[27.26515,57.5488],[27.26607,57.54429],[27.27525,57.54386],[27.28069,57.53734],[27.29714,57.53971],[27.32566,57.52345],[27.34712,57.52194],[27.35157,57.5182],[27.36767,57.52682],[27.36514,57.53001],[27.37474,57.53538],[27.38047,57.5354],[27.39405,57.52668],[27.41501,57.5226],[27.43352,57.52593],[27.44378,57.53175],[27.47032,57.53005],[27.46943,57.53462],[27.48873,57.53547],[27.50058,57.54023],[27.55633,57.53782],[27.54685,57.51958],[27.56655,57.51474],[27.56696,57.50875],[27.55578,57.49764],[27.55469,57.49047],[27.55702,57.48821],[27.55028,57.46755],[27.54062,57.46778],[27.51595,57.42444],[27.52702,57.42595],[27.55694,57.41575],[27.56082,57.41119],[27.59223,57.41702],[27.60368,57.41558],[27.62374,57.40179],[27.66982,57.39513],[27.66995,57.39167],[27.67936,57.38499],[27.68409,57.37223],[27.72061,57.36143],[27.75722,57.35477],[27.75688,57.351],[27.77908,57.34354],[27.77997,57.33559],[27.77331,57.33162],[27.78189,57.3203],[27.82395,57.32312],[27.84328,57.31056],[27.84795,57.30336],[27.85576,57.30319],[27.86651,57.29638],[27.86815,57.28614],[27.86788,57.2817],[27.8622,57.27676],[27.86041,57.26295],[27.86592,57.26129],[27.8637,57.25764],[27.86823,57.2483],[27.86446,57.24431],[27.85849,57.24474],[27.85406,57.23566],[27.8438,57.23045],[27.83788,57.22008],[27.84152,57.21089],[27.82974,57.20739],[27.8256,57.20049],[27.8306,57.19905],[27.82539,57.19179],[27.8341,57.18452],[27.83501,57.17987],[27.82665,57.17219],[27.83362,57.167],[27.8222,57.15784],[27.82376,57.15299],[27.82014,57.1518],[27.81779,57.14289],[27.78811,57.13281],[27.78329,57.13278],[27.7829,57.13515],[27.75767,57.13115],[27.7517,57.12681],[27.75549,57.12358],[27.73401,57.11317],[27.75309,57.10655],[27.752,57.09846],[27.74683,57.09786],[27.74298,57.09988],[27.7453,57.1014],[27.7374,57.10309],[27.7218,57.10042],[27.71945,57.10363],[27.71503,57.09761],[27.71926,57.09308],[27.74295,57.08964],[27.75149,57.08407],[27.76556,57.08654],[27.76759,57.08342],[27.75176,57.07631],[27.74298,57.06764],[27.74839,57.05288],[27.73582,57.04668],[27.72894,57.03837],[27.7286,57.02748],[27.7139,57.0064],[27.73168,57.00155],[27.76942,57.00436],[27.74293,56.95697],[27.73768,56.92036],[27.7299,56.92035],[27.72409,56.91494],[27.71474,56.9131],[27.68516,56.9142],[27.68321,56.90683],[27.67114,56.89386],[27.67394,56.88701],[27.67047,56.86977],[27.65542,56.85323],[27.65927,56.83434],[27.68912,56.83683],[27.70245,56.84153],[27.70412,56.84773],[27.71942,56.84754],[27.72015,56.85085],[27.73056,56.85312],[27.73285,56.85717],[27.74312,56.85438],[27.7653,56.86265],[27.77914,56.86173],[27.78899,56.86466],[27.79612,56.86256],[27.82226,56.86712],[27.84407,56.87442],[27.84686,56.88016],[27.87389,56.87733],[27.87524,56.87413],[27.87028,56.86757],[27.88376,56.85737],[27.88494,56.85237],[27.89848,56.8379],[27.90386,56.82052],[27.93485,56.82627],[27.96801,56.83669],[27.97107,56.83235],[27.96659,56.82645],[27.97566,56.82523],[27.96988,56.82033],[27.97553,56.81766],[27.9766,56.81165],[27.96511,56.80593],[27.95805,56.80768],[27.94437,56.80286],[27.94431,56.79867],[27.94001,56.79632],[27.9417,56.78797],[27.94712,56.78315],[27.94464,56.77654],[27.93453,56.77323],[27.91503,56.77318],[27.90061,56.75981],[27.89911,56.75153],[27.90374,56.75006],[27.90486,56.74585],[27.91391,56.74493],[27.91168,56.74214],[27.91845,56.7331],[27.93622,56.72808],[27.94534,56.72226],[27.94628,56.71632],[27.96213,56.71207],[27.96165,56.70777],[27.98087,56.70675],[27.98187,56.7033],[27.97615,56.69325],[27.979,56.68845],[27.9941,56.6889],[28.01248,56.67237],[28.01154,56.63653],[28.03744,56.60845],[28.04301,56.59039],[28.05042,56.58916],[28.05343,56.58482],[28.07763,56.58611],[28.09959,56.58232],[28.12734,56.58214],[28.14293,56.57201],[28.1368,56.5642],[28.14066,56.55177],[28.1054,56.54329],[28.09975,56.53902],[28.10023,56.53168],[28.09202,56.5298],[28.09589,56.52408],[28.09418,56.51128],[28.11173,56.5094],[28.12625,56.51574],[28.13672,56.50875],[28.12564,56.4965],[28.12943,56.49065],[28.17542,56.45434],[28.19004,56.45184],[28.19279,56.44826],[28.19267,56.43747],[28.18667,56.42871],[28.18253,56.428],[28.18629,56.41169],[28.19415,56.40508],[28.18712,56.40398],[28.16784,56.38014],[28.16309,56.37952],[28.16543,56.37452],[28.19378,56.35789],[28.19349,56.35225],[28.20072,56.3433],[28.19932,56.33782],[28.20625,56.32262],[28.23039,56.29687],[28.24141,56.27858],[28.23953,56.27114],[28.2179,56.24848],[28.19817,56.24172],[28.18706,56.23251],[28.18417,56.22614],[28.18762,56.21942],[28.20392,56.21491],[28.19884,56.20948],[28.17758,56.20466],[28.18655,56.20016],[28.18519,56.19372],[28.18018,56.19296],[28.17676,56.1878],[28.17905,56.17944],[28.15461,56.17037],[28.13675,56.17206],[28.1285,56.16573],[28.11362,56.16277],[28.1014,56.15186],[28.0953,56.15054],[28.09241,56.14573],[28.09317,56.13643],[28.06814,56.14004],[28.04496,56.12886],[28.04461,56.11873],[28.02613,56.11929],[28.02223,56.12429],[28.00884,56.1267],[27.97195,56.12029],[27.96961,56.11019],[27.96223,56.10523],[27.95003,56.10291],[27.95143,56.10042],[27.94714,56.09533],[27.94132,56.09336],[27.93451,56.08014],[27.93576,56.0734],[27.92183,56.06408],[27.9226,56.06089],[27.91891,56.05851],[27.90704,56.05557],[27.90756,56.05294],[27.8999,56.0502],[27.87504,56.05333],[27.86499,56.04979],[27.86627,56.04793],[27.86116,56.04415],[27.83873,56.03806],[27.82093,56.04007],[27.80652,56.0354],[27.81383,56.02937],[27.82775,56.02675],[27.83325,56.02168],[27.81571,56.01072],[27.8169,56.00816],[27.80723,56.00687],[27.81237,55.99882],[27.81134,55.98982],[27.80282,55.98987],[27.7994,55.98169],[27.78735,55.98019],[27.78395,55.97523],[27.76919,55.97518],[27.76282,55.97963],[27.74955,55.97906],[27.74444,55.97218],[27.65293,55.92952],[27.65321,55.91313],[27.62468,55.89238],[27.63972,55.84806],[27.61803,55.792],[27.61479,55.78988],[27.61583,55.78704],[27.59294,55.78352],[27.55772,55.78418],[27.47656,55.79086],[27.46905,55.79398],[27.43457,55.79418],[27.37449,55.8082],[27.36672,55.81498],[27.35453,55.81097],[27.34922,55.80564],[27.35148,55.80378],[27.34477,55.80024],[27.3069,55.79299],[27.2873,55.78515],[27.24854,55.79472],[27.24242,55.80575],[27.21355,55.82105],[27.1996,55.83423],[27.1703,55.8381],[27.16802,55.84522],[27.15347,55.85209],[27.14366,55.84861],[27.13237,55.85142],[27.1179,55.84977],[27.10221,55.8445],[27.09812,55.82896],[27.09271,55.82709],[27.05142,55.83073],[27.0349,55.82733],[27.03204,55.82269],[27.01524,55.82879],[26.99686,55.81854],[26.97365,55.81463],[26.9677,55.80643],[26.95222,55.79769],[26.94692,55.78757],[26.9318,55.79014],[26.92036,55.78796],[26.8986,55.75686],[26.89758,55.75297],[26.90122,55.75158],[26.87535,55.73452],[26.87846,55.72795],[26.87047,55.71375],[26.79993,55.69808],[26.78388,55.6779],[26.74334,55.68224],[26.72185,55.70066],[26.65287,55.70745],[26.64445,55.70422],[26.65149,55.70006],[26.64237,55.69615],[26.63662,55.68227],[26.61879,55.68114],[26.5975,55.67467],[26.57417,55.67652],[26.57239,55.68007],[26.53144,55.67684],[26.51949,55.67909],[26.51243,55.68716],[26.49268,55.68807],[26.49099,55.69597],[26.43769,55.70969],[26.4035,55.71141],[26.38583,55.70453],[26.37563,55.7094],[26.36553,55.73155],[26.35003,55.74239],[26.33312,55.74377],[26.32737,55.74147],[26.30824,55.74481],[26.26862,55.76773],[26.23116,55.81285],[26.2356,55.81979],[26.22939,55.83821],[26.20375,55.85888],[26.18391,55.8685],[26.17323,55.86537],[26.15115,55.87679],[26.12028,55.87946],[26.08999,55.90091],[26.06376,55.93013],[26.05498,55.93479],[26.04528,55.94503],[26.04595,55.95423],[26.01036,55.96702],[26.0001,55.96282],[25.98875,55.97378],[25.98011,55.97565],[25.97417,55.98159],[25.94638,55.98452],[25.9448,55.98787],[25.89281,56.00082],[25.86029,55.99974],[25.84892,56.00824],[25.85968,56.01483],[25.85869,56.02252],[25.85025,56.03052],[25.83522,56.03262],[25.8248,56.04394],[25.82004,56.05474],[25.76071,56.06369],[25.73658,56.07683],[25.68777,56.08654],[25.68717,56.09301],[25.69544,56.09489],[25.69925,56.10112],[25.69301,56.10394],[25.69963,56.11947],[25.67642,56.13007],[25.68444,56.144],[25.67295,56.14948],[25.65095,56.13492],[25.60204,56.13441],[25.56537,56.13986],[25.5513,56.16199],[25.53609,56.16541],[25.50962,56.15909],[25.50474,56.14454],[25.47977,56.14282],[25.45404,56.14707],[25.45497,56.15266],[25.43158,56.15439],[25.42075,56.14498],[25.40249,56.14847],[25.40408,56.15822],[25.3526,56.15301],[25.33694,56.15407],[25.31486,56.1449],[25.27948,56.1585],[25.27015,56.17049],[25.25437,56.17333],[25.24799,56.1852],[25.23916,56.18654],[25.23364,56.19223],[25.21434,56.18698],[25.20036,56.1765],[25.16981,56.17414],[25.15111,56.17445],[25.14253,56.17997],[25.12258,56.1848],[25.09204,56.18604],[25.08606,56.1965],[25.07755,56.19808],[25.07136,56.20781],[25.07132,56.21464],[25.07493,56.21781],[25.06768,56.22613],[25.06319,56.22631],[25.06907,56.23859],[25.05709,56.24446],[25.0636,56.24945],[25.05613,56.25491],[25.05912,56.25778],[25.05505,56.26223],[25.05569,56.2661],[25.0416,56.26913],[25.0441,56.27149],[25.04172,56.2741],[25.03299,56.27222],[25.01893,56.27702],[25.01923,56.28231],[25.01416,56.28374],[25.01615,56.29161],[24.99139,56.29922],[24.98741,56.30557],[24.9732,56.31052],[24.97365,56.31817],[24.96853,56.32837],[24.97186,56.33295],[24.96737,56.33536],[24.97079,56.33698],[24.96677,56.34387],[24.96817,56.34988],[24.97179,56.35055],[24.96899,56.36588],[24.955,56.37034],[24.9488,56.37721],[24.94445,56.3751],[24.92712,56.40037],[24.92264,56.40348],[24.91772,56.40191],[24.9056,56.41277],[24.90244,56.42064],[24.9114,56.42534],[24.91286,56.43041],[24.91943,56.43519],[24.91877,56.43979],[24.9081,56.44338],[24.9072,56.44621],[24.88945,56.44682],[24.88652,56.45027],[24.87347,56.44989],[24.85731,56.43695],[24.85194,56.43652],[24.8517,56.4276],[24.86172,56.42197],[24.86184,56.41582],[24.82359,56.41107],[24.82087,56.41859],[24.80995,56.42162],[24.80084,56.41992],[24.79951,56.41771],[24.80537,56.41585],[24.80332,56.4116],[24.78665,56.40297],[24.7768,56.40271],[24.77449,56.39953],[24.76309,56.40442],[24.74068,56.40044],[24.72514,56.4029],[24.71486,56.40066],[24.70195,56.40384],[24.69876,56.39667],[24.70473,56.38829],[24.69,56.3771],[24.63115,56.37615],[24.62698,56.37339],[24.63051,56.36675],[24.62398,56.3621],[24.62782,56.35543],[24.62689,56.3494],[24.60814,56.34049],[24.60765,56.33652],[24.60297,56.33442],[24.58808,56.33255],[24.58174,56.32416],[24.57675,56.32315],[24.5756,56.31562],[24.58333,56.30559],[24.57955,56.28831],[24.56477,56.2892],[24.51924,56.28126],[24.48375,56.26947],[24.46174,56.26633],[24.46005,56.26014],[24.45415,56.25816],[24.42298,56.26112],[24.39221,56.2784],[24.38006,56.27913],[24.35775,56.27232],[24.34188,56.29506],[24.31701,56.30097],[24.29493,56.29851],[24.28573,56.30065],[24.29013,56.2856],[24.26964,56.28318],[24.25764,56.27693],[24.2404,56.27803],[24.20105,56.26706],[24.17679,56.25088],[24.15413,56.25369],[24.12162,56.24889],[24.11458,56.25092],[24.1189,56.26176],[24.09622,56.27106],[24.09769,56.27729],[24.04601,56.27966],[24.04924,56.29934],[24.02263,56.31071],[24.01894,56.32975],[23.91515,56.33112],[23.91262,56.33869],[23.82886,56.33808],[23.80362,56.34221],[23.79526,56.33907],[23.78148,56.32052],[23.76657,56.32381],[23.7678,56.33281],[23.76233,56.33324],[23.76214,56.3366],[23.77284,56.35482],[23.78027,56.3607],[23.78052,56.3677],[23.7648,56.37332],[23.7441,56.36916],[23.71329,56.36949],[23.7042,56.36625],[23.66136,56.36474],[23.63008,56.35993],[23.60268,56.34907],[23.58276,56.34545],[23.57243,56.33847],[23.54494,56.3321],[23.5105,56.33583],[23.48128,56.34773],[23.43937,56.3517],[23.41847,56.3705],[23.38797,56.37892],[23.30643,56.38305],[23.30425,56.37846],[23.27938,56.37203],[23.17037,56.36657],[23.18135,56.3584],[23.17245,56.35461],[23.17618,56.34472],[23.18419,56.34233],[23.18411,56.33742],[23.14602,56.32677],[23.11241,56.3129],[23.11518,56.30806],[23.09427,56.30496],[23.0851,56.31744],[23.07042,56.32436],[23.04523,56.32004],[23.02694,56.33115],[23.02408,56.34033],[23.01531,56.34609],[23.0051,56.36846],[23.0189,56.37062],[23.00225,56.40642],[22.9776,56.4057],[22.96924,56.41387],[22.9415,56.41485],[22.9357,56.41064],[22.93624,56.40249],[22.92053,56.39911],[22.92861,56.38811],[22.91917,56.37902],[22.89978,56.37418],[22.84036,56.36568],[22.76071,56.36728],[22.74979,56.37222],[22.72988,56.37302],[22.70639,56.36147],[22.69742,56.3532],[22.68002,56.35159],[22.66211,56.36176],[22.63956,56.3643],[22.61669,56.38235],[22.58675,56.38522],[22.58031,56.39053],[22.55783,56.38763],[22.53703,56.38938],[22.52881,56.39374],[22.51196,56.3928],[22.4939,56.39627],[22.47557,56.40404],[22.4469,56.40304],[22.42283,56.41004],[22.4044,56.40733],[22.39211,56.40114],[22.36574,56.40202],[22.34853,56.3938],[22.3331,56.40132],[22.32164,56.40213],[22.31934,56.40815],[22.3115,56.41],[22.29749,56.40704],[22.28753,56.4101],[22.27862,56.40361],[22.24437,56.39977],[22.23588,56.40134],[22.23647,56.40451],[22.23154,56.40808],[22.22428,56.40723],[22.22077,56.41189],[22.21528,56.41252],[22.21138,56.42285],[22.20798,56.42431],[22.16575,56.41963],[22.12513,56.43226],[22.10252,56.42614],[22.08874,56.42807],[22.08144,56.42262],[22.07179,56.42531],[22.06573,56.4202],[22.05353,56.42071],[22.04539,56.4173],[22.03345,56.42485],[22.02063,56.4251],[22.01158,56.42087],[22.01452,56.41452],[21.99371,56.41221],[21.98797,56.4002],[21.97751,56.39352],[21.97821,56.38514],[21.96943,56.37666],[21.95434,56.3816],[21.94496,56.37604],[21.92042,56.37238],[21.91935,56.36848],[21.87297,56.36146],[21.86648,56.36606],[21.83566,56.37162],[21.82439,56.36486],[21.8081,56.36241],[21.80634,56.35642],[21.78873,56.34456],[21.74668,56.33282],[21.73412,56.32183],[21.72637,56.31931],[21.7259,56.31417],[21.67557,56.31189],[21.65975,56.31856],[21.65206,56.31737],[21.64584,56.32082],[21.61093,56.32519],[21.5867,56.32263],[21.57587,56.31499],[21.5611,56.31608],[21.55637,56.30489],[21.5362,56.29405],[21.51621,56.29102],[21.50221,56.2955],[21.49154,56.29106],[21.46707,56.27077],[21.46522,56.26053],[21.45256,56.24883],[21.4313,56.24068],[21.41694,56.24187],[21.37959,56.22814],[21.35462,56.22488],[21.33807,56.21737],[21.32939,56.21847],[21.29845,56.19175],[21.2825,56.18489],[21.27435,56.17196],[21.25793,56.1688],[21.25691,56.16601],[21.23118,56.16256],[21.22581,56.15664],[21.22917,56.15228],[21.22706,56.14604],[21.22995,56.13659],[21.23562,56.1351],[21.23857,56.13044],[21.23506,56.12827],[21.23854,56.12277],[21.23333,56.11938],[21.23538,56.1157],[21.22479,56.11269],[21.22079,56.10822],[21.22512,56.10337],[21.21165,56.0959],[21.21327,56.09142],[21.20899,56.08477],[21.19912,56.07666],[21.18223,56.07476],[21.16189,56.08623],[21.14587,56.08411],[21.14334,56.08002],[21.06445,56.06916],[21.03308,56.13784],[20.9826,56.21774],[20.97983,56.24334],[20.98533,56.29072],[20.98256,56.3112],[20.97055,56.35345],[20.97284,56.37342],[20.99314,56.42463],[21.00006,56.45638],[20.99914,56.47405],[20.9864,56.51912],[21.01234,56.51259],[21.0341,56.5122],[21.03734,56.50452],[21.02692,56.50042],[21.03085,56.49428],[21.02621,56.48455],[21.03958,56.48081],[21.04124,56.47789],[21.03846,56.47328],[21.04148,56.46764],[21.05557,56.46354],[21.04007,56.46099],[21.03058,56.44921],[21.03081,56.44639],[21.04422,56.44985],[21.04815,56.44793],[21.03912,56.43615],[21.04466,56.43051],[21.04095,56.42117],[21.05158,56.42155],[21.06034,56.41335],[21.07419,56.40912],[21.07836,56.41181],[21.06912,56.41463],[21.06913,56.42026],[21.07791,56.41974],[21.07746,56.42385],[21.06452,56.42487],[21.06846,56.42974],[21.06546,56.43563],[21.0724,56.43818],[21.07449,56.44511],[21.06988,56.44945],[21.07105,56.45432],[21.07475,56.45534],[21.07198,56.45905],[21.07431,56.46839],[21.06668,56.46968],[21.06831,56.47531],[21.06577,56.48095],[21.0718,56.4864],[21.06602,56.49042],[21.06788,56.49298],[21.06279,56.49414],[21.06557,56.49631],[21.06396,56.50527],[21.07163,56.52039],[21.05912,56.5191],[21.0531,56.51459],[21.04847,56.51629],[21.05032,56.51872],[21.04268,56.51809],[21.04152,56.51476],[21.02925,56.51681],[21.01326,56.51335],[20.99335,56.5186],[21.0003,56.52116],[20.99844,56.52308],[20.98686,56.52154],[20.9952,56.52372],[20.99798,56.53217],[20.99705,56.54421],[21.05151,56.54061],[21.05174,56.54265],[21.03861,56.54352],[21.03899,56.54906],[21.03483,56.55061],[21.03273,56.54267],[20.99821,56.54626],[20.99821,56.55548],[21.0119,56.58799],[21.04001,56.63766],[21.05731,56.69859],[21.05972,56.75467],[21.05236,56.82405],[21.05682,56.83506],[21.0643,56.84248],[21.09844,56.85552],[21.11858,56.86907],[21.16636,56.88924],[21.19774,56.8979],[21.25218,56.92289],[21.27289,56.9377],[21.2847,56.95123],[21.30209,56.95709],[21.32565,56.97214],[21.34918,56.98206],[21.37282,57.00068],[21.38426,57.01832],[21.39991,57.03337],[21.4102,57.05126],[21.41658,57.07531],[21.41565,57.11807],[21.40636,57.17391],[21.41435,57.21254],[21.41165,57.26657],[21.41919,57.291],[21.42789,57.30185],[21.45697,57.32044],[21.48193,57.34723],[21.49385,57.35358],[21.53287,57.39822],[21.54846,57.3947],[21.57177,57.39997],[21.5803,57.39878],[21.58185,57.39161],[21.60376,57.38331],[21.60582,57.37895],[21.60457,57.37486],[21.58361,57.3683],[21.57998,57.36346],[21.60251,57.3508],[21.60804,57.34105],[21.60679,57.33721],[21.57358,57.33314],[21.56929,57.33073],[21.57171,57.3192],[21.56429,57.3136],[21.56417,57.30592],[21.58036,57.29842],[21.57268,57.29052],[21.57282,57.28412],[21.58863,57.28225],[21.57799,57.28205],[21.57308,57.28617],[21.57383,57.29044],[21.58174,57.29509],[21.58181,57.2997],[21.56586,57.30796],[21.56689,57.31359],[21.57456,57.31996],[21.57261,57.33149],[21.60674,57.33414],[21.61086,57.34],[21.6063,57.35053],[21.5882,57.35932],[21.58428,57.36599],[21.60357,57.37205],[21.60773,57.37996],[21.60542,57.38356],[21.58681,57.39056],[21.58293,57.40005],[21.57846,57.40212],[21.54469,57.39613],[21.54833,57.40149],[21.54289,57.40279],[21.5472,57.40533],[21.53157,57.40681],[21.53302,57.40885],[21.55051,57.40493],[21.55671,57.40708],[21.59313,57.42971],[21.60749,57.45165],[21.63537,57.48454],[21.66339,57.50923],[21.68132,57.53934],[21.68832,57.55723],[21.69921,57.56638],[21.72229,57.57675],[21.84957,57.59887],[21.95786,57.6004],[22.00665,57.60591],[22.08209,57.62449],[22.15632,57.64777],[22.49489,57.74075],[22.56062,57.75493],[22.60629,57.75884],[22.58053,57.72282],[22.57427,57.69984],[22.57363,57.68526],[22.57661,57.66576],[22.58743,57.64002],[22.61423,57.60358],[22.63906,57.58302],[22.69661,57.5495],[22.8452,57.49274],[22.90808,57.44455],[22.91183,57.43452],[22.93775,57.41748],[23.00818,57.39486],[23.03621,57.37867],[23.0915,57.367],[23.12225,57.3661],[23.1321,57.3603],[23.12686,57.35169],[23.13649,57.33372],[23.13192,57.32855],[23.16139,57.30218],[23.16738,57.27545],[23.17947,57.26397],[23.17516,57.25098],[23.17773,57.23455],[23.19952,57.21189],[23.21224,57.18784],[23.23149,57.16676],[23.22945,57.13684],[23.23498,57.127],[23.23629,57.10957],[23.25927,57.08892],[23.29974,57.06642],[23.35823,57.04714],[23.38144,57.04273],[23.42898,57.0367],[23.48436,57.036],[23.49325,57.03198],[23.52478,56.99472],[23.55601,56.97795],[23.59368,56.9732],[23.62405,56.96488],[23.65717,56.96265],[23.77234,56.9727],[23.8618,56.98938],[23.92756,57.0081],[23.93334,57.00707],[23.92823,56.99873],[23.93138,56.99405],[23.93095,56.98559],[23.92652,56.98289],[23.90995,56.9811],[23.89142,56.98409],[23.87421,56.98],[23.9225,56.97953],[23.93505,56.98397],[23.93843,56.98825],[23.93832,56.99568],[23.96846,56.99702],[23.97564,57.00171],[23.97981,57.00981],[23.98961,57.01496],[24.02696,57.02662],[24.03059,57.03414],[24.01997,57.02594],[24.01353,57.02425],[24.01189,57.02729],[24.00817,57.02669],[24.00302,57.02067],[23.9855,57.01634],[23.97712,57.01141],[23.96769,56.99908],[23.9386,56.99675],[23.93526,56.99991],[23.93401,57.00958],[23.98473,57.03019],[24.02144,57.06043],[24.02764,57.05635],[24.02009,57.0508],[24.04051,57.05115],[24.04408,57.0447],[24.04148,57.03901],[24.06501,57.03854],[24.08282,57.02717],[24.08788,57.00756],[24.08504,56.98983],[24.08647,56.97756],[24.08384,56.97212],[24.07698,56.96991],[24.08208,56.96772],[24.08691,56.95093],[24.09715,56.95181],[24.0905,56.96792],[24.09343,56.98464],[24.099,56.98528],[24.09417,56.99003],[24.09639,57.00674],[24.09318,57.02382],[24.10793,57.02442],[24.11338,57.01789],[24.1126,57.0066],[24.11879,57.00853],[24.11452,57.02124],[24.12067,57.02369],[24.08253,57.03382],[24.07455,57.03978],[24.07715,57.04548],[24.06484,57.04673],[24.05081,57.05767],[24.02771,57.0643],[24.07587,57.07376],[24.11876,57.08635]]],[[[21.05261,56.49607],[21.05585,56.4999],[21.0584,56.49887],[21.05261,56.49607]]],[[[21.05132,56.50682],[21.04968,56.50841],[21.0517,56.50704],[21.05132,56.50682]]]]}}]}