{"type":"FeatureCollection","features":[{"type":"Feature","properties":{"ISO_A3":"MAR","WB_A3":"MAR","WB_NAME":"Morocco","WB_REGION":"MEA"},"geometry":{"type":"MultiPolygon","coordinates":[[[[-9.03075,32.73981],[-9.0287,32.74424],[-9.0214,32.74656],[-8.96404,32.78743],[-8.96191,32.79128],[-8.9645,32.79219],[-8.99859,32.77034],[-9.03083,32.74565],[-9.03251,32.73937],[-9.036,32.73845],[-9.03601,32.74411],[-9.01684,32.75967],[-8.90357,32.83933],[-8.85507,32.88864],[-8.80592,32.92868],[-8.75701,32.9795],[-8.74695,32.97948],[-8.74848,32.97575],[-8.75595,32.97693],[-8.75642,32.9741],[-8.74849,32.97434],[-8.74099,32.98281],[-8.74143,32.98692],[-8.73258,32.98973],[-8.71144,33.01706],[-8.71632,33.01669],[-8.74447,32.99104],[-8.74845,32.98629],[-8.74836,32.98034],[-8.75395,32.98232],[-8.74354,32.99772],[-8.72917,33.00592],[-8.72029,33.01747],[-8.71142,33.02285],[-8.70422,33.03157],[-8.70374,33.03877],[-8.69303,33.04568],[-8.68015,33.06365],[-8.65932,33.08082],[-8.65961,33.08596],[-8.65288,33.08722],[-8.64704,33.09826],[-8.63233,33.1103],[-8.62278,33.12955],[-8.6188,33.13006],[-8.61878,33.13391],[-8.6125,33.13955],[-8.62418,33.15912],[-8.62875,33.16081],[-8.62382,33.17043],[-8.61739,33.17247],[-8.60907,33.18812],[-8.59928,33.19015],[-8.57469,33.21757],[-8.56337,33.21728],[-8.55723,33.2224],[-8.55398,33.22984],[-8.55565,33.23268],[-8.54891,33.23522],[-8.54519,33.24395],[-8.52248,33.2571],[-8.51851,33.25593],[-8.51081,33.26451],[-8.5021,33.26255],[-8.49956,33.25174],[-8.48645,33.24462],[-8.46472,33.24504],[-8.44848,33.25063],[-8.39905,33.27508],[-8.33813,33.31821],[-8.34089,33.29702],[-8.33883,33.28672],[-8.32973,33.27536],[-8.33125,33.25635],[-8.32211,33.25142],[-8.3111,33.25136],[-8.31943,33.26168],[-8.31558,33.26462],[-8.30674,33.26033],[-8.30093,33.26107],[-8.29229,33.26963],[-8.2894,33.26769],[-8.29403,33.26231],[-8.29264,33.24534],[-8.29098,33.24173],[-8.28518,33.24041],[-8.28205,33.24888],[-8.2867,33.24235],[-8.2911,33.2461],[-8.29189,33.26282],[-8.288,33.26999],[-8.29412,33.27041],[-8.30245,33.26172],[-8.31435,33.26564],[-8.32019,33.26272],[-8.32022,33.2586],[-8.31199,33.25419],[-8.31477,33.25099],[-8.31997,33.25179],[-8.33078,33.25789],[-8.32762,33.27175],[-8.33,33.27999],[-8.33881,33.28955],[-8.33611,33.32167],[-8.30501,33.3634],[-8.24176,33.38038],[-8.21906,33.38307],[-8.19476,33.39319],[-8.17872,33.40466],[-8.15203,33.40705],[-8.12314,33.41533],[-8.07941,33.43481],[-8.01541,33.45462],[-7.96883,33.47815],[-7.95775,33.48152],[-7.94335,33.47999],[-7.9298,33.48424],[-7.87612,33.50806],[-7.86962,33.51211],[-7.86991,33.51609],[-7.85606,33.51648],[-7.83165,33.52924],[-7.82417,33.53713],[-7.81884,33.53426],[-7.81664,33.52717],[-7.7991,33.53021],[-7.79288,33.53632],[-7.76297,33.54605],[-7.74159,33.55946],[-7.71378,33.57151],[-7.70258,33.5818],[-7.6825,33.58943],[-7.67901,33.59697],[-7.6608,33.60256],[-7.65545,33.61047],[-7.65006,33.61144],[-7.64571,33.60497],[-7.62383,33.60974],[-7.61731,33.6044],[-7.61146,33.60484],[-7.61063,33.60869],[-7.60543,33.6076],[-7.60258,33.6032],[-7.59624,33.60609],[-7.59615,33.61122],[-7.59277,33.61183],[-7.58858,33.60458],[-7.55396,33.61806],[-7.53733,33.62005],[-7.47308,33.6577],[-7.4139,33.70039],[-7.41509,33.70246],[-7.40293,33.71156],[-7.39843,33.72204],[-7.39301,33.7158],[-7.39923,33.71177],[-7.38578,33.70761],[-7.35554,33.71312],[-7.3508,33.71961],[-7.34497,33.71863],[-7.342,33.72129],[-7.34499,33.72596],[-7.34155,33.72962],[-7.3318,33.73195],[-7.3308,33.73579],[-7.31996,33.73963],[-7.30245,33.75417],[-7.29846,33.75334],[-7.29838,33.75784],[-7.29376,33.75803],[-7.27184,33.77661],[-7.24764,33.7863],[-7.23607,33.79538],[-7.22897,33.79631],[-7.22699,33.80245],[-7.21749,33.80064],[-7.19094,33.80411],[-7.17065,33.81717],[-7.16206,33.81602],[-7.14996,33.82008],[-7.14764,33.82762],[-7.14488,33.82745],[-7.14633,33.82414],[-7.14158,33.82316],[-7.1273,33.82847],[-7.0648,33.86914],[-7.05154,33.8697],[-7.03409,33.87803],[-7.02981,33.87655],[-7.02752,33.88243],[-7.00447,33.89311],[-7.00244,33.90104],[-6.98188,33.91021],[-6.978,33.91786],[-6.97278,33.917],[-6.96372,33.92225],[-6.96238,33.92685],[-6.94078,33.9405],[-6.85199,34.02597],[-6.8348,34.0344],[-6.83162,34.03794],[-6.83415,34.04158],[-6.81681,34.06184],[-6.81183,34.06329],[-6.80732,34.07079],[-6.80377,34.07085],[-6.78758,34.08752],[-6.73859,34.14727],[-6.70342,34.20186],[-6.67909,34.25999],[-6.66559,34.26141],[-6.643,34.27266],[-6.61607,34.30555],[-6.5986,34.30996],[-6.57856,34.30712],[-6.59054,34.26702],[-6.56913,34.26891],[-6.5661,34.27219],[-6.56782,34.28764],[-6.56536,34.29761],[-6.55752,34.31184],[-6.55168,34.33691],[-6.54399,34.32442],[-6.5374,34.32737],[-6.53513,34.34171],[-6.53198,34.34332],[-6.51364,34.33498],[-6.501,34.33318],[-6.48386,34.34195],[-6.48791,34.34628],[-6.50016,34.34563],[-6.50142,34.35028],[-6.46404,34.36724],[-6.45798,34.37816],[-6.47527,34.40113],[-6.4807,34.41614],[-6.47281,34.41572],[-6.44838,34.40352],[-6.4422,34.40275],[-6.43433,34.4067],[-6.43219,34.41102],[-6.43766,34.41974],[-6.45265,34.41595],[-6.45472,34.4246],[-6.46495,34.43483],[-6.46146,34.44247],[-6.44758,34.45027],[-6.43915,34.442],[-6.43351,34.44368],[-6.42894,34.45617],[-6.43659,34.46481],[-6.43549,34.47044],[-6.42417,34.48536],[-6.39,34.48656],[-6.36412,34.50052],[-6.36269,34.53595],[-6.3313,34.53706],[-6.33715,34.52409],[-6.32043,34.51293],[-6.31838,34.50441],[-6.30727,34.50237],[-6.30641,34.5193],[-6.30037,34.52392],[-6.29257,34.52028],[-6.29628,34.51112],[-6.2796,34.50381],[-6.27826,34.51174],[-6.28494,34.52576],[-6.27686,34.53085],[-6.25416,34.513],[-6.24166,34.51092],[-6.25309,34.53147],[-6.25091,34.53644],[-6.23443,34.5421],[-6.24001,34.55173],[-6.23967,34.55712],[-6.23587,34.55947],[-6.22179,34.55337],[-6.21664,34.54094],[-6.20639,34.54018],[-6.20207,34.54856],[-6.21531,34.55065],[-6.20232,34.54599],[-6.20573,34.54145],[-6.21293,34.53968],[-6.21969,34.54639],[-6.22176,34.55414],[-6.23772,34.5599],[-6.24093,34.55201],[-6.23536,34.54186],[-6.25295,34.53584],[-6.25376,34.53021],[-6.24871,34.51827],[-6.24328,34.51353],[-6.24463,34.51035],[-6.25473,34.51468],[-6.27652,34.53187],[-6.28438,34.52884],[-6.28622,34.52477],[-6.27841,34.50712],[-6.28126,34.50539],[-6.28562,34.50959],[-6.29338,34.50964],[-6.29502,34.51186],[-6.2914,34.5182],[-6.29692,34.52487],[-6.30442,34.52324],[-6.30753,34.5183],[-6.30787,34.50302],[-6.3159,34.5041],[-6.32112,34.51552],[-6.33577,34.52342],[-6.32966,34.53497],[-6.33249,34.53876],[-6.3636,34.53674],[-6.36389,34.50283],[-6.39151,34.48788],[-6.4232,34.48675],[-6.43772,34.46843],[-6.42971,34.45645],[-6.43284,34.44546],[-6.43665,34.44246],[-6.44724,34.45129],[-6.46107,34.44503],[-6.46614,34.4364],[-6.45627,34.42437],[-6.4542,34.41611],[-6.43675,34.41883],[-6.43337,34.41285],[-6.43477,34.40774],[-6.4431,34.40393],[-6.44865,34.40481],[-6.47429,34.41807],[-6.48174,34.41771],[-6.47834,34.40196],[-6.46016,34.37795],[-6.47029,34.36544],[-6.50231,34.35158],[-6.50068,34.34384],[-6.48981,34.34477],[-6.48519,34.34378],[-6.48588,34.34148],[-6.49283,34.33713],[-6.5059,34.33508],[-6.53006,34.34559],[-6.53552,34.34429],[-6.54241,34.32554],[-6.54814,34.33632],[-6.55449,34.33619],[-6.57025,34.28923],[-6.56748,34.27247],[-6.56971,34.27033],[-6.58941,34.26854],[-6.57656,34.30657],[-6.57818,34.30943],[-6.59483,34.31194],[-6.61445,34.30821],[-6.65015,34.27139],[-6.65351,34.27299],[-6.6667,34.26605],[-6.67506,34.26608],[-6.52615,34.46769],[-6.3909,34.6961],[-6.30484,34.8652],[-6.29242,34.87327],[-6.28257,34.86483],[-6.28634,34.86389],[-6.2922,34.8468],[-6.29823,34.84334],[-6.29534,34.83634],[-6.29835,34.82999],[-6.28881,34.83131],[-6.29026,34.83443],[-6.28619,34.83511],[-6.27124,34.82553],[-6.27183,34.81706],[-6.26905,34.81649],[-6.26085,34.82427],[-6.25655,34.83624],[-6.25168,34.83767],[-6.25188,34.85502],[-6.26219,34.86373],[-6.25092,34.86515],[-6.25566,34.87245],[-6.2693,34.8653],[-6.27445,34.86979],[-6.28626,34.87082],[-6.2914,34.87569],[-6.30072,34.87191],[-6.29835,34.88265],[-6.24171,35.0052],[-6.22325,35.05256],[-6.21289,35.09086],[-6.18694,35.14549],[-6.18499,35.15675],[-6.18146,35.15949],[-6.16884,35.19413],[-6.15593,35.1964],[-6.15297,35.20044],[-6.14243,35.19762],[-6.14222,35.20353],[-6.12502,35.21198],[-6.11656,35.21229],[-6.11409,35.19798],[-6.11248,35.20821],[-6.11496,35.21328],[-6.12086,35.21445],[-6.13921,35.20911],[-6.14474,35.20307],[-6.15203,35.20341],[-6.10937,35.30883],[-6.08118,35.39575],[-6.06755,35.41263],[-6.05232,35.45156],[-6.02782,35.47767],[-6.00886,35.52716],[-5.9997,35.56535],[-5.9917,35.57017],[-5.97626,35.59457],[-5.97129,35.592],[-5.97224,35.5966],[-5.96977,35.59781],[-5.95412,35.5955],[-5.95501,35.59831],[-5.9714,35.59931],[-5.98355,35.59195],[-5.99193,35.57196],[-5.9951,35.57266],[-5.99578,35.57829],[-5.96946,35.67013],[-5.92865,35.78928],[-5.90733,35.80097],[-5.86268,35.79575],[-5.84581,35.80001],[-5.83647,35.79458],[-5.82514,35.7951],[-5.80822,35.7892],[-5.7981,35.77929],[-5.78508,35.77639],[-5.76704,35.78335],[-5.75177,35.79783],[-5.74841,35.80536],[-5.74963,35.81804],[-5.73954,35.81815],[-5.72241,35.82444],[-5.72133,35.82961],[-5.70745,35.82953],[-5.68945,35.83841],[-5.65533,35.82736],[-5.62941,35.83538],[-5.60432,35.83002],[-5.58895,35.83292],[-5.57181,35.83932],[-5.56351,35.84618],[-5.55307,35.84524],[-5.53916,35.85414],[-5.52839,35.86773],[-5.51429,35.87599],[-5.50703,35.8859],[-5.49682,35.8874],[-5.48458,35.90487],[-5.47388,35.90624],[-5.46435,35.9144],[-5.45646,35.91444],[-5.45167,35.91273],[-5.45084,35.90633],[-5.44098,35.90422],[-5.43986,35.90887],[-5.43642,35.90996],[-5.43477,35.90743],[-5.42687,35.90746],[-5.41433,35.91041],[-5.40331,35.92193],[-5.39734,35.91743],[-5.39928,35.91379],[-5.39473,35.90952],[-5.38219,35.91246],[-5.37845,35.9086],[-5.37737,35.89525],[-5.37209,35.88165],[-5.35573,35.87292],[-5.34386,35.87102],[-5.34714,35.85394],[-5.35297,35.84843],[-5.35367,35.83994],[-5.34809,35.77917],[-5.33175,35.70524],[-5.3196,35.68287],[-5.30448,35.68265],[-5.28856,35.68719],[-5.27372,35.68606],[-5.28364,35.66378],[-5.25992,35.58741],[-5.2387,35.54824],[-5.233,35.54681],[-5.22523,35.54977],[-5.21358,35.53779],[-5.19985,35.54125],[-5.19402,35.53519],[-5.18525,35.53625],[-5.17381,35.5317],[-5.15409,35.50534],[-5.12107,35.48614],[-5.11076,35.4763],[-5.10669,35.47688],[-5.06284,35.40776],[-5.03157,35.39968],[-5.01628,35.40341],[-5.00653,35.3897],[-4.97203,35.36431],[-4.9438,35.33805],[-4.93629,35.32584],[-4.92604,35.31675],[-4.89786,35.30461],[-4.87737,35.29966],[-4.86833,35.30173],[-4.84555,35.27844],[-4.81847,35.25829],[-4.79575,35.25093],[-4.78516,35.23926],[-4.76689,35.23439],[-4.74913,35.22399],[-4.7363,35.22443],[-4.72552,35.21816],[-4.67983,35.20441],[-4.66551,35.20808],[-4.66464,35.21169],[-4.65585,35.21027],[-4.64872,35.21396],[-4.64736,35.20884],[-4.63144,35.19531],[-4.61505,35.18949],[-4.60155,35.18774],[-4.59193,35.19172],[-4.51963,35.17518],[-4.4921,35.17604],[-4.46875,35.1654],[-4.43008,35.15469],[-4.40165,35.15772],[-4.38311,35.15266],[-4.37688,35.15415],[-4.3768,35.14952],[-4.37333,35.14815],[-4.35674,35.14731],[-4.34093,35.15648],[-4.32438,35.15833],[-4.3204,35.16377],[-4.30984,35.16851],[-4.30012,35.16733],[-4.29805,35.17077],[-4.29018,35.17206],[-4.28811,35.17979],[-4.28401,35.17791],[-4.24661,35.18794],[-4.23936,35.18454],[-4.21994,35.18371],[-4.19103,35.19762],[-4.16573,35.20172],[-4.15033,35.19737],[-4.14942,35.19969],[-4.13628,35.19981],[-4.13288,35.20293],[-4.11256,35.20543],[-4.09051,35.21899],[-4.06866,35.2242],[-4.06433,35.22848],[-4.05431,35.22818],[-4.04359,35.23508],[-4.03339,35.23363],[-4.01687,35.24006],[-4.01808,35.23633],[-4.00832,35.23217],[-3.99397,35.23704],[-3.99268,35.23423],[-3.97675,35.23731],[-3.93161,35.26169],[-3.91999,35.25921],[-3.91492,35.25437],[-3.92411,35.24916],[-3.92512,35.2417],[-3.9201,35.24148],[-3.92313,35.23246],[-3.90758,35.21382],[-3.88557,35.20512],[-3.84948,35.19715],[-3.80758,35.20232],[-3.79478,35.20678],[-3.77144,35.2217],[-3.7642,35.23383],[-3.75838,35.2647],[-3.7525,35.27245],[-3.73842,35.27562],[-3.73034,35.28261],[-3.71468,35.28347],[-3.705,35.2879],[-3.6766,35.2842],[-3.67577,35.27855],[-3.66756,35.27012],[-3.59644,35.22989],[-3.57164,35.22089],[-3.5378,35.21821],[-3.48821,35.19941],[-3.47474,35.19818],[-3.44832,35.20432],[-3.44625,35.19893],[-3.4243,35.19219],[-3.33506,35.18554],[-3.29851,35.20632],[-3.26032,35.21129],[-3.24907,35.21774],[-3.22904,35.22099],[-3.21653,35.22718],[-3.20462,35.22309],[-3.18772,35.22967],[-3.15707,35.25387],[-3.1344,35.28062],[-3.13488,35.28422],[-3.12328,35.28295],[-3.12139,35.27833],[-3.11104,35.27242],[-3.08316,35.28144],[-3.06688,35.29533],[-3.05184,35.31384],[-3.02803,35.35085],[-3.02803,35.35599],[-3.01329,35.37553],[-3.0078,35.39043],[-3.01078,35.39506],[-3.00482,35.39351],[-3.00341,35.39865],[-3.0089,35.39968],[-3.0089,35.40277],[-2.99525,35.4169],[-2.99415,35.43116],[-2.98284,35.43335],[-2.97562,35.43874],[-2.97091,35.43553],[-2.96149,35.43694],[-2.95474,35.43437],[-2.95051,35.42408],[-2.96134,35.41844],[-2.96448,35.41201],[-2.9637,35.40739],[-2.95711,35.40302],[-2.96355,35.39145],[-2.95963,35.38361],[-2.96575,35.37963],[-2.97141,35.36293],[-2.95667,35.34597],[-2.9617,35.33106],[-2.95282,35.32],[-2.96021,35.31598],[-2.9663,35.30461],[-2.97018,35.28869],[-2.9652,35.28855],[-2.96681,35.28175],[-2.95415,35.27277],[-2.95056,35.26566],[-2.92976,35.27162],[-2.91942,35.26885],[-2.92256,35.26371],[-2.84452,35.19605],[-2.85359,35.19658],[-2.85875,35.20506],[-2.87299,35.20919],[-2.87314,35.21305],[-2.87627,35.21176],[-2.88048,35.22256],[-2.89299,35.23311],[-2.90411,35.23646],[-2.9052,35.2443],[-2.91569,35.24778],[-2.91552,35.2524],[-2.92022,35.25703],[-2.92774,35.25369],[-2.93104,35.24265],[-2.92479,35.22594],[-2.91681,35.21732],[-2.90585,35.21783],[-2.89959,35.21461],[-2.89929,35.20947],[-2.90524,35.20665],[-2.91056,35.21089],[-2.91119,35.20588],[-2.92544,35.19818],[-2.92764,35.19253],[-2.92452,35.18379],[-2.91061,35.16399],[-2.90639,35.16271],[-2.90671,35.15628],[-2.90077,35.14651],[-2.88124,35.13133],[-2.81092,35.10233],[-2.78465,35.10306],[-2.76278,35.09813],[-2.7512,35.10081],[-2.74506,35.11313],[-2.75489,35.12215],[-2.76785,35.12783],[-2.77221,35.13477],[-2.7844,35.13942],[-2.78922,35.15189],[-2.81328,35.16465],[-2.83374,35.18627],[-2.84343,35.19142],[-2.84045,35.19322],[-2.76455,35.13424],[-2.74175,35.12212],[-2.72331,35.11848],[-2.68991,35.10131],[-2.66834,35.09855],[-2.65117,35.09092],[-2.62056,35.08608],[-2.60023,35.08743],[-2.56462,35.08126],[-2.53615,35.08476],[-2.50545,35.09414],[-2.50135,35.09952],[-2.48884,35.1005],[-2.42316,35.14698],[-2.42318,35.14415],[-2.38916,35.13229],[-2.33856,35.1238],[-2.29612,35.11238],[-2.26496,35.09858],[-2.21178,35.08501],[-2.21456,35.06996],[-2.21096,35.05905],[-2.21787,35.04758],[-2.18993,35.0306],[-2.18374,35.03084],[-2.18365,35.02067],[-2.16639,35.0062],[-2.15929,35.00815],[-2.14892,35.0007],[-2.13771,35.00047],[-2.12777,34.99624],[-2.12195,34.99005],[-2.12304,34.9843],[-2.10415,34.96653],[-2.09844,34.96477],[-2.08475,34.95069],[-2.05903,34.93788],[-2.04572,34.92688],[-2.03508,34.92463],[-2.01093,34.93197],[-1.99192,34.93027],[-1.97333,34.93579],[-1.97253,34.87869],[-1.96112,34.87621],[-1.94151,34.86213],[-1.9327,34.86118],[-1.89344,34.84161],[-1.88863,34.80629],[-1.8591,34.80222],[-1.84202,34.78809],[-1.82182,34.782],[-1.81488,34.78275],[-1.81274,34.77686],[-1.80571,34.77293],[-1.7521,34.75159],[-1.73958,34.74301],[-1.77175,34.72441],[-1.77508,34.69927],[-1.8151,34.66031],[-1.83612,34.62904],[-1.85393,34.61649],[-1.85111,34.61456],[-1.83933,34.61694],[-1.81673,34.60444],[-1.81248,34.59466],[-1.80556,34.58685],[-1.79912,34.58449],[-1.79742,34.5779],[-1.78882,34.56935],[-1.79075,34.56105],[-1.76709,34.54308],[-1.76578,34.53183],[-1.75442,34.52897],[-1.7517,34.51639],[-1.68775,34.4936],[-1.78345,34.39081],[-1.77273,34.37603],[-1.7343,34.34558],[-1.70695,34.30962],[-1.71047,34.29315],[-1.70879,34.27358],[-1.71121,34.25339],[-1.7067,34.22202],[-1.64808,34.1082],[-1.69924,33.86963],[-1.6707,33.77287],[-1.73064,33.73395],[-1.7385,33.70041],[-1.71165,33.68751],[-1.70613,33.67639],[-1.68285,33.67425],[-1.67172,33.67907],[-1.65147,33.67966],[-1.64762,33.67656],[-1.63272,33.63338],[-1.6256,33.62331],[-1.59955,33.61588],[-1.59494,33.60559],[-1.5994,33.60115],[-1.59689,33.58525],[-1.60117,33.57548],[-1.59306,33.57251],[-1.59347,33.56422],[-1.59707,33.55829],[-1.60311,33.55638],[-1.59916,33.55113],[-1.60074,33.54702],[-1.58847,33.5279],[-1.59497,33.52211],[-1.60578,33.49858],[-1.62026,33.48968],[-1.62084,33.47684],[-1.61743,33.47267],[-1.62439,33.46141],[-1.62107,33.4488],[-1.62888,33.43811],[-1.62784,33.43201],[-1.64719,33.42],[-1.64798,33.40761],[-1.65523,33.39895],[-1.66315,33.37764],[-1.66307,33.34934],[-1.65819,33.33843],[-1.66083,33.31882],[-1.65895,33.30121],[-1.66448,33.29629],[-1.66613,33.28685],[-1.66999,33.28331],[-1.65563,33.25585],[-1.643,33.2488],[-1.62642,33.2208],[-1.60568,33.21192],[-1.59875,33.203],[-1.59863,33.19438],[-1.58117,33.17186],[-1.57432,33.15469],[-1.57571,33.14831],[-1.55627,33.12972],[-1.53912,33.11879],[-1.53537,33.10934],[-1.52807,33.10397],[-1.51657,33.09914],[-1.51457,33.09481],[-1.49881,33.0923],[-1.47736,33.07934],[-1.46174,33.04467],[-1.46291,33.03793],[-1.47476,33.02286],[-1.47542,33.01136],[-1.4712,33.0024],[-1.48075,32.97817],[-1.4934,32.96601],[-1.51054,32.96879],[-1.51545,32.96321],[-1.54441,32.95719],[-1.38176,32.73984],[-1.26895,32.69462],[-0.99698,32.51656],[-1.00241,32.50445],[-1.04189,32.47957],[-1.04804,32.47293],[-1.04801,32.46646],[-1.05894,32.46148],[-1.06476,32.45164],[-1.11237,32.4322],[-1.11522,32.42855],[-1.12046,32.42887],[-1.1258,32.4127],[-1.1487,32.4168],[-1.16318,32.41563],[-1.16953,32.41004],[-1.18309,32.40903],[-1.19517,32.40243],[-1.2064,32.39226],[-1.20157,32.38847],[-1.20967,32.36745],[-1.21866,32.35962],[-1.22058,32.35138],[-1.21775,32.34961],[-1.22309,32.34015],[-1.22782,32.34107],[-1.2285,32.3372],[-1.24638,32.32945],[-1.2489,32.32022],[-1.24663,32.31608],[-1.23896,32.31425],[-1.23504,32.30883],[-1.23495,32.28912],[-1.24236,32.27079],[-1.24266,32.25697],[-1.24809,32.25149],[-1.24089,32.20409],[-1.25425,32.20081],[-1.26025,32.1915],[-1.27196,32.18547],[-1.27464,32.181],[-1.29623,32.172],[-1.29932,32.16751],[-1.28689,32.15836],[-1.27372,32.16229],[-1.25894,32.15981],[-1.23284,32.16964],[-1.23159,32.17337],[-1.21495,32.17504],[-1.18106,32.16482],[-1.18074,32.15993],[-1.17263,32.15165],[-1.17248,32.14238],[-1.15139,32.12764],[-1.15505,32.12495],[-1.15198,32.11145],[-1.18353,32.10323],[-1.19482,32.09433],[-1.19483,32.08858],[-1.20416,32.0846],[-1.24966,32.07647],[-1.27188,32.08713],[-1.3288,32.08231],[-1.35454,32.08585],[-1.35873,32.09116],[-1.365,32.09114],[-1.37799,32.08421],[-1.38347,32.08721],[-1.4011,32.08674],[-1.45175,32.09469],[-1.48493,32.09607],[-1.4965,32.10447],[-1.50694,32.10344],[-1.52309,32.09109],[-1.53553,32.09178],[-1.54192,32.0954],[-1.56722,32.09057],[-1.59721,32.09412],[-1.64889,32.11027],[-1.67758,32.11183],[-1.67889,32.11513],[-1.69165,32.11825],[-1.71197,32.11408],[-1.72213,32.12114],[-1.7476,32.12075],[-1.78472,32.13657],[-1.79417,32.13541],[-1.82311,32.14164],[-1.82965,32.14816],[-1.8371,32.14343],[-1.84423,32.14803],[-1.85275,32.14708],[-1.85891,32.15153],[-1.86029,32.14698],[-1.8686,32.14445],[-1.87488,32.15172],[-1.88347,32.15194],[-1.89658,32.16272],[-1.90427,32.16451],[-1.92206,32.16205],[-1.92676,32.14986],[-1.94276,32.15821],[-1.97394,32.158],[-1.97685,32.1653],[-1.99498,32.17551],[-2.01227,32.17501],[-2.03193,32.17064],[-2.03509,32.16604],[-2.04346,32.16352],[-2.07703,32.15867],[-2.09537,32.14988],[-2.13304,32.13836],[-2.19743,32.14312],[-2.23267,32.15577],[-2.24542,32.15735],[-2.26004,32.15335],[-2.26479,32.15959],[-2.26889,32.16006],[-2.27927,32.15475],[-2.2982,32.15273],[-2.44772,32.15964],[-2.4703,32.15103],[-2.53736,32.14709],[-2.55879,32.12887],[-2.58374,32.12162],[-2.59747,32.1114],[-2.6461,32.11734],[-2.70663,32.1134],[-2.7095,32.11183],[-2.70794,32.1085],[-2.7198,32.107],[-2.74681,32.10698],[-2.80884,32.11277],[-2.86151,32.1102],[-2.89319,32.11477],[-2.89694,32.11918],[-2.90643,32.11813],[-2.90778,32.1069],[-2.91935,32.09603],[-2.91721,32.08046],[-2.92226,32.07604],[-2.93054,32.02746],[-2.92788,32.02193],[-2.9162,32.01558],[-2.91653,32.00776],[-2.9011,31.98855],[-2.89966,31.9763],[-2.88478,31.96588],[-2.8812,31.95689],[-2.88408,31.93494],[-2.86312,31.91458],[-2.86182,31.90839],[-2.85421,31.90275],[-2.85152,31.89373],[-2.84341,31.8874],[-2.8405,31.87691],[-2.84218,31.86821],[-2.83655,31.86403],[-2.83625,31.85518],[-2.84264,31.84536],[-2.84358,31.83043],[-2.83059,31.82632],[-2.82073,31.81396],[-2.8239,31.8089],[-2.82349,31.79768],[-3.66667,31.63334],[-3.66667,31.37805],[-3.67383,31.38576],[-3.67397,31.37733],[-3.68257,31.36818],[-3.68955,31.36825],[-3.694,31.36295],[-3.70512,31.36568],[-3.71239,31.36155],[-3.71446,31.34656],[-3.72668,31.33976],[-3.73707,31.34135],[-3.74202,31.34782],[-3.74191,31.35779],[-3.74851,31.36193],[-3.7598,31.34679],[-3.75342,31.34013],[-3.75407,31.33706],[-3.75622,31.33399],[-3.76408,31.33458],[-3.76066,31.32795],[-3.76023,31.31604],[-3.76396,31.30887],[-3.77689,31.30431],[-3.78555,31.28943],[-3.78313,31.28767],[-3.77758,31.29353],[-3.77051,31.29197],[-3.77047,31.28604],[-3.77371,31.28441],[-3.76976,31.27955],[-3.75538,31.28451],[-3.75367,31.28037],[-3.75737,31.26533],[-3.77321,31.25598],[-3.77937,31.2492],[-3.77598,31.24338],[-3.7873,31.23732],[-3.78099,31.22158],[-3.77568,31.2274],[-3.77123,31.22682],[-3.77249,31.21278],[-3.76827,31.2098],[-3.76529,31.20104],[-3.7668,31.1962],[-3.76269,31.19709],[-3.76597,31.18726],[-3.75631,31.18107],[-3.76726,31.16099],[-3.77262,31.15711],[-3.77764,31.14448],[-3.77173,31.13566],[-3.77553,31.13297],[-3.77785,31.12259],[-3.77577,31.12045],[-3.75592,31.12831],[-3.75245,31.12319],[-3.74296,31.12787],[-3.73483,31.11839],[-3.73182,31.11914],[-3.73027,31.12938],[-3.72508,31.13049],[-3.72415,31.13848],[-3.73036,31.14188],[-3.73545,31.14021],[-3.7374,31.14595],[-3.7207,31.1456],[-3.72041,31.1512],[-3.7169,31.15326],[-3.70943,31.15225],[-3.70758,31.13655],[-3.70494,31.13822],[-3.70797,31.14108],[-3.70463,31.15132],[-3.71478,31.16542],[-3.71143,31.17173],[-3.69948,31.176],[-3.70163,31.17276],[-3.69943,31.16718],[-3.68098,31.16771],[-3.67573,31.15769],[-3.66865,31.15231],[-3.67294,31.13566],[-3.66872,31.12062],[-3.67279,31.11671],[-3.67176,31.09942],[-3.67834,31.09141],[-3.67736,31.08616],[-3.67266,31.08882],[-3.66114,31.08461],[-3.64295,31.08455],[-3.65418,31.08873],[-3.6584,31.08624],[-3.66501,31.09088],[-3.66058,31.09287],[-3.66385,31.09908],[-3.66055,31.1023],[-3.65664,31.09337],[-3.655,31.09777],[-3.64822,31.0944],[-3.63289,31.09433],[-3.63269,31.09793],[-3.64555,31.1137],[-3.64458,31.12994],[-3.64817,31.137],[-3.64506,31.14286],[-3.63861,31.14052],[-3.64145,31.14732],[-3.63943,31.14852],[-3.63396,31.14063],[-3.63944,31.1356],[-3.63917,31.11382],[-3.63487,31.11014],[-3.62959,31.11104],[-3.62132,31.1176],[-3.62092,31.12536],[-3.61406,31.12415],[-3.61687,31.12049],[-3.61692,31.09839],[-3.61232,31.10175],[-3.60784,31.0976],[-3.60974,31.09305],[-3.60402,31.07431],[-3.59518,31.07708],[-3.59525,31.07959],[-3.59044,31.07763],[-3.5914,31.05987],[-3.58736,31.05989],[-3.58377,31.05208],[-3.57426,31.04824],[-3.56583,31.05572],[-3.55796,31.04912],[-3.5571,31.05631],[-3.56184,31.06453],[-3.54813,31.06746],[-3.55069,31.05746],[-3.54887,31.05237],[-3.55349,31.04378],[-3.54272,31.03426],[-3.54079,31.02032],[-3.53677,31.02099],[-3.53576,31.01764],[-3.53779,31.00813],[-3.53574,31.00274],[-3.53985,31.00306],[-3.54143,30.99941],[-3.53785,30.98551],[-3.54284,30.97947],[-3.53816,30.97574],[-3.53819,30.97111],[-3.54256,30.97331],[-3.54773,30.96716],[-3.54875,30.96076],[-3.54527,30.95528],[-3.5535,30.95272],[-3.55716,30.94791],[-3.55362,30.94347],[-3.55791,30.9409],[-3.55852,30.93037],[-3.56554,30.93012],[-3.57093,30.93515],[-3.57479,30.93471],[-3.57773,30.9317],[-3.57556,30.92342],[-3.57944,30.91967],[-3.58418,30.92178],[-3.58715,30.91583],[-3.58193,30.91128],[-3.58701,30.89784],[-3.58243,30.89091],[-3.59455,30.88513],[-3.60064,30.88622],[-3.60126,30.89062],[-3.60642,30.8858],[-3.60551,30.88045],[-3.61342,30.8758],[-3.61726,30.8642],[-3.62392,30.86524],[-3.62225,30.8685],[-3.62454,30.87012],[-3.63419,30.86133],[-3.63869,30.86472],[-3.63778,30.86013],[-3.64367,30.85396],[-3.64605,30.85752],[-3.64937,30.85642],[-3.64785,30.84658],[-3.65575,30.85135],[-3.65212,30.83281],[-3.65452,30.83068],[-3.65168,30.82659],[-3.65457,30.82293],[-3.65071,30.80851],[-3.65787,30.8017],[-3.65666,30.79954],[-3.65259,30.80446],[-3.6494,30.79954],[-3.65382,30.79801],[-3.65573,30.79237],[-3.66057,30.79282],[-3.66499,30.78809],[-3.65862,30.78277],[-3.65889,30.77079],[-3.65261,30.76888],[-3.64704,30.77251],[-3.63775,30.77111],[-3.62268,30.76218],[-3.62531,30.75944],[-3.62187,30.75686],[-3.62103,30.74598],[-3.62379,30.7426],[-3.61592,30.73425],[-3.61979,30.72901],[-3.62591,30.73048],[-3.62796,30.72734],[-3.63406,30.7123],[-3.6392,30.70866],[-3.6358,30.70366],[-3.64092,30.70415],[-3.64553,30.69788],[-3.841,30.62861],[-3.98693,30.59466],[-4.14955,30.58524],[-4.32413,30.53058],[-4.60232,30.28924],[-4.93918,30.13983],[-5.25116,29.91964],[-5.25033,29.91566],[-5.27796,29.90634],[-5.27833,29.89554],[-5.29517,29.86926],[-5.32288,29.83827],[-5.3255,29.82887],[-5.32348,29.81442],[-5.31624,29.79799],[-5.32912,29.77106],[-5.56842,29.48644],[-5.58384,29.49206],[-5.59044,29.48809],[-5.59498,29.49018],[-5.59889,29.48363],[-5.60336,29.48503],[-5.6036,29.49034],[-5.61228,29.48617],[-5.61248,29.48913],[-5.63309,29.50092],[-5.64124,29.50048],[-5.64827,29.50725],[-5.65456,29.50717],[-5.65523,29.51083],[-5.66459,29.51134],[-5.66227,29.52028],[-5.67594,29.52499],[-5.67614,29.53006],[-5.68421,29.54159],[-5.70448,29.52707],[-5.70192,29.52391],[-5.71291,29.51412],[-5.72166,29.51925],[-5.74848,29.51136],[-5.7518,29.51406],[-5.75083,29.51915],[-5.7535,29.52173],[-5.75041,29.52277],[-5.75357,29.52716],[-5.7449,29.5324],[-5.74785,29.53784],[-5.7345,29.56045],[-5.72783,29.56357],[-5.72246,29.57113],[-5.71784,29.58787],[-5.72333,29.5914],[-5.72328,29.59655],[-5.74921,29.59825],[-5.75709,29.60131],[-5.76288,29.60786],[-5.7785,29.61157],[-5.78718,29.60951],[-5.78903,29.61403],[-5.79616,29.61678],[-5.81716,29.6125],[-5.82511,29.6056],[-5.83429,29.60656],[-5.83557,29.60919],[-5.85714,29.6069],[-5.86204,29.60505],[-5.86453,29.59422],[-5.88163,29.59339],[-5.8871,29.59782],[-5.89158,29.59545],[-5.93015,29.59695],[-5.92976,29.59152],[-5.93508,29.59076],[-5.94258,29.58399],[-5.94873,29.58578],[-5.95776,29.58008],[-5.96676,29.58473],[-5.97751,29.58053],[-5.9854,29.58134],[-5.98547,29.57774],[-5.99443,29.57558],[-6.01649,29.57946],[-6.02039,29.57407],[-6.03373,29.57373],[-6.04745,29.56592],[-6.07289,29.56507],[-6.09861,29.56931],[-6.10295,29.57275],[-6.11538,29.57065],[-6.14138,29.57948],[-6.14896,29.57767],[-6.16398,29.58488],[-6.18838,29.58029],[-6.19346,29.58915],[-6.19659,29.58932],[-6.21125,29.57732],[-6.22316,29.58038],[-6.22594,29.57904],[-6.22538,29.5748],[-6.24202,29.56972],[-6.25392,29.57028],[-6.25582,29.56681],[-6.26215,29.57002],[-6.27292,29.56874],[-6.29035,29.57273],[-6.29693,29.57165],[-6.30075,29.56632],[-6.31584,29.57182],[-6.34626,29.56861],[-6.37491,29.57013],[-6.39481,29.55903],[-6.40039,29.56263],[-6.41912,29.56292],[-6.42626,29.56638],[-6.4552,29.56232],[-6.46278,29.56423],[-6.485,29.55472],[-6.49238,29.54713],[-6.51588,29.53821],[-6.51582,29.53337],[-6.52646,29.52081],[-6.5339,29.52117],[-6.54374,29.5161],[-6.54843,29.51837],[-6.54638,29.52672],[-6.57525,29.52359],[-6.61098,29.53023],[-6.61977,29.52982],[-6.62245,29.5234],[-6.65382,29.52159],[-6.65427,29.51784],[-6.66344,29.51521],[-6.66619,29.5112],[-6.67992,29.51487],[-6.70316,29.5115],[-6.71464,29.50117],[-6.71361,29.49739],[-6.71767,29.49297],[-6.72479,29.4924],[-6.72891,29.48714],[-6.72809,29.48193],[-6.7542,29.47686],[-6.76128,29.46309],[-6.77701,29.45899],[-6.79557,29.46726],[-6.84396,29.47115],[-6.85339,29.47794],[-6.85392,29.48387],[-6.8674,29.48944],[-6.89103,29.48497],[-6.90283,29.49251],[-6.90602,29.50267],[-6.93586,29.49295],[-6.94243,29.49354],[-6.94635,29.49944],[-6.97154,29.49664],[-6.97639,29.50508],[-6.98154,29.50614],[-7.00089,29.50387],[-7.02088,29.4939],[-7.03148,29.50083],[-7.04282,29.5003],[-7.06149,29.50485],[-7.06943,29.50193],[-7.07447,29.50844],[-7.07959,29.50962],[-7.08219,29.51585],[-7.09911,29.51872],[-7.08511,29.53035],[-7.08825,29.53244],[-7.09471,29.53049],[-7.09783,29.53328],[-7.11202,29.52552],[-7.11957,29.52798],[-7.1276,29.52097],[-7.13635,29.5212],[-7.13816,29.52485],[-7.14806,29.52386],[-7.15461,29.51568],[-7.16279,29.51147],[-7.17333,29.51125],[-7.18527,29.50393],[-7.24433,29.48118],[-7.26411,29.46711],[-7.33971,29.39553],[-7.35069,29.39143],[-7.38164,29.38783],[-7.38877,29.37868],[-7.39996,29.37761],[-7.40408,29.38329],[-7.41349,29.38284],[-7.49435,29.36563],[-7.53599,29.36678],[-7.56666,29.37652],[-7.59089,29.37943],[-7.61579,29.37051],[-7.62762,29.3541],[-7.61905,29.34742],[-7.62598,29.34824],[-7.62883,29.34521],[-7.61811,29.33896],[-7.6217,29.33202],[-7.62861,29.33108],[-7.63434,29.3171],[-7.64394,29.3135],[-7.64373,29.30267],[-7.65233,29.29852],[-7.66056,29.30579],[-7.66272,29.30293],[-7.66631,29.30505],[-7.68211,29.30172],[-7.70122,29.28949],[-7.70662,29.29203],[-7.72118,29.28348],[-7.72409,29.28567],[-7.73925,29.27853],[-7.74663,29.27827],[-7.78187,29.26191],[-7.82995,29.22539],[-7.82596,29.21891],[-7.82632,29.2096],[-7.83071,29.20884],[-7.83734,29.21297],[-7.86239,29.20245],[-7.87309,29.20149],[-7.88272,29.19659],[-7.87886,29.19306],[-7.88124,29.19067],[-7.89824,29.19061],[-7.92988,29.17019],[-7.95942,29.14261],[-7.96216,29.13836],[-7.95901,29.13269],[-7.95982,29.12552],[-7.97313,29.12629],[-7.99912,29.10721],[-8.0538,29.08123],[-8.05405,29.07819],[-8.0578,29.07857],[-8.06753,29.06805],[-8.0739,29.06963],[-8.08204,29.06604],[-8.09321,29.0575],[-8.09267,29.054],[-8.10264,29.05075],[-8.10649,29.04319],[-8.1151,29.04221],[-8.1151,29.03886],[-8.11845,29.04023],[-8.12119,29.03526],[-8.13302,29.02905],[-8.13243,29.02523],[-8.14511,29.02299],[-8.15367,29.01389],[-8.15254,29.01069],[-8.18533,28.98948],[-8.19269,28.99049],[-8.19455,28.99681],[-8.19189,29.00085],[-8.19532,29.00309],[-8.20549,28.99496],[-8.21153,28.99543],[-8.21323,28.99178],[-8.227,28.98633],[-8.2394,28.97637],[-8.23477,28.97213],[-8.23521,28.96837],[-8.24289,28.96874],[-8.24288,28.96272],[-8.24831,28.96161],[-8.24882,28.95702],[-8.25354,28.95708],[-8.26562,28.94877],[-8.27047,28.95088],[-8.27684,28.94799],[-8.27559,28.94551],[-8.28466,28.9465],[-8.28926,28.94343],[-8.29176,28.93627],[-8.29714,28.9379],[-8.30055,28.93443],[-8.3073,28.92049],[-8.31267,28.91768],[-8.31729,28.92114],[-8.32736,28.91406],[-8.33656,28.90017],[-8.34258,28.89521],[-8.34682,28.89646],[-8.35019,28.88711],[-8.35446,28.88757],[-8.36699,28.87797],[-8.38835,28.85798],[-8.38681,28.85633],[-8.3954,28.85098],[-8.3988,28.84427],[-8.40524,28.84283],[-8.4049,28.83876],[-8.41578,28.83489],[-8.41306,28.83063],[-8.41824,28.83045],[-8.43211,28.81237],[-8.43777,28.81159],[-8.44796,28.80046],[-8.46171,28.79364],[-8.46731,28.79525],[-8.46973,28.78965],[-8.47776,28.7915],[-8.48209,28.78598],[-8.52098,28.77346],[-8.5651,28.75511],[-8.58703,28.74203],[-8.61725,28.73039],[-8.6228,28.73124],[-8.62745,28.72591],[-8.65363,28.71708],[-8.66446,28.7166],[-8.66761,28.71417],[-8.66761,27.66667],[-13.17329,27.66667],[-13.16042,27.69775],[-13.13515,27.70552],[-13.1135,27.72091],[-13.07191,27.73551],[-13.05082,27.75104],[-13.04238,27.76223],[-13.02748,27.79494],[-13.00858,27.80805],[-13.00042,27.84291],[-12.99723,27.85135],[-12.98988,27.85767],[-12.98662,27.86945],[-12.98636,27.87588],[-12.98894,27.8772],[-12.98365,27.88124],[-12.98052,27.89406],[-12.97105,27.89777],[-12.95898,27.92143],[-12.93845,27.9297],[-12.93034,27.94526],[-12.92072,27.94846],[-12.91713,27.95432],[-12.86264,27.95619],[-12.81667,27.96678],[-12.58089,27.99318],[-12.55094,27.99805],[-12.52205,28.0073],[-12.2436,28.05406],[-12.22858,28.04656],[-12.23394,28.04641],[-12.23899,28.04189],[-12.24301,28.04338],[-12.24936,28.03271],[-12.26568,28.02905],[-12.28,28.03563],[-12.28712,28.02922],[-12.28873,28.02282],[-12.2953,28.02064],[-12.30351,27.99946],[-12.29454,28.00468],[-12.29364,28.01778],[-12.29051,28.02106],[-12.28845,28.01665],[-12.2904,28.00983],[-12.31233,27.97096],[-12.32039,27.96713],[-12.32091,27.95763],[-12.31817,27.95732],[-12.3171,27.96553],[-12.30835,27.96793],[-12.30648,27.97329],[-12.26833,27.99285],[-12.26331,28.00252],[-12.26399,28.00999],[-12.27893,28.01492],[-12.27539,28.02333],[-12.27069,28.02594],[-12.24603,28.02699],[-12.22254,28.03898],[-12.22734,28.05528],[-12.08245,28.08698],[-12.05,28.09708],[-12.04723,28.10268],[-12.02985,28.11284],[-11.98593,28.13062],[-11.93733,28.1561],[-11.88476,28.17547],[-11.87389,28.17583],[-11.87038,28.18002],[-11.80086,28.20665],[-11.77947,28.21017],[-11.77869,28.21353],[-11.77123,28.21703],[-11.70451,28.2415],[-11.66208,28.25172],[-11.58602,28.27619],[-11.50262,28.31195],[-11.49355,28.32137],[-11.4577,28.34208],[-11.44984,28.35405],[-11.44251,28.3768],[-11.4333,28.3807],[-11.42655,28.39072],[-11.41876,28.39343],[-11.40681,28.40521],[-11.39801,28.42131],[-11.39075,28.42812],[-11.38782,28.44],[-11.36845,28.45217],[-11.35349,28.46631],[-11.3524,28.47439],[-11.34823,28.47875],[-11.35209,28.48215],[-11.34307,28.48887],[-11.3416,28.49481],[-11.30455,28.53093],[-11.27066,28.55284],[-11.25352,28.56855],[-11.20997,28.61684],[-11.1737,28.63903],[-11.14199,28.6704],[-11.12732,28.68053],[-11.12179,28.681],[-11.11908,28.66973],[-11.11316,28.66493],[-11.1024,28.64453],[-11.11148,28.66882],[-11.11682,28.67311],[-11.11538,28.68149],[-11.12058,28.6787],[-11.12079,28.68204],[-11.09259,28.7082],[-11.07399,28.73394],[-11.07371,28.74192],[-11.03997,28.76262],[-11.00457,28.77305],[-10.97166,28.79257],[-10.8439,28.84825],[-10.71088,28.91276],[-10.59926,28.97277],[-10.52998,29.01498],[-10.5061,29.03235],[-10.49098,29.0495],[-10.48342,29.05344],[-10.47857,29.06172],[-10.47015,29.06657],[-10.45837,29.08278],[-10.43808,29.0974],[-10.43701,29.10487],[-10.4255,29.11914],[-10.42387,29.12841],[-10.40533,29.14404],[-10.40159,29.15508],[-10.39124,29.16348],[-10.38251,29.179],[-10.35315,29.20862],[-10.345,29.21307],[-10.32683,29.23653],[-10.30763,29.24868],[-10.29621,29.26139],[-10.2666,29.27441],[-10.24157,29.29046],[-10.19184,29.35393],[-10.19135,29.36203],[-10.17084,29.39218],[-10.12056,29.43968],[-10.09519,29.48567],[-10.07816,29.50073],[-10.07649,29.51026],[-10.0701,29.51725],[-10.0716,29.53422],[-10.06634,29.5376],[-10.06352,29.5492],[-10.05798,29.55362],[-10.05811,29.56622],[-10.05341,29.56728],[-10.05261,29.57449],[-10.04734,29.57762],[-10.04945,29.58249],[-10.03253,29.59677],[-10.0291,29.60708],[-10.01339,29.62495],[-10.00475,29.6408],[-9.99215,29.65083],[-9.98548,29.66091],[-9.9819,29.67577],[-9.96749,29.68831],[-9.96053,29.7007],[-9.88679,29.75703],[-9.83325,29.80573],[-9.81988,29.82973],[-9.78903,29.86413],[-9.78718,29.87211],[-9.79044,29.87492],[-9.76035,29.91445],[-9.76202,29.92112],[-9.75726,29.93504],[-9.74292,29.95287],[-9.72549,29.99257],[-9.7221,29.99413],[-9.72257,29.99773],[-9.70345,30.03024],[-9.69673,30.04922],[-9.66718,30.0883],[-9.66331,30.10632],[-9.65483,30.12077],[-9.65289,30.14109],[-9.63883,30.18643],[-9.6386,30.19646],[-9.64247,30.19978],[-9.64256,30.20579],[-9.63317,30.22658],[-9.6186,30.31229],[-9.60244,30.38386],[-9.60075,30.39827],[-9.60619,30.4147],[-9.61232,30.42188],[-9.63637,30.42369],[-9.65005,30.42941],[-9.64637,30.43354],[-9.64743,30.43662],[-9.66144,30.44581],[-9.67041,30.47611],[-9.67429,30.47918],[-9.67828,30.4987],[-9.68544,30.50329],[-9.69152,30.52229],[-9.70429,30.5428],[-9.7162,30.54646],[-9.72689,30.54525],[-9.73941,30.55096],[-9.74821,30.57457],[-9.77334,30.59564],[-9.78326,30.60934],[-9.80383,30.61513],[-9.82593,30.62695],[-9.83932,30.62866],[-9.86961,30.62345],[-9.88152,30.62491],[-9.88974,30.63013],[-9.88574,30.66461],[-9.87691,30.6909],[-9.8715,30.7011],[-9.84877,30.72221],[-9.85036,30.73403],[-9.83094,30.76064],[-9.82781,30.7775],[-9.81496,30.79083],[-9.80491,30.81738],[-9.80639,30.83383],[-9.81375,30.84111],[-9.82251,30.83758],[-9.82183,30.84479],[-9.82511,30.84502],[-9.82605,30.85016],[-9.8162,30.86591],[-9.80763,30.89297],[-9.81896,30.91064],[-9.81701,30.92737],[-9.8193,30.95101],[-9.82323,30.95587],[-9.82482,30.96815],[-9.80818,31.01177],[-9.81667,31.02688],[-9.81703,31.05234],[-9.82441,31.05949],[-9.82031,31.06801],[-9.81809,31.08808],[-9.82339,31.09666],[-9.83926,31.1008],[-9.84124,31.10439],[-9.84029,31.11519],[-9.83396,31.12655],[-9.83913,31.1368],[-9.83889,31.14349],[-9.82975,31.1582],[-9.82998,31.1672],[-9.82448,31.17135],[-9.81659,31.19172],[-9.82205,31.20145],[-9.82304,31.21225],[-9.81628,31.22617],[-9.82025,31.23463],[-9.79796,31.28955],[-9.79606,31.33019],[-9.80281,31.36717],[-9.81131,31.37895],[-9.8172,31.38444],[-9.8325,31.38562],[-9.84259,31.39109],[-9.83038,31.41739],[-9.80627,31.43786],[-9.79171,31.45492],[-9.77825,31.47712],[-9.7758,31.48973],[-9.76892,31.49235],[-9.76581,31.49725],[-9.76557,31.50394],[-9.77313,31.51109],[-9.77182,31.51573],[-9.76134,31.51965],[-9.73512,31.54423],[-9.69034,31.5995],[-9.6785,31.62374],[-9.67589,31.63712],[-9.67804,31.64277],[-9.67386,31.68856],[-9.67633,31.6978],[-9.64717,31.72058],[-9.58653,31.78773],[-9.58358,31.79854],[-9.52906,31.84634],[-9.52432,31.85922],[-9.49387,31.88454],[-9.46076,31.92272],[-9.43645,31.9431],[-9.3818,32.00089],[-9.34691,32.03056],[-9.3414,32.0514],[-9.32953,32.0666],[-9.329,32.08537],[-9.31955,32.10339],[-9.32155,32.11393],[-9.261,32.17475],[-9.26162,32.18169],[-9.25275,32.20048],[-9.25038,32.21822],[-9.25375,32.23056],[-9.26483,32.24519],[-9.26515,32.25239],[-9.25189,32.27247],[-9.24349,32.29871],[-9.25263,32.31978],[-9.27991,32.32923],[-9.28164,32.34851],[-9.28986,32.36186],[-9.28128,32.38065],[-9.26738,32.39225],[-9.24971,32.41414],[-9.2342,32.45376],[-9.23108,32.47511],[-9.23154,32.47948],[-9.24766,32.4959],[-9.2589,32.50128],[-9.26424,32.51258],[-9.27047,32.51591],[-9.27097,32.52851],[-9.28421,32.54107],[-9.11622,32.66603],[-9.07825,32.70077],[-9.05303,32.72932],[-9.04604,32.73344],[-9.04482,32.73781],[-9.03539,32.73614],[-9.03075,32.73981]]],[[[-5.41817,35.912],[-5.42102,35.9122],[-5.41923,35.91571],[-5.41817,35.912]]],[[[-6.27783,34.86177],[-6.28157,34.86185],[-6.28022,34.86503],[-6.27742,34.86497],[-6.27783,34.86177]]],[[[-9.78694,31.49339],[-9.78995,31.49505],[-9.78878,31.49814],[-9.78488,31.49816],[-9.78306,31.49637],[-9.78694,31.49339]]]]}},{"type":"Feature","properties":{"ISO_A3":"","WB_A3":"","WB_NAME":"Western Sahara","WB_REGION":"","STATUS":"non-determined","AREA_ID":"western-sahara","CLAIMANTS":"MAR,ESH"},"geometry":{"type":"MultiPolygon","coordinates":[[[[-8.66761,27.66667],[-8.66761,26.00058],[-12.00086,26.00058],[-12.00086,23.45222],[-12.14206,23.41954],[-12.36568,23.3168],[-12.582,23.2717],[-13.01487,23.01074],[-13.10806,22.93529],[-13.10961,22.86868],[-13.15027,22.76028],[-13.07928,22.52085],[-13.02873,22.01326],[-13.00083,21.33402],[-16.94741,21.33425],[-16.99139,21.17072],[-16.99578,21.13282],[-17.03942,21.0346],[-17.03723,20.99007],[-17.05593,20.91959],[-17.06873,20.89532],[-17.06232,20.85495],[-17.06751,20.83341],[-17.05689,20.80244],[-17.05185,20.77365],[-17.05714,20.77847],[-17.06002,20.78874],[-17.06638,20.79355],[-17.06759,20.80203],[-17.08244,20.82656],[-17.09477,20.82744],[-17.10129,20.83405],[-17.10347,20.84278],[-17.10205,20.84897],[-17.08718,20.86254],[-17.0764,20.88558],[-17.08536,20.90992],[-17.09046,20.91192],[-17.09373,20.92075],[-17.08343,20.95782],[-17.06934,20.97935],[-17.06237,21.00106],[-17.06452,21.01776],[-17.06111,21.06851],[-17.06372,21.07877],[-17.0575,21.09506],[-17.0506,21.14174],[-17.04283,21.16551],[-17.04853,21.1711],[-17.04926,21.18422],[-17.03457,21.27345],[-17.02684,21.29105],[-17.0311,21.3206],[-17.02889,21.33967],[-17.02559,21.35953],[-17.01365,21.39107],[-17.00903,21.44518],[-16.99188,21.49764],[-16.98975,21.53344],[-16.98103,21.5598],[-16.97919,21.58633],[-16.98366,21.59091],[-16.98466,21.60402],[-16.97463,21.63529],[-16.97292,21.65126],[-16.98003,21.68798],[-16.98058,21.71809],[-16.95643,21.74515],[-16.94931,21.75887],[-16.94911,21.76454],[-16.95347,21.77105],[-16.95816,21.77164],[-16.9595,21.76866],[-16.9637,21.77311],[-16.96538,21.79574],[-16.95986,21.80508],[-16.9567,21.82622],[-16.94917,21.84021],[-16.91405,21.87305],[-16.90109,21.8943],[-16.89314,21.91885],[-16.89283,21.92606],[-16.89811,21.92934],[-16.89566,21.9425],[-16.88132,21.96351],[-16.87701,21.98183],[-16.87051,21.99117],[-16.87051,22.00224],[-16.85941,22.02939],[-16.8483,22.04522],[-16.83574,22.08809],[-16.82215,22.11578],[-16.81127,22.15065],[-16.803,22.16348],[-16.78869,22.1675],[-16.76977,22.17968],[-16.76898,22.19333],[-16.77891,22.203],[-16.77231,22.20616],[-16.76775,22.2165],[-16.7628,22.21862],[-16.76257,22.223],[-16.74033,22.23469],[-16.71514,22.2549],[-16.69858,22.2803],[-16.68022,22.29452],[-16.65156,22.29211],[-16.64616,22.27981],[-16.6362,22.26782],[-16.61519,22.26841],[-16.5463,22.29045],[-16.4982,22.31947],[-16.4926,22.32583],[-16.4938,22.34796],[-16.47705,22.36047],[-16.45898,22.39255],[-16.46047,22.40232],[-16.44955,22.44386],[-16.45082,22.45929],[-16.43915,22.48256],[-16.43905,22.49981],[-16.42695,22.52206],[-16.37712,22.55441],[-16.35905,22.57696],[-16.35677,22.61302],[-16.34276,22.65484],[-16.34507,22.66408],[-16.33949,22.6891],[-16.3434,22.72073],[-16.33606,22.75013],[-16.32692,22.76694],[-16.32825,22.77543],[-16.31971,22.78219],[-16.31238,22.79924],[-16.2989,22.81248],[-16.28878,22.82903],[-16.28798,22.84655],[-16.29288,22.85152],[-16.2962,22.84931],[-16.30095,22.85275],[-16.30216,22.86316],[-16.29082,22.88282],[-16.28769,22.90421],[-16.28479,22.90616],[-16.28184,22.90297],[-16.28025,22.89577],[-16.2683,22.896],[-16.20768,22.92105],[-16.1867,22.93794],[-16.16578,22.96152],[-16.15002,22.98764],[-16.1435,23.0057],[-16.14153,23.03609],[-16.15151,23.06511],[-16.17298,23.08709],[-16.18442,23.09074],[-16.19471,23.09014],[-16.19531,23.09439],[-16.2041,23.08196],[-16.20744,23.08194],[-16.19764,23.10647],[-16.18226,23.12924],[-16.16054,23.14407],[-16.12789,23.18421],[-16.11497,23.2054],[-16.11378,23.21262],[-16.11722,23.22418],[-16.11368,23.23347],[-16.09918,23.2485],[-16.07361,23.29115],[-16.06063,23.30591],[-16.05833,23.31417],[-16.0654,23.32776],[-16.04586,23.34179],[-15.99604,23.39],[-15.97842,23.42048],[-15.97253,23.43571],[-15.95529,23.46284],[-15.95191,23.47728],[-15.95882,23.48805],[-15.96525,23.49007],[-15.96646,23.50203],[-15.97526,23.50391],[-15.97488,23.50931],[-15.95739,23.52204],[-15.94151,23.52702],[-15.92108,23.55881],[-15.90631,23.56379],[-15.89956,23.57721],[-15.90029,23.58132],[-15.87623,23.61698],[-15.87491,23.62845],[-15.85762,23.63356],[-15.85626,23.64026],[-15.84141,23.65553],[-15.84186,23.66042],[-15.80041,23.71289],[-15.7931,23.72966],[-15.79479,23.73274],[-15.78228,23.74465],[-15.78119,23.74929],[-15.76197,23.76225],[-15.73694,23.78786],[-15.7402,23.79428],[-15.73482,23.80743],[-15.70986,23.82197],[-15.70881,23.83458],[-15.72042,23.8344],[-15.73241,23.82662],[-15.74361,23.82876],[-15.74188,23.84344],[-15.73718,23.8535],[-15.73807,23.86302],[-15.74857,23.88819],[-15.75504,23.89305],[-15.75661,23.89845],[-15.76606,23.88708],[-15.77153,23.88808],[-15.77243,23.89966],[-15.76717,23.90921],[-15.76666,23.91745],[-15.76932,23.91692],[-15.78394,23.90449],[-15.79976,23.88202],[-15.8136,23.8795],[-15.81992,23.88268],[-15.82786,23.87698],[-15.8454,23.86131],[-15.86174,23.83509],[-15.874,23.82807],[-15.88448,23.8051],[-15.89463,23.79604],[-15.90175,23.77463],[-15.90047,23.77052],[-15.9059,23.76791],[-15.90906,23.73881],[-15.9135,23.73441],[-15.9176,23.72125],[-15.91617,23.71637],[-15.922,23.71042],[-15.92403,23.70088],[-15.93182,23.6962],[-15.93858,23.68303],[-15.97069,23.66082],[-15.97993,23.64313],[-15.98411,23.64208],[-15.98456,23.64619],[-15.98693,23.64515],[-15.99189,23.63714],[-15.98303,23.62896],[-15.98609,23.62752],[-15.992,23.63212],[-16.00038,23.63258],[-16.00646,23.64245],[-16.00498,23.64889],[-15.98588,23.67296],[-15.98425,23.67914],[-15.96784,23.69083],[-15.95925,23.70118],[-15.95691,23.72462],[-15.93411,23.74213],[-15.92373,23.75725],[-15.92149,23.76328],[-15.92522,23.76986],[-15.9148,23.80004],[-15.9036,23.81889],[-15.87135,23.85048],[-15.84025,23.88824],[-15.80723,23.91235],[-15.80378,23.92125],[-15.77532,23.93787],[-15.76586,23.94757],[-15.66025,23.99954],[-15.65496,24.00561],[-15.62254,24.02235],[-15.58958,24.04668],[-15.57983,24.05959],[-15.57665,24.06912],[-15.58312,24.07425],[-15.57618,24.09023],[-15.53312,24.12051],[-15.52572,24.12825],[-15.52129,24.14217],[-15.49109,24.16582],[-15.44413,24.21616],[-15.40662,24.24857],[-15.36122,24.27648],[-15.3248,24.30849],[-15.31192,24.32782],[-15.29594,24.34201],[-15.27801,24.36469],[-15.25154,24.40592],[-15.21829,24.44201],[-15.18796,24.46367],[-15.16409,24.48931],[-15.14469,24.50066],[-15.04315,24.53702],[-15.01361,24.55285],[-15.00207,24.56881],[-15.00165,24.584],[-14.99236,24.59713],[-14.98546,24.6311],[-14.93983,24.654],[-14.91418,24.67715],[-14.89037,24.6931],[-14.88247,24.70313],[-14.88441,24.73505],[-14.8875,24.74174],[-14.88241,24.76979],[-14.87379,24.78986],[-14.87066,24.80994],[-14.85201,24.8439],[-14.84634,24.8668],[-14.84097,24.87374],[-14.82964,24.90667],[-14.83284,24.94246],[-14.83169,24.95584],[-14.82432,24.97719],[-14.81871,25.04617],[-14.82729,25.0732],[-14.84056,25.083],[-14.8414,25.08737],[-14.83658,25.10255],[-14.84531,25.12676],[-14.83908,25.13859],[-14.83679,25.15866],[-14.84493,25.20577],[-14.82705,25.24564],[-14.8242,25.26186],[-14.82813,25.27988],[-14.82726,25.29661],[-14.81165,25.32232],[-14.81318,25.33803],[-14.79814,25.35988],[-14.79145,25.3766],[-14.79311,25.39874],[-14.78642,25.41932],[-14.76339,25.45429],[-14.73314,25.48409],[-14.71721,25.50645],[-14.70708,25.53036],[-14.69641,25.54501],[-14.68525,25.57999],[-14.68572,25.61731],[-14.67431,25.63839],[-14.67471,25.6474],[-14.66401,25.66539],[-14.66082,25.6906],[-14.64192,25.74254],[-14.63758,25.7675],[-14.61493,25.78519],[-14.56537,25.85119],[-14.56233,25.86457],[-14.53428,25.90874],[-14.52664,25.93497],[-14.51619,25.94832],[-14.50855,25.97145],[-14.49895,25.98635],[-14.49281,26.02493],[-14.48749,26.03623],[-14.48964,26.06558],[-14.48468,26.09258],[-14.48917,26.10855],[-14.49992,26.12815],[-14.47489,26.17952],[-14.43054,26.23648],[-14.42024,26.24288],[-14.40159,26.26351],[-14.34903,26.27075],[-14.32358,26.27899],[-14.31299,26.28435],[-14.29116,26.30586],[-14.27885,26.31146],[-14.24729,26.33471],[-14.23144,26.35701],[-14.20556,26.38261],[-14.18919,26.41468],[-14.17982,26.42633],[-14.14239,26.42534],[-14.05825,26.43961],[-14.00665,26.45727],[-13.9722,26.4735],[-13.91575,26.51759],[-13.86921,26.53884],[-13.84816,26.55514],[-13.8272,26.56308],[-13.75267,26.60168],[-13.66737,26.65185],[-13.61739,26.68868],[-13.5739,26.73121],[-13.53103,26.80075],[-13.5275,26.81898],[-13.49642,26.88194],[-13.48807,26.90527],[-13.48789,26.9189],[-13.47872,26.93913],[-13.47415,26.95914],[-13.44014,27.0308],[-13.4301,27.06079],[-13.41922,27.07893],[-13.41806,27.08947],[-13.4207,27.09593],[-13.42472,27.09675],[-13.41806,27.11031],[-13.4081,27.1637],[-13.37472,27.21451],[-13.36431,27.2378],[-13.32823,27.28316],[-13.30414,27.3248],[-13.30065,27.34585],[-13.2874,27.36421],[-13.27787,27.38416],[-13.26721,27.42107],[-13.23043,27.5042],[-13.21911,27.55293],[-13.20601,27.57771],[-13.19613,27.62594],[-13.17329,27.66667],[-8.66761,27.66667]]],[[[-15.80794,23.86923],[-15.80771,23.87786],[-15.80557,23.87066],[-15.80794,23.86923]]]]}}]}