{"type":"FeatureCollection","features":[{"type":"Feature","properties":{"ISO_A3":"MDV","WB_A3":"MDV","WB_NAME":"Maldives","WB_REGION":"SAS"},"geometry":{"type":"MultiPolygon","coordinates":[[[[73.75762,3.4547],[73.75928,3.45547],[73.75929,3.44929],[73.75762,3.4547]]],[[[73.71505,4.44887],[73.7176,4.45892],[73.71864,4.45119],[73.71505,4.44887]]],[[[73.71198,4.43765],[73.71313,4.44293],[73.71544,4.44088],[73.71198,4.43765]]],[[[73.65288,5.35426],[73.6517,5.36354],[73.65557,5.35916],[73.65516,5.36819],[73.65787,5.3669],[73.65737,5.35814],[73.65288,5.35426]]],[[[73.65367,5.34756],[73.6534,5.35246],[73.6552,5.35324],[73.65367,5.34756]]],[[[73.65458,4.3704],[73.64636,4.37206],[73.64687,4.37451],[73.65097,4.37709],[73.65457,4.37504],[73.65458,4.3704]]],[[[73.65061,5.3317],[73.65187,5.34421],[73.65432,5.34035],[73.65061,5.3317]]],[[[73.64922,5.38248],[73.64802,5.39962],[73.63871,5.42357],[73.64115,5.42538],[73.64981,5.40271],[73.64922,5.38248]]],[[[73.63807,3.08451],[73.63601,3.09288],[73.64178,3.08954],[73.63807,3.08451]]],[[[73.63808,3.07806],[73.63589,3.08],[73.63884,3.08438],[73.63808,3.07806]]],[[[73.63291,5.42987],[73.62905,5.43218],[73.63239,5.43283],[73.63291,5.42987]]],[[[73.61841,4.34726],[73.61661,4.34816],[73.6184,4.35435],[73.61841,4.34726]]],[[[73.60661,4.34015],[73.60763,4.34479],[73.61046,4.34403],[73.60661,4.34015]]],[[[73.6024,5.27489],[73.60701,5.28057],[73.60805,5.27774],[73.6024,5.27489]]],[[[73.60021,4.33047],[73.59917,4.33524],[73.60251,4.33808],[73.60021,4.33047]]],[[[73.59798,2.94926],[73.59784,2.95751],[73.60155,2.96331],[73.60246,2.957],[73.59798,2.94926]]],[[[73.58876,2.94048],[73.5785,2.9482],[73.58183,2.9522],[73.58799,2.9477],[73.58876,2.94048]]],[[[73.55636,2.10517],[73.55045,2.11766],[73.5712,2.1231],[73.58554,2.1329],[73.58401,2.1222],[73.57044,2.11678],[73.55636,2.10517]]],[[[73.57675,2.9116],[73.58058,2.9263],[73.58455,2.92398],[73.57675,2.9116]]],[[[73.57755,2.89162],[73.57625,2.90026],[73.57779,2.89974],[73.57755,2.89162]]],[[[73.57474,2.88195],[73.57524,2.88917],[73.57665,2.8884],[73.57474,2.88195]]],[[[73.56765,4.30554],[73.56892,4.31199],[73.57663,4.30891],[73.56765,4.30554]]],[[[73.56907,0.41488],[73.57009,0.42777],[73.57316,0.42674],[73.57342,0.42184],[73.56907,0.41488]]],[[[73.56727,0.43524],[73.56803,0.44968],[73.57124,0.44014],[73.56727,0.43524]]],[[[73.5647,3.1098],[73.56367,3.11405],[73.56675,3.11264],[73.5647,3.1098]]],[[[73.56547,0.45883],[73.56189,0.46437],[73.5647,0.46359],[73.56547,0.45883]]],[[[73.56287,5.46605],[73.55823,5.47055],[73.56389,5.46876],[73.56287,5.46605]]],[[[73.55958,0.46978],[73.55318,0.48292],[73.55804,0.48267],[73.55958,0.46978]]],[[[73.55499,0.3726],[73.5546,0.37698],[73.55819,0.37956],[73.55499,0.3726]]],[[[73.55038,0.36912],[73.54846,0.37054],[73.55281,0.38368],[73.55806,0.39039],[73.55038,0.36912]]],[[[73.55332,4.28012],[73.55279,4.28695],[73.55548,4.28902],[73.55332,4.28012]]],[[[73.55349,2.85783],[73.55195,2.86118],[73.55515,2.86079],[73.55349,2.85783]]],[[[73.55115,0.36551],[73.55269,0.3708],[73.55473,0.36977],[73.55115,0.36551]]],[[[73.55369,0.49079],[73.54754,0.49478],[73.54357,0.50664],[73.54959,0.50354],[73.55369,0.49079]]],[[[73.50382,1.8395],[73.51661,1.85394],[73.53208,1.88901],[73.53821,1.91325],[73.53959,1.94212],[73.54933,1.94109],[73.55305,1.92795],[73.53017,1.88025],[73.53056,1.86916],[73.52442,1.8622],[73.52302,1.85227],[73.51111,1.84904],[73.51124,1.84311],[73.50472,1.83306],[73.49358,1.82286],[73.48615,1.82402],[73.49563,1.82931],[73.50382,1.8395]]],[[[73.54881,3.4602],[73.54752,3.46291],[73.55188,3.46356],[73.54881,3.4602]]],[[[73.54674,3.46999],[73.54571,3.47295],[73.54904,3.47322],[73.54674,3.46999]]],[[[73.541,2.08492],[73.54701,2.10374],[73.54817,2.09704],[73.541,2.08492]]],[[[73.5479,2.11225],[73.542,2.11443],[73.54225,2.11701],[73.5479,2.11225]]],[[[73.53552,4.18434],[73.54011,4.2011],[73.53458,4.20805],[73.53981,4.22365],[73.54675,4.22122],[73.53552,4.18434]]],[[[73.54076,2.07203],[73.53807,2.07409],[73.53972,2.08234],[73.54459,2.08131],[73.54076,2.07203]]],[[[73.53881,1.96016],[73.53649,1.97614],[73.54367,1.97151],[73.53881,1.96016]]],[[[73.53707,0.34656],[73.53873,0.35352],[73.54322,0.3543],[73.53707,0.34656]]],[[[73.53623,1.98413],[73.5366,1.9916],[73.54058,1.98645],[73.53623,1.98413]]],[[[73.53466,3.48531],[73.53748,3.48867],[73.53979,3.48725],[73.53466,3.48531]]],[[[73.53386,2.05308],[73.53436,2.05939],[73.53821,2.05811],[73.53386,2.05308]]],[[[73.53568,2.02305],[73.53209,2.02343],[73.53106,2.03593],[73.53568,2.02305]]],[[[73.53441,2.00501],[73.53261,2.01738],[73.53556,2.01532],[73.53441,2.00501]]],[[[73.52912,4.17595],[73.5255,4.19321],[73.52803,4.20778],[73.53513,4.1882],[73.52912,4.17595]]],[[[73.5273,0.55909],[73.52358,0.56437],[73.5255,0.56566],[73.5273,0.55909]]],[[[73.51979,4.224],[73.5176,4.2258],[73.51978,4.22851],[73.52184,4.22658],[73.51979,4.224]]],[[[73.50353,0.3271],[73.50328,0.33599],[73.5194,0.34282],[73.50353,0.3271]]],[[[73.51142,4.16895],[73.50372,4.16894],[73.50076,4.17241],[73.50242,4.17809],[73.51885,4.17786],[73.51771,4.17167],[73.51142,4.16895]]],[[[73.50159,5.28264],[73.49952,5.28689],[73.50492,5.28691],[73.50159,5.28264]]],[[[73.50052,4.73365],[73.49731,4.73532],[73.4991,4.7379],[73.50257,4.73714],[73.50052,4.73365]]],[[[73.49969,0.32542],[73.49483,0.32735],[73.4979,0.33406],[73.49969,0.32542]]],[[[73.48843,0.31833],[73.48459,0.3191],[73.48484,0.32258],[73.4938,0.32645],[73.48843,0.31833]]],[[[73.48695,3.93591],[73.48912,3.943],[73.49386,3.9461],[73.48695,3.93591]]],[[[73.49172,4.26712],[73.48966,4.27111],[73.493,4.27163],[73.49172,4.26712]]],[[[73.48382,0.32026],[73.48254,0.32542],[73.4906,0.33109],[73.49099,0.32851],[73.48343,0.32361],[73.48382,0.32026]]],[[[73.48939,0.60135],[73.48529,0.60573],[73.49042,0.6038],[73.48939,0.60135]]],[[[73.48765,5.30555],[73.47838,5.30952],[73.48584,5.30954],[73.48765,5.30555]]],[[[73.4824,4.17521],[73.48753,4.17574],[73.48755,4.16968],[73.48421,4.17032],[73.4824,4.17521]]],[[[73.45754,5.80741],[73.47474,5.82472],[73.4792,5.8402],[73.48216,5.84098],[73.48155,5.82706],[73.45754,5.80741]]],[[[73.47367,3.90109],[73.47174,3.90353],[73.47469,3.9056],[73.47367,3.90109]]],[[[73.47347,5.31969],[73.47192,5.3242],[73.47462,5.32266],[73.47347,5.31969]]],[[[73.45637,4.94696],[73.45019,4.94901],[73.44787,4.95506],[73.45968,4.95818],[73.46532,4.96683],[73.4702,4.96542],[73.47022,4.95563],[73.45637,4.94696]]],[[[73.45824,5.54659],[73.46542,5.55305],[73.47082,5.55384],[73.47186,5.55126],[73.45824,5.54659]]],[[[73.46662,5.87663],[73.46262,5.87856],[73.46273,5.885],[73.47019,5.88708],[73.47162,5.88116],[73.46662,5.87663]]],[[[73.46803,3.89747],[73.46623,3.90223],[73.47059,3.9034],[73.46803,3.89747]]],[[[73.46367,5.33114],[73.46122,5.33448],[73.46391,5.33668],[73.4665,5.33192],[73.46367,5.33114]]],[[[73.46481,0.619],[73.45969,0.62158],[73.4625,0.62312],[73.46481,0.619]]],[[[73.45235,1.81638],[73.4453,1.81702],[73.44645,1.82102],[73.45951,1.82735],[73.45235,1.81638]]],[[[73.45412,0.28482],[73.4531,0.28933],[73.45976,0.29088],[73.45412,0.28482]]],[[[73.45781,5.89671],[73.45547,5.90586],[73.45921,5.90329],[73.45781,5.89671]]],[[[73.45696,3.92013],[73.45567,3.92386],[73.45772,3.92361],[73.45696,3.92013]]],[[[73.45682,3.85428],[73.45553,3.85891],[73.45771,3.85892],[73.45682,3.85428]]],[[[73.4521,4.17838],[73.44748,4.1785],[73.4494,4.18211],[73.44696,4.18429],[73.43643,4.18762],[73.44695,4.18623],[73.45107,4.18366],[73.4521,4.17838]]],[[[73.44995,0.63098],[73.44176,0.64013],[73.44432,0.64219],[73.45098,0.63472],[73.44995,0.63098]]],[[[73.42648,0.26381],[73.42481,0.2718],[73.42852,0.28237],[73.4467,0.28624],[73.42648,0.26381]]],[[[73.44612,5.84333],[73.44354,5.84577],[73.44585,5.84758],[73.44612,5.84333]]],[[[73.44072,0.68382],[73.44097,0.69709],[73.44238,0.68755],[73.44072,0.68382]]],[[[73.43892,0.70766],[73.4384,0.72042],[73.44186,0.71307],[73.43892,0.70766]]],[[[73.43645,-0.3124],[73.42954,-0.31098],[73.4193,-0.29577],[73.41111,-0.28984],[73.41086,-0.28236],[73.41521,-0.27824],[73.41905,-0.27644],[73.42378,-0.28726],[73.44106,-0.3066],[73.43645,-0.3124]]],[[[73.43763,0.74774],[73.43404,0.7498],[73.43122,0.76101],[73.43429,0.76462],[73.4334,0.76101],[73.43916,0.75122],[73.43763,0.74774]]],[[[73.43613,5.9192],[73.4356,5.92345],[73.43895,5.92205],[73.43613,5.9192]]],[[[73.43584,0.7266],[73.43033,0.73678],[73.43353,0.74026],[73.43584,0.7266]]],[[[73.43198,5.35541],[73.42864,5.35566],[73.42914,5.36043],[73.43248,5.35992],[73.43198,5.35541]]],[[[73.43129,2.79581],[73.43154,2.80058],[73.43334,2.80058],[73.43129,2.79581]]],[[[73.42785,5.93426],[73.40175,5.96897],[73.40948,5.96809],[73.42861,5.93928],[73.42785,5.93426]]],[[[73.42108,2.76357],[73.41979,2.77427],[73.42235,2.7753],[73.42617,2.79168],[73.42848,2.79181],[73.42556,2.77196],[73.42108,2.76976],[73.42108,2.76357]]],[[[73.42761,5.3554],[73.42092,5.35641],[73.4088,5.36991],[73.41214,5.36992],[73.42761,5.3554]]],[[[73.41109,5.7614],[73.40671,5.76345],[73.40514,5.77221],[73.41673,5.76838],[73.41765,5.7622],[73.41109,5.7614]]],[[[73.41356,5.70652],[73.41442,5.72172],[73.41738,5.72122],[73.41727,5.71426],[73.41356,5.70652]]],[[[73.41029,5.48899],[73.41233,5.49569],[73.41503,5.49596],[73.41029,5.48899]]],[[[73.4082,5.6913],[73.40754,5.69542],[73.41024,5.69646],[73.4082,5.6913]]],[[[73.40814,0.84168],[73.40558,0.85108],[73.40929,0.84812],[73.40814,0.84168]]],[[[73.4065,1.81454],[73.40265,1.81828],[73.40598,1.81879],[73.4065,1.81454]]],[[[73.39943,5.88134],[73.39865,5.88546],[73.40405,5.88458],[73.39943,5.88134]]],[[[73.38526,1.79068],[73.37885,1.79506],[73.38576,1.80035],[73.39575,1.80048],[73.39575,1.79726],[73.38526,1.79068]]],[[[73.3943,5.96612],[73.39171,5.9701],[73.39428,5.97011],[73.3943,5.96612]]],[[[73.38204,5.47203],[73.38126,5.47576],[73.38999,5.48288],[73.39282,5.48121],[73.38204,5.47203]]],[[[73.38228,5.66571],[73.3865,5.67474],[73.39255,5.67347],[73.38228,5.66571]]],[[[73.39215,1.81427],[73.38792,1.81672],[73.39023,1.81929],[73.39215,1.81427]]],[[[73.38854,5.82075],[73.38595,5.82448],[73.38852,5.82577],[73.38854,5.82075]]],[[[73.37733,1.77933],[73.37834,1.79325],[73.38667,1.78682],[73.37733,1.77933]]],[[[73.38084,5.81273],[73.37362,5.81774],[73.38005,5.81879],[73.38084,5.81273]]],[[[73.37989,2.89535],[73.37758,2.8987],[73.37962,2.90128],[73.37989,2.89535]]],[[[73.38013,5.88142],[73.37677,5.88527],[73.37831,5.88605],[73.38013,5.88142]]],[[[73.37144,1.7792],[73.36042,1.78022],[73.36016,1.78447],[73.3658,1.78474],[73.36682,1.78834],[73.3745,1.78629],[73.37694,1.78449],[73.37144,1.7792]]],[[[73.37288,2.77717],[73.37018,2.7791],[73.37107,2.78322],[73.37428,2.78014],[73.37288,2.77717]]],[[[73.37052,5.4519],[73.36972,5.46311],[73.37293,5.46698],[73.37052,5.4519]]],[[[73.37114,5.96321],[73.3665,5.96423],[73.3652,5.969],[73.37087,5.9685],[73.37114,5.96321]]],[[[73.37156,4.50746],[73.36898,4.51339],[73.37141,4.51855],[73.37156,4.50746]]],[[[73.36887,5.8596],[73.36333,5.86204],[73.36422,5.86423],[73.3686,5.86283],[73.36887,5.8596]]],[[[73.3667,5.44055],[73.36258,5.44118],[73.36219,5.44427],[73.36641,5.45047],[73.3667,5.44055]]],[[[73.36474,5.77377],[73.35933,5.77621],[73.36009,5.77982],[73.36524,5.77932],[73.36474,5.77377]]],[[[73.36521,5.78898],[73.35955,5.79038],[73.36443,5.79271],[73.36521,5.78898]]],[[[73.36134,2.37895],[73.35964,2.40872],[73.35448,2.43319],[73.36427,2.39583],[73.36134,2.37895]]],[[[73.36411,5.72558],[73.3552,5.73676],[73.35893,5.7378],[73.36202,5.73395],[73.36411,5.72558]]],[[[73.35548,2.35214],[73.35214,2.3569],[73.35726,2.36026],[73.35548,2.35214]]],[[[73.34813,0.25078],[73.34762,0.25839],[73.34967,0.25787],[73.34813,0.25078]]],[[[73.34512,5.97048],[73.34382,5.97486],[73.34896,5.97539],[73.34512,5.97048]]],[[[73.34547,5.76521],[73.34238,5.76585],[73.3421,5.77345],[73.34674,5.76947],[73.34547,5.76521]]],[[[73.34589,5.79524],[73.34279,5.79909],[73.34614,5.79885],[73.34589,5.79524]]],[[[73.34122,0.25387],[73.33981,0.25761],[73.34327,0.25838],[73.34455,0.26431],[73.34122,0.25387]]],[[[73.33526,2.33562],[73.33448,2.34039],[73.34114,2.34503],[73.34191,2.34194],[73.33526,2.33562]]],[[[73.3375,5.85049],[73.33542,5.85513],[73.338,5.85423],[73.3375,5.85049]]],[[[73.3327,5.36314],[73.33192,5.36674],[73.33682,5.36418],[73.3327,5.36314]]],[[[73.3274,0.24949],[73.32496,0.25091],[73.3274,0.254],[73.33533,0.25478],[73.3274,0.24949]]],[[[73.33275,1.7869],[73.32968,1.78831],[73.33147,1.79282],[73.33505,1.79283],[73.33275,1.7869]]],[[[73.32986,5.64456],[73.32716,5.64519],[73.32779,5.64829],[73.33113,5.64959],[73.32986,5.64456]]],[[[73.32808,5.81387],[73.32499,5.81682],[73.32782,5.81709],[73.32808,5.81387]]],[[[73.32649,5.7417],[73.32198,5.74672],[73.32468,5.7475],[73.32649,5.7417]]],[[[73.3263,5.98112],[73.32192,5.98227],[73.32242,5.98729],[73.3263,5.98112]]],[[[73.31708,2.32271],[73.31452,2.32309],[73.31682,2.32748],[73.32271,2.32748],[73.32387,2.32439],[73.31708,2.32271]]],[[[73.31544,5.91035],[73.31465,5.91601],[73.31722,5.91692],[73.31544,5.91035]]],[[[73.313,5.6945],[73.31029,5.6954],[73.31041,5.69978],[73.31401,5.70005],[73.313,5.6945]]],[[[73.3058,5.94859],[73.30656,5.9522],[73.31094,5.95208],[73.3058,5.94859]]],[[[73.30994,2.4995],[73.30583,2.50659],[73.30916,2.50633],[73.30994,2.4995]]],[[[73.30589,5.83481],[73.30434,5.83764],[73.30794,5.83739],[73.30589,5.83481]]],[[[73.30256,5.9978],[73.29998,6.00178],[73.30563,6.00361],[73.30629,6.00026],[73.30256,5.9978]]],[[[73.30021,1.79524],[73.29047,1.80425],[73.302,1.80104],[73.30021,1.79524]]],[[[73.30027,5.64627],[73.2982,5.65078],[73.3013,5.64847],[73.30027,5.64627]]],[[[73.29579,6.18603],[73.29871,6.19944],[73.2942,6.20149],[73.29754,6.20356],[73.30079,6.19326],[73.29579,6.18603]]],[[[73.2993,5.80116],[73.29544,5.8023],[73.29698,5.8045],[73.29994,5.80386],[73.2993,5.80116]]],[[[73.29796,0.25168],[73.29335,0.2576],[73.29744,0.25735],[73.29796,0.25168]]],[[[73.29464,6.14299],[73.29208,6.13976],[73.29027,6.14169],[73.28803,6.1574],[73.29464,6.14299]]],[[[73.28783,6.09852],[73.2882,6.10509],[73.28342,6.10997],[73.28896,6.10921],[73.29077,6.10535],[73.28783,6.09852]]],[[[73.28675,6.03473],[73.28211,6.03549],[73.28133,6.03884],[73.2857,6.03988],[73.28675,6.03473]]],[[[73.28588,6.06307],[73.28265,6.06796],[73.28223,6.07904],[73.28506,6.07905],[73.28588,6.06307]]],[[[73.27057,0.21997],[73.26429,0.22255],[73.26647,0.22796],[73.27031,0.23157],[73.2826,0.23363],[73.27722,0.22294],[73.27057,0.21997]]],[[[73.27671,5.78434],[73.27438,5.78858],[73.27824,5.78731],[73.27671,5.78434]]],[[[73.27451,5.66076],[73.27114,5.66822],[73.27655,5.66695],[73.27772,5.66128],[73.27451,5.66076]]],[[[73.26707,6.23013],[73.26305,6.23566],[73.26754,6.24122],[73.27232,6.2375],[73.26707,6.23013]]],[[[73.26291,5.75285],[73.26135,5.75659],[73.26547,5.75789],[73.26291,5.75285]]],[[[73.26055,5.68146],[73.25461,5.68956],[73.25821,5.68906],[73.26055,5.68146]]],[[[73.25326,6.1207],[73.25389,6.12431],[73.2566,6.122],[73.25326,6.1207]]],[[[73.25236,6.16076],[73.24861,6.16449],[73.25182,6.16849],[73.25479,6.16528],[73.25236,6.16076]]],[[[73.25211,5.74947],[73.2467,5.75242],[73.25133,5.75372],[73.25211,5.74947]]],[[[73.23956,6.29382],[73.2398,6.29718],[73.24406,6.29513],[73.24952,6.27994],[73.24296,6.27799],[73.23956,6.29382]]],[[[73.24764,6.18691],[73.24403,6.18767],[73.24557,6.19038],[73.24764,6.18691]]],[[[73.24609,1.88217],[73.23789,1.88513],[73.23788,1.88796],[73.24608,1.88952],[73.24609,1.88217]]],[[[73.24234,0.55437],[73.23952,0.5563],[73.24182,0.55978],[73.24502,0.55785],[73.24234,0.55437]]],[[[73.22285,-0.64444],[73.22529,-0.62691],[73.22325,-0.60037],[73.22607,-0.59238],[73.22441,-0.58568],[73.21954,-0.5849],[73.22006,-0.58233],[73.23926,-0.5795],[73.23669,-0.59032],[73.22632,-0.60063],[73.22734,-0.62511],[73.22285,-0.64444]]],[[[73.23005,6.87038],[73.22268,6.87383],[73.2215,6.88104],[73.22769,6.87926],[73.23206,6.88392],[73.23473,6.89424],[73.23413,6.91691],[73.23166,6.92051],[73.22367,6.9219],[73.23371,6.92387],[73.23531,6.87723],[73.23005,6.87038]]],[[[73.23327,6.32344],[73.22994,6.31892],[73.22877,6.32239],[73.22349,6.32289],[73.22463,6.32702],[73.22657,6.3247],[73.23133,6.32652],[73.23041,6.33167],[73.23327,6.32344]]],[[[73.22831,6.11237],[73.22586,6.11468],[73.22856,6.11726],[73.22831,6.11237]]],[[[73.22676,5.79475],[73.22803,5.79913],[73.22959,5.79592],[73.22676,5.79475]]],[[[73.2138,6.93835],[73.21388,6.95214],[73.20947,6.95959],[73.21508,6.96589],[73.21964,6.9635],[73.22212,6.95655],[73.2138,6.93835]]],[[[73.21958,6.2609],[73.21532,6.26488],[73.21595,6.26823],[73.22123,6.26619],[73.21958,6.2609]]],[[[73.21612,5.7406],[73.21379,5.74433],[73.21867,5.74744],[73.21612,5.7406]]],[[[73.20836,6.80743],[73.1979,6.81267],[73.19853,6.81602],[73.20458,6.81888],[73.20524,6.8145],[73.20782,6.81477],[73.20986,6.82135],[73.20701,6.82404],[73.21396,6.82664],[73.21824,6.82176],[73.21761,6.81687],[73.20836,6.80743]]],[[[73.21002,6.34436],[73.20615,6.34551],[73.2051,6.35349],[73.21502,6.35095],[73.21002,6.34436]]],[[[73.21018,5.82936],[73.20708,5.83244],[73.20991,5.83387],[73.21236,5.8322],[73.21018,5.82936]]],[[[73.19555,6.28259],[73.19839,6.28131],[73.19609,6.27744],[73.19351,6.27846],[73.19555,6.28259]]],[[[73.1875,-0.68991],[73.19276,-0.68231],[73.19314,-0.67213],[73.19647,-0.67278],[73.19711,-0.67819],[73.1875,-0.68991]]],[[[73.19198,0.19058],[73.19479,0.19638],[73.19646,0.19497],[73.19198,0.19058]]],[[[73.1889,0.19406],[73.18826,0.1996],[73.18122,0.1996],[73.18276,0.20398],[73.1921,0.1996],[73.1889,0.19406]]],[[[73.1877,0.8323],[73.18104,0.84183],[73.18411,0.84248],[73.18936,0.83385],[73.1877,0.8323]]],[[[73.1517,6.72578],[73.15762,6.72903],[73.16351,6.7391],[73.17564,6.76929],[73.18502,6.7768],[73.18376,6.76881],[73.16994,6.74247],[73.1517,6.72578]]],[[[73.17296,5.80192],[73.16844,5.80783],[73.1701,5.8099],[73.175,5.80734],[73.17296,5.80192]]],[[[73.1697,0.20656],[73.16996,0.21068],[73.17201,0.21043],[73.1697,0.20656]]],[[[73.16934,6.83356],[73.16494,6.83677],[73.16441,6.8414],[73.16775,6.84258],[73.17022,6.83885],[73.16934,6.83356]]],[[[73.10969,-0.65471],[73.07605,-0.59104],[73.07644,-0.58357],[73.08463,-0.57957],[73.08834,-0.58692],[73.08348,-0.58821],[73.08156,-0.59233],[73.09435,-0.60522],[73.09205,-0.60728],[73.09857,-0.61501],[73.10087,-0.63254],[73.1102,-0.65419],[73.13016,-0.67675],[73.1427,-0.68577],[73.16792,-0.69442],[73.16446,-0.70047],[73.14884,-0.69956],[73.14334,-0.69183],[73.14398,-0.68732],[73.13195,-0.68422],[73.13068,-0.67739],[73.12658,-0.677],[73.11647,-0.66682],[73.10969,-0.65471]]],[[[73.15878,6.89562],[73.16598,6.90093],[73.16702,6.89888],[73.15878,6.89562]]],[[[73.15803,6.82334],[73.15338,6.82551],[73.15155,6.83362],[73.15541,6.83493],[73.16343,6.82826],[73.16357,6.82491],[73.15803,6.82334]]],[[[73.15946,0.20591],[73.15422,0.21094],[73.15357,0.22022],[73.15741,0.22138],[73.15422,0.213],[73.15946,0.20591]]],[[[73.15101,6.28141],[73.14765,6.28346],[73.14867,6.28758],[73.15304,6.28811],[73.15422,6.28322],[73.15101,6.28141]]],[[[73.15381,6.84742],[73.15045,6.85063],[73.15406,6.85064],[73.15381,6.84742]]],[[[73.14854,6.32211],[73.14557,6.32391],[73.1462,6.3288],[73.15263,6.33192],[73.1524,6.32419],[73.14854,6.32211]]],[[[73.14288,5.87166],[73.1421,5.87526],[73.14493,5.87579],[73.14288,5.87166]]],[[[73.14327,2.20253],[73.14083,2.20484],[73.14454,2.20871],[73.14327,2.20253]]],[[[73.13822,0.21635],[73.12951,0.22795],[73.13604,0.22769],[73.14013,0.22253],[73.13822,0.21635]]],[[[73.13703,5.27985],[73.13458,5.28126],[73.13676,5.28423],[73.13921,5.28231],[73.13703,5.27985]]],[[[73.13251,5.1555],[73.12582,5.1578],[73.12556,5.16102],[73.13584,5.15938],[73.13649,5.15706],[73.13251,5.1555]]],[[[73.12849,0.22756],[73.12465,0.23361],[73.13105,0.23155],[73.12849,0.22756]]],[[[73.12995,2.19542],[73.12611,2.19787],[73.12713,2.20148],[73.13136,2.19865],[73.12995,2.19542]]],[[[73.12708,6.89344],[73.12488,6.89536],[73.12939,6.89641],[73.12708,6.89344]]],[[[73.1276,-0.6837],[73.1253,-0.68061],[73.12786,-0.67919],[73.1276,-0.6837]]],[[[73.12618,5.21321],[73.1223,5.21835],[73.12487,5.21939],[73.12835,5.21528],[73.12618,5.21321]]],[[[73.12755,6.77195],[73.1198,6.77552],[73.11861,6.78351],[73.12223,6.78223],[73.12755,6.77195]]],[[[73.1242,5.1864],[73.12033,5.19],[73.12599,5.18873],[73.1242,5.1864]]],[[[73.11142,6.6777],[73.11732,6.68481],[73.11845,6.69177],[73.11569,6.7049],[73.12367,6.70957],[73.12487,6.69695],[73.11733,6.68146],[73.11142,6.6777]]],[[[73.12132,0.23619],[73.11953,0.23967],[73.12362,0.24031],[73.12132,0.23619]]],[[[73.1151,2.19012],[73.10664,2.19965],[73.11856,2.19245],[73.1151,2.19012]]],[[[73.11791,5.13936],[73.11251,5.1423],[73.11327,5.14424],[73.11791,5.13936]]],[[[73.11759,6.87974],[73.11359,6.88166],[73.10955,6.89208],[73.11393,6.89326],[73.11759,6.87974]]],[[[73.1134,6.83167],[73.10874,6.83681],[73.1144,6.83838],[73.11699,6.83581],[73.1134,6.83167]]],[[[73.11687,5.23122],[73.11017,5.23713],[73.11686,5.23431],[73.11687,5.23122]]],[[[73.11618,6.00569],[73.10871,6.00657],[73.10845,6.00889],[73.11256,6.01045],[73.11618,6.00569]]],[[[73.11131,5.28545],[73.11001,5.28776],[73.11554,5.28816],[73.1167,5.28559],[73.11131,5.28545]]],[[[73.10872,6.29659],[73.1047,6.30289],[73.10919,6.30934],[73.11422,6.3055],[73.10872,6.29659]]],[[[73.11076,2.55696],[73.1,2.55849],[73.11255,2.56018],[73.11076,2.55696]]],[[[73.10996,5.13276],[73.10481,5.1361],[73.10815,5.13804],[73.10996,5.13276]]],[[[73.10493,0.24869],[73.10122,0.25268],[73.10391,0.25655],[73.10762,0.2501],[73.10493,0.24869]]],[[[73.09956,0.25474],[73.09751,0.26015],[73.10237,0.25835],[73.09956,0.25474]]],[[[73.09872,2.1834],[73.09128,2.1852],[73.09294,2.18958],[73.09589,2.19087],[73.09872,2.1834]]],[[[73.09008,0.26415],[73.08676,0.26763],[73.09111,0.26608],[73.09008,0.26415]]],[[[73.08787,6.76741],[73.08579,6.7723],[73.09006,6.76897],[73.08787,6.76741]]],[[[73.08188,6.65259],[73.07891,6.654],[73.07732,6.66507],[73.07897,6.67126],[73.08283,6.67283],[73.08789,6.6646],[73.08728,6.65558],[73.08188,6.65259]]],[[[73.0861,5.20549],[73.08211,5.20741],[73.08352,5.20909],[73.08738,5.20794],[73.0861,5.20549]]],[[[73.0824,0.26634],[73.08343,0.26994],[73.08599,0.26969],[73.0824,0.26634]]],[[[73.0833,5.10923],[73.07391,5.11358],[73.07557,5.11604],[73.0833,5.10923]]],[[[73.07952,2.16766],[73.07747,2.17049],[73.08003,2.17358],[73.08221,2.1705],[73.07952,2.16766]]],[[[73.07224,6.61223],[73.06772,6.61608],[73.06912,6.61918],[73.06391,6.63436],[73.0758,6.62616],[73.07224,6.61223]]],[[[73.0733,5.1016],[73.06777,5.103],[73.06712,5.10609],[73.07201,5.10611],[73.0733,5.1016]]],[[[73.0714,0.27059],[73.06551,0.27149],[73.06372,0.27793],[73.0737,0.27329],[73.0714,0.27059]]],[[[73.07142,5.29898],[73.06935,5.30271],[73.07295,5.30221],[73.07142,5.29898]]],[[[73.0683,6.43172],[73.06559,6.43235],[73.06674,6.43545],[73.07265,6.43727],[73.07318,6.4347],[73.0683,6.43172]]],[[[73.06672,2.16352],[73.0621,2.16867],[73.06991,2.17177],[73.06672,2.16352]]],[[[73.06537,5.09075],[73.05868,5.09499],[73.06613,5.09398],[73.06537,5.09075]]],[[[73.06141,0.27767],[73.0586,0.28463],[73.06192,0.2836],[73.06359,0.2787],[73.06141,0.27767]]],[[[73.05909,6.20686],[73.05779,6.20995],[73.06345,6.21126],[73.05909,6.20686]]],[[[73.06025,6.44869],[73.05753,6.45036],[73.06152,6.45269],[73.06025,6.44869]]],[[[73.05961,5.29495],[73.05601,5.29532],[73.05523,5.29803],[73.05961,5.29495]]],[[[73.05602,6.73894],[73.0489,6.7469],[73.05133,6.75348],[73.05662,6.75028],[73.05833,6.74127],[73.05602,6.73894]]],[[[73.05578,0.28437],[73.05194,0.28669],[73.05348,0.28875],[73.05808,0.28527],[73.05578,0.28437]]],[[[73.05543,6.56153],[73.04715,6.5722],[73.0484,6.58096],[73.052,6.58175],[73.05679,6.57687],[73.05543,6.56153]]],[[[73.05459,6.51309],[73.04994,6.51603],[73.05199,6.51823],[73.05715,6.51787],[73.05768,6.51452],[73.05459,6.51309]]],[[[73.0543,6.78235],[73.05273,6.78801],[73.05609,6.78738],[73.05688,6.78301],[73.0543,6.78235]]],[[[73.05588,6.8384],[73.05279,6.83839],[73.05017,6.84791],[73.05588,6.8384]]],[[[73.04875,6.35576],[73.04384,6.36038],[73.04614,6.36477],[73.0518,6.36608],[73.05388,6.36093],[73.04875,6.35576]]],[[[73.04517,5.54768],[73.04053,5.54934],[73.04155,5.55205],[73.04695,5.55233],[73.04825,5.54821],[73.04517,5.54768]]],[[[73.0473,5.60258],[73.04034,5.60835],[73.04753,5.61057],[73.0473,5.60258]]],[[[73.04626,5.52978],[73.03725,5.53194],[73.03853,5.53465],[73.04715,5.53275],[73.04626,5.52978]]],[[[73.04609,5.57977],[73.04221,5.58684],[73.04709,5.58815],[73.04609,5.57977]]],[[[73.04487,5.56147],[73.041,5.56262],[73.04151,5.56519],[73.04691,5.5647],[73.04487,5.56147]]],[[[73.04247,0.28927],[73.0362,0.29287],[73.03914,0.297],[73.04541,0.29597],[73.04247,0.28927]]],[[[73.04466,5.62267],[73.03949,5.63244],[73.04268,5.63735],[73.04466,5.62267]]],[[[73.04196,5.50786],[73.04014,5.51185],[73.04426,5.51264],[73.04196,5.50786]]],[[[73.04168,5.27351],[73.04347,5.27686],[73.04374,5.27364],[73.04168,5.27351]]],[[[73.04232,5.47514],[73.03151,5.47717],[73.03125,5.47974],[73.04308,5.47746],[73.04232,5.47514]]],[[[73.03995,3.21061],[73.03328,3.2133],[73.03891,3.21538],[73.03995,3.21061]]],[[[73.0398,5.46096],[73.02872,5.46517],[73.03927,5.46572],[73.0398,5.46096]]],[[[73.03804,5.44691],[73.02183,5.44943],[73.03495,5.44986],[73.03804,5.44691]]],[[[73.03568,6.73461],[73.03022,6.74657],[73.03734,6.73912],[73.03568,6.73461]]],[[[73.03453,0.29377],[73.02685,0.30163],[73.0353,0.30215],[73.03684,0.29545],[73.03453,0.29377]]],[[[73.0303,6.19465],[73.02591,6.19708],[73.03491,6.19956],[73.0303,6.19465]]],[[[73.03295,5.66489],[73.02921,5.66565],[73.02829,5.67157],[73.03228,5.67081],[73.03295,5.66489]]],[[[73.02827,6.65445],[73.02504,6.65662],[73.02592,6.66242],[73.03121,6.65871],[73.02827,6.65445]]],[[[73.02557,0.30266],[73.02608,0.30627],[73.02864,0.30421],[73.02557,0.30266]]],[[[73.02643,5.68947],[73.02513,5.69282],[73.02771,5.69282],[73.02643,5.68947]]],[[[73.02164,2.16436],[73.02035,2.16925],[73.02829,2.17068],[73.02778,2.16707],[73.02164,2.16436]]],[[[73.02749,6.72079],[73.02141,6.72489],[73.0223,6.72953],[73.02565,6.72826],[73.02749,6.72079]]],[[[73.0266,2.7912],[73.02403,2.7957],[73.02736,2.79429],[73.0266,2.7912]]],[[[73.02687,2.7845],[73.02366,2.78604],[73.02695,2.78853],[73.02687,2.7845]]],[[[73.02639,5.70145],[73.02186,5.70865],[73.02558,5.71408],[73.02639,5.70145]]],[[[73.02102,2.75382],[73.02153,2.75743],[73.02384,2.75718],[73.02102,2.75382]]],[[[73.01184,2.73075],[73.01962,2.74918],[73.0218,2.7497],[73.01184,2.73075]]],[[[73.01749,5.7478],[73.01413,5.75166],[73.01747,5.75218],[73.01749,5.7478]]],[[[73.01199,0.38422],[73.01148,0.38731],[73.007,0.38821],[73.01557,0.3944],[73.01736,0.38976],[73.01301,0.3895],[73.01199,0.38422]]],[[[73.01488,5.75849],[73.01009,5.76659],[73.01161,5.77355],[73.01488,5.75849]]],[[[73.01415,6.83076],[73.00911,6.83434],[73.00921,6.84091],[73.0136,6.84029],[73.01415,6.83076]]],[[[73.01292,2.16667],[73.01113,2.17118],[73.01403,2.16954],[73.01292,2.16667]]],[[[73.01201,6.59692],[73.00515,6.60321],[73.00887,6.60915],[73.0134,6.6035],[73.01201,6.59692]]],[[[73.01186,5.27405],[73.00799,5.27765],[73.01236,5.27728],[73.01186,5.27405]]],[[[73.00911,5.78939],[73.0055,5.79028],[73.00548,5.79736],[73.00911,5.78939]]],[[[73.00456,0.39916],[73.00482,0.40277],[73.00738,0.40239],[73.00456,0.39916]]],[[[72.99617,4.86173],[72.99252,4.8786],[73.00099,4.88068],[73.0069,4.87864],[72.99617,4.86173]]],[[[73.00506,0.43627],[73.0011,0.43691],[72.99866,0.44387],[72.99994,0.45006],[73.00404,0.45212],[73.00685,0.44671],[73.00506,0.43627]]],[[[73.00571,5.80406],[73.00094,5.80778],[73.00234,5.81268],[73.00571,5.80406]]],[[[73.00186,2.72326],[73.00185,2.72751],[73.00544,2.7252],[73.00186,2.72326]]],[[[73.00164,3.26761],[72.99907,3.26941],[73.00368,3.27174],[73.0042,3.26788],[73.00164,3.26761]]],[[[72.99821,7.00435],[72.99284,7.02443],[73.00372,7.01159],[73.00297,7.00643],[72.99821,7.00435]]],[[[72.99994,0.45431],[72.99584,0.45585],[72.99635,0.4632],[73.00314,0.45598],[72.99994,0.45431]]],[[[72.99762,0.5226],[72.99134,0.52427],[72.99428,0.53754],[73.00247,0.53613],[72.99762,0.5226]]],[[[72.99706,6.66231],[72.99343,6.66757],[72.99728,6.66939],[73,6.66606],[72.99706,6.66231]]],[[[72.99866,0.44735],[72.997,0.45057],[72.99956,0.45057],[72.99866,0.44735]]],[[[72.9971,6.84035],[72.99256,6.84613],[72.99422,6.84897],[72.99901,6.84384],[72.9971,6.84035]]],[[[72.9943,0.47801],[72.98828,0.4869],[72.98892,0.49309],[72.99634,0.49708],[72.99865,0.48008],[72.9943,0.47801]]],[[[72.99778,5.17339],[72.99367,5.17544],[72.99623,5.17725],[72.99778,5.17339]]],[[[72.99347,4.25979],[72.99,4.26249],[72.99242,4.26688],[72.99347,4.25979]]],[[[72.99398,5.84898],[72.98827,5.86262],[72.99343,5.85852],[72.99398,5.84898]]],[[[72.98996,2.93428],[72.98778,2.93775],[72.99226,2.93879],[72.99316,2.93544],[72.98996,2.93428]]],[[[72.98783,3.11478],[72.98065,3.11838],[72.98244,3.12108],[72.98783,3.11478]]],[[[72.9803,6.53753],[72.97359,6.53918],[72.97331,6.54511],[72.98308,6.54888],[72.98749,6.54233],[72.9803,6.53753]]],[[[72.98392,6.84777],[72.98336,6.8573],[72.98737,6.85409],[72.98392,6.84777]]],[[[72.9809,4.25718],[72.97679,4.26001],[72.98577,4.26145],[72.98526,4.2581],[72.9809,4.25718]]],[[[72.98145,5.45484],[72.97707,5.45766],[72.98324,5.45729],[72.98145,5.45484]]],[[[72.96926,6.33278],[72.97395,6.3419],[72.97888,6.34287],[72.97916,6.33617],[72.96926,6.33278]]],[[[72.97428,4.87931],[72.95756,4.88442],[72.95833,4.88661],[72.97504,4.88215],[72.97428,4.87931]]],[[[72.97277,7.04392],[72.96964,7.05009],[72.97339,7.04831],[72.97277,7.04392]]],[[[72.97059,3.75572],[72.96622,3.75623],[72.96648,3.75855],[72.97289,3.75792],[72.97059,3.75572]]],[[[72.9664,5.34103],[72.97127,5.34414],[72.97128,5.34156],[72.9664,5.34103]]],[[[72.97099,5.50672],[72.96686,5.50941],[72.97124,5.50879],[72.97099,5.50672]]],[[[72.95971,3.07595],[72.96534,3.08111],[72.96765,3.0797],[72.95971,3.07595]]],[[[72.96091,2.6933],[72.96192,2.69755],[72.96654,2.69756],[72.96091,2.6933]]],[[[72.9617,4.42835],[72.95295,4.4358],[72.95498,4.44483],[72.96501,4.44151],[72.96644,4.43198],[72.9617,4.42835]]],[[[72.96435,3.78972],[72.95845,3.79164],[72.9664,3.79217],[72.96435,3.78972]]],[[[72.96243,5.74928],[72.95907,5.75301],[72.96293,5.75276],[72.96243,5.74928]]],[[[72.95295,6.5467],[72.94521,6.54886],[72.94752,6.55157],[72.96091,6.55201],[72.96093,6.54918],[72.95295,6.5467]]],[[[72.96011,3.84782],[72.95472,3.84819],[72.9542,3.85089],[72.96011,3.84782]]],[[[72.95522,5.45565],[72.95186,5.45951],[72.9588,5.46043],[72.95522,5.45565]]],[[[72.94847,5.47418],[72.95232,5.47677],[72.95849,5.47525],[72.94847,5.47418]]],[[[72.95573,5.96389],[72.94851,5.96889],[72.95596,5.97123],[72.9579,5.96763],[72.95573,5.96389]]],[[[72.95632,3.60224],[72.95348,3.60894],[72.95655,3.61126],[72.95632,3.60224]]],[[[72.95331,5.33338],[72.94945,5.33608],[72.956,5.3361],[72.95331,5.33338]]],[[[72.95545,7.05209],[72.95091,7.05722],[72.95492,7.05595],[72.95545,7.05209]]],[[[72.95393,5.60702],[72.95007,5.60727],[72.95366,5.61024],[72.95393,5.60702]]],[[[72.94866,6.71158],[72.94543,6.7135],[72.94528,6.71865],[72.94954,6.71635],[72.94866,6.71158]]],[[[72.93946,5.00624],[72.93804,5.00855],[72.9433,5.01282],[72.94639,5.01038],[72.93946,5.00624]]],[[[72.94407,2.3177],[72.94612,2.31616],[72.9419,2.31255],[72.94407,2.3177]]],[[[72.94334,2.28871],[72.93988,2.29064],[72.94051,2.29502],[72.94397,2.29426],[72.94334,2.28871]]],[[[72.94126,6.99496],[72.9384,6.9992],[72.94215,6.99741],[72.94126,6.99496]]],[[[72.93864,5.49012],[72.93529,5.49269],[72.94146,5.49361],[72.93864,5.49012]]],[[[72.94036,4.88333],[72.92673,4.88664],[72.93444,4.88679],[72.94036,4.88333]]],[[[72.93782,6.65511],[72.93395,6.65573],[72.93392,6.66166],[72.94025,6.65937],[72.93782,6.65511]]],[[[72.92665,6.42588],[72.922,6.42895],[72.92611,6.4318],[72.93202,6.43453],[72.9377,6.43314],[72.93771,6.43005],[72.92665,6.42588]]],[[[72.93539,6.74283],[72.93177,6.74565],[72.93715,6.75185],[72.93539,6.74283]]],[[[72.93475,7.00936],[72.93293,7.01257],[72.93693,7.0113],[72.93475,7.00936]]],[[[72.93671,2.26513],[72.92851,2.27053],[72.92927,2.27426],[72.93388,2.27298],[72.93244,2.26959],[72.93671,2.26513]]],[[[72.93601,5.72896],[72.93227,5.73101],[72.93342,5.7332],[72.93601,5.72896]]],[[[72.92956,7.07401],[72.92343,7.09111],[72.93328,7.07956],[72.92956,7.07401]]],[[[72.91906,3.51945],[72.93004,3.53983],[72.93171,3.53674],[72.91906,3.51945]]],[[[72.92616,3.06068],[72.92052,3.06067],[72.92231,3.06351],[72.93025,3.06481],[72.93154,3.06236],[72.92616,3.06068]]],[[[72.92857,6.94866],[72.92315,6.95044],[72.92466,6.95753],[72.92853,6.95767],[72.93075,6.95047],[72.92857,6.94866]]],[[[72.92763,2.67366],[72.9271,2.67958],[72.93056,2.6792],[72.92763,2.67366]]],[[[72.92379,5.00477],[72.92045,5.00515],[72.92249,5.01018],[72.92558,5.01006],[72.92379,5.00477]]],[[[72.92113,6.641],[72.91468,6.64251],[72.9224,6.64512],[72.92524,6.64282],[72.92113,6.641]]],[[[72.90909,6.4374],[72.91885,6.44492],[72.92337,6.4403],[72.90909,6.4374]]],[[[72.91872,2.31174],[72.91487,2.31354],[72.9137,2.32436],[72.9169,2.32874],[72.91872,2.31174]]],[[[72.91406,5.46221],[72.90968,5.46477],[72.91687,5.46557],[72.91406,5.46221]]],[[[72.8937,6.66626],[72.89394,6.67231],[72.90245,6.67042],[72.9148,6.67485],[72.9143,6.6715],[72.8937,6.66626]]],[[[72.90874,5.43939],[72.90488,5.44002],[72.90975,5.443],[72.91195,5.44056],[72.90874,5.43939]]],[[[72.90792,6.95333],[72.90417,6.95679],[72.90517,6.96376],[72.90894,6.95733],[72.90792,6.95333]]],[[[72.90634,4.99917],[72.90325,5.002],[72.90735,5.00407],[72.90878,5.00099],[72.90634,4.99917]]],[[[72.90404,6.53799],[72.89835,6.54196],[72.89989,6.54468],[72.90465,6.54457],[72.90404,6.53799]]],[[[72.90055,7.10209],[72.89473,7.1049],[72.90363,7.10648],[72.90055,7.10209]]],[[[72.89879,6.97648],[72.89101,6.98778],[72.89746,6.98665],[72.90046,6.97997],[72.89879,6.97648]]],[[[72.89778,5.48496],[72.8934,5.4879],[72.89751,5.48843],[72.89778,5.48496]]],[[[72.89715,2.66691],[72.88971,2.66857],[72.89252,2.67617],[72.89842,2.6709],[72.89715,2.66691]]],[[[72.89117,3.4931],[72.89474,3.49852],[72.89808,3.49879],[72.89117,3.4931]]],[[[72.89797,2.92226],[72.89362,2.92354],[72.89335,2.92637],[72.89797,2.92226]]],[[[72.8926,3.05211],[72.88439,3.05763],[72.89207,3.0592],[72.8926,3.05211]]],[[[72.88492,2.9154],[72.88286,2.91914],[72.88658,2.9167],[72.88492,2.9154]]],[[[72.88155,5.49289],[72.87872,5.49532],[72.88489,5.49457],[72.88155,5.49289]]],[[[72.88078,5.03671],[72.88051,5.04135],[72.88321,5.04058],[72.88078,5.03671]]],[[[72.87739,7.09065],[72.87917,7.09632],[72.88048,7.09105],[72.87739,7.09065]]],[[[72.8753,3.48057],[72.87516,3.48482],[72.8808,3.48458],[72.8753,3.48057]]],[[[72.86801,2.90996],[72.86391,2.91073],[72.86775,2.91202],[72.86801,2.90996]]],[[[72.86707,4.21127],[72.86089,4.21705],[72.86423,4.21835],[72.86707,4.21127]]],[[[72.8662,7.00017],[72.86233,7.00144],[72.86412,7.00325],[72.8662,7.00017]]],[[[72.85711,3.47151],[72.85299,3.47859],[72.85581,3.47937],[72.85711,3.47151]]],[[[72.84403,2.85581],[72.84146,2.85915],[72.85094,2.85891],[72.84403,2.85581]]],[[[72.83391,3.46927],[72.83865,3.47198],[72.83056,3.47622],[72.84273,3.48191],[72.84442,3.47109],[72.83391,3.46927]]],[[[72.83947,5.0206],[72.83753,5.02497],[72.841,5.02576],[72.84306,5.02267],[72.83947,5.0206]]],[[[72.83603,2.88078],[72.83538,2.88774],[72.83948,2.88672],[72.83603,2.88078]]],[[[72.82224,3.47362],[72.82249,3.47555],[72.82864,3.47698],[72.82224,3.47362]]],[[[72.8035,3.47976],[72.79426,3.48476],[72.80811,3.48415],[72.80888,3.4817],[72.8035,3.47976]]],[[[72.78631,3.48706],[72.78143,3.4886],[72.78733,3.48977],[72.78631,3.48706]]],[[[72.77425,4.1837],[72.77167,4.18666],[72.77501,4.18641],[72.77425,4.1837]]],[[[72.74909,4.18904],[72.74292,4.1925],[72.74882,4.19406],[72.74909,4.18904]]],[[[72.74599,3.91877],[72.74085,3.92069],[72.74187,3.92314],[72.74752,3.92225],[72.74599,3.91877]]],[[[72.72434,4.04804],[72.72074,4.05202],[72.72792,4.05308],[72.72972,4.04934],[72.72434,4.04804]]],[[[72.72369,3.61547],[72.72163,3.61946],[72.72497,3.61715],[72.72369,3.61547]]],[[[72.71913,3.98349],[72.71463,3.98708],[72.72399,3.98814],[72.72349,3.98479],[72.71913,3.98349]]],[[[72.71996,3.56806],[72.71713,3.57179],[72.72072,3.57128],[72.71996,3.56806]]],[[[72.70811,3.69105],[72.70821,3.70238],[72.71206,3.70033],[72.71284,3.69518],[72.70811,3.69105]]],[[[72.70114,6.40276],[72.70752,6.41606],[72.70833,6.40769],[72.70114,6.40276]]]]}}]}