{"type":"FeatureCollection","features":[{"type":"Feature","properties":{"ISO_A3":"MHL","WB_A3":"MHL","WB_NAME":"Marshall Islands","WB_REGION":"EAS"},"geometry":{"type":"MultiPolygon","coordinates":[[[[172.1713,5.87622],[172.14074,5.91173],[172.15898,5.89648],[172.16386,5.88797],[172.17068,5.88872],[172.17055,5.8855],[172.16591,5.88461],[172.17272,5.87918],[172.1713,5.87622]]],[[[172.16489,5.89041],[172.17057,5.8962],[172.17108,5.89336],[172.16489,5.89041]]],[[[172.15412,5.91002],[172.14821,5.91506],[172.14437,5.925],[172.14,5.92707],[172.14206,5.92925],[172.14502,5.92899],[172.15412,5.91002]]],[[[172.14336,5.93338],[172.13937,5.93519],[172.14156,5.93725],[172.14336,5.93338]]],[[[172.13946,5.91392],[172.13241,5.92824],[172.13204,5.93778],[172.13603,5.93829],[172.13847,5.9339],[172.13678,5.92643],[172.14126,5.91534],[172.13946,5.91392]]],[[[172.11358,5.97507],[172.11244,5.98757],[172.10604,6.00382],[172.10592,6.00666],[172.10952,6.00717],[172.11718,5.97441],[172.11794,5.96926],[172.11562,5.96862],[172.08864,5.99239],[172.06267,6.00984],[172.06048,6.01242],[172.06268,6.01602],[172.10239,5.98347],[172.10896,5.98165],[172.11358,5.97507]]],[[[172.10927,6.00846],[172.10851,6.01722],[172.11342,6.02469],[172.10927,6.00846]]],[[[172.11368,6.0252],[172.11008,6.02598],[172.1106,6.02882],[172.11292,6.0292],[172.11368,6.0252]]],[[[172.11111,6.02985],[172.10727,6.03862],[172.11062,6.03939],[172.11306,6.03552],[172.11343,6.0301],[172.11111,6.02985]]],[[[172.11098,6.09017],[172.10712,6.09069],[172.10893,6.0943],[172.11098,6.09017]]],[[[172.10606,6.07871],[172.10763,6.08811],[172.1102,6.08862],[172.10606,6.07871]]],[[[172.10842,6.09906],[172.10637,6.10203],[172.10869,6.1028],[172.10842,6.09906]]],[[[172.10469,6.03837],[172.10548,6.04249],[172.10805,6.0412],[172.10469,6.03837]]],[[[172.10473,6.05822],[172.10359,6.06466],[172.10694,6.06466],[172.10473,6.05822]]],[[[172.1011,6.04121],[172.10317,6.04945],[172.10573,6.04313],[172.1011,6.04121]]],[[[172.10053,6.14509],[172.09758,6.15077],[172.10004,6.15463],[172.10053,6.14509]]],[[[172.09818,6.12654],[172.09793,6.13041],[172.10012,6.12989],[172.09818,6.12654]]],[[[172.0954,6.15413],[172.09825,6.16082],[172.09978,6.15515],[172.0954,6.15413]]],[[[172.0967,6.16044],[172.09272,6.16367],[172.09286,6.16908],[172.0967,6.16044]]],[[[172.07544,6.21745],[172.07159,6.22132],[172.07519,6.22042],[172.07544,6.21745]]],[[[171.80959,6.03889],[171.77718,6.06549],[171.76509,6.07195],[171.72428,6.07948],[171.73308,6.11015],[171.73614,6.09107],[171.74552,6.07765],[171.77564,6.06858],[171.78927,6.05516],[171.81346,6.04081],[171.82093,6.04132],[171.83485,6.0538],[171.85341,6.06344],[171.8851,6.07306],[171.91445,6.06656],[171.95045,6.03466],[171.96152,6.03439],[171.97286,6.04004],[171.98419,6.04131],[172.00839,6.03933],[172.05778,6.01397],[172.02022,6.03247],[171.99603,6.03974],[171.97208,6.03746],[171.95997,6.03155],[171.94658,6.03299],[171.92602,6.05662],[171.90055,6.06878],[171.88046,6.06958],[171.86526,6.066],[171.83614,6.05096],[171.82376,6.04028],[171.80959,6.03889]]],[[[172.03035,6.20994],[172.03241,6.21096],[172.02907,6.21496],[172.03783,6.21637],[172.03035,6.20994]]],[[[172.02313,6.20492],[172.0154,6.20661],[172.01747,6.20932],[172.02313,6.20492]]],[[[172.00587,6.20547],[172.00098,6.20677],[172.00201,6.20883],[172.01,6.20894],[172.00587,6.20547]]],[[[171.9832,6.20551],[171.9796,6.20745],[171.97935,6.21248],[171.9832,6.20551]]],[[[171.96263,6.22244],[171.95028,6.232],[171.96109,6.22837],[171.96263,6.22244]]],[[[171.88199,7.08435],[171.89645,7.09193],[171.9078,7.08933],[171.92176,7.10077],[171.93148,7.11983],[171.92517,7.12706],[171.91743,7.12759],[171.92182,7.13183],[171.93522,7.1224],[171.93457,7.11569],[171.90805,7.08494],[171.89671,7.09089],[171.88224,7.08216],[171.87115,7.08527],[171.85901,7.07511],[171.82002,7.065],[171.80583,7.06477],[171.79421,7.05796],[171.78152,7.03465],[171.75853,7.01677],[171.75374,7.0044],[171.75267,6.98172],[171.75048,6.9825],[171.75362,7.01059],[171.76215,7.02398],[171.78463,7.04147],[171.79525,7.06259],[171.80403,7.06696],[171.82003,7.06719],[171.85953,7.07769],[171.86096,7.08387],[171.85438,7.0844],[171.85438,7.08698],[171.86909,7.08566],[171.874,7.09003],[171.88199,7.08435]]],[[[171.92713,6.25202],[171.92327,6.25331],[171.92327,6.25653],[171.92713,6.25202]]],[[[171.90781,6.25063],[171.91194,6.25746],[171.91516,6.2581],[171.90781,6.25063]]],[[[171.90109,6.24227],[171.89801,6.24446],[171.90162,6.24626],[171.90109,6.24227]]],[[[171.87532,6.23342],[171.87326,6.2369],[171.88924,6.24048],[171.88357,6.23482],[171.87532,6.23342]]],[[[171.86553,6.23421],[171.84879,6.23733],[171.84159,6.24301],[171.86888,6.23626],[171.86553,6.23421]]],[[[171.8278,7.08574],[171.82445,7.08806],[171.82858,7.08883],[171.8278,7.08574]]],[[[171.80937,6.2294],[171.80795,6.23095],[171.81453,6.23635],[171.82715,6.23736],[171.80937,6.2294]]],[[[171.8229,7.08549],[171.81955,7.08897],[171.82406,7.08858],[171.8229,7.08549]]],[[[171.80921,7.07688],[171.80689,7.08036],[171.81154,7.08216],[171.80921,7.07688]]],[[[171.80404,7.07276],[171.79656,7.07651],[171.80379,7.07727],[171.80404,7.07276]]],[[[171.79209,6.22066],[171.7939,6.2253],[171.80344,6.22837],[171.80395,6.2258],[171.79209,6.22066]]],[[[171.76401,6.21941],[171.76376,6.22328],[171.76737,6.22443],[171.78669,6.22492],[171.78746,6.2226],[171.76401,6.21941]]],[[[171.59776,7.00128],[171.589,7.00773],[171.57124,7.04307],[171.55345,7.0556],[171.5461,7.06501],[171.55529,7.08511],[171.55812,7.0833],[171.55477,7.0815],[171.5536,7.07377],[171.55745,7.06062],[171.5715,7.04539],[171.59776,7.00179],[171.6104,6.99494],[171.62123,6.99441],[171.64162,6.9989],[171.6504,7.0052],[171.66485,7.00647],[171.67079,7.00479],[171.68083,6.99446],[171.69347,6.99173],[171.70609,6.97883],[171.74193,6.95944],[171.7565,6.96032],[171.75408,6.97914],[171.75987,6.96753],[171.75779,6.95799],[171.73651,6.9588],[171.72774,6.96333],[171.71563,6.97262],[171.70196,6.9778],[171.69502,6.9898],[171.67928,6.99111],[171.67452,7.0004],[171.66872,7.00453],[171.6535,7.00494],[171.64317,6.99773],[171.61891,6.99313],[171.60859,6.99443],[171.59776,7.00128]]],[[[171.73003,6.13928],[171.72978,6.14934],[171.72465,6.16198],[171.72391,6.18595],[171.71595,6.20349],[171.71596,6.2102],[171.71867,6.21483],[171.72666,6.21804],[171.72794,6.21559],[171.73542,6.22022],[171.75423,6.22162],[171.75358,6.21788],[171.73516,6.21649],[171.72665,6.21057],[171.72072,6.21032],[171.72006,6.19782],[171.7252,6.1875],[171.72735,6.16043],[171.73133,6.14934],[171.73399,6.11711],[171.7295,6.12794],[171.73003,6.13928]]],[[[171.71683,7.07935],[171.71632,7.08244],[171.71941,7.08269],[171.71992,7.07973],[171.71683,7.07935]]],[[[171.7011,7.08736],[171.69775,7.09008],[171.69918,7.09703],[171.7011,7.08736]]],[[[171.69621,7.10116],[171.68926,7.10684],[171.68952,7.11045],[171.69339,7.10967],[171.69621,7.10116]]],[[[171.67973,7.12542],[171.68283,7.12696],[171.68207,7.13199],[171.68684,7.13031],[171.68645,7.12644],[171.67973,7.12542]]],[[[171.67614,7.13844],[171.67072,7.14193],[171.67395,7.14244],[171.67614,7.13844]]],[[[171.65878,7.26891],[171.65621,7.27832],[171.65931,7.28193],[171.65878,7.26891]]],[[[171.65931,7.28296],[171.65544,7.28348],[171.65648,7.28709],[171.65931,7.28296]]],[[[171.63419,7.22319],[171.63318,7.23737],[171.6377,7.23942],[171.63809,7.2469],[171.63551,7.24716],[171.63552,7.25386],[171.64378,7.24882],[171.65773,7.25899],[171.65643,7.25512],[171.64713,7.24946],[171.64157,7.24019],[171.63858,7.22447],[171.63419,7.22319]]],[[[171.64603,7.19881],[171.64371,7.20371],[171.64578,7.20384],[171.64603,7.19881]]],[[[171.64294,7.20436],[171.64449,7.20771],[171.64578,7.20461],[171.64294,7.20436]]],[[[171.64382,7.27757],[171.64137,7.28376],[171.64525,7.28839],[171.64382,7.27757]]],[[[171.63714,7.21493],[171.63509,7.22112],[171.63909,7.2237],[171.64063,7.21519],[171.63714,7.21493]]],[[[171.63991,7.25308],[171.63579,7.25902],[171.6394,7.25953],[171.63991,7.25308]]],[[[171.60236,7.16471],[171.6034,7.17115],[171.60508,7.17012],[171.60236,7.16471]]],[[[171.59821,7.15208],[171.59719,7.15853],[171.59951,7.15724],[171.59821,7.15208]]],[[[171.59408,7.14874],[171.59202,7.15261],[171.59409,7.15389],[171.59408,7.14874]]],[[[171.58788,7.14204],[171.58504,7.14411],[171.58711,7.14707],[171.58969,7.14565],[171.58788,7.14204]]],[[[171.56485,7.09799],[171.56592,7.12686],[171.58038,7.1338],[171.57637,7.12659],[171.57224,7.12788],[171.56485,7.09799]]],[[[171.5589,7.08459],[171.55671,7.0864],[171.55917,7.09336],[171.5589,7.08459]]],[[[171.10443,7.09897],[171.06211,7.11444],[171.05179,7.12166],[171.03811,7.13803],[171.02933,7.14268],[171.02688,7.14628],[171.02856,7.15144],[171.03979,7.16382],[171.03824,7.15479],[171.04185,7.13829],[171.05075,7.12488],[171.06366,7.11509],[171.14263,7.08826],[171.22683,7.05488],[171.24016,7.05535],[171.28301,7.06963],[171.3065,7.07155],[171.33231,7.08017],[171.37877,7.08916],[171.37736,7.10205],[171.36447,7.11933],[171.35557,7.12269],[171.3566,7.12591],[171.3646,7.12449],[171.37027,7.11159],[171.37956,7.10359],[171.38483,7.09018],[171.37489,7.08439],[171.3336,7.07823],[171.32766,7.07463],[171.27681,7.06551],[171.23268,7.05277],[171.18804,7.06568],[171.14779,7.08413],[171.10443,7.09897]]],[[[171.35221,7.12243],[171.34641,7.12295],[171.34628,7.12527],[171.3517,7.12579],[171.35221,7.12243]]],[[[171.33931,7.12012],[171.33905,7.12322],[171.34525,7.12527],[171.34602,7.1227],[171.33931,7.12012]]],[[[171.32795,7.11936],[171.32253,7.12323],[171.33621,7.12219],[171.32795,7.11936]]],[[[171.31969,7.12104],[171.31376,7.12401],[171.3086,7.13213],[171.3215,7.12297],[171.31969,7.12104]]],[[[171.3037,7.13407],[171.29854,7.14155],[171.30512,7.13613],[171.3037,7.13407]]],[[[171.29028,7.14465],[171.2828,7.14942],[171.28435,7.15122],[171.29028,7.14465]]],[[[171.26009,7.14621],[171.25983,7.14776],[171.27028,7.14801],[171.26009,7.14621]]],[[[171.25389,7.1457],[171.25054,7.14828],[171.25647,7.14802],[171.25389,7.1457]]],[[[171.24847,7.14622],[171.24254,7.15035],[171.25002,7.14854],[171.24847,7.14622]]],[[[171.2362,8.70925],[171.23697,8.70383],[171.22414,8.69765],[171.22389,8.70822],[171.22998,8.71286],[171.2362,8.70925]]],[[[171.20795,7.15668],[171.20873,7.16029],[171.21621,7.16003],[171.20795,7.15668]]],[[[171.19864,8.73827],[171.19489,8.74149],[171.19683,8.74381],[171.19864,8.73827]]],[[[171.18894,8.50227],[171.19231,8.50407],[171.19528,8.4984],[171.19437,8.49453],[171.1879,8.49119],[171.1857,8.49325],[171.18894,8.50227]]],[[[171.18039,8.48938],[171.18217,8.48671],[171.17702,8.48655],[171.1765,8.48913],[171.18039,8.48938]]],[[[171.17682,8.60952],[171.18071,8.62008],[171.182,8.61905],[171.17682,8.60952]]],[[[171.17223,8.77192],[171.17819,8.7696],[171.17806,8.76419],[171.17093,8.7687],[171.17223,8.77192]]],[[[171.17816,8.13956],[171.17906,8.13466],[171.17673,8.13569],[171.16885,8.15116],[171.17558,8.14858],[171.17816,8.13956]]],[[[171.17266,8.57111],[171.1768,8.57059],[171.17654,8.56672],[171.17266,8.57111]]],[[[171.17222,8.16921],[171.17171,8.17488],[171.17468,8.17488],[171.17222,8.16921]]],[[[171.16136,8.19061],[171.16628,8.19216],[171.16848,8.18623],[171.16136,8.19061]]],[[[171.15908,8.30456],[171.15003,8.315],[171.16555,8.31255],[171.16723,8.30765],[171.16193,8.30095],[171.15895,8.29992],[171.15908,8.30456]]],[[[171.15335,8.2115],[171.15154,8.21768],[171.15413,8.21846],[171.15555,8.21227],[171.15335,8.2115]]],[[[171.14508,8.24166],[171.14754,8.23753],[171.14456,8.23779],[171.14508,8.24166]]],[[[171.09166,8.83846],[171.0971,8.8333],[171.08881,8.83563],[171.09166,8.83846]]],[[[171.08097,7.20751],[171.08019,7.21331],[171.07451,7.21808],[171.07606,7.22066],[171.08239,7.21666],[171.08097,7.20751]]],[[[171.05102,7.20919],[171.05748,7.21898],[171.0678,7.22182],[171.05102,7.20919]]],[[[171.059,8.86528],[171.06393,8.86605],[171.06717,8.86064],[171.06496,8.85806],[171.0581,8.86322],[171.059,8.86528]]],[[[171.06097,8.19811],[171.06576,8.19631],[171.06511,8.19489],[171.06097,8.19811]]],[[[171.04184,8.3613],[171.039,8.36852],[171.04521,8.36298],[171.04547,8.35898],[171.04029,8.35743],[171.04184,8.3613]]],[[[171.01623,8.61342],[171.02192,8.60543],[171.01635,8.60775],[171.01351,8.61317],[171.01623,8.61342]]],[[[171.01595,8.2288],[171.01647,8.22441],[171.01388,8.22544],[171.01595,8.2288]]],[[[170.99395,8.88359],[170.99757,8.88397],[170.99991,8.88049],[170.99369,8.88114],[170.99395,8.88359]]],[[[170.93199,8.90369],[170.93795,8.90266],[170.93821,8.89982],[170.93078,8.90128],[170.93199,8.90369]]],[[[170.89544,8.90149],[170.88689,8.90329],[170.88896,8.90638],[170.89544,8.90149]]],[[[170.88304,8.75339],[170.88576,8.75519],[170.88486,8.74771],[170.88304,8.75339]]],[[[170.86249,10.27246],[170.86691,10.28406],[170.86637,10.29475],[170.87367,10.29991],[170.87731,10.29824],[170.87848,10.2918],[170.8725,10.28071],[170.87446,10.26885],[170.86665,10.26795],[170.86249,10.27246]]],[[[170.83971,8.90289],[170.85215,8.90109],[170.84593,8.89515],[170.84218,8.8851],[170.83557,8.88368],[170.83336,8.88793],[170.83971,8.90289]]],[[[170.23225,9.43801],[170.23652,9.44498],[170.23598,9.45477],[170.23064,9.46262],[170.23479,9.46611],[170.24128,9.46484],[170.24454,9.45918],[170.24287,9.44989],[170.23225,9.43801]]],[[[170.2284,9.4179],[170.22684,9.42228],[170.22917,9.42228],[170.2284,9.4179]]],[[[170.22569,9.46996],[170.22127,9.47523],[170.22711,9.47177],[170.22569,9.46996]]],[[[170.20822,9.3904],[170.21858,9.39829],[170.21808,9.39313],[170.20822,9.3904]]],[[[170.21424,9.48372],[170.21189,9.48643],[170.21475,9.48721],[170.21424,9.48372]]],[[[170.20929,9.49054],[170.20591,9.49363],[170.20902,9.49518],[170.20929,9.49054]]],[[[170.20122,9.38742],[170.19527,9.37723],[170.19008,9.37786],[170.19007,9.38173],[170.1963,9.38084],[170.20122,9.38742]]],[[[170.19497,9.50855],[170.18924,9.5137],[170.19158,9.51473],[170.19497,9.50855]]],[[[170.18118,9.52115],[170.17805,9.52501],[170.18051,9.52631],[170.18286,9.52399],[170.18118,9.52115]]],[[[170.14165,9.54516],[170.1476,9.55535],[170.15357,9.55459],[170.15683,9.54996],[170.14839,9.55007],[170.14165,9.54516]]],[[[170.14145,12.25195],[170.14147,12.24679],[170.13703,12.24163],[170.13231,12.24264],[170.14145,12.25195]]],[[[170.10549,12.19308],[170.11089,12.18511],[170.10538,12.18844],[170.10549,12.19308]]],[[[170.09504,9.39774],[170.09425,9.40108],[170.09931,9.40058],[170.09504,9.39774]]],[[[170.07223,9.38466],[170.06885,9.38645],[170.07196,9.38943],[170.07534,9.38647],[170.07223,9.38466]]],[[[170.05743,9.38514],[170.05275,9.38976],[170.05821,9.38759],[170.05743,9.38514]]],[[[170.05644,9.36928],[170.04997,9.36321],[170.05358,9.37031],[170.05644,9.36928]]],[[[170.04648,9.01794],[170.03805,9.01998],[170.03622,9.02513],[170.04648,9.01794]]],[[[169.98739,10.23199],[169.9827,10.23236],[169.98347,10.23739],[169.98828,10.2374],[169.98739,10.23199]]],[[[169.98476,10.23907],[169.98241,10.24383],[169.98656,10.24513],[169.98814,10.23959],[169.98476,10.23907]]],[[[169.98637,10.2249],[169.98351,10.22502],[169.98531,10.22979],[169.98792,10.22812],[169.98637,10.2249]]],[[[169.98198,10.21419],[169.97912,10.2147],[169.97819,10.21985],[169.98325,10.2245],[169.98741,10.22348],[169.98198,10.21419]]],[[[169.98368,10.25208],[169.98209,10.26148],[169.98614,10.25647],[169.98368,10.25208]]],[[[169.97573,10.29716],[169.97807,10.29717],[169.97808,10.29278],[169.97574,10.29226],[169.97573,10.29716]]],[[[169.97501,10.35901],[169.97685,10.35335],[169.97086,10.35307],[169.97046,10.35771],[169.97501,10.35901]]],[[[169.97601,10.3719],[169.97629,10.3643],[169.97239,10.36364],[169.97128,10.37097],[169.97601,10.3719]]],[[[169.971,10.38967],[169.97413,10.38968],[169.97323,10.38478],[169.971,10.38967]]],[[[169.96996,10.39121],[169.97046,10.39752],[169.97306,10.39779],[169.97503,10.39329],[169.96996,10.39121]]],[[[169.97468,10.37937],[169.97182,10.37756],[169.9709,10.38039],[169.97468,10.37937]]],[[[169.96865,10.31363],[169.97255,10.31442],[169.97256,10.31235],[169.96865,10.31363]]],[[[169.96492,10.41761],[169.96386,10.42418],[169.9701,10.42626],[169.96492,10.41761]]],[[[169.95964,10.44092],[169.95648,10.44993],[169.96012,10.45148],[169.9634,10.44505],[169.95964,10.44092]]],[[[169.95439,10.45263],[169.95125,10.45803],[169.95359,10.45894],[169.95816,10.45534],[169.95439,10.45263]]],[[[169.94777,9.51743],[169.95112,9.52414],[169.95814,9.52133],[169.94777,9.51743]]],[[[169.94289,10.46715],[169.9473,10.47026],[169.95162,10.46331],[169.94681,10.46059],[169.94108,10.46354],[169.94289,10.46715]]],[[[169.90856,9.18625],[169.90362,9.18817],[169.90621,9.1905],[169.90856,9.18625]]],[[[169.88311,9.52161],[169.87764,9.52624],[169.86803,9.52633],[169.86958,9.52904],[169.87711,9.52958],[169.88311,9.52161]]],[[[169.86464,10.28725],[169.85851,10.29187],[169.86462,10.29266],[169.86464,10.28725]]],[[[169.83165,11.22029],[169.84312,11.22292],[169.84751,11.23595],[169.85352,11.23326],[169.85171,11.23081],[169.85458,11.22927],[169.86033,11.22917],[169.85995,11.22504],[169.85462,11.22129],[169.82801,11.21654],[169.83165,11.22029]]],[[[169.83967,11.23914],[169.8339,11.24504],[169.84355,11.24714],[169.83967,11.23914]]],[[[169.83532,9.52661],[169.83686,9.5319],[169.84231,9.53334],[169.84257,9.5305],[169.83532,9.52661]]],[[[169.82342,11.25479],[169.82262,11.25737],[169.82523,11.25892],[169.82342,11.25479]]],[[[169.76437,11.20469],[169.756,11.20891],[169.75729,11.21342],[169.7671,11.20638],[169.76437,11.20469]]],[[[169.7172,5.98436],[169.72074,6.00783],[169.71737,6.01761],[169.70049,6.02531],[169.66152,6.06259],[169.66796,6.06157],[169.69352,6.0338],[169.72265,6.01814],[169.72485,6.0148],[169.71949,5.99597],[169.72182,5.98824],[169.71349,5.9734],[169.68596,5.96431],[169.67633,5.95746],[169.67197,5.94946],[169.64562,5.93187],[169.64484,5.93522],[169.65513,5.93808],[169.68262,5.96405],[169.71323,5.97533],[169.7172,5.98436]]],[[[169.66667,11.10893],[169.66223,11.10955],[169.66246,11.11754],[169.66742,11.11627],[169.66667,11.10893]]],[[[169.66297,11.11947],[169.66191,11.12346],[169.6653,11.12374],[169.66297,11.11947]]],[[[169.63972,5.92515],[169.64255,5.92542],[169.64488,5.91949],[169.63168,5.89678],[169.63019,5.8759],[169.61756,5.8305],[169.61608,5.80576],[169.60737,5.78679],[169.59476,5.78934],[169.58122,5.79845],[169.57102,5.81235],[169.5865,5.79847],[169.59758,5.79373],[169.60761,5.79491],[169.61235,5.80265],[169.61549,5.83359],[169.62877,5.8777],[169.63064,5.90039],[169.64282,5.91923],[169.63972,5.92515]]],[[[169.63843,5.92811],[169.63713,5.93211],[169.64073,5.93211],[169.63843,5.92811]]],[[[169.63054,11.07913],[169.62896,11.08209],[169.63418,11.08134],[169.63054,11.07913]]],[[[169.61749,6.06273],[169.62264,6.06532],[169.62471,6.06043],[169.6193,6.05952],[169.61749,6.06273]]],[[[169.60536,6.07559],[169.61413,6.06917],[169.61285,6.06672],[169.60614,6.07147],[169.60536,6.07559]]],[[[169.59297,6.08819],[169.58208,6.11445],[169.58711,6.11163],[169.59774,6.08562],[169.5953,6.08407],[169.59297,6.08819]]],[[[169.58002,6.11522],[169.57151,6.12009],[169.58233,6.11832],[169.58002,6.11522]]],[[[169.56793,5.81234],[169.54782,5.82608],[169.54188,5.8365],[169.56896,5.81518],[169.56793,5.81234]]],[[[169.56559,6.12007],[169.55436,6.13113],[169.55237,6.15148],[169.54669,6.15662],[169.53775,6.17773],[169.54144,6.19398],[169.54427,6.19502],[169.5411,6.17697],[169.55508,6.15149],[169.55563,6.13809],[169.56559,6.12007]]],[[[169.53724,5.83958],[169.52809,5.84368],[169.52535,5.85656],[169.52767,5.85708],[169.53053,5.84652],[169.54161,5.83933],[169.53724,5.83958]]],[[[169.53859,6.19913],[169.52286,6.20746],[169.52491,6.20978],[169.53987,6.203],[169.54116,6.20042],[169.53859,6.19913]]],[[[169.52629,10.07652],[169.52184,10.08178],[169.52574,10.08206],[169.52629,10.07652]]],[[[169.52457,5.86055],[169.52186,5.86248],[169.52583,5.86971],[169.52457,5.86055]]],[[[169.52027,6.21119],[169.51314,6.23024],[169.5094,6.23229],[169.51145,6.23397],[169.51857,6.2233],[169.52285,6.21197],[169.52027,6.21119]]],[[[169.51941,5.8675],[169.50972,5.87843],[169.5119,5.88127],[169.52068,5.87201],[169.51941,5.8675]]],[[[169.50855,5.88551],[169.50905,5.89183],[169.5106,5.88796],[169.50855,5.88551]]],[[[169.50862,6.23435],[169.49839,6.25262],[169.50018,6.25933],[169.51016,6.23706],[169.50862,6.23435]]],[[[169.49695,6.2628],[169.49501,6.26576],[169.49706,6.26808],[169.49927,6.26306],[169.49695,6.2628]]],[[[169.49228,6.27374],[169.48027,6.28504],[169.49072,6.28018],[169.49395,6.27658],[169.49228,6.27374]]],[[[169.48376,5.91611],[169.4786,5.91855],[169.4804,5.91984],[169.48376,5.91611]]],[[[169.46929,6.29571],[169.46181,6.30071],[169.47109,6.2979],[169.46929,6.29571]]],[[[169.46905,5.92857],[169.46261,5.92946],[169.46002,5.93435],[169.46905,5.92857]]],[[[169.46597,6.19802],[169.4639,6.2033],[169.46595,6.20433],[169.46597,6.19802]]],[[[169.45949,6.30019],[169.45768,6.30405],[169.46154,6.30303],[169.45949,6.30019]]],[[[169.46061,6.18087],[169.45725,6.18601],[169.46073,6.18447],[169.46061,6.18087]]],[[[169.45122,6.22259],[169.44839,6.22348],[169.44966,6.22826],[169.45122,6.22259]]],[[[169.44894,5.94089],[169.42549,5.94997],[169.4229,5.95602],[169.43165,5.95566],[169.43553,5.94948],[169.44609,5.94603],[169.44894,5.94089]]],[[[169.44657,6.22773],[169.44578,6.23211],[169.44914,6.23057],[169.44657,6.22773]]],[[[169.44424,6.23185],[169.43985,6.23518],[169.4432,6.23674],[169.44424,6.23185]]],[[[169.43984,6.23905],[169.43507,6.2411],[169.44061,6.24189],[169.43984,6.23905]]],[[[169.41792,6.24968],[169.41225,6.25108],[169.4161,6.25444],[169.4192,6.25265],[169.41792,6.24968]]],[[[169.41472,6.28459],[169.41624,6.29362],[169.41716,6.28743],[169.41472,6.28459]]],[[[169.40932,6.28135],[169.40955,6.29179],[169.41344,6.28356],[169.40932,6.28135]]],[[[169.4112,6.25804],[169.40759,6.25983],[169.40602,6.26781],[169.4117,6.26242],[169.4112,6.25804]]],[[[169.29388,9.81748],[169.28789,9.81964],[169.28786,9.82582],[169.29698,9.82136],[169.30605,9.8254],[169.30577,9.82939],[169.31436,9.8257],[169.29388,9.81748]]],[[[169.31325,9.83935],[169.301,9.84689],[169.30567,9.84962],[169.31062,9.84707],[169.31325,9.83935]]],[[[169.29161,9.85509],[169.289,9.85752],[169.29405,9.85987],[169.29161,9.85509]]],[[[169.27404,9.88605],[169.26828,9.89349],[169.27583,9.89224],[169.27404,9.88605]]],[[[169.26152,9.89487],[169.25839,9.89627],[169.25889,9.90117],[169.26591,9.89992],[169.26152,9.89487]]],[[[169.24927,9.90189],[169.25055,9.90473],[169.25277,9.90346],[169.24927,9.90189]]],[[[169.23355,9.82799],[169.2264,9.82886],[169.22703,9.83401],[169.23355,9.82799]]],[[[169.22868,9.91415],[169.22555,9.91465],[169.22632,9.91723],[169.22995,9.91802],[169.22868,9.91415]]],[[[169.20914,9.82748],[169.21872,9.83191],[169.21978,9.82908],[169.20914,9.82748]]],[[[169.15498,9.80245],[169.1664,9.80367],[169.17235,9.8077],[169.16771,9.80188],[169.15498,9.80245]]],[[[169.11714,5.63927],[169.11328,5.64093],[169.12894,5.64897],[169.12947,5.64614],[169.12382,5.64135],[169.11714,5.63927]]],[[[169.06235,9.87356],[169.0592,9.87895],[169.06128,9.87948],[169.06235,9.87356]]],[[[169.01304,10.0366],[169.01693,10.03791],[169.01827,10.03174],[169.01154,10.02745],[169.00317,10.03629],[169.00757,10.03915],[169.00993,10.0353],[169.01304,10.0366]]],[[[169.01589,9.90935],[169.01069,9.90958],[169.00846,9.91317],[169.01115,9.91989],[169.01589,9.90935]]],[[[169.01101,14.64701],[169.00935,14.65511],[169.01087,14.66182],[169.01457,14.66301],[169.01684,14.65955],[169.01484,14.64743],[169.01101,14.64701]]],[[[169.01431,14.63287],[169.01113,14.63375],[169.01105,14.64173],[169.01582,14.64152],[169.01431,14.63287]]],[[[168.96579,14.58739],[168.99944,14.60944],[169.01431,14.63223],[169.01531,14.62451],[169.00683,14.61143],[168.96579,14.58739]]],[[[168.99554,10.05015],[169.00429,10.04428],[169.00017,10.03678],[168.99457,10.03881],[168.98945,10.0478],[168.99033,10.05167],[168.99554,10.05015]]],[[[168.97602,7.7459],[168.97381,7.74808],[168.977,7.75698],[168.97999,7.75223],[168.97602,7.7459]]],[[[168.95194,7.59622],[168.93645,7.59486],[168.93307,7.6],[168.94081,7.60197],[168.9664,7.59526],[168.97107,7.59116],[168.97162,7.58318],[168.9482,7.5403],[168.95201,7.55294],[168.96982,7.58137],[168.96578,7.58959],[168.95194,7.59622]]],[[[168.9511,14.57438],[168.95515,14.5797],[168.95584,14.57738],[168.9511,14.57438]]],[[[168.94036,7.53227],[168.94371,7.53435],[168.94437,7.53049],[168.9407,7.51579],[168.94036,7.53227]]],[[[168.93746,7.49027],[168.9417,7.49492],[168.93854,7.481],[168.93746,7.49027]]],[[[168.91828,7.45153],[168.90594,7.44258],[168.90541,7.444],[168.91828,7.45153]]],[[[168.90841,7.57257],[168.90095,7.5679],[168.90196,7.5728],[168.90841,7.57257]]],[[[168.87692,7.35755],[168.8774,7.3658],[168.8796,7.36349],[168.87692,7.35755]]],[[[168.84497,7.50631],[168.84934,7.51071],[168.84833,7.50555],[168.84497,7.50631]]],[[[168.82694,7.28621],[168.8234,7.27267],[168.80893,7.27698],[168.79319,7.27587],[168.78595,7.28009],[168.755,7.27852],[168.74607,7.28427],[168.7481,7.29149],[168.7555,7.28148],[168.76325,7.27984],[168.78491,7.2815],[168.8146,7.27829],[168.82285,7.27975],[168.82694,7.28621]]],[[[168.81972,7.49665],[168.82073,7.50014],[168.82333,7.49719],[168.81972,7.49665]]],[[[168.76804,4.63184],[168.77134,4.64345],[168.76921,4.62515],[168.76742,4.62257],[168.76804,4.63184]]],[[[168.70763,4.57304],[168.69041,4.57904],[168.68847,4.58187],[168.69191,4.59193],[168.70068,4.57933],[168.70942,4.57537],[168.73507,4.58421],[168.75683,4.60321],[168.7685,4.60763],[168.73327,4.58214],[168.70763,4.57304]]],[[[168.75692,7.50999],[168.76365,7.50719],[168.75039,7.50043],[168.75176,7.50984],[168.75692,7.50999]]],[[[168.69064,7.30202],[168.69944,7.29511],[168.71774,7.29933],[168.74422,7.29199],[168.74101,7.28978],[168.71517,7.29764],[168.69946,7.29292],[168.69247,7.29662],[168.6922,7.3001],[168.6715,7.31042],[168.67097,7.31441],[168.66425,7.31605],[168.66888,7.31788],[168.69064,7.30202]]],[[[168.73488,7.48103],[168.73409,7.48386],[168.74181,7.48724],[168.73488,7.48103]]],[[[168.71477,7.475],[168.72431,7.47865],[168.7193,7.47244],[168.71477,7.475]]],[[[168.69417,7.466],[168.69336,7.47334],[168.70161,7.47544],[168.69417,7.466]]],[[[168.68497,4.59487],[168.68469,4.59989],[168.68803,4.60119],[168.68497,4.59487]]],[[[168.68647,4.60659],[168.68803,4.60196],[168.68482,4.60144],[168.68647,4.60659]]],[[[168.68125,7.4698],[168.67943,7.47224],[168.6838,7.47458],[168.68524,7.47149],[168.68125,7.4698]]],[[[168.68059,4.67639],[168.6811,4.67974],[168.6838,4.67769],[168.68059,4.67639]]],[[[168.67158,4.60732],[168.68134,4.60632],[168.6816,4.60426],[168.67158,4.60732]]],[[[168.66703,4.66256],[168.6642,4.66448],[168.66585,4.66913],[168.66802,4.673],[168.67175,4.67224],[168.66703,4.66256]]],[[[168.66695,4.60782],[168.66296,4.61218],[168.6659,4.61477],[168.67003,4.6104],[168.66978,4.60577],[168.66695,4.60782]]],[[[168.6574,4.62466],[168.64516,4.63866],[168.65323,4.64435],[168.65584,4.62994],[168.66073,4.6266],[168.6574,4.62466]]],[[[168.61871,7.34029],[168.60657,7.34408],[168.60759,7.34602],[168.63832,7.33962],[168.64429,7.33385],[168.61871,7.34029]]],[[[168.56311,7.4586],[168.56309,7.46208],[168.56797,7.46648],[168.56311,7.4586]]],[[[168.55412,7.45095],[168.55048,7.43265],[168.55408,7.41103],[168.56054,7.38685],[168.56769,7.3762],[168.55742,7.39096],[168.54581,7.43623],[168.5464,7.44705],[168.55152,7.4548],[168.55796,7.45587],[168.55412,7.45095]]],[[[168.30035,7.83937],[168.30726,7.8286],[168.30537,7.82138],[168.30292,7.82162],[168.30035,7.83937]]],[[[168.29351,7.85838],[168.29314,7.85555],[168.28924,7.86016],[168.29351,7.85838]]],[[[168.27218,7.88219],[168.27608,7.87861],[168.27437,7.87689],[168.27218,7.88219]]],[[[168.22491,7.76626],[168.24409,7.75531],[168.25595,7.75745],[168.27062,7.76501],[168.24798,7.75289],[168.23013,7.75844],[168.22491,7.76626]]],[[[168.2594,7.90142],[168.26331,7.89604],[168.26202,7.895],[168.2594,7.90142]]],[[[168.25906,7.91327],[168.25683,7.91815],[168.25876,7.92048],[168.25906,7.91327]]],[[[168.24316,7.93582],[168.23953,7.93722],[168.24185,7.93865],[168.24316,7.93582]]],[[[168.22101,7.964],[168.22311,7.95964],[168.21974,7.96065],[168.22101,7.964]]],[[[168.21709,7.77831],[168.22309,7.76805],[168.21571,7.77369],[168.21709,7.77831]]],[[[168.18958,7.99031],[168.18695,7.99673],[168.18901,7.99726],[168.19175,7.99316],[168.18958,7.99031]]],[[[168.18495,8.15028],[168.17293,8.1653],[168.18247,8.16266],[168.18769,8.1536],[168.187,8.14252],[168.18495,8.15028]]],[[[168.16547,8.07718],[168.17069,8.07729],[168.17041,8.07206],[168.16547,8.07718]]],[[[168.11327,5.59061],[168.09872,5.59633],[168.09957,5.60612],[168.10226,5.6069],[168.10785,5.59509],[168.11994,5.59283],[168.13044,5.62687],[168.1272,5.6311],[168.11795,5.63067],[168.1331,5.63435],[168.12225,5.59258],[168.11327,5.59061]]],[[[168.09636,5.62992],[168.08952,5.63619],[168.09014,5.6407],[168.10327,5.63652],[168.09636,5.62992]]],[[[168.0186,8.18837],[168.01948,8.18502],[168.01383,8.18726],[168.01556,8.18992],[168.0186,8.18837]]],[[[167.97476,8.19925],[167.98528,8.18965],[167.98316,8.18323],[167.97355,8.1936],[167.96902,8.20443],[167.97476,8.19925]]],[[[167.7675,8.88234],[167.77084,8.89647],[167.76961,8.90472],[167.77426,8.90314],[167.77418,8.89207],[167.7675,8.88234]]],[[[167.73847,8.77221],[167.7323,8.79582],[167.73538,8.82721],[167.74161,8.84802],[167.75314,8.86609],[167.73615,8.8272],[167.73338,8.8025],[167.74067,8.77309],[167.73847,8.77221]]],[[[167.73825,8.74324],[167.74168,8.73369],[167.74095,8.72275],[167.73236,8.71625],[167.71865,8.71724],[167.71381,8.72694],[167.72438,8.7221],[167.73112,8.72321],[167.73634,8.72986],[167.73542,8.74442],[167.73825,8.74324]]],[[[167.72889,9.01742],[167.72581,9.02015],[167.7297,9.02141],[167.72889,9.01742]]],[[[167.72641,8.99736],[167.72476,9.00162],[167.7279,9.00597],[167.72641,8.99736]]],[[[167.68317,8.75007],[167.68857,8.7445],[167.68315,8.7475],[167.68317,8.75007]]],[[[167.62911,8.79282],[167.61027,8.80029],[167.60876,8.80622],[167.61084,8.80749],[167.6157,8.79999],[167.62911,8.79282]]],[[[167.60491,8.8114],[167.60157,8.81554],[167.60443,8.81681],[167.60491,8.8114]]],[[[167.59929,8.82187],[167.59375,8.82641],[167.59673,8.82716],[167.59929,8.82187]]],[[[167.58542,8.83832],[167.57978,8.84608],[167.58404,8.84476],[167.58542,8.83832]]],[[[167.57839,8.98091],[167.57636,8.98672],[167.58062,8.9854],[167.57839,8.98091]]],[[[167.57266,8.90279],[167.5707,8.91825],[167.57408,8.92029],[167.57585,8.91436],[167.57261,8.91438],[167.57266,8.90279]]],[[[167.56697,9.0146],[167.56071,9.02675],[167.56357,9.02776],[167.56697,9.0146]]],[[[167.52655,9.05003],[167.51907,9.05575],[167.52787,9.05324],[167.52655,9.05003]]],[[[167.51036,11.38228],[167.51817,11.38302],[167.52134,11.37958],[167.51227,11.37472],[167.51036,11.38228]]],[[[167.5152,9.05694],[167.50051,9.06837],[167.50466,9.06886],[167.5152,9.05694]]],[[[167.50935,9.33113],[167.5063,9.33875],[167.50838,9.33951],[167.5117,9.33254],[167.50935,9.33113]]],[[[167.51005,11.38588],[167.50634,11.39098],[167.51077,11.39104],[167.51005,11.38588]]],[[[167.50373,9.34289],[167.50169,9.34664],[167.50402,9.34727],[167.50373,9.34289]]],[[[167.49454,9.36279],[167.49327,9.36627],[167.49639,9.36818],[167.49454,9.36279]]],[[[167.49587,9.07214],[167.48684,9.07774],[167.48843,9.08313],[167.49587,9.07214]]],[[[167.49097,9.37183],[167.48919,9.37622],[167.49257,9.378],[167.49097,9.37183]]],[[[167.48794,9.38202],[167.48563,9.38552],[167.48953,9.38678],[167.48794,9.38202]]],[[[167.48228,9.38889],[167.48049,9.39212],[167.47091,9.3945],[167.46466,9.39133],[167.46708,9.40277],[167.48416,9.39815],[167.48566,9.39079],[167.48228,9.38889]]],[[[167.48372,11.40667],[167.48415,11.40358],[167.47882,11.40159],[167.48059,11.40689],[167.48372,11.40667]]],[[[167.47538,11.3003],[167.47696,11.29865],[167.46632,11.29466],[167.47538,11.3003]]],[[[167.47393,9.084],[167.45042,9.09472],[167.44966,9.09833],[167.47666,9.0863],[167.47393,9.084]]],[[[167.44345,9.09902],[167.43803,9.10176],[167.44321,9.10121],[167.44345,9.09902]]],[[[167.42691,9.10518],[167.41385,9.11016],[167.41374,9.11325],[167.42691,9.10518]]],[[[167.42464,9.34228],[167.42207,9.34578],[167.42674,9.34562],[167.42464,9.34228]]],[[[167.40882,9.11342],[167.40286,9.11384],[167.40288,9.11642],[167.40882,9.11342]]],[[[167.38778,9.33725],[167.3865,9.33893],[167.38937,9.34188],[167.38778,9.33725]]],[[[167.38092,8.30906],[167.3755,8.31128],[167.3727,8.31839],[167.3851,8.31677],[167.38453,8.30762],[167.38092,8.30906]]],[[[167.36315,11.37227],[167.36217,11.3882],[167.36552,11.3912],[167.36315,11.37227]]],[[[167.34079,9.29043],[167.34186,9.29493],[167.34705,9.29631],[167.34079,9.29043]]],[[[167.3393,9.10382],[167.3287,9.10647],[167.32897,9.10943],[167.34295,9.10612],[167.3393,9.10382]]],[[[167.28093,9.09363],[167.27499,9.09715],[167.2934,9.09871],[167.31965,9.10975],[167.31989,9.10678],[167.30172,9.10278],[167.2965,9.0974],[167.28093,9.09363]]],[[[167.26283,9.10044],[167.25118,9.10296],[167.24422,9.10867],[167.24761,9.112],[167.26283,9.10044]]],[[[167.23932,9.11218],[167.23208,9.11532],[167.24296,9.11396],[167.23932,9.11218]]],[[[167.23713,9.30037],[167.23378,9.30399],[167.23689,9.30397],[167.23713,9.30037]]],[[[167.21737,9.1261],[167.20551,9.13673],[167.20889,9.13826],[167.21737,9.1261]]],[[[167.19826,9.13665],[167.18454,9.14072],[167.19853,9.1387],[167.19826,9.13665]]],[[[167.17083,9.14505],[167.16436,9.14715],[167.16541,9.14895],[167.17083,9.14505]]],[[[167.05708,9.33249],[167.05345,9.33354],[167.05529,9.33663],[167.06516,9.3394],[167.06566,9.33669],[167.05708,9.33249]]],[[[167.06188,11.45425],[167.06168,11.446],[167.0531,11.43999],[167.05067,11.44295],[167.0551,11.44522],[167.05637,11.45171],[167.06188,11.45425]]],[[[167.0539,11.4713],[167.05674,11.46665],[167.05077,11.46501],[167.04903,11.46733],[167.0539,11.4713]]],[[[167.01572,11.38914],[167.01252,11.37989],[167.00953,11.38222],[167.01233,11.38968],[167.01572,11.38914]]],[[[167.01031,11.36277],[167.00655,11.36602],[167.00869,11.37424],[167.01222,11.37525],[167.01031,11.36277]]],[[[167.00251,11.3681],[166.9823,11.37004],[166.98427,11.37261],[167.00251,11.3681]]],[[[166.9665,11.37041],[166.96256,11.36708],[166.9605,11.37045],[166.9665,11.37041]]],[[[166.95159,11.36561],[166.95524,11.36443],[166.94818,11.36357],[166.95159,11.36561]]],[[[166.94985,9.3139],[166.95273,9.31917],[166.95479,9.31607],[166.94985,9.3139]]],[[[166.94598,9.27077],[166.94054,9.27235],[166.94418,9.27387],[166.94598,9.27077]]],[[[166.93947,9.31216],[166.94106,9.31885],[166.94546,9.31805],[166.93947,9.31216]]],[[[166.93324,11.35453],[166.93248,11.35737],[166.93665,11.35721],[166.93324,11.35453]]],[[[166.91742,9.31305],[166.9185,9.32],[166.91963,9.31407],[166.91742,9.31305]]],[[[166.90828,11.33138],[166.90931,11.32815],[166.90644,11.3283],[166.90828,11.33138]]],[[[166.89611,11.30569],[166.89848,11.30954],[166.90031,11.30901],[166.89611,11.30569]]],[[[166.89887,11.16888],[166.89539,11.15628],[166.89173,11.15488],[166.88392,11.15699],[166.86225,11.15507],[166.8463,11.14873],[166.83706,11.15252],[166.89204,11.16197],[166.89618,11.17662],[166.89955,11.17377],[166.89887,11.16888]]],[[[166.896,11.21012],[166.89527,11.21759],[166.89853,11.21757],[166.896,11.21012]]],[[[166.89453,11.30467],[166.89714,11.30414],[166.89152,11.28331],[166.88927,11.29801],[166.8932,11.29953],[166.89453,11.30467]]],[[[166.89507,11.18642],[166.89484,11.19106],[166.89666,11.19105],[166.89507,11.18642]]],[[[166.8946,11.23434],[166.89223,11.25162],[166.89543,11.24181],[166.8946,11.23434]]],[[[166.87797,9.30875],[166.87099,9.31252],[166.87774,9.31352],[166.87797,9.30875]]],[[[166.86424,9.31127],[166.86348,9.31565],[166.86581,9.31435],[166.86424,9.31127]]],[[[166.86205,11.48753],[166.86098,11.48367],[166.85839,11.48601],[166.86205,11.48753]]],[[[166.85622,9.31492],[166.84431,9.31949],[166.84562,9.32257],[166.85584,9.31776],[166.85622,9.31492]]],[[[166.84533,11.48699],[166.84746,11.49265],[166.85201,11.48966],[166.85239,11.48746],[166.84533,11.48699]]],[[[166.83678,9.31785],[166.83861,9.32158],[166.84068,9.32015],[166.83678,9.31785]]],[[[166.83446,9.32019],[166.81996,9.32593],[166.81791,9.33174],[166.82777,9.33078],[166.83446,9.32019]]],[[[166.78745,11.46249],[166.79279,11.45988],[166.78978,11.45861],[166.78745,11.46249]]],[[[166.77755,11.17065],[166.77151,11.16386],[166.76187,11.16546],[166.7697,11.16593],[166.77755,11.17065]]],[[[166.71514,11.20516],[166.70785,11.20855],[166.70839,11.21164],[166.71646,11.20785],[166.71514,11.20516]]],[[[166.69116,11.46377],[166.68835,11.4631],[166.68811,11.46628],[166.69116,11.46377]]],[[[166.68203,11.21075],[166.67474,11.21492],[166.68439,11.2128],[166.68884,11.21523],[166.68961,11.21277],[166.68203,11.21075]]],[[[166.68833,11.46923],[166.68568,11.46988],[166.68653,11.47266],[166.68833,11.46923]]],[[[166.68571,11.46303],[166.67946,11.46352],[166.68435,11.4688],[166.68706,11.46677],[166.68571,11.46303]]],[[[166.6225,11.24586],[166.63246,11.23667],[166.62372,11.238],[166.6225,11.24586]]],[[[166.53128,11.13002],[166.53151,11.12331],[166.52786,11.12411],[166.53128,11.13002]]],[[[166.53159,11.13929],[166.53051,11.13298],[166.52612,11.14164],[166.53056,11.14239],[166.53159,11.13929]]],[[[166.5281,11.12127],[166.53071,11.11997],[166.52989,11.11289],[166.51293,11.11362],[166.51399,11.11722],[166.52339,11.11769],[166.5235,11.12121],[166.5281,11.12127]]],[[[166.52434,11.14989],[166.52543,11.1589],[166.52852,11.15154],[166.52434,11.14989]]],[[[166.51008,11.1175],[166.51033,11.11479],[166.50381,11.11572],[166.51008,11.1175]]],[[[166.50048,11.17835],[166.50077,11.18351],[166.50207,11.18324],[166.50048,11.17835]]],[[[166.4999,11.11677],[166.48111,11.11442],[166.48138,11.11712],[166.4999,11.11677]]],[[[166.43757,11.12262],[166.44359,11.12568],[166.44332,11.12311],[166.43757,11.12262]]],[[[166.40861,11.12134],[166.42936,11.12356],[166.40127,11.1157],[166.39449,11.11651],[166.39477,11.11973],[166.40259,11.1184],[166.40861,11.12134]]],[[[166.37236,11.12486],[166.37783,11.12329],[166.37235,11.1228],[166.37236,11.12486]]],[[[166.36973,11.12242],[166.35852,11.12324],[166.35879,11.12646],[166.37027,11.12461],[166.36973,11.12242]]],[[[166.34157,11.12551],[166.35097,11.12753],[166.35043,11.1238],[166.33895,11.12359],[166.33492,11.12709],[166.33741,11.12901],[166.34157,11.12551]]],[[[166.30002,11.17027],[166.29623,11.16874],[166.29592,11.17066],[166.30002,11.17027]]],[[[166.28815,11.14198],[166.29099,11.14589],[166.29571,11.13976],[166.28815,11.14198]]],[[[166.29376,11.17474],[166.28931,11.17814],[166.2917,11.17881],[166.29376,11.17474]]],[[[166.26592,8.92087],[166.2584,8.91858],[166.24545,8.92171],[166.26451,8.92397],[166.26505,8.92989],[166.25447,8.94539],[166.25565,8.94822],[166.27526,8.92342],[166.26592,8.92087]]],[[[166.23961,8.95704],[166.24194,8.95703],[166.24141,8.95394],[166.23804,8.95344],[166.23961,8.95704]]],[[[166.2277,8.96224],[166.22912,8.95785],[166.22393,8.95787],[166.22355,8.96096],[166.2277,8.96224]]],[[[166.21954,8.9236],[166.22134,8.92037],[166.22834,8.91945],[166.21926,8.91858],[166.21643,8.92413],[166.21954,8.9236]]],[[[166.02845,10.03503],[166.02611,10.03504],[166.02484,10.04458],[166.02718,10.04457],[166.02845,10.03503]]],[[[166.02657,10.01507],[166.01696,10.01832],[166.01334,10.02426],[166.02842,10.02627],[166.02657,10.01507]]],[[[166.01322,10.15364],[166.01117,10.16241],[166.00052,10.16914],[166.00237,10.17725],[166.00666,10.17763],[166.0056,10.17248],[166.00859,10.17053],[166.01589,10.17579],[166.0183,10.15723],[166.01322,10.15364]]],[[[166.00196,10.13099],[166.00693,10.13922],[166.00797,10.13742],[166.00196,10.13099]]],[[[165.99168,10.16955],[165.98804,10.16956],[165.99065,10.17278],[165.99168,10.16955]]],[[[165.9256,10.16807],[165.92081,10.17865],[165.92251,10.18187],[165.9303,10.17553],[165.9256,10.16807]]],[[[165.75404,8.93592],[165.76674,8.93306],[165.76738,8.93048],[165.76413,8.92637],[165.75946,8.92625],[165.75441,8.92948],[165.75404,8.93592]]],[[[165.6812,9.07565],[165.67706,9.08145],[165.6825,9.0799],[165.6812,9.07565]]],[[[165.65096,9.13357],[165.64086,9.14287],[165.64942,9.14285],[165.65096,9.13357]]],[[[165.56258,11.51394],[165.56024,11.51897],[165.5639,11.52231],[165.56576,11.53803],[165.57058,11.52771],[165.56258,11.51394]]],[[[165.55929,11.56858],[165.55879,11.57825],[165.56125,11.57103],[165.55929,11.56858]]],[[[165.55179,11.611],[165.54985,11.62131],[165.52857,11.63694],[165.54948,11.63214],[165.55716,11.61691],[165.55179,11.611]]],[[[165.53124,9.20517],[165.52218,9.21987],[165.52529,9.22013],[165.52969,9.21458],[165.53124,9.20517]]],[[[165.43061,11.68646],[165.42513,11.69394],[165.4165,11.69692],[165.38773,11.69116],[165.38852,11.69554],[165.39392,11.69408],[165.41493,11.69898],[165.42826,11.69368],[165.43061,11.68646]]],[[[165.40027,11.50441],[165.40132,11.50763],[165.41701,11.5138],[165.41714,11.51096],[165.40027,11.50441]]],[[[165.37466,11.50071],[165.37571,11.50458],[165.38669,11.50482],[165.3859,11.50237],[165.37466,11.50071]]],[[[165.34617,11.49443],[165.33859,11.49818],[165.33651,11.50256],[165.34252,11.50281],[165.34774,11.49817],[165.35506,11.49932],[165.34617,11.49443]]],[[[165.29307,11.69862],[165.28758,11.69927],[165.28653,11.70262],[165.29308,11.70519],[165.29542,11.69939],[165.29307,11.69862]]],[[[165.28714,11.52439],[165.28296,11.5271],[165.28688,11.52736],[165.28714,11.52439]]],[[[162.39313,11.46216],[162.39193,11.47079],[162.39428,11.47089],[162.39313,11.46216]]],[[[162.38176,11.42703],[162.38669,11.42492],[162.38404,11.42096],[162.38043,11.42448],[162.38176,11.42703]]],[[[162.37395,11.40654],[162.3696,11.3914],[162.36953,11.40787],[162.37243,11.41003],[162.37395,11.40654]]],[[[162.34257,11.55435],[162.34829,11.553],[162.35431,11.54289],[162.34257,11.55435]]],[[[162.33119,11.34037],[162.31771,11.33589],[162.31999,11.34153],[162.3378,11.34802],[162.34519,11.35617],[162.34384,11.35155],[162.33119,11.34037]]],[[[162.33109,11.59888],[162.32907,11.60417],[162.33219,11.60349],[162.33109,11.59888]]],[[[162.32834,11.60894],[162.3251,11.61065],[162.32865,11.61344],[162.32834,11.60894]]],[[[162.31859,11.6236],[162.31931,11.61818],[162.32452,11.61684],[162.32394,11.61221],[162.31255,11.62032],[162.31859,11.6236]]],[[[162.297,11.62976],[162.30111,11.62444],[162.29278,11.62647],[162.297,11.62976]]],[[[162.29148,11.62699],[162.28471,11.62823],[162.28474,11.63042],[162.29148,11.62699]]],[[[162.23214,11.66498],[162.24316,11.66975],[162.24407,11.65816],[162.24197,11.65664],[162.23214,11.66498]]],[[[162.22015,11.34547],[162.22899,11.34357],[162.22611,11.34193],[162.21337,11.34541],[162.22015,11.34547]]],[[[162.21005,11.67424],[162.2176,11.6721],[162.21209,11.6701],[162.21005,11.67424]]],[[[162.19623,11.35242],[162.20689,11.34947],[162.20556,11.34717],[162.19623,11.35242]]],[[[162.17329,11.65586],[162.17256,11.66076],[162.17621,11.66033],[162.17329,11.65586]]],[[[162.15437,11.64552],[162.15467,11.64886],[162.15765,11.64728],[162.15437,11.64552]]],[[[160.9854,9.76559],[160.94753,9.77277],[160.94651,9.77612],[160.98127,9.76883],[160.98907,9.77149],[160.9854,9.76559]]],[[[160.96302,9.80205],[160.96616,9.80602],[160.96731,9.80305],[160.96302,9.80205]]],[[[160.94098,9.80913],[160.93866,9.81198],[160.94282,9.81247],[160.94098,9.80913]]],[[[160.92933,9.81564],[160.92496,9.82223],[160.93155,9.81769],[160.92933,9.81564]]],[[[160.86804,9.81817],[160.86208,9.81962],[160.86287,9.82142],[160.86804,9.81817]]],[[[160.80063,9.84263],[160.79792,9.84522],[160.8013,9.84571],[160.80063,9.84263]]]]}}]}