{"type":"FeatureCollection","features":[{"type":"Feature","properties":{"ISO_A3":"MKD","WB_A3":"MKD","WB_NAME":"North Macedonia","WB_REGION":"ECS"},"geometry":{"type":"MultiPolygon","coordinates":[[[[22.90159,41.87755],[22.91575,41.87636],[22.92722,41.863],[22.93159,41.85009],[22.93717,41.84704],[22.93612,41.84166],[22.94368,41.82799],[22.94053,41.81736],[22.95556,41.79426],[22.96462,41.78927],[22.96487,41.77296],[22.98254,41.76918],[22.98865,41.77134],[22.99607,41.76699],[23.00024,41.76974],[23.00844,41.76835],[23.01612,41.75615],[23.01553,41.75007],[23.0216,41.74769],[23.03367,41.72251],[23.03149,41.71918],[23.03345,41.70873],[23.02702,41.70283],[23.02296,41.70289],[23.00777,41.68214],[22.9953,41.67433],[22.99008,41.6631],[22.98187,41.65573],[22.98497,41.65188],[22.98358,41.64665],[22.95884,41.64679],[22.95819,41.64381],[22.95206,41.64251],[22.9487,41.63159],[22.95294,41.62753],[22.95456,41.6185],[22.94984,41.59887],[22.95185,41.58828],[22.96096,41.58456],[22.96624,41.57775],[22.9665,41.56838],[22.97309,41.55993],[22.96913,41.55359],[22.97049,41.54371],[22.96069,41.54108],[22.95867,41.5349],[22.97124,41.51584],[22.96799,41.50305],[22.95749,41.49368],[22.96064,41.49205],[22.96112,41.47701],[22.96777,41.47442],[22.964,41.46501],[22.97939,41.44691],[22.96907,41.43071],[22.964,41.43153],[22.9526,41.41754],[22.96063,41.40931],[22.96605,41.39658],[22.96217,41.37867],[22.96555,41.35347],[22.94815,41.35064],[22.93853,41.34187],[22.9281,41.34129],[22.92729,41.33855],[22.9152,41.34131],[22.89712,41.33794],[22.87083,41.34092],[22.82186,41.33469],[22.81248,41.34255],[22.81016,41.33945],[22.79986,41.34066],[22.79411,41.33095],[22.78636,41.32667],[22.76574,41.32385],[22.75667,41.307],[22.75853,41.29821],[22.7659,41.29235],[22.75591,41.27536],[22.76087,41.26603],[22.74735,41.16285],[22.73485,41.14925],[22.7114,41.13985],[22.68753,41.15977],[22.66615,41.18646],[22.65458,41.18058],[22.6482,41.18102],[22.6416,41.17006],[22.64202,41.16049],[22.63657,41.1532],[22.61351,41.1309],[22.58924,41.11749],[22.57603,41.11853],[22.56217,41.13119],[22.50699,41.12602],[22.46541,41.11677],[22.45296,41.12134],[22.44462,41.11813],[22.43033,41.1212],[22.41827,41.11875],[22.40194,41.12923],[22.40458,41.1364],[22.40207,41.13752],[22.39263,41.1363],[22.38936,41.13245],[22.38238,41.13217],[22.37374,41.13761],[22.36876,41.1378],[22.36423,41.13281],[22.34551,41.13476],[22.3443,41.13104],[22.33311,41.12726],[22.33412,41.12168],[22.33124,41.1206],[22.32686,41.12197],[22.32693,41.13724],[22.32052,41.14364],[22.32225,41.15103],[22.30623,41.1457],[22.28513,41.15593],[22.27826,41.1545],[22.27293,41.16264],[22.25397,41.1658],[22.2385,41.1624],[22.21558,41.16953],[22.20789,41.16608],[22.20556,41.16163],[22.17247,41.15737],[22.16263,41.14334],[22.15434,41.13855],[22.14873,41.12793],[22.12966,41.12281],[22.11021,41.13478],[22.08735,41.13856],[22.07851,41.1458],[22.08142,41.14905],[22.07689,41.15455],[22.06687,41.15624],[22.06219,41.16107],[22.06027,41.15161],[22.0471,41.14831],[22.0413,41.13997],[22.03412,41.13851],[22.02792,41.13289],[21.99187,41.12588],[21.97307,41.12928],[21.96201,41.11752],[21.95375,41.11599],[21.95172,41.11081],[21.93335,41.10457],[21.9221,41.09437],[21.91068,41.09299],[21.91008,41.08198],[21.90332,41.07011],[21.91374,41.05099],[21.89756,41.03862],[21.88234,41.03985],[21.88422,41.02931],[21.87396,41.02558],[21.87288,41.02146],[21.86584,41.02165],[21.85522,41.01538],[21.8472,41.00637],[21.84784,40.99887],[21.81439,40.98565],[21.80056,40.97543],[21.80036,40.95771],[21.80646,40.95175],[21.80369,40.94443],[21.79009,40.93802],[21.7875,40.93094],[21.7652,40.92894],[21.75658,40.92533],[21.74693,40.93043],[21.7318,40.93026],[21.7051,40.94435],[21.68417,40.94114],[21.68129,40.93398],[21.67053,40.92626],[21.66599,40.91715],[21.67167,40.9073],[21.67084,40.89868],[21.65059,40.90156],[21.63858,40.89847],[21.63366,40.89582],[21.63207,40.89063],[21.62109,40.88849],[21.60912,40.87829],[21.60368,40.88015],[21.59324,40.86601],[21.58751,40.86901],[21.56653,40.86642],[21.56443,40.87529],[21.5513,40.88165],[21.53233,40.9077],[21.52556,40.91016],[21.5184,40.90849],[21.49072,40.91231],[21.46477,40.90686],[21.4407,40.91697],[21.4172,40.91776],[21.36116,40.87887],[21.30169,40.86551],[21.27288,40.86543],[21.25948,40.85945],[21.25074,40.86234],[21.24284,40.8742],[21.20702,40.88401],[21.19556,40.8774],[21.17732,40.87541],[21.15723,40.85859],[21.14416,40.85553],[20.98037,40.85395],[20.97731,40.90162],[20.97195,40.90361],[20.96846,40.91104],[20.96197,40.91135],[20.95629,40.91721],[20.94078,40.92419],[20.91567,40.9235],[20.9113,40.91752],[20.89758,40.91898],[20.848,40.93769],[20.82757,40.913],[20.8274,40.90698],[20.81188,40.89891],[20.80132,40.89824],[20.77347,40.90481],[20.75858,40.90289],[20.73259,40.91197],[20.70019,41.00901],[20.66972,41.08727],[20.63285,41.08644],[20.59575,41.09207],[20.59239,41.10109],[20.58226,41.11328],[20.5904,41.12507],[20.59674,41.12594],[20.5965,41.13208],[20.58339,41.14832],[20.58071,41.15885],[20.57043,41.16688],[20.56025,41.1807],[20.55871,41.19281],[20.55417,41.1908],[20.54604,41.19561],[20.53834,41.19445],[20.53147,41.2042],[20.53161,41.21106],[20.52523,41.21706],[20.52161,41.22714],[20.51505,41.23209],[20.52094,41.24497],[20.51145,41.26423],[20.5103,41.2739],[20.51405,41.28661],[20.5088,41.29014],[20.50705,41.29626],[20.50943,41.30189],[20.49888,41.32141],[20.49962,41.32608],[20.49132,41.3329],[20.49818,41.33727],[20.49745,41.34633],[20.50237,41.34713],[20.51576,41.33694],[20.52653,41.34381],[20.52711,41.35371],[20.53754,41.3596],[20.53655,41.36369],[20.55153,41.37696],[20.55173,41.37989],[20.54565,41.3837],[20.55038,41.38788],[20.55491,41.40055],[20.56122,41.40141],[20.56008,41.40839],[20.55707,41.41668],[20.53848,41.42703],[20.53897,41.43648],[20.51344,41.43768],[20.50783,41.44435],[20.51254,41.44983],[20.50455,41.46217],[20.50317,41.47527],[20.49441,41.49099],[20.47823,41.4988],[20.47094,41.49625],[20.46931,41.49932],[20.47712,41.5074],[20.46158,41.50968],[20.4534,41.517],[20.45858,41.52724],[20.47304,41.53204],[20.47038,41.54342],[20.46324,41.54357],[20.4564,41.55301],[20.47054,41.55884],[20.51803,41.56331],[20.54184,41.57811],[20.55755,41.58157],[20.55313,41.5952],[20.55531,41.60068],[20.54742,41.60734],[20.54676,41.61436],[20.54218,41.61969],[20.54475,41.6217],[20.53276,41.63301],[20.52529,41.636],[20.52651,41.65212],[20.51652,41.66194],[20.52968,41.68676],[20.52725,41.70473],[20.51765,41.71499],[20.51426,41.72877],[20.51916,41.7353],[20.52054,41.75161],[20.5276,41.75607],[20.52811,41.76217],[20.53431,41.76652],[20.53165,41.77668],[20.54567,41.78072],[20.5473,41.78966],[20.56384,41.7861],[20.5733,41.78822],[20.57337,41.79772],[20.56909,41.80119],[20.56952,41.80698],[20.56122,41.82694],[20.56381,41.84093],[20.55832,41.86109],[20.57104,41.87413],[20.59438,41.87717],[20.61925,41.85779],[20.63641,41.86353],[20.64843,41.87453],[20.67055,41.87341],[20.67848,41.86853],[20.68282,41.85789],[20.70615,41.86464],[20.72797,41.86428],[20.74113,41.89346],[20.74971,41.89486],[20.75568,41.90607],[20.77571,41.91842],[20.77216,41.92107],[20.77173,41.92713],[20.75471,41.94666],[20.76571,41.9534],[20.76713,41.96274],[20.74823,41.98545],[20.75193,42.01518],[20.7485,42.0268],[20.76347,42.04066],[20.75843,42.0536],[20.76958,42.0585],[20.78585,42.07165],[20.78465,42.07889],[20.79289,42.08366],[20.80265,42.08164],[20.83397,42.08586],[20.84319,42.09861],[20.89157,42.09749],[20.91439,42.11514],[20.91968,42.12821],[20.92844,42.12763],[20.94409,42.138],[20.96979,42.13649],[21.02676,42.15247],[21.02874,42.15641],[21.04876,42.16594],[21.06748,42.18555],[21.09091,42.19402],[21.10416,42.20602],[21.11804,42.20686],[21.12581,42.20203],[21.16248,42.19666],[21.1806,42.16675],[21.19148,42.15915],[21.21337,42.13433],[21.21687,42.12411],[21.21285,42.11033],[21.22139,42.09633],[21.23247,42.09822],[21.23344,42.09531],[21.24917,42.09243],[21.26585,42.09432],[21.2929,42.10637],[21.29736,42.11255],[21.3035,42.10447],[21.32084,42.10782],[21.30239,42.14131],[21.31051,42.14483],[21.31032,42.14897],[21.32122,42.16142],[21.31729,42.17016],[21.32866,42.17896],[21.33556,42.19184],[21.33199,42.20206],[21.33607,42.20711],[21.3379,42.20409],[21.34578,42.20477],[21.35777,42.2202],[21.37129,42.22425],[21.36968,42.22729],[21.37765,42.23791],[21.38567,42.24153],[21.38215,42.24461],[21.38656,42.24667],[21.4015,42.24915],[21.41997,42.24405],[21.43394,42.23169],[21.44371,42.23576],[21.43483,42.24975],[21.43251,42.2593],[21.44042,42.26234],[21.44121,42.27425],[21.44877,42.279],[21.45911,42.27674],[21.46919,42.28011],[21.48671,42.27389],[21.49548,42.27457],[21.50325,42.26992],[21.51109,42.27055],[21.51149,42.26569],[21.51875,42.26267],[21.52128,42.24147],[21.53204,42.24062],[21.54378,42.25325],[21.56905,42.25074],[21.58695,42.26282],[21.60065,42.25446],[21.60118,42.25667],[21.60566,42.25476],[21.61251,42.25699],[21.62958,42.25092],[21.65444,42.24711],[21.65807,42.24892],[21.66346,42.24663],[21.66355,42.24379],[21.67593,42.24077],[21.6839,42.24204],[21.6988,42.23228],[21.7166,42.24703],[21.71492,42.25259],[21.72396,42.25809],[21.72391,42.26486],[21.73453,42.26071],[21.75156,42.26067],[21.75683,42.25715],[21.7651,42.25965],[21.77097,42.26811],[21.77586,42.26648],[21.7782,42.26906],[21.79502,42.29835],[21.80396,42.29354],[21.81519,42.29375],[21.83583,42.31152],[21.83433,42.3216],[21.84395,42.32567],[21.85696,42.32328],[21.86664,42.31658],[21.86922,42.30933],[21.88199,42.31348],[21.88542,42.31202],[21.89314,42.30004],[21.92458,42.307],[21.92943,42.31279],[21.933,42.33756],[21.94632,42.34432],[21.98046,42.32546],[21.99331,42.32278],[22.02621,42.2997],[22.03192,42.29844],[22.04124,42.30607],[22.05129,42.3076],[22.06631,42.29862],[22.09809,42.30673],[22.10082,42.30512],[22.11787,42.31477],[22.13276,42.30729],[22.14566,42.32146],[22.16664,42.31252],[22.17369,42.3215],[22.17861,42.32298],[22.18173,42.33277],[22.19438,42.33991],[22.20201,42.34044],[22.20618,42.33651],[22.21888,42.33884],[22.22176,42.3352],[22.23025,42.33606],[22.24213,42.34671],[22.2367,42.35007],[22.24939,42.34954],[22.25331,42.3533],[22.25173,42.36047],[22.25971,42.36589],[22.27478,42.361],[22.2813,42.36915],[22.29412,42.37354],[22.29917,42.36551],[22.29167,42.35053],[22.31631,42.33179],[22.3227,42.33395],[22.33276,42.3214],[22.35271,42.31683],[22.35649,42.31175],[22.36736,42.30862],[22.3785,42.30883],[22.38934,42.29466],[22.4019,42.28988],[22.39933,42.28511],[22.41522,42.26697],[22.42396,42.26423],[22.42485,42.25622],[22.43364,42.25796],[22.43977,42.25246],[22.43919,42.24838],[22.45001,42.24254],[22.4483,42.23712],[22.47065,42.20172],[22.4861,42.20129],[22.50394,42.19341],[22.50108,42.187],[22.50561,42.17001],[22.51594,42.15814],[22.51136,42.15585],[22.51264,42.15274],[22.52395,42.1471],[22.52918,42.13903],[22.5472,42.13487],[22.57686,42.11204],[22.59015,42.10987],[22.59977,42.09807],[22.63059,42.09373],[22.65096,42.07649],[22.68012,42.06348],[22.69834,42.06355],[22.71698,42.0684],[22.71796,42.06436],[22.72795,42.0584],[22.73131,42.05058],[22.74217,42.04456],[22.75021,42.04696],[22.77916,42.03685],[22.79245,42.038],[22.79915,42.04575],[22.80458,42.04312],[22.80498,42.0388],[22.81467,42.02869],[22.82726,42.02165],[22.85221,42.0254],[22.86658,42.02242],[22.87025,42.01044],[22.86391,42.0017],[22.87562,41.99589],[22.87442,41.97816],[22.87829,41.97606],[22.87386,41.95541],[22.87743,41.94056],[22.87372,41.93586],[22.88463,41.92087],[22.89091,41.91999],[22.89372,41.9102],[22.89934,41.90417],[22.89686,41.89802],[22.90123,41.89267],[22.90159,41.87755]]]]}}]}