{"type":"FeatureCollection","features":[{"type":"Feature","properties":{"ISO_A3":"MLI","WB_A3":"MLI","WB_NAME":"Mali","WB_REGION":"AFW,SSF"},"geometry":{"type":"MultiPolygon","coordinates":[[[[-5.49243,10.97376],[-5.47944,10.97452],[-5.45918,10.98399],[-5.45318,10.97805],[-5.45119,10.97406],[-5.45624,10.95926],[-5.45542,10.94729],[-5.44513,10.92138],[-5.44619,10.90664],[-5.4517,10.90085],[-5.4163,10.87775],[-5.41378,10.86838],[-5.40272,10.85435],[-5.41124,10.83711],[-5.41046,10.82761],[-5.41421,10.82647],[-5.42807,10.79545],[-5.43222,10.77519],[-5.44581,10.76574],[-5.46811,10.76515],[-5.46614,10.75863],[-5.45909,10.75824],[-5.45584,10.75176],[-5.46291,10.72946],[-5.4601,10.71212],[-5.46517,10.69823],[-5.46192,10.64376],[-5.46324,10.63681],[-5.4723,10.62595],[-5.47844,10.62406],[-5.47842,10.62107],[-5.47399,10.6188],[-5.47313,10.60769],[-5.46713,10.60877],[-5.4601,10.60256],[-5.46031,10.59113],[-5.46709,10.58812],[-5.46751,10.58425],[-5.46363,10.57954],[-5.45766,10.55547],[-5.47072,10.54687],[-5.47221,10.53578],[-5.47959,10.52343],[-5.47707,10.52113],[-5.4789,10.51203],[-5.48572,10.50831],[-5.49059,10.49447],[-5.48859,10.48842],[-5.49325,10.48912],[-5.49361,10.48037],[-5.50019,10.47661],[-5.49772,10.47254],[-5.50384,10.4689],[-5.50293,10.46294],[-5.50807,10.46057],[-5.50396,10.44931],[-5.511,10.43937],[-5.51178,10.43218],[-5.51791,10.43171],[-5.54261,10.45052],[-5.54745,10.45097],[-5.55088,10.45785],[-5.56007,10.46343],[-5.57479,10.45513],[-5.59472,10.45337],[-5.59906,10.45607],[-5.61632,10.4507],[-5.63484,10.45915],[-5.6478,10.45573],[-5.66284,10.46428],[-5.66933,10.46176],[-5.67496,10.4501],[-5.70711,10.43066],[-5.7527,10.42942],[-5.76601,10.43972],[-5.7845,10.43485],[-5.80754,10.41879],[-5.81864,10.40571],[-5.82381,10.39251],[-5.83636,10.38659],[-5.84264,10.3783],[-5.85317,10.37426],[-5.86671,10.37801],[-5.87178,10.36795],[-5.86983,10.35962],[-5.87358,10.35572],[-5.87208,10.34169],[-5.87579,10.33344],[-5.87285,10.31552],[-5.88732,10.3068],[-5.89184,10.299],[-5.88057,10.28063],[-5.88757,10.26346],[-5.90212,10.26157],[-5.92488,10.27694],[-5.95651,10.27234],[-5.95461,10.26102],[-5.95877,10.2373],[-5.98437,10.20683],[-5.98437,10.19651],[-6.03337,10.19368],[-6.05513,10.2041],[-6.06561,10.20196],[-6.09678,10.20708],[-6.10612,10.20332],[-6.13057,10.20504],[-6.15885,10.21981],[-6.16885,10.22041],[-6.17821,10.22486],[-6.18427,10.23225],[-6.1898,10.233],[-6.19599,10.23999],[-6.18854,10.2551],[-6.19171,10.25934],[-6.20359,10.25815],[-6.21793,10.2638],[-6.21549,10.2686],[-6.21621,10.28635],[-6.23307,10.3015],[-6.21744,10.31315],[-6.20651,10.31647],[-6.19602,10.31272],[-6.19156,10.30195],[-6.18603,10.30593],[-6.18325,10.31771],[-6.17789,10.32273],[-6.19075,10.33283],[-6.19241,10.33994],[-6.18435,10.35158],[-6.17653,10.3552],[-6.17079,10.36306],[-6.15977,10.36548],[-6.18034,10.37697],[-6.18753,10.3875],[-6.18126,10.39747],[-6.18003,10.4127],[-6.1714,10.41421],[-6.1615,10.4086],[-6.15548,10.41992],[-6.16014,10.42868],[-6.17805,10.43783],[-6.18522,10.44786],[-6.18487,10.47027],[-6.17031,10.48282],[-6.16165,10.48444],[-6.16175,10.49014],[-6.17276,10.49906],[-6.18088,10.501],[-6.19331,10.49762],[-6.2009,10.50159],[-6.20361,10.50507],[-6.20068,10.51453],[-6.21502,10.52727],[-6.21941,10.52791],[-6.23267,10.51672],[-6.24418,10.52104],[-6.24786,10.53023],[-6.24196,10.54482],[-6.23607,10.55031],[-6.22151,10.55458],[-6.20634,10.577],[-6.20585,10.58797],[-6.21335,10.58506],[-6.20568,10.60223],[-6.22022,10.60079],[-6.22285,10.61635],[-6.21625,10.62444],[-6.1931,10.62628],[-6.18321,10.63407],[-6.18511,10.64109],[-6.1955,10.64012],[-6.21133,10.65042],[-6.21442,10.65852],[-6.23095,10.6591],[-6.23299,10.66841],[-6.23036,10.67749],[-6.22446,10.68399],[-6.22862,10.70304],[-6.21602,10.71536],[-6.21138,10.72664],[-6.2219,10.72862],[-6.24683,10.74081],[-6.31823,10.68313],[-6.33643,10.68887],[-6.34297,10.68778],[-6.39241,10.70814],[-6.41609,10.6986],[-6.41052,10.64893],[-6.39592,10.60305],[-6.39768,10.59753],[-6.41921,10.57685],[-6.42719,10.56132],[-6.44736,10.57235],[-6.47512,10.57731],[-6.50602,10.5776],[-6.51029,10.58163],[-6.53921,10.59129],[-6.54555,10.60565],[-6.56638,10.62093],[-6.58878,10.62209],[-6.59623,10.62768],[-6.60031,10.6357],[-6.60601,10.63845],[-6.6072,10.6561],[-6.6159,10.67115],[-6.64201,10.67236],[-6.63934,10.66631],[-6.65041,10.65831],[-6.65482,10.64506],[-6.65493,10.6406],[-6.64407,10.64045],[-6.64399,10.63431],[-6.65418,10.63351],[-6.66792,10.62694],[-6.66975,10.6211],[-6.66631,10.61503],[-6.67226,10.61116],[-6.6758,10.59921],[-6.66163,10.58978],[-6.66935,10.56923],[-6.66492,10.5571],[-6.66852,10.55307],[-6.6678,10.5463],[-6.65943,10.53536],[-6.66905,10.53226],[-6.67657,10.53668],[-6.68236,10.52704],[-6.68082,10.51843],[-6.67262,10.50742],[-6.68032,10.49932],[-6.67812,10.49389],[-6.68147,10.48792],[-6.66996,10.48428],[-6.6759,10.46683],[-6.66823,10.46745],[-6.65799,10.4546],[-6.64045,10.45347],[-6.63874,10.4512],[-6.64272,10.44258],[-6.62771,10.44067],[-6.62619,10.43642],[-6.62955,10.42302],[-6.63979,10.40607],[-6.65462,10.39829],[-6.64313,10.38562],[-6.65026,10.38572],[-6.64817,10.37093],[-6.6437,10.36407],[-6.65992,10.35986],[-6.6816,10.33748],[-6.71428,10.34275],[-6.73257,10.35857],[-6.73699,10.35726],[-6.78984,10.36976],[-6.79718,10.38234],[-6.80742,10.38546],[-6.81861,10.3766],[-6.82373,10.36432],[-6.83586,10.3604],[-6.83652,10.35526],[-6.84187,10.35656],[-6.85012,10.35267],[-6.85479,10.34514],[-6.85844,10.34838],[-6.86024,10.34702],[-6.85771,10.34464],[-6.86065,10.34337],[-6.87455,10.3438],[-6.87936,10.3503],[-6.89204,10.34996],[-6.90111,10.34425],[-6.91588,10.35559],[-6.9241,10.35164],[-6.93549,10.35697],[-6.9413,10.34884],[-6.94636,10.34952],[-6.94766,10.33858],[-6.95235,10.33129],[-6.96266,10.32609],[-6.96091,10.31806],[-6.96362,10.31288],[-6.97186,10.30504],[-6.97637,10.30822],[-6.98274,10.30465],[-6.98668,10.28716],[-6.99739,10.27815],[-7.0012,10.27825],[-7.00179,10.27232],[-7.01252,10.26271],[-7.01175,10.24897],[-7.01587,10.245],[-7.01368,10.23995],[-6.97941,10.21769],[-6.98584,10.18604],[-6.99516,10.16885],[-7.00788,10.1603],[-7.00928,10.15599],[-7.01386,10.15676],[-7.0158,10.14904],[-7.02088,10.1448],[-7.02908,10.14186],[-7.03298,10.14609],[-7.05643,10.15327],[-7.06364,10.15013],[-7.07065,10.16006],[-7.08032,10.16081],[-7.08639,10.16505],[-7.07589,10.19586],[-7.08019,10.19946],[-7.08096,10.20676],[-7.1099,10.21357],[-7.1224,10.22333],[-7.1357,10.24263],[-7.15007,10.25066],[-7.26853,10.25809],[-7.27379,10.26446],[-7.27892,10.26504],[-7.28736,10.25747],[-7.29896,10.25655],[-7.30382,10.2519],[-7.31518,10.25186],[-7.32622,10.23893],[-7.33991,10.23576],[-7.34593,10.2391],[-7.34566,10.24255],[-7.35099,10.24056],[-7.35402,10.24383],[-7.36128,10.24106],[-7.36633,10.24395],[-7.36809,10.25007],[-7.3719,10.24454],[-7.37719,10.24518],[-7.38259,10.25765],[-7.38792,10.25786],[-7.3834,10.26567],[-7.37358,10.2668],[-7.36361,10.27341],[-7.35856,10.28987],[-7.35982,10.33365],[-7.37127,10.34762],[-7.38645,10.34795],[-7.3911,10.35122],[-7.40407,10.34586],[-7.41618,10.34512],[-7.42413,10.33567],[-7.42628,10.34254],[-7.43539,10.34204],[-7.43494,10.34509],[-7.42897,10.3443],[-7.4285,10.34988],[-7.42425,10.34966],[-7.42362,10.35225],[-7.42831,10.35483],[-7.42681,10.35868],[-7.43533,10.36409],[-7.43389,10.37164],[-7.44045,10.37349],[-7.44294,10.38797],[-7.44727,10.38786],[-7.44956,10.39302],[-7.44634,10.39648],[-7.45346,10.40533],[-7.44937,10.40472],[-7.44733,10.40823],[-7.45317,10.41229],[-7.43969,10.42085],[-7.44029,10.42558],[-7.44756,10.43115],[-7.44489,10.4342],[-7.44922,10.43752],[-7.44665,10.44206],[-7.45363,10.44555],[-7.45513,10.44311],[-7.4586,10.4466],[-7.45711,10.44992],[-7.513,10.46006],[-7.52944,10.45507],[-7.52998,10.45023],[-7.5252,10.44549],[-7.54223,10.43087],[-7.53982,10.41632],[-7.55132,10.40594],[-7.55475,10.40799],[-7.5561,10.41761],[-7.56207,10.42225],[-7.58457,10.42415],[-7.59597,10.41896],[-7.60862,10.44746],[-7.62307,10.46143],[-7.6274,10.46086],[-7.63906,10.44577],[-7.66209,10.43008],[-7.66994,10.41671],[-7.67444,10.41956],[-7.68597,10.40259],[-7.70166,10.39842],[-7.70732,10.4014],[-7.71468,10.4006],[-7.7182,10.39581],[-7.71821,10.38695],[-7.73212,10.3749],[-7.73932,10.37335],[-7.73679,10.37054],[-7.72347,10.37226],[-7.71838,10.36486],[-7.72122,10.34968],[-7.72301,10.34624],[-7.73058,10.34407],[-7.74104,10.34736],[-7.75325,10.34458],[-7.75031,10.32335],[-7.76998,10.31688],[-7.77269,10.31141],[-7.76518,10.30717],[-7.75758,10.31237],[-7.74904,10.30494],[-7.76,10.30212],[-7.76138,10.29821],[-7.75839,10.29301],[-7.76559,10.29361],[-7.76497,10.28688],[-7.76901,10.2827],[-7.78391,10.27774],[-7.7872,10.27988],[-7.78776,10.27386],[-7.79307,10.26915],[-7.789,10.26612],[-7.79417,10.26685],[-7.79364,10.26334],[-7.8004,10.25941],[-7.79816,10.24846],[-7.803,10.24803],[-7.8075,10.24249],[-7.80459,10.24056],[-7.80671,10.23633],[-7.81143,10.23811],[-7.81002,10.24203],[-7.81481,10.24191],[-7.81411,10.23607],[-7.82089,10.2339],[-7.82211,10.22919],[-7.83083,10.22904],[-7.83034,10.22468],[-7.83558,10.21884],[-7.83468,10.2134],[-7.83692,10.21169],[-7.83871,10.21491],[-7.84673,10.2082],[-7.85312,10.21091],[-7.85363,10.20703],[-7.84981,10.20541],[-7.85507,10.20295],[-7.85513,10.19915],[-7.87317,10.20165],[-7.87436,10.20427],[-7.89404,10.1988],[-7.90272,10.18936],[-7.90706,10.17117],[-7.92032,10.1685],[-7.91903,10.16278],[-7.92244,10.15872],[-7.92685,10.15953],[-7.93927,10.15186],[-7.97301,10.16126],[-7.97966,10.16927],[-7.97658,10.18716],[-7.96352,10.19501],[-7.96102,10.19988],[-7.95641,10.21463],[-7.95694,10.22766],[-7.94614,10.24083],[-7.94509,10.25254],[-7.95509,10.26782],[-7.95509,10.27295],[-7.96536,10.28375],[-7.98524,10.34339],[-7.99749,10.35116],[-8.00249,10.35116],[-8.00835,10.34721],[-8.02593,10.34662],[-8.03027,10.34089],[-8.04963,10.33128],[-8.07122,10.34115],[-8.08878,10.36135],[-8.09102,10.37076],[-8.10451,10.38806],[-8.10578,10.40483],[-8.10127,10.41544],[-8.1035,10.41867],[-8.10067,10.43004],[-8.10617,10.43568],[-8.10304,10.44037],[-8.09983,10.43918],[-8.09916,10.44773],[-8.10902,10.44907],[-8.11047,10.45182],[-8.11414,10.45175],[-8.11819,10.44425],[-8.1327,10.44205],[-8.13846,10.43688],[-8.13863,10.43284],[-8.14974,10.42757],[-8.16467,10.42734],[-8.17158,10.41788],[-8.18184,10.41766],[-8.18446,10.41325],[-8.21334,10.41727],[-8.21412,10.42026],[-8.22044,10.42129],[-8.22887,10.41755],[-8.23145,10.42067],[-8.235,10.47057],[-8.24448,10.49151],[-8.24593,10.51336],[-8.25857,10.53021],[-8.26305,10.54773],[-8.27223,10.55323],[-8.26979,10.5751],[-8.2867,10.59491],[-8.29425,10.5852],[-8.3005,10.58882],[-8.32469,10.58841],[-8.32835,10.63041],[-8.31979,10.64765],[-8.32282,10.66938],[-8.31992,10.67399],[-8.29899,10.67636],[-8.29965,10.6882],[-8.28859,10.69874],[-8.28885,10.7044],[-8.30031,10.71151],[-8.30228,10.72375],[-8.29148,10.74166],[-8.28911,10.75219],[-8.29043,10.75996],[-8.30109,10.77023],[-8.32927,10.77141],[-8.33124,10.78813],[-8.30346,10.81789],[-8.30096,10.8325],[-8.30873,10.84475],[-8.30597,10.85647],[-8.25686,10.89517],[-8.25883,10.90557],[-8.27713,10.9406],[-8.27858,10.99392],[-8.28873,11.01866],[-8.30913,11.02523],[-8.32448,11.03832],[-8.34268,11.0623],[-8.36508,11.0724],[-8.39706,11.06288],[-8.4233,11.06404],[-8.43981,11.07066],[-8.45311,11.06837],[-8.4812,11.07123],[-8.48534,11.06309],[-8.48229,11.0578],[-8.48897,11.04252],[-8.48757,11.03998],[-8.49085,11.0398],[-8.50214,11.02471],[-8.50117,11.00956],[-8.5135,10.9983],[-8.54546,10.98663],[-8.56587,10.96843],[-8.57218,10.96717],[-8.5797,10.96049],[-8.58706,10.96133],[-8.59348,10.97133],[-8.60348,10.95807],[-8.61793,10.96848],[-8.6467,10.95438],[-8.66191,10.95175],[-8.66826,10.95511],[-8.67265,10.96292],[-8.67441,10.97352],[-8.67151,10.98818],[-8.67612,11.00069],[-8.65697,11.02529],[-8.63342,11.0408],[-8.62488,11.07398],[-8.6009,11.09684],[-8.59926,11.10258],[-8.60613,11.11859],[-8.60205,11.13275],[-8.59315,11.13792],[-8.57087,11.13441],[-8.55942,11.13715],[-8.54996,11.15934],[-8.55686,11.19085],[-8.55053,11.21284],[-8.54139,11.2173],[-8.5167,11.21597],[-8.50252,11.22496],[-8.48327,11.2226],[-8.47351,11.22779],[-8.47087,11.23774],[-8.48395,11.2691],[-8.47539,11.28829],[-8.46629,11.29312],[-8.44992,11.29487],[-8.4179,11.27968],[-8.39836,11.27609],[-8.37897,11.27761],[-8.3671,11.28234],[-8.35626,11.3045],[-8.35289,11.32646],[-8.39769,11.33088],[-8.40377,11.33486],[-8.40681,11.34342],[-8.40464,11.35246],[-8.38768,11.36741],[-8.35078,11.37289],[-8.37203,11.38872],[-8.39248,11.38977],[-8.4131,11.4016],[-8.43061,11.40329],[-8.43576,11.40055],[-8.44944,11.41507],[-8.46137,11.41259],[-8.47221,11.41701],[-8.47121,11.42648],[-8.47368,11.42853],[-8.47583,11.42748],[-8.47384,11.42117],[-8.47852,11.41454],[-8.50036,11.41738],[-8.5077,11.44025],[-8.51398,11.44735],[-8.5118,11.45399],[-8.51704,11.46248],[-8.51725,11.47499],[-8.52504,11.48736],[-8.53055,11.49055],[-8.52942,11.49354],[-8.53322,11.49161],[-8.53629,11.47965],[-8.54306,11.47791],[-8.54545,11.48094],[-8.55262,11.474],[-8.55898,11.47786],[-8.5636,11.46407],[-8.56844,11.46322],[-8.59484,11.47415],[-8.61633,11.47638],[-8.61848,11.48807],[-8.62537,11.49639],[-8.63522,11.50143],[-8.64406,11.5144],[-8.65584,11.52182],[-8.6505,11.52755],[-8.65589,11.53812],[-8.64142,11.54791],[-8.64182,11.55051],[-8.65742,11.56389],[-8.6553,11.57316],[-8.65922,11.58237],[-8.67991,11.59514],[-8.68017,11.60139],[-8.6919,11.62314],[-8.68977,11.63523],[-8.69544,11.63825],[-8.69452,11.64148],[-8.70016,11.64682],[-8.72749,11.62471],[-8.73757,11.62099],[-8.74689,11.61041],[-8.75085,11.61504],[-8.7493,11.6232],[-8.75211,11.62736],[-8.7582,11.62711],[-8.76084,11.63395],[-8.77349,11.62603],[-8.77711,11.62973],[-8.78994,11.63014],[-8.7976,11.63645],[-8.79584,11.63928],[-8.81398,11.64439],[-8.81636,11.65102],[-8.82741,11.64928],[-8.83462,11.65448],[-8.84891,11.65474],[-8.81976,11.78113],[-8.82968,11.80114],[-8.78847,11.86759],[-8.79257,11.87648],[-8.79289,11.89236],[-8.78157,11.93382],[-8.78252,11.94472],[-8.78688,11.95165],[-8.78227,11.96054],[-8.78408,11.96289],[-8.77969,11.96962],[-8.77419,11.97129],[-8.77334,11.97636],[-8.78062,11.98341],[-8.78096,11.98782],[-8.79096,11.98988],[-8.79471,11.99673],[-8.79201,11.9978],[-8.79312,12.00194],[-8.80307,12.00492],[-8.80021,12.01381],[-8.80682,12.01647],[-8.80564,12.01957],[-8.81015,12.02047],[-8.81026,12.02381],[-8.81428,12.02262],[-8.82372,12.03109],[-8.82825,12.04498],[-8.83938,12.03705],[-8.84294,12.0419],[-8.83977,12.04433],[-8.84711,12.04428],[-8.84886,12.04722],[-8.852,12.03986],[-8.86292,12.03528],[-8.86259,12.03064],[-8.86737,12.02594],[-8.86644,12.03267],[-8.87187,12.03283],[-8.88126,12.04402],[-8.88272,12.04013],[-8.88639,12.04447],[-8.89585,12.04384],[-8.8986,12.04794],[-8.90722,12.04413],[-8.90988,12.04962],[-8.90708,12.06089],[-8.91242,12.06143],[-8.90884,12.06695],[-8.91089,12.07854],[-8.90806,12.08458],[-8.91125,12.09469],[-8.89695,12.10241],[-8.89174,12.12029],[-8.89676,12.12741],[-8.89252,12.13082],[-8.89473,12.13851],[-8.89088,12.13943],[-8.88369,12.1512],[-8.88721,12.15932],[-8.89167,12.15799],[-8.89097,12.16201],[-8.89661,12.16636],[-8.89214,12.17535],[-8.90071,12.17668],[-8.90534,12.18191],[-8.9022,12.19157],[-8.91505,12.19224],[-8.91798,12.19698],[-8.91452,12.20061],[-8.91808,12.20432],[-8.92578,12.19772],[-8.93018,12.19911],[-8.92857,12.19165],[-8.94173,12.18942],[-8.9477,12.1942],[-8.951,12.18842],[-8.95269,12.1912],[-8.96199,12.19207],[-8.96651,12.1864],[-8.97093,12.19309],[-8.96599,12.20141],[-8.97516,12.20403],[-8.97052,12.21291],[-8.97805,12.21372],[-8.97902,12.224],[-8.98598,12.22401],[-8.98696,12.21877],[-8.99215,12.21866],[-8.99229,12.23378],[-8.9885,12.23469],[-8.98221,12.2636],[-8.96784,12.27426],[-8.96104,12.28362],[-8.9563,12.29792],[-8.94389,12.31256],[-8.93423,12.31737],[-8.93279,12.32276],[-8.95406,12.35661],[-8.96536,12.3591],[-8.99446,12.3869],[-9.00719,12.39106],[-9.00264,12.40514],[-9.01458,12.42043],[-9.08929,12.44286],[-9.09524,12.45202],[-9.10616,12.45436],[-9.11101,12.46218],[-9.12634,12.46563],[-9.1351,12.47978],[-9.14676,12.48104],[-9.15745,12.48956],[-9.19679,12.49202],[-9.20192,12.49559],[-9.20587,12.4923],[-9.21693,12.49554],[-9.21734,12.49872],[-9.22682,12.50107],[-9.23386,12.49886],[-9.23612,12.5027],[-9.245,12.50221],[-9.25013,12.50596],[-9.27013,12.50146],[-9.27231,12.49338],[-9.27691,12.4927],[-9.28376,12.48567],[-9.2938,12.48837],[-9.29939,12.4992],[-9.31458,12.50626],[-9.31922,12.49997],[-9.32266,12.48451],[-9.33487,12.47925],[-9.33804,12.48076],[-9.33741,12.49603],[-9.35896,12.50035],[-9.36673,12.49473],[-9.36745,12.47893],[-9.38581,12.47725],[-9.39535,12.46978],[-9.40315,12.46782],[-9.40701,12.46177],[-9.39904,12.44873],[-9.39405,12.45436],[-9.38111,12.45263],[-9.37932,12.43025],[-9.36997,12.4211],[-9.35543,12.42222],[-9.35492,12.40994],[-9.34408,12.4073],[-9.33909,12.39777],[-9.34132,12.38837],[-9.33931,12.3819],[-9.32999,12.37888],[-9.32479,12.37185],[-9.30182,12.36704],[-9.29774,12.36223],[-9.30147,12.35678],[-9.31053,12.35389],[-9.31155,12.34531],[-9.30376,12.34294],[-9.31105,12.32359],[-9.32143,12.32296],[-9.32358,12.31602],[-9.32079,12.30165],[-9.32385,12.29878],[-9.32392,12.28901],[-9.3185,12.28091],[-9.33163,12.26733],[-9.33572,12.26705],[-9.34055,12.27258],[-9.3425,12.26286],[-9.348,12.25775],[-9.3415,12.24789],[-9.35947,12.25091],[-9.36001,12.25388],[-9.37372,12.25034],[-9.39277,12.26291],[-9.3934,12.25866],[-9.40383,12.25626],[-9.40516,12.26296],[-9.42092,12.26524],[-9.435,12.26052],[-9.43626,12.25576],[-9.44319,12.25571],[-9.44345,12.25905],[-9.45376,12.25948],[-9.45512,12.2568],[-9.46077,12.26044],[-9.47356,12.25991],[-9.47593,12.25615],[-9.48442,12.25705],[-9.48646,12.25136],[-9.49458,12.24563],[-9.49569,12.23718],[-9.49273,12.23438],[-9.50294,12.22401],[-9.51409,12.22286],[-9.52852,12.21148],[-9.53367,12.19765],[-9.5365,12.19911],[-9.53865,12.19539],[-9.54447,12.19521],[-9.54775,12.19748],[-9.55872,12.19277],[-9.57561,12.19792],[-9.57981,12.19238],[-9.59901,12.18827],[-9.60577,12.18186],[-9.6171,12.18055],[-9.61714,12.1774],[-9.62575,12.17866],[-9.63503,12.17545],[-9.63987,12.16696],[-9.6488,12.16666],[-9.65789,12.15631],[-9.66067,12.14734],[-9.66967,12.14354],[-9.67092,12.13694],[-9.68296,12.1188],[-9.67865,12.10922],[-9.68115,12.10286],[-9.67473,12.08509],[-9.68075,12.07212],[-9.69355,12.06682],[-9.69518,12.05204],[-9.68875,12.03461],[-9.7153,12.02818],[-9.7298,12.03185],[-9.74192,12.02985],[-9.77043,12.03972],[-9.78124,12.03935],[-9.7886,12.04484],[-9.79068,12.05419],[-9.80034,12.05556],[-9.81664,12.06653],[-9.82036,12.06623],[-9.82836,12.05749],[-9.84842,12.06228],[-9.8633,12.0618],[-9.8715,12.05748],[-9.87744,12.06318],[-9.88645,12.06467],[-9.89137,12.06893],[-9.89132,12.07323],[-9.89661,12.07314],[-9.90112,12.07741],[-9.90291,12.08288],[-9.90914,12.08607],[-9.90566,12.09187],[-9.9114,12.09491],[-9.91207,12.10247],[-9.91546,12.10411],[-9.92962,12.10107],[-9.93441,12.10287],[-9.93845,12.09955],[-9.95331,12.10958],[-9.96777,12.10325],[-9.97174,12.10729],[-9.97768,12.1065],[-9.97683,12.11143],[-9.98136,12.1141],[-9.98131,12.1189],[-9.98768,12.1169],[-9.99121,12.12489],[-9.99529,12.12284],[-9.99594,12.12954],[-10.00936,12.13642],[-10.01041,12.13219],[-10.02155,12.13019],[-10.0352,12.13765],[-10.04134,12.14684],[-10.04393,12.14793],[-10.04518,12.14335],[-10.05304,12.14407],[-10.06034,12.15453],[-10.0635,12.15266],[-10.06221,12.13962],[-10.0649,12.13768],[-10.06909,12.149],[-10.07463,12.14816],[-10.07461,12.1456],[-10.07862,12.1465],[-10.08065,12.15134],[-10.09344,12.1513],[-10.09087,12.1696],[-10.08205,12.17533],[-10.09066,12.18757],[-10.09441,12.17916],[-10.10302,12.17669],[-10.10945,12.17859],[-10.11306,12.17619],[-10.13201,12.18321],[-10.13619,12.17571],[-10.14842,12.17644],[-10.16803,12.18997],[-10.17707,12.18669],[-10.18702,12.19183],[-10.19228,12.20524],[-10.21035,12.20298],[-10.22317,12.20898],[-10.24191,12.20014],[-10.24737,12.20514],[-10.24379,12.21069],[-10.24954,12.21798],[-10.25734,12.21637],[-10.26441,12.20727],[-10.2673,12.21301],[-10.28556,12.21365],[-10.28788,12.21009],[-10.28478,12.19731],[-10.29812,12.19222],[-10.29876,12.20382],[-10.30719,12.22142],[-10.31925,12.22735],[-10.32059,12.21863],[-10.32345,12.21765],[-10.33966,12.22671],[-10.34153,12.21652],[-10.33029,12.20008],[-10.33137,12.19489],[-10.33732,12.19215],[-10.35699,12.19841],[-10.36463,12.19351],[-10.35862,12.17794],[-10.37672,12.1684],[-10.39578,12.18222],[-10.41264,12.17627],[-10.41501,12.16378],[-10.4088,12.15053],[-10.40993,12.14508],[-10.43181,12.13954],[-10.44743,12.12186],[-10.47089,12.11919],[-10.47473,12.12313],[-10.513,12.12585],[-10.51797,12.11865],[-10.51741,12.10153],[-10.50704,12.09569],[-10.51108,12.08216],[-10.51953,12.08543],[-10.5211,12.07933],[-10.51893,12.0482],[-10.5302,12.03348],[-10.53351,12.03647],[-10.55935,12.02831],[-10.57135,12.02896],[-10.58276,12.02307],[-10.57492,12.00809],[-10.56614,12.00077],[-10.56577,11.99218],[-10.57441,11.98654],[-10.58447,11.98608],[-10.59358,11.97475],[-10.59651,11.97831],[-10.60369,11.97884],[-10.60962,11.97416],[-10.62205,11.94078],[-10.63294,11.93153],[-10.63051,11.91792],[-10.63314,11.90705],[-10.65296,11.90241],[-10.65787,11.89859],[-10.66917,11.90136],[-10.67978,11.8985],[-10.68862,11.90685],[-10.69555,11.90387],[-10.7031,11.90645],[-10.70706,11.91234],[-10.7183,11.91667],[-10.72395,11.9238],[-10.74441,11.93619],[-10.76185,11.94281],[-10.77033,11.94007],[-10.77361,11.9425],[-10.77177,11.95192],[-10.76451,11.96258],[-10.76499,11.97163],[-10.77051,11.98961],[-10.7794,12.00181],[-10.77742,12.01121],[-10.79989,12.04026],[-10.8005,12.04486],[-10.79248,12.0483],[-10.79222,12.06536],[-10.78387,12.06789],[-10.78962,12.08698],[-10.78679,12.09112],[-10.79061,12.09688],[-10.78807,12.09926],[-10.79245,12.10536],[-10.79075,12.11383],[-10.81532,12.12126],[-10.82265,12.11831],[-10.85127,12.1384],[-10.86031,12.1412],[-10.86712,12.15294],[-10.8823,12.16798],[-10.88061,12.17486],[-10.89216,12.19163],[-10.89335,12.20091],[-10.90526,12.20841],[-10.90839,12.20726],[-10.9135,12.21446],[-10.91209,12.22029],[-10.91792,12.21976],[-10.92187,12.22602],[-10.92798,12.22629],[-10.93142,12.23012],[-10.93614,12.23112],[-10.93908,12.22546],[-10.94435,12.22313],[-10.94697,12.22756],[-10.9631,12.22432],[-10.97424,12.22886],[-10.98426,12.22299],[-10.98443,12.21711],[-10.99746,12.21412],[-11.02477,12.21695],[-11.02965,12.21252],[-11.03763,12.22438],[-11.04415,12.22173],[-11.04524,12.20679],[-11.05298,12.20272],[-11.04721,12.19511],[-11.0588,12.18544],[-11.05148,12.16679],[-11.05473,12.16488],[-11.05926,12.17067],[-11.0614,12.16189],[-11.06741,12.15752],[-11.06479,12.13886],[-11.07063,12.13854],[-11.07171,12.13344],[-11.08169,12.13591],[-11.08242,12.13062],[-11.09356,12.13167],[-11.10353,12.12633],[-11.10167,12.12217],[-11.10781,12.11391],[-11.10378,12.10753],[-11.10421,12.10194],[-11.10981,12.09824],[-11.11859,12.1029],[-11.13776,12.10179],[-11.14277,12.0922],[-11.14069,12.08829],[-11.1435,12.08185],[-11.14132,12.07111],[-11.13562,12.06484],[-11.14423,12.04817],[-11.15049,12.04258],[-11.15734,12.04367],[-11.16129,12.03373],[-11.17111,12.03044],[-11.17322,12.0226],[-11.18545,12.01346],[-11.19314,12.01808],[-11.19613,12.0142],[-11.20324,12.02046],[-11.2121,12.01742],[-11.21713,12.00772],[-11.22674,12.00532],[-11.23123,11.99401],[-11.23355,11.99915],[-11.23858,11.99862],[-11.255,12.00804],[-11.27293,12.00759],[-11.2899,12.01858],[-11.29203,12.02298],[-11.3055,12.02148],[-11.31381,12.03344],[-11.3317,12.04826],[-11.34898,12.05253],[-11.35758,12.06449],[-11.35658,12.08663],[-11.36755,12.10823],[-11.3939,12.11486],[-11.40389,12.11284],[-11.42315,12.12551],[-11.42551,12.123],[-11.43246,12.12858],[-11.43655,12.12707],[-11.45431,12.1337],[-11.46549,12.14349],[-11.47177,12.16084],[-11.47917,12.16174],[-11.48229,12.16897],[-11.48699,12.16735],[-11.48395,12.17552],[-11.49267,12.17907],[-11.49154,12.18288],[-11.49654,12.18527],[-11.49259,12.18832],[-11.48866,12.20481],[-11.49517,12.21282],[-11.48535,12.22358],[-11.48721,12.23018],[-11.48321,12.23043],[-11.47932,12.23787],[-11.47194,12.23993],[-11.46664,12.24566],[-11.45842,12.24389],[-11.45774,12.25199],[-11.44976,12.25143],[-11.44622,12.25524],[-11.44697,12.27085],[-11.45071,12.27367],[-11.44911,12.27736],[-11.44297,12.28151],[-11.43142,12.28235],[-11.42687,12.30382],[-11.43338,12.30793],[-11.42967,12.32687],[-11.43129,12.33474],[-11.43557,12.34492],[-11.44899,12.35418],[-11.44137,12.36348],[-11.43479,12.36299],[-11.43617,12.38271],[-11.43023,12.39202],[-11.42037,12.38887],[-11.41165,12.39901],[-11.40928,12.39839],[-11.40489,12.3936],[-11.41055,12.38437],[-11.40766,12.38203],[-11.39909,12.3881],[-11.39334,12.38605],[-11.3826,12.39156],[-11.36892,12.39175],[-11.36486,12.39691],[-11.36888,12.40312],[-11.36578,12.40598],[-11.37681,12.41265],[-11.37311,12.4207],[-11.36746,12.42145],[-11.36375,12.43275],[-11.37241,12.44372],[-11.37488,12.45421],[-11.36235,12.45795],[-11.35526,12.46623],[-11.35256,12.46451],[-11.35095,12.47357],[-11.35971,12.48296],[-11.35348,12.48669],[-11.35969,12.50869],[-11.36586,12.50971],[-11.36829,12.50709],[-11.37251,12.4948],[-11.36828,12.48779],[-11.37257,12.48375],[-11.38271,12.49208],[-11.3783,12.51122],[-11.37925,12.52083],[-11.39297,12.52647],[-11.38682,12.53855],[-11.39785,12.53755],[-11.40264,12.54237],[-11.40706,12.5416],[-11.41076,12.53496],[-11.4105,12.52196],[-11.42545,12.52733],[-11.42672,12.54471],[-11.43084,12.55003],[-11.44241,12.54351],[-11.44792,12.54841],[-11.44071,12.56754],[-11.41915,12.56576],[-11.40782,12.57598],[-11.40306,12.58882],[-11.40671,12.59572],[-11.4205,12.60383],[-11.42414,12.61304],[-11.40729,12.62679],[-11.40673,12.63473],[-11.41303,12.63822],[-11.41314,12.65058],[-11.42326,12.66396],[-11.43342,12.66064],[-11.44318,12.66256],[-11.44801,12.67167],[-11.44527,12.67939],[-11.43803,12.68251],[-11.43807,12.7018],[-11.43438,12.70458],[-11.42805,12.69621],[-11.42423,12.69842],[-11.42374,12.72888],[-11.39699,12.73106],[-11.3835,12.72832],[-11.36331,12.73219],[-11.36668,12.73849],[-11.37837,12.73974],[-11.38338,12.74325],[-11.38386,12.74612],[-11.37795,12.75093],[-11.37897,12.75716],[-11.38652,12.76745],[-11.39802,12.77451],[-11.38271,12.78052],[-11.38397,12.79043],[-11.38063,12.80191],[-11.38887,12.81279],[-11.38162,12.83075],[-11.38546,12.83115],[-11.38902,12.82627],[-11.40221,12.82665],[-11.4016,12.83945],[-11.41014,12.84819],[-11.39736,12.85528],[-11.39387,12.86221],[-11.40192,12.87056],[-11.40456,12.87857],[-11.39874,12.89358],[-11.38628,12.90564],[-11.38793,12.90947],[-11.40005,12.91286],[-11.40015,12.92538],[-11.39325,12.93284],[-11.38815,12.92569],[-11.3824,12.92941],[-11.34905,12.93542],[-11.34588,12.94328],[-11.35577,12.96128],[-11.35474,12.97561],[-11.36514,12.99123],[-11.38177,12.99377],[-11.37978,12.97681],[-11.38303,12.96777],[-11.39085,12.96531],[-11.40173,12.97425],[-11.41106,12.96989],[-11.40694,12.98451],[-11.41579,12.99397],[-11.4161,12.99875],[-11.41328,13.00288],[-11.39565,13.00631],[-11.39668,13.0129],[-11.40042,13.01593],[-11.41565,13.02033],[-11.41083,13.03624],[-11.41967,13.03964],[-11.43548,13.05681],[-11.43544,13.06282],[-11.42608,13.07359],[-11.42576,13.08369],[-11.44277,13.09771],[-11.47857,13.09996],[-11.48,13.11101],[-11.49673,13.1234],[-11.50105,13.14397],[-11.51581,13.14847],[-11.51828,13.15929],[-11.50858,13.16686],[-11.49944,13.18016],[-11.49984,13.19373],[-11.50737,13.19718],[-11.53429,13.19827],[-11.53969,13.20328],[-11.54254,13.2131],[-11.54139,13.22937],[-11.52205,13.25814],[-11.53341,13.2632],[-11.54112,13.27409],[-11.5412,13.28525],[-11.5468,13.2902],[-11.56572,13.29188],[-11.5771,13.30673],[-11.58866,13.31047],[-11.58619,13.323],[-11.59384,13.3332],[-11.59377,13.36263],[-11.59644,13.36637],[-11.61146,13.3606],[-11.63718,13.3643],[-11.62464,13.38456],[-11.62494,13.39309],[-11.62979,13.39558],[-11.64632,13.39541],[-11.67126,13.38819],[-11.68922,13.38947],[-11.69378,13.39189],[-11.69333,13.40274],[-11.69673,13.40854],[-11.70544,13.41519],[-11.7357,13.41486],[-11.74475,13.40849],[-11.74179,13.38968],[-11.75999,13.36489],[-11.76503,13.34212],[-11.76851,13.3389],[-11.78504,13.33769],[-11.78997,13.33434],[-11.79632,13.31312],[-11.79983,13.31018],[-11.8305,13.30917],[-11.83336,13.31266],[-11.82855,13.32265],[-11.82933,13.33033],[-11.83833,13.33346],[-11.84528,13.35081],[-11.8652,13.36541],[-11.87187,13.37903],[-11.88309,13.38217],[-11.8882,13.38759],[-11.87777,13.42313],[-11.8717,13.43065],[-11.86812,13.43081],[-11.86404,13.43858],[-11.86696,13.46036],[-11.87243,13.46767],[-11.8938,13.47982],[-11.89616,13.48895],[-11.92083,13.50135],[-11.92878,13.51495],[-11.9489,13.51971],[-11.96076,13.53099],[-11.96788,13.53365],[-11.97669,13.55412],[-11.98614,13.56331],[-11.99829,13.56903],[-11.99656,13.59008],[-12.03725,13.62361],[-12.0367,13.65075],[-12.04001,13.66652],[-12.04581,13.67274],[-12.04732,13.68118],[-12.05678,13.68987],[-12.06034,13.70183],[-12.06974,13.70962],[-12.07353,13.71964],[-12.06852,13.72033],[-12.05737,13.73061],[-12.04588,13.73296],[-12.03669,13.74038],[-12.02589,13.74331],[-12.01722,13.75281],[-12.00893,13.75256],[-12.00336,13.75899],[-12.00525,13.76389],[-11.98852,13.77294],[-11.98798,13.77822],[-11.98357,13.77858],[-11.97851,13.7896],[-11.97524,13.79046],[-11.97604,13.79347],[-11.9649,13.79617],[-11.96238,13.80464],[-11.94948,13.80847],[-11.95275,13.82069],[-11.94728,13.84722],[-11.9495,13.85452],[-11.93326,13.92428],[-11.98772,13.96451],[-11.9934,13.97607],[-12.01028,13.98848],[-12.00372,14.00062],[-12.0058,14.01183],[-12.0149,14.02887],[-12.00722,14.03323],[-12.00739,14.05193],[-12.00176,14.05342],[-11.99428,14.06451],[-11.99767,14.07688],[-11.99626,14.08838],[-11.98398,14.09508],[-11.98431,14.11511],[-11.98822,14.12519],[-11.97699,14.14921],[-11.97478,14.18431],[-11.98882,14.19336],[-11.98914,14.20689],[-11.99847,14.21513],[-12.02488,14.28629],[-12.02745,14.28849],[-12.03061,14.28418],[-12.03164,14.28995],[-12.04754,14.28986],[-12.0509,14.29475],[-12.06134,14.29933],[-12.07578,14.29817],[-12.08304,14.30569],[-12.09182,14.30444],[-12.10173,14.30784],[-12.10388,14.31278],[-12.09569,14.31552],[-12.09144,14.32319],[-12.09211,14.32574],[-12.10679,14.32745],[-12.10697,14.33435],[-12.09655,14.33432],[-12.09488,14.33085],[-12.09056,14.3362],[-12.10456,14.34936],[-12.09426,14.35542],[-12.09466,14.36717],[-12.09804,14.37135],[-12.10249,14.37495],[-12.10868,14.37458],[-12.11884,14.36664],[-12.12551,14.37076],[-12.13002,14.38015],[-12.12525,14.39262],[-12.13052,14.39128],[-12.1279,14.38748],[-12.13206,14.38567],[-12.13774,14.38825],[-12.14456,14.38375],[-12.1556,14.38424],[-12.16415,14.38818],[-12.16965,14.39956],[-12.17731,14.40076],[-12.18294,14.3963],[-12.20074,14.40637],[-12.20173,14.42201],[-12.1892,14.44091],[-12.20628,14.45653],[-12.19931,14.47945],[-12.2183,14.48818],[-12.22164,14.4934],[-12.2207,14.50871],[-12.21269,14.52542],[-12.21692,14.54871],[-12.20669,14.55723],[-12.19309,14.55407],[-12.18552,14.55663],[-12.18623,14.56734],[-12.17118,14.58757],[-12.17201,14.6142],[-12.15413,14.61778],[-12.14923,14.62287],[-12.14402,14.64469],[-12.14613,14.6531],[-12.15225,14.65753],[-12.17279,14.66165],[-12.17757,14.66608],[-12.1774,14.67123],[-12.15982,14.6801],[-12.16083,14.68893],[-12.17226,14.68681],[-12.18443,14.69674],[-12.19935,14.69495],[-12.21405,14.70449],[-12.20876,14.71521],[-12.21218,14.73154],[-12.21761,14.73604],[-12.23351,14.7365],[-12.23996,14.76446],[-12.22334,14.76003],[-12.17124,14.76132],[-12.15301,14.77426],[-12.13288,14.77633],[-12.12328,14.76978],[-12.11741,14.75321],[-12.10365,14.74307],[-12.07693,14.72834],[-12.05659,14.72127],[-12.04365,14.73411],[-12.04755,14.76279],[-12.04282,14.76808],[-12.02442,14.7633],[-12.01456,14.76541],[-12.00985,14.76153],[-12.00412,14.76767],[-11.9997,14.76757],[-11.99336,14.7622],[-11.97153,14.76575],[-11.94089,14.77788],[-11.93493,14.78544],[-11.93578,14.81235],[-11.93255,14.81761],[-11.91133,14.82607],[-11.89638,14.82235],[-11.85955,14.8551],[-11.85296,14.85443],[-11.85246,14.85189],[-11.83202,14.85544],[-11.82535,14.86796],[-11.82843,14.87451],[-11.82253,14.88879],[-11.82448,14.89448],[-11.8183,14.88993],[-11.81212,14.89471],[-11.80684,14.89143],[-11.79969,14.89434],[-11.79691,14.90601],[-11.81552,14.92907],[-11.81602,14.94127],[-11.80774,14.96159],[-11.80343,14.96234],[-11.79449,14.97189],[-11.79845,14.99725],[-11.78833,15.01928],[-11.78773,15.03095],[-11.79883,15.04522],[-11.80801,15.04947],[-11.82163,15.04366],[-11.82652,15.03611],[-11.8409,15.04141],[-11.83959,15.0525],[-11.82697,15.06542],[-11.8269,15.07139],[-11.83044,15.08286],[-11.84285,15.08447],[-11.84478,15.09259],[-11.83696,15.1054],[-11.83325,15.10147],[-11.82792,15.11524],[-11.81083,15.12816],[-11.81054,15.13524],[-11.80707,15.13751],[-11.81439,15.14971],[-11.82879,15.15539],[-11.83409,15.169],[-11.8345,15.18448],[-11.81468,15.19987],[-11.80016,15.22601],[-11.7975,15.23545],[-11.80739,15.26598],[-11.80592,15.27815],[-11.78826,15.29617],[-11.7885,15.31467],[-11.79183,15.31772],[-11.77182,15.33144],[-11.7612,15.34553],[-11.75913,15.36419],[-11.74992,15.38843],[-11.75198,15.39206],[-11.74942,15.40637],[-11.74137,15.42214],[-11.74416,15.43921],[-11.7391,15.4612],[-11.73225,15.47285],[-11.70308,15.48994],[-11.70902,15.51759],[-11.70902,15.53614],[-11.6992,15.53834],[-11.67387,15.53456],[-11.66754,15.53795],[-11.6605,15.53441],[-11.66284,15.5303],[-11.65785,15.52689],[-11.65271,15.53165],[-11.64592,15.53101],[-11.64259,15.5215],[-11.62821,15.52228],[-11.60955,15.53087],[-11.6057,15.53396],[-11.60855,15.53651],[-11.60256,15.5415],[-11.58099,15.54998],[-11.57096,15.5619],[-11.56397,15.57909],[-11.56042,15.58331],[-11.55233,15.58408],[-11.54667,15.5934],[-11.54057,15.59262],[-11.53436,15.59817],[-11.51684,15.59329],[-11.50952,15.60538],[-11.49249,15.61441],[-11.50325,15.63327],[-11.51669,15.63875],[-11.51529,15.64075],[-11.49227,15.64169],[-11.46577,15.63815],[-11.45135,15.64336],[-11.43383,15.64036],[-11.43233,15.64332],[-11.42229,15.6377],[-11.41087,15.63682],[-11.40189,15.61197],[-11.3898,15.60144],[-11.35997,15.55941],[-11.35919,15.53323],[-11.34943,15.5298],[-11.32969,15.50706],[-11.32137,15.50451],[-11.29842,15.47069],[-11.26493,15.44019],[-11.25173,15.41934],[-11.20204,15.39727],[-11.18996,15.38152],[-11.14149,15.35169],[-11.07001,15.29089],[-11.05923,15.28517],[-11.03684,15.25722],[-10.99299,15.23177],[-10.98966,15.2208],[-10.98295,15.21398],[-10.982,15.20133],[-10.97403,15.19472],[-10.97118,15.18681],[-10.96765,15.18622],[-10.96673,15.17683],[-10.95253,15.15737],[-10.94438,15.15701],[-10.94121,15.15242],[-10.92591,15.14519],[-10.92077,15.13923],[-10.92035,15.13175],[-10.91165,15.12657],[-10.91065,15.1159],[-10.90022,15.10979],[-10.89138,15.11486],[-10.89002,15.11978],[-10.88213,15.12067],[-10.87889,15.12666],[-10.88002,15.14227],[-10.86802,15.19751],[-10.85328,15.20896],[-10.84492,15.20905],[-10.83278,15.21501],[-10.82897,15.23403],[-10.82171,15.24696],[-10.82902,15.27034],[-10.8232,15.27799],[-10.82231,15.2852],[-10.80693,15.29128],[-10.79556,15.30877],[-10.7781,15.30553],[-10.77326,15.32312],[-10.76444,15.32563],[-10.75555,15.336],[-10.74099,15.33233],[-10.73727,15.33462],[-10.72258,15.35536],[-10.7185,15.36699],[-10.71435,15.36882],[-10.72064,15.38603],[-10.7223,15.40959],[-10.72768,15.43022],[-10.71959,15.44213],[-10.68144,15.43378],[-10.66874,15.42444],[-10.66458,15.40578],[-10.65738,15.40254],[-10.65242,15.40321],[-10.63692,15.4168],[-10.62199,15.42243],[-10.61614,15.42231],[-10.61139,15.41713],[-10.58963,15.42501],[-10.58187,15.43421],[-10.5776,15.42937],[-10.56697,15.43182],[-10.56255,15.43698],[-10.55743,15.43514],[-10.55073,15.44304],[-10.54536,15.43936],[-10.53683,15.44043],[-10.53285,15.44504],[-10.52645,15.44386],[-10.51859,15.45018],[-10.50875,15.44593],[-10.49143,15.45583],[-10.47299,15.45439],[-10.46319,15.43974],[-10.43674,15.44477],[-10.42841,15.43466],[-10.41813,15.43293],[-10.38652,15.44268],[-10.36791,15.43589],[-10.34904,15.44143],[-10.33595,15.43314],[-10.31669,15.42921],[-10.3057,15.43544],[-10.29122,15.43833],[-10.28181,15.43109],[-10.27516,15.43128],[-10.27255,15.42256],[-10.26071,15.42377],[-10.24775,15.41782],[-10.24035,15.42092],[-10.22806,15.41312],[-10.21613,15.41685],[-10.20937,15.41504],[-10.20432,15.41057],[-10.20176,15.41221],[-10.19284,15.40172],[-10.18651,15.40103],[-10.18229,15.39592],[-10.17986,15.39811],[-10.17826,15.3939],[-10.16712,15.40048],[-10.15967,15.39254],[-10.15145,15.39075],[-10.14049,15.3781],[-10.12194,15.37205],[-10.10656,15.37175],[-10.10156,15.36829],[-10.08034,15.36739],[-10.06525,15.35943],[-10.00752,15.37366],[-9.99151,15.37183],[-9.97183,15.38435],[-9.92793,15.3902],[-9.92273,15.39947],[-9.90323,15.39685],[-9.89533,15.39866],[-9.82989,15.38939],[-9.80796,15.39202],[-9.79886,15.38864],[-9.79557,15.39037],[-9.79781,15.39837],[-9.79464,15.40343],[-9.78009,15.41565],[-9.76866,15.41212],[-9.74848,15.41883],[-9.74563,15.41123],[-9.73646,15.40971],[-9.73228,15.40561],[-9.7281,15.4086],[-9.71982,15.40431],[-9.71295,15.40713],[-9.70548,15.41714],[-9.69088,15.41853],[-9.69181,15.42212],[-9.68384,15.42714],[-9.40102,15.43884],[-9.44685,15.6057],[-9.33103,15.70279],[-9.30958,15.69353],[-9.3317,15.5655],[-9.33125,15.50161],[-5.5,15.5],[-5.33333,16.33333],[-5.60903,16.50015],[-5.77147,17.99998],[-5.90762,19.18677],[-6.09649,20.9017],[-6.33469,22.96361],[-6.35873,23.20118],[-6.45668,23.97178],[-6.572,25.001],[-5.70309,25.00339],[-4.83418,25.0007],[-4.34244,24.68522],[-3.83415,24.36709],[-2.91745,23.78585],[-1.66741,22.9835],[-0.25069,22.05946],[1.15507,21.12734],[1.16631,21.08337],[1.16989,21.05008],[1.18182,21.02679],[1.19255,20.97463],[1.18707,20.958],[1.19259,20.93931],[1.18726,20.9062],[1.18592,20.87037],[1.16383,20.79345],[1.16438,20.74793],[1.16786,20.73393],[1.17832,20.72713],[1.2183,20.72348],[1.23563,20.72714],[1.2388,20.73119],[1.25109,20.7357],[1.2785,20.73593],[1.29135,20.7291],[1.31323,20.7346],[1.32791,20.72654],[1.33967,20.70857],[1.34008,20.70081],[1.35013,20.69616],[1.35444,20.68383],[1.35418,20.67258],[1.37005,20.66866],[1.38643,20.65423],[1.40287,20.66016],[1.41467,20.65603],[1.41635,20.65189],[1.45427,20.64604],[1.49547,20.62355],[1.5248,20.61703],[1.54244,20.61831],[1.54335,20.61348],[1.55052,20.61097],[1.55742,20.61234],[1.55846,20.60878],[1.56408,20.60819],[1.56886,20.61017],[1.5774,20.59945],[1.58717,20.60106],[1.6017,20.5959],[1.60558,20.59209],[1.60566,20.58247],[1.61081,20.5761],[1.62882,20.57353],[1.63257,20.56724],[1.63853,20.56534],[1.65039,20.54709],[1.66156,20.54212],[1.66624,20.53371],[1.66734,20.52866],[1.659,20.51703],[1.66626,20.51438],[1.6663,20.50968],[1.6592,20.50005],[1.65998,20.49748],[1.66487,20.49851],[1.67041,20.48884],[1.67622,20.48866],[1.67542,20.48052],[1.67047,20.47683],[1.67019,20.46512],[1.66483,20.4635],[1.66693,20.45959],[1.66335,20.45202],[1.67155,20.44052],[1.67645,20.43924],[1.67295,20.42761],[1.66564,20.41987],[1.66993,20.41146],[1.66876,20.40291],[1.67959,20.39681],[1.68524,20.39748],[1.69042,20.39088],[1.69797,20.38805],[1.69787,20.38226],[1.70829,20.37891],[1.71826,20.36733],[1.73349,20.36179],[1.73595,20.35408],[1.75496,20.35431],[1.75769,20.34218],[1.7756,20.33625],[1.77266,20.32132],[1.78292,20.31286],[1.78575,20.30592],[1.79094,20.3037],[1.79411,20.29645],[1.80161,20.29216],[1.8254,20.28762],[1.84549,20.29566],[1.85997,20.29264],[1.86843,20.29486],[1.87244,20.28992],[1.88349,20.29157],[1.88306,20.28525],[1.89111,20.27726],[1.89614,20.2641],[1.89333,20.255],[1.89971,20.25264],[1.89516,20.24652],[1.90723,20.23164],[1.91894,20.22656],[1.92238,20.22107],[1.94277,20.24229],[1.94813,20.25687],[1.95333,20.25898],[1.95804,20.25594],[1.97,20.2575],[1.98373,20.25166],[2.00008,20.23933],[2.0119,20.23953],[2.01551,20.23657],[2.02252,20.24104],[2.0187,20.24734],[2.01992,20.2511],[2.02828,20.2534],[2.02898,20.25689],[2.04256,20.26735],[2.04502,20.26353],[2.05235,20.26266],[2.07079,20.24604],[2.07802,20.2459],[2.08667,20.2403],[2.09617,20.24487],[2.12169,20.23519],[2.13162,20.23854],[2.13392,20.24768],[2.14162,20.25747],[2.1659,20.25601],[2.17569,20.26021],[2.17556,20.26694],[2.1907,20.27429],[2.19057,20.29918],[2.19596,20.31199],[2.20907,20.31476],[2.23256,20.3005],[2.2458,20.29554],[2.25935,20.29519],[2.26664,20.28348],[2.27817,20.27472],[2.28924,20.27369],[2.30449,20.27857],[2.30563,20.269],[2.30904,20.26811],[2.30741,20.25568],[2.30241,20.25046],[2.30663,20.23923],[2.30351,20.23018],[2.30664,20.22586],[2.32407,20.22353],[2.31694,20.21216],[2.32053,20.20215],[2.31867,20.19861],[2.32706,20.19607],[2.33219,20.18177],[2.34522,20.17924],[2.35447,20.16328],[2.35946,20.16032],[2.35805,20.15462],[2.36351,20.15211],[2.36425,20.1485],[2.38788,20.14777],[2.39636,20.13393],[2.40291,20.11999],[2.39313,20.1135],[2.39507,20.10853],[2.38854,20.10228],[2.37794,20.09826],[2.37268,20.08392],[2.37504,20.06974],[2.38365,20.05545],[2.37514,20.04354],[2.37866,20.02448],[2.39178,20.02941],[2.39452,20.03936],[2.40296,20.03229],[2.42698,20.0518],[2.44374,20.0575],[2.44545,20.0609],[2.43918,20.07791],[2.46144,20.09881],[2.46555,20.1121],[2.48208,20.10411],[2.48589,20.08741],[2.51147,20.08786],[2.51656,20.09581],[2.52244,20.09403],[2.52362,20.07947],[2.5318,20.08008],[2.53241,20.06806],[2.53702,20.06279],[2.55119,20.05627],[2.55525,20.04102],[2.56482,20.03787],[2.59087,20.03979],[2.60493,20.04718],[2.61257,20.04684],[2.62321,20.05493],[2.62896,20.04827],[2.63593,20.05028],[2.63322,20.04301],[2.65823,20.05229],[2.67468,20.0857],[2.6968,20.07407],[2.6982,20.06562],[2.70462,20.05962],[2.715,20.0328],[2.71137,20.02746],[2.71238,20.02308],[2.71932,20.02052],[2.72365,20.00435],[2.73059,20.0021],[2.73404,19.9937],[2.7565,19.99794],[2.7621,19.99157],[2.76927,19.98919],[2.76579,19.98421],[2.77364,19.97763],[2.78225,19.9742],[2.78903,19.98027],[2.80547,19.97703],[2.81007,19.97049],[2.83101,19.96233],[2.84013,19.96383],[2.84552,19.97215],[2.8569,19.97265],[2.86111,19.96398],[2.86694,19.96579],[2.87469,19.96078],[2.87579,19.95608],[2.88214,19.96517],[2.89236,19.96744],[2.89523,19.96301],[2.90584,19.96496],[2.92176,19.95381],[2.92811,19.95643],[2.93351,19.95291],[2.94211,19.95598],[2.95468,19.95526],[2.95612,19.95025],[2.97456,19.95238],[3.01441,19.93232],[3.03686,19.90954],[3.04871,19.91216],[3.06094,19.90872],[3.06777,19.91053],[3.08129,19.90437],[3.09346,19.89063],[3.10292,19.88981],[3.11103,19.88055],[3.13849,19.87136],[3.14316,19.85938],[3.15132,19.85793],[3.15538,19.86077],[3.17395,19.85063],[3.19071,19.84772],[3.19834,19.84202],[3.21224,19.84331],[3.25401,19.83502],[3.2589,19.81818],[3.2511,19.80513],[3.24184,19.77627],[3.24816,19.75588],[3.24747,19.74526],[3.22829,19.71294],[3.2319,19.70109],[3.23153,19.67679],[3.2409,19.66195],[3.2399,19.6573],[3.248,19.65277],[3.24959,19.63212],[3.24485,19.6206],[3.23344,19.61009],[3.23073,19.587],[3.23776,19.56829],[3.2347,19.56215],[3.23813,19.55799],[3.24437,19.55757],[3.24591,19.5338],[3.25238,19.52679],[3.26157,19.52483],[3.26352,19.52162],[3.24619,19.49675],[3.26398,19.45131],[3.25949,19.44291],[3.24467,19.43796],[3.23229,19.43911],[3.20846,19.43358],[3.19758,19.41471],[3.19865,19.39356],[3.17571,19.35888],[3.17951,19.35472],[3.18463,19.33262],[3.20426,19.30666],[3.20214,19.28818],[3.19809,19.28312],[3.1976,19.27562],[3.17946,19.26217],[3.17574,19.2516],[3.16364,19.23824],[3.16048,19.21999],[3.15467,19.21136],[3.12278,19.184],[3.12224,19.16697],[3.11649,19.16087],[3.11572,19.14632],[3.12132,19.14198],[3.12117,19.13208],[3.12464,19.12675],[3.14037,19.12172],[3.15462,19.11181],[3.16432,19.11167],[3.17952,19.09575],[3.20664,19.08244],[3.20849,19.07656],[3.22145,19.06913],[3.23756,19.06392],[3.25345,19.04415],[3.27662,19.03286],[3.2987,19.00025],[3.32022,18.997],[3.32739,18.99871],[3.33702,18.99092],[3.35042,18.97052],[3.35773,18.96639],[4.26612,19.14672],[4.26667,17.00174],[4.2143,17.00002],[4.21285,16.91283],[4.20581,16.88033],[4.20671,16.83718],[4.19697,16.81029],[4.19985,16.39507],[4.11844,16.35012],[4.09713,16.32322],[4.08919,16.30336],[4.08829,16.28657],[4.07926,16.27032],[4.06825,16.23277],[4.02546,16.16399],[4.00633,16.11832],[3.98607,16.08083],[3.98533,16.06997],[3.99453,16.03537],[3.97953,15.99267],[3.98008,15.94059],[3.92806,15.86442],[3.91621,15.80348],[3.90103,15.74704],[3.88585,15.71526],[3.85621,15.68633],[3.83368,15.67566],[3.79796,15.66374],[3.72246,15.65906],[3.70373,15.64815],[3.64515,15.58602],[3.59583,15.52104],[3.53689,15.48518],[3.53441,15.471],[3.54061,15.44976],[3.53631,15.40342],[3.52616,15.3846],[3.5121,15.36934],[3.49315,15.35789],[3.03148,15.42857],[3.02841,15.42694],[3.02364,15.40864],[3.01997,15.33819],[2.63637,15.3468],[1.3115,15.27813],[1,15],[0.96614,14.98105],[0.90647,14.97217],[0.74485,14.96195],[0.72809,14.95807],[0.70347,14.94489],[0.68764,14.94428],[0.60846,14.96869],[0.5726,14.98902],[0.52264,14.99822],[0.39463,14.96399],[0.24465,14.99403],[0.244,14.913],[-0.24556,15.07833],[-0.38449,15.00479],[-0.40358,15.00479],[-0.44306,15.08333],[-0.72472,15.08333],[-1.07167,14.78444],[-1.09278,14.78444],[-1.31806,14.72917],[-1.67778,14.50083],[-1.77722,14.48167],[-1.90667,14.48889],[-1.98028,14.475],[-1.99721,14.19327],[-2.1028,14.14675],[-2.17779,14.19196],[-2.29698,14.2491],[-2.4742,14.29986],[-2.58915,14.21565],[-2.67689,14.13494],[-2.80603,14.07667],[-2.83886,14.05407],[-2.85498,14.0062],[-2.84477,14.00606],[-2.83606,13.99535],[-2.86597,13.91033],[-2.87184,13.88399],[-2.87955,13.8768],[-2.87883,13.8708],[-2.88148,13.86598],[-2.88484,13.86601],[-2.89284,13.8419],[-2.90212,13.835],[-2.90049,13.83247],[-2.90419,13.82471],[-2.90775,13.82468],[-2.9068,13.72686],[-2.89202,13.70557],[-2.89025,13.69065],[-2.87535,13.6539],[-2.95249,13.62466],[-2.95814,13.63898],[-2.9663,13.64391],[-2.96948,13.65166],[-2.98493,13.65169],[-3.00177,13.65689],[-3.00681,13.65496],[-3.01883,13.63913],[-3.01712,13.63133],[-3.02903,13.61491],[-3.0401,13.61355],[-3.05142,13.61921],[-3.05779,13.62781],[-3.05605,13.63953],[-3.06126,13.65616],[-3.0718,13.66013],[-3.07693,13.66662],[-3.08379,13.66589],[-3.09332,13.67903],[-3.10748,13.68871],[-3.12944,13.68142],[-3.14473,13.6832],[-3.14762,13.67936],[-3.17398,13.6801],[-3.17938,13.67751],[-3.19188,13.6808],[-3.20997,13.70594],[-3.2618,13.71491],[-3.27012,13.70601],[-3.27209,13.69841],[-3.25724,13.69468],[-3.24689,13.68412],[-3.24999,13.58463],[-3.27831,13.55685],[-3.26472,13.48675],[-3.25456,13.36076],[-3.23745,13.35517],[-3.23661,13.32554],[-3.23339,13.31377],[-3.23424,13.28887],[-3.33896,13.28821],[-3.38436,13.27725],[-3.43747,13.27669],[-3.44781,13.25685],[-3.43912,13.24682],[-3.42234,13.17871],[-3.44238,13.15779],[-3.4624,13.15874],[-3.46339,13.15557],[-3.47538,13.161],[-3.47985,13.15814],[-3.50151,13.1697],[-3.52209,13.16581],[-3.52979,13.17096],[-3.53142,13.16754],[-3.53437,13.16822],[-3.5361,13.17139],[-3.54376,13.16432],[-3.54551,13.1672],[-3.55183,13.167],[-3.54734,13.17995],[-3.55318,13.19713],[-3.58314,13.19997],[-3.60538,13.21717],[-3.61198,13.21532],[-3.61607,13.22332],[-3.67218,13.27525],[-3.718,13.29116],[-3.73711,13.30377],[-3.74473,13.3128],[-3.74163,13.32331],[-3.74343,13.32677],[-3.79741,13.37248],[-3.81688,13.36102],[-3.83748,13.36022],[-3.85345,13.37329],[-3.91536,13.38306],[-3.93738,13.38038],[-3.94604,13.37459],[-3.95847,13.37985],[-3.95888,13.39581],[-3.96319,13.40763],[-3.93651,13.41572],[-3.93035,13.43287],[-3.90164,13.43364],[-3.89567,13.44279],[-3.90521,13.44886],[-3.94036,13.45213],[-3.9395,13.47178],[-3.9497,13.48864],[-3.94864,13.49413],[-3.96011,13.49904],[-3.96531,13.50559],[-3.97157,13.5003],[-3.97109,13.48768],[-3.98274,13.47776],[-3.98226,13.47323],[-3.97548,13.47424],[-3.96492,13.49037],[-3.95963,13.47294],[-3.97456,13.46446],[-3.98428,13.45175],[-3.98448,13.43509],[-4.00326,13.43884],[-4.01597,13.43769],[-4.0258,13.42555],[-4.03697,13.42073],[-4.05296,13.40686],[-4.0701,13.40725],[-4.08841,13.39916],[-4.10054,13.38702],[-4.10262,13.37502],[-4.10016,13.35581],[-4.10536,13.33905],[-4.11692,13.32075],[-4.13165,13.30874],[-4.13679,13.29634],[-4.16122,13.28454],[-4.16777,13.27625],[-4.20727,13.26951],[-4.22518,13.24948],[-4.25889,13.23676],[-4.25909,13.2333],[-4.23924,13.21442],[-4.22499,13.19535],[-4.22557,13.18706],[-4.23751,13.17839],[-4.28533,13.18912],[-4.28914,13.18378],[-4.29729,13.18291],[-4.30119,13.17594],[-4.30779,13.17235],[-4.30882,13.16366],[-4.31689,13.15945],[-4.32012,13.15359],[-4.32635,13.15342],[-4.33964,13.14455],[-4.34693,13.11964],[-4.34546,13.11452],[-4.33254,13.11056],[-4.33002,13.09829],[-4.31498,13.09164],[-4.30686,13.07591],[-4.27488,13.0395],[-4.27507,13.01946],[-4.26403,12.99032],[-4.22638,12.97511],[-4.21811,12.96233],[-4.21533,12.91339],[-4.22532,12.86356],[-4.20819,12.81666],[-4.21626,12.80732],[-4.21683,12.77626],[-4.23468,12.73273],[-4.23256,12.72751],[-4.23899,12.72609],[-4.24613,12.71735],[-4.25178,12.71889],[-4.25527,12.71248],[-4.26695,12.70414],[-4.27057,12.70874],[-4.28059,12.7073],[-4.28221,12.70993],[-4.30024,12.70116],[-4.3096,12.70824],[-4.32533,12.71151],[-4.32362,12.7199],[-4.34618,12.744],[-4.37314,12.73401],[-4.37766,12.72811],[-4.40095,12.71687],[-4.41869,12.71621],[-4.43161,12.71082],[-4.44193,12.71796],[-4.44473,12.71442],[-4.4514,12.71404],[-4.4561,12.71976],[-4.47095,12.72167],[-4.4758,12.72705],[-4.47798,12.72519],[-4.4781,12.72131],[-4.47231,12.72113],[-4.46902,12.71458],[-4.47284,12.70892],[-4.46723,12.69077],[-4.47119,12.68008],[-4.47688,12.67823],[-4.47562,12.67565],[-4.48023,12.67185],[-4.48061,12.65815],[-4.45973,12.63878],[-4.45247,12.62563],[-4.42979,12.62347],[-4.41159,12.60974],[-4.40384,12.58038],[-4.40228,12.5605],[-4.37298,12.54616],[-4.36531,12.53572],[-4.36503,12.53223],[-4.37794,12.51947],[-4.42043,12.48525],[-4.42413,12.47227],[-4.42256,12.4632],[-4.42878,12.454],[-4.44079,12.4153],[-4.43962,12.40216],[-4.40902,12.34484],[-4.39694,12.31032],[-4.41892,12.30249],[-4.42751,12.3082],[-4.42957,12.32399],[-4.43547,12.32473],[-4.43956,12.33355],[-4.47367,12.33073],[-4.4781,12.30832],[-4.4714,12.2856],[-4.52142,12.25065],[-4.52987,12.24157],[-4.52972,12.23486],[-4.54294,12.23261],[-4.55089,12.22652],[-4.55041,12.22377],[-4.57995,12.20189],[-4.57597,12.18979],[-4.5553,12.15726],[-4.54977,12.15477],[-4.54436,12.14159],[-4.56812,12.13808],[-4.60683,12.13911],[-4.61472,12.12509],[-4.62818,12.11404],[-4.62962,12.05964],[-4.6489,12.06069],[-4.67527,12.06742],[-4.68512,12.06476],[-4.70042,12.06609],[-4.70926,12.05053],[-4.71633,12.04865],[-4.71466,12.04245],[-4.71906,12.03217],[-4.72365,12.03192],[-4.72447,12.01619],[-4.73334,12.00377],[-4.74056,11.9991],[-4.7455,11.99926],[-4.74501,12.00542],[-4.74831,12.00859],[-4.76555,12.0043],[-4.76561,12.00872],[-4.77763,12.01138],[-4.78581,12.00554],[-4.79083,12.01214],[-4.79736,12.00835],[-4.80995,12.01391],[-4.8198,12.00756],[-4.82855,12.01359],[-4.82722,12.0159],[-4.83446,12.01886],[-4.8384,12.01254],[-4.85023,12.01702],[-4.85317,12.01167],[-4.86438,12.00725],[-4.86488,12.00316],[-4.88111,12.0019],[-4.88558,12.00658],[-4.89363,12.00255],[-4.90119,12.00563],[-4.91526,12.00278],[-4.91517,11.99854],[-4.92483,12.00057],[-4.92722,12.00511],[-4.94384,12.00434],[-4.94867,12.0025],[-4.94927,11.99871],[-4.95685,11.99929],[-4.96149,11.99603],[-4.96492,11.99808],[-4.97096,11.99301],[-4.9797,11.99627],[-4.98755,11.98521],[-4.99376,11.98601],[-4.997,11.9899],[-5.00165,11.98746],[-5.00595,11.98917],[-5.01442,11.98162],[-5.02054,11.98585],[-5.05604,11.97748],[-5.06809,11.98272],[-5.07506,11.98194],[-5.08381,11.97028],[-5.09474,11.9689],[-5.09608,11.9642],[-5.10622,11.96543],[-5.11016,11.9612],[-5.12605,11.95741],[-5.13693,11.94672],[-5.14333,11.94892],[-5.14857,11.94479],[-5.15306,11.93363],[-5.15976,11.93618],[-5.16701,11.92843],[-5.17272,11.92698],[-5.17247,11.91961],[-5.17933,11.91241],[-5.18009,11.90373],[-5.18849,11.90434],[-5.18424,11.89818],[-5.19428,11.899],[-5.20478,11.89205],[-5.20869,11.89281],[-5.20938,11.88454],[-5.21442,11.88117],[-5.21754,11.88272],[-5.21662,11.87858],[-5.2212,11.87324],[-5.22978,11.8677],[-5.23449,11.87082],[-5.24436,11.86576],[-5.24372,11.85657],[-5.24748,11.85267],[-5.24356,11.84909],[-5.24687,11.8445],[-5.24593,11.83902],[-5.25599,11.84123],[-5.25899,11.83791],[-5.25779,11.83307],[-5.26717,11.84036],[-5.27526,11.84033],[-5.2783,11.84709],[-5.27696,11.85305],[-5.28055,11.85096],[-5.28671,11.85379],[-5.29796,11.84927],[-5.30331,11.83534],[-5.31895,11.8413],[-5.32011,11.84776],[-5.3228,11.84854],[-5.3382,11.82927],[-5.34073,11.8305],[-5.35653,11.82186],[-5.35737,11.82939],[-5.36115,11.83313],[-5.36385,11.83148],[-5.36868,11.8369],[-5.37374,11.83338],[-5.37475,11.83972],[-5.37833,11.83607],[-5.38101,11.84214],[-5.38751,11.8387],[-5.38959,11.84046],[-5.40423,11.83094],[-5.40602,11.82666],[-5.39113,11.81925],[-5.39297,11.81599],[-5.38008,11.81989],[-5.37565,11.80958],[-5.36781,11.81214],[-5.36369,11.80812],[-5.3651,11.80426],[-5.35987,11.80144],[-5.35685,11.80366],[-5.35035,11.79521],[-5.34707,11.80727],[-5.34358,11.80776],[-5.34396,11.80203],[-5.33614,11.80424],[-5.33592,11.79841],[-5.33317,11.79783],[-5.33239,11.8008],[-5.32705,11.80073],[-5.32734,11.8035],[-5.32267,11.8047],[-5.32468,11.80094],[-5.31558,11.79403],[-5.3061,11.79323],[-5.30649,11.78786],[-5.29965,11.78415],[-5.29089,11.78475],[-5.2849,11.77673],[-5.28695,11.77123],[-5.2939,11.7716],[-5.29197,11.76558],[-5.27537,11.75661],[-5.25999,11.76175],[-5.26186,11.75238],[-5.25874,11.74706],[-5.2593,11.73639],[-5.26457,11.72705],[-5.26733,11.71032],[-5.27097,11.70694],[-5.26679,11.6975],[-5.26515,11.67949],[-5.27263,11.66312],[-5.28186,11.65366],[-5.28394,11.63992],[-5.29318,11.6287],[-5.29351,11.61708],[-5.27444,11.60161],[-5.25581,11.60513],[-5.23605,11.60209],[-5.23147,11.59188],[-5.21682,11.57943],[-5.21477,11.5555],[-5.20781,11.54638],[-5.20439,11.53407],[-5.19959,11.53025],[-5.20974,11.49749],[-5.20052,11.48325],[-5.20504,11.47857],[-5.20384,11.47432],[-5.21003,11.45782],[-5.20078,11.44545],[-5.19839,11.42866],[-5.23105,11.40001],[-5.24254,11.39659],[-5.24495,11.39251],[-5.25562,11.35979],[-5.25683,11.34373],[-5.25334,11.2494],[-5.25963,11.24082],[-5.29336,11.22825],[-5.31584,11.21529],[-5.32442,11.20633],[-5.32728,11.18861],[-5.325,11.15713],[-5.333,11.1383],[-5.34291,11.12953],[-5.39188,11.10343],[-5.46959,11.08463],[-5.48864,11.08322],[-5.4875,11.04748],[-5.47372,11.0165],[-5.47503,11.00798],[-5.49243,10.97376]]]]}}]}