{"type":"FeatureCollection","features":[{"type":"Feature","properties":{"ISO_A3":"MLT","WB_A3":"MLT","WB_NAME":"Malta","WB_REGION":"MEA"},"geometry":{"type":"MultiPolygon","coordinates":[[[[14.46387,35.93734],[14.48281,35.93615],[14.49217,35.93066],[14.49664,35.92361],[14.49577,35.91492],[14.49951,35.91874],[14.50838,35.91544],[14.50872,35.91172],[14.51648,35.90725],[14.50019,35.90704],[14.50939,35.90414],[14.50657,35.90117],[14.49822,35.90176],[14.50215,35.90025],[14.50079,35.89665],[14.49403,35.89673],[14.50203,35.89486],[14.51446,35.90275],[14.52172,35.90342],[14.51986,35.89699],[14.50099,35.88406],[14.50367,35.87905],[14.50447,35.88331],[14.51233,35.88629],[14.51822,35.88455],[14.51533,35.88875],[14.51747,35.89013],[14.52213,35.88501],[14.51911,35.89107],[14.52618,35.88873],[14.5243,35.89341],[14.52888,35.89342],[14.5287,35.89728],[14.54261,35.89425],[14.55212,35.88837],[14.57655,35.86714],[14.57024,35.86673],[14.57595,35.86058],[14.56494,35.85425],[14.56496,35.85116],[14.57034,35.8481],[14.57005,35.84296],[14.57321,35.84271],[14.57196,35.83924],[14.56595,35.84281],[14.5614,35.8383],[14.56157,35.83522],[14.56504,35.83523],[14.56339,35.82058],[14.56008,35.81903],[14.55814,35.82801],[14.55114,35.83826],[14.54562,35.8385],[14.54755,35.83131],[14.54551,35.82963],[14.53981,35.83283],[14.53224,35.83228],[14.53496,35.82638],[14.53118,35.82457],[14.53231,35.81995],[14.53514,35.82163],[14.54274,35.81652],[14.54035,35.82075],[14.54429,35.82192],[14.5481,35.81744],[14.53712,35.80738],[14.51852,35.80615],[14.49576,35.81376],[14.47209,35.81507],[14.46669,35.81955],[14.44966,35.8196],[14.43636,35.82545],[14.41805,35.82793],[14.41706,35.83358],[14.39761,35.83836],[14.39774,35.84273],[14.3857,35.84884],[14.38097,35.8483],[14.36352,35.86003],[14.35589,35.8668],[14.35586,35.87027],[14.34891,35.87036],[14.33763,35.87967],[14.33853,35.88533],[14.33515,35.89302],[14.33023,35.89608],[14.3327,35.90252],[14.32935,35.90661],[14.34081,35.90603],[14.33386,35.91537],[14.33427,35.92205],[14.34533,35.9216],[14.34428,35.93457],[14.32985,35.94079],[14.33724,35.94468],[14.34208,35.95242],[14.33799,35.96935],[14.32314,35.9685],[14.32075,35.9708],[14.32275,35.97646],[14.33377,35.98166],[14.33626,35.9872],[14.35302,35.98691],[14.35299,35.98999],[14.36027,35.98952],[14.36463,35.99686],[14.37033,35.99599],[14.37484,35.98625],[14.36411,35.98311],[14.34996,35.97353],[14.35015,35.97045],[14.35477,35.96598],[14.37906,35.97111],[14.38067,35.96804],[14.39648,35.96735],[14.39808,35.96402],[14.38987,35.95796],[14.39166,35.95653],[14.38496,35.94506],[14.40957,35.94994],[14.40955,35.95225],[14.42793,35.95971],[14.42613,35.95126],[14.42948,35.94978],[14.43386,35.95494],[14.44558,35.95191],[14.4502,35.94628],[14.45604,35.94708],[14.4564,35.94014],[14.46387,35.93734]]],[[[14.41235,35.78666],[14.40951,35.7869],[14.41108,35.78819],[14.41235,35.78666]]],[[[14.32631,36.00398],[14.33007,36.00888],[14.32531,36.01039],[14.32447,36.0163],[14.33282,36.0193],[14.34742,36.01411],[14.35077,36.00951],[14.34875,36.00641],[14.32631,36.00398]]],[[[14.30835,36.02636],[14.29829,36.0263],[14.29989,36.02387],[14.29329,36.01959],[14.28003,36.01604],[14.27277,36.01805],[14.26393,36.01337],[14.25475,36.0146],[14.2544,36.01768],[14.21958,36.02119],[14.21633,36.02939],[14.21029,36.03282],[14.18732,36.036],[14.19087,36.04489],[14.19371,36.04478],[14.1892,36.05349],[14.19311,36.05788],[14.19067,36.06378],[14.1856,36.06426],[14.1855,36.07402],[14.19595,36.07358],[14.20413,36.07838],[14.23639,36.08181],[14.25097,36.07971],[14.25195,36.07625],[14.25765,36.07629],[14.25832,36.07141],[14.26432,36.07299],[14.27898,36.0628],[14.28623,36.06191],[14.28877,36.06491],[14.30086,36.05689],[14.30991,36.05921],[14.31229,36.05246],[14.32118,36.04994],[14.33666,36.03281],[14.32075,36.02566],[14.30835,36.02636]]]]}}]}