{"type":"FeatureCollection","features":[{"type":"Feature","properties":{"ISO_A3":"MNE","WB_A3":"MNE","WB_NAME":"Montenegro","WB_REGION":"ECS"},"geometry":{"type":"MultiPolygon","coordinates":[[[[19.77061,42.59647],[19.76046,42.61047],[19.75178,42.61351],[19.7537,42.6201],[19.7494,42.62882],[19.75668,42.63633],[19.75261,42.63989],[19.7374,42.64307],[19.73348,42.65608],[19.72717,42.66078],[19.70457,42.65525],[19.6992,42.65064],[19.69964,42.64442],[19.68826,42.63778],[19.67995,42.62819],[19.66299,42.62873],[19.61015,42.57545],[19.61235,42.56977],[19.60989,42.56198],[19.61325,42.55829],[19.61559,42.54306],[19.60688,42.53846],[19.60156,42.53028],[19.56199,42.51392],[19.56293,42.50121],[19.55867,42.49485],[19.55234,42.48686],[19.54802,42.48661],[19.53112,42.45849],[19.51856,42.4489],[19.51959,42.44274],[19.50332,42.43732],[19.49852,42.43168],[19.4982,42.4239],[19.4928,42.42461],[19.48725,42.41117],[19.47252,42.3924],[19.45424,42.38414],[19.44784,42.38586],[19.43999,42.38351],[19.42695,42.37353],[19.4223,42.36466],[19.42437,42.35933],[19.42219,42.35549],[19.41388,42.35106],[19.42007,42.32982],[19.4006,42.31995],[19.38542,42.30498],[19.36818,42.30307],[19.36841,42.29422],[19.36258,42.2926],[19.36446,42.28646],[19.358,42.28252],[19.36969,42.285],[19.36371,42.28902],[19.36913,42.2932],[19.3738,42.28634],[19.37762,42.28562],[19.3763,42.28329],[19.36294,42.27874],[19.35564,42.28018],[19.35097,42.28691],[19.33993,42.28598],[19.34116,42.27894],[19.33471,42.27423],[19.32887,42.27312],[19.3253,42.27743],[19.31777,42.27449],[19.32227,42.26121],[19.31726,42.25472],[19.31312,42.25466],[19.31462,42.26315],[19.31008,42.26488],[19.29986,42.25934],[19.29085,42.26049],[19.29202,42.24896],[19.28143,42.25111],[19.27364,42.25792],[19.25443,42.26533],[19.24165,42.26514],[19.2402,42.26781],[19.23197,42.2655],[19.19187,42.26603],[19.18241,42.25857],[19.17788,42.25978],[19.17717,42.26644],[19.16498,42.26958],[19.16522,42.27344],[19.16212,42.27313],[19.16091,42.26695],[19.15142,42.26654],[19.1487,42.25931],[19.14437,42.25976],[19.1484,42.26932],[19.14656,42.27498],[19.146,42.26312],[19.14263,42.25998],[19.14006,42.26131],[19.14288,42.26923],[19.1362,42.26732],[19.12121,42.27157],[19.10104,42.26444],[19.09856,42.26054],[19.10662,42.25093],[19.09998,42.24774],[19.10243,42.24085],[19.12135,42.23782],[19.11334,42.2341],[19.11557,42.22874],[19.12427,42.2267],[19.13553,42.23125],[19.15453,42.23104],[19.16049,42.22819],[19.1599,42.22459],[19.16512,42.22313],[19.16519,42.22672],[19.17595,42.22484],[19.18339,42.21829],[19.18944,42.21813],[19.19066,42.21173],[19.18344,42.21059],[19.18165,42.20671],[19.19018,42.20415],[19.19465,42.19896],[19.19454,42.19049],[19.20637,42.18092],[19.20434,42.1737],[19.22414,42.16271],[19.22412,42.15732],[19.23359,42.15157],[19.23386,42.14823],[19.2394,42.14716],[19.23773,42.14521],[19.24239,42.13913],[19.24964,42.13872],[19.25516,42.13239],[19.26012,42.13388],[19.27102,42.12596],[19.27585,42.12616],[19.28006,42.12327],[19.27878,42.11978],[19.29141,42.11779],[19.2936,42.11346],[19.30656,42.11211],[19.30804,42.10829],[19.31846,42.10536],[19.32083,42.10026],[19.33281,42.0971],[19.33694,42.09074],[19.35086,42.0921],[19.35507,42.08933],[19.35551,42.09229],[19.35946,42.0926],[19.38475,42.07889],[19.37845,42.07228],[19.37902,42.05175],[19.36918,42.03093],[19.37278,42.02237],[19.37362,42.00499],[19.38122,41.99655],[19.37506,41.97399],[19.38694,41.96671],[19.38036,41.96187],[19.3502,41.95772],[19.35017,41.93898],[19.36623,41.9292],[19.37037,41.92207],[19.34071,41.91266],[19.34318,41.90346],[19.36238,41.89834],[19.36762,41.88815],[19.37953,41.88588],[19.37996,41.88268],[19.36545,41.87233],[19.33535,41.86753],[19.3206,41.88028],[19.30493,41.88827],[19.26953,41.90186],[19.23839,41.90947],[19.23329,41.90746],[19.22032,41.91676],[19.18492,41.92904],[19.15033,41.94851],[19.14917,41.95298],[19.16488,41.9508],[19.16533,41.95286],[19.14392,41.96791],[19.13836,41.97591],[19.14183,41.98058],[19.15009,41.98059],[19.1519,41.98319],[19.14812,41.98903],[19.1419,41.99021],[19.14742,42.00134],[19.14464,42.00232],[19.14519,42.00695],[19.1506,42.01037],[19.14251,42.0164],[19.14208,42.01922],[19.14758,42.01956],[19.14917,42.02421],[19.14075,42.02946],[19.14066,42.04461],[19.10395,42.063],[19.07442,42.08278],[19.0694,42.08912],[19.08536,42.08553],[19.08145,42.08958],[19.08661,42.08979],[19.09095,42.09461],[19.0884,42.10484],[19.08245,42.11372],[19.0615,42.12235],[19.06364,42.12572],[19.06136,42.13262],[19.04964,42.13793],[19.02627,42.13561],[19.02474,42.1402],[19.02058,42.1409],[19.01385,42.13565],[19.01037,42.13662],[19.00188,42.14879],[19.00444,42.15525],[19.00032,42.16006],[18.99207,42.15927],[18.98882,42.16396],[18.96643,42.17358],[18.97068,42.18623],[18.96671,42.19181],[18.9602,42.19567],[18.95156,42.1959],[18.94941,42.20087],[18.92807,42.20716],[18.9241,42.21235],[18.90729,42.21948],[18.90266,42.23429],[18.89704,42.23701],[18.89892,42.24269],[18.89598,42.25341],[18.89226,42.25617],[18.892,42.269],[18.88227,42.27575],[18.88145,42.27958],[18.86897,42.28076],[18.85837,42.27736],[18.85432,42.28472],[18.84672,42.28471],[18.82669,42.27394],[18.81078,42.28428],[18.80019,42.28087],[18.80334,42.27477],[18.78669,42.28126],[18.78676,42.26958],[18.77646,42.26771],[18.75054,42.2871],[18.73545,42.30297],[18.72957,42.30311],[18.73309,42.30626],[18.72385,42.30839],[18.70687,42.3237],[18.71397,42.32821],[18.70773,42.33322],[18.70838,42.33913],[18.68708,42.3541],[18.68745,42.35822],[18.70538,42.35524],[18.69573,42.36814],[18.68763,42.37208],[18.6906,42.37612],[18.68312,42.38174],[18.68436,42.38562],[18.67546,42.383],[18.66321,42.3866],[18.65296,42.38293],[18.65166,42.37597],[18.65747,42.37327],[18.65195,42.36828],[18.65404,42.36319],[18.64608,42.36328],[18.64343,42.36938],[18.63922,42.37071],[18.63198,42.37005],[18.63338,42.36507],[18.62951,42.36204],[18.61986,42.36556],[18.60761,42.36454],[18.60918,42.36893],[18.60155,42.36941],[18.59233,42.37499],[18.59094,42.37984],[18.58449,42.38099],[18.58295,42.38506],[18.57423,42.38668],[18.57298,42.39217],[18.5791,42.39499],[18.57716,42.40047],[18.55828,42.40507],[18.55589,42.40861],[18.55765,42.41237],[18.54795,42.41255],[18.54686,42.42267],[18.5558,42.42889],[18.57699,42.43178],[18.65199,42.40896],[18.69029,42.40332],[18.69959,42.39516],[18.70928,42.39211],[18.71268,42.41622],[18.6927,42.43211],[18.68648,42.4411],[18.68112,42.45947],[18.68557,42.46585],[18.68598,42.47343],[18.68965,42.47735],[18.73393,42.46566],[18.75429,42.44886],[18.75203,42.4442],[18.76165,42.42232],[18.77082,42.42249],[18.76147,42.44182],[18.76512,42.44651],[18.76551,42.45499],[18.76266,42.46674],[18.7634,42.48985],[18.75266,42.48964],[18.73415,42.4835],[18.70047,42.48488],[18.69139,42.49124],[18.69239,42.50641],[18.69591,42.50981],[18.69382,42.5149],[18.6868,42.51694],[18.67683,42.50532],[18.66784,42.5045],[18.65157,42.49428],[18.6495,42.48936],[18.66712,42.48652],[18.68665,42.47883],[18.67307,42.46623],[18.6746,42.45941],[18.6627,42.45614],[18.65606,42.44844],[18.64737,42.44903],[18.63174,42.44075],[18.59704,42.4331],[18.56401,42.45396],[18.55068,42.44918],[18.53613,42.449],[18.51565,42.45869],[18.50502,42.4514],[18.50487,42.44653],[18.51708,42.4355],[18.51814,42.43077],[18.5278,42.42726],[18.52986,42.42333],[18.52366,42.42037],[18.496,42.43943],[18.47449,42.46362],[18.43356,42.48391],[18.43822,42.48813],[18.44068,42.50207],[18.44649,42.51054],[18.4367,42.51944],[18.4387,42.5556],[18.44304,42.55644],[18.44289,42.56078],[18.45883,42.56501],[18.47244,42.56379],[18.47484,42.5695],[18.48482,42.57357],[18.49934,42.58815],[18.52776,42.58359],[18.5315,42.57867],[18.54334,42.57372],[18.55432,42.58073],[18.55068,42.59153],[18.53337,42.60363],[18.53093,42.61066],[18.52008,42.61837],[18.52798,42.63063],[18.53725,42.63674],[18.56498,42.64346],[18.57477,42.64272],[18.5641,42.66125],[18.54865,42.6719],[18.55072,42.67614],[18.54631,42.68893],[18.54818,42.69208],[18.55179,42.69034],[18.55504,42.69864],[18.56129,42.7025],[18.5609,42.70992],[18.56977,42.71967],[18.52844,42.72393],[18.51407,42.73518],[18.49624,42.73729],[18.49822,42.7427],[18.49216,42.74778],[18.47401,42.75375],[18.46813,42.76309],[18.46686,42.78198],[18.46046,42.78823],[18.45972,42.79208],[18.4628,42.79448],[18.45591,42.80389],[18.45696,42.81179],[18.44812,42.8154],[18.47554,42.82896],[18.46539,42.8387],[18.4693,42.85464],[18.47667,42.86207],[18.48474,42.85942],[18.4936,42.86537],[18.48875,42.88018],[18.50913,42.88679],[18.49485,42.91499],[18.48252,42.92853],[18.48606,42.93878],[18.48595,42.96376],[18.49819,42.99587],[18.50912,43],[18.51885,43.02002],[18.53619,43.03339],[18.59183,43.03287],[18.61357,43.02916],[18.66065,43.0374],[18.65608,43.10209],[18.64836,43.14705],[18.66763,43.20389],[18.68215,43.21046],[18.68732,43.22147],[18.71683,43.23194],[18.70589,43.23508],[18.68792,43.25475],[18.73301,43.28101],[18.78855,43.30396],[18.80623,43.30737],[18.81952,43.31483],[18.82905,43.31418],[18.8372,43.32012],[18.85182,43.32399],[18.84914,43.33675],[18.83903,43.34414],[18.83981,43.34854],[18.87831,43.35649],[18.89825,43.35462],[18.91008,43.36069],[18.92757,43.3499],[18.94194,43.33437],[18.94877,43.33016],[18.95878,43.32983],[18.95989,43.31716],[18.95233,43.3117],[18.94918,43.30114],[18.95382,43.29063],[18.95548,43.28785],[18.98183,43.2807],[18.98724,43.27266],[18.98468,43.26364],[19.00164,43.25236],[19.00852,43.25071],[19.01988,43.2599],[19.0357,43.28948],[19.08019,43.2998],[19.07699,43.30449],[19.08288,43.3195],[19.07489,43.32784],[19.0751,43.33567],[19.06114,43.34466],[19.06108,43.35219],[19.0413,43.36379],[19.03953,43.37541],[19.0346,43.37896],[19.0404,43.38079],[19.04269,43.38564],[19.04052,43.38766],[19.04198,43.39691],[19.03018,43.40051],[19.02057,43.40861],[19.01851,43.4308],[19.00707,43.44284],[19.01102,43.44527],[19.00499,43.44692],[19.00437,43.44231],[18.99858,43.43982],[18.99819,43.44454],[18.99194,43.4482],[18.98844,43.44601],[18.97819,43.45581],[18.96296,43.45107],[18.95612,43.4522],[18.95596,43.45708],[18.96102,43.46099],[18.96167,43.47017],[18.95668,43.4758],[18.95863,43.4879],[18.94937,43.4946],[18.95,43.50373],[18.93642,43.50267],[18.93522,43.49418],[18.92592,43.49118],[18.91701,43.4941],[18.91255,43.50216],[18.92401,43.5048],[18.92587,43.5081],[18.91788,43.50878],[18.9244,43.51466],[18.93544,43.51372],[18.9825,43.5324],[18.97998,43.53586],[18.98101,43.54339],[18.98725,43.54809],[18.98836,43.55537],[18.9977,43.55821],[19.00689,43.55619],[19.01147,43.54285],[19.02362,43.54478],[19.02524,43.53969],[19.03608,43.53251],[19.04353,43.52436],[19.04033,43.52183],[19.04413,43.51318],[19.04215,43.50363],[19.05163,43.5021],[19.06095,43.50498],[19.06523,43.51084],[19.08682,43.5167],[19.09664,43.51311],[19.10313,43.52201],[19.1195,43.51932],[19.12691,43.52127],[19.1533,43.53643],[19.19704,43.53355],[19.22429,43.52746],[19.22275,43.5235],[19.22757,43.51253],[19.22244,43.50315],[19.2256,43.49552],[19.22222,43.49251],[19.22615,43.48697],[19.22144,43.48318],[19.22372,43.48122],[19.24835,43.46813],[19.25343,43.46139],[19.27638,43.45432],[19.28817,43.4458],[19.3116,43.43997],[19.32185,43.44133],[19.33428,43.43661],[19.34919,43.41625],[19.35938,43.41154],[19.38565,43.41163],[19.39269,43.40174],[19.41209,43.39268],[19.43935,43.39179],[19.44849,43.38812],[19.45053,43.3673],[19.45748,43.36503],[19.46207,43.35786],[19.46104,43.34485],[19.48195,43.33358],[19.48524,43.32757],[19.52137,43.32095],[19.53544,43.30825],[19.53765,43.30423],[19.52744,43.28501],[19.52725,43.27932],[19.52954,43.27309],[19.54239,43.26135],[19.54632,43.24667],[19.56189,43.24194],[19.59076,43.23941],[19.61835,43.23053],[19.6192,43.2258],[19.6263,43.22217],[19.63859,43.20715],[19.63785,43.19527],[19.64076,43.18885],[19.6714,43.18351],[19.67878,43.17887],[19.68488,43.16799],[19.7337,43.17126],[19.7409,43.15905],[19.76927,43.16566],[19.77875,43.15812],[19.78056,43.15216],[19.78049,43.14118],[19.77684,43.13778],[19.78131,43.13758],[19.79109,43.12348],[19.80738,43.12099],[19.80673,43.11735],[19.83698,43.11578],[19.84034,43.11196],[19.83308,43.10729],[19.83629,43.09999],[19.8338,43.09613],[19.83867,43.09405],[19.86131,43.11033],[19.87015,43.11311],[19.87744,43.1101],[19.88755,43.09738],[19.90265,43.09927],[19.90657,43.09113],[19.91549,43.08676],[19.92197,43.09593],[19.9301,43.09604],[19.95998,43.10995],[19.96941,43.11139],[19.97352,43.10368],[19.96744,43.0872],[19.99211,43.0518],[20.02867,43.03734],[20.0475,43.02637],[20.05637,43.01765],[20.05416,43.00945],[20.06395,43.00682],[20.06755,42.99952],[20.07381,42.99646],[20.07847,42.99722],[20.08262,42.99351],[20.08672,42.99558],[20.08721,42.99235],[20.10016,42.98363],[20.10287,42.97447],[20.12171,42.96374],[20.13108,42.96905],[20.14738,42.98901],[20.15103,42.98805],[20.15236,42.97525],[20.17385,42.97235],[20.18868,42.96021],[20.20116,42.95735],[20.20758,42.95923],[20.22922,42.94415],[20.25158,42.94017],[20.2691,42.93237],[20.27782,42.93449],[20.28365,42.93163],[20.28196,42.92899],[20.28459,42.92701],[20.29943,42.92175],[20.31126,42.92339],[20.3104,42.91736],[20.3292,42.91372],[20.33655,42.90766],[20.34636,42.90851],[20.34989,42.89632],[20.34538,42.88969],[20.34589,42.87646],[20.34206,42.86935],[20.34895,42.85493],[20.34804,42.84637],[20.35293,42.83344],[20.33526,42.83589],[20.32105,42.82759],[20.31654,42.8292],[20.31565,42.83599],[20.29801,42.8362],[20.29184,42.82529],[20.28113,42.83068],[20.27368,42.81993],[20.25495,42.81437],[20.25358,42.80869],[20.26277,42.80417],[20.26635,42.77936],[20.25332,42.7672],[20.25044,42.75917],[20.23677,42.75685],[20.23432,42.75275],[20.22168,42.7526],[20.21276,42.74631],[20.20157,42.7504],[20.18971,42.74638],[20.18275,42.75362],[20.17376,42.75549],[20.15499,42.76841],[20.14888,42.76335],[20.1469,42.75458],[20.11487,42.76393],[20.098,42.77675],[20.06909,42.77506],[20.06119,42.7791],[20.04361,42.7746],[20.03336,42.76897],[20.03288,42.76518],[20.02448,42.76508],[20.02364,42.75293],[20.01428,42.74074],[20.01492,42.72834],[20.03208,42.71975],[20.0165,42.71252],[20.01592,42.7098],[20.03371,42.71143],[20.03323,42.69743],[20.04629,42.69455],[20.05421,42.68482],[20.06348,42.68492],[20.06827,42.68029],[20.08339,42.68004],[20.08857,42.66872],[20.11195,42.65544],[20.10877,42.64782],[20.09654,42.64249],[20.0877,42.62895],[20.07518,42.62034],[20.0731,42.60823],[20.07506,42.60174],[20.08637,42.58742],[20.08797,42.57921],[20.08801,42.57371],[20.07842,42.55594],[20.0569,42.55957],[20.0502,42.55029],[20.0262,42.54347],[20.01748,42.54409],[20.01351,42.53707],[20.01597,42.53069],[20.00299,42.50843],[19.98195,42.5135],[19.9663,42.51007],[19.95195,42.51153],[19.94304,42.51835],[19.91847,42.50851],[19.90602,42.5075],[19.89901,42.48509],[19.89454,42.48554],[19.88548,42.49427],[19.87603,42.49532],[19.87238,42.4853],[19.8647,42.48126],[19.85413,42.48478],[19.84915,42.47774],[19.83713,42.47933],[19.83947,42.47388],[19.8313,42.46635],[19.80731,42.47332],[19.79268,42.48135],[19.78077,42.49671],[19.76655,42.50162],[19.76134,42.50855],[19.75858,42.52305],[19.74358,42.54489],[19.74965,42.55089],[19.74865,42.55671],[19.75438,42.56498],[19.74805,42.57239],[19.74869,42.57582],[19.75311,42.57699],[19.75154,42.58144],[19.77487,42.58215],[19.77431,42.5928],[19.77061,42.59647]]],[[[19.3685,41.84683],[19.33765,41.86487],[19.34528,41.86896],[19.37262,41.8741],[19.37164,41.85176],[19.3685,41.84683]]],[[[19.33201,42.24583],[19.31494,42.2511],[19.31487,42.25366],[19.32947,42.25695],[19.33201,42.24583]]],[[[19.31478,42.24403],[19.29854,42.24444],[19.30253,42.25014],[19.31435,42.24724],[19.31478,42.24403]]],[[[19.3122,42.25003],[19.30797,42.2533],[19.31316,42.25312],[19.3122,42.25003]]],[[[19.25789,42.13962],[19.25339,42.14032],[19.25467,42.14393],[19.25789,42.13962]]],[[[19.23002,42.16229],[19.22666,42.16506],[19.23093,42.16667],[19.23002,42.16229]]],[[[18.85763,42.25835],[18.84579,42.27122],[18.85636,42.26526],[18.85763,42.25835]]],[[[18.70123,42.40726],[18.68833,42.40969],[18.68511,42.41245],[18.70123,42.40726]]]]}}]}