{"type":"FeatureCollection","features":[{"type":"Feature","properties":{"ISO_A3":"MRT","WB_A3":"MRT","WB_NAME":"Mauritania","WB_REGION":"AFW,SSF"},"geometry":{"type":"MultiPolygon","coordinates":[[[[-13.66764,21.33397],[-13.00083,21.33402],[-13.02873,22.01326],[-13.07928,22.52085],[-13.15027,22.76028],[-13.10961,22.86868],[-13.10806,22.93529],[-13.01487,23.01074],[-12.582,23.2717],[-12.36568,23.3168],[-12.14206,23.41954],[-12.00086,23.45222],[-12.00086,26.00058],[-8.66761,26.00058],[-8.66763,27.31581],[-7.75061,26.77308],[-6.66714,26.12284],[-5.7923,25.59068],[-4.83418,25.0007],[-5.70309,25.00339],[-6.572,25.001],[-6.45668,23.97178],[-6.35873,23.20118],[-6.33469,22.96361],[-6.09649,20.9017],[-5.90762,19.18677],[-5.77147,17.99998],[-5.60903,16.50015],[-5.33333,16.33333],[-5.5,15.5],[-9.33125,15.50161],[-9.3317,15.5655],[-9.30958,15.69353],[-9.33103,15.70279],[-9.44685,15.6057],[-9.40102,15.43884],[-9.68384,15.42714],[-9.69181,15.42212],[-9.69088,15.41853],[-9.70548,15.41714],[-9.71295,15.40713],[-9.71982,15.40431],[-9.7281,15.4086],[-9.73228,15.40561],[-9.73646,15.40971],[-9.74563,15.41123],[-9.74848,15.41883],[-9.76866,15.41212],[-9.78009,15.41565],[-9.79464,15.40343],[-9.79781,15.39837],[-9.79557,15.39037],[-9.79886,15.38864],[-9.80796,15.39202],[-9.82989,15.38939],[-9.89533,15.39866],[-9.90323,15.39685],[-9.92273,15.39947],[-9.92793,15.3902],[-9.97183,15.38435],[-9.99151,15.37183],[-10.00752,15.37366],[-10.06525,15.35943],[-10.08034,15.36739],[-10.10156,15.36829],[-10.10656,15.37175],[-10.12194,15.37205],[-10.14049,15.3781],[-10.15145,15.39075],[-10.15967,15.39254],[-10.16712,15.40048],[-10.17826,15.3939],[-10.17986,15.39811],[-10.18229,15.39592],[-10.18651,15.40103],[-10.19284,15.40172],[-10.20176,15.41221],[-10.20432,15.41057],[-10.20937,15.41504],[-10.21613,15.41685],[-10.22806,15.41312],[-10.24035,15.42092],[-10.24775,15.41782],[-10.26071,15.42377],[-10.27255,15.42256],[-10.27516,15.43128],[-10.28181,15.43109],[-10.29122,15.43833],[-10.3057,15.43544],[-10.31669,15.42921],[-10.33595,15.43314],[-10.34904,15.44143],[-10.36791,15.43589],[-10.38652,15.44268],[-10.41813,15.43293],[-10.42841,15.43466],[-10.43674,15.44477],[-10.46319,15.43974],[-10.47299,15.45439],[-10.49143,15.45583],[-10.50875,15.44593],[-10.51859,15.45018],[-10.52645,15.44386],[-10.53285,15.44504],[-10.53683,15.44043],[-10.54536,15.43936],[-10.55073,15.44304],[-10.55743,15.43514],[-10.56255,15.43698],[-10.56697,15.43182],[-10.5776,15.42937],[-10.58187,15.43421],[-10.58963,15.42501],[-10.61139,15.41713],[-10.61614,15.42231],[-10.62199,15.42243],[-10.63692,15.4168],[-10.65242,15.40321],[-10.65738,15.40254],[-10.66458,15.40578],[-10.66874,15.42444],[-10.68144,15.43378],[-10.71959,15.44213],[-10.72768,15.43022],[-10.7223,15.40959],[-10.72064,15.38603],[-10.71435,15.36882],[-10.7185,15.36699],[-10.72258,15.35536],[-10.73727,15.33462],[-10.74099,15.33233],[-10.75555,15.336],[-10.76444,15.32563],[-10.77326,15.32312],[-10.7781,15.30553],[-10.79556,15.30877],[-10.80693,15.29128],[-10.82231,15.2852],[-10.8232,15.27799],[-10.82902,15.27034],[-10.82171,15.24696],[-10.82897,15.23403],[-10.83278,15.21501],[-10.84492,15.20905],[-10.85328,15.20896],[-10.86802,15.19751],[-10.88002,15.14227],[-10.87889,15.12666],[-10.88213,15.12067],[-10.89002,15.11978],[-10.89138,15.11486],[-10.90022,15.10979],[-10.91065,15.1159],[-10.91165,15.12657],[-10.92035,15.13175],[-10.92077,15.13923],[-10.92591,15.14519],[-10.94121,15.15242],[-10.94438,15.15701],[-10.95253,15.15737],[-10.96673,15.17683],[-10.96765,15.18622],[-10.97118,15.18681],[-10.97403,15.19472],[-10.982,15.20133],[-10.98295,15.21398],[-10.98966,15.2208],[-10.99299,15.23177],[-11.03684,15.25722],[-11.05923,15.28517],[-11.07001,15.29089],[-11.14149,15.35169],[-11.18996,15.38152],[-11.20204,15.39727],[-11.25173,15.41934],[-11.26493,15.44019],[-11.29842,15.47069],[-11.32137,15.50451],[-11.32969,15.50706],[-11.34943,15.5298],[-11.35919,15.53323],[-11.35997,15.55941],[-11.3898,15.60144],[-11.40189,15.61197],[-11.41087,15.63682],[-11.42229,15.6377],[-11.43233,15.64332],[-11.43383,15.64036],[-11.45135,15.64336],[-11.46577,15.63815],[-11.49227,15.64169],[-11.51529,15.64075],[-11.51669,15.63875],[-11.50325,15.63327],[-11.49249,15.61441],[-11.50952,15.60538],[-11.51684,15.59329],[-11.53436,15.59817],[-11.54057,15.59262],[-11.54667,15.5934],[-11.55233,15.58408],[-11.56042,15.58331],[-11.56397,15.57909],[-11.57096,15.5619],[-11.58099,15.54998],[-11.60256,15.5415],[-11.60855,15.53651],[-11.6057,15.53396],[-11.60955,15.53087],[-11.62821,15.52228],[-11.64259,15.5215],[-11.64592,15.53101],[-11.65271,15.53165],[-11.65785,15.52689],[-11.66284,15.5303],[-11.6605,15.53441],[-11.66754,15.53795],[-11.67387,15.53456],[-11.6992,15.53834],[-11.70902,15.53614],[-11.70902,15.51759],[-11.70308,15.48994],[-11.73225,15.47285],[-11.7391,15.4612],[-11.74416,15.43921],[-11.74137,15.42214],[-11.74942,15.40637],[-11.75198,15.39206],[-11.74992,15.38843],[-11.75913,15.36419],[-11.7612,15.34553],[-11.77182,15.33144],[-11.79183,15.31772],[-11.7885,15.31467],[-11.78826,15.29617],[-11.80592,15.27815],[-11.80739,15.26598],[-11.7975,15.23545],[-11.80016,15.22601],[-11.81468,15.19987],[-11.8345,15.18448],[-11.83409,15.169],[-11.82879,15.15539],[-11.81439,15.14971],[-11.80707,15.13751],[-11.81054,15.13524],[-11.81083,15.12816],[-11.82792,15.11524],[-11.83325,15.10147],[-11.83696,15.1054],[-11.84478,15.09259],[-11.84285,15.08447],[-11.83044,15.08286],[-11.8269,15.07139],[-11.82697,15.06542],[-11.83959,15.0525],[-11.8409,15.04141],[-11.82652,15.03611],[-11.82163,15.04366],[-11.80801,15.04947],[-11.79883,15.04522],[-11.78773,15.03095],[-11.78833,15.01928],[-11.79845,14.99725],[-11.79449,14.97189],[-11.80343,14.96234],[-11.80774,14.96159],[-11.81602,14.94127],[-11.81552,14.92907],[-11.79691,14.90601],[-11.79969,14.89434],[-11.80684,14.89143],[-11.81212,14.89471],[-11.8183,14.88993],[-11.82448,14.89448],[-11.82253,14.88879],[-11.82843,14.87451],[-11.82535,14.86796],[-11.83202,14.85544],[-11.85246,14.85189],[-11.85296,14.85443],[-11.85955,14.8551],[-11.89638,14.82235],[-11.91133,14.82607],[-11.93255,14.81761],[-11.93578,14.81235],[-11.93493,14.78544],[-11.94089,14.77788],[-11.97153,14.76575],[-11.99336,14.7622],[-11.9997,14.76757],[-12.00412,14.76767],[-12.00985,14.76153],[-12.01456,14.76541],[-12.02442,14.7633],[-12.04282,14.76808],[-12.04755,14.76279],[-12.04365,14.73411],[-12.05659,14.72127],[-12.07693,14.72834],[-12.10365,14.74307],[-12.11741,14.75321],[-12.12328,14.76978],[-12.13288,14.77633],[-12.15301,14.77426],[-12.17124,14.76132],[-12.22334,14.76003],[-12.2608,14.77119],[-12.2767,14.77151],[-12.32616,14.82709],[-12.33611,14.83123],[-12.35469,14.82984],[-12.39418,14.84489],[-12.41344,14.85906],[-12.43477,14.8816],[-12.45252,14.89308],[-12.44839,14.91233],[-12.45517,14.9327],[-12.46024,14.98074],[-12.47093,14.99662],[-12.49058,15.01486],[-12.55104,15.03287],[-12.59336,15.06574],[-12.60695,15.08491],[-12.64818,15.1011],[-12.66147,15.10938],[-12.66777,15.11069],[-12.68063,15.10704],[-12.68506,15.10315],[-12.68865,15.08826],[-12.69413,15.08654],[-12.69982,15.09808],[-12.72903,15.11091],[-12.74762,15.13371],[-12.79074,15.15392],[-12.79414,15.16056],[-12.79304,15.1694],[-12.78516,15.19081],[-12.79062,15.20575],[-12.8039,15.2161],[-12.82511,15.21402],[-12.84439,15.19981],[-12.85278,15.20312],[-12.85537,15.21527],[-12.86297,15.22758],[-12.87528,15.23651],[-12.89232,15.24343],[-12.89935,15.2579],[-12.89607,15.26594],[-12.87976,15.26829],[-12.8606,15.25474],[-12.8496,15.25346],[-12.83534,15.27155],[-12.83242,15.28374],[-12.84445,15.31012],[-12.85343,15.31879],[-12.89065,15.33851],[-12.92443,15.3382],[-12.93128,15.34219],[-12.94581,15.36185],[-12.94723,15.41578],[-12.93996,15.42556],[-12.92766,15.43207],[-12.92371,15.44147],[-12.92963,15.44745],[-12.95451,15.44167],[-12.95996,15.44479],[-12.96277,15.45504],[-12.95815,15.47305],[-12.96392,15.50203],[-13.00718,15.49383],[-13.01952,15.48139],[-13.02524,15.47953],[-13.05342,15.47966],[-13.09725,15.49624],[-13.10182,15.49987],[-13.10139,15.51475],[-13.09732,15.52842],[-13.085,15.54751],[-13.08696,15.56454],[-13.09349,15.57294],[-13.08667,15.57719],[-13.08837,15.58397],[-13.14099,15.60408],[-13.18744,15.62755],[-13.20121,15.62442],[-13.21496,15.61116],[-13.21985,15.60976],[-13.22775,15.61304],[-13.23617,15.63455],[-13.24941,15.65436],[-13.25078,15.66884],[-13.2493,15.67483],[-13.24376,15.6777],[-13.23004,15.67161],[-13.2195,15.67329],[-13.20818,15.68876],[-13.20738,15.69706],[-13.28535,15.76374],[-13.28924,15.77551],[-13.28672,15.78456],[-13.27889,15.78606],[-13.26929,15.78241],[-13.26432,15.78552],[-13.2643,15.7897],[-13.28915,15.81296],[-13.29604,15.82493],[-13.29985,15.84393],[-13.29653,15.85525],[-13.29849,15.86886],[-13.32533,15.89175],[-13.32577,15.90043],[-13.31077,15.91885],[-13.31244,15.92587],[-13.31694,15.93023],[-13.32887,15.93118],[-13.33991,15.93784],[-13.35407,15.95427],[-13.36247,15.97057],[-13.3616,15.99663],[-13.37327,16.01168],[-13.37654,16.02314],[-13.37251,16.04736],[-13.37549,16.05837],[-13.44453,16.08589],[-13.45196,16.09702],[-13.45394,16.10637],[-13.45812,16.10959],[-13.47156,16.10565],[-13.48528,16.08434],[-13.49423,16.07934],[-13.49778,16.08037],[-13.50859,16.09084],[-13.51391,16.10313],[-13.51154,16.11053],[-13.50255,16.12014],[-13.47426,16.13155],[-13.47964,16.14525],[-13.48562,16.14861],[-13.49029,16.14898],[-13.49391,16.14253],[-13.51423,16.13041],[-13.53221,16.12902],[-13.56519,16.13683],[-13.58088,16.13322],[-13.63298,16.10853],[-13.65994,16.11064],[-13.67631,16.09703],[-13.68152,16.09608],[-13.70498,16.11613],[-13.71749,16.13821],[-13.71875,16.14531],[-13.70482,16.15839],[-13.70078,16.16999],[-13.70379,16.17981],[-13.71514,16.1831],[-13.72081,16.18168],[-13.7328,16.17022],[-13.74202,16.15549],[-13.75157,16.14911],[-13.77392,16.14251],[-13.79752,16.14429],[-13.82589,16.13],[-13.84343,16.10853],[-13.84876,16.10806],[-13.85421,16.1264],[-13.86562,16.13084],[-13.86716,16.13976],[-13.87742,16.15815],[-13.87514,16.17029],[-13.86742,16.18062],[-13.86921,16.19004],[-13.88065,16.19932],[-13.89995,16.19282],[-13.90998,16.19551],[-13.91659,16.20349],[-13.91842,16.22904],[-13.92185,16.2309],[-13.92821,16.22824],[-13.9426,16.23562],[-13.97347,16.22361],[-13.96906,16.24872],[-13.95095,16.2693],[-13.95933,16.2759],[-13.98777,16.27706],[-13.99009,16.30434],[-13.98711,16.30812],[-13.97643,16.3103],[-13.96282,16.30572],[-13.95778,16.30784],[-13.9568,16.31594],[-13.96581,16.33118],[-13.99628,16.34749],[-14.01414,16.35044],[-14.02872,16.34916],[-14.03905,16.37072],[-14.06175,16.39341],[-14.07083,16.40716],[-14.10378,16.42613],[-14.11121,16.44276],[-14.1185,16.44859],[-14.13833,16.45489],[-14.13893,16.46707],[-14.13192,16.47676],[-14.13771,16.47859],[-14.14306,16.47293],[-14.15139,16.47266],[-14.1674,16.49438],[-14.19999,16.51017],[-14.2038,16.51838],[-14.19829,16.52841],[-14.20048,16.53266],[-14.2212,16.54508],[-14.24796,16.54623],[-14.25665,16.53586],[-14.25859,16.52837],[-14.25366,16.51599],[-14.25594,16.51421],[-14.27487,16.55088],[-14.27471,16.55733],[-14.26633,16.57489],[-14.27656,16.58428],[-14.28572,16.5864],[-14.29733,16.57263],[-14.31461,16.57112],[-14.32567,16.56564],[-14.33062,16.56778],[-14.33356,16.579],[-14.3266,16.6012],[-14.32608,16.62611],[-14.32844,16.63802],[-14.33599,16.64273],[-14.36766,16.63425],[-14.38175,16.638],[-14.40337,16.63324],[-14.41159,16.6387],[-14.41491,16.65136],[-14.42213,16.65276],[-14.43695,16.64143],[-14.44747,16.62452],[-14.47524,16.62714],[-14.48635,16.61819],[-14.49788,16.61438],[-14.51344,16.62458],[-14.5281,16.62921],[-14.54347,16.64416],[-14.54827,16.64333],[-14.5502,16.6394],[-14.55616,16.61766],[-14.57318,16.62476],[-14.58374,16.62074],[-14.59421,16.62468],[-14.60322,16.61796],[-14.61036,16.62754],[-14.62312,16.62958],[-14.63043,16.62758],[-14.63772,16.6176],[-14.6517,16.63008],[-14.64969,16.633],[-14.64219,16.63351],[-14.63901,16.6385],[-14.64068,16.64738],[-14.64606,16.65057],[-14.69099,16.64573],[-14.71066,16.63908],[-14.71558,16.6392],[-14.72438,16.64716],[-14.72857,16.64523],[-14.72892,16.63241],[-14.73812,16.6317],[-14.73394,16.62042],[-14.73863,16.61916],[-14.75287,16.62873],[-14.75189,16.64442],[-14.76604,16.65646],[-14.77243,16.6534],[-14.78894,16.62924],[-14.81131,16.65361],[-14.81584,16.6542],[-14.82123,16.65061],[-14.82271,16.64105],[-14.82737,16.63484],[-14.84086,16.64045],[-14.86188,16.63741],[-14.87208,16.65726],[-14.87775,16.66081],[-14.88678,16.65696],[-14.89559,16.63203],[-14.89974,16.6302],[-14.9068,16.63319],[-14.91109,16.63783],[-14.91041,16.64756],[-14.91433,16.64943],[-14.93602,16.63146],[-14.94412,16.63427],[-14.95263,16.64729],[-14.95411,16.65339],[-14.94944,16.66992],[-14.95136,16.67653],[-14.98544,16.69274],[-14.99626,16.68425],[-14.9989,16.65269],[-15.00562,16.64153],[-15.037,16.63091],[-15.04577,16.63357],[-15.05296,16.62837],[-15.06416,16.64461],[-15.06955,16.66305],[-15.07727,16.67372],[-15.09315,16.67872],[-15.10054,16.6759],[-15.11696,16.65714],[-15.12109,16.64142],[-15.11616,16.63329],[-15.09085,16.62713],[-15.08448,16.6166],[-15.08449,16.60828],[-15.08911,16.60112],[-15.12008,16.57908],[-15.14073,16.58148],[-15.16816,16.59133],[-15.17555,16.58685],[-15.17996,16.5783],[-15.20165,16.5705],[-15.22508,16.55485],[-15.23276,16.55349],[-15.24502,16.55824],[-15.2577,16.56989],[-15.27358,16.56863],[-15.30787,16.57546],[-15.32055,16.57156],[-15.3396,16.55957],[-15.35782,16.56043],[-15.38354,16.54233],[-15.40445,16.5363],[-15.42634,16.54391],[-15.44007,16.57942],[-15.45445,16.59005],[-15.46593,16.59226],[-15.47453,16.58971],[-15.4807,16.58166],[-15.50729,16.56976],[-15.51552,16.56208],[-15.5193,16.54819],[-15.50849,16.53304],[-15.50849,16.52777],[-15.51398,16.52315],[-15.53878,16.51464],[-15.56084,16.51155],[-15.57486,16.51447],[-15.59844,16.52848],[-15.6244,16.52572],[-15.63052,16.51999],[-15.62645,16.49952],[-15.62971,16.49184],[-15.6547,16.4829],[-15.68871,16.47959],[-15.69881,16.4715],[-15.70875,16.47386],[-15.73298,16.48985],[-15.77982,16.49526],[-15.81705,16.50906],[-15.83598,16.50428],[-15.85925,16.49191],[-15.86398,16.51182],[-15.88703,16.51738],[-15.916,16.51314],[-15.93346,16.50483],[-15.94777,16.4921],[-15.96316,16.48563],[-15.96981,16.48523],[-15.9886,16.49972],[-16.00266,16.50301],[-16.01337,16.49877],[-16.03572,16.48119],[-16.05088,16.47814],[-16.05943,16.4827],[-16.07484,16.50578],[-16.10123,16.52337],[-16.10171,16.53125],[-16.09789,16.53745],[-16.10225,16.5481],[-16.10905,16.5547],[-16.11609,16.55629],[-16.15084,16.55059],[-16.17593,16.52635],[-16.19203,16.5169],[-16.21479,16.51547],[-16.23463,16.52534],[-16.25928,16.52605],[-16.27142,16.52086],[-16.2849,16.50823],[-16.28733,16.47573],[-16.29858,16.4715],[-16.30739,16.45974],[-16.31057,16.41319],[-16.318,16.4052],[-16.32969,16.40313],[-16.33317,16.39772],[-16.33478,16.37015],[-16.33207,16.35855],[-16.33451,16.34823],[-16.34193,16.3379],[-16.35723,16.33157],[-16.36859,16.31166],[-16.36932,16.29944],[-16.35605,16.2815],[-16.35483,16.27177],[-16.36712,16.25861],[-16.37587,16.23275],[-16.39063,16.21673],[-16.40428,16.21409],[-16.41479,16.22031],[-16.41583,16.23478],[-16.427,16.23072],[-16.43334,16.2232],[-16.44056,16.2256],[-16.44286,16.22996],[-16.44091,16.23745],[-16.43386,16.2393],[-16.42288,16.25174],[-16.41521,16.27883],[-16.40809,16.29021],[-16.4179,16.28191],[-16.41959,16.2752],[-16.42891,16.27333],[-16.41927,16.26825],[-16.42643,16.2633],[-16.43097,16.26443],[-16.43883,16.24416],[-16.44532,16.23922],[-16.43654,16.2604],[-16.42886,16.26664],[-16.42997,16.27332],[-16.41636,16.30896],[-16.40999,16.31351],[-16.39743,16.3096],[-16.39835,16.34566],[-16.40256,16.3558],[-16.40977,16.35666],[-16.41879,16.36793],[-16.42211,16.38517],[-16.43625,16.40233],[-16.43416,16.40891],[-16.44829,16.40765],[-16.45487,16.39512],[-16.46045,16.39212],[-16.46407,16.37586],[-16.45873,16.37538],[-16.46405,16.3738],[-16.46562,16.36967],[-16.46145,16.36455],[-16.46496,16.35229],[-16.45562,16.35171],[-16.45047,16.35896],[-16.45402,16.33395],[-16.45229,16.3167],[-16.47099,16.30266],[-16.48529,16.27114],[-16.48411,16.25595],[-16.48882,16.24407],[-16.48822,16.2348],[-16.50356,16.21924],[-16.50982,16.16588],[-16.5085,16.06133],[-16.51146,16.1365],[-16.50983,16.2022],[-16.51949,16.2794],[-16.51004,16.31707],[-16.46966,16.4276],[-16.45579,16.48178],[-16.45079,16.50963],[-16.44653,16.58281],[-16.43974,16.62227],[-16.33423,16.89188],[-16.23153,17.12331],[-16.1361,17.35363],[-16.09499,17.47595],[-16.07228,17.56262],[-16.06053,17.61884],[-16.04708,17.70932],[-16.03508,17.91209],[-16.02201,17.97784],[-16.02327,17.98672],[-16.02632,17.98641],[-16.02788,17.99288],[-16.03299,17.99298],[-16.02526,18.02779],[-16.03029,18.15217],[-16.02881,18.17613],[-16.03713,18.21549],[-16.03942,18.28322],[-16.0463,18.30585],[-16.04941,18.33055],[-16.05185,18.4212],[-16.05972,18.47293],[-16.08748,18.55235],[-16.09524,18.58321],[-16.1042,18.59114],[-16.1327,18.65253],[-16.15152,18.758],[-16.15372,18.76443],[-16.15901,18.76749],[-16.15922,18.77779],[-16.16441,18.786],[-16.16656,18.82333],[-16.1879,18.93419],[-16.2379,19.03558],[-16.2528,19.07231],[-16.28154,19.11151],[-16.30918,19.14608],[-16.35357,19.1907],[-16.41731,19.22755],[-16.44941,19.24082],[-16.46606,19.25305],[-16.47168,19.2597],[-16.47865,19.28076],[-16.49459,19.30483],[-16.51047,19.35002],[-16.52399,19.36047],[-16.52896,19.36931],[-16.52816,19.37163],[-16.51862,19.36605],[-16.51102,19.3665],[-16.50594,19.35984],[-16.5064,19.36525],[-16.51005,19.36796],[-16.50562,19.36912],[-16.49934,19.36466],[-16.44437,19.37644],[-16.43142,19.38504],[-16.39925,19.39855],[-16.37769,19.41661],[-16.35068,19.43265],[-16.34108,19.45384],[-16.33191,19.46137],[-16.31322,19.46601],[-16.30039,19.47499],[-16.30096,19.47833],[-16.30865,19.47236],[-16.31125,19.4744],[-16.31245,19.48855],[-16.30499,19.50586],[-16.28697,19.5289],[-16.28619,19.53277],[-16.29184,19.5429],[-16.30023,19.53975],[-16.30399,19.53458],[-16.32652,19.53248],[-16.33119,19.5224],[-16.35678,19.51307],[-16.36631,19.50025],[-16.37055,19.48812],[-16.37721,19.48897],[-16.3822,19.48468],[-16.38378,19.47875],[-16.39451,19.46425],[-16.39616,19.46578],[-16.39728,19.47066],[-16.38718,19.4795],[-16.3693,19.51723],[-16.35479,19.53536],[-16.35859,19.53546],[-16.37185,19.52944],[-16.38638,19.51323],[-16.39627,19.49462],[-16.40061,19.49394],[-16.40543,19.48631],[-16.40572,19.47266],[-16.41455,19.45817],[-16.40818,19.44354],[-16.41068,19.43374],[-16.42957,19.42213],[-16.43664,19.42298],[-16.44272,19.40465],[-16.45441,19.40726],[-16.46752,19.41655],[-16.47016,19.42297],[-16.46529,19.44026],[-16.42491,19.50907],[-16.42212,19.53227],[-16.40958,19.5419],[-16.40709,19.55273],[-16.39083,19.57268],[-16.38703,19.58945],[-16.38099,19.59774],[-16.38118,19.60417],[-16.37146,19.61171],[-16.36746,19.62024],[-16.34761,19.63584],[-16.3449,19.65286],[-16.35418,19.65665],[-16.36042,19.65531],[-16.37651,19.63034],[-16.39377,19.61489],[-16.39928,19.59167],[-16.403,19.5986],[-16.38902,19.63115],[-16.37932,19.64049],[-16.35335,19.68807],[-16.33409,19.70907],[-16.32055,19.73273],[-16.29451,19.74039],[-16.28552,19.7393],[-16.28154,19.73443],[-16.28285,19.7285],[-16.29597,19.71965],[-16.30699,19.70335],[-16.27228,19.73192],[-16.27163,19.73579],[-16.27489,19.73628],[-16.27947,19.74784],[-16.26997,19.76748],[-16.25552,19.78071],[-16.25504,19.78818],[-16.25974,19.79742],[-16.24924,19.84693],[-16.25187,19.85206],[-16.25513,19.85217],[-16.26162,19.84697],[-16.26566,19.85789],[-16.25305,19.88115],[-16.25488,19.88912],[-16.25815,19.88974],[-16.26175,19.89706],[-16.271,19.89635],[-16.27678,19.90493],[-16.28504,19.89921],[-16.2932,19.88125],[-16.29861,19.87709],[-16.30597,19.87846],[-16.31152,19.89129],[-16.30622,19.90871],[-16.29164,19.92414],[-16.27727,19.93184],[-16.24291,19.95925],[-16.23035,19.97273],[-16.22367,19.98925],[-16.2236,19.99904],[-16.22977,20.00337],[-16.23122,20.01469],[-16.2303,20.0371],[-16.22383,20.04539],[-16.22105,20.05571],[-16.23784,20.06074],[-16.23504,20.08574],[-16.24038,20.08917],[-16.24718,20.08694],[-16.25517,20.11469],[-16.26382,20.12235],[-16.25925,20.13011],[-16.25676,20.12652],[-16.25214,20.12746],[-16.23722,20.13799],[-16.22412,20.15328],[-16.22573,20.16717],[-16.21404,20.17176],[-16.20931,20.17732],[-16.20074,20.1985],[-16.20418,20.21985],[-16.21994,20.24652],[-16.23162,20.27476],[-16.24167,20.28653],[-16.26508,20.27813],[-16.28273,20.31791],[-16.28867,20.32662],[-16.29768,20.32694],[-16.30484,20.33397],[-16.32103,20.36062],[-16.32936,20.39197],[-16.33992,20.39807],[-16.35883,20.42136],[-16.35996,20.42521],[-16.35371,20.42912],[-16.35254,20.43582],[-16.37118,20.47404],[-16.37953,20.52135],[-16.39931,20.5629],[-16.41005,20.57105],[-16.41148,20.57825],[-16.4222,20.58434],[-16.4275,20.59563],[-16.43079,20.64014],[-16.43501,20.63805],[-16.43804,20.64086],[-16.43877,20.63132],[-16.444,20.63411],[-16.45301,20.64768],[-16.46344,20.65146],[-16.48569,20.67495],[-16.49021,20.68907],[-16.48603,20.72335],[-16.51832,20.7241],[-16.52349,20.73435],[-16.52863,20.7289],[-16.53391,20.68225],[-16.52739,20.6594],[-16.53182,20.61018],[-16.52415,20.58116],[-16.5317,20.55689],[-16.54741,20.56937],[-16.55866,20.57403],[-16.58996,20.59988],[-16.59817,20.61344],[-16.61994,20.62946],[-16.6427,20.66091],[-16.65877,20.66694],[-16.66392,20.67577],[-16.676,20.67926],[-16.67872,20.69017],[-16.66967,20.70133],[-16.66985,20.70493],[-16.67328,20.70619],[-16.66754,20.71911],[-16.66815,20.73674],[-16.69785,20.74971],[-16.70553,20.76354],[-16.71436,20.76963],[-16.71502,20.77992],[-16.72653,20.80529],[-16.73514,20.81601],[-16.74685,20.8222],[-16.75834,20.83354],[-16.75758,20.86186],[-16.76085,20.87238],[-16.75743,20.87268],[-16.75654,20.87886],[-16.75942,20.87909],[-16.76072,20.87316],[-16.76441,20.87209],[-16.76845,20.87848],[-16.77353,20.8913],[-16.77667,20.92525],[-16.78757,20.93119],[-16.79019,20.92138],[-16.80495,20.92959],[-16.81645,20.95212],[-16.81733,20.97965],[-16.82182,20.98836],[-16.82945,20.99574],[-16.8352,20.99491],[-16.83937,21.01082],[-16.84437,21.01669],[-16.86161,21.02525],[-16.86544,21.05687],[-16.87828,21.06471],[-16.8846,21.11947],[-16.88986,21.12327],[-16.89469,21.13686],[-16.90511,21.14678],[-16.90337,21.17177],[-16.91872,21.20184],[-16.92505,21.20344],[-16.92155,21.19833],[-16.9241,21.1938],[-16.93691,21.19739],[-16.92619,21.17486],[-16.93026,21.16104],[-16.92779,21.16042],[-16.93977,21.15385],[-16.94354,21.14815],[-16.93968,21.14665],[-16.93774,21.13483],[-16.94212,21.13349],[-16.94606,21.12058],[-16.94465,21.10669],[-16.96344,21.09695],[-16.97246,21.05296],[-16.97957,21.05095],[-16.9862,21.03452],[-16.99361,21.03444],[-16.99803,21.02679],[-17.00174,21.03756],[-17.00854,21.04417],[-17.02203,21.04826],[-17.02593,21.04268],[-17.02549,21.03033],[-17.02167,21.02162],[-17.01754,21.02],[-17.01878,21.01059],[-17.01247,21.00989],[-17.01353,20.99727],[-17.01013,20.99937],[-17.00906,21.01122],[-17.01825,21.01188],[-17.01749,21.01627],[-17.00354,21.01875],[-17.00227,21.00564],[-17.00659,21.00069],[-17.00574,20.98835],[-17.00914,20.97647],[-17.00587,20.96737],[-17.00846,20.95614],[-17.01372,20.94965],[-17.01186,20.93371],[-17.01572,20.91513],[-17.04258,20.90645],[-17.03593,20.91077],[-17.03611,20.9136],[-17.04075,20.91239],[-17.05024,20.9052],[-17.05726,20.88812],[-17.05309,20.87324],[-17.02722,20.85322],[-17.03291,20.84929],[-17.03418,20.83151],[-17.0443,20.79999],[-17.046,20.78401],[-17.042,20.77196],[-17.04922,20.76943],[-17.06751,20.83341],[-17.06232,20.85495],[-17.06873,20.89532],[-17.05593,20.91959],[-17.03723,20.99007],[-17.03942,21.0346],[-16.99578,21.13282],[-16.99139,21.17072],[-16.94741,21.33425],[-13.66764,21.33397]]],[[[-16.33408,19.79044],[-16.33982,19.79375],[-16.32815,19.79667],[-16.33408,19.79044]]],[[[-16.33889,19.74753],[-16.3449,19.74993],[-16.33623,19.7536],[-16.33889,19.74753]]],[[[-16.34797,19.72725],[-16.34863,19.74141],[-16.34567,19.74504],[-16.33912,19.74199],[-16.3384,19.73762],[-16.34107,19.73091],[-16.34797,19.72725]]],[[[-16.34388,19.85564],[-16.34851,19.85625],[-16.34853,19.85883],[-16.34388,19.85564]]],[[[-16.34811,19.71116],[-16.35263,19.71511],[-16.3509,19.72028],[-16.34548,19.72212],[-16.3441,19.7193],[-16.34811,19.71116]]],[[[-16.4206,19.77664],[-16.41828,19.79108],[-16.42224,19.80753],[-16.42044,19.8199],[-16.41278,19.83013],[-16.39432,19.83491],[-16.39062,19.83224],[-16.39217,19.82219],[-16.38572,19.81657],[-16.37762,19.82333],[-16.37406,19.83675],[-16.36387,19.85408],[-16.36313,19.86258],[-16.35702,19.86507],[-16.35211,19.86369],[-16.35518,19.85646],[-16.34917,19.8529],[-16.35247,19.84103],[-16.34616,19.83593],[-16.35131,19.83254],[-16.35003,19.82663],[-16.35612,19.80676],[-16.35301,19.79313],[-16.36751,19.78658],[-16.3691,19.78194],[-16.36229,19.77993],[-16.36046,19.77325],[-16.36427,19.77322],[-16.36829,19.75079],[-16.36487,19.74798],[-16.36642,19.73844],[-16.3639,19.72945],[-16.37031,19.71652],[-16.37337,19.69204],[-16.38601,19.67572],[-16.38849,19.66437],[-16.3952,19.65492],[-16.4017,19.65191],[-16.41683,19.62578],[-16.41998,19.61391],[-16.43045,19.59915],[-16.43371,19.59913],[-16.43904,19.61737],[-16.44926,19.62076],[-16.44318,19.63974],[-16.44087,19.63975],[-16.44587,19.68297],[-16.4355,19.724],[-16.42718,19.73565],[-16.42284,19.73697],[-16.41697,19.75041],[-16.4206,19.77664]]],[[[-16.36075,19.69548],[-16.35945,19.70219],[-16.35286,19.71022],[-16.35307,19.70249],[-16.36075,19.69548]]],[[[-16.41292,16.34955],[-16.41614,16.35262],[-16.41001,16.35279],[-16.41292,16.34955]]],[[[-16.4191,16.35531],[-16.4215,16.35581],[-16.41886,16.3593],[-16.4191,16.35531]]],[[[-16.43381,16.28785],[-16.43703,16.29053],[-16.4333,16.29107],[-16.43381,16.28785]]],[[[-16.44413,16.38617],[-16.44737,16.39118],[-16.44445,16.39287],[-16.44413,16.38617]]],[[[-16.44678,20.56728],[-16.46214,20.5723],[-16.4747,20.58519],[-16.47648,20.59882],[-16.47105,20.61715],[-16.44892,20.61939],[-16.44769,20.59134],[-16.45033,20.58076],[-16.44678,20.56728]]],[[[-16.45438,16.36408],[-16.45588,16.36871],[-16.44934,16.3685],[-16.45438,16.36408]]],[[[-16.46466,16.09549],[-16.47027,16.09815],[-16.47676,16.11047],[-16.47575,16.11769],[-16.46448,16.10721],[-16.46466,16.09549]]],[[[-16.478,16.16945],[-16.49317,16.1848],[-16.48935,16.18998],[-16.48624,16.18407],[-16.47849,16.19984],[-16.4753,16.20089],[-16.47852,16.18593],[-16.48105,16.18514],[-16.47686,16.17719],[-16.478,16.16945]]],[[[-16.49158,19.67268],[-16.49802,19.67739],[-16.49784,19.68744],[-16.50273,19.70207],[-16.49432,19.7333],[-16.48461,19.74175],[-16.47754,19.74181],[-16.47548,19.73938],[-16.47972,19.72698],[-16.47819,19.70923],[-16.48462,19.69836],[-16.48589,19.68882],[-16.48311,19.6819],[-16.49158,19.67268]]],[[[-16.47759,16.1142],[-16.47921,16.11741],[-16.47655,16.11769],[-16.47759,16.1142]]],[[[-16.47939,16.06976],[-16.48422,16.07449],[-16.47801,16.0811],[-16.47689,16.07364],[-16.47939,16.06976]]],[[[-16.47765,16.15876],[-16.48395,16.16297],[-16.49015,16.17297],[-16.48898,16.17697],[-16.47765,16.15876]]],[[[-16.48319,20.60082],[-16.48614,20.60904],[-16.48097,20.62504],[-16.47898,20.61708],[-16.48319,20.60082]]],[[[-16.48103,16.11173],[-16.48347,16.11635],[-16.48121,16.11817],[-16.48103,16.11173]]],[[[-16.48738,19.62972],[-16.49477,19.63519],[-16.49074,19.63973],[-16.48474,19.63785],[-16.48738,19.62972]]],[[[-16.48877,16.07716],[-16.49212,16.07997],[-16.49384,16.09593],[-16.48852,16.09726],[-16.48877,16.07716]]],[[[-16.49114,20.63114],[-16.50135,20.6398],[-16.49345,20.6427],[-16.49114,20.63114]]],[[[-16.49314,16.16291],[-16.49798,16.1688],[-16.5009,16.16762],[-16.50635,16.18342],[-16.49943,16.20201],[-16.50281,16.18988],[-16.49842,16.1912],[-16.50004,16.17625],[-16.49314,16.16291]]],[[[-16.4989,16.11418],[-16.50229,16.12163],[-16.49998,16.13375],[-16.49589,16.12142],[-16.4989,16.11418]]],[[[-16.50493,19.38238],[-16.52507,19.3893],[-16.49769,19.39133],[-16.49644,19.38825],[-16.50337,19.38948],[-16.50457,19.38715],[-16.49844,19.38462],[-16.50493,19.38238]]],[[[-16.49835,16.14754],[-16.50059,16.16182],[-16.49713,16.1621],[-16.49835,16.14754]]],[[[-16.50403,19.89814],[-16.50433,19.90135],[-16.50162,19.90215],[-16.50403,19.89814]]],[[[-16.50102,16.14791],[-16.50416,16.15716],[-16.50243,16.15743],[-16.50102,16.14791]]],[[[-16.53441,19.37261],[-16.54385,19.3809],[-16.5406,19.38067],[-16.53441,19.37261]]]]}}]}