{"type":"FeatureCollection","features":[{"type":"Feature","properties":{"ISO_A3":"MUS","WB_A3":"MUS","WB_NAME":"Mauritius","WB_REGION":"AFE,SSF"},"geometry":{"type":"MultiPolygon","coordinates":[[[[72.32078,-5.68366],[72.31076,-5.68271],[72.30949,-5.68013],[72.32105,-5.68122],[72.32078,-5.68366]]],[[[72.27687,-5.33501],[72.26891,-5.33382],[72.26997,-5.32597],[72.27687,-5.33501]]],[[[72.26037,-5.34678],[72.26966,-5.3373],[72.26939,-5.34129],[72.26037,-5.34678]]],[[[72.25567,-5.30491],[72.25156,-5.30438],[72.25132,-5.30077],[72.25518,-5.2995],[72.25567,-5.30491]]],[[[72.21621,-5.33976],[72.22788,-5.31445],[72.23019,-5.31574],[72.21621,-5.33976]]],[[[72.21301,-5.36576],[72.20531,-5.36263],[72.20049,-5.34935],[72.20755,-5.35144],[72.20866,-5.3602],[72.21456,-5.36254],[72.21301,-5.36576]]],[[[71.97368,-5.34273],[71.97164,-5.33822],[71.97396,-5.33668],[71.97368,-5.34273]]],[[[71.96734,-5.37759],[71.97111,-5.36705],[71.97134,-5.37297],[71.96734,-5.37759]]],[[[71.96873,-5.25118],[71.95977,-5.24392],[71.96365,-5.23854],[71.96873,-5.25118]]],[[[71.91705,-5.26238],[71.92632,-5.2565],[71.92708,-5.25934],[71.91705,-5.26238]]],[[[71.87618,-5.2699],[71.8654,-5.26856],[71.87644,-5.26861],[71.87618,-5.2699]]],[[[71.82214,-5.23989],[71.82113,-5.23628],[71.82935,-5.23568],[71.82934,-5.23826],[71.82214,-5.23989]]],[[[71.81568,-5.24836],[71.81624,-5.23858],[71.81879,-5.24181],[71.81568,-5.24836]]],[[[71.77426,-5.45897],[71.75887,-5.45348],[71.75839,-5.44756],[71.77813,-5.45552],[71.78042,-5.45875],[71.77426,-5.45897]]],[[[71.7568,-5.26144],[71.7558,-5.25731],[71.76057,-5.25219],[71.77074,-5.24735],[71.77047,-5.25083],[71.7568,-5.26144]]],[[[71.7557,-5.37444],[71.75436,-5.35976],[71.74878,-5.34712],[71.75036,-5.34043],[71.75617,-5.35822],[71.7557,-5.37444]]],[[[71.75328,-5.44316],[71.75215,-5.43697],[71.75522,-5.43982],[71.75328,-5.44316]]],[[[71.75187,-5.41869],[71.75151,-5.41406],[71.7483,-5.41301],[71.75211,-5.39656],[71.75413,-5.40429],[71.75187,-5.41869]]],[[[71.75336,-5.42797],[71.74954,-5.42126],[71.75262,-5.42204],[71.75336,-5.42797]]],[[[71.75035,-5.26887],[71.75012,-5.2632],[71.75294,-5.26386],[71.75035,-5.26887]]],[[[71.73626,-5.31101],[71.73344,-5.31022],[71.73561,-5.28861],[71.73845,-5.28399],[71.74501,-5.28274],[71.73801,-5.29583],[71.73626,-5.31101]]],[[[71.54515,-6.17419],[71.5367,-6.16834],[71.54337,-6.17031],[71.54515,-6.17419]]],[[[71.51645,-6.15804],[71.5148,-6.15417],[71.51814,-6.15471],[71.51645,-6.15804]]],[[[71.39157,-6.69436],[71.36605,-6.68195],[71.3671,-6.67938],[71.3847,-6.68298],[71.38834,-6.67799],[71.39532,-6.69168],[71.39157,-6.69436]]],[[[71.33563,-6.67233],[71.3251,-6.66929],[71.31875,-6.65779],[71.31693,-6.65997],[71.31425,-6.65815],[71.3137,-6.64566],[71.31769,-6.64454],[71.3189,-6.65535],[71.32668,-6.6639],[71.34237,-6.66595],[71.33563,-6.67233]]],[[[71.31171,-6.20761],[71.33223,-6.17739],[71.34175,-6.17643],[71.3416,-6.18003],[71.31171,-6.20761]]],[[[71.29659,-6.23773],[71.29262,-6.23501],[71.29432,-6.23167],[71.29659,-6.23773]]],[[[71.24068,-6.39633],[71.23809,-6.38075],[71.24106,-6.37948],[71.24068,-6.39633]]],[[[63.49205,-19.68014],[63.50173,-19.68809],[63.49861,-19.69042],[63.4962,-19.70202],[63.50028,-19.70381],[63.50195,-19.71616],[63.46912,-19.74124],[63.45633,-19.73882],[63.45036,-19.74424],[63.44437,-19.74117],[63.42615,-19.74379],[63.42398,-19.74663],[63.41989,-19.74316],[63.40358,-19.74539],[63.39542,-19.74927],[63.39791,-19.7624],[63.38267,-19.76243],[63.37751,-19.76721],[63.38133,-19.77055],[63.36091,-19.76351],[63.35368,-19.75541],[63.35407,-19.74794],[63.36142,-19.74728],[63.36277,-19.74406],[63.35977,-19.74175],[63.36139,-19.73646],[63.35352,-19.74292],[63.34251,-19.7459],[63.34469,-19.74899],[63.34238,-19.74989],[63.33667,-19.74887],[63.33121,-19.74283],[63.33093,-19.73768],[63.33909,-19.7387],[63.33498,-19.72016],[63.34367,-19.71448],[63.35672,-19.71265],[63.36352,-19.71598],[63.36541,-19.7098],[63.368,-19.71134],[63.37057,-19.7076],[63.37887,-19.70977],[63.38306,-19.69843],[63.39149,-19.69712],[63.38821,-19.69018],[63.40044,-19.68809],[63.39962,-19.68474],[63.40478,-19.68422],[63.40697,-19.69065],[63.41024,-19.69064],[63.41538,-19.68084],[63.44145,-19.66855],[63.44961,-19.67304],[63.45748,-19.66722],[63.48144,-19.67849],[63.49205,-19.68014]]],[[[63.43549,-19.77866],[63.43112,-19.77069],[63.43902,-19.77531],[63.43549,-19.77866]]],[[[63.41996,-19.77046],[63.41834,-19.77278],[63.41383,-19.76841],[63.41805,-19.76763],[63.41996,-19.77046]]],[[[63.36066,-19.77407],[63.3582,-19.76931],[63.36065,-19.7675],[63.36501,-19.76994],[63.36066,-19.77407]]],[[[59.70507,-16.57605],[59.69972,-16.57509],[59.70043,-16.56865],[59.70581,-16.57154],[59.70507,-16.57605]]],[[[59.66156,-16.69206],[59.66081,-16.69554],[59.65769,-16.69185],[59.66156,-16.69206]]],[[[59.64276,-16.38998],[59.64005,-16.38705],[59.64473,-16.38536],[59.64276,-16.38998]]],[[[59.61071,-16.42654],[59.60858,-16.42657],[59.60767,-16.4186],[59.61544,-16.42108],[59.61601,-16.42365],[59.61071,-16.42654]]],[[[59.61268,-16.4538],[59.61142,-16.4497],[59.61464,-16.45095],[59.61268,-16.4538]]],[[[59.59311,-16.24489],[59.5869,-16.23866],[59.5938,-16.23652],[59.59655,-16.24292],[59.59311,-16.24489]]],[[[59.5701,-16.72282],[59.57722,-16.71591],[59.5795,-16.71704],[59.5784,-16.72436],[59.5701,-16.72282]]],[[[59.56595,-16.77544],[59.57084,-16.74829],[59.56746,-16.73547],[59.57323,-16.73191],[59.57507,-16.75493],[59.57022,-16.77093],[59.56595,-16.77544]]],[[[59.5727,-16.72606],[59.5672,-16.72569],[59.56636,-16.72312],[59.5727,-16.72606]]],[[[59.51507,-16.60058],[59.51155,-16.59637],[59.51624,-16.59786],[59.51507,-16.60058]]],[[[59.50771,-16.54738],[59.50371,-16.5473],[59.50313,-16.54434],[59.50767,-16.54455],[59.50771,-16.54738]]],[[[59.50348,-16.81683],[59.50104,-16.81415],[59.50665,-16.81396],[59.50348,-16.81683]]],[[[59.49186,-16.81952],[59.48621,-16.82342],[59.48363,-16.82064],[59.49186,-16.81952]]],[[[57.80761,-19.82128],[57.80351,-19.81602],[57.80813,-19.81497],[57.80761,-19.82128]]],[[[57.80341,-20.27828],[57.80068,-20.27842],[57.79955,-20.27083],[57.80334,-20.26489],[57.80221,-20.25794],[57.8082,-20.25624],[57.80551,-20.2632],[57.80869,-20.27104],[57.80341,-20.27828]]],[[[57.37343,-20.47949],[57.37245,-20.48459],[57.3664,-20.48821],[57.35711,-20.48745],[57.33819,-20.46045],[57.3218,-20.45971],[57.31525,-20.46835],[57.3091,-20.4663],[57.30936,-20.45935],[57.32365,-20.43176],[57.32285,-20.44129],[57.34417,-20.44421],[57.34717,-20.44228],[57.368,-20.41339],[57.36769,-20.39665],[57.37683,-20.39303],[57.37736,-20.38788],[57.3738,-20.38466],[57.36916,-20.38558],[57.36806,-20.3821],[57.35945,-20.37839],[57.36012,-20.3704],[57.37158,-20.3669],[57.37074,-20.36033],[57.36049,-20.35392],[57.36576,-20.33253],[57.37844,-20.32529],[57.37925,-20.32143],[57.36722,-20.31347],[57.36334,-20.28927],[57.36455,-20.28077],[57.38399,-20.24957],[57.38137,-20.2403],[57.38897,-20.22252],[57.39413,-20.21516],[57.40177,-20.21579],[57.40488,-20.20445],[57.40255,-20.19931],[57.41425,-20.18821],[57.42188,-20.18587],[57.4314,-20.174],[57.46355,-20.16374],[57.47775,-20.16899],[57.47718,-20.16126],[57.48479,-20.15261],[57.5009,-20.16068],[57.50171,-20.15733],[57.49871,-20.15785],[57.49734,-20.15335],[57.48654,-20.14553],[57.4983,-20.13815],[57.50356,-20.1402],[57.49796,-20.13416],[57.49657,-20.12593],[57.4994,-20.11742],[57.50592,-20.11006],[57.51736,-20.10655],[57.51735,-20.10295],[57.50928,-20.09499],[57.50913,-20.08958],[57.51661,-20.08466],[57.51306,-20.08287],[57.51195,-20.07592],[57.51981,-20.06405],[57.52561,-20.04613],[57.54221,-20.04003],[57.54707,-20.02611],[57.55699,-20.01707],[57.55641,-20.00934],[57.5519,-20.00472],[57.55461,-19.99956],[57.56034,-20.00276],[57.57097,-20.0026],[57.56896,-20.01394],[57.57837,-20.01571],[57.58449,-20.01208],[57.57834,-20.0085],[57.58401,-19.99419],[57.5881,-19.99508],[57.59706,-19.98577],[57.60713,-19.98497],[57.61175,-19.98147],[57.63384,-19.98796],[57.63332,-19.99234],[57.63726,-19.99207],[57.63796,-19.99542],[57.64834,-20.00182],[57.6527,-20.00232],[57.65336,-19.99768],[57.65676,-19.99664],[57.66688,-20.00548],[57.68079,-20.00826],[57.68246,-20.01791],[57.67756,-20.01793],[57.67812,-20.02102],[57.68343,-20.02229],[57.68333,-20.02963],[57.67979,-20.03003],[57.68649,-20.03696],[57.68302,-20.05216],[57.69027,-20.05922],[57.68659,-20.05988],[57.69139,-20.06604],[57.69224,-20.0735],[57.70043,-20.07682],[57.71101,-20.09429],[57.71089,-20.09892],[57.74664,-20.10689],[57.7502,-20.11087],[57.7582,-20.12886],[57.75425,-20.12965],[57.7551,-20.13685],[57.75144,-20.14138],[57.74517,-20.14089],[57.74137,-20.14464],[57.74956,-20.14718],[57.74987,-20.15503],[57.74333,-20.1557],[57.74252,-20.15828],[57.74799,-20.16058],[57.74704,-20.16341],[57.754,-20.16313],[57.75824,-20.16723],[57.75617,-20.16028],[57.76353,-20.16025],[57.7682,-20.16706],[57.77257,-20.16794],[57.77733,-20.19419],[57.78376,-20.19776],[57.78611,-20.20342],[57.79102,-20.20417],[57.79435,-20.21445],[57.79844,-20.21547],[57.80698,-20.23062],[57.80292,-20.23643],[57.78847,-20.23907],[57.78795,-20.24435],[57.79122,-20.24408],[57.79849,-20.25126],[57.79565,-20.25539],[57.7983,-20.26671],[57.79044,-20.27808],[57.79337,-20.28965],[57.78765,-20.29277],[57.78272,-20.28919],[57.77442,-20.29437],[57.77403,-20.29824],[57.78101,-20.30207],[57.78161,-20.31237],[57.77099,-20.31885],[57.77213,-20.32735],[57.769,-20.33019],[57.77885,-20.33427],[57.77982,-20.33736],[57.76686,-20.33819],[57.76337,-20.35095],[57.74563,-20.35321],[57.74078,-20.36534],[57.72949,-20.37543],[57.71353,-20.37884],[57.7113,-20.36984],[57.70283,-20.36846],[57.70186,-20.39383],[57.69531,-20.39591],[57.70955,-20.40397],[57.71235,-20.41876],[57.71985,-20.41693],[57.72685,-20.42463],[57.72732,-20.4357],[57.71739,-20.44514],[57.71655,-20.44218],[57.69974,-20.44019],[57.6999,-20.44366],[57.707,-20.44454],[57.70784,-20.44943],[57.70021,-20.45306],[57.7005,-20.45654],[57.69367,-20.45734],[57.69124,-20.46314],[57.67953,-20.47168],[57.68091,-20.47503],[57.65227,-20.4884],[57.60313,-20.50107],[57.58732,-20.51181],[57.5559,-20.51526],[57.55317,-20.51849],[57.53078,-20.52487],[57.52284,-20.52193],[57.5216,-20.51807],[57.51765,-20.52181],[57.50287,-20.51748],[57.48074,-20.51883],[57.47034,-20.51487],[57.47074,-20.51203],[57.4576,-20.5064],[57.45554,-20.50242],[57.44885,-20.50359],[57.44679,-20.50089],[57.44134,-20.50812],[57.4173,-20.51153],[57.40908,-20.50588],[57.39897,-20.50436],[57.39732,-20.4996],[57.37174,-20.49013],[57.37343,-20.47949]]],[[[57.78929,-19.85845],[57.78221,-19.85642],[57.7823,-19.84753],[57.78622,-19.84249],[57.79411,-19.84169],[57.79712,-19.84463],[57.79345,-19.84697],[57.79512,-19.85366],[57.78929,-19.85845]]],[[[57.73094,-20.42126],[57.73119,-20.41714],[57.73556,-20.41712],[57.73599,-20.42124],[57.73094,-20.42126]]],[[[57.70433,-20.03328],[57.71252,-20.03814],[57.7109,-20.04098],[57.69183,-20.04093],[57.6918,-20.03526],[57.69997,-20.03407],[57.69476,-20.02559],[57.69775,-20.02455],[57.69859,-20.02918],[57.70433,-20.03328]]],[[[57.67428,-19.88879],[57.66965,-19.88662],[57.66936,-19.88237],[57.67494,-19.883],[57.67428,-19.88879]]],[[[57.65902,-19.8837],[57.64907,-19.88103],[57.64917,-19.87331],[57.65487,-19.8671],[57.6625,-19.86965],[57.66566,-19.87659],[57.66391,-19.88239],[57.65902,-19.8837]]],[[[57.62415,-19.94705],[57.6225,-19.94319],[57.61609,-19.94193],[57.61594,-19.93781],[57.62507,-19.93932],[57.62415,-19.94705]]],[[[57.34222,-20.42851],[57.3441,-20.41499],[57.35202,-20.41291],[57.34222,-20.42851]]],[[[57.33877,-20.47268],[57.33602,-20.46883],[57.33917,-20.46908],[57.33877,-20.47268]]],[[[56.68919,-10.49079],[56.6823,-10.48756],[56.67529,-10.46204],[56.66112,-10.44359],[56.69261,-10.45754],[56.70237,-10.46851],[56.70471,-10.47469],[56.70079,-10.485],[56.68919,-10.49079]]],[[[56.63107,-10.42229],[56.61274,-10.39856],[56.58715,-10.35393],[56.58756,-10.33744],[56.59992,-10.34519],[56.62459,-10.39496],[56.64045,-10.4156],[56.64681,-10.43288],[56.63107,-10.42229]]]]}},{"type":"Feature","properties":{"ISO_A3":"","WB_A3":"","WB_NAME":"British Indian Ocean Territory","WB_REGION":"","STATUS":"non-determined","AREA_ID":"british-indian-ocean-territory","CLAIMANTS":"GBR,MUS"},"geometry":{"type":"MultiPolygon","coordinates":[[[[72.40243,-7.31063],[72.37614,-7.28588],[72.35429,-7.27365],[72.35626,-7.26735],[72.3803,-7.25809],[72.37466,-7.27325],[72.37616,-7.28124],[72.39814,-7.29476],[72.40844,-7.29714],[72.40735,-7.30769],[72.41999,-7.30777],[72.43427,-7.31403],[72.42933,-7.32173],[72.43409,-7.34571],[72.43198,-7.37557],[72.42325,-7.39149],[72.42084,-7.40693],[72.42467,-7.43528],[72.42712,-7.43607],[72.42753,-7.43079],[72.4315,-7.43609],[72.44539,-7.42124],[72.45714,-7.39812],[72.48123,-7.38178],[72.48114,-7.37482],[72.47297,-7.35829],[72.4641,-7.35309],[72.47262,-7.32918],[72.48913,-7.30584],[72.4919,-7.29504],[72.48768,-7.28857],[72.45774,-7.26857],[72.4486,-7.24302],[72.43457,-7.23908],[72.43435,-7.23238],[72.44849,-7.24019],[72.45598,-7.26187],[72.46765,-7.27365],[72.49078,-7.28833],[72.49523,-7.29943],[72.49207,-7.31152],[72.47674,-7.32998],[72.47371,-7.34181],[72.47377,-7.35392],[72.47912,-7.36682],[72.48825,-7.37177],[72.49322,-7.3821],[72.45772,-7.40972],[72.43986,-7.44039],[72.43184,-7.44395],[72.4236,-7.44236],[72.42194,-7.4381],[72.41852,-7.40614],[72.43011,-7.36526],[72.43101,-7.34311],[72.42619,-7.32866],[72.40243,-7.31063]]],[[[72.4158,-7.22867],[72.42098,-7.22523],[72.42174,-7.22755],[72.4158,-7.22867]]]]}}]}