{"type":"FeatureCollection","features":[{"type":"Feature","properties":{"ISO_A3":"MWI","WB_A3":"MWI","WB_NAME":"Malawi","WB_REGION":"AFE,SSF"},"geometry":{"type":"MultiPolygon","coordinates":[[[[34.56176,-13.34947],[34.60717,-13.48311],[34.8669,-13.48311],[34.92706,-13.54646],[35.08958,-13.69931],[35.22744,-13.88101],[35.48678,-14.17066],[35.52063,-14.25923],[35.8721,-14.67562],[35.87211,-14.89536],[35.91857,-14.89535],[35.79007,-15.16996],[35.85311,-15.41914],[35.82675,-15.73157],[35.81399,-15.93185],[35.80568,-15.96191],[35.80791,-15.96788],[35.80663,-15.99249],[35.81238,-15.99732],[35.8164,-15.99571],[35.81907,-16.00439],[35.81621,-16.02959],[35.80776,-16.03933],[35.79351,-16.04292],[35.79301,-16.04664],[35.78341,-16.04985],[35.77995,-16.05454],[35.77135,-16.05513],[35.76489,-16.06524],[35.76635,-16.06908],[35.76001,-16.07466],[35.73908,-16.07629],[35.73291,-16.08383],[35.72209,-16.08762],[35.71717,-16.09279],[35.71335,-16.09163],[35.70661,-16.10264],[35.70133,-16.10008],[35.698,-16.10311],[35.69545,-16.10039],[35.68483,-16.10508],[35.68092,-16.1042],[35.68496,-16.10112],[35.67902,-16.09668],[35.67502,-16.09919],[35.67305,-16.0958],[35.62774,-16.11419],[35.6191,-16.12574],[35.60562,-16.12588],[35.5964,-16.12904],[35.59389,-16.13376],[35.5835,-16.13149],[35.57851,-16.12466],[35.56918,-16.12775],[35.57,-16.13434],[35.56052,-16.12752],[35.5584,-16.12172],[35.55196,-16.13455],[35.54332,-16.1374],[35.5438,-16.14978],[35.53648,-16.1628],[35.53308,-16.15685],[35.52458,-16.16795],[35.51915,-16.16821],[35.51972,-16.1605],[35.51676,-16.15762],[35.49669,-16.15464],[35.50127,-16.15074],[35.50001,-16.14579],[35.48944,-16.14373],[35.48624,-16.13864],[35.48647,-16.12047],[35.48174,-16.1236],[35.47255,-16.12002],[35.46603,-16.12319],[35.45357,-16.1189],[35.45141,-16.11448],[35.43712,-16.1133],[35.42954,-16.11396],[35.42645,-16.11896],[35.40552,-16.125],[35.39813,-16.14441],[35.38954,-16.1489],[35.38823,-16.15388],[35.37992,-16.15551],[35.37728,-16.1532],[35.37036,-16.16373],[35.34947,-16.17919],[35.34686,-16.18852],[35.33595,-16.19137],[35.33307,-16.19681],[35.31345,-16.20784],[35.30802,-16.21614],[35.30796,-16.22397],[35.29726,-16.2296],[35.29298,-16.24816],[35.29943,-16.26502],[35.29467,-16.27391],[35.29481,-16.2837],[35.28692,-16.29638],[35.2867,-16.30627],[35.27848,-16.31981],[35.2787,-16.3261],[35.285,-16.32989],[35.28862,-16.33719],[35.30286,-16.34584],[35.29205,-16.36462],[35.27808,-16.37661],[35.26315,-16.39883],[35.26356,-16.40715],[35.2596,-16.41673],[35.26836,-16.43375],[35.26736,-16.44138],[35.26279,-16.44665],[35.26196,-16.47515],[35.24696,-16.49064],[35.21641,-16.49741],[35.20958,-16.50614],[35.20839,-16.51756],[35.19815,-16.51618],[35.18665,-16.51924],[35.17644,-16.52769],[35.1777,-16.53995],[35.14381,-16.55957],[35.14317,-16.5624],[35.15162,-16.56964],[35.14471,-16.57383],[35.15643,-16.59052],[35.15527,-16.60017],[35.16027,-16.60978],[35.17174,-16.6071],[35.16691,-16.61948],[35.1873,-16.62771],[35.1973,-16.63677],[35.20627,-16.6377],[35.21394,-16.6537],[35.21697,-16.65486],[35.22872,-16.64687],[35.23309,-16.6562],[35.23085,-16.66362],[35.23526,-16.66976],[35.24791,-16.67974],[35.25735,-16.67886],[35.26875,-16.69847],[35.27293,-16.6988],[35.27363,-16.70365],[35.28877,-16.71085],[35.28175,-16.7347],[35.29317,-16.73916],[35.28498,-16.74752],[35.29657,-16.76201],[35.29727,-16.76802],[35.28739,-16.77907],[35.28911,-16.79407],[35.30534,-16.80808],[35.30534,-16.81764],[35.31455,-16.83139],[35.30523,-16.84091],[35.30307,-16.85847],[35.29305,-16.8709],[35.28137,-16.87462],[35.27931,-16.87831],[35.28303,-16.88725],[35.27185,-16.89254],[35.27191,-16.896],[35.28146,-16.89612],[35.285,-16.90116],[35.27484,-16.91521],[35.27294,-16.92577],[35.26835,-16.9276],[35.26678,-16.93211],[35.27128,-16.93701],[35.26326,-16.93961],[35.26571,-16.94828],[35.27447,-16.95193],[35.26762,-16.96003],[35.27885,-16.96197],[35.28183,-16.96695],[35.29404,-16.96164],[35.29661,-16.96441],[35.29562,-16.97341],[35.30443,-16.98071],[35.30125,-16.99872],[35.29287,-17.00594],[35.29712,-17.0162],[35.29182,-17.03448],[35.30143,-17.04697],[35.29776,-17.06043],[35.31194,-17.05869],[35.31394,-17.06299],[35.30774,-17.06751],[35.30991,-17.08078],[35.3009,-17.09786],[35.30689,-17.10679],[35.30428,-17.11512],[35.30816,-17.12449],[35.29551,-17.12783],[35.09873,-17.1295],[35.09075,-17.12541],[35.0926,-17.11872],[35.07931,-17.11268],[35.07844,-17.10727],[35.08546,-17.10384],[35.09012,-17.09292],[35.09902,-17.09495],[35.10851,-17.0872],[35.09956,-17.08584],[35.09661,-17.07834],[35.08446,-17.07639],[35.08207,-17.07199],[35.08339,-17.06284],[35.0748,-17.06518],[35.0568,-17.04793],[35.05574,-17.04259],[35.05888,-17.04051],[35.05988,-17.02856],[35.0637,-17.02189],[35.05637,-17.01928],[35.05495,-17.00609],[35.05811,-17.00532],[35.06282,-16.99408],[35.07405,-16.99251],[35.08325,-16.98464],[35.09354,-16.98728],[35.11123,-16.976],[35.126,-16.97559],[35.13553,-16.97126],[35.14293,-16.96186],[35.13826,-16.95722],[35.14778,-16.94053],[35.15541,-16.93522],[35.16138,-16.94233],[35.17154,-16.93783],[35.16004,-16.90614],[35.15965,-16.89464],[35.15329,-16.89162],[35.15151,-16.87797],[35.14684,-16.87559],[35.14927,-16.86924],[35.15638,-16.86239],[35.15957,-16.86393],[35.16149,-16.85979],[35.15917,-16.85409],[35.16254,-16.85081],[35.15767,-16.83995],[35.15104,-16.83193],[35.14133,-16.82958],[35.14049,-16.82191],[35.13563,-16.81837],[35.13346,-16.8244],[35.12674,-16.81854],[35.11603,-16.81807],[35.09945,-16.81966],[35.09368,-16.82539],[35.09032,-16.82455],[35.08894,-16.81858],[35.0772,-16.82596],[35.07574,-16.81974],[35.07257,-16.81947],[35.06902,-16.82222],[35.07071,-16.82802],[35.06408,-16.83556],[35.04737,-16.82746],[35.04119,-16.82843],[35.03363,-16.82238],[35.03618,-16.82008],[35.03516,-16.81393],[35.03085,-16.80789],[35.02376,-16.80781],[35.02269,-16.80372],[35.00635,-16.8031],[35.00011,-16.79303],[34.99062,-16.78931],[34.99443,-16.77303],[34.98693,-16.76648],[34.98456,-16.74888],[34.97093,-16.75007],[34.96754,-16.73922],[34.95779,-16.74497],[34.9527,-16.74098],[34.94489,-16.74208],[34.93812,-16.74997],[34.91879,-16.74592],[34.91372,-16.72051],[34.91766,-16.71733],[34.91294,-16.7123],[34.91409,-16.69976],[34.91023,-16.69389],[34.89061,-16.68694],[34.88005,-16.68885],[34.8729,-16.68013],[34.86772,-16.68002],[34.86837,-16.67712],[34.85831,-16.676],[34.85728,-16.65903],[34.8524,-16.657],[34.85219,-16.63788],[34.85447,-16.63529],[34.84908,-16.62995],[34.85033,-16.62115],[34.84502,-16.61886],[34.84147,-16.61224],[34.84255,-16.60726],[34.83571,-16.60157],[34.83144,-16.60145],[34.82751,-16.6078],[34.82256,-16.60407],[34.81801,-16.60537],[34.80584,-16.59482],[34.80277,-16.59608],[34.7853,-16.5843],[34.78349,-16.5874],[34.77736,-16.58256],[34.77514,-16.58694],[34.77238,-16.58565],[34.77159,-16.58025],[34.78132,-16.57104],[34.77879,-16.55717],[34.77478,-16.54384],[34.76655,-16.54073],[34.76151,-16.52636],[34.75582,-16.52445],[34.75212,-16.5125],[34.74009,-16.51076],[34.73582,-16.50617],[34.72274,-16.5026],[34.72137,-16.497],[34.71805,-16.4964],[34.7106,-16.49712],[34.69859,-16.50512],[34.68543,-16.5029],[34.68315,-16.48661],[34.67932,-16.4804],[34.68432,-16.47019],[34.67941,-16.45806],[34.68113,-16.45399],[34.67673,-16.44963],[34.68094,-16.43844],[34.67095,-16.44104],[34.65234,-16.45325],[34.64452,-16.44864],[34.6457,-16.44112],[34.64128,-16.43648],[34.63511,-16.43942],[34.62587,-16.42705],[34.6215,-16.42448],[34.6142,-16.42578],[34.61283,-16.42145],[34.60291,-16.42383],[34.59932,-16.41757],[34.59485,-16.41825],[34.58454,-16.39034],[34.58976,-16.37192],[34.58532,-16.36054],[34.5787,-16.35447],[34.57868,-16.34962],[34.56872,-16.34473],[34.5756,-16.32644],[34.5705,-16.31444],[34.55478,-16.31054],[34.54965,-16.30492],[34.54488,-16.3059],[34.54286,-16.29691],[34.52832,-16.28748],[34.52427,-16.28],[34.52002,-16.28074],[34.51409,-16.28862],[34.48953,-16.29621],[34.48621,-16.2896],[34.47684,-16.28408],[34.47595,-16.27922],[34.46895,-16.2824],[34.45795,-16.27872],[34.45435,-16.2819],[34.43512,-16.26305],[34.43049,-16.2639],[34.42398,-16.25173],[34.41968,-16.25035],[34.42092,-16.24239],[34.41462,-16.21968],[34.40887,-16.21449],[34.40929,-16.20822],[34.40565,-16.20715],[34.40149,-16.18804],[34.39773,-16.1846],[34.3989,-16.17762],[34.40483,-16.17329],[34.40065,-16.16442],[34.40338,-16.15986],[34.40074,-16.15607],[34.40605,-16.12055],[34.41873,-16.09991],[34.41625,-16.09191],[34.423,-16.08321],[34.42843,-16.08231],[34.43647,-16.06893],[34.43451,-16.06012],[34.42442,-16.05408],[34.42403,-16.04738],[34.42995,-16.044],[34.41455,-16.0354],[34.41249,-16.0305],[34.40537,-16.03051],[34.39959,-16.02634],[34.38905,-16.02675],[34.37904,-16.01236],[34.37489,-15.99953],[34.36302,-15.98642],[34.36332,-15.9806],[34.35474,-15.96869],[34.35568,-15.96491],[34.34184,-15.96084],[34.32584,-15.96104],[34.32558,-15.94395],[34.31863,-15.94244],[34.3079,-15.93095],[34.28289,-15.93234],[34.2702,-15.91926],[34.26255,-15.91832],[34.26036,-15.92079],[34.25812,-15.91772],[34.25891,-15.90581],[34.2516,-15.89615],[34.26339,-15.88928],[34.26312,-15.88553],[34.25618,-15.88496],[34.25125,-15.87798],[34.25565,-15.87059],[34.25976,-15.86934],[34.2568,-15.86439],[34.25756,-15.85623],[34.25218,-15.85379],[34.25228,-15.84635],[34.24919,-15.84396],[34.25872,-15.83068],[34.25541,-15.82378],[34.26191,-15.81816],[34.26965,-15.81876],[34.27359,-15.81465],[34.26973,-15.8037],[34.27383,-15.79476],[34.28269,-15.78681],[34.28694,-15.78695],[34.30079,-15.75926],[34.31159,-15.75594],[34.32554,-15.74477],[34.33813,-15.74111],[34.3517,-15.74396],[34.35623,-15.74044],[34.36455,-15.74238],[34.37529,-15.72932],[34.37865,-15.71664],[34.38768,-15.70922],[34.39022,-15.70105],[34.38795,-15.69246],[34.39138,-15.68604],[34.39624,-15.68357],[34.40199,-15.68681],[34.40611,-15.6746],[34.41246,-15.67058],[34.41817,-15.67222],[34.42653,-15.66299],[34.43487,-15.66488],[34.43662,-15.65753],[34.42999,-15.65017],[34.43282,-15.64224],[34.43034,-15.62649],[34.43704,-15.61509],[34.45562,-15.611],[34.45779,-15.60772],[34.45142,-15.60504],[34.45355,-15.60076],[34.45159,-15.59146],[34.4491,-15.58874],[34.44343,-15.59036],[34.43929,-15.58622],[34.4394,-15.57658],[34.44387,-15.57231],[34.43871,-15.55889],[34.44249,-15.5539],[34.44208,-15.53795],[34.43519,-15.52599],[34.43352,-15.51069],[34.42804,-15.50599],[34.42676,-15.49794],[34.42929,-15.48734],[34.42531,-15.4762],[34.43182,-15.4669],[34.43544,-15.4682],[34.44448,-15.45377],[34.43935,-15.43843],[34.44111,-15.42334],[34.44521,-15.4219],[34.45353,-15.42882],[34.45978,-15.42556],[34.46332,-15.42955],[34.47217,-15.43028],[34.47325,-15.42311],[34.48673,-15.41924],[34.48803,-15.41422],[34.49523,-15.40848],[34.50993,-15.41452],[34.51641,-15.4073],[34.51427,-15.40193],[34.52152,-15.38619],[34.51664,-15.37616],[34.51991,-15.36566],[34.51864,-15.35422],[34.52214,-15.34859],[34.53318,-15.34568],[34.53263,-15.33683],[34.54235,-15.32809],[34.55638,-15.34047],[34.56064,-15.33528],[34.55898,-15.32892],[34.57492,-15.32606],[34.57636,-15.31793],[34.57136,-15.30904],[34.57912,-15.3051],[34.58123,-15.30069],[34.58697,-15.3],[34.59155,-15.29135],[34.59807,-15.28731],[34.60094,-15.27919],[34.6019,-15.26474],[34.5976,-15.25882],[34.59818,-15.25072],[34.60378,-15.2472],[34.60379,-15.23826],[34.59116,-15.22393],[34.59075,-15.2121],[34.5832,-15.21032],[34.57791,-15.20095],[34.58485,-15.18334],[34.57707,-15.16834],[34.58219,-15.16327],[34.57501,-15.15124],[34.57586,-15.14287],[34.58026,-15.13966],[34.56885,-15.12557],[34.57288,-15.11428],[34.58098,-15.11015],[34.59091,-15.09944],[34.59082,-15.09588],[34.58655,-15.0885],[34.57387,-15.08652],[34.57141,-15.08116],[34.57318,-15.06687],[34.58956,-15.04849],[34.59562,-15.04793],[34.60445,-15.04049],[34.60607,-15.02389],[34.61996,-15.01318],[34.62237,-15.00267],[34.61256,-14.99155],[34.61655,-14.97953],[34.59867,-14.97332],[34.59864,-14.96642],[34.59124,-14.9548],[34.58948,-14.93714],[34.58138,-14.92466],[34.57793,-14.91265],[34.57992,-14.90862],[34.56571,-14.89933],[34.56802,-14.88672],[34.57709,-14.87335],[34.57666,-14.84429],[34.57218,-14.82647],[34.584,-14.81132],[34.56264,-14.76555],[34.54576,-14.74895],[34.54412,-14.73214],[34.52914,-14.71023],[34.52897,-14.70024],[34.52155,-14.69005],[34.52131,-14.68327],[34.53115,-14.6803],[34.53844,-14.67389],[34.54124,-14.65798],[34.55156,-14.64633],[34.54259,-14.63395],[34.54495,-14.62528],[34.54167,-14.60025],[34.53473,-14.58599],[34.52883,-14.58218],[34.52513,-14.56897],[34.51517,-14.55418],[34.49789,-14.55356],[34.49318,-14.5395],[34.47554,-14.53274],[34.46398,-14.51848],[34.45194,-14.5005],[34.44537,-14.47573],[34.42942,-14.45959],[34.42081,-14.44091],[34.42032,-14.43288],[34.40285,-14.41924],[34.39244,-14.39505],[34.37846,-14.39717],[34.37149,-14.38838],[34.3572,-14.38646],[34.34496,-14.39831],[34.32615,-14.39986],[34.31632,-14.40491],[34.31032,-14.40613],[34.30422,-14.3996],[34.29932,-14.39964],[34.29042,-14.40798],[34.27899,-14.41316],[34.27363,-14.42529],[34.26653,-14.43057],[34.26031,-14.43204],[34.23419,-14.42501],[34.22367,-14.4313],[34.22414,-14.43659],[34.21488,-14.44114],[34.18731,-14.43815],[34.08488,-14.45861],[34.087,-14.48954],[33.93999,-14.47957],[33.94116,-14.47542],[33.93598,-14.47042],[33.92692,-14.47588],[33.92389,-14.4834],[33.91204,-14.47826],[33.90632,-14.48662],[33.90278,-14.48582],[33.88296,-14.50013],[33.88575,-14.51576],[33.87665,-14.52074],[33.86674,-14.51281],[33.85816,-14.5116],[33.83834,-14.52719],[33.82425,-14.546],[33.80002,-14.55268],[33.79413,-14.53901],[33.77942,-14.5309],[33.77145,-14.53152],[33.76222,-14.5193],[33.75623,-14.52023],[33.75344,-14.51767],[33.73855,-14.49983],[33.7275,-14.49853],[33.71639,-14.50127],[33.70921,-14.51071],[33.711,-14.52419],[33.70287,-14.54081],[33.71041,-14.56175],[33.71663,-14.5687],[33.71712,-14.57905],[33.70846,-14.57768],[33.69887,-14.58908],[33.69167,-14.59158],[33.69119,-14.6037],[33.68406,-14.6139],[33.66523,-14.61582],[33.66646,-14.60428],[33.65389,-14.60159],[33.65201,-14.59718],[33.63441,-14.58737],[33.63174,-14.57124],[33.62382,-14.56425],[33.62151,-14.55103],[33.62737,-14.53774],[33.62701,-14.53147],[33.61397,-14.507],[33.61073,-14.50648],[33.60858,-14.49318],[33.60095,-14.48524],[33.59645,-14.48631],[33.59102,-14.48165],[33.58116,-14.47953],[33.56579,-14.4814],[33.56215,-14.47836],[33.55908,-14.47456],[33.55907,-14.46264],[33.55264,-14.45755],[33.55173,-14.448],[33.54722,-14.44348],[33.54525,-14.43456],[33.52782,-14.4194],[33.51307,-14.42395],[33.51178,-14.42036],[33.50279,-14.41855],[33.49118,-14.4071],[33.47289,-14.40185],[33.46724,-14.3839],[33.44786,-14.36198],[33.4519,-14.35303],[33.44488,-14.32815],[33.4325,-14.31965],[33.41835,-14.28501],[33.40855,-14.27884],[33.39936,-14.25411],[33.39402,-14.25059],[33.39062,-14.24148],[33.38405,-14.23929],[33.3815,-14.23005],[33.38505,-14.21969],[33.37582,-14.211],[33.36307,-14.2114],[33.36073,-14.22041],[33.35143,-14.21955],[33.34695,-14.21562],[33.34167,-14.21664],[33.33335,-14.19702],[33.33432,-14.18433],[33.32327,-14.17596],[33.32226,-14.1685],[33.31681,-14.16308],[33.31098,-14.16527],[33.30666,-14.15141],[33.29727,-14.14578],[33.29762,-14.13648],[33.30169,-14.13396],[33.30101,-14.1279],[33.30626,-14.12162],[33.30387,-14.10683],[33.32222,-14.08447],[33.31766,-14.07966],[33.31849,-14.07471],[33.30783,-14.06764],[33.30236,-14.0566],[33.30549,-14.04865],[33.30077,-14.04443],[33.29988,-14.0317],[33.28957,-14.03161],[33.28403,-14.02273],[33.2721,-14.02385],[33.26892,-14.02832],[33.25557,-14.01585],[33.258,-14.00801],[33.24226,-13.99829],[33.22095,-13.99796],[33.20548,-14.0015],[33.19362,-13.98502],[33.18841,-13.96308],[33.17976,-13.95558],[33.16245,-13.95133],[33.15416,-13.94029],[33.14666,-13.94008],[33.13283,-13.96103],[33.10701,-13.95784],[33.08092,-13.97441],[33.06896,-13.98639],[33.06204,-13.99878],[33.06474,-14.02093],[33.0434,-14.04197],[33.03858,-14.05269],[33.03226,-14.05492],[33.02955,-14.04109],[33.01331,-14.02692],[33.00223,-14.02314],[32.99798,-14.01189],[32.99317,-14.00816],[32.99684,-13.99763],[32.99487,-13.98744],[32.99819,-13.98454],[33.00414,-13.96265],[33.00283,-13.95319],[32.97578,-13.9408],[32.96027,-13.94062],[32.94879,-13.94554],[32.94593,-13.9244],[32.95347,-13.91034],[32.95332,-13.90443],[32.94362,-13.89332],[32.9446,-13.88604],[32.94159,-13.87978],[32.936,-13.8788],[32.93151,-13.8732],[32.92392,-13.87639],[32.91869,-13.86687],[32.91023,-13.86399],[32.90176,-13.84663],[32.90259,-13.83718],[32.89599,-13.82376],[32.89234,-13.82378],[32.89016,-13.81589],[32.87984,-13.81475],[32.87248,-13.80359],[32.8629,-13.80308],[32.86171,-13.79795],[32.8558,-13.79628],[32.84923,-13.79865],[32.84462,-13.79193],[32.83233,-13.78571],[32.81874,-13.78884],[32.81412,-13.78506],[32.81004,-13.80024],[32.8048,-13.80163],[32.7928,-13.78619],[32.78839,-13.78764],[32.77644,-13.77978],[32.771,-13.78072],[32.78177,-13.75967],[32.7805,-13.74869],[32.79587,-13.75113],[32.8088,-13.72996],[32.81934,-13.72634],[32.83672,-13.72839],[32.84638,-13.72359],[32.83533,-13.70403],[32.81719,-13.68723],[32.79401,-13.67735],[32.80247,-13.65996],[32.79503,-13.65255],[32.76126,-13.63612],[32.75519,-13.63935],[32.75264,-13.65178],[32.74657,-13.64838],[32.73914,-13.65145],[32.73221,-13.64659],[32.71877,-13.64478],[32.71294,-13.63819],[32.69969,-13.63788],[32.68454,-13.62267],[32.67321,-13.62273],[32.6735,-13.61532],[32.67817,-13.61332],[32.68104,-13.60461],[32.68831,-13.59878],[32.68068,-13.58796],[32.6821,-13.58391],[32.69236,-13.58207],[32.69397,-13.5776],[32.68721,-13.57431],[32.68831,-13.57117],[32.70302,-13.56942],[32.72263,-13.58118],[32.74269,-13.58514],[32.7613,-13.57219],[32.76305,-13.56865],[32.76005,-13.56264],[32.76724,-13.55526],[32.78079,-13.55715],[32.78252,-13.55368],[32.80125,-13.54668],[32.80555,-13.54139],[32.82435,-13.54083],[32.83584,-13.52211],[32.84983,-13.51573],[32.84087,-13.49997],[32.84644,-13.48784],[32.84238,-13.47337],[32.84557,-13.46238],[32.85608,-13.45987],[32.85741,-13.46371],[32.86636,-13.46596],[32.88029,-13.46165],[32.88813,-13.45314],[32.8882,-13.44897],[32.90038,-13.43936],[32.90257,-13.42688],[32.91839,-13.41514],[32.9171,-13.40898],[32.92756,-13.37756],[32.92672,-13.35807],[32.93428,-13.3438],[32.93163,-13.33843],[32.93554,-13.33037],[32.93225,-13.31829],[32.93444,-13.31333],[32.9452,-13.30875],[32.93796,-13.29686],[32.94587,-13.28324],[32.94292,-13.28118],[32.94414,-13.27605],[32.95076,-13.26895],[32.96659,-13.26412],[32.97089,-13.2598],[32.96999,-13.25702],[32.98075,-13.24472],[32.98044,-13.23257],[32.98828,-13.23276],[32.99179,-13.22967],[32.99109,-13.22555],[33.01232,-13.21887],[33.01808,-13.213],[33.00559,-13.19977],[33.00233,-13.17747],[32.98404,-13.16574],[32.97974,-13.15836],[32.98495,-13.14591],[32.98028,-13.14179],[32.97554,-13.11413],[32.98164,-13.10652],[32.98115,-13.08156],[32.99044,-13.0739],[32.99921,-13.04928],[32.98514,-13.03349],[32.98946,-13.02492],[32.99464,-13.02414],[32.99889,-13.00585],[33.01525,-12.98994],[33.01,-12.9755],[33.01472,-12.97142],[33.02055,-12.94097],[33.01923,-12.93184],[33.0266,-12.92301],[33.02894,-12.91024],[33.0223,-12.90547],[33.02264,-12.89308],[32.97882,-12.8839],[32.95626,-12.86042],[32.94837,-12.84777],[32.95552,-12.83225],[32.95593,-12.82218],[32.94958,-12.81348],[32.94654,-12.78799],[32.93969,-12.77101],[32.9476,-12.76748],[32.97639,-12.73537],[32.99481,-12.72812],[33.00308,-12.70932],[33.00981,-12.70316],[33.01139,-12.68262],[33.02141,-12.65693],[33.02693,-12.65592],[33.0357,-12.63827],[33.0428,-12.63258],[33.04572,-12.62351],[33.05856,-12.61289],[33.07381,-12.60636],[33.07767,-12.59925],[33.08949,-12.59563],[33.09679,-12.60823],[33.11442,-12.61669],[33.12541,-12.60665],[33.13878,-12.60128],[33.16085,-12.59976],[33.18002,-12.61304],[33.17563,-12.6348],[33.17619,-12.64165],[33.18077,-12.64256],[33.1908,-12.63481],[33.20413,-12.60901],[33.22725,-12.59585],[33.23531,-12.59535],[33.23996,-12.58429],[33.25886,-12.56235],[33.26459,-12.55961],[33.26569,-12.54422],[33.27503,-12.53985],[33.28464,-12.54103],[33.29078,-12.53606],[33.30906,-12.53294],[33.31862,-12.52809],[33.33088,-12.53814],[33.33149,-12.54594],[33.3517,-12.54981],[33.35859,-12.55876],[33.36682,-12.56069],[33.37931,-12.55149],[33.38779,-12.53882],[33.40124,-12.52668],[33.41077,-12.5237],[33.41569,-12.51638],[33.41453,-12.50936],[33.40812,-12.50536],[33.41937,-12.50074],[33.4301,-12.48659],[33.43683,-12.48272],[33.43692,-12.4777],[33.46245,-12.48293],[33.46613,-12.46314],[33.47498,-12.46212],[33.4809,-12.4563],[33.47028,-12.43044],[33.47478,-12.41655],[33.48137,-12.418],[33.49243,-12.41073],[33.50282,-12.4118],[33.51169,-12.39088],[33.52756,-12.38746],[33.53485,-12.3787],[33.54883,-12.37225],[33.54928,-12.36101],[33.54022,-12.3537],[33.53806,-12.33933],[33.5278,-12.33738],[33.51146,-12.34363],[33.49322,-12.33539],[33.48538,-12.33532],[33.47583,-12.3253],[33.45752,-12.3282],[33.42289,-12.3436],[33.39783,-12.34164],[33.38187,-12.34747],[33.36973,-12.34636],[33.36764,-12.32636],[33.36327,-12.31647],[33.33581,-12.28426],[33.32914,-12.26026],[33.32572,-12.26071],[33.31203,-12.24895],[33.31291,-12.21724],[33.3186,-12.20919],[33.31127,-12.19652],[33.30807,-12.18079],[33.31257,-12.16682],[33.29902,-12.16562],[33.28257,-12.16863],[33.28001,-12.16212],[33.27298,-12.15827],[33.25735,-12.14031],[33.25805,-12.12803],[33.26954,-12.1042],[33.26871,-12.09579],[33.27453,-12.08356],[33.27372,-12.06596],[33.28294,-12.05627],[33.29036,-12.03123],[33.30283,-12.01598],[33.31053,-11.99434],[33.30741,-11.97907],[33.31464,-11.96363],[33.31174,-11.95142],[33.32113,-11.93505],[33.32516,-11.90954],[33.31962,-11.88564],[33.30588,-11.87369],[33.30588,-11.8618],[33.33259,-11.82016],[33.33502,-11.79587],[33.33084,-11.78525],[33.32296,-11.77902],[33.32638,-11.75664],[33.31995,-11.74968],[33.31463,-11.73099],[33.31622,-11.68955],[33.31207,-11.67214],[33.32027,-11.62936],[33.31237,-11.5959],[33.31032,-11.59316],[33.29654,-11.59141],[33.28997,-11.57886],[33.28065,-11.57695],[33.27449,-11.58311],[33.26942,-11.57743],[33.26272,-11.57754],[33.23928,-11.59021],[33.23446,-11.58916],[33.22762,-11.57898],[33.22687,-11.56929],[33.23056,-11.56079],[33.25067,-11.53787],[33.25514,-11.52503],[33.23804,-11.48478],[33.24163,-11.48023],[33.23405,-11.47803],[33.23912,-11.46406],[33.24768,-11.45514],[33.23483,-11.44267],[33.23243,-11.42168],[33.23772,-11.41238],[33.24588,-11.41131],[33.25132,-11.41951],[33.26468,-11.42542],[33.27844,-11.43947],[33.29238,-11.44041],[33.2992,-11.43579],[33.29316,-11.42988],[33.29152,-11.42244],[33.29334,-11.39759],[33.28923,-11.38828],[33.29003,-11.37304],[33.29475,-11.36797],[33.30431,-11.37064],[33.31793,-11.36349],[33.30828,-11.33886],[33.3106,-11.33156],[33.32177,-11.32897],[33.32806,-11.3151],[33.33508,-11.3107],[33.34783,-11.28386],[33.3473,-11.27845],[33.35453,-11.26976],[33.35526,-11.255],[33.36732,-11.24848],[33.38123,-11.23407],[33.38164,-11.21972],[33.39366,-11.20692],[33.39048,-11.19204],[33.39782,-11.18419],[33.4004,-11.1711],[33.4075,-11.15888],[33.39756,-11.14773],[33.38457,-11.14403],[33.38054,-11.13982],[33.37552,-11.12963],[33.37427,-11.11508],[33.36704,-11.10339],[33.35888,-11.093],[33.32916,-11.06996],[33.3313,-11.06236],[33.32879,-11.05107],[33.32046,-11.0455],[33.31715,-11.02764],[33.30581,-11.00158],[33.2979,-11.00033],[33.30022,-10.99013],[33.28953,-10.98179],[33.30713,-10.98584],[33.3109,-10.9733],[33.31038,-10.94083],[33.30536,-10.93963],[33.29986,-10.9282],[33.28385,-10.91382],[33.27875,-10.90053],[33.26951,-10.90527],[33.26281,-10.90178],[33.25205,-10.90913],[33.24981,-10.89945],[33.2448,-10.89631],[33.24577,-10.88962],[33.26693,-10.866],[33.2837,-10.86636],[33.28778,-10.86994],[33.28551,-10.87191],[33.28694,-10.87803],[33.31278,-10.86825],[33.31877,-10.86026],[33.31942,-10.85195],[33.32443,-10.84854],[33.32617,-10.83642],[33.33649,-10.82203],[33.35226,-10.82942],[33.36629,-10.82743],[33.39526,-10.80707],[33.40584,-10.81339],[33.43104,-10.81629],[33.43507,-10.82095],[33.44875,-10.82226],[33.46425,-10.81637],[33.46697,-10.81258],[33.46483,-10.80629],[33.47676,-10.79315],[33.49656,-10.79154],[33.50427,-10.77766],[33.51605,-10.77539],[33.52392,-10.76554],[33.53091,-10.765],[33.53602,-10.75094],[33.53111,-10.74527],[33.53691,-10.73239],[33.54134,-10.73679],[33.5502,-10.73438],[33.55947,-10.71365],[33.58759,-10.68017],[33.59786,-10.6592],[33.60481,-10.65489],[33.61691,-10.66366],[33.63434,-10.64324],[33.64077,-10.63978],[33.64591,-10.62471],[33.65194,-10.62015],[33.6569,-10.62168],[33.66626,-10.61836],[33.67586,-10.60824],[33.6834,-10.60848],[33.68646,-10.59489],[33.69515,-10.59335],[33.69744,-10.58784],[33.70161,-10.58637],[33.70888,-10.56849],[33.70226,-10.56634],[33.68347,-10.57625],[33.67915,-10.57577],[33.67754,-10.56048],[33.68156,-10.55379],[33.6734,-10.55035],[33.67063,-10.54413],[33.67518,-10.52983],[33.67154,-10.52676],[33.66577,-10.53392],[33.65792,-10.52517],[33.65145,-10.52468],[33.64405,-10.51263],[33.64435,-10.50698],[33.63226,-10.49532],[33.62195,-10.4965],[33.63376,-10.48598],[33.63724,-10.47506],[33.63775,-10.46922],[33.63288,-10.45873],[33.6216,-10.45056],[33.6093,-10.45379],[33.58772,-10.43658],[33.57338,-10.43863],[33.57291,-10.4198],[33.56399,-10.4097],[33.56599,-10.40051],[33.56101,-10.39711],[33.56292,-10.38778],[33.5659,-10.3867],[33.56353,-10.37932],[33.5495,-10.37265],[33.55714,-10.3585],[33.55522,-10.35355],[33.55814,-10.34782],[33.55467,-10.33894],[33.54153,-10.33937],[33.5446,-10.32721],[33.54344,-10.31644],[33.53861,-10.30807],[33.54071,-10.30068],[33.54579,-10.29831],[33.55382,-10.25671],[33.56285,-10.24767],[33.56421,-10.23596],[33.56142,-10.23232],[33.55002,-10.23122],[33.54329,-10.23473],[33.53395,-10.21038],[33.52058,-10.20973],[33.51445,-10.20098],[33.51241,-10.18535],[33.50379,-10.18427],[33.49755,-10.17766],[33.45691,-10.16979],[33.45209,-10.16256],[33.43915,-10.16039],[33.43327,-10.13949],[33.41431,-10.12707],[33.40311,-10.11182],[33.39478,-10.11078],[33.39192,-10.10438],[33.38569,-10.10107],[33.36073,-10.10453],[33.3568,-10.10069],[33.35001,-10.10995],[33.34763,-10.10614],[33.34984,-10.0927],[33.34217,-10.08331],[33.32401,-10.07508],[33.32518,-10.06749],[33.31595,-10.06197],[33.31389,-10.05695],[33.31992,-10.05437],[33.32814,-10.03802],[33.33001,-10.00939],[33.33436,-10.00177],[33.34164,-9.99736],[33.33944,-9.99269],[33.35422,-9.964],[33.35203,-9.94559],[33.35569,-9.93356],[33.36187,-9.92522],[33.38065,-9.91593],[33.37495,-9.90382],[33.37394,-9.89141],[33.36982,-9.88723],[33.37087,-9.87054],[33.3515,-9.83404],[33.32687,-9.82755],[33.32265,-9.82302],[33.30595,-9.82072],[33.29298,-9.79548],[33.29018,-9.77485],[33.28242,-9.77501],[33.2763,-9.76791],[33.24945,-9.75891],[33.24026,-9.74944],[33.23091,-9.74893],[33.22935,-9.73924],[33.23646,-9.73411],[33.22808,-9.71706],[33.22717,-9.69892],[33.21694,-9.68697],[33.21837,-9.67466],[33.22679,-9.67146],[33.23183,-9.66196],[33.22686,-9.64695],[33.21879,-9.63823],[33.22155,-9.62423],[33.19093,-9.60029],[33.17167,-9.60095],[33.16883,-9.60914],[33.15644,-9.6167],[33.15291,-9.61083],[33.14044,-9.60948],[33.12826,-9.60299],[33.12426,-9.59692],[33.11756,-9.60309],[33.11055,-9.6178],[33.11139,-9.63056],[33.11926,-9.63618],[33.11909,-9.64014],[33.11151,-9.64127],[33.1093,-9.64695],[33.11317,-9.65677],[33.10857,-9.66856],[33.10113,-9.67153],[33.1027,-9.67959],[33.09949,-9.68436],[33.08457,-9.67482],[33.08694,-9.66386],[33.06662,-9.63938],[33.06774,-9.63131],[33.04871,-9.62719],[33.03929,-9.64378],[33.0297,-9.64226],[33.02314,-9.63655],[33.02137,-9.62204],[33.01499,-9.6173],[33.00578,-9.58541],[32.99891,-9.57379],[33.00395,-9.56622],[33.00316,-9.55872],[33.01531,-9.55115],[33.0324,-9.52323],[33.03302,-9.51453],[33.02971,-9.50706],[33.03184,-9.50355],[33.02991,-9.49923],[33.02647,-9.50107],[33.02095,-9.49599],[33.01292,-9.49428],[33.0047,-9.49784],[32.99443,-9.49771],[32.9836,-9.48729],[32.98279,-9.48304],[32.96585,-9.48524],[32.95103,-9.49294],[32.94706,-9.48265],[32.95266,-9.46737],[32.94459,-9.45893],[32.94852,-9.43486],[32.94309,-9.42121],[32.95964,-9.40068],[33,-9.36726],[33.01115,-9.3733],[33.02471,-9.40422],[33.03805,-9.41113],[33.04085,-9.41775],[33.04756,-9.41647],[33.06734,-9.43936],[33.08043,-9.44295],[33.08641,-9.45067],[33.09622,-9.45301],[33.10036,-9.45919],[33.11751,-9.46785],[33.12345,-9.47322],[33.12512,-9.48208],[33.14132,-9.4881],[33.14408,-9.49318],[33.15508,-9.49323],[33.16452,-9.49706],[33.18828,-9.49618],[33.19428,-9.49995],[33.19326,-9.5024],[33.20917,-9.50637],[33.21129,-9.50956],[33.22782,-9.49344],[33.24087,-9.49354],[33.24225,-9.48973],[33.2519,-9.48692],[33.25522,-9.49186],[33.26297,-9.49356],[33.26458,-9.49902],[33.26916,-9.49651],[33.27248,-9.50077],[33.27827,-9.5008],[33.28118,-9.4959],[33.28834,-9.49403],[33.28641,-9.49028],[33.2928,-9.4914],[33.2966,-9.48652],[33.30659,-9.4836],[33.3117,-9.48589],[33.31369,-9.49115],[33.32588,-9.48607],[33.33834,-9.4972],[33.3402,-9.50378],[33.34315,-9.50237],[33.34971,-9.5067],[33.34985,-9.51449],[33.35471,-9.51586],[33.35913,-9.5233],[33.36483,-9.52701],[33.37236,-9.52324],[33.38613,-9.53758],[33.39063,-9.53346],[33.39409,-9.53462],[33.39914,-9.54858],[33.41267,-9.55735],[33.42549,-9.57729],[33.42173,-9.58007],[33.42308,-9.58842],[33.42028,-9.59197],[33.42536,-9.59456],[33.42531,-9.59758],[33.4303,-9.59825],[33.43894,-9.61234],[33.44352,-9.61429],[33.45668,-9.617],[33.46112,-9.61478],[33.48562,-9.62436],[33.4978,-9.61903],[33.51073,-9.62602],[33.54212,-9.60989],[33.54395,-9.60166],[33.54996,-9.59781],[33.55007,-9.59049],[33.55367,-9.58754],[33.57151,-9.58961],[33.58606,-9.58041],[33.58856,-9.58327],[33.59369,-9.58043],[33.60052,-9.58985],[33.60761,-9.59001],[33.61652,-9.59959],[33.62296,-9.59683],[33.62801,-9.60422],[33.63518,-9.60153],[33.65117,-9.60414],[33.6643,-9.61272],[33.67167,-9.60819],[33.68356,-9.60876],[33.68616,-9.60591],[33.69863,-9.61429],[33.70449,-9.60827],[33.71039,-9.60863],[33.71132,-9.60129],[33.71673,-9.5971],[33.71489,-9.59263],[33.72208,-9.59002],[33.72342,-9.58343],[33.72712,-9.58758],[33.72992,-9.58485],[33.7401,-9.5862],[33.74229,-9.58283],[33.74641,-9.58582],[33.77387,-9.5866],[33.77866,-9.59145],[33.78048,-9.59962],[33.78774,-9.60584],[33.80149,-9.60621],[33.80319,-9.60951],[33.80056,-9.61365],[33.81323,-9.61666],[33.81479,-9.63296],[33.82074,-9.63422],[33.82697,-9.6426],[33.83599,-9.64037],[33.84027,-9.64275],[33.84642,-9.65306],[33.85051,-9.65168],[33.85297,-9.66174],[33.85961,-9.65911],[33.86805,-9.66508],[33.87005,-9.663],[33.87473,-9.67512],[33.88046,-9.67784],[33.88061,-9.68336],[33.8897,-9.67948],[33.89492,-9.691],[33.90012,-9.69014],[33.90158,-9.69493],[33.90581,-9.69374],[33.91168,-9.70058],[33.91797,-9.71378],[33.92859,-9.70908],[33.9408,-9.71894],[33.93936,-9.70195],[33.95694,-9.64777],[33.95638,-9.63281],[33.96945,-9.62054],[33.9684,-9.61751],[33.95762,-9.615],[33.95276,-9.60317],[33.95365,-9.59053],[33.94613,-9.57362],[33.95012,-9.55845],[33.95849,-9.55034],[33.96044,-9.54135],[33.97258,-9.52698],[34.01147,-9.5027],[34.03907,-9.49338],[34.0596,-9.51246],[34.06357,-9.52444],[34.08044,-9.52986],[34.09184,-9.54504],[34.0968,-9.54553],[34.11197,-9.55715],[34.1422,-9.59038],[34.17704,-9.61385],[34.18909,-9.62968],[34.20894,-9.64532],[34.23817,-9.67635],[34.27552,-9.70853],[34.28466,-9.7211],[34.29584,-9.72739],[34.32771,-9.75901],[34.33588,-9.77561],[34.33514,-9.78558],[34.34527,-9.8001],[34.35871,-9.81224],[34.39178,-9.86],[34.41603,-9.88524],[34.45239,-9.93795],[34.45282,-9.94439],[34.45803,-9.95133],[34.46595,-9.95597],[34.48577,-9.97765],[34.49088,-9.97861],[34.49996,-9.9901],[34.50225,-10.00057],[34.50668,-10.00475],[34.5038,-10.01602],[34.51287,-10.02343],[34.51504,-10.0316],[34.53012,-10.04935],[34.54034,-10.0675],[34.53715,-10.07635],[34.54195,-10.08094],[34.53644,-10.0972],[34.5204,-10.1138],[34.51931,-10.11894],[34.52359,-10.12197],[34.5261,-10.136],[34.53257,-10.13885],[34.5426,-10.15272],[34.55059,-10.1753],[34.56534,-10.19825],[34.56329,-10.202],[34.56936,-10.20643],[34.56818,-10.21253],[34.56441,-10.21398],[34.57069,-10.226],[34.56722,-10.23377],[34.56964,-10.24576],[34.56478,-10.25746],[34.57902,-10.28103],[34.5807,-10.29816],[34.58568,-10.30903],[34.58104,-10.31953],[34.58311,-10.32352],[34.58113,-10.32965],[34.57326,-10.34309],[34.57512,-10.34529],[34.56797,-10.36759],[34.56561,-10.3955],[34.55954,-10.40491],[34.55861,-10.42826],[34.56741,-10.44341],[34.57122,-10.46016],[34.58197,-10.45313],[34.59039,-10.45858],[34.58745,-10.47023],[34.59528,-10.48128],[34.59284,-10.4915],[34.5715,-10.51368],[34.57227,-10.52269],[34.56837,-10.53312],[34.57512,-10.53535],[34.57463,-10.55579],[34.58364,-10.57215],[34.62495,-10.59701],[34.62291,-10.61117],[34.61659,-10.6164],[34.61987,-10.6251],[34.63356,-10.63421],[34.63533,-10.64077],[34.64403,-10.64455],[34.64226,-10.6579],[34.65447,-10.67038],[34.65124,-10.67806],[34.65927,-10.6876],[34.65676,-10.69934],[34.64886,-10.71052],[34.64994,-10.71414],[34.6789,-10.74709],[34.68181,-10.7618],[34.67683,-10.76973],[34.67834,-10.77751],[34.67302,-10.78441],[34.67955,-10.81408],[34.67466,-10.8295],[34.67791,-10.83663],[34.67227,-10.8414],[34.66942,-10.85279],[34.67627,-10.85923],[34.6763,-10.86961],[34.66915,-10.88451],[34.66899,-10.89206],[34.67909,-10.90513],[34.6763,-10.9191],[34.67072,-10.92854],[34.67246,-10.93932],[34.65366,-10.95428],[34.63842,-10.97921],[34.63446,-10.99281],[34.6221,-11.00253],[34.61179,-11.0291],[34.61461,-11.04592],[34.61591,-11.04833],[34.63009,-11.04892],[34.63731,-11.05351],[34.63421,-11.07652],[34.63824,-11.08023],[34.63644,-11.08872],[34.64087,-11.09305],[34.63539,-11.10039],[34.63641,-11.11498],[34.64462,-11.1221],[34.64347,-11.1248],[34.69937,-11.1606],[34.70389,-11.16599],[34.70349,-11.1785],[34.71427,-11.1886],[34.75667,-11.20857],[34.75986,-11.21328],[34.75855,-11.21712],[34.76326,-11.22966],[34.77125,-11.23431],[34.77252,-11.25682],[34.77602,-11.25605],[34.79216,-11.26608],[34.8007,-11.28073],[34.79677,-11.28943],[34.79061,-11.28764],[34.78618,-11.29247],[34.78813,-11.31021],[34.79436,-11.32446],[34.80101,-11.3209],[34.81411,-11.32694],[34.8789,-11.36391],[34.88246,-11.36633],[34.88172,-11.36974],[34.88987,-11.37079],[34.91167,-11.38442],[34.92842,-11.39953],[34.92201,-11.4222],[34.92529,-11.4366],[34.93251,-11.44465],[34.934,-11.45153],[34.92957,-11.45921],[34.94796,-11.47739],[34.95561,-11.49154],[34.95459,-11.50656],[34.95784,-11.50956],[34.96116,-11.52818],[34.95936,-11.53759],[34.9636,-11.55094],[34.95876,-11.57352],[34.6203,-11.57358],[34.6403,-11.60027],[34.6434,-11.65402],[34.64148,-11.67479],[34.63406,-11.74063],[34.59057,-11.85651],[34.56518,-11.89039],[34.51997,-11.94101],[34.48353,-11.9731],[34.37902,-12.17038],[34.41749,-12.26449],[34.43002,-12.34069],[34.43002,-12.3974],[34.45089,-12.51596],[34.45484,-12.57022],[34.52124,-12.68479],[34.53389,-12.73152],[34.53132,-12.76888],[34.53229,-12.91076],[34.54497,-12.97003],[34.55563,-13.07066],[34.56613,-13.10795],[34.56909,-13.17875],[34.57593,-13.2343],[34.56176,-13.34947]]],[[[34.7309,-11.99771],[34.75996,-12.00722],[34.78202,-12.02111],[34.79098,-12.03236],[34.79443,-12.04639],[34.78,-12.07359],[34.77929,-12.08377],[34.7575,-12.10724],[34.74582,-12.11441],[34.73834,-12.12652],[34.72973,-12.13261],[34.70681,-12.13677],[34.67955,-12.10094],[34.67534,-12.07941],[34.68763,-12.05523],[34.69753,-12.01891],[34.70777,-12.00603],[34.7309,-11.99771]]],[[[34.61181,-11.97408],[34.6349,-11.97957],[34.64594,-11.98594],[34.65795,-11.99963],[34.66332,-12.0176],[34.6628,-12.04021],[34.65462,-12.05898],[34.63439,-12.08016],[34.61936,-12.08475],[34.60351,-12.08278],[34.58564,-12.07075],[34.57878,-12.05177],[34.5813,-12.03757],[34.57306,-12.01959],[34.57459,-12.00231],[34.58248,-11.98726],[34.59211,-11.97928],[34.61181,-11.97408]]]]}}]}