{"type":"FeatureCollection","features":[{"type":"Feature","properties":{"ISO_A3":"NAM","WB_A3":"NAM","WB_NAME":"Namibia","WB_REGION":"AFE,SSF"},"geometry":{"type":"MultiPolygon","coordinates":[[[[16.23527,-28.45786],[16.15499,-28.3812],[16.11509,-28.34835],[16.0345,-28.26924],[15.84989,-28.12799],[15.84286,-28.11878],[15.81308,-28.0949],[15.79522,-28.07275],[15.75028,-28.03416],[15.71642,-27.99909],[15.70514,-27.98037],[15.691,-27.96784],[15.68077,-27.95297],[15.675,-27.93473],[15.6848,-27.92619],[15.68412,-27.90947],[15.65232,-27.87078],[15.64628,-27.85305],[15.62062,-27.8205],[15.58283,-27.78953],[15.57787,-27.78055],[15.57469,-27.78056],[15.57087,-27.77029],[15.54881,-27.75494],[15.54831,-27.74182],[15.53233,-27.72542],[15.53009,-27.71102],[15.53644,-27.70816],[15.53642,-27.7043],[15.52246,-27.68712],[15.52125,-27.67555],[15.53083,-27.65518],[15.52718,-27.64722],[15.49653,-27.60951],[15.4952,-27.60283],[15.46505,-27.57618],[15.46388,-27.57052],[15.46804,-27.56562],[15.46773,-27.55996],[15.45395,-27.54379],[15.44942,-27.53017],[15.44029,-27.52094],[15.44213,-27.51244],[15.42837,-27.49833],[15.42138,-27.4806],[15.39188,-27.46036],[15.38984,-27.45368],[15.38002,-27.44959],[15.37986,-27.4465],[15.37032,-27.43958],[15.36796,-27.42158],[15.3597,-27.41002],[15.36011,-27.40281],[15.34321,-27.39076],[15.3374,-27.3756],[15.32383,-27.36868],[15.3186,-27.35377],[15.31167,-27.34813],[15.31049,-27.33835],[15.30586,-27.33064],[15.29749,-27.32577],[15.29054,-27.31241],[15.28543,-27.28566],[15.28802,-27.28411],[15.28412,-27.27846],[15.28569,-27.27228],[15.2799,-27.26045],[15.28087,-27.24424],[15.27279,-27.23937],[15.26528,-27.22677],[15.26118,-27.19513],[15.26488,-27.18046],[15.27192,-27.17479],[15.27147,-27.17016],[15.26744,-27.16733],[15.26237,-27.15036],[15.2635,-27.14212],[15.25557,-27.13365],[15.24861,-27.10587],[15.25465,-27.10689],[15.25793,-27.09788],[15.25271,-27.07936],[15.2373,-27.06266],[15.23844,-27.05983],[15.23471,-27.05932],[15.23469,-27.05263],[15.23109,-27.04826],[15.22991,-27.03231],[15.23249,-27.02793],[15.22902,-27.01662],[15.23187,-27.00761],[15.23603,-27.00528],[15.23442,-26.98882],[15.23956,-26.97646],[15.23968,-26.96617],[15.23161,-26.94817],[15.22841,-26.92939],[15.21547,-26.91783],[15.20197,-26.91412],[15.19221,-26.91529],[15.1908,-26.92661],[15.18763,-26.91993],[15.17613,-26.91145],[15.15115,-26.90299],[15.15271,-26.88652],[15.16044,-26.87442],[15.15153,-26.86799],[15.15669,-26.86361],[15.15639,-26.85306],[15.15137,-26.85178],[15.14679,-26.85835],[15.13888,-26.84073],[15.14187,-26.82889],[15.13671,-26.83173],[15.13255,-26.82761],[15.12966,-26.80934],[15.12106,-26.80781],[15.11444,-26.78646],[15.11616,-26.78337],[15.11228,-26.77719],[15.10683,-26.77514],[15.10525,-26.76742],[15.11097,-26.75687],[15.10867,-26.75044],[15.11095,-26.73988],[15.10765,-26.73551],[15.09404,-26.73732],[15.09046,-26.73295],[15.07981,-26.67146],[15.08209,-26.6555],[15.09111,-26.65061],[15.0888,-26.63517],[15.09424,-26.63516],[15.09425,-26.64211],[15.10643,-26.64725],[15.12546,-26.63694],[15.12688,-26.62716],[15.13113,-26.6293],[15.13176,-26.63719],[15.13692,-26.64414],[15.13593,-26.6516],[15.12906,-26.65521],[15.13321,-26.65829],[15.13294,-26.66807],[15.14054,-26.67347],[15.14155,-26.68505],[15.14475,-26.68804],[15.15072,-26.68426],[15.15186,-26.67912],[15.14712,-26.66883],[15.14826,-26.66523],[15.1557,-26.6629],[15.15512,-26.6593],[15.14811,-26.65931],[15.1518,-26.63666],[15.15467,-26.63923],[15.15324,-26.64309],[15.15997,-26.64102],[15.16167,-26.6333],[15.16811,-26.62995],[15.16666,-26.61374],[15.17653,-26.60897],[15.17752,-26.60498],[15.17405,-26.58285],[15.16532,-26.57939],[15.1533,-26.58172],[15.14671,-26.57259],[15.14741,-26.56255],[15.14195,-26.54712],[15.14162,-26.50517],[15.13417,-26.49309],[15.12229,-26.48332],[15.12585,-26.47637],[15.11354,-26.45785],[15.1234,-26.45655],[15.12353,-26.44446],[15.09678,-26.4172],[15.09663,-26.40897],[15.08991,-26.40048],[15.03303,-26.36396],[14.97448,-26.34209],[14.94993,-26.31249],[14.9495,-26.30914],[14.95736,-26.30271],[14.95722,-26.29602],[14.94994,-26.28109],[14.95366,-26.27093],[14.95224,-26.25317],[14.95866,-26.2515],[14.95253,-26.234],[14.95282,-26.22499],[14.95653,-26.22461],[14.96053,-26.21522],[14.96466,-26.21342],[14.96495,-26.19952],[14.9688,-26.19733],[14.9698,-26.19206],[14.96111,-26.17687],[14.93802,-26.15448],[14.93062,-26.13852],[14.93461,-26.13723],[14.93575,-26.13273],[14.94459,-26.13518],[14.94743,-26.14354],[14.95513,-26.14329],[14.96768,-26.13467],[14.97895,-26.11228],[14.97909,-26.08938],[14.98209,-26.08578],[14.97924,-26.07162],[14.97212,-26.05567],[14.9707,-26.04306],[14.95959,-26.02221],[14.96131,-26.01088],[14.9559,-25.9939],[14.932,-25.95966],[14.91806,-25.94498],[14.91124,-25.93186],[14.90416,-25.89222],[14.90545,-25.87704],[14.90872,-25.87189],[14.90745,-25.86211],[14.91172,-25.86083],[14.91158,-25.85542],[14.89213,-25.82607],[14.86002,-25.79928],[14.85904,-25.78769],[14.84357,-25.77455],[14.84032,-25.7604],[14.82925,-25.74957],[14.83169,-25.73208],[14.84447,-25.73299],[14.84918,-25.72232],[14.84749,-25.70353],[14.83786,-25.68447],[14.84044,-25.66878],[14.83875,-25.65565],[14.84388,-25.64587],[14.84518,-25.62966],[14.85742,-25.59776],[14.86481,-25.58773],[14.86822,-25.58735],[14.88243,-25.56497],[14.88316,-25.54374],[14.86095,-25.49533],[14.83787,-25.46571],[14.84472,-25.432],[14.81248,-25.38873],[14.80854,-25.36839],[14.81167,-25.35939],[14.81311,-25.34549],[14.81043,-25.33802],[14.81357,-25.32284],[14.80214,-25.29915],[14.80272,-25.28808],[14.80881,-25.2868],[14.81208,-25.27934],[14.83014,-25.21605],[14.8436,-25.19882],[14.84139,-25.16098],[14.84395,-25.14915],[14.86167,-25.11107],[14.87667,-25.09384],[14.87513,-25.07865],[14.8585,-25.03643],[14.823,-24.96767],[14.80329,-24.93727],[14.79457,-24.91538],[14.79771,-24.89479],[14.79298,-24.85386],[14.79693,-24.85258],[14.79837,-24.83534],[14.76832,-24.764],[14.73292,-24.70911],[14.68053,-24.64878],[14.62816,-24.59487],[14.59689,-24.55669],[14.59893,-24.53482],[14.61124,-24.51426],[14.61398,-24.49136],[14.61709,-24.48673],[14.60837,-24.44141],[14.53413,-24.29139],[14.50407,-24.22179],[14.46501,-24.09656],[14.45296,-24.02856],[14.45371,-23.98506],[14.46364,-23.95343],[14.47674,-23.9352],[14.49415,-23.92406],[14.51026,-23.92167],[14.51478,-23.91165],[14.50768,-23.864],[14.51084,-23.84213],[14.50425,-23.80736],[14.50878,-23.79373],[14.49787,-23.7574],[14.50227,-23.74145],[14.50167,-23.67658],[14.51164,-23.62693],[14.44227,-23.44727],[14.43487,-23.41661],[14.43469,-23.39369],[14.44577,-23.37661],[14.48066,-23.36927],[14.47926,-23.3721],[14.46167,-23.37667],[14.4561,-23.37523],[14.45258,-23.38217],[14.45758,-23.38811],[14.45113,-23.3971],[14.44599,-23.42591],[14.44596,-23.43312],[14.44944,-23.43403],[14.45392,-23.42955],[14.4515,-23.44164],[14.45428,-23.44525],[14.45327,-23.45245],[14.45577,-23.45452],[14.45846,-23.44681],[14.46068,-23.44913],[14.46605,-23.46717],[14.46925,-23.46796],[14.47353,-23.48084],[14.47757,-23.4824],[14.47689,-23.44095],[14.47279,-23.42009],[14.47783,-23.40508],[14.48751,-23.40134],[14.49229,-23.39183],[14.49745,-23.38979],[14.49835,-23.37538],[14.49446,-23.37021],[14.49602,-23.36275],[14.50036,-23.35994],[14.49732,-23.35246],[14.50022,-23.32132],[14.48074,-23.24197],[14.42672,-23.10353],[14.40263,-23.01283],[14.40777,-22.9508],[14.41365,-22.9413],[14.4234,-22.9358],[14.4259,-22.93722],[14.41922,-22.939],[14.42366,-22.94017],[14.43165,-22.93432],[14.43121,-22.89682],[14.4335,-22.88087],[14.43755,-22.87522],[14.44673,-22.87281],[14.44642,-22.88143],[14.44084,-22.88656],[14.43196,-22.91691],[14.43216,-22.93596],[14.42504,-22.94263],[14.42542,-22.95215],[14.41995,-22.96217],[14.43329,-22.96454],[14.42785,-22.9689],[14.42835,-22.98177],[14.43293,-22.98475],[14.44545,-22.98273],[14.45904,-22.99037],[14.4535,-23.01893],[14.45404,-23.02382],[14.45918,-23.02667],[14.47604,-22.97987],[14.48734,-22.97167],[14.48667,-22.96318],[14.48169,-22.95853],[14.50063,-22.94803],[14.51933,-22.92698],[14.51878,-22.92427],[14.53439,-22.91106],[14.5393,-22.89846],[14.5381,-22.84259],[14.54324,-22.80141],[14.53224,-22.76791],[14.5212,-22.74934],[14.52763,-22.73803],[14.52989,-22.72542],[14.52053,-22.70222],[14.52473,-22.69223],[14.52035,-22.67468],[14.52299,-22.67546],[14.52793,-22.64973],[14.5211,-22.61958],[14.50512,-22.58915],[14.51102,-22.56863],[14.50391,-22.54152],[14.48878,-22.50903],[14.4692,-22.48554],[14.44898,-22.44788],[14.45441,-22.44044],[14.45252,-22.42781],[14.42783,-22.37263],[14.42516,-22.34842],[14.40784,-22.32055],[14.39333,-22.28368],[14.36402,-22.24984],[14.31956,-22.20743],[14.31642,-22.19918],[14.28825,-22.16405],[14.28665,-22.15297],[14.29169,-22.14038],[14.28402,-22.12747],[14.2015,-22.03466],[14.17999,-22.0052],[14.16007,-21.98862],[14.11875,-21.92944],[14.07321,-21.88774],[14.06706,-21.87973],[14.06493,-21.86813],[14.04945,-21.85285],[13.95102,-21.77334],[13.95186,-21.77026],[13.9614,-21.76658],[13.96602,-21.7567],[13.97265,-21.75378],[13.9792,-21.74378],[13.97799,-21.72034],[13.96902,-21.70252],[13.92272,-21.64893],[13.90505,-21.61921],[13.88037,-21.58841],[13.86778,-21.54301],[13.85694,-21.52157],[13.86223,-21.51388],[13.85942,-21.50305],[13.82003,-21.45797],[13.81646,-21.44121],[13.80345,-21.41743],[13.7469,-21.35806],[13.74779,-21.35035],[13.73763,-21.33379],[13.72424,-21.32494],[13.70709,-21.30704],[13.68843,-21.27369],[13.68842,-21.2585],[13.65999,-21.22918],[13.63448,-21.19576],[13.604,-21.16745],[13.59265,-21.14908],[13.57713,-21.13608],[13.55547,-21.09187],[13.55667,-21.08107],[13.55121,-21.05012],[13.52276,-21.01512],[13.49306,-20.96878],[13.45972,-20.93218],[13.45306,-20.91359],[13.41511,-20.87514],[13.4098,-20.85887],[13.39605,-20.83814],[13.3905,-20.81955],[13.37682,-20.79291],[13.37647,-20.7875],[13.38162,-20.77905],[13.38145,-20.76901],[13.36589,-20.71429],[13.36507,-20.68879],[13.34638,-20.64613],[13.334,-20.60302],[13.31299,-20.57347],[13.29317,-20.53697],[13.28617,-20.51502],[13.26729,-20.49295],[13.2627,-20.47643],[13.2498,-20.45777],[13.24778,-20.44256],[13.25232,-20.42819],[13.25423,-20.40401],[13.24248,-20.35626],[13.24014,-20.32148],[13.21492,-20.28415],[13.20454,-20.26139],[13.20648,-20.23464],[13.19502,-20.21161],[13.15691,-20.17105],[13.15792,-20.16617],[13.14732,-20.1519],[13.11658,-20.12429],[13.07561,-20.09759],[13.07029,-20.08672],[13.0552,-20.07291],[13.04903,-20.04324],[13.04231,-20.03621],[13.04109,-20.02436],[13.03578,-20.01348],[13.0342,-19.98747],[13.01355,-19.96227],[12.98907,-19.91746],[12.98315,-19.90091],[12.97233,-19.88509],[12.96949,-19.87296],[12.95291,-19.85037],[12.94748,-19.82817],[12.92864,-19.7811],[12.89788,-19.74239],[12.87805,-19.70998],[12.86171,-19.67169],[12.85766,-19.6495],[12.81014,-19.57685],[12.77599,-19.50282],[12.76411,-19.488],[12.75729,-19.47092],[12.75054,-19.46801],[12.73837,-19.44546],[12.73221,-19.43972],[12.71886,-19.40481],[12.70388,-19.38042],[12.70699,-19.35163],[12.69139,-19.30382],[12.66539,-19.27337],[12.65355,-19.24851],[12.62056,-19.19609],[12.61559,-19.18418],[12.61188,-19.15968],[12.59991,-19.13482],[12.58868,-19.12489],[12.58491,-19.11454],[12.57016,-19.09505],[12.56975,-19.08629],[12.49306,-19.01924],[12.47741,-18.99831],[12.47698,-18.98158],[12.46938,-18.96526],[12.46842,-18.93951],[12.4589,-18.91621],[12.38636,-18.83362],[12.38731,-18.82411],[12.33507,-18.76084],[12.32715,-18.74039],[12.26575,-18.68675],[12.08353,-18.54171],[12.04392,-18.50764],[12.02768,-18.48757],[12.0208,-18.47202],[12.02242,-18.46433],[12.01918,-18.4563],[12.00338,-18.4347],[12.00426,-18.39174],[11.99972,-18.36826],[11.95599,-18.30076],[11.96378,-18.2834],[11.95831,-18.2629],[11.9334,-18.22262],[11.90798,-18.19188],[11.89096,-18.1718],[11.8534,-18.1384],[11.84989,-18.12121],[11.83393,-18.09108],[11.83545,-18.0769],[11.83092,-18.06307],[11.82888,-18.03608],[11.81989,-18.01228],[11.8094,-17.99544],[11.80207,-17.95695],[11.80465,-17.94996],[11.80199,-17.91732],[11.80379,-17.89542],[11.78493,-17.84087],[11.78533,-17.82336],[11.77976,-17.80183],[11.76981,-17.78369],[11.77151,-17.75459],[11.76391,-17.73231],[11.76082,-17.7061],[11.76248,-17.69166],[11.74705,-17.64787],[11.74542,-17.61109],[11.73727,-17.58649],[11.7437,-17.47908],[11.73961,-17.457],[11.74669,-17.43709],[11.74801,-17.391],[11.75864,-17.37567],[11.75268,-17.34461],[11.75658,-17.31856],[11.75428,-17.25171],[11.75555,-17.26736],[11.76117,-17.25814],[11.77081,-17.25801],[11.78438,-17.27005],[11.7954,-17.27336],[11.79756,-17.26847],[11.80829,-17.26846],[11.81915,-17.26252],[11.83699,-17.23605],[11.84528,-17.23584],[11.84919,-17.24207],[11.85776,-17.24023],[11.85935,-17.23484],[11.86907,-17.23387],[11.88262,-17.22637],[11.89277,-17.20957],[11.92153,-17.19646],[11.9402,-17.18281],[11.95658,-17.18169],[11.96225,-17.1752],[11.97238,-17.17706],[11.9965,-17.17061],[12.01446,-17.16165],[12.0223,-17.16149],[12.03418,-17.15103],[12.04508,-17.15548],[12.06194,-17.15492],[12.08094,-17.14268],[12.1023,-17.16119],[12.11083,-17.15794],[12.12803,-17.16588],[12.13625,-17.16631],[12.14674,-17.16075],[12.16216,-17.1627],[12.17596,-17.17655],[12.18384,-17.19645],[12.19421,-17.19756],[12.19941,-17.20937],[12.20985,-17.21769],[12.21733,-17.21793],[12.22865,-17.22378],[12.23338,-17.23477],[12.24945,-17.2401],[12.25843,-17.23729],[12.26318,-17.2319],[12.28297,-17.2418],[12.29634,-17.23346],[12.3059,-17.23539],[12.31612,-17.22906],[12.32864,-17.2292],[12.34976,-17.21987],[12.36796,-17.23349],[12.38501,-17.21953],[12.39304,-17.22059],[12.39621,-17.20777],[12.40601,-17.20656],[12.41541,-17.20902],[12.417,-17.21278],[12.42352,-17.20794],[12.43588,-17.22252],[12.43263,-17.24135],[12.43834,-17.24553],[12.43618,-17.25975],[12.44008,-17.26195],[12.44791,-17.26327],[12.45105,-17.25457],[12.45779,-17.25668],[12.47377,-17.25379],[12.48006,-17.24203],[12.49347,-17.248],[12.50491,-17.24543],[12.52349,-17.24851],[12.53397,-17.24263],[12.53855,-17.24757],[12.54229,-17.24632],[12.54528,-17.23912],[12.56382,-17.24324],[12.56466,-17.23923],[12.5789,-17.22858],[12.59521,-17.23529],[12.60174,-17.22922],[12.60487,-17.23169],[12.6082,-17.22565],[12.60596,-17.21657],[12.61133,-17.20956],[12.62733,-17.20584],[12.63223,-17.19978],[12.64441,-17.19744],[12.64666,-17.19123],[12.66439,-17.18215],[12.67332,-17.17347],[12.67945,-17.17642],[12.69924,-17.16902],[12.71234,-17.17215],[12.71422,-17.16108],[12.7328,-17.15394],[12.73475,-17.14756],[12.75818,-17.14019],[12.77706,-17.12392],[12.80643,-17.1147],[12.81431,-17.09526],[12.82437,-17.08495],[12.83527,-17.08715],[12.84416,-17.0776],[12.87046,-17.06733],[12.87349,-17.04682],[12.89045,-17.04511],[12.90205,-17.03707],[12.91502,-17.02166],[12.93737,-17.01852],[12.94222,-17.02028],[12.94687,-17.01861],[12.94509,-17.01122],[12.9619,-17.01018],[12.96603,-16.99274],[12.97645,-16.98928],[12.98308,-16.98253],[13.02042,-16.98136],[13.02766,-16.97702],[13.04824,-16.98062],[13.06699,-16.97318],[13.09353,-16.98002],[13.10878,-16.97239],[13.12865,-16.96737],[13.16938,-16.96357],[13.17527,-16.97177],[13.17987,-16.97305],[13.18601,-16.96982],[13.19938,-16.9748],[13.19721,-16.98272],[13.20026,-16.9884],[13.22321,-16.98495],[13.23261,-16.98638],[13.24039,-16.99337],[13.23915,-16.99708],[13.24506,-16.99988],[13.25767,-16.99255],[13.27073,-16.99875],[13.27618,-16.99821],[13.28598,-16.99264],[13.32893,-16.98323],[13.35366,-16.9742],[13.35984,-16.9788],[13.37979,-16.98353],[13.39719,-16.99667],[13.42277,-16.99916],[13.44237,-17.00931],[13.46367,-17.01177],[13.46843,-17.02066],[13.47736,-17.0255],[13.48568,-17.03686],[13.48602,-17.0436],[13.49939,-17.06969],[13.52209,-17.09329],[13.52177,-17.11102],[13.51684,-17.12118],[13.50974,-17.12327],[13.50766,-17.1272],[13.51268,-17.13668],[13.54234,-17.14731],[13.60816,-17.19061],[13.61422,-17.19736],[13.63594,-17.20764],[13.65045,-17.22539],[13.67893,-17.24603],[13.69686,-17.24753],[13.71744,-17.26563],[13.7399,-17.27122],[13.75935,-17.28673],[13.77543,-17.29355],[13.78445,-17.30528],[13.79845,-17.30995],[13.82315,-17.32619],[13.83399,-17.32761],[13.86129,-17.3436],[13.8703,-17.34346],[13.88791,-17.3585],[13.90005,-17.36296],[13.90151,-17.37087],[13.91681,-17.37806],[13.91483,-17.38517],[13.92988,-17.40017],[13.93051,-17.4053],[13.92715,-17.40797],[13.93127,-17.41627],[13.93871,-17.41876],[13.95445,-17.43251],[13.95977,-17.43324],[13.97881,-17.42735],[13.98758,-17.4339],[13.99506,-17.43286],[14.00373,-17.42114],[14.01167,-17.41521],[14.0181,-17.41513],[14.03759,-17.42321],[14.04542,-17.42042],[14.05348,-17.42961],[14.10095,-17.43883],[14.11545,-17.42365],[14.12016,-17.43068],[14.13801,-17.4323],[14.15236,-17.42782],[14.16133,-17.4175],[14.18316,-17.4123],[14.19797,-17.41391],[14.21262,-17.41008],[14.21355,-17.40103],[14.2188,-17.39791],[14.21612,-17.3916],[18.42152,-17.38972],[18.43369,-17.40624],[18.45263,-17.42189],[18.45551,-17.43309],[18.4635,-17.44406],[18.47495,-17.44991],[18.47472,-17.46774],[18.47926,-17.48354],[18.49824,-17.48692],[18.49917,-17.49289],[18.51529,-17.49996],[18.52202,-17.51589],[18.53704,-17.52426],[18.53436,-17.53938],[18.54678,-17.55944],[18.56039,-17.571],[18.56124,-17.57951],[18.56935,-17.58448],[18.59904,-17.5842],[18.60812,-17.59933],[18.61924,-17.60183],[18.61692,-17.62232],[18.62149,-17.6333],[18.63879,-17.64209],[18.65589,-17.66037],[18.66941,-17.66695],[18.68715,-17.68525],[18.73695,-17.71863],[18.74154,-17.73602],[18.75159,-17.74009],[18.77641,-17.73634],[18.78149,-17.74561],[18.78277,-17.75621],[18.79005,-17.76655],[18.83402,-17.77183],[18.84116,-17.77748],[18.84132,-17.78727],[18.85496,-17.79552],[18.86173,-17.80363],[18.86891,-17.80568],[18.87856,-17.80078],[18.90082,-17.8193],[18.92937,-17.8215],[18.94916,-17.81754],[18.95543,-17.82389],[18.96583,-17.82784],[18.98152,-17.8293],[18.99472,-17.82468],[19.01918,-17.83352],[19.03469,-17.83534],[19.11369,-17.83671],[19.1222,-17.83293],[19.12366,-17.82629],[19.11947,-17.8223],[19.12026,-17.81714],[19.13781,-17.8077],[19.16317,-17.81421],[19.16825,-17.81821],[19.17215,-17.81467],[19.17213,-17.8065],[19.17655,-17.80696],[19.1898,-17.81715],[19.23085,-17.82794],[19.23701,-17.82318],[19.23409,-17.81476],[19.24428,-17.81226],[19.24902,-17.81381],[19.25698,-17.82428],[19.26206,-17.82563],[19.27097,-17.8207],[19.28051,-17.82456],[19.29386,-17.83727],[19.29886,-17.83772],[19.30731,-17.83112],[19.31268,-17.83744],[19.32131,-17.83396],[19.33483,-17.83664],[19.33516,-17.84632],[19.32398,-17.84846],[19.32649,-17.85424],[19.34822,-17.85096],[19.35669,-17.85695],[19.36119,-17.84764],[19.36755,-17.84674],[19.37927,-17.84994],[19.38869,-17.86078],[19.41103,-17.86773],[19.43727,-17.86791],[19.44054,-17.86364],[19.46139,-17.86082],[19.46771,-17.86674],[19.47919,-17.86539],[19.48405,-17.86974],[19.49278,-17.86499],[19.50217,-17.87143],[19.5071,-17.87037],[19.50564,-17.86525],[19.51015,-17.85999],[19.51984,-17.86249],[19.53807,-17.8739],[19.54625,-17.87512],[19.56985,-17.87339],[19.57893,-17.86626],[19.5782,-17.85964],[19.58122,-17.85732],[19.58623,-17.8619],[19.60916,-17.8674],[19.61508,-17.85919],[19.62261,-17.86365],[19.63144,-17.85074],[19.67358,-17.84939],[19.68501,-17.85638],[19.70013,-17.88084],[19.70777,-17.8856],[19.71233,-17.88377],[19.70674,-17.87621],[19.70859,-17.87401],[19.7261,-17.87725],[19.74252,-17.90752],[19.75737,-17.91073],[19.76299,-17.90782],[19.77321,-17.89079],[19.77965,-17.88954],[19.785,-17.8806],[19.8106,-17.86788],[19.81971,-17.86802],[19.84064,-17.87835],[19.86443,-17.88325],[19.89882,-17.87701],[19.90374,-17.87414],[19.91002,-17.86254],[19.92581,-17.86244],[19.95281,-17.87386],[19.96424,-17.88566],[19.97258,-17.88909],[19.99789,-17.88725],[20.02536,-17.90521],[20.03987,-17.90086],[20.05694,-17.88507],[20.06555,-17.89095],[20.08209,-17.89064],[20.09112,-17.89493],[20.09616,-17.90413],[20.10643,-17.91071],[20.1137,-17.91036],[20.14531,-17.89436],[20.15863,-17.89167],[20.17286,-17.87702],[20.18631,-17.87735],[20.19551,-17.88209],[20.22003,-17.88601],[20.22936,-17.8839],[20.24549,-17.89284],[20.25015,-17.88977],[20.25526,-17.87508],[20.26763,-17.8667],[20.28004,-17.86749],[20.29457,-17.87757],[20.30783,-17.86283],[20.32291,-17.86199],[20.35385,-17.88178],[20.36722,-17.89673],[20.38249,-17.89378],[20.3942,-17.89946],[20.40157,-17.89861],[20.41925,-17.90932],[20.44052,-17.907],[20.45801,-17.91628],[20.46358,-17.92222],[20.4648,-17.93847],[20.47277,-17.94961],[20.49167,-17.95184],[20.4935,-17.95484],[20.5016,-17.95254],[20.51406,-17.96896],[20.52813,-17.97631],[20.53818,-17.97548],[20.53945,-17.98236],[20.55969,-17.98511],[20.57647,-17.97661],[20.58063,-17.97745],[20.5807,-17.98679],[20.5855,-17.987],[20.58801,-17.97564],[20.59176,-17.97428],[20.59796,-17.97796],[20.60556,-17.97537],[20.60985,-17.98373],[20.61354,-17.98496],[20.61833,-17.97589],[20.63063,-17.97999],[20.64208,-17.97697],[20.65873,-17.98602],[20.67817,-17.99169],[20.68279,-18.00212],[20.69701,-18.01017],[20.71345,-18.00764],[20.71932,-18.01322],[20.74535,-18.00112],[20.74955,-18.00729],[20.7474,-18.01983],[20.76379,-18.01606],[20.77019,-18.02092],[20.78864,-18.02531],[20.79815,-18.03171],[20.80155,-18.03788],[20.82511,-18.03928],[20.8659,-18.02996],[20.86914,-18.02629],[20.85929,-18.01806],[20.86702,-18.01145],[20.86317,-18.00289],[20.86997,-18.00369],[20.87173,-17.99988],[20.87744,-18.00124],[20.88282,-17.99834],[20.88663,-18.0003],[20.89164,-17.99851],[20.89516,-17.99242],[20.90352,-17.99651],[20.92443,-17.9861],[20.93716,-17.97395],[20.95652,-17.96562],[20.96974,-17.96411],[20.97797,-17.958],[20.99694,-17.96503],[21.01352,-17.9546],[21.02788,-17.95661],[21.05171,-17.95296],[21.06393,-17.94456],[21.08112,-17.94904],[21.1017,-17.94877],[21.10907,-17.94634],[21.11344,-17.93713],[21.11895,-17.93475],[21.14792,-17.936],[21.16019,-17.93064],[21.17372,-17.93686],[21.19172,-17.93585],[21.20945,-17.92917],[21.22246,-17.93362],[21.24167,-17.95636],[21.26836,-17.96716],[21.27647,-17.96615],[21.29525,-17.97497],[21.30715,-17.97634],[21.3178,-17.98738],[21.33149,-17.98954],[21.3625,-17.98472],[21.37158,-17.99244],[21.37266,-18.00982],[21.39733,-18.00968],[21.41127,-18.01431],[21.41747,-18.01709],[21.42293,-18.02682],[22.67137,-17.78777],[24.24979,-17.47439],[24.26016,-17.48818],[24.26906,-17.49134],[24.27562,-17.48595],[24.28927,-17.48389],[24.30778,-17.48586],[24.32703,-17.49277],[24.3881,-17.46943],[24.42841,-17.47942],[24.45372,-17.47929],[24.47742,-17.48832],[24.50927,-17.51223],[24.52382,-17.5143],[24.53769,-17.50723],[24.54612,-17.50884],[24.54945,-17.51339],[24.55212,-17.53222],[24.56016,-17.53951],[24.58354,-17.5335],[24.60502,-17.53529],[24.61394,-17.5325],[24.62656,-17.51095],[24.64245,-17.51342],[24.6371,-17.50137],[24.64424,-17.4963],[24.69299,-17.50085],[24.71521,-17.49762],[24.73196,-17.50241],[24.74744,-17.51364],[24.76234,-17.5177],[24.78137,-17.50797],[24.78669,-17.51463],[24.78904,-17.53244],[24.79353,-17.53706],[24.80399,-17.53598],[24.82994,-17.52066],[24.85452,-17.52977],[24.88069,-17.52702],[24.89645,-17.54676],[24.90757,-17.55457],[24.94405,-17.54887],[24.94771,-17.55229],[24.94062,-17.56389],[24.94375,-17.56889],[24.96038,-17.56517],[24.97875,-17.55334],[24.98789,-17.56305],[24.99582,-17.58914],[25.00644,-17.59755],[25.0195,-17.59519],[25.0364,-17.58644],[25.04819,-17.59111],[25.05102,-17.60169],[25.04323,-17.61817],[25.04477,-17.62973],[25.04959,-17.63152],[25.05519,-17.62773],[25.05712,-17.61358],[25.06512,-17.61528],[25.06729,-17.63193],[25.08185,-17.64056],[25.08736,-17.66186],[25.1032,-17.66382],[25.1065,-17.66718],[25.10856,-17.68075],[25.10003,-17.69776],[25.09364,-17.70389],[25.09516,-17.70967],[25.10642,-17.7065],[25.12352,-17.69262],[25.13386,-17.69423],[25.1364,-17.69976],[25.13387,-17.71067],[25.13973,-17.71173],[25.14168,-17.70628],[25.15044,-17.70466],[25.15894,-17.71763],[25.16149,-17.72646],[25.15643,-17.73608],[25.15655,-17.74262],[25.17039,-17.74691],[25.18156,-17.76184],[25.19047,-17.76846],[25.22746,-17.76942],[25.26173,-17.79064],[25.25837,-17.79432],[25.2372,-17.79154],[25.22224,-17.79356],[25.17675,-17.77969],[25.16252,-17.77825],[25.1563,-17.78274],[25.14394,-17.80797],[25.12937,-17.80179],[25.11826,-17.82371],[25.11383,-17.82661],[25.06625,-17.84099],[25.0536,-17.83573],[25.04922,-17.8305],[25.05359,-17.82798],[25.05952,-17.82978],[25.06176,-17.82395],[25.05922,-17.81096],[25.05328,-17.80768],[25.04423,-17.81144],[25.01364,-17.83823],[25.00443,-17.83748],[25.00012,-17.83185],[25.00407,-17.82475],[25.00938,-17.8259],[25.00942,-17.81914],[25.00573,-17.81623],[24.99793,-17.81734],[24.9947,-17.82937],[24.97703,-17.82605],[24.97495,-17.82003],[24.98102,-17.81556],[24.98011,-17.8122],[24.96712,-17.81009],[24.9651,-17.80273],[24.98003,-17.79824],[24.98234,-17.7932],[24.97476,-17.78824],[24.96156,-17.78778],[24.95283,-17.79673],[24.95371,-17.8015],[24.93881,-17.81133],[24.93455,-17.81841],[24.93114,-17.81797],[24.92784,-17.80867],[24.92532,-17.81407],[24.9217,-17.81153],[24.91677,-17.81503],[24.91069,-17.81027],[24.90022,-17.83048],[24.88845,-17.82897],[24.85472,-17.85018],[24.84908,-17.85021],[24.84879,-17.84716],[24.83282,-17.8496],[24.82306,-17.8471],[24.8198,-17.85401],[24.79649,-17.87532],[24.79292,-17.87037],[24.77736,-17.87655],[24.77132,-17.87191],[24.77379,-17.88288],[24.77056,-17.88175],[24.76816,-17.88856],[24.76504,-17.88728],[24.75737,-17.89493],[24.75054,-17.89683],[24.74621,-17.8864],[24.73863,-17.8856],[24.7396,-17.88836],[24.73559,-17.88793],[24.73526,-17.89198],[24.73166,-17.89245],[24.73006,-17.89876],[24.72364,-17.90425],[24.72626,-17.90713],[24.72475,-17.91565],[24.72035,-17.91471],[24.71909,-17.92283],[24.70847,-17.92192],[24.7064,-17.93355],[24.69923,-17.94288],[24.69573,-17.94452],[24.69434,-17.93687],[24.68625,-17.94488],[24.68229,-17.9446],[24.68117,-17.94831],[24.67514,-17.94568],[24.67028,-17.95154],[24.66577,-17.94976],[24.6636,-17.96007],[24.65567,-17.96775],[24.64902,-17.9687],[24.64634,-17.97817],[24.64122,-17.98015],[24.6365,-17.97793],[24.62722,-17.98408],[24.62937,-17.9945],[24.61636,-17.99542],[24.61448,-18.01788],[24.60817,-18.02805],[24.60854,-18.03357],[24.60617,-18.03633],[24.59903,-18.03555],[24.60136,-18.04252],[24.59748,-18.0426],[24.59769,-18.04937],[24.58173,-18.05779],[24.58266,-18.06173],[24.578,-18.06561],[24.57906,-18.07025],[24.57453,-18.07363],[24.57351,-18.06957],[24.56636,-18.07158],[24.55876,-18.06647],[24.55359,-18.06897],[24.54906,-18.06612],[24.54992,-18.06956],[24.54488,-18.07009],[24.54113,-18.06465],[24.53629,-18.06915],[24.53579,-18.06386],[24.53254,-18.06277],[24.53429,-18.06022],[24.52876,-18.05928],[24.53139,-18.05517],[24.5217,-18.05157],[24.52239,-18.05784],[24.51868,-18.0633],[24.51089,-18.05564],[24.50878,-18.05705],[24.51176,-18.06243],[24.50769,-18.06586],[24.49888,-18.05529],[24.49808,-18.04155],[24.49437,-18.04432],[24.48733,-18.03632],[24.48319,-18.03791],[24.4818,-18.03404],[24.4852,-18.02819],[24.48186,-18.02512],[24.48549,-18.02301],[24.48407,-18.0178],[24.48717,-18.01552],[24.47097,-18.00624],[24.46564,-17.98941],[24.45552,-17.98591],[24.45474,-17.98326],[24.45938,-17.98106],[24.45545,-17.97411],[24.45726,-17.9638],[24.45025,-17.96581],[24.45191,-17.97045],[24.44836,-17.97295],[24.44385,-17.96499],[24.42359,-17.95182],[24.42014,-17.95361],[24.4193,-17.9597],[24.40797,-17.95079],[24.40401,-17.95123],[24.40351,-17.95676],[24.39959,-17.95861],[24.39058,-17.95514],[24.38879,-17.94761],[24.38321,-17.95071],[24.37201,-17.94925],[24.3604,-17.9621],[24.35179,-17.96316],[24.35221,-17.96602],[24.32966,-17.99272],[24.32412,-17.99726],[24.30973,-18.00101],[24.30317,-18.0075],[24.30235,-18.01746],[24.29376,-18.03094],[24.29595,-18.03586],[24.2861,-18.03115],[24.28267,-18.02078],[24.27501,-18.0128],[24.248,-18.01786],[24.24391,-18.02465],[24.23706,-18.02658],[24.23449,-18.02355],[24.21355,-18.02049],[24.21021,-18.01663],[24.1997,-18.01826],[24.1976,-18.02165],[24.19556,-18.01845],[24.1916,-18.02266],[24.19454,-18.02349],[24.19395,-18.02665],[24.18976,-18.02592],[24.18743,-18.03403],[24.17952,-18.04101],[24.17757,-18.03744],[24.16856,-18.03642],[24.16734,-18.04],[24.17382,-18.04325],[24.17307,-18.04808],[24.1645,-18.04813],[24.14911,-18.07462],[24.14285,-18.07616],[24.13559,-18.0854],[24.13194,-18.08341],[24.12736,-18.087],[24.11726,-18.0982],[24.11796,-18.10087],[24.11251,-18.10093],[24.11487,-18.10318],[24.10797,-18.11056],[24.10474,-18.10922],[24.10379,-18.11284],[24.09933,-18.1126],[24.09158,-18.12044],[24.05604,-18.11208],[24.05503,-18.11887],[24.05761,-18.11777],[24.05815,-18.12101],[24.05409,-18.12379],[24.05802,-18.12651],[24.05296,-18.1345],[24.04838,-18.13433],[24.04926,-18.13726],[24.029,-18.14053],[24.03057,-18.14659],[24.02386,-18.14777],[24.02212,-18.14394],[24.01991,-18.15069],[24.01526,-18.14692],[24.01322,-18.15032],[24.01549,-18.15291],[24.00916,-18.15429],[24.00564,-18.1665],[23.99864,-18.16332],[23.9976,-18.16967],[23.99575,-18.16756],[23.99236,-18.16982],[23.98923,-18.16531],[23.99033,-18.17416],[23.98011,-18.18138],[23.98211,-18.18492],[23.97563,-18.1872],[23.97484,-18.19133],[23.97004,-18.1889],[23.96336,-18.19073],[23.96026,-18.18391],[23.95639,-18.18615],[23.95845,-18.19001],[23.9426,-18.20077],[23.94267,-18.20358],[23.93214,-18.20411],[23.91978,-18.22396],[23.93405,-18.23581],[23.93111,-18.25065],[23.92646,-18.24954],[23.92498,-18.25627],[23.9175,-18.25684],[23.91539,-18.26321],[23.91066,-18.26357],[23.90871,-18.26021],[23.90285,-18.26627],[23.89569,-18.26293],[23.88199,-18.27552],[23.87816,-18.27307],[23.87102,-18.28254],[23.87072,-18.29063],[23.86152,-18.29584],[23.8648,-18.30282],[23.85108,-18.30264],[23.84919,-18.30963],[23.85131,-18.31378],[23.84588,-18.32244],[23.84098,-18.32356],[23.84276,-18.32608],[23.83324,-18.32397],[23.83314,-18.32936],[23.82914,-18.33195],[23.82197,-18.33048],[23.80362,-18.33954],[23.80844,-18.35337],[23.8038,-18.35144],[23.80618,-18.35562],[23.79306,-18.36552],[23.79577,-18.37412],[23.78669,-18.38477],[23.7781,-18.38883],[23.77574,-18.38732],[23.76847,-18.39772],[23.7644,-18.39782],[23.76125,-18.40618],[23.75518,-18.40382],[23.74594,-18.41088],[23.74644,-18.41506],[23.7437,-18.41393],[23.73984,-18.42105],[23.73054,-18.42897],[23.7235,-18.42881],[23.71964,-18.43502],[23.7099,-18.43604],[23.70293,-18.43046],[23.69603,-18.43417],[23.687,-18.43313],[23.67879,-18.4467],[23.67907,-18.45173],[23.67496,-18.45288],[23.66486,-18.47175],[23.65708,-18.47877],[23.64464,-18.4799],[23.62997,-18.48995],[23.62823,-18.4946],[23.61524,-18.5012],[23.60091,-18.49866],[23.596,-18.49431],[23.59313,-18.49627],[23.56727,-18.47827],[23.57313,-18.46792],[23.56971,-18.46283],[23.57162,-18.45449],[23.56228,-18.44889],[23.55485,-18.44009],[23.55392,-18.43398],[23.55936,-18.41755],[23.56422,-18.41408],[23.5606,-18.39167],[23.55036,-18.38908],[23.55374,-18.37312],[23.56091,-18.37387],[23.56347,-18.3659],[23.55354,-18.35834],[23.55286,-18.34666],[23.55797,-18.33606],[23.55099,-18.33701],[23.54488,-18.33018],[23.5369,-18.32722],[23.53553,-18.31933],[23.53114,-18.31985],[23.52797,-18.3122],[23.5341,-18.2969],[23.52808,-18.29228],[23.52681,-18.28403],[23.52354,-18.28534],[23.52473,-18.27434],[23.52006,-18.27212],[23.51992,-18.26818],[23.503,-18.2657],[23.5065,-18.26207],[23.50131,-18.25761],[23.50426,-18.25484],[23.49803,-18.25436],[23.50133,-18.24283],[23.48815,-18.24146],[23.48195,-18.24435],[23.47668,-18.24154],[23.47121,-18.24659],[23.46698,-18.24573],[23.46847,-18.24265],[23.4603,-18.23582],[23.45304,-18.23611],[23.45075,-18.22674],[23.44697,-18.22387],[23.45061,-18.22],[23.44525,-18.21276],[23.43812,-18.21466],[23.43356,-18.20858],[23.42703,-18.20986],[23.42451,-18.20414],[23.42038,-18.20598],[23.42225,-18.20885],[23.41966,-18.21337],[23.41049,-18.20361],[23.40657,-18.20603],[23.4022,-18.204],[23.40261,-18.20864],[23.39696,-18.20734],[23.39947,-18.19727],[23.40237,-18.19642],[23.39853,-18.19229],[23.40477,-18.18846],[23.40297,-18.1747],[23.39065,-18.16632],[23.39014,-18.16181],[23.38446,-18.16399],[23.37961,-18.14522],[23.38081,-18.13792],[23.36529,-18.12901],[23.36621,-18.12276],[23.36289,-18.12142],[23.36571,-18.11938],[23.35798,-18.11767],[23.35823,-18.11259],[23.35069,-18.11016],[23.3526,-18.10428],[23.34701,-18.1015],[23.34937,-18.09908],[23.3478,-18.09562],[23.34553,-18.09635],[23.3391,-18.08569],[23.33282,-18.08814],[23.33049,-18.08386],[23.32409,-18.08204],[23.32642,-18.07865],[23.32219,-18.07559],[23.32463,-18.07084],[23.32082,-18.0685],[23.32413,-18.06394],[23.32038,-18.05945],[23.32404,-18.05396],[23.32956,-18.05668],[23.33467,-18.05159],[23.32181,-18.04969],[23.32098,-18.03821],[23.30929,-18.03927],[23.3087,-18.03251],[23.31695,-18.02376],[23.31346,-18.01773],[23.30427,-18.01203],[23.30927,-18.0036],[23.30201,-18.00181],[23.29624,-18.00602],[23.29687,-18.00079],[23.09837,-18.00082],[21.453,-18.31734],[20.99877,-18.31733],[20.99874,-22.00034],[19.99918,-21.99986],[19.99922,-28.42764],[19.97285,-28.42526],[19.95257,-28.43439],[19.91451,-28.44528],[19.88747,-28.44064],[19.87708,-28.4425],[19.86511,-28.45603],[19.84755,-28.45959],[19.83974,-28.47322],[19.84111,-28.47943],[19.829,-28.4963],[19.82033,-28.505],[19.81093,-28.50796],[19.77929,-28.50074],[19.77012,-28.493],[19.73972,-28.48563],[19.72542,-28.49046],[19.69563,-28.51791],[19.67346,-28.52051],[19.66825,-28.53065],[19.66288,-28.53035],[19.65903,-28.52506],[19.63179,-28.51228],[19.622,-28.51061],[19.5925,-28.522],[19.58223,-28.52953],[19.56553,-28.52696],[19.54625,-28.54297],[19.54724,-28.5546],[19.54254,-28.57541],[19.53587,-28.58667],[19.50645,-28.59738],[19.49993,-28.6065],[19.50199,-28.63001],[19.49469,-28.64276],[19.49075,-28.68007],[19.47852,-28.68832],[19.46547,-28.70693],[19.43868,-28.71932],[19.43177,-28.71965],[19.41743,-28.7284],[19.39914,-28.73334],[19.38892,-28.73152],[19.3794,-28.73692],[19.35124,-28.74296],[19.33405,-28.73625],[19.32194,-28.73754],[19.3027,-28.73199],[19.26909,-28.74216],[19.25765,-28.75934],[19.25414,-28.77481],[19.23972,-28.80518],[19.23929,-28.81285],[19.24185,-28.82751],[19.26465,-28.86909],[19.26987,-28.87238],[19.28563,-28.87359],[19.29652,-28.88614],[19.2963,-28.8928],[19.28516,-28.90796],[19.24442,-28.90245],[19.23224,-28.90977],[19.2182,-28.92879],[19.19059,-28.95043],[19.14849,-28.96298],[19.13538,-28.9606],[19.11974,-28.96908],[19.07212,-28.95769],[19.05603,-28.94089],[19.04129,-28.9316],[19.00852,-28.92884],[18.99639,-28.89255],[18.97181,-28.87018],[18.96147,-28.86963],[18.92707,-28.85525],[18.90193,-28.85506],[18.85498,-28.84443],[18.84616,-28.84897],[18.8344,-28.84778],[18.82524,-28.8429],[18.8143,-28.84663],[18.79054,-28.84068],[18.77978,-28.84441],[18.74769,-28.83372],[18.72893,-28.83218],[18.68829,-28.84227],[18.66109,-28.84406],[18.63027,-28.84036],[18.60082,-28.85558],[18.56635,-28.85744],[18.53321,-28.86793],[18.51189,-28.88992],[18.47074,-28.88333],[18.44794,-28.89424],[18.42191,-28.90098],[18.40541,-28.89648],[18.36739,-28.89347],[18.35059,-28.8814],[18.30335,-28.88455],[18.26567,-28.87921],[18.26055,-28.88032],[18.25162,-28.8963],[18.2216,-28.89402],[18.19945,-28.91146],[18.18797,-28.916],[18.16695,-28.89987],[18.14479,-28.89273],[18.13013,-28.89586],[18.09858,-28.87629],[18.07984,-28.87006],[18.0563,-28.87727],[18.04506,-28.87348],[18.0257,-28.84606],[18.01225,-28.83574],[18.01277,-28.82855],[17.99075,-28.80773],[17.98279,-28.80715],[17.97256,-28.79213],[17.96214,-28.78474],[17.94346,-28.78932],[17.93498,-28.7874],[17.92769,-28.7724],[17.91689,-28.76438],[17.91003,-28.76613],[17.90546,-28.77133],[17.88165,-28.76442],[17.82681,-28.76032],[17.82129,-28.75571],[17.80425,-28.75485],[17.7829,-28.75845],[17.77347,-28.75632],[17.75324,-28.741],[17.74729,-28.73994],[17.74239,-28.74212],[17.73041,-28.76017],[17.72476,-28.761],[17.71107,-28.74561],[17.70384,-28.74473],[17.69291,-28.74973],[17.67829,-28.767],[17.66671,-28.7723],[17.64496,-28.77332],[17.62363,-28.76341],[17.61831,-28.76474],[17.60929,-28.74938],[17.61222,-28.72487],[17.60924,-28.71257],[17.59871,-28.69454],[17.58828,-28.68876],[17.5678,-28.68532],[17.55557,-28.68808],[17.55333,-28.69429],[17.5443,-28.70054],[17.49152,-28.69306],[17.4824,-28.69614],[17.4732,-28.70485],[17.46346,-28.7021],[17.4317,-28.72057],[17.4184,-28.7214],[17.41062,-28.71441],[17.41731,-28.69517],[17.41363,-28.67347],[17.41407,-28.66911],[17.42698,-28.65507],[17.42567,-28.63118],[17.4313,-28.61609],[17.42525,-28.5981],[17.43183,-28.57534],[17.42721,-28.56707],[17.41275,-28.56292],[17.40072,-28.5643],[17.38772,-28.57156],[17.37938,-28.56808],[17.37562,-28.55766],[17.37739,-28.53789],[17.36934,-28.5168],[17.36048,-28.50543],[17.34093,-28.49654],[17.33271,-28.47335],[17.33902,-28.45206],[17.34625,-28.44512],[17.34707,-28.44001],[17.35448,-28.43686],[17.38304,-28.43711],[17.39207,-28.43171],[17.40981,-28.39863],[17.41336,-28.3759],[17.40478,-28.35617],[17.37513,-28.32129],[17.38195,-28.29601],[17.36928,-28.27734],[17.36169,-28.27395],[17.3557,-28.25247],[17.33367,-28.22642],[17.30939,-28.22441],[17.3027,-28.2265],[17.27786,-28.24547],[17.25646,-28.2383],[17.22855,-28.25082],[17.21434,-28.24771],[17.19432,-28.22621],[17.18254,-28.20504],[17.18428,-28.17556],[17.19363,-28.15029],[17.19643,-28.12885],[17.19223,-28.10848],[17.17868,-28.09856],[17.16702,-28.10014],[17.14024,-28.09429],[17.13087,-28.08514],[17.12576,-28.06825],[17.10417,-28.04795],[17.08285,-28.03339],[17.0766,-28.03293],[17.06611,-28.04271],[17.05005,-28.04915],[17.02156,-28.05154],[17.01136,-28.0686],[17.00293,-28.07504],[16.99482,-28.07319],[16.98723,-28.06459],[16.97544,-28.05884],[16.95622,-28.07539],[16.94841,-28.07635],[16.92921,-28.06973],[16.90737,-28.07042],[16.90072,-28.07261],[16.88768,-28.0857],[16.88104,-28.098],[16.88925,-28.11879],[16.89001,-28.13124],[16.88765,-28.14569],[16.8839,-28.14971],[16.88792,-28.17214],[16.88569,-28.17591],[16.86875,-28.18235],[16.86656,-28.17651],[16.85856,-28.17042],[16.84433,-28.16465],[16.83164,-28.1663],[16.82709,-28.17532],[16.83103,-28.18451],[16.85301,-28.19996],[16.85632,-28.21083],[16.84658,-28.21613],[16.83024,-28.21734],[16.809,-28.21393],[16.80269,-28.22286],[16.80732,-28.23394],[16.82536,-28.24448],[16.82695,-28.25912],[16.82424,-28.26964],[16.816,-28.27578],[16.80814,-28.27628],[16.79798,-28.2741],[16.77868,-28.25932],[16.76289,-28.26079],[16.75772,-28.26419],[16.75168,-28.28787],[16.75278,-28.29789],[16.76079,-28.30991],[16.77973,-28.32181],[16.78827,-28.3453],[16.80835,-28.36281],[16.79971,-28.36734],[16.7886,-28.38106],[16.76766,-28.39876],[16.76659,-28.40838],[16.77592,-28.44294],[16.76671,-28.45435],[16.74803,-28.46556],[16.73773,-28.48777],[16.72604,-28.49887],[16.71278,-28.50008],[16.69971,-28.49595],[16.69707,-28.47867],[16.68811,-28.47029],[16.66615,-28.47531],[16.61812,-28.50278],[16.61249,-28.51974],[16.60027,-28.53124],[16.52956,-28.55425],[16.48548,-28.56361],[16.46706,-28.57439],[16.46631,-28.58156],[16.45551,-28.59255],[16.45724,-28.59498],[16.44777,-28.62945],[16.39224,-28.59659],[16.33519,-28.55652],[16.23527,-28.45786]]],[[[15.19959,-27.03081],[15.20001,-27.02412],[15.18878,-27.01102],[15.18748,-27.00253],[15.19207,-27.00149],[15.20044,-27.02335],[15.20346,-27.0236],[15.20419,-27.03003],[15.19959,-27.03081]]],[[[15.15505,-26.60294],[15.15704,-26.59136],[15.15947,-26.59496],[15.15505,-26.60294]]],[[[15.15593,-26.62237],[15.15192,-26.61774],[15.15392,-26.61195],[15.15606,-26.61221],[15.15593,-26.62237]]],[[[14.4725,-22.96261],[14.46389,-22.95962],[14.4739,-22.95979],[14.4725,-22.96261]]]]}}]}