{"type":"FeatureCollection","features":[{"type":"Feature","properties":{"ISO_A3":"NER","WB_A3":"NER","WB_NAME":"Niger","WB_REGION":"AFW,SSF"},"geometry":{"type":"MultiPolygon","coordinates":[[[[2.99591,12.27619],[2.96617,12.28501],[2.95401,12.2991],[2.94993,12.31227],[2.92746,12.33484],[2.89588,12.35686],[2.88465,12.37708],[2.87192,12.38833],[2.8572,12.39269],[2.8398,12.40646],[2.82667,12.40861],[2.8254,12.40473],[2.82911,12.40007],[2.83343,12.40586],[2.83623,12.40309],[2.83251,12.39863],[2.83612,12.39675],[2.82978,12.39406],[2.80658,12.39616],[2.78648,12.38571],[2.77629,12.37624],[2.76245,12.35171],[2.7476,12.35021],[2.73574,12.36464],[2.7321,12.35627],[2.72242,12.35188],[2.71715,12.32825],[2.70621,12.31172],[2.7071,12.30474],[2.69387,12.2819],[2.68446,12.28016],[2.68444,12.2945],[2.66859,12.30557],[2.62826,12.29536],[2.61315,12.30107],[2.60305,12.29837],[2.59837,12.30252],[2.59319,12.29934],[2.57943,12.27788],[2.57345,12.28265],[2.56632,12.27888],[2.55418,12.28004],[2.54727,12.27397],[2.54175,12.2738],[2.54139,12.28186],[2.52278,12.28792],[2.52133,12.29478],[2.51323,12.28531],[2.51283,12.27585],[2.50787,12.27429],[2.50445,12.26634],[2.47389,12.27325],[2.46936,12.27134],[2.46365,12.25321],[2.44202,12.26508],[2.43191,12.25285],[2.40985,12.25321],[2.39954,12.25802],[2.38134,12.25067],[2.38417,12.24273],[2.37371,12.24225],[2.38115,12.2307],[2.39071,12.2275],[2.3871,12.21621],[2.37683,12.21461],[2.38214,12.20095],[2.3918,12.19301],[2.39229,12.18363],[2.38151,12.17463],[2.38152,12.1686],[2.39642,12.14735],[2.39021,12.14103],[2.39741,12.13132],[2.39094,12.11274],[2.40411,12.10227],[2.40858,12.08642],[2.40475,12.08188],[2.42119,12.07483],[2.41749,12.06458],[2.42205,12.05265],[2.42784,12.0533],[2.43564,12.04886],[2.43627,12.04446],[2.43211,12.03956],[2.43609,12.03424],[2.43734,12.02149],[2.44131,12.0171],[2.44856,12.0204],[2.45247,12.01796],[2.45603,12.00969],[2.45399,12.00672],[2.46063,11.99852],[2.46399,11.98542],[2.46383,11.97831],[2.46073,11.97636],[2.45884,11.98108],[2.44766,11.9842],[2.44499,11.9779],[2.43576,11.9732],[2.4341,11.96759],[2.43886,11.95862],[2.43673,11.95316],[2.42428,11.95493],[2.41857,11.95092],[2.41837,11.947],[2.41148,11.9507],[2.41524,11.95537],[2.41157,11.95611],[2.40164,11.94791],[2.40443,11.94416],[2.40072,11.94064],[2.4015,11.93588],[2.39799,11.93645],[2.39177,11.93124],[2.39302,11.92617],[2.4019,11.92006],[2.3996,11.91308],[2.41096,11.90663],[2.4086,11.89958],[2.40406,11.90032],[2.06685,12.35089],[2.06569,12.3571],[2.07551,12.37034],[2.07081,12.37694],[2.08784,12.39396],[2.09389,12.39181],[2.10721,12.39386],[2.10494,12.38908],[2.11173,12.38162],[2.11941,12.39598],[2.12394,12.39827],[2.13036,12.39593],[2.13179,12.40072],[2.15608,12.4091],[2.1556,12.41594],[2.15906,12.41766],[2.16317,12.41777],[2.16489,12.41287],[2.16948,12.41481],[2.17712,12.42452],[2.18117,12.41995],[2.18048,12.41602],[2.193,12.42237],[2.21306,12.4207],[2.21622,12.41209],[2.2227,12.41401],[2.22933,12.42242],[2.24072,12.42291],[2.24341,12.42181],[2.24267,12.4176],[2.25323,12.42018],[2.25784,12.41384],[2.26201,12.41343],[2.26339,12.42084],[2.27787,12.42518],[2.26842,12.44349],[2.2718,12.47269],[2.23064,12.52362],[2.2289,12.58397],[2.2008,12.62883],[2.15225,12.64912],[2.16142,12.66705],[2.16292,12.69038],[2.13592,12.69577],[2.11408,12.7053],[2.10663,12.72887],[2.09445,12.72386],[2.09128,12.71868],[2.08028,12.72469],[2.06611,12.72451],[2.0623,12.72761],[2.05891,12.72552],[2.04826,12.72834],[2.04293,12.72454],[2.01836,12.72532],[1.9837,12.73769],[1.97883,12.73571],[1.95044,12.69214],[1.9273,12.69302],[1.86858,12.60534],[0.99192,13.10336],[0.99192,13.37469],[1.01241,13.37459],[1.01757,13.36858],[1.05999,13.36795],[1.07314,13.35632],[1.11672,13.33382],[1.12764,13.33166],[1.13339,13.3368],[1.14512,13.32998],[1.14859,13.33452],[1.15275,13.33183],[1.1513,13.32848],[1.18517,13.32089],[1.20305,13.33276],[1.2018,13.34385],[1.20638,13.34713],[1.20659,13.35851],[1.20365,13.37331],[1.21148,13.38016],[1.21987,13.37843],[1.22722,13.37038],[1.22723,13.35883],[1.23781,13.34406],[1.24146,13.34412],[1.24099,13.33923],[1.25737,13.33949],[1.28321,13.35118],[1.28404,13.35649],[1.24214,13.39156],[1.21276,13.3903],[1.15976,13.41291],[1.13786,13.41232],[1.08973,13.46237],[1.06772,13.46243],[1.03533,13.48601],[1.03397,13.48269],[1.02763,13.48098],[1.02407,13.4847],[1.01708,13.48454],[1.0129,13.49395],[1.01775,13.50131],[1.0085,13.51893],[1.01838,13.52828],[1.00821,13.54849],[1.00781,13.56109],[0.99805,13.57112],[0.99655,13.57731],[0.97099,13.57899],[0.90793,13.61686],[0.8523,13.6252],[0.83611,13.61949],[0.79728,13.63126],[0.78969,13.65412],[0.80447,13.66691],[0.76999,13.69078],[0.64424,13.68126],[0.61188,13.70304],[0.60735,13.72225],[0.60725,13.7415],[0.60977,13.74912],[0.62337,13.76392],[0.62611,13.77251],[0.62057,13.77349],[0.6181,13.77742],[0.59995,13.77751],[0.5963,13.78071],[0.59519,13.78646],[0.58677,13.78987],[0.58181,13.80399],[0.58331,13.80849],[0.57424,13.81867],[0.55868,13.82668],[0.55105,13.83656],[0.53232,13.84801],[0.5259,13.86457],[0.51404,13.86839],[0.48819,13.90068],[0.47955,13.90542],[0.46843,13.92434],[0.46957,13.93722],[0.4731,13.94225],[0.46213,13.95651],[0.45359,13.95765],[0.44855,13.94874],[0.43996,13.95283],[0.44496,13.95744],[0.44648,13.96748],[0.44025,13.96677],[0.43959,13.97482],[0.42364,13.98059],[0.41285,14.00606],[0.411,14.0296],[0.39136,14.03743],[0.38167,14.04502],[0.38097,14.05229],[0.16172,14.53423],[0.17212,14.63295],[0.23688,14.75262],[0.17753,14.84694],[0.21936,14.88532],[0.244,14.913],[0.24465,14.99403],[0.39463,14.96399],[0.52264,14.99822],[0.5726,14.98902],[0.60846,14.96869],[0.68764,14.94428],[0.70347,14.94489],[0.72809,14.95807],[0.74485,14.96195],[0.90647,14.97217],[0.96614,14.98105],[1,15],[1.3115,15.27813],[2.63637,15.3468],[3.01997,15.33819],[3.02364,15.40864],[3.02841,15.42694],[3.03148,15.42857],[3.49765,15.3588],[3.52185,15.37941],[3.53631,15.40342],[3.54061,15.44976],[3.53441,15.471],[3.53689,15.48518],[3.59583,15.52104],[3.64515,15.58602],[3.70373,15.64815],[3.72246,15.65906],[3.73361,15.66119],[3.79242,15.66309],[3.80878,15.66712],[3.84815,15.68158],[3.87945,15.70625],[3.90103,15.74704],[3.91621,15.80348],[3.92806,15.86442],[3.98008,15.94059],[3.97953,15.99267],[3.99453,16.03537],[3.98533,16.06997],[3.98607,16.08083],[4.00633,16.11832],[4.02546,16.16399],[4.06825,16.23277],[4.07926,16.27032],[4.08829,16.28657],[4.08919,16.30336],[4.09713,16.32322],[4.11844,16.35012],[4.19985,16.39507],[4.19697,16.81029],[4.20671,16.83718],[4.20581,16.88033],[4.21285,16.91283],[4.2143,17.00002],[4.26667,17.00174],[4.26612,19.14672],[5.81252,19.4444],[6.67184,20.18021],[7.45891,20.84448],[8.48508,21.46831],[9.67794,22.17894],[10.80847,22.83789],[11.99816,23.5159],[13.52673,23.15589],[13.57072,23.13507],[13.70108,23.0592],[13.78312,22.99398],[13.93839,22.86218],[14.03006,22.77754],[14.18959,22.64451],[15,23],[15.05718,22.69833],[15.19901,21.99971],[15.19783,21.49834],[15.28187,21.45096],[15.48117,20.99968],[15.48586,20.99318],[15.50014,20.98412],[15.50454,20.96539],[15.50452,20.96089],[15.49446,20.94728],[15.48392,20.90874],[15.46166,20.89929],[15.41983,20.8678],[15.41108,20.83877],[15.41916,20.8114],[15.42717,20.79472],[15.46077,20.77755],[15.46904,20.76688],[15.50795,20.7416],[15.51359,20.73272],[15.52397,20.73476],[15.52788,20.69881],[15.53702,20.69366],[15.54594,20.68244],[15.59409,20.6118],[15.60116,20.58538],[15.59273,20.57013],[15.62452,20.53791],[15.67144,20.53369],[15.68652,20.5264],[15.70783,20.51034],[15.72376,20.47831],[15.74241,20.45839],[15.76484,20.45827],[15.99903,20.36149],[15.78427,19.99968],[15.75565,19.94508],[15.6033,18.88821],[15.59198,18.79485],[15.53253,16.7488],[14.99855,16.27905],[14.64604,15.99878],[14.38997,15.74035],[14.24967,15.55628],[14.09005,15.33265],[14.00355,15.2059],[13.95286,15.14201],[13.87261,15.05394],[13.79086,14.87477],[13.79497,14.7999],[13.81321,14.73479],[13.80865,14.72726],[13.76766,14.70008],[13.74674,14.70427],[13.67293,14.64025],[13.69462,14.62008],[13.69235,14.58607],[13.69544,14.55854],[13.64299,14.52104],[13.59847,14.5102],[13.57366,14.51374],[13.49864,14.48514],[13.47116,14.46276],[13.47,14.41639],[13.63338,13.70816],[13.36702,13.70775],[13.35752,13.70963],[13.35894,13.71275],[13.34914,13.71466],[13.34545,13.71995],[13.33977,13.72139],[13.33665,13.71714],[13.33192,13.71665],[13.33548,13.70981],[13.33489,13.69324],[13.32873,13.69516],[13.32567,13.68899],[13.32269,13.6936],[13.31629,13.69015],[13.31673,13.69376],[13.30955,13.69643],[13.30758,13.69099],[13.31186,13.68729],[13.30653,13.68298],[13.30476,13.67569],[13.29573,13.67357],[13.29834,13.66645],[13.29348,13.66994],[13.29711,13.66274],[13.29395,13.65826],[13.28811,13.661],[13.27852,13.65415],[13.26887,13.64242],[13.27538,13.6389],[13.26211,13.63626],[13.258,13.62977],[13.26319,13.61963],[13.24334,13.61634],[13.24292,13.61241],[13.25248,13.60602],[13.24766,13.60425],[13.24967,13.59981],[13.25277,13.59676],[13.25819,13.60285],[13.26256,13.59513],[13.25691,13.59371],[13.25121,13.58011],[13.24404,13.5836],[13.2428,13.58922],[13.23378,13.58887],[13.22958,13.58435],[13.22709,13.5759],[13.23576,13.57141],[13.23889,13.56414],[13.22704,13.55645],[13.2208,13.55957],[13.21915,13.55049],[13.21602,13.54981],[13.21576,13.55524],[13.21287,13.55493],[13.20561,13.54149],[13.20757,13.53217],[13.20441,13.52708],[13.1954,13.52716],[13.19414,13.52281],[13.2003,13.51756],[13.19783,13.51352],[13.19421,13.51318],[13.18751,13.5192],[13.18661,13.53136],[13.18163,13.53742],[13.16964,13.53195],[13.16217,13.53392],[13.16073,13.52841],[13.15568,13.52512],[13.15538,13.51635],[13.14017,13.518],[13.14009,13.5322],[13.14462,13.53641],[13.142,13.54328],[13.14811,13.54936],[13.14246,13.54985],[13.13544,13.54152],[13.12657,13.54397],[13.12108,13.53882],[13.12597,13.53251],[13.12476,13.52155],[13.11268,13.52849],[13.10496,13.53995],[13.10036,13.53795],[13.09963,13.52941],[13.09462,13.5241],[13.08947,13.52003],[13.0868,13.52214],[13.08089,13.51999],[13.07382,13.52587],[13.0614,13.52711],[13.0602,13.53365],[13.06858,13.53699],[13.0697,13.5323],[13.07265,13.53462],[13.06468,13.54983],[13.0606,13.54947],[13.06123,13.54697],[13.05186,13.53907],[13.047,13.53853],[13.04362,13.54325],[13.04205,13.52149],[13.03947,13.52902],[13.02213,13.53662],[13.01246,13.52761],[13.00306,13.50954],[12.99671,13.5107],[12.99768,13.51742],[12.99326,13.51924],[12.98303,13.51516],[12.98118,13.51903],[12.97691,13.51963],[12.97083,13.51493],[12.96974,13.51887],[12.96441,13.51918],[12.96344,13.5147],[12.95517,13.52111],[12.95227,13.51049],[12.95771,13.49989],[12.94996,13.49828],[12.94385,13.5054],[12.94476,13.50948],[12.93279,13.504],[12.92195,13.48924],[12.91608,13.4869],[12.89917,13.48569],[12.89872,13.49161],[12.89018,13.48997],[12.8918,13.49578],[12.88789,13.5001],[12.87112,13.4996],[12.86648,13.4892],[12.87409,13.47962],[12.8727,13.47197],[12.85392,13.4831],[12.85449,13.48777],[12.85112,13.47766],[12.84185,13.47646],[12.8538,13.47363],[12.8574,13.46666],[12.85374,13.46389],[12.85224,13.4553],[12.85615,13.44373],[12.84038,13.44059],[12.83677,13.44276],[12.83849,13.45373],[12.8345,13.4546],[12.83626,13.44903],[12.83304,13.43617],[12.82771,13.43508],[12.82647,13.43747],[12.82081,13.4304],[12.81041,13.43095],[12.81301,13.42619],[12.82367,13.42536],[12.82755,13.42015],[12.82992,13.40853],[12.82643,13.4027],[12.81833,13.40291],[12.81735,13.40588],[12.82343,13.40964],[12.82197,13.41223],[12.81742,13.4109],[12.81649,13.40545],[12.79764,13.40674],[12.78327,13.39798],[12.78463,13.3906],[12.79492,13.38215],[12.79105,13.3769],[12.78587,13.37832],[12.78014,13.37555],[12.77502,13.37935],[12.78088,13.38358],[12.77225,13.39104],[12.7628,13.38803],[12.76056,13.36884],[12.74035,13.35267],[12.73364,13.3409],[12.73263,13.33723],[12.73768,13.33766],[12.74143,13.33386],[12.74,13.32616],[12.70933,13.32352],[12.71012,13.31742],[12.7202,13.31421],[12.72014,13.30935],[12.71036,13.30688],[12.70229,13.31999],[12.6821,13.32002],[12.69197,13.30205],[12.68688,13.29141],[12.67833,13.28294],[12.67714,13.27628],[12.66906,13.27311],[12.66509,13.28557],[12.6566,13.29086],[12.64818,13.28689],[12.64737,13.29168],[12.64326,13.29382],[12.64441,13.30313],[12.64104,13.30359],[12.63337,13.28526],[12.62326,13.27779],[12.61261,13.27865],[12.61098,13.28303],[12.60734,13.28342],[12.59626,13.28026],[12.58885,13.28839],[12.58885,13.28353],[12.586,13.28231],[12.57892,13.28431],[12.57926,13.28119],[12.58548,13.27962],[12.59072,13.26884],[12.58691,13.26469],[12.58506,13.27428],[12.57713,13.27567],[12.58028,13.26719],[12.57646,13.26042],[12.58106,13.25833],[12.58031,13.25587],[12.57053,13.25281],[12.56474,13.24664],[12.5644,13.23947],[12.5708,13.23577],[12.56931,13.23062],[12.55327,13.22768],[12.55429,13.21182],[12.54853,13.20311],[12.54444,13.20489],[12.54207,13.21121],[12.53768,13.21196],[12.53735,13.21861],[12.532,13.21425],[12.53473,13.20313],[12.54256,13.19613],[12.554,13.19673],[12.55257,13.20177],[12.55631,13.20322],[12.56048,13.19644],[12.55016,13.18431],[12.55281,13.16663],[12.53951,13.15185],[12.54253,13.14371],[12.53385,13.14316],[12.5337,13.15157],[12.52976,13.15043],[12.52819,13.15416],[12.52496,13.14866],[12.51543,13.15411],[12.51189,13.15128],[12.50811,13.1459],[12.51148,13.14037],[12.50724,13.14462],[12.50189,13.14473],[12.49628,13.13198],[12.48868,13.12401],[12.48944,13.11584],[12.49333,13.11412],[12.48819,13.10251],[12.49503,13.09866],[12.48762,13.093],[12.49576,13.08704],[12.49407,13.08478],[12.48925,13.08778],[12.47796,13.08608],[12.48218,13.07166],[12.47345,13.05521],[12.46891,13.06734],[12.44988,13.07508],[12.43361,13.07275],[12.42742,13.07612],[12.41918,13.07452],[12.40558,13.08311],[12.38918,13.07469],[12.37568,13.07986],[12.36984,13.07496],[12.36668,13.08003],[12.37187,13.09007],[12.36898,13.09124],[12.36272,13.08722],[12.35996,13.08884],[12.35327,13.07769],[12.34588,13.08797],[12.34011,13.08699],[12.33703,13.08469],[12.33981,13.07413],[12.33774,13.07162],[12.33076,13.0754],[12.33391,13.0838],[12.32185,13.0846],[12.31198,13.09714],[12.30825,13.09488],[12.29568,13.10022],[12.28626,13.0957],[12.28509,13.09102],[12.27709,13.08966],[12.27762,13.08562],[12.28939,13.08282],[12.28934,13.08037],[12.27115,13.08218],[12.27044,13.10826],[12.26302,13.11449],[12.26042,13.11333],[12.2587,13.1174],[12.23687,13.11625],[12.23376,13.10687],[12.22689,13.11395],[12.21308,13.11505],[12.20132,13.12919],[12.19002,13.12247],[12.187,13.12455],[12.18061,13.11734],[12.17828,13.12114],[12.18127,13.12421],[12.17815,13.1258],[12.17546,13.1209],[12.18362,13.10973],[12.18149,13.10618],[12.17451,13.10785],[12.17472,13.09991],[12.16916,13.10578],[12.16082,13.09764],[12.15351,13.11072],[12.14451,13.10939],[12.14585,13.10592],[12.10623,13.11488],[12.03844,13.14098],[12.00918,13.17216],[11.92084,13.23566],[11.88303,13.25591],[11.67843,13.29904],[11.59063,13.34631],[11.45925,13.38061],[10.81017,13.36769],[10.65612,13.36067],[10.46527,13.28747],[10.33648,13.27502],[10.20404,13.27074],[10.01126,13.18238],[9.91916,13.09477],[9.88917,13.05219],[9.84101,13.02659],[9.7965,12.95558],[9.65872,12.8077],[9.55193,12.81061],[9.3863,12.82297],[9.3311,12.81106],[9.27015,12.8233],[9.19823,12.82675],[9.18433,12.83053],[9.1819,12.83427],[9.05156,12.83389],[9.01002,12.84028],[8.97793,12.8336],[8.92506,12.85036],[8.86898,12.87285],[8.70288,12.91885],[8.64589,12.94352],[8.62957,12.98429],[8.60711,13.01145],[8.59676,13.02333],[8.56832,13.03791],[8.54916,13.05504],[8.53703,13.05644],[8.50216,13.07424],[8.49371,13.07531],[8.46564,13.07263],[8.41625,13.0572],[8.39966,13.07907],[8.36157,13.1077],[8.34964,13.12195],[8.31785,13.1465],[8.31718,13.15167],[8.2833,13.17704],[8.27052,13.19561],[8.24948,13.21394],[8.22102,13.22],[8.19129,13.23168],[8.15147,13.27344],[8.11713,13.28676],[8.06922,13.31378],[8.04777,13.31089],[7.98593,13.32283],[7.89248,13.33041],[7.84522,13.34137],[7.81583,13.34227],[7.77436,13.32042],[7.70183,13.27636],[7.66094,13.24421],[7.61021,13.21775],[7.43937,13.11485],[7.38886,13.09833],[7.31061,13.10733],[7.26321,13.12451],[7.22164,13.12907],[7.12157,13.02047],[7.05287,13.00007],[6.94209,13.00353],[6.82012,13.14342],[6.6967,13.33929],[6.42793,13.60038],[6.27733,13.67651],[6.23251,13.67339],[6.15554,13.64475],[6.09103,13.67719],[5.83178,13.76125],[5.70373,13.81146],[5.63116,13.83653],[5.55656,13.87542],[5.52983,13.88565],[5.45173,13.8711],[5.35068,13.83456],[5.33379,13.80932],[5.28107,13.75566],[5.24861,13.74327],[5.20571,13.7361],[5.17892,13.74203],[5.07677,13.75123],[5.00441,13.73569],[4.94956,13.73448],[4.90946,13.74536],[4.87382,13.781],[4.83971,13.76802],[4.54143,13.70158],[4.46574,13.68142],[4.23467,13.47794],[4.1416,13.47806],[4.14076,13.34393],[4.14736,13.29247],[4.14209,13.16193],[4.10346,12.98768],[4.09144,12.97712],[4.08685,12.965],[4.07012,12.93994],[4.05383,12.89984],[4.03904,12.88865],[4.02132,12.86872],[4.00565,12.84004],[3.98328,12.81766],[3.97346,12.7928],[3.94183,12.74671],[3.77387,12.62578],[3.65345,12.5227],[3.65026,12.40185],[3.66668,12.25888],[3.64696,12.21237],[3.63166,12.11932],[3.67168,12.03218],[3.67846,11.97647],[3.61979,11.92028],[3.62934,11.83099],[3.66924,11.81068],[3.68095,11.75475],[3.6095,11.69376],[3.59373,11.70309],[3.58732,11.7115],[3.56006,11.7217],[3.55233,11.72887],[3.55075,11.74403],[3.56428,11.7626],[3.56353,11.77477],[3.55464,11.77961],[3.53471,11.77959],[3.52505,11.7858],[3.51974,11.79457],[3.52004,11.81879],[3.49625,11.84054],[3.48763,11.8555],[3.4794,11.86266],[3.46347,11.86471],[3.45094,11.87383],[3.43982,11.87732],[3.43044,11.87445],[3.41928,11.87872],[3.40452,11.87685],[3.38763,11.88558],[3.37657,11.88696],[3.34981,11.88206],[3.33833,11.88628],[3.32698,11.88085],[3.32154,11.88156],[3.30969,11.89214],[3.30435,11.90218],[3.29954,11.93097],[3.28297,11.93559],[3.27955,11.94201],[3.27975,11.96277],[3.26815,11.9825],[3.2583,11.99158],[3.25697,11.99845],[3.26935,12.00982],[3.2704,12.0144],[3.26015,12.0206],[3.25632,12.02938],[3.23784,12.03333],[3.23127,12.04926],[3.21849,12.06355],[3.19116,12.08116],[3.17678,12.10529],[3.16433,12.11795],[3.13109,12.13693],[3.12691,12.14106],[3.12827,12.15198],[3.12452,12.15792],[3.09805,12.17368],[3.08416,12.17599],[3.07251,12.18273],[3.0583,12.19827],[3.05992,12.20522],[3.05664,12.21255],[3.02852,12.23436],[3.01488,12.26542],[2.99591,12.27619]]]]}}]}