{"type":"FeatureCollection","features":[{"type":"Feature","properties":{"ISO_A3":"NIC","WB_A3":"NIC","WB_NAME":"Nicaragua","WB_REGION":"LCN"},"geometry":{"type":"MultiPolygon","coordinates":[[[[-82.78463,14.36624],[-82.77899,14.37066],[-82.78059,14.37322],[-82.77793,14.37599],[-82.78089,14.38318],[-82.78647,14.38116],[-82.78741,14.38373],[-82.78205,14.38541],[-82.77342,14.36838],[-82.78463,14.36624]]],[[[-82.78737,14.37794],[-82.79133,14.37804],[-82.78977,14.38062],[-82.78737,14.37794]]],[[[-82.80385,14.35759],[-82.80231,14.36353],[-82.79148,14.36335],[-82.80385,14.35759]]],[[[-82.98279,12.30125],[-82.97886,12.3018],[-82.97186,12.27583],[-82.97565,12.27555],[-82.98137,12.28658],[-82.99002,12.28781],[-82.99061,12.29682],[-82.98828,12.30044],[-82.98279,12.30125]]],[[[-83.06538,12.17675],[-83.06203,12.18295],[-83.04398,12.18592],[-83.03135,12.17752],[-83.03834,12.16652],[-83.04776,12.16593],[-83.05087,12.16282],[-83.05782,12.1468],[-83.06384,12.14624],[-83.06714,12.15072],[-83.06564,12.15975],[-83.07107,12.16692],[-83.06403,12.17083],[-83.06538,12.17675]]],[[[-83.13179,14.99418],[-83.13052,14.99947],[-83.12825,14.9982],[-83.13179,14.99418]]],[[[-83.13862,14.98793],[-83.134,14.98965],[-83.13551,14.99479],[-83.13217,14.99276],[-83.13359,14.98914],[-83.13862,14.98793]]],[[[-83.14293,14.99549],[-83.14237,14.99227],[-83.14607,14.99185],[-83.14723,14.99543],[-83.16694,14.98599],[-83.17438,14.98798],[-83.16675,14.9932],[-83.14293,14.99549]]],[[[-85.02271,14.61027],[-85.03914,14.60813],[-85.04329,14.61035],[-85.02682,14.62552],[-85.02384,14.63312],[-85.03323,14.64747],[-85.0488,14.65026],[-85.05094,14.6534],[-85.05101,14.6608],[-85.04563,14.67129],[-85.02737,14.6731],[-85.0208,14.68693],[-85.02172,14.6931],[-85.02826,14.69692],[-85.02805,14.7036],[-84.99594,14.72604],[-84.98679,14.74047],[-84.97263,14.74229],[-84.97116,14.74767],[-84.96099,14.7567],[-84.94204,14.75485],[-84.9393,14.75895],[-84.92775,14.75891],[-84.92335,14.76595],[-84.93153,14.77108],[-84.9114,14.79726],[-84.90901,14.80506],[-84.89682,14.81551],[-84.88707,14.81284],[-84.87735,14.81648],[-84.85881,14.81164],[-84.85142,14.81367],[-84.84568,14.82387],[-84.81939,14.82941],[-84.79032,14.81628],[-84.7918,14.81277],[-84.78518,14.79248],[-84.76148,14.77562],[-84.75464,14.77477],[-84.74971,14.76736],[-84.75096,14.75463],[-84.75835,14.75305],[-84.76467,14.76064],[-84.76876,14.7608],[-84.77155,14.74944],[-84.75954,14.7409],[-84.75402,14.74175],[-84.7496,14.74796],[-84.74266,14.74879],[-84.74304,14.73908],[-84.74945,14.7317],[-84.74551,14.71669],[-84.74331,14.71299],[-84.72982,14.70928],[-84.726,14.69864],[-84.71313,14.69208],[-84.70419,14.69326],[-84.70276,14.6892],[-84.70635,14.68312],[-84.70189,14.67376],[-84.7035,14.66604],[-84.69482,14.66592],[-84.67911,14.69159],[-84.67406,14.69483],[-84.66759,14.69046],[-84.67038,14.67965],[-84.66539,14.67298],[-84.6561,14.67473],[-84.64393,14.67239],[-84.6318,14.67737],[-84.62941,14.66572],[-84.62596,14.66296],[-84.61356,14.66571],[-84.59496,14.65896],[-84.58485,14.66626],[-84.58356,14.65664],[-84.57946,14.65299],[-84.57438,14.6524],[-84.56663,14.65882],[-84.56006,14.65047],[-84.55123,14.65699],[-84.52873,14.65787],[-84.52426,14.65574],[-84.52372,14.6487],[-84.53862,14.645],[-84.53051,14.63082],[-84.52668,14.62995],[-84.52339,14.63537],[-84.50783,14.63663],[-84.50332,14.62574],[-84.4961,14.62043],[-84.47258,14.61593],[-84.46825,14.61691],[-84.46279,14.63275],[-84.43217,14.63344],[-84.42486,14.64109],[-84.41459,14.64228],[-84.41221,14.64539],[-84.41445,14.65728],[-84.38448,14.68019],[-84.37777,14.69712],[-84.36726,14.70428],[-84.36373,14.71722],[-84.34583,14.70334],[-84.34478,14.70006],[-84.35393,14.68981],[-84.34897,14.67983],[-84.33735,14.67531],[-84.329,14.6757],[-84.31302,14.68445],[-84.30847,14.68374],[-84.29854,14.66402],[-84.2826,14.66138],[-84.27239,14.66451],[-84.25836,14.67624],[-84.25886,14.68078],[-84.26653,14.6864],[-84.26368,14.70128],[-84.27298,14.7239],[-84.27201,14.73386],[-84.26076,14.74593],[-84.23281,14.76107],[-84.2234,14.75608],[-84.22314,14.74939],[-84.22989,14.73829],[-84.22823,14.73421],[-84.22004,14.73164],[-84.21307,14.73434],[-84.1993,14.72124],[-84.18886,14.71591],[-84.16809,14.71413],[-84.14866,14.71898],[-84.12519,14.73383],[-84.10286,14.72946],[-84.0958,14.73186],[-84.11674,14.77348],[-84.11681,14.78478],[-84.11063,14.79068],[-84.08382,14.7878],[-84.08059,14.78211],[-84.08424,14.7647],[-84.08065,14.75773],[-84.05756,14.76421],[-84.04612,14.77425],[-84.03966,14.76833],[-84.04577,14.75354],[-84.0344,14.74733],[-84.02238,14.74487],[-84.01263,14.74751],[-84.00106,14.75981],[-83.98637,14.74824],[-83.97328,14.74674],[-83.94737,14.7585],[-83.94114,14.75856],[-83.92765,14.74773],[-83.92141,14.74885],[-83.9199,14.75291],[-83.92684,14.7635],[-83.93544,14.76513],[-83.93886,14.77319],[-83.9331,14.77764],[-83.91971,14.77238],[-83.91599,14.77436],[-83.91694,14.79149],[-83.91013,14.79011],[-83.91028,14.77784],[-83.90507,14.77454],[-83.90078,14.77792],[-83.89862,14.7896],[-83.89191,14.7876],[-83.89577,14.76872],[-83.88907,14.76377],[-83.88644,14.76679],[-83.88536,14.78792],[-83.87615,14.78696],[-83.8741,14.78046],[-83.87986,14.77003],[-83.87027,14.76744],[-83.86078,14.77442],[-83.84306,14.77335],[-83.83468,14.78399],[-83.83232,14.79277],[-83.82629,14.79578],[-83.81416,14.78995],[-83.80352,14.79837],[-83.79607,14.78825],[-83.78967,14.79065],[-83.79064,14.79779],[-83.79384,14.79979],[-83.81377,14.80276],[-83.81846,14.80898],[-83.81543,14.81246],[-83.81006,14.81212],[-83.79736,14.80204],[-83.79345,14.8026],[-83.78451,14.80746],[-83.78463,14.82132],[-83.78091,14.82338],[-83.7747,14.8105],[-83.75914,14.80625],[-83.75217,14.81513],[-83.75468,14.82875],[-83.75207,14.83174],[-83.74242,14.82808],[-83.73796,14.82008],[-83.73082,14.81993],[-83.72866,14.82568],[-83.73152,14.83245],[-83.74365,14.83996],[-83.74222,14.84641],[-83.73734,14.84579],[-83.73561,14.8386],[-83.7257,14.83468],[-83.71022,14.84196],[-83.70517,14.82654],[-83.70136,14.82454],[-83.69708,14.83367],[-83.701,14.84094],[-83.69959,14.84934],[-83.70893,14.8531],[-83.71796,14.84791],[-83.72129,14.84957],[-83.72029,14.85591],[-83.71633,14.85844],[-83.70634,14.85624],[-83.69952,14.85835],[-83.6941,14.86549],[-83.69556,14.87783],[-83.69312,14.88032],[-83.68866,14.8791],[-83.68356,14.867],[-83.67901,14.867],[-83.67293,14.87435],[-83.66229,14.87941],[-83.65153,14.87845],[-83.64441,14.88226],[-83.6228,14.87809],[-83.62049,14.87663],[-83.62351,14.86273],[-83.61763,14.86152],[-83.61944,14.86966],[-83.6148,14.87523],[-83.61538,14.88442],[-83.60904,14.89097],[-83.60892,14.89423],[-83.61494,14.89865],[-83.60077,14.90022],[-83.59283,14.90486],[-83.59438,14.9109],[-83.60065,14.91492],[-83.59969,14.91905],[-83.59367,14.9204],[-83.57834,14.91137],[-83.57176,14.91882],[-83.56225,14.91182],[-83.55977,14.91358],[-83.56199,14.92706],[-83.55946,14.93967],[-83.53899,14.94013],[-83.5389,14.94509],[-83.54708,14.94736],[-83.54813,14.95727],[-83.53677,14.9483],[-83.52919,14.95062],[-83.53892,14.96294],[-83.54114,14.97797],[-83.53653,14.98132],[-83.53106,14.97543],[-83.52484,14.974],[-83.52309,14.97804],[-83.52954,14.98889],[-83.52833,14.99342],[-83.52412,14.99498],[-83.51747,14.99017],[-83.51439,14.99188],[-83.51291,15.00155],[-83.50016,15.01106],[-83.47837,15.00463],[-83.47611,15.00289],[-83.4792,14.99001],[-83.47065,14.98932],[-83.45967,14.98087],[-83.44814,14.98504],[-83.43858,14.99487],[-83.42919,14.99496],[-83.42015,14.9907],[-83.42003,14.99632],[-83.41468,15.00284],[-83.40575,14.99975],[-83.40586,15.00884],[-83.40068,15.0159],[-83.40695,15.0243],[-83.40053,15.02896],[-83.38288,15.01422],[-83.36116,15.01419],[-83.35702,14.99904],[-83.34876,14.99436],[-83.34573,14.99606],[-83.34653,15.0088],[-83.29952,14.99795],[-83.27814,15.00473],[-83.27477,14.99962],[-83.28017,14.99289],[-83.29173,14.98792],[-83.29045,14.9815],[-83.28395,14.97743],[-83.27781,14.98093],[-83.28224,14.98721],[-83.28024,14.98979],[-83.27582,14.98712],[-83.25201,14.98877],[-83.23366,14.98161],[-83.20203,14.99724],[-83.18476,14.99277],[-83.18579,14.9898],[-83.19174,14.98884],[-83.19805,14.99664],[-83.20176,14.9966],[-83.24737,14.96281],[-83.2528,14.95039],[-83.24751,14.9507],[-83.24376,14.95975],[-83.24111,14.95952],[-83.25508,14.92771],[-83.24893,14.92211],[-83.26378,14.89853],[-83.28199,14.85483],[-83.28087,14.84943],[-83.28667,14.83418],[-83.293,14.83245],[-83.3091,14.85276],[-83.31702,14.87534],[-83.31037,14.88519],[-83.31095,14.89033],[-83.31957,14.90363],[-83.32931,14.91062],[-83.35494,14.90572],[-83.36335,14.89971],[-83.38115,14.88125],[-83.3912,14.85616],[-83.39632,14.85264],[-83.3964,14.84723],[-83.40638,14.84069],[-83.40779,14.84801],[-83.42711,14.85978],[-83.42586,14.86597],[-83.43045,14.87416],[-83.42638,14.86519],[-83.42803,14.85964],[-83.40735,14.84454],[-83.41534,14.83725],[-83.41449,14.82],[-83.4175,14.81701],[-83.42693,14.81987],[-83.42662,14.81627],[-83.42992,14.81559],[-83.41051,14.80717],[-83.40577,14.80902],[-83.38583,14.75245],[-83.36791,14.73449],[-83.35832,14.72892],[-83.33611,14.73017],[-83.33711,14.72501],[-83.34534,14.72712],[-83.37285,14.70199],[-83.37797,14.71082],[-83.38584,14.70456],[-83.37848,14.69678],[-83.37931,14.68776],[-83.37478,14.68485],[-83.37138,14.66966],[-83.36309,14.65549],[-83.35633,14.65565],[-83.35034,14.66255],[-83.35236,14.66667],[-83.3494,14.67416],[-83.35335,14.68494],[-83.35908,14.689],[-83.3521,14.69177],[-83.35269,14.69705],[-83.33606,14.71241],[-83.33682,14.72219],[-83.33223,14.72558],[-83.33513,14.73765],[-83.3203,14.73651],[-83.31295,14.74122],[-83.31303,14.74933],[-83.32467,14.7487],[-83.34937,14.77021],[-83.33843,14.77341],[-83.33283,14.7696],[-83.32788,14.75266],[-83.31981,14.74794],[-83.31436,14.74996],[-83.31466,14.75279],[-83.30725,14.75338],[-83.30978,14.76765],[-83.30661,14.76729],[-83.30254,14.75806],[-83.30001,14.76916],[-83.30173,14.74365],[-83.29818,14.70867],[-83.30624,14.6952],[-83.30345,14.69368],[-83.3011,14.69654],[-83.29815,14.6927],[-83.29809,14.68704],[-83.30178,14.68623],[-83.30266,14.68159],[-83.29702,14.66027],[-83.30169,14.63885],[-83.30036,14.62547],[-83.30451,14.61822],[-83.29399,14.61112],[-83.2967,14.60478],[-83.29156,14.60625],[-83.29522,14.61471],[-83.30133,14.61697],[-83.30119,14.62907],[-83.29439,14.63648],[-83.28456,14.63232],[-83.28595,14.62613],[-83.27944,14.62336],[-83.22211,14.45679],[-83.2277,14.46086],[-83.23061,14.47422],[-83.23432,14.47534],[-83.24032,14.4682],[-83.24913,14.47687],[-83.25564,14.49304],[-83.26015,14.49531],[-83.27332,14.5163],[-83.28466,14.53988],[-83.29099,14.53827],[-83.29005,14.52386],[-83.28633,14.52197],[-83.28616,14.51798],[-83.27995,14.51881],[-83.27751,14.5124],[-83.28646,14.50845],[-83.28813,14.50431],[-83.28326,14.50564],[-83.28217,14.50256],[-83.29108,14.49565],[-83.28263,14.49574],[-83.26882,14.48995],[-83.27021,14.48362],[-83.26607,14.47954],[-83.26845,14.47926],[-83.2639,14.46077],[-83.27376,14.45604],[-83.26968,14.45685],[-83.26074,14.44882],[-83.25017,14.44892],[-83.24467,14.45323],[-83.24712,14.46028],[-83.24184,14.46136],[-83.23651,14.45717],[-83.2415,14.46665],[-83.2364,14.47223],[-83.23241,14.47008],[-83.22751,14.45519],[-83.21953,14.45012],[-83.21614,14.44114],[-83.21581,14.40792],[-83.19992,14.35013],[-83.20093,14.31844],[-83.20839,14.29751],[-83.2595,14.19248],[-83.27624,14.16425],[-83.27951,14.16139],[-83.28101,14.16601],[-83.28092,14.17039],[-83.27084,14.17873],[-83.26466,14.19424],[-83.27231,14.20704],[-83.26048,14.2123],[-83.26486,14.22797],[-83.26014,14.23033],[-83.25893,14.24167],[-83.2516,14.24766],[-83.24994,14.25335],[-83.25231,14.2662],[-83.276,14.30271],[-83.2648,14.30097],[-83.26022,14.30527],[-83.27205,14.32601],[-83.27414,14.33629],[-83.27784,14.33651],[-83.27978,14.34641],[-83.28613,14.34686],[-83.30037,14.37067],[-83.31072,14.37495],[-83.31143,14.36735],[-83.3138,14.36707],[-83.31165,14.36335],[-83.32322,14.35822],[-83.32579,14.35137],[-83.3118,14.35215],[-83.3115,14.34855],[-83.30249,14.34516],[-83.29735,14.33362],[-83.3104,14.34431],[-83.32486,14.34627],[-83.33481,14.35527],[-83.34114,14.35392],[-83.34225,14.34619],[-83.3355,14.33183],[-83.33132,14.32363],[-83.32442,14.32113],[-83.32908,14.2858],[-83.33699,14.2847],[-83.33693,14.26616],[-83.32988,14.26108],[-83.33047,14.25437],[-83.32446,14.24709],[-83.31721,14.24832],[-83.31041,14.24156],[-83.30839,14.24232],[-83.31155,14.24967],[-83.29406,14.24365],[-83.28554,14.23627],[-83.28995,14.22902],[-83.28986,14.21987],[-83.29795,14.2104],[-83.30112,14.21037],[-83.30642,14.19976],[-83.29886,14.19571],[-83.29959,14.17691],[-83.30771,14.15803],[-83.31524,14.15899],[-83.31013,14.14951],[-83.31734,14.14416],[-83.32017,14.13731],[-83.32232,14.11489],[-83.29966,14.14407],[-83.29731,14.13418],[-83.29429,14.13498],[-83.29632,14.14037],[-83.29264,14.14195],[-83.28864,14.15075],[-83.28443,14.15182],[-83.28556,14.14665],[-83.30076,14.12269],[-83.3347,14.08721],[-83.35319,14.05073],[-83.36428,14.03851],[-83.37751,14.0304],[-83.38448,14.01969],[-83.38968,14.02088],[-83.39675,14.01657],[-83.40198,14.02475],[-83.40526,14.02266],[-83.40225,14.01278],[-83.42084,13.98723],[-83.4344,13.96057],[-83.46391,13.8838],[-83.46106,13.90134],[-83.45815,13.90008],[-83.45737,13.91399],[-83.45181,13.92332],[-83.47057,13.94064],[-83.46902,13.95585],[-83.47186,13.96251],[-83.45978,13.96701],[-83.45693,13.9718],[-83.44877,13.9733],[-83.44238,13.97955],[-83.44101,13.98703],[-83.43523,13.98876],[-83.43172,13.99407],[-83.43867,14.00301],[-83.44132,14.01612],[-83.44448,14.01557],[-83.43757,13.99813],[-83.43224,13.99355],[-83.44207,13.9874],[-83.44617,13.98878],[-83.44531,13.99458],[-83.45219,13.99747],[-83.45123,13.9931],[-83.46452,13.97906],[-83.46504,13.99013],[-83.48596,14.01129],[-83.4894,14.02438],[-83.47941,14.02758],[-83.47623,14.03791],[-83.4969,14.04671],[-83.4899,14.05837],[-83.5026,14.06158],[-83.50542,14.07906],[-83.51484,14.09544],[-83.51485,14.10883],[-83.53672,14.10654],[-83.54283,14.1106],[-83.54752,14.12844],[-83.55555,14.12745],[-83.55851,14.13257],[-83.55261,14.14783],[-83.56339,14.15621],[-83.56345,14.16136],[-83.56029,14.16216],[-83.55257,14.15607],[-83.55319,14.16378],[-83.54447,14.16323],[-83.54135,14.16674],[-83.55183,14.17178],[-83.54956,14.18184],[-83.54,14.18812],[-83.53689,14.20464],[-83.54207,14.20806],[-83.54734,14.20736],[-83.54806,14.20053],[-83.55218,14.2037],[-83.55085,14.21453],[-83.56167,14.2139],[-83.57101,14.22332],[-83.57761,14.22325],[-83.5794,14.22993],[-83.58725,14.23525],[-83.59038,14.24397],[-83.58634,14.24813],[-83.58678,14.24066],[-83.5836,14.23928],[-83.58639,14.24144],[-83.58528,14.24814],[-83.58225,14.24869],[-83.58085,14.24175],[-83.58267,14.25049],[-83.58611,14.25161],[-83.5908,14.24551],[-83.58898,14.23652],[-83.58086,14.23043],[-83.57853,14.22324],[-83.57126,14.22229],[-83.56166,14.21287],[-83.55216,14.21361],[-83.55271,14.20318],[-83.54911,14.2],[-83.54392,14.20778],[-83.53755,14.20463],[-83.54132,14.18785],[-83.5492,14.18442],[-83.55262,14.17151],[-83.54901,14.16782],[-83.54216,14.16853],[-83.54318,14.16518],[-83.55372,14.16429],[-83.55364,14.1567],[-83.56004,14.16268],[-83.56462,14.16006],[-83.5534,14.14705],[-83.5593,14.13256],[-83.55541,14.1263],[-83.5483,14.12753],[-83.54469,14.11135],[-83.54016,14.10728],[-83.51537,14.1078],[-83.51561,14.09363],[-83.50562,14.07262],[-83.51213,14.06535],[-83.50904,14.05971],[-83.49163,14.05938],[-83.49834,14.04644],[-83.479,14.0384],[-83.47698,14.03455],[-83.47944,14.02989],[-83.48889,14.02606],[-83.4916,14.01998],[-83.487,14.00973],[-83.46725,13.98779],[-83.47323,13.97949],[-83.47265,13.9746],[-83.47801,13.97043],[-83.48552,13.9822],[-83.49322,13.98727],[-83.51752,13.99114],[-83.51796,13.99763],[-83.53441,13.98015],[-83.53579,13.96185],[-83.53188,13.95417],[-83.52818,13.95331],[-83.50824,13.96214],[-83.50711,13.95546],[-83.51629,13.95111],[-83.50736,13.95404],[-83.5002,13.9496],[-83.4991,13.94537],[-83.50832,13.94527],[-83.5113,13.93996],[-83.50664,13.92379],[-83.50224,13.91869],[-83.48801,13.91909],[-83.48046,13.92844],[-83.47832,13.92511],[-83.46514,13.92511],[-83.46035,13.92079],[-83.46732,13.90746],[-83.47502,13.90017],[-83.46594,13.90103],[-83.46936,13.88838],[-83.46705,13.88145],[-83.45568,13.87848],[-83.45498,13.87385],[-83.47543,13.83965],[-83.49605,13.77121],[-83.52306,13.61181],[-83.52621,13.56132],[-83.54153,13.56631],[-83.54369,13.57144],[-83.54011,13.58126],[-83.54255,13.58793],[-83.53024,13.59397],[-83.51108,13.69871],[-83.51452,13.69996],[-83.52097,13.712],[-83.52308,13.72485],[-83.51679,13.72761],[-83.51814,13.73043],[-83.52761,13.72969],[-83.52951,13.73495],[-83.53776,13.73113],[-83.54177,13.73624],[-83.54267,13.73379],[-83.54915,13.73642],[-83.55068,13.74387],[-83.55853,13.73942],[-83.56178,13.74762],[-83.56899,13.73287],[-83.56392,13.72649],[-83.56414,13.71052],[-83.5696,13.70623],[-83.56007,13.69381],[-83.54916,13.68879],[-83.54985,13.68319],[-83.56355,13.6804],[-83.56889,13.67533],[-83.57899,13.6832],[-83.60076,13.68685],[-83.61746,13.67366],[-83.61392,13.6513],[-83.61931,13.65124],[-83.61954,13.65647],[-83.61952,13.65338],[-83.62576,13.64916],[-83.61453,13.64743],[-83.61514,13.64253],[-83.60405,13.63956],[-83.59195,13.62861],[-83.60441,13.60093],[-83.61287,13.60394],[-83.60949,13.59599],[-83.61312,13.59106],[-83.61337,13.57741],[-83.60514,13.57106],[-83.60068,13.57265],[-83.60012,13.58141],[-83.60349,13.58871],[-83.6017,13.5935],[-83.59458,13.59215],[-83.58501,13.58337],[-83.57475,13.58425],[-83.57084,13.58751],[-83.56766,13.58574],[-83.57118,13.58274],[-83.56798,13.57814],[-83.57203,13.57552],[-83.57008,13.56576],[-83.55821,13.56292],[-83.54851,13.56701],[-83.54736,13.5575],[-83.53694,13.5558],[-83.53684,13.55889],[-83.53237,13.55894],[-83.52417,13.5428],[-83.53885,13.51227],[-83.54854,13.47071],[-83.55737,13.47268],[-83.56397,13.48678],[-83.56197,13.49684],[-83.55777,13.49765],[-83.55507,13.5036],[-83.56228,13.50083],[-83.56848,13.49021],[-83.58649,13.50148],[-83.57875,13.49075],[-83.57082,13.48748],[-83.5709,13.48259],[-83.575,13.48473],[-83.58021,13.47992],[-83.58376,13.47937],[-83.58636,13.48912],[-83.60138,13.49141],[-83.60122,13.50068],[-83.61606,13.49808],[-83.61642,13.49525],[-83.63921,13.48587],[-83.63721,13.4716],[-83.63428,13.46828],[-83.62321,13.46634],[-83.61628,13.47079],[-83.61117,13.49646],[-83.60697,13.49741],[-83.60611,13.49124],[-83.59924,13.48809],[-83.59242,13.4897],[-83.58915,13.48746],[-83.59043,13.47672],[-83.58671,13.47264],[-83.5901,13.4699],[-83.59202,13.45315],[-83.59863,13.45565],[-83.60057,13.45267],[-83.59773,13.44614],[-83.60703,13.44231],[-83.60957,13.44601],[-83.60576,13.43447],[-83.60053,13.43697],[-83.60165,13.44339],[-83.59457,13.44578],[-83.59676,13.45297],[-83.58937,13.45124],[-83.58793,13.46426],[-83.56825,13.46871],[-83.56517,13.47569],[-83.56175,13.47624],[-83.55207,13.46888],[-83.55758,13.44256],[-83.55873,13.41448],[-83.55976,13.41241],[-83.56295,13.41585],[-83.56636,13.4144],[-83.56348,13.42834],[-83.57606,13.4367],[-83.5764,13.43129],[-83.59164,13.42933],[-83.59026,13.42343],[-83.59871,13.4142],[-83.60475,13.41388],[-83.60992,13.40533],[-83.62183,13.41267],[-83.62683,13.41223],[-83.62978,13.40602],[-83.6297,13.3862],[-83.63332,13.38024],[-83.6378,13.38148],[-83.6421,13.39019],[-83.64842,13.39064],[-83.66226,13.382],[-83.66453,13.37462],[-83.65835,13.38448],[-83.64446,13.38965],[-83.63832,13.38045],[-83.63057,13.38181],[-83.62909,13.40268],[-83.62393,13.41188],[-83.60763,13.40008],[-83.60603,13.38619],[-83.59791,13.386],[-83.60699,13.38927],[-83.60886,13.40495],[-83.60474,13.41272],[-83.59739,13.41408],[-83.59011,13.42163],[-83.5911,13.42831],[-83.58809,13.43001],[-83.57728,13.42794],[-83.57526,13.4353],[-83.56544,13.42729],[-83.56743,13.41671],[-83.57869,13.4117],[-83.58022,13.40731],[-83.57181,13.40791],[-83.56778,13.39997],[-83.58099,13.39288],[-83.57778,13.38828],[-83.57919,13.38479],[-83.5855,13.38421],[-83.59275,13.37409],[-83.59787,13.38601],[-83.59607,13.37651],[-83.5938,13.37357],[-83.5896,13.37426],[-83.58913,13.37993],[-83.57697,13.38623],[-83.58018,13.39135],[-83.57348,13.39141],[-83.57221,13.39632],[-83.56463,13.4],[-83.56656,13.40848],[-83.56185,13.41084],[-83.5601,13.407],[-83.56785,13.36881],[-83.57187,13.32629],[-83.56758,13.21896],[-83.57187,13.21403],[-83.57168,13.20914],[-83.58366,13.21108],[-83.58313,13.22293],[-83.56871,13.2259],[-83.57066,13.24932],[-83.58485,13.24904],[-83.58834,13.25635],[-83.58128,13.25976],[-83.58015,13.26415],[-83.58488,13.27711],[-83.5909,13.26198],[-83.58738,13.25172],[-83.59178,13.24601],[-83.59005,13.24371],[-83.583,13.24829],[-83.58029,13.24046],[-83.57271,13.24389],[-83.57086,13.23103],[-83.57175,13.22793],[-83.58279,13.22782],[-83.58668,13.22276],[-83.58847,13.20639],[-83.58479,13.1933],[-83.57823,13.19388],[-83.57621,13.2024],[-83.56498,13.19607],[-83.54824,13.07651],[-83.51453,12.91153],[-83.52718,12.9033],[-83.53379,12.90761],[-83.52828,12.9217],[-83.53623,12.92857],[-83.536,12.93167],[-83.52742,12.94025],[-83.5288,12.94718],[-83.53503,12.9533],[-83.5418,12.94757],[-83.54177,12.94397],[-83.53088,12.9451],[-83.52993,12.94151],[-83.53359,12.94006],[-83.53355,12.93581],[-83.54009,12.9342],[-83.53938,12.92854],[-83.54224,12.9262],[-83.54099,12.91951],[-83.53652,12.91879],[-83.54132,12.91282],[-83.54319,12.90327],[-83.53725,12.89947],[-83.54232,12.89491],[-83.56337,12.90011],[-83.57132,12.90763],[-83.59553,12.9137],[-83.60651,12.90883],[-83.60632,12.90368],[-83.60354,12.90113],[-83.58674,12.90104],[-83.58799,12.89485],[-83.59374,12.89286],[-83.60691,12.89749],[-83.61646,12.90744],[-83.62199,12.90829],[-83.63294,12.90148],[-83.64864,12.89733],[-83.66369,12.9058],[-83.68521,12.90584],[-83.69672,12.91383],[-83.68956,12.92009],[-83.69228,12.92881],[-83.70541,12.92906],[-83.71388,12.93593],[-83.71639,12.92547],[-83.7318,12.94179],[-83.73754,12.9389],[-83.73719,12.93143],[-83.74377,12.93239],[-83.75025,12.94958],[-83.76634,12.95584],[-83.775,12.96785],[-83.77249,12.97869],[-83.77742,12.98456],[-83.80399,12.98968],[-83.81536,12.99741],[-83.83666,13.00052],[-83.84644,13.00569],[-83.85245,13.01515],[-83.84604,13.04045],[-83.84845,13.04403],[-83.86427,13.05003],[-83.86654,13.05309],[-83.86519,13.0616],[-83.87834,13.063],[-83.87582,13.07255],[-83.86462,13.08014],[-83.85947,13.0887],[-83.88031,13.10829],[-83.87648,13.11785],[-83.87932,13.12477],[-83.88745,13.12417],[-83.89364,13.11432],[-83.89731,13.11376],[-83.90211,13.11988],[-83.90216,13.124],[-83.88936,13.12981],[-83.88767,13.13463],[-83.8913,13.13828],[-83.90256,13.13532],[-83.9008,13.14204],[-83.89143,13.14973],[-83.89152,13.15759],[-83.90056,13.15517],[-83.90007,13.14745],[-83.91153,13.16148],[-83.91246,13.17305],[-83.93297,13.17513],[-83.92996,13.18675],[-83.93141,13.19858],[-83.92332,13.2033],[-83.93052,13.21184],[-83.94838,13.21151],[-83.9468,13.22208],[-83.95068,13.22757],[-83.9583,13.22825],[-83.96601,13.22417],[-83.96731,13.23394],[-83.97888,13.23509],[-83.99095,13.25554],[-83.99702,13.24329],[-83.99601,13.23953],[-83.98733,13.23821],[-83.9927,13.22669],[-84.01149,13.23728],[-84.016,13.21999],[-84.02719,13.23234],[-84.03903,13.21225],[-84.04558,13.21088],[-84.04786,13.20416],[-84.06655,13.20754],[-84.0695,13.2124],[-84.07264,13.21133],[-84.07291,13.20103],[-84.07722,13.19905],[-84.08882,13.20956],[-84.09723,13.2028],[-84.10509,13.20116],[-84.1089,13.19146],[-84.12266,13.19889],[-84.12972,13.19648],[-84.12817,13.18852],[-84.13913,13.17243],[-84.12805,13.16871],[-84.11849,13.1602],[-84.1096,13.16353],[-84.10625,13.16872],[-84.1017,13.16182],[-84.10752,13.14451],[-84.11386,13.14701],[-84.11736,13.15365],[-84.12471,13.15357],[-84.12729,13.14993],[-84.12652,13.13064],[-84.13374,13.12051],[-84.17208,13.12017],[-84.18958,13.11352],[-84.22319,13.11336],[-84.23279,13.10436],[-84.2709,13.08607],[-84.25232,13.09279],[-84.21742,13.11356],[-84.19088,13.1126],[-84.17573,13.11845],[-84.13791,13.11802],[-84.13191,13.12079],[-84.12535,13.13194],[-84.12521,13.15176],[-84.11734,13.15211],[-84.10925,13.14285],[-84.10492,13.14634],[-84.10029,13.16416],[-84.10776,13.17067],[-84.1104,13.16455],[-84.1164,13.16126],[-84.13783,13.17322],[-84.12712,13.18828],[-84.12827,13.19624],[-84.12422,13.1981],[-84.10968,13.19042],[-84.10455,13.19988],[-84.0959,13.20204],[-84.0888,13.20833],[-84.08062,13.19811],[-84.07458,13.19831],[-84.07171,13.19976],[-84.06974,13.21034],[-84.0668,13.20651],[-84.04941,13.20196],[-84.04295,13.21104],[-84.03901,13.21109],[-84.02926,13.22961],[-84.02559,13.23068],[-84.01677,13.21792],[-84.0139,13.22001],[-84.01042,13.23601],[-83.99611,13.22614],[-83.99152,13.22697],[-83.98655,13.23925],[-83.99444,13.23993],[-83.99606,13.24313],[-83.99014,13.25375],[-83.97966,13.23431],[-83.96849,13.23367],[-83.9669,13.2221],[-83.96117,13.22642],[-83.9525,13.22652],[-83.94771,13.22155],[-83.94956,13.21098],[-83.92997,13.21018],[-83.92545,13.20534],[-83.93195,13.19986],[-83.93442,13.17537],[-83.91376,13.17201],[-83.91163,13.1589],[-83.90137,13.14628],[-83.89787,13.15005],[-83.89911,13.15518],[-83.89362,13.15692],[-83.89134,13.15347],[-83.90402,13.13685],[-83.90333,13.13377],[-83.89128,13.13687],[-83.88964,13.13135],[-83.90244,13.12528],[-83.90261,13.11782],[-83.89783,13.11311],[-83.89258,13.11368],[-83.88195,13.12487],[-83.87768,13.11964],[-83.88135,13.1075],[-83.86024,13.0874],[-83.87637,13.07409],[-83.87939,13.06299],[-83.86807,13.06093],[-83.86731,13.0518],[-83.84763,13.04095],[-83.85404,13.01668],[-83.84483,13.00275],[-83.83638,12.99872],[-83.81535,12.99599],[-83.80423,12.98787],[-83.78082,12.98401],[-83.77392,12.97661],[-83.7759,12.96629],[-83.76843,12.95582],[-83.75155,12.94802],[-83.74666,12.93262],[-83.73822,12.92885],[-83.73544,12.93943],[-83.73178,12.93999],[-83.71953,12.92415],[-83.71443,12.92549],[-83.71255,12.93414],[-83.7075,12.92788],[-83.69568,12.92788],[-83.69159,12.92547],[-83.69088,12.92033],[-83.69844,12.91562],[-83.69827,12.91176],[-83.68571,12.90339],[-83.6613,12.90313],[-83.65177,12.89576],[-83.63343,12.89839],[-83.62353,12.90518],[-83.61776,12.90537],[-83.6024,12.89213],[-83.59397,12.88964],[-83.58536,12.89462],[-83.58449,12.89875],[-83.58966,12.90436],[-83.59989,12.90374],[-83.60127,12.91042],[-83.59814,12.91187],[-83.57626,12.90321],[-83.55645,12.89078],[-83.54938,12.89252],[-83.5457,12.89205],[-83.54724,12.88881],[-83.54409,12.88781],[-83.54227,12.89002],[-83.53255,12.88883],[-83.53113,12.87867],[-83.51821,12.87236],[-83.5133,12.89352],[-83.52298,12.90295],[-83.51201,12.90885],[-83.50501,12.90467],[-83.50846,12.88121],[-83.52869,12.80505],[-83.54521,12.64602],[-83.54227,12.58785],[-83.53131,12.53877],[-83.51857,12.50954],[-83.48682,12.46426],[-83.48986,12.39779],[-83.4919,12.39185],[-83.50165,12.38494],[-83.51056,12.38511],[-83.5337,12.39404],[-83.55807,12.39484],[-83.56906,12.39332],[-83.57346,12.38826],[-83.58704,12.38439],[-83.61879,12.36375],[-83.64037,12.3741],[-83.63523,12.38303],[-83.6358,12.38766],[-83.6213,12.40531],[-83.61216,12.40823],[-83.60646,12.41421],[-83.60314,12.42222],[-83.62834,12.46704],[-83.63984,12.47722],[-83.6361,12.50867],[-83.63897,12.52023],[-83.63864,12.53929],[-83.63442,12.54963],[-83.63552,12.56738],[-83.63235,12.57771],[-83.62648,12.56824],[-83.628,12.56256],[-83.62546,12.55808],[-83.6119,12.56491],[-83.59403,12.55968],[-83.57961,12.5593],[-83.56521,12.58789],[-83.56053,12.60519],[-83.55956,12.63919],[-83.57111,12.66663],[-83.57213,12.67666],[-83.55766,12.71156],[-83.55795,12.72765],[-83.56433,12.72282],[-83.56581,12.7398],[-83.54395,12.75649],[-83.54367,12.78173],[-83.54745,12.79174],[-83.56135,12.80473],[-83.5895,12.81244],[-83.6056,12.82116],[-83.62654,12.81632],[-83.63384,12.81213],[-83.64212,12.80123],[-83.65535,12.79865],[-83.65684,12.79117],[-83.66117,12.79074],[-83.6632,12.79729],[-83.65749,12.80249],[-83.65476,12.83007],[-83.66189,12.85961],[-83.66668,12.86574],[-83.6689,12.86443],[-83.6652,12.86189],[-83.66527,12.85687],[-83.67127,12.86569],[-83.674,12.8636],[-83.67423,12.87236],[-83.67859,12.87553],[-83.69597,12.8814],[-83.71068,12.86992],[-83.71088,12.84005],[-83.70093,12.82986],[-83.68968,12.83268],[-83.68126,12.83057],[-83.68037,12.82054],[-83.71623,12.81883],[-83.72821,12.82855],[-83.75833,12.83681],[-83.77061,12.84673],[-83.78843,12.8525],[-83.81168,12.84832],[-83.81735,12.84318],[-83.82677,12.84496],[-83.83043,12.84343],[-83.83235,12.8375],[-83.82728,12.83188],[-83.833,12.82321],[-83.82623,12.83163],[-83.82963,12.84266],[-83.81468,12.84257],[-83.81341,12.84696],[-83.78723,12.85148],[-83.76404,12.84246],[-83.75687,12.83507],[-83.74085,12.83305],[-83.73792,12.8287],[-83.72834,12.82736],[-83.72314,12.82113],[-83.71339,12.8166],[-83.68299,12.82],[-83.66665,12.81321],[-83.66037,12.80272],[-83.66515,12.79521],[-83.67224,12.79642],[-83.66009,12.78818],[-83.65226,12.79173],[-83.646,12.77055],[-83.65705,12.76105],[-83.65782,12.74688],[-83.64748,12.74827],[-83.63917,12.74372],[-83.63083,12.74946],[-83.62345,12.74542],[-83.61681,12.72463],[-83.62554,12.71952],[-83.62179,12.7117],[-83.60366,12.69592],[-83.60068,12.68642],[-83.60269,12.66477],[-83.60744,12.6552],[-83.59776,12.64384],[-83.5972,12.64062],[-83.60383,12.63489],[-83.59916,12.6267],[-83.61081,12.62504],[-83.61552,12.61109],[-83.62226,12.60395],[-83.63245,12.6005],[-83.64324,12.6049],[-83.64249,12.59512],[-83.65681,12.58571],[-83.6691,12.5704],[-83.68948,12.5644],[-83.70007,12.54962],[-83.71348,12.55334],[-83.73705,12.55182],[-83.74559,12.55418],[-83.76121,12.54449],[-83.76547,12.53762],[-83.76914,12.53861],[-83.77273,12.53111],[-83.77783,12.52939],[-83.77723,12.4985],[-83.7834,12.48685],[-83.78212,12.47798],[-83.77312,12.46868],[-83.77934,12.45059],[-83.77834,12.44288],[-83.77252,12.43714],[-83.77906,12.44853],[-83.77669,12.4604],[-83.76404,12.47752],[-83.75138,12.48177],[-83.7475,12.47409],[-83.74174,12.47518],[-83.74021,12.47854],[-83.73397,12.47062],[-83.72896,12.44235],[-83.73273,12.42712],[-83.71988,12.40073],[-83.73439,12.38565],[-83.73598,12.36272],[-83.73006,12.34734],[-83.73192,12.33702],[-83.7174,12.32609],[-83.70298,12.32379],[-83.70041,12.32858],[-83.69674,12.32862],[-83.69901,12.33297],[-83.69577,12.33609],[-83.68378,12.34187],[-83.68282,12.33699],[-83.67849,12.33665],[-83.67427,12.34583],[-83.67151,12.34534],[-83.66783,12.3307],[-83.66333,12.32637],[-83.67181,12.32281],[-83.67424,12.31725],[-83.67772,12.28632],[-83.68032,12.28475],[-83.67894,12.27781],[-83.68229,12.2725],[-83.69874,12.26424],[-83.70441,12.24589],[-83.70388,12.23277],[-83.71116,12.22755],[-83.70887,12.22087],[-83.7007,12.2158],[-83.7008,12.22533],[-83.70853,12.22615],[-83.70349,12.23251],[-83.70362,12.2459],[-83.69783,12.26396],[-83.68099,12.27341],[-83.67075,12.27017],[-83.66479,12.2764],[-83.66563,12.2818],[-83.66133,12.2839],[-83.66796,12.3047],[-83.65764,12.30686],[-83.65714,12.32205],[-83.66223,12.33359],[-83.65386,12.33496],[-83.64854,12.35303],[-83.63186,12.36118],[-83.63216,12.36478],[-83.61829,12.35255],[-83.62276,12.34092],[-83.64306,12.31549],[-83.66153,12.27695],[-83.67315,12.23487],[-83.67953,12.18468],[-83.68438,12.18069],[-83.68879,12.12452],[-83.68573,12.01486],[-83.71915,12.0475],[-83.7278,12.06234],[-83.73165,12.08136],[-83.7344,12.08108],[-83.73407,12.08536],[-83.72286,12.0911],[-83.72264,12.09587],[-83.71924,12.09564],[-83.71653,12.08691],[-83.71208,12.0858],[-83.70639,12.09268],[-83.69925,12.08541],[-83.703,12.09348],[-83.6964,12.10101],[-83.69683,12.10461],[-83.70713,12.11404],[-83.69664,12.11183],[-83.70165,12.11615],[-83.71783,12.16311],[-83.74071,12.1737],[-83.7434,12.16801],[-83.7414,12.1652],[-83.73171,12.16426],[-83.73325,12.15836],[-83.72797,12.15709],[-83.7266,12.15015],[-83.72109,12.14866],[-83.71671,12.13691],[-83.71031,12.13126],[-83.71324,12.12351],[-83.72355,12.12032],[-83.72381,12.10744],[-83.72967,12.09219],[-83.73616,12.08698],[-83.74036,12.08823],[-83.73861,12.07099],[-83.74792,12.08609],[-83.74571,12.09976],[-83.74881,12.12238],[-83.75854,12.13979],[-83.77448,12.15038],[-83.7926,12.15606],[-83.82436,12.15908],[-83.85105,12.15292],[-83.8531,12.16136],[-83.85727,12.15965],[-83.85276,12.15429],[-83.86157,12.13718],[-83.8826,12.1374],[-83.89595,12.1317],[-83.89681,12.12642],[-83.89092,12.11934],[-83.8924,12.11719],[-83.91332,12.11671],[-83.92218,12.11314],[-83.93213,12.11527],[-83.93567,12.10322],[-83.94754,12.09443],[-83.9461,12.08831],[-83.95656,12.08781],[-83.95408,12.07646],[-83.95651,12.07159],[-83.96248,12.07937],[-83.96985,12.07983],[-83.97369,12.08352],[-83.97505,12.09544],[-83.9798,12.09857],[-83.98703,12.09144],[-83.99321,12.10235],[-83.99819,12.1019],[-83.99696,12.09184],[-84.00641,12.09789],[-84.01043,12.09101],[-84.02307,12.10589],[-84.02622,12.10662],[-84.02441,12.09763],[-84.02897,12.09565],[-84.04397,12.10347],[-84.0469,12.09713],[-84.04421,12.08874],[-84.04958,12.09067],[-84.07266,12.12072],[-84.08816,12.11599],[-84.09253,12.11825],[-84.09106,12.12753],[-84.11564,12.12674],[-84.1222,12.11626],[-84.12755,12.11382],[-84.13727,12.13087],[-84.1437,12.15473],[-84.16104,12.16122],[-84.16379,12.16502],[-84.1679,12.1663],[-84.17276,12.15672],[-84.17796,12.15395],[-84.18111,12.15482],[-84.1798,12.16616],[-84.18574,12.17059],[-84.2217,12.15872],[-84.22062,12.15591],[-84.21697,12.15672],[-84.2058,12.1638],[-84.18651,12.16904],[-84.18083,12.16435],[-84.18241,12.15455],[-84.17951,12.15265],[-84.17274,12.15517],[-84.16522,12.16448],[-84.16259,12.15979],[-84.1438,12.15216],[-84.13829,12.12828],[-84.12803,12.11193],[-84.1241,12.11171],[-84.11354,12.12599],[-84.09261,12.12597],[-84.09501,12.11796],[-84.08727,12.11498],[-84.07449,12.11973],[-84.06922,12.11593],[-84.06172,12.10057],[-84.04684,12.08734],[-84.04285,12.08885],[-84.04421,12.10154],[-84.0395,12.10146],[-84.03419,12.0947],[-84.02712,12.09387],[-84.02299,12.09894],[-84.02462,12.10458],[-84.0189,12.09538],[-84.01051,12.08944],[-84.00412,12.09692],[-83.99839,12.0899],[-83.99491,12.09049],[-83.99608,12.10142],[-83.99073,12.09079],[-83.98728,12.08973],[-83.97904,12.0967],[-83.9744,12.08175],[-83.96966,12.07763],[-83.96162,12.07781],[-83.95675,12.06992],[-83.95172,12.07602],[-83.95419,12.08821],[-83.94516,12.08574],[-83.94611,12.09407],[-83.9353,12.09945],[-83.93045,12.11312],[-83.92006,12.11098],[-83.91565,12.11437],[-83.90517,12.11268],[-83.89107,12.11553],[-83.88823,12.11891],[-83.8942,12.12657],[-83.88917,12.13357],[-83.8604,12.13438],[-83.85629,12.14189],[-83.82739,12.15468],[-83.80488,12.154],[-83.78381,12.14784],[-83.76754,12.13727],[-83.75233,12.1208],[-83.74979,12.10255],[-83.75208,12.08399],[-83.74385,12.0591],[-83.74936,12.03796],[-83.75284,12.03726],[-83.75623,12.04765],[-83.76763,12.04238],[-83.78268,12.05717],[-83.79261,12.05604],[-83.80364,12.06082],[-83.80486,12.05257],[-83.80197,12.05105],[-83.79744,12.05522],[-83.79073,12.05181],[-83.78388,12.05594],[-83.78288,12.05099],[-83.77408,12.04773],[-83.77597,12.04127],[-83.7661,12.0376],[-83.76083,12.03061],[-83.75862,12.00682],[-83.76424,12.00525],[-83.76518,11.99633],[-83.76027,11.98891],[-83.76188,11.98391],[-83.77271,11.97823],[-83.76918,11.96872],[-83.77182,11.96742],[-83.77303,11.95763],[-83.76922,11.94312],[-83.77964,11.93941],[-83.78036,11.93284],[-83.78844,11.9307],[-83.79932,11.92106],[-83.80263,11.91254],[-83.79952,11.90596],[-83.80357,11.90184],[-83.82387,11.89353],[-83.83293,11.88456],[-83.83892,11.88282],[-83.84005,11.87741],[-83.83402,11.86395],[-83.82593,11.86442],[-83.81435,11.85707],[-83.82001,11.84826],[-83.81214,11.83289],[-83.7988,11.81886],[-83.78607,11.81358],[-83.7873,11.80559],[-83.78345,11.79944],[-83.74507,11.80342],[-83.74304,11.80936],[-83.74791,11.81318],[-83.75184,11.84043],[-83.74812,11.8469],[-83.74694,11.86018],[-83.74127,11.86757],[-83.72857,11.86589],[-83.7234,11.85873],[-83.71333,11.85368],[-83.70823,11.8572],[-83.70258,11.85481],[-83.69803,11.81726],[-83.68632,11.79523],[-83.67186,11.73254],[-83.66934,11.71531],[-83.67863,11.70261],[-83.67768,11.69876],[-83.66982,11.69677],[-83.66466,11.69012],[-83.65399,11.62559],[-83.64292,11.61475],[-83.65313,11.58981],[-83.66021,11.59283],[-83.66104,11.5981],[-83.66942,11.59996],[-83.66919,11.60331],[-83.67574,11.60595],[-83.6869,11.59799],[-83.69164,11.58868],[-83.69776,11.58759],[-83.70605,11.58069],[-83.71469,11.56435],[-83.71715,11.56681],[-83.73204,11.56732],[-83.741,11.56221],[-83.75131,11.56186],[-83.77209,11.51068],[-83.78582,11.51351],[-83.792,11.50457],[-83.7947,11.51381],[-83.79914,11.51441],[-83.80478,11.5038],[-83.82768,11.50517],[-83.82875,11.49881],[-83.81985,11.49658],[-83.83257,11.4895],[-83.854,11.49187],[-83.86122,11.48304],[-83.87627,11.48301],[-83.87654,11.47543],[-83.87375,11.48382],[-83.86121,11.48227],[-83.8532,11.49059],[-83.831,11.48913],[-83.81983,11.49477],[-83.8189,11.49815],[-83.82772,11.50036],[-83.82671,11.50423],[-83.80399,11.50317],[-83.79914,11.51364],[-83.79521,11.51252],[-83.79199,11.50341],[-83.78808,11.50461],[-83.7871,11.51079],[-83.77347,11.50578],[-83.7818,11.47635],[-83.78885,11.47641],[-83.7913,11.47342],[-83.79923,11.444],[-83.82797,11.44707],[-83.83257,11.43698],[-83.83961,11.43691],[-83.85074,11.41441],[-83.85827,11.41021],[-83.8609,11.39938],[-83.86559,11.39869],[-83.87222,11.37069],[-83.87504,11.33951],[-83.87342,11.29447],[-83.86153,11.22688],[-83.84195,11.15729],[-83.84671,11.16446],[-83.81127,11.07301],[-83.79467,11.03828],[-83.76331,10.98784],[-83.73251,10.95387],[-83.71444,10.94451],[-83.72172,10.94264],[-83.72958,10.94759],[-83.75888,10.97398],[-83.73612,10.94998],[-83.71988,10.94073],[-83.71841,10.93675],[-83.7271,10.93281],[-83.7093,10.92305],[-83.707,10.92861],[-83.71041,10.92843],[-83.71015,10.93064],[-83.70705,10.93427],[-83.71418,10.92743],[-83.7194,10.93174],[-83.71383,10.93396],[-83.71804,10.93855],[-83.71572,10.94179],[-83.70766,10.94354],[-83.70372,10.93971],[-83.69851,10.93976],[-83.69751,10.93471],[-83.69052,10.93545],[-83.69651,10.93473],[-83.68815,10.93264],[-83.67663,10.9069],[-83.67665,10.90249],[-83.68302,10.89792],[-83.6683,10.88939],[-83.66763,10.8761],[-83.67504,10.85318],[-83.66065,10.81814],[-83.67006,10.79765],[-83.69276,10.78855],[-83.6998,10.7876],[-83.71389,10.79278],[-83.72465,10.78522],[-83.75984,10.77508],[-83.7619,10.76908],[-83.78264,10.7719],[-83.79291,10.76922],[-83.8007,10.75453],[-83.81222,10.74606],[-83.82199,10.74921],[-83.84046,10.74383],[-83.86341,10.71745],[-83.87152,10.71641],[-83.88921,10.72183],[-83.93119,10.70759],[-83.93515,10.71051],[-83.9356,10.7195],[-83.96668,10.72891],[-83.97178,10.74506],[-84.00471,10.76398],[-84.02091,10.79156],[-84.02824,10.7916],[-84.03168,10.78725],[-84.0358,10.77144],[-84.04159,10.77095],[-84.04957,10.77866],[-84.05668,10.77785],[-84.06202,10.77237],[-84.06314,10.76319],[-84.08068,10.75867],[-84.1014,10.77413],[-84.1062,10.77423],[-84.11461,10.76585],[-84.12775,10.76573],[-84.13202,10.77168],[-84.13247,10.7829],[-84.14038,10.78767],[-84.16533,10.78518],[-84.19179,10.78964],[-84.20249,10.78183],[-84.20828,10.79151],[-84.20565,10.79715],[-84.22279,10.80116],[-84.22943,10.81192],[-84.23661,10.81383],[-84.23609,10.8202],[-84.21977,10.82581],[-84.21535,10.83796],[-84.21939,10.8641],[-84.22569,10.87411],[-84.23905,10.87734],[-84.24302,10.88417],[-84.25616,10.89053],[-84.28481,10.89473],[-84.29222,10.9118],[-84.30682,10.91671],[-84.30991,10.92176],[-84.31645,10.91627],[-84.32268,10.91793],[-84.3317,10.93116],[-84.33637,10.94596],[-84.35043,10.95038],[-84.34759,10.9667],[-84.34197,10.97474],[-84.3587,10.9955],[-84.37635,10.97736],[-84.39982,10.97498],[-84.4206,10.95488],[-84.4503,10.96056],[-84.48579,11.00057],[-84.56442,11.03296],[-84.57468,11.05107],[-84.60599,11.03838],[-84.66634,11.07228],[-84.68086,11.08463],[-84.91091,10.94394],[-85.22761,11.06253],[-85.35747,11.12608],[-85.424,11.12906],[-85.4966,11.15754],[-85.52215,11.1677],[-85.56043,11.21019],[-85.60984,11.21968],[-85.69304,11.07889],[-85.70873,11.08025],[-85.71939,11.08841],[-85.73296,11.08873],[-85.73529,11.09157],[-85.74183,11.08773],[-85.74543,11.09702],[-85.75744,11.09939],[-85.76236,11.10818],[-85.77071,11.10615],[-85.77408,11.11132],[-85.77905,11.10954],[-85.77954,11.11701],[-85.78869,11.11576],[-85.7988,11.12997],[-85.79316,11.13613],[-85.79417,11.14387],[-85.79925,11.14609],[-85.80647,11.16814],[-85.81931,11.18726],[-85.83503,11.20562],[-85.84181,11.20732],[-85.84828,11.22166],[-85.85247,11.2205],[-85.85374,11.22579],[-85.86336,11.23588],[-85.86728,11.23383],[-85.87104,11.24184],[-85.87483,11.23928],[-85.87949,11.24908],[-85.87348,11.25061],[-85.8758,11.25952],[-85.88963,11.25943],[-85.893,11.26576],[-85.88752,11.26599],[-85.88776,11.27154],[-85.89012,11.26898],[-85.89102,11.27206],[-85.8956,11.27028],[-85.90368,11.2734],[-85.89923,11.27673],[-85.90445,11.2801],[-85.90389,11.2868],[-85.92053,11.30593],[-85.93176,11.30571],[-85.93486,11.31294],[-85.94397,11.32174],[-85.94763,11.32175],[-85.95282,11.33053],[-85.9734,11.3449],[-85.96022,11.34447],[-85.9619,11.34732],[-85.97913,11.34815],[-85.98046,11.34248],[-85.99506,11.34897],[-85.99504,11.35516],[-86.00182,11.35647],[-86.0039,11.36137],[-86.01042,11.36191],[-86.00754,11.3668],[-86.01351,11.37416],[-86.019,11.37302],[-86.02004,11.37612],[-86.0323,11.37925],[-86.03007,11.38259],[-86.03616,11.39782],[-86.05543,11.4105],[-86.07244,11.41491],[-86.07394,11.42655],[-86.08618,11.43664],[-86.08682,11.44231],[-86.11197,11.46068],[-86.10453,11.45886],[-86.10411,11.46749],[-86.1151,11.46366],[-86.13075,11.47298],[-86.15907,11.48272],[-86.17221,11.49978],[-86.16553,11.50697],[-86.16604,11.51136],[-86.17893,11.52634],[-86.19249,11.53682],[-86.20111,11.53955],[-86.20578,11.55064],[-86.21335,11.55414],[-86.21125,11.55607],[-86.22301,11.55906],[-86.24206,11.56968],[-86.26605,11.58945],[-86.30783,11.60709],[-86.33864,11.62417],[-86.34953,11.63318],[-86.34866,11.63623],[-86.35221,11.63554],[-86.37905,11.67348],[-86.39915,11.69157],[-86.5172,11.77659],[-86.52068,11.80623],[-86.53568,11.82816],[-86.58181,11.8757],[-86.58144,11.87883],[-86.58532,11.87901],[-86.61694,11.90663],[-86.61968,11.91901],[-86.61732,11.92081],[-86.61783,11.92983],[-86.63337,11.95563],[-86.66578,11.98814],[-86.66421,11.99329],[-86.66636,11.99449],[-86.66769,11.99074],[-86.68356,12.0062],[-86.68721,12.02167],[-86.73414,12.09466],[-86.73713,12.10935],[-86.74616,12.12482],[-86.74484,12.13049],[-86.74889,12.14622],[-86.75333,12.14906],[-86.7511,12.15653],[-86.75595,12.16014],[-86.75543,12.14829],[-86.75988,12.15087],[-86.75686,12.1586],[-86.76995,12.17871],[-86.76955,12.18245],[-86.76379,12.17986],[-86.76143,12.18218],[-86.7613,12.17406],[-86.75751,12.17007],[-86.75541,12.17225],[-86.76039,12.17381],[-86.75868,12.1805],[-86.76417,12.1867],[-86.76495,12.2001],[-86.75971,12.2019],[-86.76077,12.19881],[-86.7567,12.19674],[-86.75578,12.20188],[-86.76075,12.21143],[-86.75315,12.2122],[-86.75223,12.20949],[-86.74228,12.20716],[-86.74123,12.2109],[-86.74699,12.21181],[-86.74738,12.21452],[-86.74149,12.21411],[-86.74174,12.21889],[-86.7496,12.22508],[-86.74658,12.22663],[-86.73781,12.22314],[-86.73021,12.22687],[-86.7316,12.23014],[-86.73607,12.22942],[-86.73124,12.23101],[-86.72338,12.24181],[-86.73084,12.25342],[-86.73595,12.25291],[-86.7336,12.24182],[-86.74277,12.23848],[-86.74801,12.24441],[-86.7488,12.24055],[-86.75312,12.23978],[-86.75169,12.23385],[-86.75562,12.23463],[-86.75588,12.23128],[-86.76046,12.23618],[-86.75417,12.23643],[-86.75456,12.24029],[-86.76565,12.25173],[-86.76547,12.24424],[-86.77133,12.24469],[-86.77147,12.23566],[-86.77868,12.23671],[-86.78584,12.23018],[-86.78955,12.23568],[-86.78666,12.23903],[-86.79334,12.24084],[-86.79373,12.24394],[-86.78915,12.24354],[-86.78927,12.25063],[-86.79307,12.25167],[-86.79189,12.25579],[-86.79962,12.25567],[-86.80146,12.24935],[-86.80548,12.24849],[-86.81561,12.25504],[-86.81535,12.24988],[-86.81862,12.24988],[-86.82138,12.2437],[-86.82518,12.24808],[-86.83238,12.24783],[-86.8312,12.25272],[-86.84469,12.2651],[-86.85702,12.26538],[-86.8591,12.26266],[-86.86513,12.26833],[-86.86775,12.26305],[-86.87692,12.27337],[-86.87456,12.28264],[-86.87927,12.28677],[-86.88609,12.28252],[-86.89146,12.29167],[-86.88949,12.29579],[-86.89709,12.29916],[-86.89996,12.30765],[-86.90941,12.3065],[-86.91137,12.31359],[-86.92329,12.32157],[-86.92617,12.32983],[-86.93692,12.3315],[-86.93902,12.32815],[-86.94767,12.33241],[-86.94924,12.32854],[-86.96707,12.33138],[-86.96812,12.33654],[-86.97283,12.33499],[-86.97624,12.33937],[-86.97571,12.34569],[-86.97938,12.34466],[-86.98463,12.35187],[-86.98686,12.34582],[-86.98961,12.34594],[-87.00481,12.36154],[-87.01923,12.36966],[-87.02552,12.36772],[-87.01635,12.36373],[-87.01595,12.35948],[-87.02316,12.35947],[-87.04663,12.38318],[-87.04624,12.3864],[-87.04152,12.38576],[-87.04126,12.38177],[-87.0389,12.38499],[-87.03115,12.38525],[-87.03365,12.39478],[-87.04467,12.39259],[-87.04781,12.39865],[-87.05961,12.39877],[-87.06302,12.40199],[-87.06154,12.40964],[-87.06447,12.41308],[-87.07115,12.41746],[-87.07928,12.41565],[-87.07876,12.41977],[-87.09515,12.43162],[-87.09056,12.43768],[-87.09502,12.43922],[-87.09398,12.44657],[-87.09739,12.4467],[-87.09739,12.44992],[-87.10316,12.44966],[-87.105,12.45482],[-87.10945,12.44863],[-87.10814,12.45933],[-87.09765,12.46062],[-87.09975,12.46642],[-87.10222,12.46593],[-87.09925,12.46802],[-87.10305,12.47517],[-87.10186,12.48007],[-87.10528,12.48471],[-87.11279,12.48538],[-87.11313,12.49476],[-87.12337,12.49308],[-87.12783,12.49553],[-87.12731,12.5079],[-87.13701,12.50673],[-87.12351,12.51357],[-87.13308,12.51563],[-87.13713,12.51272],[-87.14201,12.51536],[-87.14253,12.51781],[-87.13493,12.52155],[-87.14175,12.52516],[-87.14936,12.52335],[-87.15513,12.53081],[-87.15933,12.53081],[-87.15827,12.53572],[-87.16248,12.53958],[-87.17113,12.53287],[-87.17337,12.53777],[-87.17769,12.53235],[-87.18661,12.5357],[-87.18884,12.52719],[-87.1958,12.53956],[-87.19868,12.53646],[-87.19684,12.53208],[-87.20209,12.53053],[-87.2005,12.52636],[-87.20537,12.52795],[-87.20366,12.53388],[-87.20865,12.54161],[-87.21758,12.54263],[-87.21942,12.5492],[-87.21522,12.54844],[-87.22021,12.55681],[-87.23464,12.56014],[-87.23544,12.56543],[-87.23164,12.56994],[-87.23413,12.57032],[-87.23413,12.57483],[-87.23991,12.57869],[-87.24751,12.57644],[-87.24359,12.58359],[-87.2512,12.58448],[-87.25696,12.5801],[-87.26116,12.58151],[-87.26353,12.58782],[-87.26641,12.58499],[-87.26956,12.58666],[-87.27166,12.5824],[-87.2764,12.59477],[-87.2798,12.59193],[-87.28952,12.59514],[-87.29241,12.60609],[-87.28993,12.61035],[-87.29543,12.61085],[-87.30634,12.62399],[-87.29624,12.62529],[-87.30084,12.63082],[-87.2977,12.6343],[-87.30399,12.63456],[-87.29901,12.64049],[-87.29337,12.64076],[-87.30637,12.6495],[-87.30454,12.65646],[-87.29274,12.65802],[-87.2913,12.66163],[-87.30298,12.66239],[-87.30692,12.67166],[-87.31348,12.66418],[-87.31558,12.66753],[-87.32083,12.66508],[-87.32792,12.67292],[-87.33054,12.66442],[-87.34314,12.66891],[-87.34497,12.66427],[-87.34104,12.66363],[-87.33971,12.65642],[-87.34443,12.65319],[-87.35441,12.65408],[-87.36004,12.64892],[-87.34889,12.64829],[-87.34377,12.64379],[-87.34494,12.6403],[-87.33444,12.6371],[-87.33549,12.63323],[-87.3431,12.63399],[-87.34228,12.61621],[-87.36199,12.63203],[-87.36318,12.64247],[-87.37528,12.65689],[-87.37463,12.66436],[-87.37975,12.66178],[-87.38566,12.66847],[-87.38541,12.67813],[-87.38711,12.67388],[-87.39158,12.67568],[-87.39471,12.69337],[-87.39882,12.69345],[-87.40014,12.69692],[-87.4138,12.70451],[-87.4146,12.70786],[-87.41158,12.70889],[-87.41658,12.71713],[-87.42038,12.71403],[-87.43378,12.72071],[-87.44378,12.73461],[-87.47296,12.75775],[-87.47718,12.76471],[-87.47429,12.76561],[-87.47008,12.7615],[-87.46484,12.76395],[-87.46378,12.75983],[-87.46693,12.76086],[-87.46706,12.75854],[-87.45965,12.74962],[-87.43987,12.74776],[-87.43799,12.72766],[-87.42802,12.72768],[-87.42722,12.72291],[-87.41751,12.72409],[-87.42396,12.73413],[-87.42186,12.73568],[-87.43473,12.74133],[-87.4333,12.74442],[-87.42489,12.74083],[-87.41965,12.74612],[-87.4178,12.74238],[-87.41387,12.74291],[-87.41808,12.75012],[-87.41638,12.75656],[-87.41967,12.76081],[-87.42584,12.75964],[-87.42651,12.76814],[-87.43193,12.7665],[-87.43358,12.75447],[-87.43738,12.75421],[-87.44909,12.76849],[-87.46064,12.7668],[-87.46013,12.77376],[-87.45434,12.77003],[-87.44437,12.77121],[-87.44297,12.77465],[-87.43519,12.77715],[-87.43467,12.78256],[-87.42995,12.78283],[-87.42769,12.79176],[-87.42314,12.79315],[-87.42524,12.79675],[-87.42971,12.79636],[-87.42972,12.80087],[-87.4246,12.80294],[-87.42553,12.81157],[-87.43682,12.81065],[-87.43576,12.80099],[-87.44338,12.80355],[-87.44678,12.79852],[-87.45282,12.79993],[-87.45597,12.79747],[-87.45372,12.79026],[-87.45031,12.78924],[-87.45398,12.78562],[-87.45556,12.78923],[-87.45924,12.78793],[-87.46354,12.77517],[-87.46893,12.77941],[-87.46974,12.78662],[-87.46619,12.78831],[-87.47145,12.79178],[-87.46543,12.80403],[-87.45755,12.80108],[-87.45467,12.80688],[-87.46308,12.8079],[-87.464,12.8106],[-87.46098,12.81177],[-87.46292,12.81799],[-87.46743,12.81936],[-87.4728,12.81316],[-87.4791,12.81148],[-87.49605,12.8157],[-87.48465,12.82641],[-87.4915,12.83903],[-87.4978,12.83605],[-87.49608,12.83245],[-87.4991,12.82987],[-87.49449,12.82524],[-87.5046,12.8238],[-87.50436,12.83218],[-87.5016,12.83373],[-87.50489,12.83733],[-87.49834,12.84378],[-87.5007,12.84404],[-87.50046,12.85383],[-87.49746,12.86337],[-87.50232,12.86542],[-87.50128,12.86826],[-87.50969,12.87031],[-87.51046,12.86541],[-87.51951,12.85714],[-87.52332,12.85778],[-87.53145,12.85042],[-87.53723,12.8517],[-87.53722,12.84835],[-87.54194,12.84653],[-87.54864,12.84703],[-87.5511,12.82976],[-87.55768,12.83632],[-87.57055,12.83887],[-87.57264,12.83075],[-87.56764,12.82715],[-87.50455,12.80022],[-87.50271,12.79507],[-87.50585,12.7921],[-87.49113,12.78504],[-87.48665,12.77435],[-87.48231,12.77217],[-87.48309,12.76598],[-87.48558,12.76559],[-87.51952,12.79684],[-87.63313,12.86514],[-87.69038,12.9119],[-87.68442,12.94155],[-87.67657,12.9542],[-87.67516,12.96503],[-87.66271,12.97794],[-87.66181,12.98696],[-87.65054,12.9964],[-87.63609,12.99927],[-87.61851,13.00872],[-87.5986,13.03479],[-87.59219,13.04847],[-87.58408,13.04728],[-87.57656,13.05134],[-87.58077,13.05326],[-87.57472,13.05405],[-87.57121,13.05118],[-87.55027,13.04998],[-87.5292,13.02966],[-87.51631,13.02569],[-87.50432,13.01],[-87.48761,12.9974],[-87.47719,12.98041],[-87.47809,12.96907],[-87.47507,12.96779],[-87.47754,12.95567],[-87.4756,12.94991],[-87.48041,12.94587],[-87.48829,12.94637],[-87.48407,12.93659],[-87.48198,12.942],[-87.47776,12.93583],[-87.46962,12.93404],[-87.46829,12.92811],[-87.46172,12.92825],[-87.45987,12.91898],[-87.45422,12.92221],[-87.45804,12.92452],[-87.45726,12.9289],[-87.46068,12.93328],[-87.45385,12.93174],[-87.41309,12.91351],[-87.39706,12.91199],[-87.39943,12.90954],[-87.39705,12.90529],[-87.3763,12.90378],[-87.36814,12.89632],[-87.35868,12.89504],[-87.35762,12.88911],[-87.36839,12.88729],[-87.36865,12.88266],[-87.36366,12.8824],[-87.35815,12.88757],[-87.35997,12.87713],[-87.37416,12.87994],[-87.37428,12.87389],[-87.37941,12.87813],[-87.40332,12.87925],[-87.40517,12.88544],[-87.41226,12.88749],[-87.41241,12.89419],[-87.4191,12.89418],[-87.42161,12.89933],[-87.42909,12.89532],[-87.43461,12.89724],[-87.43616,12.88448],[-87.42671,12.88953],[-87.42578,12.88154],[-87.42854,12.88256],[-87.4259,12.87587],[-87.42223,12.87587],[-87.41987,12.88],[-87.41329,12.87615],[-87.40766,12.88208],[-87.40831,12.87744],[-87.39228,12.87566],[-87.38833,12.87142],[-87.38019,12.87001],[-87.38478,12.86562],[-87.38882,12.84758],[-87.38462,12.84668],[-87.37623,12.85752],[-87.37072,12.8592],[-87.36731,12.86642],[-87.36206,12.86462],[-87.36259,12.86849],[-87.3568,12.86476],[-87.35995,12.86321],[-87.35382,12.86112],[-87.35103,12.86851],[-87.34643,12.87006],[-87.34658,12.87702],[-87.32451,12.87472],[-87.32583,12.8822],[-87.34106,12.88012],[-87.34029,12.89017],[-87.32426,12.89019],[-87.32215,12.88426],[-87.32426,12.88375],[-87.31899,12.87447],[-87.31663,12.88131],[-87.3119,12.87758],[-87.30797,12.88273],[-87.3084,12.87387],[-87.31373,12.87165],[-87.31399,12.86649],[-87.31031,12.86289],[-87.30838,12.87062],[-87.30611,12.86624],[-87.29586,12.86509],[-87.28548,12.85621],[-87.27274,12.857],[-87.26933,12.86306],[-87.27328,12.86886],[-87.27748,12.87104],[-87.28221,12.86872],[-87.28484,12.87451],[-87.29115,12.87476],[-87.2956,12.86651],[-87.30048,12.87733],[-87.29523,12.88636],[-87.30272,12.8888],[-87.306,12.88351],[-87.3085,12.8884],[-87.30457,12.89434],[-87.30812,12.8982],[-87.31377,12.89832],[-87.31719,12.90643],[-87.32113,12.90643],[-87.32245,12.90952],[-87.31983,12.91145],[-87.30669,12.91392],[-87.30433,12.91624],[-87.3067,12.92191],[-87.30329,12.92269],[-87.29671,12.91625],[-87.29723,12.91045],[-87.29434,12.91213],[-87.29145,12.90621],[-87.28737,12.90492],[-87.28881,12.89745],[-87.28276,12.89088],[-87.28145,12.8932],[-87.28749,12.89719],[-87.28553,12.90363],[-87.2829,12.90338],[-87.27803,12.89153],[-87.27973,12.8874],[-87.27672,12.89089],[-87.27304,12.88742],[-87.26279,12.88665],[-87.25819,12.87995],[-87.25859,12.8864],[-87.24414,12.89208],[-87.2406,12.89054],[-87.23898,12.89638],[-87.23154,12.89596],[-87.23496,12.90175],[-87.23075,12.8975],[-87.22129,12.89854],[-87.21287,12.88051],[-87.21589,12.87458],[-87.18424,12.88427],[-87.18187,12.87203],[-87.18449,12.86713],[-87.18843,12.86816],[-87.19386,12.86283],[-87.1871,12.86133],[-87.18712,12.86507],[-87.18056,12.86623],[-87.18107,12.86365],[-87.17332,12.85786],[-87.17621,12.85528],[-87.17319,12.85167],[-87.17436,12.8442],[-87.17948,12.83608],[-87.17869,12.83131],[-87.16844,12.82694],[-87.16607,12.81302],[-87.15714,12.81689],[-87.16358,12.81663],[-87.16477,12.82848],[-87.17803,12.83466],[-87.17029,12.84291],[-87.15308,12.83648],[-87.15728,12.82772],[-87.15072,12.82824],[-87.1494,12.81096],[-87.14348,12.81445],[-87.1441,12.81861],[-87.14821,12.81767],[-87.15006,12.82514],[-87.14586,12.8294],[-87.12616,12.82657],[-87.12432,12.81742],[-87.13377,12.81832],[-87.13337,12.81484],[-87.12609,12.8077],[-87.11722,12.80931],[-87.11538,12.80274],[-87.1033,12.79901],[-87.09148,12.80597],[-87.07415,12.80842],[-87.07048,12.81525],[-87.04303,12.82286],[-87.04212,12.82544],[-87.0169,12.82402],[-87.01401,12.82519],[-87.01559,12.82892],[-87.00469,12.83189],[-86.98828,12.82905],[-86.98624,12.83806],[-86.98174,12.83931],[-86.98696,12.83807],[-86.98854,12.82932],[-86.99564,12.82879],[-87.02531,12.83923],[-87.01664,12.84723],[-87.01126,12.84786],[-87.0169,12.85508],[-87.0169,12.86075],[-87.02662,12.86514],[-87.0286,12.87286],[-87.02321,12.8775],[-87.02531,12.88163],[-87.02794,12.87776],[-87.04028,12.87647],[-87.04265,12.87852],[-87.03792,12.8842],[-87.04318,12.88484],[-87.05885,12.87999],[-87.05867,12.87737],[-87.06366,12.87556],[-87.07023,12.87619],[-87.07181,12.88136],[-87.09817,12.88436],[-87.08994,12.88664],[-87.07391,12.88265],[-87.07128,12.88329],[-87.07234,12.88729],[-87.07444,12.88419],[-87.08915,12.88818],[-87.10202,12.88728],[-87.10084,12.89604],[-87.10859,12.90351],[-87.10229,12.90622],[-87.09769,12.90403],[-87.09782,12.90068],[-87.08548,12.89965],[-87.08377,12.90816],[-87.06814,12.90663],[-87.08521,12.90866],[-87.08561,12.90198],[-87.08968,12.89991],[-87.09467,12.90403],[-87.08548,12.9137],[-87.06919,12.91434],[-87.06577,12.90868],[-87.06764,12.90684],[-87.05631,12.90121],[-87.05027,12.90971],[-87.05553,12.91242],[-87.06157,12.90791],[-87.06735,12.91564],[-87.07025,12.93033],[-87.07576,12.92182],[-87.07944,12.92878],[-87.08483,12.9262],[-87.08417,12.91898],[-87.0952,12.92439],[-87.09744,12.93057],[-87.09337,12.93083],[-87.09232,12.9378],[-87.08628,12.93844],[-87.08602,12.94359],[-87.08102,12.93702],[-87.07209,12.93819],[-87.06815,12.94218],[-87.08022,12.9378],[-87.08234,12.94166],[-87.07958,12.94527],[-87.08313,12.94836],[-87.09889,12.95171],[-87.10087,12.96511],[-87.10954,12.96717],[-87.10888,12.96098],[-87.11309,12.96124],[-87.11808,12.9651],[-87.11651,12.97154],[-87.12203,12.97631],[-87.12229,12.98172],[-87.11362,12.98198],[-87.11336,12.98495],[-87.12282,12.9852],[-87.1223,12.98726],[-87.14201,12.99768],[-87.06492,13.00236],[-87.06032,12.99324],[-87.04954,12.99164],[-87.05198,12.98452],[-87.0491,12.98826],[-87.02751,12.9869],[-87.02334,12.99793],[-87.02741,13.00278],[-87.02224,13.00845],[-87.01656,13.0048],[-87.01765,13.0002],[-87.00962,13.00303],[-87.00676,13.01219],[-86.996,13.0209],[-86.98816,13.02401],[-86.98158,13.02123],[-86.97061,13.03108],[-86.96412,13.03135],[-86.95524,13.03861],[-86.95871,13.05246],[-86.95433,13.05586],[-86.95433,13.06323],[-86.94309,13.06848],[-86.93424,13.07901],[-86.92641,13.08251],[-86.91568,13.09888],[-86.91973,13.10369],[-86.92816,13.10237],[-86.92735,13.11969],[-86.93425,13.12478],[-86.9237,13.13292],[-86.92186,13.14119],[-86.92474,13.14559],[-86.92175,13.15018],[-86.91386,13.15106],[-86.91337,13.15433],[-86.93328,13.18039],[-86.93204,13.18793],[-86.9254,13.19004],[-86.92013,13.19994],[-86.92074,13.20838],[-86.91531,13.21363],[-86.92288,13.22364],[-86.91085,13.22247],[-86.90955,13.22613],[-86.91372,13.23395],[-86.9055,13.25249],[-86.91591,13.26057],[-86.90099,13.27132],[-86.89057,13.27298],[-86.88248,13.27952],[-86.87498,13.28096],[-86.87686,13.28721],[-86.86775,13.30427],[-86.8496,13.30077],[-86.83551,13.30544],[-86.83435,13.31157],[-86.8301,13.31417],[-86.82486,13.31305],[-86.80033,13.30325],[-86.79833,13.29901],[-86.79385,13.29878],[-86.79138,13.29411],[-86.75429,13.26742],[-86.72636,13.29066],[-86.7118,13.29555],[-86.70573,13.30302],[-86.70357,13.3137],[-86.70749,13.32373],[-86.71058,13.35917],[-86.7072,13.36572],[-86.71446,13.37708],[-86.72107,13.38094],[-86.72729,13.37903],[-86.73686,13.38119],[-86.74421,13.40142],[-86.74417,13.40659],[-86.72093,13.43481],[-86.72516,13.44243],[-86.72377,13.45701],[-86.74153,13.48655],[-86.74291,13.52796],[-86.75081,13.56645],[-86.757,13.5714],[-86.76499,13.5714],[-86.76952,13.57618],[-86.74915,13.63964],[-86.75525,13.65162],[-86.7679,13.65126],[-86.78612,13.6625],[-86.76819,13.70022],[-86.7645,13.71534],[-86.76082,13.71779],[-86.76249,13.72165],[-86.7595,13.72738],[-86.76944,13.75464],[-86.76099,13.76888],[-86.7234,13.78698],[-86.66591,13.78401],[-86.66425,13.7774],[-86.65962,13.77521],[-86.64963,13.77984],[-86.64414,13.77744],[-86.62776,13.78769],[-86.62383,13.78539],[-86.61955,13.78764],[-86.6095,13.78182],[-86.59585,13.78812],[-86.58559,13.78461],[-86.55665,13.8028],[-86.54773,13.79753],[-86.53954,13.80471],[-86.53048,13.79942],[-86.53095,13.79577],[-86.52217,13.7867],[-86.52291,13.78136],[-86.51412,13.7749],[-86.5036,13.77574],[-86.49173,13.76877],[-86.48297,13.77134],[-86.48212,13.77521],[-86.47336,13.77091],[-86.4527,13.79017],[-86.44648,13.7726],[-86.44007,13.76406],[-86.42644,13.76535],[-86.41614,13.75766],[-86.41003,13.75994],[-86.40171,13.75805],[-86.39804,13.76249],[-86.38679,13.76134],[-86.37684,13.77097],[-86.37258,13.76542],[-86.36386,13.76258],[-86.35699,13.76624],[-86.35002,13.76246],[-86.34652,13.76856],[-86.34181,13.76658],[-86.33414,13.76877],[-86.33064,13.77773],[-86.3154,13.79225],[-86.31638,13.80204],[-86.30344,13.8086],[-86.30336,13.81548],[-86.29659,13.81607],[-86.29514,13.82552],[-86.30244,13.83718],[-86.29516,13.85134],[-86.27917,13.85781],[-86.27585,13.8705],[-86.27809,13.87535],[-86.26879,13.87729],[-86.26807,13.88017],[-86.25652,13.88082],[-86.25684,13.88659],[-86.24703,13.88818],[-86.24909,13.89205],[-86.24211,13.90443],[-86.22784,13.90548],[-86.22514,13.90816],[-86.22231,13.91482],[-86.2265,13.91973],[-86.2259,13.92627],[-86.21692,13.93683],[-86.19907,13.93536],[-86.19505,13.94286],[-86.19803,13.94848],[-86.19348,13.95457],[-86.18622,13.95496],[-86.18487,13.95959],[-86.19253,13.98081],[-86.18965,13.98435],[-86.1866,13.98572],[-86.17538,13.9796],[-86.16702,13.98072],[-86.15757,13.99338],[-86.15496,13.99239],[-86.1514,13.99648],[-86.14586,13.99431],[-86.14169,13.99955],[-86.13978,14.00559],[-86.14461,14.00932],[-86.14431,14.0139],[-86.15035,14.01489],[-86.1575,14.02459],[-86.1537,14.03373],[-86.13277,14.04489],[-86.13508,14.04976],[-86.12627,14.04467],[-86.11847,14.04482],[-86.10695,14.05843],[-86.08699,14.06504],[-86.0771,14.06305],[-86.07608,14.06964],[-86.04322,14.06947],[-86.0387,14.07669],[-86.01164,14.08022],[-86.00366,14.07001],[-86.01136,14.06061],[-86.00868,14.05572],[-86.04216,13.99604],[-86.03385,13.99396],[-86.02744,13.99853],[-86.02205,13.99091],[-86.01732,13.99184],[-86.01585,13.98646],[-86.01034,13.98609],[-86.0021,13.97768],[-86.00072,13.97172],[-85.99534,13.96974],[-85.99599,13.96688],[-85.99138,13.96444],[-85.98784,13.96952],[-85.98418,13.96906],[-85.9767,13.96161],[-85.96656,13.95996],[-85.96514,13.95136],[-85.95505,13.95094],[-85.94783,13.94438],[-85.93517,13.94069],[-85.92106,13.93157],[-85.91894,13.93743],[-85.91267,13.92595],[-85.91604,13.91656],[-85.91318,13.90841],[-85.8976,13.90303],[-85.8907,13.90954],[-85.89236,13.91567],[-85.88717,13.92156],[-85.88836,13.92495],[-85.88411,13.92518],[-85.88212,13.92936],[-85.86915,13.92202],[-85.85255,13.92112],[-85.84559,13.9177],[-85.83703,13.89906],[-85.84139,13.89575],[-85.83748,13.89294],[-85.84083,13.88584],[-85.83619,13.87644],[-85.82657,13.86911],[-85.82677,13.85751],[-85.8228,13.85767],[-85.8195,13.84861],[-85.81348,13.84946],[-85.80385,13.84321],[-85.79273,13.842],[-85.76709,13.84891],[-85.75634,13.84274],[-85.75226,13.83241],[-85.74714,13.83995],[-85.73856,13.84249],[-85.73736,13.84526],[-85.74219,13.85273],[-85.73338,13.8611],[-85.73886,13.87191],[-85.75416,13.88237],[-85.76071,13.88185],[-85.76421,13.88522],[-85.7561,13.90317],[-85.75747,13.912],[-85.75193,13.92926],[-85.75357,13.94305],[-85.75746,13.94903],[-85.75248,13.95528],[-85.7534,13.96767],[-85.73207,13.96992],[-85.7238,13.97695],[-85.72384,13.98168],[-85.70453,13.99298],[-85.68668,13.98942],[-85.68371,13.98077],[-85.67742,13.97939],[-85.66735,13.98694],[-85.66813,13.99666],[-85.66273,14.01269],[-85.65858,14.01031],[-85.64001,14.0121],[-85.62376,14.00938],[-85.62543,14.01931],[-85.62258,14.02157],[-85.61491,14.01937],[-85.60345,14.02672],[-85.59134,14.04386],[-85.58569,14.03998],[-85.57732,14.0435],[-85.5783,14.05835],[-85.57304,14.06515],[-85.56729,14.06243],[-85.55573,14.0643],[-85.56155,14.05108],[-85.5372,14.04602],[-85.52681,14.04915],[-85.51911,14.04743],[-85.51692,14.05115],[-85.521,14.05932],[-85.51901,14.06145],[-85.51115,14.05945],[-85.50669,14.06323],[-85.50904,14.07695],[-85.50554,14.08828],[-85.4991,14.0865],[-85.49749,14.07698],[-85.49447,14.07578],[-85.49067,14.08176],[-85.4926,14.08816],[-85.48235,14.08852],[-85.47903,14.08354],[-85.47695,14.09473],[-85.46557,14.09421],[-85.45388,14.1145],[-85.44224,14.10549],[-85.43126,14.10616],[-85.42606,14.11649],[-85.42007,14.11504],[-85.41347,14.12216],[-85.40551,14.12213],[-85.40332,14.13495],[-85.39534,14.13777],[-85.39539,14.14251],[-85.4009,14.14654],[-85.39784,14.16339],[-85.3892,14.16841],[-85.38158,14.1797],[-85.37517,14.18207],[-85.38094,14.19598],[-85.37365,14.1975],[-85.37702,14.20893],[-85.37484,14.21509],[-85.38328,14.21875],[-85.38339,14.22147],[-85.36993,14.22498],[-85.36699,14.2209],[-85.36881,14.21312],[-85.36135,14.21301],[-85.35541,14.22524],[-85.35626,14.23124],[-85.34177,14.2324],[-85.34063,14.2489],[-85.33203,14.24746],[-85.3288,14.25112],[-85.30991,14.25658],[-85.2975,14.25],[-85.28931,14.2513],[-85.28568,14.26041],[-85.26984,14.25908],[-85.26953,14.26229],[-85.26132,14.25821],[-85.25412,14.25932],[-85.24101,14.2524],[-85.22597,14.25174],[-85.22232,14.255],[-85.20967,14.25301],[-85.2017,14.25756],[-85.1862,14.24917],[-85.17836,14.2682],[-85.16927,14.27618],[-85.16684,14.28311],[-85.15886,14.28759],[-85.15327,14.30238],[-85.17942,14.31437],[-85.18263,14.33407],[-85.19258,14.32932],[-85.19541,14.34184],[-85.19958,14.34601],[-85.19573,14.35102],[-85.199,14.35892],[-85.19669,14.36429],[-85.20882,14.37006],[-85.21773,14.36794],[-85.22173,14.37598],[-85.20608,14.3872],[-85.20175,14.40704],[-85.19178,14.40848],[-85.18894,14.42336],[-85.18177,14.42793],[-85.1808,14.43347],[-85.18562,14.44589],[-85.18157,14.45831],[-85.18514,14.46645],[-85.18234,14.47117],[-85.17459,14.4769],[-85.1678,14.47464],[-85.16251,14.4824],[-85.15314,14.48295],[-85.14981,14.48717],[-85.14817,14.5043],[-85.13897,14.51875],[-85.14778,14.5441],[-85.14049,14.5536],[-85.14282,14.56354],[-85.15008,14.56579],[-85.15249,14.57066],[-85.14431,14.57719],[-85.1334,14.57711],[-85.12235,14.58597],[-85.11891,14.57838],[-85.11303,14.57735],[-85.10648,14.561],[-85.09499,14.55287],[-85.08773,14.55249],[-85.07644,14.55899],[-85.06395,14.56089],[-85.05889,14.56861],[-85.04286,14.57486],[-85.02312,14.60507],[-85.02271,14.61027]],[[-83.51777,13.99791],[-83.5184,14.01121],[-83.52385,14.01705],[-83.51892,14.01069],[-83.52098,14.00603],[-83.51777,13.99791]],[[-83.52442,14.01717],[-83.52525,14.03457],[-83.52588,14.0204],[-83.52442,14.01717]],[[-83.62624,13.64921],[-83.63079,13.65344],[-83.63526,13.653],[-83.63849,13.64692],[-83.64725,13.6418],[-83.65148,13.64343],[-83.65168,13.64987],[-83.6616,13.65375],[-83.66527,13.65281],[-83.66626,13.64675],[-83.67537,13.6491],[-83.67766,13.65396],[-83.6872,13.65953],[-83.6922,13.65947],[-83.69491,13.65481],[-83.69283,13.6453],[-83.68821,13.64381],[-83.67654,13.6478],[-83.66455,13.64715],[-83.66369,13.65296],[-83.65313,13.65011],[-83.64908,13.6405],[-83.63808,13.64564],[-83.63407,13.65263],[-83.62624,13.64921]],[[-83.66476,13.37447],[-83.67454,13.37505],[-83.68887,13.36254],[-83.69203,13.3634],[-83.70027,13.38288],[-83.69739,13.39553],[-83.71004,13.39861],[-83.72208,13.39333],[-83.73463,13.39847],[-83.73775,13.40694],[-83.75847,13.40208],[-83.76157,13.39689],[-83.76895,13.39887],[-83.77692,13.40548],[-83.77417,13.41838],[-83.7811,13.42628],[-83.79353,13.43207],[-83.79812,13.44231],[-83.80578,13.4448],[-83.80494,13.45202],[-83.81745,13.45381],[-83.824,13.45129],[-83.83038,13.45688],[-83.83351,13.45505],[-83.82842,13.44738],[-83.83915,13.44275],[-83.85369,13.44915],[-83.85178,13.44326],[-83.86093,13.43852],[-83.86266,13.42897],[-83.87503,13.42999],[-83.87679,13.42315],[-83.8887,13.42971],[-83.90092,13.41747],[-83.90201,13.42132],[-83.90861,13.42278],[-83.90497,13.42695],[-83.90986,13.42869],[-83.90966,13.42264],[-83.89842,13.41775],[-83.88817,13.42907],[-83.87784,13.42275],[-83.87345,13.43001],[-83.862,13.42847],[-83.86066,13.43788],[-83.851,13.44378],[-83.85342,13.44864],[-83.83915,13.44224],[-83.82737,13.44688],[-83.83246,13.45532],[-83.82425,13.45026],[-83.80638,13.45175],[-83.80656,13.44479],[-83.7989,13.44179],[-83.79472,13.43231],[-83.78149,13.42525],[-83.77509,13.4176],[-83.77811,13.40624],[-83.76709,13.39696],[-83.76052,13.3969],[-83.75663,13.40171],[-83.73985,13.40627],[-83.73368,13.39617],[-83.72366,13.39293],[-83.7103,13.39783],[-83.6979,13.39475],[-83.70104,13.38133],[-83.69486,13.36955],[-83.70233,13.3669],[-83.70568,13.36133],[-83.71331,13.36163],[-83.71928,13.35436],[-83.71714,13.347],[-83.71927,13.35333],[-83.71173,13.36152],[-83.70541,13.36056],[-83.69788,13.36888],[-83.69281,13.36237],[-83.68807,13.36151],[-83.67506,13.37401],[-83.66476,13.37447]],[[-83.67214,12.79771],[-83.67151,12.80106],[-83.68045,12.80303],[-83.68209,12.8092],[-83.69174,12.80382],[-83.71246,12.80374],[-83.70896,12.80528],[-83.71289,12.81111],[-83.72203,12.81535],[-83.73515,12.81547],[-83.74681,12.82668],[-83.75518,12.8244],[-83.75724,12.82],[-83.76695,12.82106],[-83.76391,12.83075],[-83.76765,12.83714],[-83.78776,12.82844],[-83.79166,12.81295],[-83.78412,12.80775],[-83.77599,12.80809],[-83.76011,12.81869],[-83.74382,12.81654],[-83.7498,12.81184],[-83.74971,12.80335],[-83.75756,12.80146],[-83.75879,12.79399],[-83.7454,12.79271],[-83.73761,12.78803],[-83.74422,12.78127],[-83.74483,12.77662],[-83.74019,12.77204],[-83.71059,12.77569],[-83.70862,12.78833],[-83.70292,12.79482],[-83.70587,12.80097],[-83.70171,12.8041],[-83.69251,12.80278],[-83.68208,12.80842],[-83.68097,12.80251],[-83.67189,12.80055],[-83.67214,12.79771]],[[-83.71758,13.34622],[-83.72643,13.33587],[-83.73879,13.33613],[-83.74475,13.33262],[-83.73774,13.33575],[-83.72511,13.3355],[-83.71758,13.34622]],[[-83.74487,13.33257],[-83.75628,13.3295],[-83.74976,13.32944],[-83.74487,13.33257]],[[-83.75632,13.32931],[-83.7528,13.3195],[-83.7682,13.30981],[-83.76373,13.30973],[-83.76195,13.31502],[-83.75706,13.3125],[-83.75673,13.31855],[-83.75253,13.31873],[-83.75632,13.32931]],[[-83.77018,12.43719],[-83.77085,12.42828],[-83.76875,12.42779],[-83.76713,12.43527],[-83.77018,12.43719]],[[-83.83296,12.82305],[-83.82963,12.81876],[-83.83503,12.80952],[-83.85995,12.81532],[-83.86355,12.80291],[-83.87528,12.79686],[-83.87378,12.78771],[-83.87777,12.78432],[-83.88012,12.78745],[-83.87892,12.80013],[-83.89126,12.79437],[-83.89991,12.79414],[-83.91448,12.8066],[-83.91706,12.80309],[-83.92434,12.80313],[-83.9232,12.81242],[-83.93078,12.81115],[-83.93607,12.82476],[-83.94256,12.82984],[-83.94751,12.82746],[-83.95,12.81585],[-83.9589,12.81434],[-83.96405,12.81981],[-83.97157,12.81871],[-83.96929,12.82825],[-83.9777,12.82931],[-83.98389,12.84276],[-83.98599,12.84247],[-83.9837,12.83761],[-83.98631,12.83655],[-83.98953,12.84243],[-83.98762,12.84709],[-83.99183,12.84833],[-83.98642,12.85714],[-83.99238,12.8509],[-83.98772,12.84477],[-83.99004,12.84088],[-83.9867,12.83577],[-83.98,12.83559],[-83.97888,12.82891],[-83.97035,12.82849],[-83.97179,12.8178],[-83.96473,12.81955],[-83.96231,12.81391],[-83.94973,12.81495],[-83.94672,12.82722],[-83.94096,12.82831],[-83.93686,12.82475],[-83.93184,12.81039],[-83.92322,12.811],[-83.92466,12.80211],[-83.91235,12.80404],[-83.90496,12.79962],[-83.90174,12.79322],[-83.89125,12.79347],[-83.87925,12.79952],[-83.88108,12.78727],[-83.87775,12.78293],[-83.87242,12.78685],[-83.87294,12.79804],[-83.8638,12.80175],[-83.85844,12.81493],[-83.83686,12.80847],[-83.83216,12.81071],[-83.8282,12.81977],[-83.83296,12.82305]],[[-86.57993,11.87603],[-86.57473,11.87075],[-86.57512,11.87436],[-86.57993,11.87603]]],[[[-83.73861,12.07099],[-83.736,12.07128],[-83.73749,12.06379],[-83.73861,12.07099]]],[[[-83.21508,14.95282],[-83.22088,14.94981],[-83.21564,14.95604],[-83.20483,14.96026],[-83.18842,14.96145],[-83.21508,14.95282]]],[[[-83.27982,14.24508],[-83.28026,14.23683],[-83.28793,14.23831],[-83.28929,14.24164],[-83.28358,14.25122],[-83.28054,14.25125],[-83.27982,14.24508]]],[[[-83.30621,14.80489],[-83.29791,14.80858],[-83.3032,14.78278],[-83.31531,14.78922],[-83.30827,14.79933],[-83.30938,14.8046],[-83.30621,14.80489]]],[[[-83.32287,14.75348],[-83.32426,14.76068],[-83.31747,14.76873],[-83.31587,14.7672],[-83.32287,14.75348]]],[[[-83.34615,14.70368],[-83.34711,14.70684],[-83.3527,14.69808],[-83.35264,14.69228],[-83.35896,14.6899],[-83.36907,14.69559],[-83.37206,14.70277],[-83.36286,14.70802],[-83.35792,14.71605],[-83.34317,14.72264],[-83.33866,14.72139],[-83.33645,14.7124],[-83.34621,14.7096],[-83.34182,14.70694],[-83.34615,14.70368]]],[[[-83.39115,12.47607],[-83.38978,12.48393],[-83.38714,12.48164],[-83.39115,12.47607]]],[[[-83.39047,12.48805],[-83.39003,12.49629],[-83.38766,12.49554],[-83.39047,12.48805]]],[[[-83.41048,12.44126],[-83.41418,12.4438],[-83.40999,12.44487],[-83.41048,12.44126]]],[[[-83.47064,13.97128],[-83.47127,13.98106],[-83.46616,13.98445],[-83.47064,13.97128]]],[[[-83.47432,13.94601],[-83.4767,13.95886],[-83.48837,13.96492],[-83.4773,13.96555],[-83.47299,13.95709],[-83.47432,13.94601]]],[[[-83.49808,13.94911],[-83.50553,13.95547],[-83.50185,13.95628],[-83.49808,13.94911]]],[[[-83.50371,13.95716],[-83.50608,13.95753],[-83.50481,13.96192],[-83.50371,13.95716]]],[[[-83.56175,12.89588],[-83.54966,12.89407],[-83.55858,12.89359],[-83.56175,12.89588]]],[[[-83.57606,12.90887],[-83.56635,12.90171],[-83.57128,12.90325],[-83.57606,12.90887]]],[[[-83.58639,13.46775],[-83.5769,13.47437],[-83.56988,13.47307],[-83.58639,13.46775]]],[[[-83.57688,13.24114],[-83.57902,13.24434],[-83.57508,13.24438],[-83.57688,13.24114]]],[[[-83.58115,13.64057],[-83.57938,13.64728],[-83.57572,13.64938],[-83.58115,13.64057]]],[[[-83.59811,13.60254],[-83.59974,13.60665],[-83.59712,13.60745],[-83.59811,13.60254]]],[[[-83.60461,13.64264],[-83.6112,13.64399],[-83.60992,13.64683],[-83.60461,13.64264]]],[[[-83.66689,12.35453],[-83.6766,12.35688],[-83.67192,12.35937],[-83.66826,12.3858],[-83.6602,12.37867],[-83.66689,12.35453]]],[[[-83.66649,12.34114],[-83.6681,12.34486],[-83.66496,12.34489],[-83.66649,12.34114]]],[[[-83.67389,10.93163],[-83.67567,10.92598],[-83.67562,10.93073],[-83.67389,10.93163]]],[[[-83.69314,11.99677],[-83.68083,11.99534],[-83.68027,11.99149],[-83.69397,11.98852],[-83.69314,11.99677]]],[[[-83.68571,12.01229],[-83.6839,12.00175],[-83.6893,12.00582],[-83.68591,12.00662],[-83.68571,12.01229]]],[[[-83.72011,12.00011],[-83.70975,11.99687],[-83.72093,11.97745],[-83.72554,11.95475],[-83.72625,11.92101],[-83.71753,11.87256],[-83.72308,11.87856],[-83.72539,11.87416],[-83.73876,11.87815],[-83.74035,11.89307],[-83.73797,11.90416],[-83.74287,11.90537],[-83.74391,11.90951],[-83.74822,11.90921],[-83.74839,11.91307],[-83.74364,11.92161],[-83.74436,11.92856],[-83.73797,11.93042],[-83.74167,11.93348],[-83.74087,11.94558],[-83.74655,11.95145],[-83.74634,11.95609],[-83.7338,11.97011],[-83.73075,11.99254],[-83.72011,12.00011]]],[[[-83.74135,12.05732],[-83.73999,12.05193],[-83.7433,12.04628],[-83.74135,12.05732]]],[[[-83.7878,11.86827],[-83.79042,11.86889],[-83.78888,11.87161],[-83.7856,11.87048],[-83.7878,11.86827]]],[[[-86.7787,12.20062],[-86.79546,12.21675],[-86.78838,12.21584],[-86.78472,12.21171],[-86.78052,12.21867],[-86.77189,12.20668],[-86.76822,12.20654],[-86.76731,12.20062],[-86.76783,12.19778],[-86.7787,12.20062]]],[[[-86.79703,12.21791],[-86.84339,12.24783],[-86.84103,12.25144],[-86.83802,12.25066],[-86.83866,12.24603],[-86.80593,12.22694],[-86.79703,12.21791]]],[[[-86.84234,12.25066],[-86.84914,12.2624],[-86.84207,12.25943],[-86.84234,12.25066]]],[[[-86.88557,12.27479],[-86.95082,12.31152],[-86.96445,12.32055],[-86.96445,12.3239],[-86.95082,12.31822],[-86.94977,12.31424],[-86.94295,12.31282],[-86.93037,12.30149],[-86.88557,12.27479]]],[[[-87,12.34641],[-86.98961,12.34015],[-86.99066,12.33834],[-87.00193,12.3453],[-87,12.34641]]],[[[-87.0881,12.85687],[-87.07995,12.86151],[-87.07407,12.84975],[-87.06208,12.84825],[-87.06366,12.8427],[-87.05592,12.84142],[-87.05604,12.83523],[-87.05065,12.83575],[-87.05131,12.83008],[-87.0584,12.82827],[-87.06024,12.82183],[-87.07022,12.81913],[-87.08414,12.82699],[-87.09018,12.82633],[-87.10515,12.83934],[-87.11093,12.83959],[-87.10936,12.85158],[-87.1049,12.85313],[-87.10201,12.85068],[-87.10017,12.85468],[-87.09334,12.85365],[-87.0881,12.85687]]],[[[-87.07432,12.39955],[-87.10262,12.4186],[-87.05228,12.38859],[-87.05174,12.38499],[-87.07432,12.39955]]],[[[-87.07233,12.85443],[-87.0764,12.85713],[-87.07548,12.86693],[-87.06497,12.86538],[-87.0655,12.85791],[-87.07233,12.85443]]],[[[-87.08492,12.86492],[-87.08993,12.86616],[-87.08862,12.87053],[-87.0831,12.86873],[-87.08492,12.86492]]],[[[-87.10334,12.91201],[-87.10505,12.91511],[-87.10124,12.91588],[-87.10334,12.91201]]],[[[-87.10304,12.82131],[-87.10698,12.82131],[-87.1062,12.82362],[-87.10304,12.82131]]],[[[-87.10465,12.88831],[-87.11818,12.89861],[-87.12646,12.89861],[-87.12725,12.9035],[-87.12068,12.91021],[-87.11648,12.90943],[-87.11148,12.89965],[-87.10347,12.89501],[-87.10465,12.88831]]],[[[-87.11199,12.85125],[-87.11489,12.85106],[-87.11816,12.84294],[-87.1217,12.8432],[-87.13103,12.85299],[-87.13091,12.85711],[-87.11804,12.87348],[-87.11278,12.87181],[-87.112,12.87413],[-87.10372,12.86949],[-87.10516,12.86537],[-87.10963,12.86614],[-87.11199,12.85125]]],[[[-87.10938,12.90609],[-87.11109,12.91021],[-87.10597,12.91459],[-87.10426,12.90815],[-87.10938,12.90609]]],[[[-87.1128,12.91176],[-87.11237,12.91553],[-87.12699,12.91188],[-87.11714,12.92052],[-87.11688,12.92722],[-87.12516,12.93855],[-87.12043,12.93559],[-87.11334,12.94242],[-87.10454,12.93959],[-87.11189,12.93212],[-87.11347,12.92644],[-87.11057,12.92052],[-87.1128,12.91743],[-87.11018,12.91536],[-87.1128,12.91176]]],[[[-87.12778,12.92],[-87.13146,12.92025],[-87.13278,12.9285],[-87.12568,12.92618],[-87.12778,12.92]]],[[[-87.12729,12.98211],[-87.13097,12.98597],[-87.12625,12.98597],[-87.12729,12.98211]]],[[[-87.13463,12.94654],[-87.13805,12.95233],[-87.13305,12.95375],[-87.13358,12.95839],[-87.1278,12.9553],[-87.12832,12.95105],[-87.13463,12.94654]]],[[[-87.13368,12.86744],[-87.13538,12.87334],[-87.12881,12.87386],[-87.1292,12.86794],[-87.13368,12.86744]]],[[[-87.13968,12.9092],[-87.14327,12.90903],[-87.14407,12.9129],[-87.13566,12.91484],[-87.13434,12.91149],[-87.13968,12.9092]]],[[[-87.14551,12.85356],[-87.13773,12.85066],[-87.13681,12.84731],[-87.13904,12.84641],[-87.14551,12.85356]]],[[[-87.14166,12.83597],[-87.14691,12.84087],[-87.14324,12.84499],[-87.13969,12.83932],[-87.14166,12.83597]]],[[[-87.1441,12.97772],[-87.15082,12.99549],[-87.13991,12.99112],[-87.14016,12.98313],[-87.14279,12.98313],[-87.1441,12.97772]]],[[[-87.14568,12.51678],[-87.14962,12.51935],[-87.14227,12.51949],[-87.14568,12.51678]]],[[[-87.15454,12.85117],[-87.15047,12.84937],[-87.15204,12.84678],[-87.16649,12.84936],[-87.16913,12.8674],[-87.17294,12.86997],[-87.17176,12.87796],[-87.1782,12.88956],[-87.1887,12.89341],[-87.20789,12.88786],[-87.21053,12.90383],[-87.19214,12.90359],[-87.18031,12.89716],[-87.17559,12.90373],[-87.17086,12.90425],[-87.16691,12.89497],[-87.1715,12.88544],[-87.16979,12.87719],[-87.16611,12.87771],[-87.15455,12.86844],[-87.15323,12.86406],[-87.16181,12.86293],[-87.16058,12.85838],[-87.15481,12.85942],[-87.15454,12.85117]]],[[[-87.1525,12.95555],[-87.15736,12.95709],[-87.15618,12.96199],[-87.15119,12.96096],[-87.1525,12.95555]]],[[[-87.15666,12.45014],[-87.17056,12.45569],[-87.16558,12.46342],[-87.15981,12.46316],[-87.15824,12.45891],[-87.1661,12.46123],[-87.16636,12.45736],[-87.15666,12.45014]]],[[[-87.17753,12.99553],[-87.16724,12.99615],[-87.16882,12.99316],[-87.17753,12.99553]]],[[[-87.18423,12.50683],[-87.17688,12.48983],[-87.17412,12.48751],[-87.16809,12.48931],[-87.16731,12.48288],[-87.17066,12.47763],[-87.18002,12.47952],[-87.18068,12.49033],[-87.19368,12.50889],[-87.18423,12.50683]]],[[[-87.19062,12.97511],[-87.19877,12.98799],[-87.19562,12.99044],[-87.18169,12.988],[-87.17998,12.97872],[-87.19062,12.97511]]],[[[-87.19215,12.92434],[-87.19189,12.92189],[-87.2024,12.91531],[-87.21212,12.91814],[-87.21316,12.92149],[-87.20293,12.92794],[-87.19215,12.92434]]],[[[-87.21409,12.92459],[-87.21185,12.92948],[-87.21094,12.92484],[-87.21409,12.92459]]],[[[-87.21376,12.53323],[-87.21206,12.53246],[-87.21099,12.5317],[-87.21376,12.53323]]],[[[-87.21651,12.53129],[-87.23777,12.54777],[-87.22728,12.5452],[-87.21836,12.53748],[-87.21651,12.53129]]],[[[-87.25544,12.89181],[-87.25689,12.89851],[-87.26938,12.89515],[-87.27043,12.91035],[-87.25808,12.90869],[-87.24312,12.91605],[-87.22669,12.90988],[-87.22656,12.90756],[-87.24048,12.90742],[-87.24731,12.90432],[-87.25479,12.89929],[-87.25544,12.89181]]],[[[-87.25538,12.96629],[-87.25369,12.97583],[-87.25895,12.98394],[-87.24738,12.98408],[-87.24658,12.96888],[-87.25158,12.9699],[-87.25538,12.96629]]],[[[-87.2605,12.94979],[-87.25917,12.94579],[-87.26521,12.9418],[-87.26824,12.94386],[-87.2605,12.94979]]],[[[-87.28819,12.58174],[-87.28136,12.57956],[-87.2811,12.57582],[-87.29843,12.58687],[-87.29817,12.58972],[-87.28819,12.58174]]],[[[-87.30251,12.93029],[-87.30645,12.93299],[-87.30621,12.95258],[-87.29045,12.95208],[-87.29044,12.94615],[-87.29281,12.94924],[-87.29648,12.94563],[-87.29595,12.94254],[-87.29175,12.94229],[-87.29778,12.93055],[-87.30251,12.93029]]],[[[-87.34621,12.61157],[-87.34175,12.6099],[-87.3338,12.61613],[-87.32811,12.61198],[-87.3226,12.61276],[-87.32023,12.61031],[-87.3239,12.60696],[-87.31182,12.60001],[-87.31733,12.59885],[-87.33676,12.60823],[-87.3428,12.60874],[-87.34516,12.60487],[-87.34843,12.60847],[-87.34621,12.61157]]],[[[-87.32748,12.94173],[-87.32788,12.94482],[-87.34195,12.9506],[-87.32777,12.95771],[-87.32856,12.9626],[-87.3191,12.96339],[-87.31911,12.96635],[-87.32489,12.96931],[-87.31662,12.97318],[-87.31253,12.95798],[-87.31673,12.95746],[-87.31844,12.96184],[-87.32133,12.96029],[-87.3187,12.95694],[-87.31987,12.94792],[-87.32855,12.95642],[-87.33092,12.95512],[-87.32224,12.94869],[-87.32184,12.9456],[-87.32748,12.94173]]],[[[-87.3198,12.89483],[-87.33058,12.89675],[-87.32979,12.89997],[-87.31928,12.89973],[-87.3198,12.89483]]],[[[-87.35738,12.90045],[-87.35871,12.91102],[-87.35135,12.91309],[-87.3503,12.90871],[-87.34294,12.90872],[-87.35738,12.90045]]],[[[-87.35418,12.86721],[-87.35681,12.86785],[-87.35655,12.87198],[-87.35366,12.8743],[-87.35418,12.86721]]],[[[-87.50545,12.8524],[-87.5065,12.85588],[-87.50388,12.85743],[-87.50256,12.85486],[-87.50545,12.8524]]],[[[-87.54372,12.8187],[-87.54622,12.82127],[-87.54295,12.8254],[-87.54598,12.83183],[-87.54455,12.83751],[-87.5414,12.83751],[-87.54231,12.8321],[-87.53783,12.82644],[-87.53861,12.82103],[-87.54372,12.8187]]],[[[-87.56607,12.83076],[-87.5687,12.83127],[-87.56897,12.83642],[-87.56306,12.83489],[-87.56607,12.83076]]],[[[-87.58683,13.06162],[-87.58265,13.07271],[-87.58146,13.06885],[-87.58683,13.06162]]]]}}]}