{"type":"FeatureCollection","features":[{"type":"Feature","properties":{"ISO_A3":"NLD","WB_A3":"NLD","WB_NAME":"Netherlands","WB_REGION":"ECS"},"geometry":{"type":"MultiPolygon","coordinates":[[[[7.09274,52.8382],[7.07154,52.81031],[7.05572,52.64342],[7.04173,52.63272],[6.97594,52.6463],[6.95331,52.63896],[6.9199,52.63981],[6.91402,52.64671],[6.87378,52.65312],[6.85062,52.64866],[6.83186,52.65154],[6.82198,52.64769],[6.79055,52.65269],[6.7773,52.65163],[6.76787,52.64686],[6.75883,52.64883],[6.74188,52.64535],[6.72641,52.63322],[6.71004,52.62786],[6.72731,52.61494],[6.71876,52.58871],[6.76666,52.56352],[6.75343,52.55913],[6.72642,52.56311],[6.7161,52.54844],[6.68088,52.55332],[6.70534,52.52107],[6.69751,52.4863],[6.75272,52.46411],[6.77459,52.45961],[6.85427,52.45967],[6.85253,52.44989],[6.86186,52.45139],[6.94165,52.43542],[6.96106,52.444],[6.97752,52.46569],[6.98761,52.46977],[6.99391,52.46549],[7.01079,52.42914],[7.02199,52.42298],[7.03472,52.40381],[7.05873,52.39941],[7.07212,52.37357],[7.07212,52.35189],[7.05625,52.33797],[7.05545,52.33217],[7.04803,52.32494],[7.0471,52.315],[7.03884,52.31243],[7.04133,52.31112],[7.0395,52.30763],[7.02646,52.29197],[7.02856,52.27365],[7.04239,52.25614],[7.06579,52.24123],[7.06128,52.23471],[7.01918,52.22506],[7.00349,52.2286],[6.98908,52.22685],[6.97975,52.21829],[6.97409,52.20541],[6.95133,52.18104],[6.90815,52.17602],[6.90592,52.17004],[6.88049,52.15609],[6.87348,52.13037],[6.85544,52.12045],[6.76056,52.11884],[6.75501,52.09486],[6.74453,52.09313],[6.75089,52.08502],[6.73553,52.07468],[6.69462,52.06983],[6.69679,52.06731],[6.68818,52.05232],[6.68772,52.03977],[6.71407,52.03998],[6.75297,52.02841],[6.76631,52.01879],[6.81142,51.99809],[6.80779,51.99497],[6.82661,51.99353],[6.83245,51.97433],[6.82856,51.96413],[6.81387,51.96357],[6.79891,51.95878],[6.79726,51.94256],[6.79399,51.9353],[6.78598,51.93119],[6.78894,51.92966],[6.77003,51.9162],[6.75434,51.91302],[6.7513,51.90727],[6.73714,51.90474],[6.73257,51.89868],[6.72181,51.89619],[6.70327,51.90633],[6.70379,51.90942],[6.69772,51.90986],[6.69568,51.91501],[6.68425,51.91765],[6.63773,51.90454],[6.63423,51.90105],[6.6254,51.902],[6.58584,51.8941],[6.55632,51.88172],[6.55242,51.88623],[6.54399,51.88457],[6.52374,51.87368],[6.50285,51.86791],[6.49883,51.86167],[6.47251,51.85383],[6.46346,51.85563],[6.45117,51.86524],[6.43242,51.85941],[6.42778,51.86565],[6.41236,51.87103],[6.39657,51.87022],[6.39321,51.87374],[6.38682,51.86456],[6.38796,51.8619],[6.40917,51.85236],[6.40244,51.84454],[6.40818,51.8359],[6.40298,51.83652],[6.40722,51.82892],[6.40181,51.82725],[6.38945,51.83328],[6.36294,51.83538],[6.36269,51.84251],[6.35835,51.84723],[6.34738,51.85062],[6.32071,51.85172],[6.30621,51.84909],[6.30052,51.86438],[6.27992,51.87406],[6.26897,51.8736],[6.26176,51.86813],[6.23361,51.87019],[6.21508,51.86762],[6.20355,51.87108],[6.18355,51.88253],[6.18201,51.88578],[6.19142,51.8874],[6.19131,51.89121],[6.16977,51.9013],[6.16563,51.8986],[6.15739,51.9051],[6.12566,51.89821],[6.11792,51.90167],[6.11016,51.89488],[6.13763,51.8853],[6.14454,51.86975],[6.16726,51.86092],[6.1636,51.85344],[6.16655,51.84073],[6.13739,51.84699],[6.10044,51.84919],[6.06352,51.86534],[6.05959,51.85763],[6.05135,51.85663],[6.05531,51.85255],[6.03561,51.84267],[6.02915,51.84513],[6.01734,51.84131],[6.01002,51.83508],[5.99436,51.83091],[5.96302,51.83691],[5.94545,51.82426],[5.95815,51.81694],[5.94593,51.81513],[5.94903,51.81088],[5.95642,51.81008],[5.97906,51.79766],[5.97262,51.78958],[5.97455,51.78506],[5.98789,51.78288],[5.98235,51.77369],[5.99075,51.76969],[5.99056,51.76633],[5.9792,51.76006],[5.95196,51.74894],[5.95514,51.73811],[5.99437,51.7382],[6.028,51.72609],[6.04494,51.71691],[6.04204,51.71334],[6.03337,51.71334],[6.0261,51.7087],[6.03177,51.69214],[6.02826,51.68963],[6.03217,51.68479],[6.02981,51.6781],[6.03664,51.67276],[6.08653,51.66254],[6.08788,51.65985],[6.09965,51.65812],[6.10198,51.66061],[6.11808,51.65597],[6.11725,51.65075],[6.10941,51.64687],[6.11159,51.64472],[6.09996,51.62412],[6.09734,51.62091],[6.09379,51.62212],[6.09131,51.60592],[6.12148,51.59275],[6.1305,51.58122],[6.15687,51.56675],[6.1769,51.53855],[6.20029,51.5271],[6.21202,51.51349],[6.21276,51.49132],[6.22355,51.47496],[6.22068,51.44667],[6.21395,51.44632],[6.21475,51.43401],[6.20525,51.39952],[6.22666,51.40027],[6.21442,51.38964],[6.22638,51.36034],[6.18988,51.33947],[6.19423,51.33489],[6.16855,51.33298],[6.16937,51.32937],[6.15959,51.3197],[6.15388,51.30753],[6.12899,51.28579],[6.12449,51.27474],[6.08568,51.24786],[6.07267,51.24286],[6.08597,51.22273],[6.06784,51.22075],[6.07314,51.1828],[6.08218,51.17163],[6.09963,51.16986],[6.12299,51.18147],[6.16517,51.19442],[6.18072,51.18636],[6.1388,51.17334],[6.17542,51.15848],[6.16074,51.1494],[6.12644,51.14484],[6.11636,51.13918],[6.09199,51.13505],[6.0835,51.12389],[6.06029,51.11593],[6.05683,51.10955],[6.03504,51.09589],[6.00953,51.09085],[5.99778,51.08426],[5.98845,51.07462],[5.98139,51.07306],[5.98172,51.06948],[5.96997,51.06071],[5.9692,51.04677],[5.95783,51.04098],[5.95763,51.03471],[5.93791,51.03628],[5.9263,51.04825],[5.91873,51.06395],[5.91321,51.06689],[5.89229,51.05324],[5.86631,51.0511],[5.86741,51.04613],[5.87812,51.03712],[5.8746,51.0292],[5.87903,51.01767],[5.88426,51.01339],[5.89571,51.01107],[5.89552,51.00451],[5.9055,51.00217],[5.90373,50.9872],[5.89259,50.98031],[5.89708,50.97487],[5.9048,50.97456],[5.93387,50.98535],[5.95518,50.98841],[5.96829,50.9794],[5.97956,50.98292],[6.0265,50.98327],[6.01522,50.96237],[6.0052,50.95678],[6.01649,50.95268],[6.0182,50.9347],[6.04558,50.92808],[6.05087,50.92995],[6.05616,50.92715],[6.05402,50.92224],[6.06815,50.92063],[6.07176,50.92314],[6.09219,50.91753],[6.08048,50.90759],[6.07522,50.89278],[6.0783,50.88534],[6.08718,50.87854],[6.08504,50.87639],[6.08808,50.8723],[6.07724,50.86058],[6.07417,50.84653],[6.05674,50.85108],[6.0571,50.85545],[6.05403,50.85695],[6.04231,50.85126],[6.01894,50.84626],[6.01631,50.83389],[6.02623,50.82037],[6.02211,50.81681],[6.02388,50.81342],[6.00362,50.80143],[5.98553,50.81062],[5.97564,50.80202],[5.97482,50.79807],[5.98028,50.79513],[5.98823,50.79406],[6.00691,50.78192],[6.02612,50.77552],[6.02785,50.77347],[6.01836,50.76336],[6.02102,50.75428],[5.98452,50.7534],[5.97415,50.75521],[5.97274,50.75969],[5.95777,50.76208],[5.93048,50.75671],[5.92147,50.75137],[5.91507,50.75038],[5.91538,50.75449],[5.91252,50.75567],[5.9048,50.75521],[5.90163,50.7514],[5.88975,50.75634],[5.88648,50.77015],[5.86336,50.76348],[5.84892,50.75342],[5.84502,50.76535],[5.83076,50.75851],[5.80749,50.75609],[5.79321,50.77019],[5.78451,50.76717],[5.77669,50.78301],[5.76581,50.78254],[5.74715,50.77053],[5.73918,50.75708],[5.73039,50.75742],[5.71957,50.76347],[5.71563,50.75988],[5.70254,50.75891],[5.69941,50.7554],[5.68847,50.75571],[5.68206,50.75754],[5.68217,50.75998],[5.69874,50.77969],[5.69354,50.80032],[5.69386,50.81151],[5.6806,50.81203],[5.67828,50.81647],[5.65399,50.82009],[5.65623,50.82434],[5.65003,50.82853],[5.65135,50.8318],[5.63921,50.84637],[5.64265,50.8501],[5.64033,50.85374],[5.64165,50.86415],[5.6495,50.86835],[5.64415,50.87136],[5.6617,50.87866],[5.67942,50.88053],[5.68251,50.88853],[5.69564,50.89759],[5.69651,50.90858],[5.69946,50.91076],[5.72275,50.90916],[5.72665,50.91309],[5.72688,50.9238],[5.74086,50.93522],[5.74658,50.9473],[5.75812,50.95076],[5.75607,50.95769],[5.75047,50.96076],[5.74475,50.96155],[5.72798,50.95499],[5.71994,50.95954],[5.72011,50.96239],[5.73322,50.97184],[5.73635,50.97786],[5.75087,50.98336],[5.7676,50.99971],[5.76596,51.00965],[5.77641,51.02325],[5.75802,51.03357],[5.77039,51.04852],[5.77466,51.06298],[5.79884,51.05971],[5.80105,51.06397],[5.7969,51.07279],[5.80417,51.07693],[5.79602,51.09148],[5.80823,51.09634],[5.82561,51.09271],[5.83335,51.0991],[5.83278,51.10461],[5.82369,51.10835],[5.81464,51.10747],[5.80768,51.113],[5.80985,51.11843],[5.82076,51.12681],[5.83874,51.13067],[5.84287,51.13283],[5.84671,51.14134],[5.85578,51.14463],[5.83639,51.15367],[5.83865,51.15708],[5.83284,51.15914],[5.83269,51.16243],[5.82437,51.16784],[5.81333,51.15897],[5.8063,51.16285],[5.77764,51.15131],[5.7794,51.16332],[5.77019,51.16423],[5.76956,51.169],[5.77575,51.17055],[5.77362,51.17276],[5.77672,51.17848],[5.76715,51.18369],[5.75596,51.18447],[5.74565,51.18952],[5.70934,51.18043],[5.68955,51.18541],[5.67654,51.18272],[5.6709,51.18579],[5.65806,51.18475],[5.64974,51.19362],[5.65408,51.19424],[5.65273,51.19766],[5.56043,51.22234],[5.55521,51.2444],[5.55624,51.26659],[5.52873,51.28173],[5.51578,51.29519],[5.4832,51.29866],[5.46485,51.28457],[5.44178,51.2821],[5.43837,51.27603],[5.43329,51.27633],[5.4174,51.26228],[5.34614,51.27576],[5.34271,51.26626],[5.3365,51.26308],[5.29627,51.26148],[5.26306,51.2668],[5.23791,51.26135],[5.22596,51.26826],[5.24219,51.30522],[5.20025,51.32265],[5.16263,51.31031],[5.13436,51.3155],[5.13169,51.34703],[5.07117,51.39349],[5.10461,51.43135],[5.07897,51.47151],[5.0457,51.47111],[5.03789,51.47935],[5.0402,51.48653],[5.0332,51.48731],[5.01088,51.47238],[5.00724,51.46447],[5.01036,51.45364],[5.00557,51.45106],[5.0047,51.44403],[4.9632,51.42229],[4.92866,51.39587],[4.92788,51.39975],[4.92442,51.39876],[4.92786,51.39546],[4.921,51.39369],[4.91774,51.39681],[4.92332,51.39851],[4.91017,51.40223],[4.90978,51.40742],[4.89993,51.41062],[4.89996,51.41468],[4.89446,51.41297],[4.88303,51.41637],[4.86613,51.40998],[4.83925,51.41463],[4.78936,51.40901],[4.77328,51.41346],[4.76857,51.41962],[4.76898,51.42999],[4.78655,51.43253],[4.78949,51.42958],[4.82471,51.42308],[4.83649,51.41726],[4.83936,51.4198],[4.8286,51.42379],[4.82335,51.44871],[4.83355,51.45743],[4.844,51.45907],[4.83604,51.46124],[4.84185,51.48073],[4.82113,51.48308],[4.81673,51.49396],[4.79792,51.49981],[4.78387,51.49949],[4.78087,51.50408],[4.77375,51.50512],[4.7527,51.49983],[4.74649,51.48946],[4.72945,51.48412],[4.71695,51.46889],[4.70327,51.46698],[4.69308,51.45172],[4.66659,51.4444],[4.66968,51.42637],[4.6518,51.42683],[4.64675,51.42344],[4.57475,51.43285],[4.53541,51.42304],[4.52989,51.44954],[4.54817,51.47331],[4.53822,51.48238],[4.47658,51.47828],[4.46453,51.47115],[4.44255,51.46869],[4.38271,51.45025],[4.37928,51.44674],[4.392,51.44638],[4.39665,51.442],[4.39542,51.43552],[4.3989,51.43526],[4.39465,51.43148],[4.39519,51.42691],[4.39136,51.42739],[4.38363,51.42106],[4.39162,51.40815],[4.43169,51.37499],[4.42511,51.37127],[4.43135,51.36385],[4.42212,51.36522],[4.38457,51.35439],[4.34112,51.35761],[4.33452,51.37764],[4.2699,51.37577],[4.25547,51.38103],[4.24372,51.39346],[4.23594,51.43121],[4.24254,51.44037],[4.23966,51.44745],[4.233,51.44776],[4.23708,51.45093],[4.22948,51.47331],[4.22655,51.4941],[4.24635,51.49761],[4.25634,51.49481],[4.24249,51.50153],[4.24614,51.50491],[4.24455,51.50685],[4.22571,51.50872],[4.22148,51.51184],[4.23999,51.54291],[4.2373,51.55754],[4.22207,51.57206],[4.20447,51.583],[4.20497,51.58633],[4.20064,51.58586],[4.19328,51.59567],[4.19225,51.60363],[4.19687,51.61486],[4.21364,51.62622],[4.23727,51.63225],[4.25907,51.63125],[4.27367,51.63801],[4.30971,51.64504],[4.34103,51.64546],[4.37349,51.65649],[4.38869,51.66861],[4.39317,51.68009],[4.40761,51.68735],[4.39368,51.69674],[4.37914,51.69333],[4.36352,51.69492],[4.36014,51.69214],[4.36506,51.69144],[4.3686,51.68551],[4.36442,51.67684],[4.3516,51.66866],[4.28155,51.65432],[4.23552,51.65853],[4.2246,51.66608],[4.22006,51.67356],[4.191,51.68155],[4.16899,51.6833],[4.16414,51.68694],[4.15622,51.67549],[4.16606,51.66552],[4.16152,51.66506],[4.15072,51.6781],[4.10608,51.67302],[4.09436,51.66583],[4.10209,51.66166],[4.10484,51.65599],[4.09861,51.654],[4.09701,51.64735],[4.0835,51.6421],[4.07006,51.6312],[4.05803,51.62759],[4.05071,51.63137],[4.00922,51.61752],[3.96799,51.61428],[3.94783,51.62482],[3.94061,51.6341],[3.9357,51.63568],[3.93064,51.62957],[3.91847,51.62851],[3.89077,51.63321],[3.89136,51.64269],[3.88633,51.64836],[3.88606,51.6558],[3.87652,51.6633],[3.87742,51.66714],[3.85969,51.67739],[3.84485,51.6775],[3.82457,51.68418],[3.82512,51.69186],[3.81881,51.69613],[3.79033,51.69466],[3.78879,51.68955],[3.77195,51.68082],[3.75243,51.67236],[3.72516,51.66818],[3.72181,51.66461],[3.71153,51.66608],[3.6966,51.67347],[3.68159,51.68919],[3.67927,51.69971],[3.68213,51.71123],[3.69678,51.72549],[3.71634,51.73601],[3.78541,51.74403],[3.81919,51.74046],[3.82379,51.74338],[3.83582,51.76043],[3.86168,51.7713],[3.86561,51.78254],[3.85534,51.80747],[3.85899,51.81462],[3.8782,51.8246],[3.90884,51.82642],[4.00201,51.85026],[4.01605,51.84912],[4.00309,51.84308],[4.01669,51.84079],[4.01209,51.83852],[4.01327,51.83595],[4.0374,51.82369],[4.03908,51.82521],[4.0338,51.8291],[4.04163,51.82788],[4.06763,51.84315],[4.06841,51.84981],[4.03277,51.88344],[4.03124,51.88909],[4.05507,51.9163],[4.04177,51.92346],[4.01889,51.91982],[4.0078,51.91492],[3.99268,51.9153],[3.98638,51.921],[4.01652,51.95251],[4.01401,51.96074],[4.00966,51.96103],[4.00977,51.9659],[4.01866,51.98299],[4.03037,51.98686],[4.05886,51.98071],[4.0815,51.97295],[4.08328,51.96934],[4.08214,51.965],[4.0788,51.96426],[4.0748,51.97019],[4.06647,51.96911],[4.04419,51.97418],[4.04207,51.97241],[4.05404,51.96961],[4.04929,51.96171],[4.03069,51.96456],[4.02854,51.96112],[4.03632,51.95683],[4.07247,51.95971],[4.07725,51.95121],[4.04168,51.9464],[4.07735,51.9471],[4.07079,51.94127],[4.04203,51.93474],[4.03256,51.94674],[4.02904,51.94677],[4.0386,51.92977],[4.0848,51.93794],[4.14393,51.93174],[4.16534,51.92602],[4.17304,51.91915],[4.2205,51.89651],[4.2385,51.87325],[4.26433,51.86452],[4.30738,51.86431],[4.30623,51.86752],[4.26356,51.86645],[4.23999,51.87503],[4.2358,51.88071],[4.25353,51.87784],[4.2351,51.88521],[4.22681,51.8926],[4.22471,51.89928],[4.18576,51.91429],[4.16587,51.93037],[4.1216,51.94234],[4.12138,51.95823],[4.11023,51.96038],[4.10934,51.95783],[4.11552,51.95623],[4.11885,51.9398],[4.14153,51.93522],[4.08611,51.94049],[4.08388,51.94243],[4.08626,51.94664],[4.09241,51.94389],[4.09563,51.94847],[4.08746,51.95367],[4.09426,51.96873],[4.09886,51.97035],[4.12192,51.96309],[4.12607,51.95511],[4.12443,51.94769],[4.12817,51.94791],[4.12804,51.94279],[4.13219,51.94275],[4.13381,51.95785],[4.13753,51.95705],[4.1378,51.95166],[4.15802,51.94736],[4.15987,51.93889],[4.17563,51.93899],[4.1975,51.92724],[4.19749,51.91929],[4.20225,51.91899],[4.20359,51.91475],[4.21954,51.91471],[4.22559,51.90107],[4.22919,51.90137],[4.21973,51.92163],[4.13559,51.96232],[4.12378,51.97127],[4.18193,51.94213],[4.21355,51.93066],[4.23711,51.91337],[4.28921,51.89488],[4.29871,51.89413],[4.30073,51.89219],[4.29156,51.89011],[4.28334,51.89251],[4.28467,51.88814],[4.27881,51.88589],[4.27617,51.89515],[4.27014,51.89419],[4.27504,51.88465],[4.26359,51.88247],[4.26637,51.87795],[4.27427,51.87928],[4.27156,51.87111],[4.27444,51.87056],[4.27761,51.88027],[4.28348,51.88289],[4.30762,51.88711],[4.3062,51.88098],[4.29204,51.87819],[4.29198,51.87588],[4.30775,51.87737],[4.31069,51.8717],[4.31426,51.8732],[4.31075,51.88067],[4.31178,51.88758],[4.31553,51.88831],[4.32209,51.88618],[4.32972,51.87098],[4.32526,51.86731],[4.30862,51.86442],[4.33382,51.86286],[4.34286,51.85366],[4.36016,51.84411],[4.37786,51.84108],[4.41345,51.84143],[4.42856,51.83522],[4.41846,51.82958],[4.39619,51.83177],[4.36887,51.81761],[4.35447,51.81983],[4.33784,51.81694],[4.30578,51.8091],[4.29609,51.8028],[4.2693,51.80566],[4.24062,51.78495],[4.22936,51.78878],[4.21334,51.79984],[4.18286,51.80412],[4.15954,51.82153],[4.14117,51.8226],[4.12868,51.81952],[4.12277,51.82265],[4.12388,51.82572],[4.10157,51.82682],[4.09152,51.83038],[4.07464,51.84219],[4.05797,51.83709],[4.04635,51.82942],[4.0448,51.82183],[4.04102,51.81956],[4.05509,51.81995],[4.06362,51.81321],[4.11405,51.79608],[4.16608,51.77854],[4.19117,51.77406],[4.21532,51.75818],[4.24447,51.74455],[4.26297,51.72718],[4.27356,51.72194],[4.2994,51.71679],[4.32951,51.70248],[4.38477,51.7021],[4.39651,51.70824],[4.40591,51.69211],[4.41092,51.6941],[4.4137,51.69074],[4.42585,51.69687],[4.44069,51.69656],[4.46064,51.68875],[4.50372,51.68219],[4.529,51.68622],[4.53844,51.68494],[4.57084,51.69194],[4.57755,51.67725],[4.58128,51.67797],[4.57497,51.69189],[4.58823,51.69376],[4.59511,51.67829],[4.59822,51.67902],[4.59155,51.69448],[4.6078,51.69913],[4.61284,51.69009],[4.61599,51.69184],[4.61131,51.69934],[4.61328,51.70239],[4.64377,51.71299],[4.74852,51.72262],[4.81156,51.70988],[4.81188,51.70769],[4.84652,51.71091],[4.8494,51.70724],[4.85701,51.71173],[4.85674,51.71532],[4.89069,51.71799],[4.89121,51.72067],[4.87266,51.72096],[4.84395,51.71527],[4.84676,51.7233],[4.85553,51.7311],[4.85028,51.744],[4.85377,51.74856],[4.85304,51.756],[4.86283,51.76302],[4.86258,51.772],[4.87038,51.77572],[4.86923,51.77804],[4.8614,51.7733],[4.86037,51.76332],[4.84774,51.7575],[4.83233,51.7544],[4.8102,51.75846],[4.79077,51.75812],[4.74586,51.73945],[4.74182,51.74156],[4.77026,51.76164],[4.76628,51.76554],[4.73426,51.73834],[4.71355,51.73646],[4.73966,51.74992],[4.74149,51.75438],[4.74843,51.75786],[4.75597,51.77646],[4.77597,51.79128],[4.7981,51.79696],[4.84643,51.79621],[4.86145,51.79982],[4.89735,51.81845],[4.91621,51.8239],[4.94188,51.82453],[4.9429,51.829],[4.92816,51.83258],[4.88293,51.81921],[4.80857,51.82115],[4.78811,51.81608],[4.76786,51.81652],[4.75735,51.8227],[4.67464,51.82275],[4.6717,51.82715],[4.67503,51.83889],[4.66079,51.85101],[4.65816,51.85809],[4.63564,51.87071],[4.62258,51.88729],[4.67501,51.88848],[4.7051,51.89548],[4.72542,51.89621],[4.76673,51.9143],[4.81264,51.92245],[4.83903,51.93933],[4.8812,51.93636],[4.91831,51.9414],[4.92875,51.94794],[4.9361,51.95969],[4.94444,51.96276],[4.96962,51.95772],[4.99824,51.97646],[5.01223,51.97379],[5.01782,51.96883],[5.03482,51.96853],[5.04361,51.9794],[5.06455,51.98794],[5.06706,51.99283],[5.07884,51.99621],[5.0781,51.99827],[5.04949,51.98545],[5.03367,51.97057],[5.02407,51.96949],[5.01275,51.97606],[5.0018,51.97794],[4.98909,51.97598],[4.97186,51.96166],[4.93563,51.96329],[4.92613,51.9496],[4.91341,51.94302],[4.87881,51.93871],[4.86028,51.94195],[4.83206,51.94137],[4.81235,51.92553],[4.75849,51.91558],[4.72345,51.8988],[4.70439,51.89856],[4.67346,51.89132],[4.61588,51.8911],[4.5923,51.8977],[4.59144,51.90258],[4.5634,51.90642],[4.57942,51.91427],[4.58251,51.91961],[4.60138,51.92577],[4.61544,51.92481],[4.62411,51.93545],[4.63657,51.93605],[4.64039,51.94983],[4.64841,51.95356],[4.63213,51.96788],[4.67201,51.98039],[4.63385,51.97136],[4.63028,51.96842],[4.6453,51.95361],[4.6386,51.95191],[4.63371,51.93711],[4.62205,51.93586],[4.61468,51.92687],[4.59473,51.92522],[4.58003,51.91978],[4.56893,51.91044],[4.54265,51.90554],[4.54462,51.90244],[4.57814,51.90135],[4.59082,51.89294],[4.61826,51.88812],[4.63413,51.86894],[4.65094,51.85871],[4.65885,51.84886],[4.66085,51.83576],[4.6682,51.82745],[4.6676,51.82234],[4.65007,51.81233],[4.65436,51.81099],[4.66747,51.81888],[4.70439,51.82194],[4.74238,51.82061],[4.76777,51.81408],[4.78881,51.81287],[4.8196,51.81765],[4.8782,51.8148],[4.84911,51.8013],[4.80036,51.8018],[4.77157,51.79493],[4.75999,51.78947],[4.74754,51.77761],[4.73925,51.76082],[4.7181,51.74755],[4.69727,51.74247],[4.69413,51.73585],[4.68327,51.73229],[4.68212,51.73487],[4.67417,51.73382],[4.66248,51.7281],[4.65796,51.72868],[4.66308,51.73723],[4.66084,51.73858],[4.66204,51.74425],[4.67398,51.74895],[4.66469,51.74908],[4.64643,51.73525],[4.64726,51.72947],[4.64059,51.72764],[4.64059,51.72495],[4.63445,51.72901],[4.63638,51.72254],[4.62652,51.72091],[4.6339,51.7426],[4.62849,51.7642],[4.62965,51.78494],[4.62576,51.79755],[4.63034,51.79851],[4.63333,51.7954],[4.63651,51.78613],[4.64191,51.78695],[4.64368,51.79025],[4.64046,51.79261],[4.6479,51.79263],[4.64678,51.79585],[4.63834,51.7949],[4.63123,51.80004],[4.64245,51.80168],[4.65268,51.81025],[4.64775,51.81108],[4.63424,51.80333],[4.62096,51.80185],[4.57089,51.81226],[4.56264,51.81891],[4.55963,51.82741],[4.54967,51.83254],[4.52769,51.8309],[4.51496,51.83363],[4.50852,51.83884],[4.44919,51.83343],[4.40776,51.8447],[4.3734,51.84408],[4.35619,51.84953],[4.3382,51.86396],[4.3243,51.89077],[4.3405,51.89238],[4.34472,51.88823],[4.34041,51.88239],[4.34648,51.88488],[4.35046,51.87945],[4.34717,51.8941],[4.36259,51.89712],[4.36648,51.89567],[4.36446,51.89031],[4.35604,51.88605],[4.36398,51.88814],[4.37841,51.88605],[4.368,51.89104],[4.37086,51.89664],[4.37624,51.89633],[4.38317,51.89278],[4.38943,51.8945],[4.39929,51.8917],[4.40684,51.88161],[4.39392,51.87895],[4.42492,51.87717],[4.42787,51.8788],[4.41101,51.88246],[4.40986,51.88555],[4.41859,51.88647],[4.40539,51.88804],[4.39981,51.89502],[4.41149,51.8977],[4.41502,51.89151],[4.4194,51.89248],[4.414,51.8987],[4.42025,51.89965],[4.42097,51.89631],[4.42978,51.89991],[4.44023,51.88967],[4.43497,51.88076],[4.44444,51.87898],[4.45572,51.88204],[4.45747,51.8851],[4.44766,51.88893],[4.44776,51.89214],[4.46104,51.893],[4.43921,51.8966],[4.44012,51.89928],[4.46659,51.89792],[4.47682,51.89421],[4.49515,51.89744],[4.49693,51.901],[4.47817,51.89727],[4.47436,51.89932],[4.49723,51.90382],[4.48758,51.9065],[4.49473,51.90974],[4.48981,51.91109],[4.49656,51.91485],[4.49291,51.91733],[4.48013,51.9066],[4.46629,51.90139],[4.43859,51.90327],[4.4329,51.90667],[4.41811,51.90403],[4.41641,51.90917],[4.41941,51.91234],[4.41402,51.91253],[4.41608,51.90559],[4.41204,51.90218],[4.40328,51.90023],[4.39773,51.90145],[4.39763,51.90504],[4.38643,51.90441],[4.39424,51.90252],[4.39452,51.89829],[4.38296,51.89945],[4.38386,51.90187],[4.3784,51.90629],[4.37801,51.90002],[4.35589,51.90143],[4.33315,51.89592],[4.30173,51.89833],[4.24547,51.91585],[4.2219,51.93314],[4.18578,51.94658],[4.13501,51.97232],[4.09794,51.98369],[4.13418,52.00512],[4.16136,52.02856],[4.25443,52.09603],[4.26465,52.09669],[4.25917,52.10162],[4.30597,52.12981],[4.38637,52.19808],[4.47444,52.30105],[4.55559,52.42198],[4.55951,52.44397],[4.55336,52.45994],[4.5582,52.46039],[4.55976,52.45703],[4.56943,52.45768],[4.57209,52.46148],[4.57842,52.46255],[4.58886,52.46126],[4.59151,52.46494],[4.58781,52.46704],[4.60204,52.46608],[4.60487,52.46322],[4.6514,52.46207],[4.66512,52.45893],[4.70743,52.43565],[4.74385,52.42884],[4.74581,52.4201],[4.73962,52.42262],[4.74052,52.41351],[4.74753,52.41426],[4.74842,52.41186],[4.75586,52.41457],[4.75176,52.41693],[4.74905,52.42799],[4.76534,52.42647],[4.77285,52.40996],[4.77248,52.40074],[4.79389,52.40169],[4.77939,52.40576],[4.77972,52.40883],[4.79377,52.40913],[4.79367,52.41169],[4.77984,52.41177],[4.77451,52.42518],[4.79661,52.42228],[4.80099,52.41671],[4.81067,52.41758],[4.81904,52.39683],[4.80983,52.39697],[4.81055,52.39427],[4.82311,52.39407],[4.82495,52.39802],[4.83549,52.39952],[4.82418,52.39969],[4.83561,52.40246],[4.82305,52.40266],[4.82703,52.40785],[4.82238,52.41689],[4.81647,52.41596],[4.81452,52.41957],[4.8412,52.41609],[4.83295,52.40904],[4.83628,52.40848],[4.84254,52.41299],[4.84463,52.40783],[4.84783,52.40932],[4.84454,52.41578],[4.85518,52.41459],[4.85478,52.40998],[4.8623,52.40948],[4.85818,52.40634],[4.86415,52.40368],[4.87488,52.40479],[4.86739,52.40107],[4.85661,52.4038],[4.85525,52.40126],[4.86062,52.39938],[4.8609,52.39617],[4.87173,52.39972],[4.88716,52.39307],[4.88621,52.39052],[4.89288,52.38964],[4.90075,52.37799],[4.95,52.37436],[4.95197,52.37138],[4.9393,52.3689],[4.95396,52.36917],[4.95937,52.35883],[4.96657,52.35615],[4.96907,52.36047],[4.98569,52.35788],[4.98594,52.35416],[4.99976,52.34509],[5.01435,52.34369],[5.02753,52.34833],[5.0349,52.34474],[5.03427,52.34014],[5.0279,52.33807],[5.02982,52.33432],[5.03688,52.3333],[5.03727,52.33727],[5.04366,52.33511],[5.09361,52.33872],[5.11076,52.32983],[5.138,52.32507],[5.14491,52.33113],[5.13485,52.33802],[5.13229,52.3643],[5.12278,52.37549],[5.12534,52.38082],[5.15775,52.39279],[5.16228,52.39989],[5.20748,52.41571],[5.22477,52.41769],[5.23286,52.42446],[5.38649,52.49014],[5.39638,52.49058],[5.43486,52.51068],[5.44001,52.51647],[5.4356,52.52412],[5.4271,52.52621],[5.4264,52.53622],[5.44386,52.55931],[5.46727,52.56818],[5.45567,52.5938],[5.40214,52.64615],[5.35841,52.67509],[5.30021,52.69084],[5.28443,52.69153],[5.24635,52.68508],[5.23672,52.65759],[5.23163,52.65282],[5.20678,52.64457],[5.19878,52.63639],[5.1776,52.63396],[5.15937,52.62302],[5.13017,52.61996],[5.12623,52.62118],[5.12899,52.626],[5.12109,52.63242],[5.10672,52.6314],[5.08997,52.64233],[5.076,52.64078],[5.06964,52.63551],[5.06704,52.63838],[5.05852,52.63647],[5.05327,52.64118],[5.04612,52.64143],[5.01904,52.62972],[5.01986,52.60639],[5.02481,52.59964],[5.02081,52.5951],[5.02857,52.58548],[5.03266,52.57388],[5.03113,52.56801],[5.04337,52.55986],[5.05485,52.54454],[5.05517,52.53787],[5.06582,52.52769],[5.06644,52.52281],[5.08147,52.51204],[5.08543,52.50249],[5.0757,52.49203],[5.06322,52.49007],[5.06012,52.48653],[5.06109,52.47601],[5.06806,52.4723],[5.0685,52.46845],[5.03382,52.467],[5.0337,52.46444],[5.04051,52.4574],[5.05081,52.46248],[5.05511,52.46023],[5.04899,52.45495],[5.0489,52.43932],[5.08736,52.43685],[5.075,52.4281],[5.07336,52.41993],[5.06781,52.41336],[5.05696,52.41445],[5.04696,52.40655],[5.03073,52.39991],[5.02535,52.3877],[5.0141,52.38418],[5.01234,52.37332],[5.00174,52.37504],[4.9996,52.37853],[4.98052,52.37334],[4.97367,52.37935],[4.96228,52.38211],[4.9615,52.37866],[4.97746,52.37032],[4.97429,52.36499],[4.96941,52.36828],[4.95811,52.36834],[4.95579,52.37734],[4.96168,52.38263],[4.94374,52.38421],[4.90465,52.381],[4.90081,52.38414],[4.89746,52.39892],[4.89178,52.39837],[4.88737,52.40306],[4.88938,52.40584],[4.88226,52.40583],[4.86173,52.41589],[4.87114,52.42535],[4.86774,52.42912],[4.86439,52.4293],[4.85935,52.424],[4.8613,52.42064],[4.85553,52.41804],[4.85051,52.41812],[4.83129,52.42982],[4.83909,52.42073],[4.81589,52.42212],[4.81561,52.42571],[4.81005,52.42297],[4.72122,52.43455],[4.66317,52.4628],[4.63431,52.46512],[4.63363,52.46936],[4.62663,52.46741],[4.62526,52.46999],[4.61057,52.47006],[4.60941,52.47277],[4.60149,52.47403],[4.56559,52.46746],[4.5875,52.4992],[4.60197,52.53924],[4.62298,52.63017],[4.64007,52.7268],[4.65283,52.76301],[4.67851,52.80467],[4.70799,52.87702],[4.71193,52.89106],[4.71637,52.94454],[4.73236,52.96238],[4.77999,52.96488],[4.78335,52.96406],[4.77613,52.95878],[4.78634,52.95427],[4.7923,52.9547],[4.79458,52.95863],[4.79222,52.96303],[4.80075,52.96418],[4.80374,52.95939],[4.80238,52.95224],[4.79238,52.94137],[4.79215,52.93574],[4.80512,52.9162],[4.80974,52.91523],[4.8154,52.90848],[4.84933,52.89924],[4.86506,52.89054],[4.88319,52.88846],[4.93639,52.90349],[4.95211,52.91374],[4.95855,52.92491],[4.96853,52.93],[4.99716,52.93465],[5.02133,52.93462],[5.02884,52.94116],[5.04194,52.93555],[5.04903,52.93748],[5.04959,52.94042],[5.05512,52.9407],[5.20969,53.02215],[5.21164,53.01834],[5.20829,53.01637],[5.20107,53.0165],[5.18538,53.00872],[5.04488,52.93499],[5.04933,52.9303],[5.03961,52.93098],[5.03851,52.92126],[5.04942,52.92338],[5.11435,52.84613],[5.10432,52.7743],[5.11276,52.77415],[5.11804,52.7697],[5.12285,52.75565],[5.1535,52.73908],[5.1778,52.73966],[5.19334,52.75488],[5.26249,52.75243],[5.28265,52.7423],[5.28719,52.73632],[5.28496,52.72586],[5.2882,52.71529],[5.30026,52.70775],[5.29955,52.70226],[5.28043,52.69571],[5.28673,52.6911],[5.30069,52.69186],[5.35723,52.67678],[5.40221,52.64743],[5.45651,52.59378],[5.46869,52.57097],[5.46807,52.5674],[5.4427,52.55742],[5.43131,52.5415],[5.42723,52.52852],[5.44839,52.535],[5.45618,52.55022],[5.49866,52.5542],[5.52871,52.57227],[5.53123,52.57469],[5.52644,52.5768],[5.52955,52.57968],[5.53485,52.57675],[5.56234,52.59358],[5.64006,52.60879],[5.65061,52.59882],[5.65803,52.59622],[5.76176,52.57923],[5.81176,52.57818],[5.85741,52.54816],[5.83229,52.5768],[5.80904,52.58285],[5.86418,52.58192],[5.91262,52.5637],[5.91778,52.55908],[5.91714,52.56538],[5.91214,52.56922],[5.89748,52.57022],[5.8689,52.58335],[5.84403,52.58266],[5.83586,52.58658],[5.83317,52.59049],[5.83569,52.59696],[5.83242,52.5998],[5.84094,52.60978],[5.88429,52.61911],[5.9036,52.61813],[5.91629,52.61269],[5.93278,52.61369],[5.95663,52.62079],[5.9575,52.62435],[5.9904,52.62506],[6.01184,52.63717],[6.02712,52.63563],[6.03977,52.62915],[6.05372,52.62835],[6.06621,52.63686],[6.07675,52.63366],[6.07496,52.6226],[6.0774,52.61753],[6.09274,52.60843],[6.09338,52.60511],[6.08471,52.59938],[6.0842,52.5913],[6.10257,52.57765],[6.10352,52.5664],[6.09283,52.55307],[6.07737,52.54525],[6.07005,52.52905],[6.07125,52.52357],[6.07498,52.52443],[6.0714,52.52768],[6.07519,52.537],[6.08576,52.54879],[6.09456,52.54926],[6.09679,52.55368],[6.09464,52.55439],[6.10436,52.56642],[6.10132,52.58377],[6.08487,52.59388],[6.08486,52.59721],[6.09505,52.60541],[6.09319,52.61126],[6.07856,52.6191],[6.07782,52.63651],[6.0699,52.63849],[6.0536,52.63014],[6.0384,52.63066],[6.03133,52.63561],[6.02153,52.63728],[6.02035,52.64225],[6.00142,52.65408],[5.98537,52.65633],[5.96791,52.66613],[5.93649,52.66909],[5.93545,52.67565],[5.96612,52.69257],[5.96299,52.69931],[5.95268,52.70598],[5.95371,52.69006],[5.93161,52.67461],[5.93096,52.66833],[5.97519,52.66159],[5.98411,52.65649],[5.97098,52.64298],[5.96436,52.63866],[5.83458,52.61237],[5.66074,52.61307],[5.6517,52.61686],[5.61725,52.64979],[5.60266,52.65613],[5.60251,52.66062],[5.59197,52.6606],[5.59787,52.76708],[5.66252,52.82946],[5.71237,52.835],[5.7122,52.83972],[5.70087,52.83971],[5.69937,52.84362],[5.68554,52.84586],[5.65787,52.84341],[5.65254,52.84609],[5.65682,52.85035],[5.65253,52.85288],[5.64771,52.8503],[5.64718,52.85902],[5.64153,52.86004],[5.61852,52.85056],[5.58542,52.84923],[5.58061,52.83947],[5.57448,52.83602],[5.54637,52.83291],[5.48051,52.85058],[5.45302,52.85474],[5.42704,52.8481],[5.41529,52.85],[5.3748,52.87085],[5.36195,52.87324],[5.35518,52.88516],[5.36,52.89199],[5.38783,52.90501],[5.40188,52.90601],[5.40847,52.91408],[5.40883,52.92432],[5.40137,52.93908],[5.39647,52.94251],[5.40968,52.94737],[5.40734,52.95485],[5.41285,52.96242],[5.39863,52.99295],[5.3977,53.00296],[5.40394,53.00702],[5.40829,53.02145],[5.39817,53.02294],[5.39725,53.02552],[5.4024,53.03029],[5.40042,53.03289],[5.39465,53.03224],[5.38533,53.04434],[5.37716,53.04271],[5.37435,53.04571],[5.38062,53.04764],[5.37878,53.0528],[5.38336,53.05489],[5.40119,53.0544],[5.39257,53.0638],[5.39179,53.07278],[5.38082,53.08992],[5.37164,53.08933],[5.33879,53.0723],[5.34082,53.06662],[5.33538,53.06827],[5.33164,53.07782],[5.33453,53.08007],[5.33852,53.07512],[5.34667,53.07624],[5.38096,53.09632],[5.38286,53.10371],[5.37947,53.10788],[5.40038,53.11617],[5.40534,53.1212],[5.41641,53.16274],[5.41491,53.17021],[5.41058,53.17286],[5.41183,53.17616],[5.42205,53.18351],[5.43592,53.20617],[5.44774,53.21874],[5.48247,53.2398],[5.53059,53.2589],[5.55691,53.27743],[5.56139,53.28451],[5.59871,53.30408],[5.71048,53.33273],[5.86603,53.37957],[5.88695,53.38684],[5.88212,53.39251],[5.89489,53.38797],[5.93512,53.38712],[6.01718,53.40272],[6.06876,53.4072],[6.08568,53.40442],[6.09317,53.4078],[6.13935,53.40341],[6.17509,53.41413],[6.20341,53.40749],[6.25051,53.41525],[6.31099,53.39484],[6.33657,53.404],[6.34269,53.40913],[6.38138,53.41806],[6.56862,53.43291],[6.60299,53.43989],[6.65066,53.4548],[6.69666,53.46159],[6.74796,53.46564],[6.76348,53.46452],[6.79619,53.45475],[6.81381,53.46277],[6.83361,53.45762],[6.83246,53.45068],[6.81558,53.45332],[6.81318,53.45007],[6.82873,53.44805],[6.8186,53.44479],[6.84621,53.44183],[6.8482,53.44507],[6.83869,53.44644],[6.84151,53.45417],[6.8577,53.45241],[6.88218,53.43927],[6.88321,53.4357],[6.87492,53.42121],[6.87411,53.40736],[6.88802,53.39505],[6.88898,53.37995],[6.89526,53.36981],[6.89707,53.35498],[6.9015,53.34763],[6.90794,53.3471],[6.94412,53.32941],[6.93969,53.32805],[6.93455,53.33257],[6.92688,53.32757],[7.00006,53.30935],[7.01142,53.31338],[7.01005,53.30618],[7.02218,53.3028],[7.03497,53.30365],[7.04715,53.29924],[7.07706,53.29985],[7.07949,53.30297],[7.09525,53.3045],[7.08423,53.2974],[7.08476,53.28076],[7.07677,53.26833],[7.08969,53.2565],[7.2068,53.23526],[7.20909,53.24255],[7.21183,53.22468],[7.21653,53.21648],[7.21762,53.19783],[7.20804,53.18848],[7.22739,53.18045],[7.20364,53.17656],[7.19098,53.16198],[7.18947,53.14795],[7.17883,53.13832],[7.18294,53.12184],[7.20278,53.11341],[7.19921,53.08139],[7.21301,53.0111],[7.21739,53.00696],[7.20982,53.00096],[7.18146,52.94152],[7.08725,52.84989],[7.09274,52.8382]],[[4.95206,51.45221],[4.93309,51.44951],[4.94352,51.4475],[4.95206,51.45221]],[[4.92305,51.44598],[4.91796,51.43521],[4.92812,51.43092],[4.93969,51.43074],[4.93945,51.43717],[4.93467,51.43853],[4.93428,51.44212],[4.92867,51.44158],[4.92305,51.44598]]],[[[6.56814,53.53156],[6.56514,53.5388],[6.5726,53.54369],[6.61247,53.53847],[6.61221,53.53552],[6.60175,53.53787],[6.59892,53.53474],[6.58464,53.53625],[6.56814,53.53156]]],[[[6.59807,53.51935],[6.58193,53.52351],[6.59859,53.52538],[6.59807,53.51935]]],[[[6.47811,53.51944],[6.46985,53.52093],[6.46319,53.53155],[6.45371,53.53904],[6.45528,53.54881],[6.46782,53.55484],[6.47818,53.55442],[6.49983,53.54488],[6.47673,53.54978],[6.47558,53.54745],[6.49887,53.53923],[6.48782,53.53694],[6.49012,53.53443],[6.47012,53.5308],[6.48228,53.52888],[6.48595,53.52486],[6.4775,53.52238],[6.47811,53.51944]]],[[[6.40084,53.51035],[6.39796,53.5117],[6.40161,53.51883],[6.41995,53.52127],[6.42123,53.51784],[6.41057,53.51633],[6.40084,53.51035]]],[[[6.13079,53.46996],[6.12991,53.47994],[6.13653,53.49009],[6.15728,53.50096],[6.28074,53.50614],[6.33797,53.51205],[6.35987,53.5124],[6.36632,53.50896],[6.33872,53.50002],[6.32112,53.49962],[6.27338,53.49022],[6.26934,53.48509],[6.25184,53.48114],[6.25335,53.47758],[6.15884,53.47127],[6.15549,53.47004],[6.16001,53.46656],[6.15832,53.46293],[6.13759,53.45193],[6.13656,53.44806],[6.12527,53.45958],[6.13079,53.46996]]],[[[6.11978,53.46457],[6.11744,53.47374],[6.12461,53.48519],[6.12556,53.47752],[6.11978,53.46457]]],[[[6.06428,53.46604],[6.05272,53.47165],[6.06257,53.47215],[6.06428,53.46604]]],[[[6.02574,53.46444],[6.02226,53.465],[6.02399,53.47094],[6.03855,53.47783],[6.04794,53.47871],[6.02574,53.46444]]],[[[6,52.64558],[6.00181,52.64832],[6.0086,52.64759],[6.01146,52.6428],[6,52.64558]]],[[[5.69794,53.45948],[5.76062,53.45932],[5.93049,53.46937],[5.95282,53.46933],[5.97493,53.46302],[5.97408,53.46009],[5.95541,53.4571],[5.90818,53.4571],[5.89253,53.4512],[5.80598,53.43751],[5.7295,53.44287],[5.7219,53.44138],[5.71616,53.43549],[5.70202,53.42914],[5.66347,53.42335],[5.63418,53.42835],[5.62085,53.43493],[5.61373,53.44123],[5.6138,53.45276],[5.63047,53.46547],[5.6683,53.47295],[5.67467,53.47192],[5.6737,53.47014],[5.63244,53.46273],[5.65484,53.46377],[5.69794,53.45948]]],[[[5.80794,52.58378],[5.82621,52.58694],[5.83534,52.58505],[5.80794,52.58378]]],[[[5.82693,52.57191],[5.83387,52.57004],[5.82974,52.56994],[5.82693,52.57191]]],[[[5.82413,52.60044],[5.81948,52.6067],[5.82579,52.60655],[5.82413,52.60044]]],[[[5.75525,52.58938],[5.75255,52.59008],[5.75305,52.59468],[5.7564,52.59435],[5.75525,52.58938]]],[[[5.74977,52.58925],[5.74623,52.5933],[5.73652,52.59276],[5.73486,52.59985],[5.72855,52.59999],[5.72798,52.60424],[5.75016,52.60218],[5.75176,52.59753],[5.74706,52.59303],[5.74977,52.58925]]],[[[5.70622,53.46147],[5.6907,53.4672],[5.68969,53.46491],[5.67447,53.46872],[5.67634,53.47111],[5.68697,53.46933],[5.70622,53.46147]]],[[[5.58099,53.42144],[5.58883,53.4305],[5.58828,53.43564],[5.59887,53.43336],[5.59016,53.42419],[5.58099,53.42144]]],[[[5.35613,53.42007],[5.51568,53.44885],[5.55616,53.44376],[5.5631,53.43785],[5.55469,53.43713],[5.55817,53.4309],[5.54777,53.43279],[5.50853,53.42952],[5.50169,53.42509],[5.48732,53.42625],[5.4896,53.42121],[5.47915,53.41861],[5.46699,53.42347],[5.46497,53.42185],[5.46934,53.41586],[5.44581,53.4207],[5.4593,53.40915],[5.47511,53.40818],[5.47023,53.40521],[5.40413,53.40425],[5.37774,53.40004],[5.34463,53.38263],[5.32507,53.37763],[5.31534,53.37987],[5.30352,53.37523],[5.29541,53.3759],[5.29598,53.37064],[5.2601,53.37273],[5.24303,53.36575],[5.22242,53.36498],[5.21769,53.35623],[5.20955,53.35625],[5.18802,53.34563],[5.17266,53.34681],[5.15034,53.35413],[5.15552,53.36352],[5.17899,53.37847],[5.19312,53.39486],[5.35613,53.42007]]],[[[5.39103,53.05524],[5.37618,53.0558],[5.36545,53.07357],[5.36832,53.0753],[5.38587,53.06957],[5.39499,53.0576],[5.39103,53.05524]]],[[[5.24748,53.2469],[5.24229,53.24969],[5.24313,53.25352],[5.24925,53.25609],[5.26992,53.25109],[5.24971,53.24852],[5.24823,53.25291],[5.24393,53.25247],[5.24748,53.2469]]],[[[5.12184,53.28046],[5.11126,53.28257],[5.11253,53.29101],[5.13228,53.30129],[5.15983,53.29618],[5.12184,53.28046]]],[[[5.13948,53.35112],[5.13605,53.35541],[5.14013,53.35547],[5.14208,53.35172],[5.13948,53.35112]]],[[[5.09587,52.44836],[5.09309,52.45162],[5.1009,52.45711],[5.10147,52.46454],[5.10684,52.46726],[5.11288,52.46203],[5.13796,52.46004],[5.09587,52.44836]]],[[[4.95192,53.26697],[4.99254,53.28564],[5.06073,53.30767],[5.09993,53.30455],[5.10168,53.30093],[5.09479,53.29555],[5.06349,53.29391],[5.04333,53.28363],[4.97409,53.26571],[4.97199,53.2619],[4.97822,53.25334],[4.96492,53.25215],[4.9577,53.2483],[4.95643,53.24396],[4.94747,53.24424],[4.94471,53.23992],[4.93564,53.23751],[4.93518,53.2274],[4.90854,53.21412],[4.88211,53.21479],[4.8721,53.21047],[4.87106,53.20613],[4.85691,53.20456],[4.85082,53.21183],[4.8513,53.22309],[4.90294,53.24175],[4.95192,53.26697]]],[[[4.99789,52.34986],[4.98691,52.35709],[4.98832,52.3604],[4.99173,52.36188],[5.00442,52.35552],[4.99789,52.34986]]],[[[4.75036,53.09804],[4.84452,53.18451],[4.86236,53.18269],[4.88197,53.16304],[4.87787,53.16195],[4.88036,53.15551],[4.88846,53.15538],[4.90907,53.13481],[4.90047,53.12341],[4.90043,53.0837],[4.89718,53.0776],[4.87343,53.06465],[4.87366,53.05542],[4.8634,53.04918],[4.86106,53.04409],[4.85379,53.04331],[4.8496,53.03479],[4.8388,53.03073],[4.81918,53.02911],[4.79345,53.00823],[4.79689,53.00408],[4.79384,53.00208],[4.74786,53.01006],[4.75272,53.00423],[4.77083,53.00037],[4.7749,52.99608],[4.75142,52.99297],[4.72385,52.98325],[4.71841,52.98526],[4.71699,52.99758],[4.71106,53.00868],[4.70849,53.01896],[4.71014,53.0338],[4.721,53.06106],[4.75036,53.09804]]],[[[4.84858,51.72763],[4.85021,51.73708],[4.85395,51.73267],[4.84858,51.72763]]],[[[4.7696,51.72372],[4.75567,51.72623],[4.75703,51.72929],[4.76821,51.74078],[4.78028,51.74342],[4.78549,51.74987],[4.80842,51.75529],[4.82785,51.75238],[4.85179,51.75551],[4.85301,51.75011],[4.84909,51.74504],[4.84651,51.7274],[4.83693,51.71499],[4.82445,51.7125],[4.79364,51.71579],[4.7946,51.71936],[4.77571,51.72145],[4.77498,51.72389],[4.78835,51.72805],[4.78391,51.73068],[4.7696,51.72372]]],[[[4.78509,51.75014],[4.79315,51.75552],[4.79385,51.75231],[4.78509,51.75014]]],[[[4.76252,51.74317],[4.76265,51.7465],[4.77346,51.74852],[4.77252,51.74558],[4.76252,51.74317]]],[[[4.74296,51.72821],[4.73719,51.72843],[4.74693,51.73508],[4.75989,51.73911],[4.75724,51.73467],[4.74296,51.72821]]],[[[4.66221,52.95915],[4.65212,52.9616],[4.64881,52.96933],[4.65404,52.97848],[4.65964,52.98058],[4.66795,52.97585],[4.67602,52.97612],[4.70719,52.98055],[4.70833,52.97733],[4.69917,52.97093],[4.68756,52.96712],[4.67176,52.96453],[4.66186,52.96659],[4.66153,52.96352],[4.67554,52.9637],[4.66221,52.95915]]],[[[4.68666,51.72378],[4.69505,51.72725],[4.69575,51.72404],[4.68666,51.72378]]],[[[4.66665,51.8303],[4.66174,51.83728],[4.66232,51.84753],[4.67167,51.8374],[4.66665,51.8303]]],[[[4.65592,51.7351],[4.65224,51.73029],[4.64798,51.7324],[4.65258,51.73977],[4.65676,51.74099],[4.65592,51.7351]]],[[[4.29811,51.80124],[4.30866,51.80856],[4.3344,51.8125],[4.33781,51.81579],[4.35566,51.81827],[4.37048,51.81605],[4.39821,51.83033],[4.42173,51.82851],[4.43183,51.83403],[4.46726,51.82949],[4.50172,51.83329],[4.52386,51.82749],[4.55205,51.82956],[4.56089,51.81611],[4.57159,51.80867],[4.61309,51.80144],[4.61978,51.79789],[4.61918,51.79252],[4.62656,51.7796],[4.62379,51.75991],[4.62927,51.75137],[4.6298,51.74342],[4.62647,51.73117],[4.6202,51.72305],[4.60636,51.71671],[4.55354,51.70435],[4.56259,51.70974],[4.55128,51.71078],[4.53114,51.70054],[4.47014,51.71465],[4.43799,51.71569],[4.40683,51.72183],[4.34807,51.74392],[4.26681,51.76097],[4.24105,51.77047],[4.23142,51.78082],[4.23985,51.77945],[4.24927,51.78396],[4.26507,51.80224],[4.27339,51.80407],[4.29811,51.80124]]],[[[4.32897,51.72607],[4.30184,51.72996],[4.25928,51.75028],[4.26289,51.75383],[4.27773,51.75277],[4.3573,51.7351],[4.3576,51.73151],[4.32897,51.72607]]],[[[4.17431,51.61209],[4.17798,51.61658],[4.17348,51.61753],[4.154,51.61259],[4.12643,51.61299],[4.11808,51.6246],[4.10114,51.63091],[4.10102,51.6427],[4.10571,51.64112],[4.12043,51.65315],[4.15856,51.64599],[4.16499,51.63991],[4.18102,51.63834],[4.19077,51.6335],[4.19395,51.63693],[4.18943,51.64517],[4.16412,51.65414],[4.16136,51.65878],[4.15178,51.6549],[4.13906,51.65682],[4.13953,51.65912],[4.1787,51.66001],[4.16672,51.65898],[4.16826,51.65487],[4.18265,51.6537],[4.1817,51.64884],[4.19412,51.64333],[4.19624,51.63793],[4.21539,51.63773],[4.23277,51.63332],[4.20369,51.62376],[4.19485,51.61641],[4.18621,51.60061],[4.19969,51.58126],[4.2155,51.57264],[4.23297,51.55708],[4.23528,51.55116],[4.23264,51.53735],[4.22962,51.53174],[4.21924,51.52801],[4.21665,51.52316],[4.22,51.51775],[4.21069,51.50759],[4.20389,51.50676],[4.178,51.51382],[4.17416,51.50822],[4.17588,51.50333],[4.18165,51.50404],[4.21924,51.48956],[4.22387,51.46286],[4.22154,51.45264],[4.22523,51.44544],[4.22326,51.45544],[4.22756,51.45514],[4.2306,51.44639],[4.24013,51.39683],[4.24758,51.3847],[4.26449,51.37558],[4.24441,51.37486],[4.24506,51.38242],[4.2329,51.3946],[4.20682,51.39999],[4.19962,51.4066],[4.1733,51.40277],[4.15426,51.39527],[4.07877,51.40765],[4.05221,51.41994],[4.04783,51.42561],[4.05182,51.42981],[4.03548,51.43226],[4.03494,51.43598],[4.01535,51.43999],[4.01749,51.44382],[4.013,51.45437],[4.01013,51.45414],[4.01129,51.44182],[3.98735,51.45356],[3.97667,51.46236],[3.93454,51.44848],[3.92434,51.45125],[3.92566,51.44561],[3.92194,51.44435],[3.92583,51.43356],[3.90109,51.39544],[3.87286,51.39745],[3.86006,51.3919],[3.81325,51.38557],[3.77631,51.40492],[3.77721,51.40991],[3.76533,51.41012],[3.75557,51.41441],[3.73461,51.41108],[3.72647,51.41446],[3.72011,51.4268],[3.7156,51.42683],[3.70855,51.43482],[3.68638,51.44674],[3.67779,51.44807],[3.68736,51.45711],[3.70164,51.45229],[3.69946,51.44359],[3.70641,51.44252],[3.7118,51.4462],[3.7187,51.44193],[3.72283,51.4437],[3.71351,51.45068],[3.72197,51.45421],[3.70575,51.45316],[3.69414,51.45823],[3.71169,51.46555],[3.71741,51.46372],[3.71979,51.47165],[3.7128,51.47093],[3.70532,51.47802],[3.70161,51.47689],[3.70704,51.47019],[3.70392,51.46726],[3.6866,51.46122],[3.6603,51.45855],[3.65735,51.45254],[3.6421,51.44776],[3.64081,51.44341],[3.61001,51.44011],[3.60287,51.44284],[3.60155,51.45182],[3.59745,51.45158],[3.59815,51.44261],[3.5855,51.44703],[3.58911,51.44125],[3.57515,51.43926],[3.53353,51.45753],[3.49455,51.49409],[3.45204,51.51271],[3.4335,51.52867],[3.43795,51.54224],[3.50071,51.56966],[3.55318,51.58941],[3.57959,51.59582],[3.59358,51.59626],[3.6301,51.58839],[3.68088,51.60053],[3.69814,51.59902],[3.71735,51.59122],[3.76438,51.59886],[3.7767,51.59712],[3.77965,51.60094],[3.79988,51.60516],[3.82288,51.60231],[3.83528,51.6053],[3.86275,51.59998],[3.87633,51.58924],[3.89019,51.57209],[3.89321,51.57211],[3.89735,51.55974],[3.87196,51.55442],[3.86607,51.54755],[3.86778,51.53984],[3.88674,51.54265],[3.89985,51.54088],[3.9131,51.54552],[3.92786,51.544],[3.93123,51.53808],[3.92937,51.53707],[3.94023,51.5257],[3.96577,51.52896],[4.01461,51.51765],[4.00346,51.49622],[4.00513,51.46955],[4.00882,51.46927],[4.00685,51.50106],[4.01833,51.51839],[4.02169,51.51247],[4.04363,51.50215],[4.05391,51.50283],[4.0579,51.48882],[4.05607,51.4809],[4.05942,51.47497],[4.07955,51.45839],[4.08488,51.45834],[4.09362,51.44621],[4.14039,51.43064],[4.15272,51.43168],[4.1747,51.44133],[4.18948,51.44195],[4.19183,51.43795],[4.20535,51.43755],[4.21794,51.43294],[4.22319,51.4375],[4.22037,51.45495],[4.22303,51.4621],[4.2154,51.49165],[4.17324,51.50438],[4.17197,51.51093],[4.17679,51.51486],[4.16324,51.52281],[4.14348,51.52121],[4.13579,51.5259],[4.11561,51.52378],[4.07338,51.52764],[4.07366,51.53071],[4.06572,51.53373],[4.06193,51.53876],[4.06183,51.54312],[4.0493,51.55233],[4.02842,51.55597],[4.03006,51.56493],[4.01392,51.56968],[4.00664,51.575],[3.98899,51.57681],[3.98436,51.58147],[3.98509,51.58684],[3.99056,51.59243],[4.02564,51.59687],[4.06425,51.61165],[4.10126,51.61028],[4.10726,51.60292],[4.11097,51.60353],[4.11947,51.59768],[4.13139,51.59718],[4.15737,51.59936],[4.15996,51.60421],[4.174,51.60586],[4.17447,51.60829],[4.16995,51.60859],[4.17431,51.61209]]],[[[4.2364,51.43326],[4.23614,51.43864],[4.23858,51.43811],[4.2364,51.43326]]],[[[4.23242,51.49878],[4.22693,51.5005],[4.22559,51.50411],[4.2306,51.50738],[4.23633,51.50656],[4.23242,51.49878]]],[[[4.16706,51.29363],[4.06185,51.24459],[4.04055,51.24132],[4.03788,51.24456],[4.01106,51.24404],[3.9862,51.23415],[3.97898,51.22539],[3.96461,51.2241],[3.95802,51.21576],[3.93597,51.21191],[3.92942,51.22025],[3.91601,51.21464],[3.91861,51.2078],[3.89883,51.20172],[3.89458,51.2035],[3.88642,51.20029],[3.87763,51.20802],[3.89015,51.21387],[3.89326,51.21884],[3.88865,51.22296],[3.85956,51.21083],[3.83638,51.2138],[3.82095,51.20922],[3.80552,51.2133],[3.81415,51.24013],[3.83907,51.26302],[3.84169,51.27248],[3.84741,51.27244],[3.83447,51.30252],[3.8428,51.29964],[3.83352,51.30663],[3.84056,51.31119],[3.81461,51.33521],[3.82118,51.33644],[3.82353,51.34232],[3.84305,51.33565],[3.86719,51.33573],[3.87639,51.34604],[3.89239,51.34822],[3.90648,51.35696],[3.95252,51.36659],[3.95864,51.36538],[3.96408,51.38072],[3.96927,51.38426],[3.96601,51.3977],[3.97588,51.40612],[4.01756,51.40089],[4.01828,51.39666],[4.02302,51.39764],[4.02927,51.39323],[4.0343,51.38037],[4.04996,51.36639],[4.08715,51.36362],[4.11189,51.35429],[4.13679,51.33509],[4.12587,51.35672],[4.1205,51.35472],[4.11247,51.3612],[4.1322,51.3646],[4.13951,51.36197],[4.15309,51.34851],[4.16284,51.34585],[4.17274,51.3487],[4.16175,51.35112],[4.1839,51.3532],[4.16141,51.35381],[4.15262,51.36235],[4.15235,51.36825],[4.17312,51.37189],[4.17467,51.36034],[4.18928,51.35545],[4.19015,51.35749],[4.17677,51.36237],[4.17773,51.36774],[4.18734,51.37546],[4.211,51.37202],[4.21642,51.36017],[4.2348,51.34814],[4.16706,51.29363]]],[[[4.14841,51.79844],[4.14311,51.80144],[4.14892,51.80215],[4.14841,51.79844]]],[[[3.80191,51.21047],[3.78952,51.2164],[3.78946,51.24579],[3.79547,51.25606],[3.77831,51.26234],[3.76946,51.25989],[3.76252,51.26178],[3.75574,51.26933],[3.69358,51.27612],[3.68999,51.28057],[3.67791,51.28054],[3.65809,51.2902],[3.64009,51.28833],[3.62135,51.29274],[3.59083,51.30443],[3.58111,51.29834],[3.58792,51.29297],[3.58339,51.29227],[3.58388,51.2889],[3.57567,51.28865],[3.56272,51.29585],[3.5549,51.2896],[3.54341,51.2912],[3.53798,51.28366],[3.53365,51.2835],[3.52911,51.28874],[3.51542,51.28716],[3.5276,51.24604],[3.44848,51.24156],[3.42748,51.24467],[3.42457,51.25425],[3.41676,51.26004],[3.40644,51.25757],[3.38843,51.2728],[3.37815,51.27516],[3.37557,51.27916],[3.38185,51.28231],[3.37962,51.28815],[3.36669,51.2958],[3.36734,51.29961],[3.37685,51.30245],[3.35838,51.31498],[3.38534,51.33414],[3.3835,51.34123],[3.37407,51.34852],[3.37499,51.35889],[3.36668,51.36863],[3.38356,51.37918],[3.42133,51.38969],[3.44961,51.39099],[3.48696,51.3984],[3.50385,51.40666],[3.51861,51.40775],[3.54808,51.40505],[3.54723,51.40186],[3.57175,51.39751],[3.588,51.38667],[3.60518,51.38491],[3.61985,51.37958],[3.68852,51.37087],[3.69455,51.3634],[3.71001,51.35716],[3.71604,51.34995],[3.75978,51.34736],[3.75639,51.33995],[3.76819,51.33603],[3.77228,51.33601],[3.77169,51.34972],[3.7901,51.34921],[3.79983,51.34402],[3.81005,51.34344],[3.80731,51.3391],[3.8289,51.31102],[3.83901,51.2825],[3.8368,51.27329],[3.83944,51.27224],[3.83229,51.26102],[3.80922,51.23837],[3.80191,51.21047]]],[[[3.72115,51.64885],[3.71647,51.6526],[3.71754,51.65515],[3.72865,51.65406],[3.72735,51.65022],[3.72115,51.64885]]],[[[3.66925,51.62123],[3.68203,51.62282],[3.69897,51.63989],[3.70285,51.63743],[3.71117,51.64289],[3.71608,51.64107],[3.71314,51.6375],[3.71475,51.63467],[3.71018,51.63213],[3.72656,51.62665],[3.72242,51.62501],[3.70933,51.63099],[3.70498,51.62909],[3.70739,51.62498],[3.69693,51.62747],[3.68629,51.61844],[3.67915,51.62232],[3.66925,51.62123]]]]}}]}