{"type":"FeatureCollection","features":[{"type":"Feature","properties":{"ISO_A3":"NPL","WB_A3":"NPL","WB_NAME":"Nepal","WB_REGION":"SAS"},"geometry":{"type":"MultiPolygon","coordinates":[[[[83.9026,27.43827],[83.89048,27.43481],[83.8723,27.43593],[83.85429,27.44631],[83.84895,27.44619],[83.83367,27.42947],[83.83317,27.42572],[83.83948,27.41809],[83.85689,27.40513],[83.85935,27.39725],[83.87856,27.38604],[83.88444,27.37728],[83.88169,27.36617],[83.86373,27.34585],[83.83069,27.3698],[83.61434,27.46945],[83.39249,27.47949],[83.38824,27.47085],[83.39537,27.46971],[83.40158,27.45664],[83.39599,27.44688],[83.38371,27.4427],[83.38609,27.43963],[83.3842,27.43683],[83.39286,27.42472],[83.40496,27.41892],[83.40911,27.41233],[83.40597,27.41161],[83.40525,27.40528],[83.39602,27.39569],[83.38562,27.39116],[83.38786,27.37679],[83.38488,27.37245],[83.37292,27.36791],[83.37337,27.35682],[83.37036,27.35799],[83.35802,27.35083],[83.35928,27.34331],[83.35115,27.3425],[83.35186,27.33962],[83.33829,27.33297],[83.33179,27.3326],[83.32447,27.33669],[83.30473,27.33137],[83.29166,27.33497],[83.27244,27.35268],[83.26538,27.36543],[83.2722,27.38343],[83.24001,27.40647],[83.21889,27.41626],[83.18792,27.45437],[83.16572,27.45753],[83.03457,27.44879],[82.95409,27.4679],[82.94462,27.47698],[82.93959,27.49106],[82.92931,27.50121],[82.86587,27.49858],[82.83252,27.50199],[82.80139,27.49643],[82.78499,27.50005],[82.73529,27.50267],[82.73687,27.51797],[82.74886,27.52196],[82.73784,27.54633],[82.73871,27.55193],[82.74843,27.55585],[82.74269,27.56121],[82.74811,27.56528],[82.74762,27.57339],[82.75778,27.58678],[82.75528,27.59389],[82.74688,27.59358],[82.74364,27.59643],[82.74774,27.59962],[82.74649,27.60235],[82.73909,27.60443],[82.73492,27.61132],[82.73799,27.61422],[82.73717,27.62249],[82.73283,27.62846],[82.73836,27.63014],[82.73628,27.63296],[82.73095,27.6326],[82.73843,27.63772],[82.73608,27.64597],[82.73254,27.64527],[82.7319,27.65225],[82.72444,27.65904],[82.72122,27.65504],[82.7183,27.65659],[82.7224,27.66099],[82.71237,27.66297],[82.71813,27.6685],[82.7129,27.66938],[82.71304,27.67514],[82.71934,27.67851],[82.71945,27.68663],[82.71892,27.68957],[82.70838,27.69516],[82.70434,27.70404],[82.70824,27.7186],[82.70205,27.71623],[82.69916,27.72237],[82.68901,27.71515],[82.671,27.71444],[82.66583,27.71602],[82.66434,27.72269],[82.65524,27.71347],[82.6381,27.70915],[82.62732,27.71146],[82.61897,27.70221],[82.60521,27.70605],[82.59375,27.69682],[82.585,27.69876],[82.54138,27.68574],[82.5166,27.69061],[82.49242,27.68438],[82.49007,27.68139],[82.48218,27.68291],[82.47316,27.67645],[82.44871,27.67933],[82.40187,27.70353],[82.38272,27.72066],[82.36797,27.7425],[82.33651,27.75463],[82.30343,27.77272],[82.25267,27.81028],[82.2304,27.82094],[82.20899,27.84292],[82.15407,27.86661],[82.15009,27.85819],[82.12111,27.86586],[82.11445,27.87705],[82.0909,27.89456],[82.08986,27.89972],[82.06993,27.92365],[82.06213,27.92164],[81.96814,27.92915],[81.93833,27.89385],[81.93808,27.88794],[81.92528,27.87564],[81.92584,27.85961],[81.9,27.85364],[81.88493,27.85697],[81.87758,27.8661],[81.83376,27.89741],[81.82029,27.90339],[81.80477,27.90406],[81.69845,27.98819],[81.6438,27.99367],[81.62409,28.00173],[81.61802,28.0095],[81.58453,28.02559],[81.54742,28.04936],[81.47825,28.08277],[81.47985,28.11033],[81.48403,28.11857],[81.44994,28.1408],[81.44659,28.16105],[81.41832,28.17351],[81.3746,28.17699],[81.3671,28.1624],[81.37825,28.1559],[81.36961,28.1426],[81.33448,28.14023],[81.31795,28.13366],[81.31538,28.13698],[81.31835,28.14525],[81.32805,28.1481],[81.32038,28.1603],[81.3113,28.15558],[81.31006,28.1601],[81.30191,28.16407],[81.30259,28.1681],[81.32116,28.16874],[81.32464,28.17527],[81.31833,28.18245],[81.32087,28.19749],[81.29944,28.22003],[81.28601,28.22857],[81.23255,28.28907],[81.23435,28.32473],[81.21059,28.36078],[81.07978,28.38503],[81.04745,28.41001],[81.03567,28.41379],[81.03355,28.39749],[81.01664,28.41586],[81.03372,28.42802],[81.02945,28.43871],[81.01905,28.43171],[81.01289,28.43817],[81.01768,28.45181],[80.99982,28.45372],[80.98909,28.4415],[80.97765,28.44231],[80.97881,28.43404],[80.96496,28.43775],[80.96786,28.44293],[80.9646,28.44469],[80.98017,28.45512],[80.96702,28.45708],[80.96403,28.44968],[80.95173,28.44756],[80.95146,28.45573],[80.9321,28.45883],[80.94538,28.46643],[80.94263,28.46879],[80.9324,28.46351],[80.9307,28.45803],[80.91743,28.4602],[80.91955,28.46418],[80.91421,28.46835],[80.91565,28.45797],[80.90559,28.46619],[80.90297,28.47767],[80.90169,28.48646],[80.90708,28.49034],[80.90865,28.49792],[80.90011,28.50106],[80.89613,28.50696],[80.87552,28.5107],[80.86161,28.50439],[80.86602,28.48957],[80.85566,28.49751],[80.84473,28.49562],[80.84389,28.49977],[80.82975,28.51204],[80.81535,28.52075],[80.78861,28.52477],[80.78446,28.52939],[80.78929,28.54352],[80.7694,28.54996],[80.76794,28.56615],[80.73835,28.57484],[80.73852,28.56638],[80.72441,28.57524],[80.71458,28.56838],[80.69044,28.5877],[80.69583,28.60345],[80.6775,28.60443],[80.67954,28.6206],[80.67083,28.62806],[80.66759,28.6421],[80.65128,28.63414],[80.6415,28.64336],[80.63309,28.63735],[80.61227,28.63935],[80.60622,28.65246],[80.58984,28.64815],[80.59756,28.65602],[80.5802,28.6614],[80.59038,28.67995],[80.56855,28.68804],[80.53972,28.69066],[80.50629,28.67115],[80.50353,28.66493],[80.52167,28.57673],[80.53073,28.57242],[80.52274,28.55273],[80.51842,28.55163],[80.50579,28.56923],[80.48409,28.58184],[80.47982,28.58776],[80.47193,28.58354],[80.47185,28.59159],[80.46001,28.61414],[80.46305,28.61685],[80.45355,28.62713],[80.44184,28.6289],[80.43781,28.63511],[80.43185,28.63722],[80.41763,28.63933],[80.3765,28.62867],[80.36997,28.63426],[80.36053,28.63473],[80.35678,28.6409],[80.36059,28.64567],[80.32577,28.66645],[80.321,28.68104],[80.3228,28.68706],[80.31615,28.7006],[80.29169,28.71175],[80.27912,28.70898],[80.25649,28.72923],[80.26225,28.73325],[80.26533,28.74102],[80.25865,28.75224],[80.25049,28.7579],[80.24429,28.75528],[80.23477,28.75883],[80.21609,28.75555],[80.17092,28.78249],[80.1181,28.82895],[80.07522,28.82445],[80.0648,28.8376],[80.05847,28.91658],[80.09657,28.97593],[80.10023,28.98665],[80.1181,28.98192],[80.12672,29.00606],[80.13542,29.00736],[80.13627,29.00963],[80.12478,29.01296],[80.13131,29.03048],[80.12641,29.03186],[80.13645,29.05904],[80.12846,29.06122],[80.14428,29.10284],[80.16358,29.11548],[80.16641,29.12525],[80.17884,29.12902],[80.1826,29.13684],[80.2034,29.12949],[80.21026,29.12175],[80.22459,29.12087],[80.23379,29.11545],[80.24236,29.12613],[80.25013,29.12625],[80.25096,29.13453],[80.25537,29.13955],[80.27225,29.13852],[80.27335,29.14299],[80.25818,29.16473],[80.25874,29.1845],[80.25197,29.19546],[80.24093,29.20239],[80.24362,29.21273],[80.24991,29.22165],[80.25373,29.22177],[80.26123,29.20597],[80.27471,29.20811],[80.28392,29.19673],[80.28977,29.19465],[80.2983,29.20596],[80.29374,29.21244],[80.29622,29.22193],[80.2906,29.23166],[80.30059,29.24224],[80.29916,29.26109],[80.30545,29.28799],[80.31069,29.2909],[80.3186,29.30432],[80.31574,29.3084],[80.31691,29.31476],[80.30794,29.32296],[80.29568,29.3244],[80.29108,29.33583],[80.28017,29.34626],[80.27947,29.35966],[80.27144,29.36356],[80.2711,29.37337],[80.27877,29.37854],[80.27299,29.38601],[80.27503,29.39256],[80.24198,29.41239],[80.2461,29.41656],[80.24405,29.42359],[80.24748,29.43248],[80.24292,29.4437],[80.25552,29.44814],[80.25756,29.45181],[80.26666,29.44853],[80.27363,29.44961],[80.27391,29.45283],[80.269,29.45405],[80.27859,29.45876],[80.27974,29.45099],[80.28849,29.45026],[80.29394,29.45357],[80.29973,29.45106],[80.30066,29.45669],[80.28668,29.47684],[80.29326,29.47931],[80.29832,29.49044],[80.31309,29.48421],[80.31386,29.49924],[80.32934,29.50603],[80.33278,29.51333],[80.34103,29.5098],[80.34983,29.52002],[80.34919,29.52521],[80.3578,29.53083],[80.34871,29.54106],[80.3414,29.53982],[80.34567,29.54777],[80.34228,29.55283],[80.36402,29.55681],[80.3629,29.5641],[80.37892,29.56109],[80.37882,29.57114],[80.38686,29.57123],[80.39131,29.58168],[80.40373,29.59033],[80.40877,29.59906],[80.40598,29.61361],[80.4098,29.62383],[80.42105,29.63023],[80.42015,29.63929],[80.41418,29.6436],[80.41647,29.6503],[80.41391,29.6541],[80.40974,29.6537],[80.40475,29.66074],[80.3996,29.6585],[80.3973,29.66316],[80.39043,29.66428],[80.38919,29.67197],[80.38384,29.67588],[80.385,29.68555],[80.38036,29.68862],[80.37974,29.70127],[80.37187,29.71598],[80.37659,29.71948],[80.36586,29.72495],[80.36514,29.72885],[80.36962,29.73458],[80.36415,29.73981],[80.36946,29.75106],[80.38633,29.75171],[80.38636,29.75952],[80.3979,29.76003],[80.3963,29.76557],[80.40505,29.77864],[80.40855,29.79481],[80.41322,29.79175],[80.41608,29.7959],[80.42915,29.79813],[80.43366,29.80537],[80.44293,29.79915],[80.46373,29.80231],[80.47966,29.79567],[80.49372,29.79568],[80.49592,29.80521],[80.50014,29.80833],[80.50037,29.8176],[80.50714,29.82308],[80.52394,29.82888],[80.5238,29.83234],[80.53489,29.83839],[80.53745,29.84585],[80.55357,29.85185],[80.55165,29.85721],[80.55399,29.86166],[80.56088,29.86496],[80.55687,29.86977],[80.56641,29.88045],[80.57191,29.89387],[80.57122,29.91652],[80.5818,29.93753],[80.59539,29.95319],[80.60353,29.95885],[80.6322,29.96504],[80.64827,29.9558],[80.67465,29.95713],[80.69024,29.97451],[80.71193,29.98966],[80.71896,29.99996],[80.7373,29.99884],[80.74715,30.00629],[80.7577,30.02372],[80.75568,30.04015],[80.76117,30.04964],[80.77895,30.05635],[80.78962,30.0731],[80.81555,30.09659],[80.82183,30.09994],[80.83002,30.09727],[80.84052,30.09944],[80.84519,30.10246],[80.84604,30.10662],[80.84174,30.11085],[80.84413,30.11556],[80.87731,30.1285],[80.87877,30.13292],[80.87191,30.1499],[80.87159,30.16064],[80.86274,30.16921],[80.86624,30.17433],[80.87941,30.18045],[80.88544,30.18834],[80.88384,30.1946],[80.89692,30.21241],[80.90806,30.22139],[80.91908,30.21601],[80.92282,30.20814],[80.91616,30.18977],[80.92051,30.18115],[80.92798,30.1752],[80.9407,30.17729],[80.95245,30.18449],[80.97036,30.18614],[80.96977,30.18897],[80.97425,30.1915],[80.99681,30.18608],[81.00934,30.19372],[81.03479,30.19733],[81.04191,30.19341],[81.04446,30.18075],[81.05094,30.18004],[81.06121,30.16789],[81.06264,30.16175],[81.08275,30.14876],[81.08269,30.13686],[81.0783,30.12492],[81.08423,30.11771],[81.08592,30.10822],[81.08116,30.10076],[81.10112,30.0997],[81.10911,30.08646],[81.09182,30.05421],[81.10647,30.04494],[81.10908,30.03761],[81.11693,30.03474],[81.12453,30.02067],[81.1303,30.0169],[81.16466,30.01098],[81.1707,30.01471],[81.18588,30.0134],[81.19435,30.02137],[81.20346,30.02164],[81.2141,30.01385],[81.21768,30.00733],[81.24562,30.0113],[81.25381,30.02276],[81.23848,30.03217],[81.27183,30.04523],[81.2746,30.05871],[81.28733,30.06937],[81.28909,30.07445],[81.28533,30.0788],[81.28878,30.08239],[81.28909,30.09751],[81.28504,30.10502],[81.28986,30.11216],[81.27227,30.13311],[81.26313,30.13669],[81.25673,30.14473],[81.25836,30.15152],[81.28644,30.15463],[81.30397,30.15929],[81.30318,30.1637],[81.30647,30.16415],[81.30909,30.15748],[81.31696,30.15135],[81.3339,30.15289],[81.33407,30.16066],[81.34843,30.17706],[81.37048,30.18648],[81.37543,30.19739],[81.39611,30.20613],[81.39736,30.2181],[81.38942,30.23354],[81.39624,30.24215],[81.39391,30.25087],[81.40755,30.26036],[81.41549,30.28032],[81.41533,30.28375],[81.4024,30.28136],[81.40103,30.29334],[81.4078,30.29433],[81.41512,30.30307],[81.42286,30.30431],[81.41359,30.31614],[81.40639,30.31515],[81.39569,30.32403],[81.40597,30.33732],[81.40256,30.34691],[81.40614,30.35304],[81.39918,30.35802],[81.39939,30.36499],[81.39521,30.3675],[81.39835,30.37107],[81.42005,30.37049],[81.42911,30.38305],[81.4216,30.38491],[81.42,30.38915],[81.41151,30.39362],[81.4017,30.3955],[81.40481,30.407],[81.40289,30.40926],[81.40851,30.42117],[81.4278,30.42166],[81.4324,30.41341],[81.43531,30.41218],[81.43844,30.4187],[81.4534,30.41029],[81.45519,30.40648],[81.46408,30.40597],[81.47607,30.38868],[81.48906,30.38076],[81.50697,30.38179],[81.53462,30.37193],[81.5484,30.37159],[81.5498,30.36857],[81.55536,30.37176],[81.55043,30.37785],[81.55116,30.40528],[81.55866,30.40815],[81.5564,30.42309],[81.56215,30.42856],[81.5728,30.42708],[81.59316,30.41578],[81.6049,30.41301],[81.62097,30.42226],[81.62482,30.43078],[81.62182,30.4359],[81.62267,30.44659],[81.63458,30.44505],[81.64179,30.43997],[81.65252,30.43886],[81.655,30.43424],[81.67179,30.42761],[81.69509,30.42351],[81.71135,30.41262],[81.72621,30.41174],[81.72925,30.40866],[81.72903,30.40187],[81.74894,30.38893],[81.7614,30.3888],[81.77274,30.38445],[81.79063,30.38866],[81.80911,30.38665],[81.82673,30.37509],[81.84917,30.3738],[81.85028,30.37769],[81.86729,30.37703],[81.87651,30.37051],[81.88198,30.36106],[81.92396,30.34858],[81.94097,30.34826],[81.94979,30.35861],[81.95743,30.36119],[81.96331,30.35238],[81.9616,30.33925],[81.96927,30.33784],[81.97526,30.32994],[81.9816,30.32962],[81.98799,30.32108],[81.99789,30.32071],[82.01112,30.3297],[82.01192,30.343],[82.02163,30.34462],[82.03031,30.33777],[82.0419,30.339],[82.04982,30.33247],[82.05609,30.33371],[82.05614,30.3391],[82.06558,30.3464],[82.06511,30.35407],[82.07494,30.36088],[82.0858,30.35928],[82.09279,30.35072],[82.11088,30.34756],[82.11156,30.33286],[82.12135,30.32297],[82.12048,30.31774],[82.1289,30.30388],[82.11757,30.29562],[82.11469,30.27983],[82.11018,30.2766],[82.11669,30.27192],[82.11812,30.25894],[82.10715,30.25502],[82.10473,30.2477],[82.10666,30.24416],[82.09865,30.23884],[82.11174,30.22523],[82.12137,30.22673],[82.13108,30.22416],[82.13401,30.2183],[82.13158,30.21465],[82.13311,30.20648],[82.15784,30.18849],[82.17863,30.1926],[82.18441,30.19078],[82.18655,30.18501],[82.18335,30.18031],[82.18622,30.17534],[82.1852,30.16868],[82.18103,30.1662],[82.18176,30.16082],[82.19284,30.16016],[82.20489,30.154],[82.19699,30.14242],[82.19691,30.13769],[82.17843,30.12964],[82.17244,30.12129],[82.18461,30.11178],[82.17552,30.08808],[82.16852,30.08721],[82.16512,30.08148],[82.16964,30.06733],[82.17287,30.06523],[82.19397,30.06968],[82.2099,30.06537],[82.21473,30.06801],[82.2297,30.06524],[82.24289,30.07522],[82.25241,30.07294],[82.26415,30.06182],[82.27776,30.06205],[82.28288,30.05901],[82.28516,30.04771],[82.29774,30.04145],[82.29795,30.03863],[82.30958,30.03781],[82.32087,30.04876],[82.3343,30.04656],[82.34368,30.03669],[82.34426,30.0291],[82.35864,30.02219],[82.36269,30.01146],[82.37506,30.01615],[82.37506,30.02563],[82.3817,30.02779],[82.38685,30.0207],[82.39279,30.02479],[82.39904,30.02238],[82.40193,30.01517],[82.40729,30.01498],[82.42061,30.00496],[82.4245,29.99493],[82.43196,29.98916],[82.47605,29.97374],[82.47719,29.96996],[82.47376,29.96553],[82.49907,29.94616],[82.51416,29.95243],[82.52856,29.97074],[82.54863,29.9636],[82.56296,29.95534],[82.56659,29.93251],[82.57946,29.92179],[82.58412,29.92173],[82.60195,29.88954],[82.6142,29.88163],[82.63759,29.87499],[82.64245,29.87009],[82.64029,29.86294],[82.63094,29.85598],[82.63181,29.85011],[82.62166,29.84744],[82.61977,29.83831],[82.63951,29.834],[82.66228,29.84268],[82.67599,29.84346],[82.68367,29.84686],[82.68627,29.85219],[82.69711,29.85547],[82.71051,29.83894],[82.71933,29.83915],[82.72683,29.83486],[82.73037,29.82157],[82.73723,29.81459],[82.72873,29.80376],[82.71284,29.7945],[82.70859,29.79253],[82.70091,29.79493],[82.694,29.79132],[82.69606,29.78235],[82.6865,29.77377],[82.68995,29.76327],[82.69699,29.76166],[82.71029,29.7687],[82.71891,29.7663],[82.72304,29.77047],[82.74462,29.76963],[82.75136,29.76601],[82.75853,29.76002],[82.76185,29.74998],[82.76266,29.74052],[82.7658,29.73745],[82.76299,29.73064],[82.79727,29.71922],[82.81742,29.72163],[82.82117,29.71602],[82.81558,29.7024],[82.82562,29.69041],[82.83895,29.6919],[82.85816,29.68467],[82.88653,29.69317],[82.8879,29.70002],[82.89104,29.70163],[82.90848,29.70064],[82.91459,29.70642],[82.92673,29.70081],[82.93427,29.70457],[82.94823,29.69188],[82.94186,29.67401],[82.94727,29.67277],[82.9516,29.66561],[82.96489,29.66263],[82.97405,29.66747],[82.98633,29.66828],[82.99135,29.66364],[83.00828,29.67076],[83.0128,29.66986],[83.01457,29.66026],[83.02107,29.6573],[83.0225,29.65001],[83.0324,29.65372],[83.0391,29.64667],[83.04395,29.63074],[83.05469,29.62607],[83.06468,29.62654],[83.06557,29.61607],[83.06965,29.60984],[83.07986,29.60772],[83.0853,29.60273],[83.09119,29.60558],[83.09016,29.61158],[83.10104,29.6144],[83.10652,29.61919],[83.11585,29.61636],[83.11502,29.62364],[83.12007,29.62781],[83.1233,29.62779],[83.13047,29.61911],[83.14215,29.62458],[83.14576,29.62201],[83.15368,29.62524],[83.16464,29.61552],[83.15902,29.59687],[83.16372,29.59453],[83.17999,29.59321],[83.18811,29.59718],[83.1864,29.60599],[83.1971,29.6116],[83.19882,29.60625],[83.21826,29.60495],[83.216,29.58807],[83.23221,29.57764],[83.26073,29.57756],[83.26181,29.57342],[83.27057,29.5681],[83.27812,29.56886],[83.28392,29.56288],[83.28167,29.55739],[83.27274,29.55461],[83.25731,29.55782],[83.25541,29.55555],[83.25886,29.55052],[83.25402,29.54516],[83.26844,29.52271],[83.26833,29.5087],[83.28231,29.4988],[83.29426,29.50391],[83.30244,29.49966],[83.31551,29.50935],[83.34675,29.49286],[83.34799,29.47746],[83.34327,29.47593],[83.34278,29.46611],[83.35208,29.45876],[83.35381,29.45181],[83.36628,29.45021],[83.36305,29.44641],[83.36462,29.43961],[83.37109,29.43416],[83.37131,29.42838],[83.38021,29.42354],[83.41241,29.42208],[83.4164,29.41025],[83.42622,29.4024],[83.42045,29.39813],[83.42352,29.38727],[83.42134,29.38366],[83.41198,29.37999],[83.41569,29.37637],[83.41357,29.36662],[83.41728,29.36456],[83.41517,29.35968],[83.41776,29.35635],[83.42254,29.35707],[83.42856,29.34985],[83.43757,29.35062],[83.44517,29.33948],[83.44273,29.33511],[83.44659,29.32939],[83.44331,29.31999],[83.43878,29.31681],[83.43819,29.30907],[83.44387,29.30701],[83.44348,29.29996],[83.45126,29.29777],[83.45082,29.29378],[83.45623,29.29037],[83.45502,29.28671],[83.45994,29.28646],[83.46305,29.27634],[83.46692,29.27392],[83.47151,29.27395],[83.47762,29.2811],[83.48785,29.28002],[83.48753,29.27574],[83.49333,29.27413],[83.49137,29.26474],[83.50357,29.25845],[83.50415,29.25544],[83.51415,29.2554],[83.51621,29.24721],[83.51962,29.24527],[83.51827,29.24278],[83.52252,29.2388],[83.51545,29.22776],[83.5211,29.2167],[83.5304,29.2126],[83.53558,29.20396],[83.54619,29.20026],[83.55296,29.20002],[83.56081,29.20483],[83.57142,29.20315],[83.57032,29.19035],[83.57497,29.18881],[83.57585,29.18045],[83.59069,29.17438],[83.61064,29.18093],[83.61454,29.17118],[83.62155,29.16915],[83.62967,29.1602],[83.64062,29.16061],[83.64395,29.16299],[83.64411,29.16857],[83.65469,29.17232],[83.66327,29.1831],[83.65904,29.18677],[83.65613,29.20399],[83.673,29.20703],[83.68727,29.21587],[83.7112,29.24418],[83.72335,29.24162],[83.74089,29.24517],[83.76744,29.24051],[83.77109,29.24666],[83.77855,29.24717],[83.78061,29.24447],[83.79174,29.24644],[83.79775,29.25393],[83.80198,29.25473],[83.79372,29.27341],[83.79507,29.27745],[83.80829,29.2858],[83.81501,29.29691],[83.81341,29.30183],[83.84824,29.29646],[83.8536,29.30131],[83.85628,29.30944],[83.87153,29.31194],[83.88589,29.31947],[83.89786,29.31865],[83.90455,29.32587],[83.91243,29.32268],[83.9196,29.32665],[83.92514,29.31964],[83.94749,29.31656],[83.96278,29.33115],[83.97643,29.32831],[84.00087,29.31188],[83.99877,29.30599],[83.98976,29.30343],[83.9888,29.30059],[83.99814,29.29755],[83.99906,29.29418],[84.00827,29.29525],[84.02656,29.28606],[84.02919,29.29194],[84.0425,29.3006],[84.04838,29.30094],[84.0563,29.29036],[84.06352,29.28966],[84.06815,29.28543],[84.07667,29.28629],[84.08589,29.29462],[84.10011,29.29036],[84.12197,29.27395],[84.11912,29.2657],[84.11293,29.26281],[84.11504,29.26032],[84.11276,29.24749],[84.11609,29.24397],[84.11926,29.24589],[84.14226,29.2369],[84.15325,29.24206],[84.17876,29.23776],[84.18256,29.24172],[84.19457,29.24483],[84.20309,29.23642],[84.19795,29.22969],[84.19959,29.21372],[84.18722,29.20565],[84.17757,29.20709],[84.16845,29.20007],[84.1635,29.19384],[84.1663,29.19003],[84.16237,29.18405],[84.16881,29.17244],[84.16601,29.16399],[84.17291,29.14999],[84.17389,29.13012],[84.20022,29.1248],[84.20154,29.10544],[84.18602,29.08124],[84.18969,29.04759],[84.1957,29.04639],[84.20853,29.05344],[84.22799,29.05071],[84.23596,29.04412],[84.24363,29.04317],[84.24894,29.03608],[84.24689,29.0298],[84.25206,29.01839],[84.24166,29.00203],[84.2392,28.96844],[84.23458,28.96767],[84.22996,28.95495],[84.22531,28.9527],[84.22415,28.92049],[84.22103,28.91748],[84.2249,28.89566],[84.23027,28.89197],[84.24598,28.89036],[84.25463,28.89103],[84.25698,28.89511],[84.26724,28.89722],[84.27231,28.89326],[84.2734,28.88736],[84.28362,28.88387],[84.29146,28.87509],[84.31026,28.86909],[84.31485,28.87018],[84.32353,28.86279],[84.33402,28.86536],[84.34347,28.87286],[84.35677,28.85973],[84.3746,28.86449],[84.40938,28.85367],[84.40732,28.84225],[84.39925,28.83784],[84.4004,28.83018],[84.4206,28.83082],[84.4272,28.82386],[84.43571,28.82114],[84.43013,28.81253],[84.43247,28.80081],[84.44449,28.79356],[84.44585,28.78449],[84.43764,28.77311],[84.43796,28.76918],[84.45234,28.76527],[84.46097,28.75171],[84.48168,28.74549],[84.48481,28.73582],[84.49246,28.73501],[84.50343,28.74468],[84.51468,28.74847],[84.52403,28.74177],[84.53234,28.74523],[84.54327,28.74506],[84.55629,28.75137],[84.55671,28.74772],[84.56639,28.74214],[84.57125,28.73521],[84.62748,28.73561],[84.64404,28.72508],[84.64463,28.71982],[84.65075,28.71508],[84.64941,28.70192],[84.65709,28.70067],[84.66598,28.69444],[84.6685,28.68317],[84.67846,28.67852],[84.68698,28.67942],[84.6964,28.67188],[84.70414,28.6718],[84.69729,28.65312],[84.70182,28.64718],[84.6956,28.6361],[84.71306,28.63369],[84.7224,28.62674],[84.7245,28.62095],[84.73397,28.61779],[84.74699,28.61805],[84.75378,28.61399],[84.78037,28.60987],[84.85695,28.57078],[84.86716,28.58174],[84.88597,28.58234],[84.89036,28.58926],[84.89828,28.58929],[84.9018,28.59265],[84.90615,28.58835],[84.91136,28.58882],[84.91845,28.59527],[84.94514,28.59474],[84.94917,28.58028],[84.98474,28.59225],[84.9929,28.60036],[84.98616,28.60425],[84.98831,28.61227],[85.00009,28.62265],[85.00882,28.63712],[85.01717,28.63968],[85.02892,28.65484],[85.0399,28.65775],[85.04164,28.66666],[85.05232,28.67047],[85.0546,28.68089],[85.05894,28.68266],[85.071,28.67906],[85.08147,28.67107],[85.08903,28.67181],[85.09239,28.67696],[85.11457,28.68676],[85.13152,28.67653],[85.13495,28.66691],[85.14548,28.66082],[85.14497,28.65641],[85.15416,28.64935],[85.15654,28.64372],[85.17754,28.6457],[85.18826,28.64099],[85.18505,28.63208],[85.19794,28.62725],[85.19723,28.62041],[85.18927,28.6052],[85.17373,28.59737],[85.19067,28.56805],[85.18476,28.5618],[85.18852,28.55382],[85.18652,28.53366],[85.16648,28.53247],[85.16649,28.52264],[85.15664,28.5091],[85.15726,28.49766],[85.15265,28.48936],[85.14511,28.48519],[85.12379,28.48773],[85.11683,28.4846],[85.11257,28.47136],[85.09898,28.45685],[85.10057,28.44901],[85.11467,28.44298],[85.11271,28.43237],[85.11739,28.41709],[85.11585,28.40889],[85.12701,28.39215],[85.12274,28.38698],[85.12258,28.37313],[85.11624,28.36862],[85.10787,28.34625],[85.12197,28.33523],[85.13232,28.33636],[85.14043,28.33021],[85.16652,28.33146],[85.18364,28.32469],[85.20253,28.34081],[85.2396,28.31947],[85.25479,28.29396],[85.26875,28.29828],[85.27329,28.29452],[85.27297,28.28796],[85.29236,28.28759],[85.32235,28.29499],[85.32507,28.29888],[85.3397,28.3036],[85.34835,28.30151],[85.34848,28.28807],[85.3711,28.28498],[85.37765,28.27772],[85.38745,28.2837],[85.39837,28.29871],[85.41167,28.30779],[85.41531,28.32714],[85.43802,28.33512],[85.46001,28.33676],[85.48738,28.33131],[85.50815,28.33292],[85.52376,28.32866],[85.5566,28.31092],[85.57587,28.31048],[85.58163,28.30534],[85.58672,28.30782],[85.60017,28.30303],[85.59618,28.29943],[85.59658,28.29097],[85.60858,28.25628],[85.63677,28.27367],[85.6453,28.29023],[85.66265,28.30268],[85.65367,28.31512],[85.65425,28.31863],[85.66536,28.3318],[85.66684,28.34631],[85.67529,28.3501],[85.68592,28.34575],[85.68366,28.3821],[85.71088,28.3844],[85.72172,28.37215],[85.71839,28.36672],[85.72098,28.35344],[85.72482,28.35176],[85.73174,28.33879],[85.72678,28.32784],[85.73503,28.32304],[85.73665,28.31852],[85.73592,28.29927],[85.73212,28.2908],[85.74259,28.26944],[85.74232,28.25641],[85.74814,28.24885],[85.74905,28.23693],[85.75868,28.22592],[85.76387,28.22679],[85.77407,28.21688],[85.77519,28.20823],[85.79849,28.1975],[85.81558,28.20195],[85.81709,28.193],[85.82928,28.18423],[85.84916,28.18325],[85.84974,28.16893],[85.85832,28.16072],[85.86012,28.15185],[85.87139,28.14264],[85.86876,28.12507],[85.87739,28.11729],[85.88703,28.11666],[85.89781,28.10901],[85.90199,28.09009],[85.90023,28.07928],[85.89543,28.07502],[85.89955,28.05446],[85.90905,28.04995],[85.91486,28.05157],[85.93537,28.02424],[85.94585,28.02089],[85.96331,28.00166],[85.97388,28.00014],[85.97684,27.99593],[85.97767,27.98713],[85.96095,27.96998],[85.95712,27.95597],[85.94742,27.9416],[85.96628,27.93325],[86.00008,27.91075],[86.01272,27.91496],[86.02225,27.90755],[86.03921,27.90402],[86.04817,27.90661],[86.065,27.90066],[86.06937,27.90524],[86.06748,27.91147],[86.07446,27.91081],[86.10317,27.92439],[86.12437,27.92843],[86.1259,27.93359],[86.12276,27.9429],[86.11572,27.94578],[86.10697,27.95691],[86.10905,27.9628],[86.10178,27.98852],[86.08091,28.01607],[86.07954,28.02239],[86.09025,28.03313],[86.08738,28.04953],[86.08956,28.05784],[86.09465,28.06152],[86.08464,28.08172],[86.08339,28.09191],[86.09206,28.09796],[86.11002,28.09185],[86.11786,28.09162],[86.12374,28.09525],[86.13042,28.10085],[86.13231,28.11691],[86.1397,28.11772],[86.14338,28.12749],[86.15215,28.13055],[86.15987,28.13793],[86.17705,28.1429],[86.1787,28.14985],[86.17394,28.16911],[86.18654,28.1743],[86.19194,28.16658],[86.19194,28.16072],[86.19722,28.15636],[86.19676,28.13938],[86.20578,28.13284],[86.21971,28.11175],[86.22249,28.09638],[86.20733,28.09427],[86.20401,28.08444],[86.21679,28.05133],[86.21731,28.04075],[86.22461,28.03354],[86.21988,28.0106],[86.22578,27.98115],[86.23635,27.97324],[86.26829,27.98103],[86.27969,27.97726],[86.28898,27.97822],[86.29471,27.97504],[86.30082,27.96561],[86.2998,27.96021],[86.31335,27.94877],[86.31852,27.94833],[86.33519,27.96522],[86.33427,27.95088],[86.34419,27.93967],[86.3486,27.93775],[86.37131,27.94155],[86.38136,27.93792],[86.39096,27.92582],[86.39664,27.92571],[86.4113,27.90741],[86.42942,27.90963],[86.44183,27.90691],[86.44465,27.91127],[86.45538,27.91539],[86.46778,27.92937],[86.471,27.93483],[86.46709,27.94222],[86.47071,27.9472],[86.4929,27.95233],[86.49761,27.95778],[86.51558,27.95686],[86.51207,27.96882],[86.51747,27.97408],[86.51371,27.97722],[86.51243,27.98466],[86.51571,27.99047],[86.51487,28.00334],[86.51889,28.00593],[86.52123,28.02099],[86.53125,28.02745],[86.53276,28.0485],[86.53564,28.05296],[86.55152,28.05583],[86.56306,28.07],[86.55955,28.08282],[86.56703,28.09146],[86.56181,28.10149],[86.56218,28.10725],[86.57454,28.11326],[86.58839,28.1081],[86.58994,28.1043],[86.60229,28.1021],[86.60815,28.092],[86.60292,28.08832],[86.60795,28.07649],[86.63541,28.07083],[86.64936,28.07484],[86.65764,28.08149],[86.66088,28.09471],[86.66683,28.10093],[86.68032,28.10331],[86.68896,28.10861],[86.7077,28.10518],[86.71537,28.10742],[86.73449,28.10014],[86.73976,28.10199],[86.74838,28.09459],[86.74733,28.08593],[86.75367,28.0787],[86.76403,28.07363],[86.75589,28.06922],[86.74811,28.05189],[86.74753,28.04549],[86.75727,28.03168],[86.77447,28.03721],[86.78003,28.03163],[86.78048,28.02644],[86.79001,28.01907],[86.80494,28.02333],[86.82792,28.01542],[86.84726,28.02002],[86.84817,28.02518],[86.85373,28.02823],[86.86705,28.02546],[86.87236,28.02229],[86.87297,28.01055],[86.88891,27.99984],[86.8897,27.99648],[86.925,27.98823],[86.93367,27.9729],[86.93292,27.96208],[86.9509,27.95656],[86.97149,27.95469],[86.98097,27.94993],[86.9922,27.95501],[87.00941,27.95377],[87.01567,27.95786],[87.02432,27.95007],[87.0393,27.95029],[87.05319,27.9268],[87.0657,27.92405],[87.07858,27.91499],[87.07787,27.90265],[87.08824,27.88991],[87.08847,27.88297],[87.10382,27.87825],[87.10741,27.87397],[87.10799,27.85502],[87.11574,27.84052],[87.12731,27.83552],[87.14025,27.83731],[87.15653,27.82468],[87.16807,27.82188],[87.1931,27.82015],[87.21757,27.82376],[87.22575,27.82001],[87.23815,27.83933],[87.26121,27.85107],[87.28455,27.8447],[87.30405,27.84323],[87.30605,27.83378],[87.31784,27.82587],[87.33821,27.83006],[87.35495,27.82759],[87.36058,27.82911],[87.37205,27.84441],[87.40258,27.85214],[87.41773,27.86052],[87.42539,27.85958],[87.42743,27.85175],[87.43323,27.84652],[87.432,27.84261],[87.40874,27.83898],[87.40292,27.8343],[87.42482,27.83112],[87.45018,27.82255],[87.48778,27.84558],[87.50794,27.84729],[87.5208,27.84374],[87.53746,27.84415],[87.5473,27.85298],[87.55163,27.86468],[87.56179,27.86725],[87.57058,27.86206],[87.57808,27.86189],[87.58618,27.85282],[87.59096,27.83216],[87.58966,27.8203],[87.60085,27.82142],[87.60916,27.81202],[87.61245,27.81079],[87.61715,27.8194],[87.63244,27.82595],[87.63226,27.83253],[87.63558,27.8345],[87.66445,27.83661],[87.66937,27.83504],[87.66961,27.83027],[87.66348,27.82382],[87.66445,27.80958],[87.66792,27.80739],[87.68519,27.81242],[87.69831,27.81233],[87.71852,27.80911],[87.7234,27.80486],[87.73616,27.81315],[87.73374,27.81876],[87.7431,27.83459],[87.75307,27.83596],[87.76712,27.86082],[87.77852,27.86611],[87.77531,27.87733],[87.78426,27.89916],[87.80424,27.90856],[87.81262,27.92117],[87.82459,27.92041],[87.82712,27.92949],[87.82521,27.93892],[87.83177,27.95305],[87.84658,27.94635],[87.85674,27.94826],[87.85905,27.93505],[87.85428,27.92871],[87.85922,27.92518],[87.86558,27.91107],[87.87838,27.91445],[87.88969,27.90959],[87.89882,27.91078],[87.90794,27.91641],[87.93137,27.91817],[87.94118,27.91021],[87.95611,27.90856],[87.96787,27.89257],[87.98321,27.8878],[88.00362,27.89857],[88.02169,27.89698],[88.02977,27.90609],[88.05405,27.89654],[88.05644,27.88921],[88.0644,27.8865],[88.07187,27.89391],[88.08329,27.89601],[88.08907,27.88615],[88.08996,27.87118],[88.09922,27.8631],[88.11679,27.86234],[88.11913,27.8753],[88.126,27.88169],[88.13532,27.88188],[88.14936,27.87632],[88.15394,27.87082],[88.16282,27.8692],[88.17854,27.85679],[88.19616,27.85398],[88.19788,27.84564],[88.20124,27.84343],[88.20052,27.83693],[88.19157,27.83274],[88.18768,27.82559],[88.17299,27.82054],[88.18506,27.81049],[88.18664,27.80179],[88.19702,27.79112],[88.19529,27.78661],[88.18135,27.77583],[88.18241,27.76388],[88.17655,27.75855],[88.17797,27.74659],[88.16981,27.74152],[88.15823,27.74027],[88.15566,27.73524],[88.15578,27.71993],[88.14769,27.70255],[88.15408,27.69159],[88.14663,27.67883],[88.14349,27.66315],[88.11994,27.64542],[88.11896,27.62729],[88.11386,27.61089],[88.10601,27.60216],[88.08948,27.5954],[88.08311,27.58756],[88.07499,27.5722],[88.08082,27.56532],[88.07834,27.56043],[88.06883,27.55506],[88.0688,27.54647],[88.06114,27.54062],[88.05877,27.53288],[88.0655,27.52958],[88.05665,27.51927],[88.06124,27.51242],[88.04333,27.49585],[88.0442,27.47813],[88.06042,27.46071],[88.06678,27.45802],[88.06726,27.44957],[88.07202,27.44572],[88.06773,27.43874],[88.07434,27.43339],[88.07385,27.42643],[88.06722,27.42545],[88.05057,27.41275],[88.04178,27.37301],[88.05032,27.35873],[88.05794,27.35592],[88.06632,27.33663],[88.05259,27.32475],[88.04138,27.30413],[88.0447,27.29396],[88.03152,27.28586],[88.03064,27.25011],[88.02777,27.24975],[88.02474,27.23846],[88.0193,27.23606],[88.01872,27.22505],[88.01224,27.21596],[88.01527,27.2094],[88.01179,27.20423],[88.01585,27.19272],[88.01226,27.17789],[88.0192,27.17117],[88.0124,27.16722],[88.00772,27.14465],[88.00063,27.14037],[87.99847,27.13367],[87.99113,27.1306],[87.9884,27.11903],[87.99184,27.10537],[88.00193,27.10496],[88.01111,27.0975],[88.01544,27.08861],[88.0206,27.0872],[88.01557,27.07396],[88.02354,27.06519],[88.02576,27.05453],[88.03728,27.03679],[88.04552,27.03686],[88.05961,27.02946],[88.07637,27.03575],[88.08121,27.03236],[88.08878,27.01512],[88.08835,27.00828],[88.09215,27.00471],[88.10142,27.00208],[88.11595,26.9882],[88.1353,26.98509],[88.12658,26.97494],[88.12033,26.95039],[88.13765,26.9334],[88.14559,26.92037],[88.13612,26.89894],[88.14692,26.88831],[88.15685,26.88536],[88.16423,26.8733],[88.17162,26.86939],[88.17394,26.85227],[88.16768,26.85064],[88.17056,26.84529],[88.16738,26.83776],[88.17404,26.8342],[88.17201,26.82804],[88.17983,26.81455],[88.18007,26.79526],[88.18743,26.77303],[88.18877,26.7493],[88.17817,26.70547],[88.16269,26.66806],[88.16363,26.64004],[88.15236,26.62332],[88.14015,26.6188],[88.13898,26.61079],[88.13414,26.60927],[88.13294,26.60247],[88.12483,26.59644],[88.12259,26.58693],[88.12652,26.58369],[88.11911,26.5771],[88.11694,26.56736],[88.10873,26.56835],[88.10064,26.54963],[88.10336,26.54116],[88.09906,26.53129],[88.10417,26.51864],[88.09327,26.50999],[88.08855,26.50009],[88.09659,26.4872],[88.09618,26.47805],[88.10551,26.46929],[88.09797,26.45256],[88.09312,26.44888],[88.09051,26.42609],[88.07967,26.42039],[88.07152,26.42019],[88.05464,26.40078],[88.0477,26.40162],[88.03137,26.38863],[88.0302,26.38349],[88.02716,26.38303],[88.02826,26.37865],[88.03105,26.37858],[88.02602,26.37116],[88.03015,26.36491],[88.00842,26.36126],[88.00249,26.36597],[87.99833,26.36506],[87.99188,26.37132],[87.99168,26.39274],[87.96571,26.39734],[87.93208,26.41812],[87.92692,26.41762],[87.92575,26.42775],[87.91679,26.43017],[87.91671,26.43486],[87.92482,26.4392],[87.92503,26.44472],[87.89857,26.44885],[87.90944,26.45837],[87.90001,26.47743],[87.88808,26.48688],[87.88578,26.47662],[87.85799,26.46362],[87.86144,26.449],[87.85085,26.44537],[87.84865,26.43653],[87.82811,26.4401],[87.82953,26.45008],[87.81611,26.45997],[87.79276,26.46886],[87.7911,26.46598],[87.7868,26.46729],[87.7891,26.46242],[87.78198,26.4573],[87.78187,26.45368],[87.77738,26.45369],[87.77931,26.45025],[87.77285,26.45019],[87.77334,26.44747],[87.77685,26.44774],[87.77541,26.43841],[87.77853,26.43469],[87.77268,26.43004],[87.77282,26.4229],[87.76428,26.41004],[87.75365,26.40808],[87.74808,26.41799],[87.7391,26.41768],[87.73372,26.40769],[87.72289,26.4126],[87.7205,26.42068],[87.7104,26.4276],[87.69812,26.42847],[87.69209,26.43579],[87.67745,26.43563],[87.67795,26.41594],[87.65,26.40603],[87.65129,26.39365],[87.6274,26.39395],[87.6121,26.39021],[87.60469,26.38076],[87.58619,26.38206],[87.58625,26.39096],[87.55295,26.40582],[87.5475,26.41846],[87.51633,26.43088],[87.46663,26.44032],[87.44321,26.43317],[87.42767,26.42245],[87.38839,26.41918],[87.37598,26.40705],[87.36868,26.4081],[87.35562,26.38572],[87.35332,26.37209],[87.35818,26.36116],[87.34088,26.34752],[87.32186,26.36014],[87.31228,26.37145],[87.30139,26.36618],[87.28928,26.37378],[87.26578,26.37393],[87.26606,26.4057],[87.26058,26.40946],[87.24789,26.41125],[87.24757,26.41398],[87.2291,26.41372],[87.21997,26.40338],[87.21223,26.40908],[87.21251,26.41323],[87.18566,26.4143],[87.18883,26.40554],[87.16238,26.40398],[87.13937,26.41468],[87.09148,26.45038],[87.08023,26.52187],[87.07265,26.54209],[87.07157,26.58583],[87.04451,26.58733],[87.04231,26.56843],[87.01515,26.53216],[86.99072,26.52317],[86.9792,26.52522],[86.97514,26.52012],[86.96105,26.52389],[86.95944,26.52057],[86.94129,26.5206],[86.93137,26.5148],[86.92959,26.48976],[86.90254,26.48843],[86.89497,26.47455],[86.88531,26.46741],[86.8843,26.45604],[86.88058,26.45308],[86.85885,26.45127],[86.84086,26.437],[86.83127,26.43525],[86.82734,26.44064],[86.76542,26.45922],[86.75973,26.449],[86.7532,26.44762],[86.74823,26.437],[86.74428,26.43545],[86.74842,26.43277],[86.74635,26.42841],[86.73588,26.4236],[86.72462,26.42663],[86.71992,26.43499],[86.70238,26.43674],[86.69254,26.45142],[86.63869,26.46347],[86.63676,26.46636],[86.63361,26.46369],[86.6316,26.46882],[86.62562,26.46791],[86.62795,26.47603],[86.62124,26.48271],[86.57001,26.4965],[86.56468,26.50083],[86.56149,26.50972],[86.55484,26.51564],[86.55544,26.52137],[86.54218,26.53832],[86.52821,26.54281],[86.52113,26.54341],[86.51541,26.53929],[86.49755,26.54239],[86.45572,26.56799],[86.42973,26.57315],[86.39475,26.58518],[86.39756,26.59308],[86.33871,26.60725],[86.34352,26.61678],[86.3294,26.61962],[86.30756,26.62008],[86.29285,26.61317],[86.27567,26.61736],[86.25072,26.61442],[86.24912,26.6096],[86.23517,26.5986],[86.23425,26.59387],[86.21761,26.58856],[86.20566,26.59663],[86.20315,26.59492],[86.20073,26.59724],[86.19782,26.59323],[86.19559,26.59539],[86.19425,26.61285],[86.19131,26.61507],[86.17424,26.61402],[86.17201,26.61706],[86.14539,26.60879],[86.14241,26.60519],[86.13619,26.60644],[86.14084,26.61684],[86.13867,26.62886],[86.11935,26.6301],[86.07356,26.65005],[86.06937,26.65757],[86.02846,26.66652],[86.01314,26.66052],[86.01016,26.65443],[85.97927,26.65821],[85.96946,26.65492],[85.95311,26.64328],[85.95561,26.62995],[85.94539,26.62048],[85.94875,26.61455],[85.94697,26.61291],[85.93805,26.61653],[85.92709,26.61374],[85.92662,26.60972],[85.91298,26.60872],[85.90054,26.60044],[85.89957,26.59421],[85.89085,26.59415],[85.88825,26.58356],[85.88223,26.58422],[85.86238,26.57199],[85.84925,26.56878],[85.84839,26.57703],[85.85791,26.58992],[85.85117,26.60857],[85.83102,26.61148],[85.83033,26.60167],[85.8175,26.60285],[85.80337,26.61501],[85.80155,26.62433],[85.76971,26.62995],[85.74829,26.63904],[85.73207,26.65414],[85.73666,26.66429],[85.72546,26.67064],[85.72337,26.68802],[85.72467,26.70991],[85.72795,26.71746],[85.72619,26.72244],[85.7294,26.72518],[85.73045,26.73599],[85.73386,26.73733],[85.72863,26.74985],[85.73498,26.77802],[85.73433,26.79591],[85.72091,26.82039],[85.70412,26.83229],[85.68005,26.84369],[85.64232,26.85317],[85.63439,26.87226],[85.62381,26.87382],[85.60613,26.85673],[85.58677,26.84821],[85.58396,26.85724],[85.57543,26.86101],[85.56578,26.84109],[85.55764,26.84428],[85.55347,26.83452],[85.54313,26.83836],[85.51965,26.81446],[85.5074,26.81685],[85.49791,26.81235],[85.49535,26.79717],[85.47965,26.80243],[85.4759,26.79166],[85.46391,26.7887],[85.45431,26.78197],[85.43228,26.79025],[85.42629,26.78612],[85.40753,26.79143],[85.39654,26.77783],[85.38427,26.77436],[85.37706,26.76278],[85.37048,26.75846],[85.36158,26.76297],[85.35456,26.75995],[85.33397,26.7416],[85.30682,26.75208],[85.25968,26.75571],[85.23988,26.76204],[85.21149,26.75827],[85.19766,26.76953],[85.19139,26.78214],[85.19457,26.78474],[85.19131,26.79138],[85.18693,26.79086],[85.18677,26.79464],[85.18026,26.7959],[85.17926,26.79854],[85.18255,26.80058],[85.17653,26.80981],[85.17693,26.81506],[85.19105,26.83091],[85.19313,26.86361],[85.1897,26.87016],[85.13981,26.87121],[85.13531,26.86787],[85.11105,26.87236],[85.0865,26.86725],[85.08955,26.85953],[85.08545,26.85578],[85.07372,26.85598],[85.0665,26.85373],[85.06379,26.84952],[85.06177,26.85393],[85.06477,26.85593],[85.06146,26.85715],[85.0603,26.85366],[85.05736,26.85546],[85.05737,26.8492],[85.02402,26.85444],[85.02525,26.85789],[85.02874,26.85613],[85.0327,26.85966],[85.02653,26.86386],[85.0303,26.86559],[85.02976,26.87534],[85.03435,26.8736],[85.03725,26.87831],[85.05618,26.88115],[85.05956,26.88425],[85.0535,26.88953],[85.00471,26.89478],[84.99263,26.90304],[84.99618,26.9067],[85.00239,26.90346],[84.99989,26.91196],[84.97038,26.91586],[84.9701,26.92849],[84.97627,26.93214],[84.97764,26.9369],[84.97508,26.93931],[84.97814,26.94073],[84.96261,26.96047],[84.95342,26.96012],[84.92918,26.96882],[84.90995,26.96797],[84.86562,26.9837],[84.85541,26.99141],[84.85726,26.99864],[84.85034,26.99854],[84.85435,27.00828],[84.82532,27.021],[84.80883,27.01838],[84.80662,27.01394],[84.8107,27.01401],[84.80995,27.01166],[84.79372,26.9961],[84.78617,26.99856],[84.78828,27.00587],[84.78474,27.00741],[84.78251,27.0143],[84.77328,27.01779],[84.76443,27.01315],[84.7567,27.00291],[84.72965,27.01524],[84.7215,27.01406],[84.71347,27.02172],[84.70148,27.02707],[84.6433,27.04618],[84.64326,27.05099],[84.64607,27.05129],[84.64331,27.06537],[84.64707,27.07588],[84.65408,27.0795],[84.65513,27.08435],[84.66146,27.08537],[84.67072,27.09794],[84.67505,27.09709],[84.67303,27.10772],[84.66949,27.10832],[84.6722,27.1147],[84.67679,27.11526],[84.67551,27.12378],[84.68333,27.14916],[84.68049,27.15269],[84.68318,27.15626],[84.67689,27.16113],[84.67962,27.16644],[84.6752,27.17164],[84.68509,27.18199],[84.68039,27.1885],[84.68359,27.19594],[84.68126,27.20041],[84.68712,27.21016],[84.68528,27.22056],[84.68901,27.22065],[84.65056,27.29335],[84.62235,27.33654],[84.60602,27.33607],[84.56522,27.34748],[84.51253,27.35285],[84.47821,27.362],[84.46625,27.35816],[84.4451,27.36441],[84.4408,27.37052],[84.42473,27.37208],[84.39232,27.36837],[84.37339,27.37685],[84.36602,27.37345],[84.33179,27.37796],[84.30016,27.39089],[84.29092,27.38559],[84.28432,27.3947],[84.27681,27.39576],[84.27803,27.41592],[84.27352,27.42121],[84.27227,27.42919],[84.25863,27.4388],[84.25916,27.44644],[84.25467,27.45331],[84.23719,27.45296],[84.23119,27.45625],[84.22066,27.44839],[84.22091,27.44164],[84.20847,27.44243],[84.20702,27.45559],[84.20332,27.45785],[84.2086,27.46634],[84.206,27.46987],[84.1987,27.47332],[84.18694,27.4704],[84.18187,27.47464],[84.17272,27.47581],[84.16212,27.48425],[84.14852,27.48615],[84.14471,27.49794],[84.14919,27.50059],[84.14591,27.50389],[84.15096,27.5165],[84.14618,27.51824],[84.12643,27.51135],[84.11781,27.51197],[84.11699,27.51914],[84.10847,27.52183],[84.09768,27.51714],[84.10093,27.50649],[84.09488,27.48894],[84.06938,27.47948],[84.067,27.46779],[84.06258,27.46704],[84.05875,27.46131],[84.06135,27.45657],[84.05196,27.44289],[84.03139,27.44162],[84.02565,27.43874],[84.02753,27.43557],[84.02391,27.43258],[84.0084,27.43805],[84.00504,27.44267],[84.00036,27.44096],[83.99615,27.44647],[83.98338,27.44369],[83.97814,27.43907],[83.97776,27.44275],[83.9707,27.44286],[83.96666,27.4466],[83.95741,27.44192],[83.94353,27.44248],[83.94239,27.44818],[83.93407,27.44986],[83.9026,27.43827]]]]}},{"type":"Feature","properties":{"ISO_A3":"","WB_A3":"","WB_NAME":"Kalapani","WB_REGION":"","STATUS":"non-determined","AREA_ID":"kalapani","CLAIMANTS":"NPL,IND"},"geometry":{"type":"MultiPolygon","coordinates":[[[[80.54124,30.44928],[80.55129,30.44978],[80.55884,30.45378],[80.56604,30.46404],[80.57624,30.46394],[80.58452,30.46869],[80.59658,30.46748],[80.59831,30.47086],[80.60631,30.47154],[80.61327,30.45929],[80.62397,30.46184],[80.63688,30.4504],[80.65865,30.44221],[80.6775,30.42925],[80.67741,30.424],[80.68652,30.42006],[80.68754,30.41612],[80.69752,30.41318],[80.70812,30.41707],[80.73071,30.40068],[80.73456,30.40127],[80.74937,30.3871],[80.75097,30.37957],[80.76446,30.37256],[80.77555,30.36265],[80.77924,30.35501],[80.78633,30.35359],[80.78534,30.3439],[80.80221,30.33327],[80.80146,30.32466],[80.81797,30.32247],[80.82567,30.31473],[80.83379,30.3129],[80.84474,30.31712],[80.86221,30.31403],[80.87227,30.30666],[80.87383,30.30083],[80.90652,30.30374],[80.90904,30.30166],[80.9086,30.29448],[80.91458,30.28685],[80.92712,30.28312],[80.93021,30.279],[80.93059,30.27616],[80.9261,30.27347],[80.92679,30.26708],[80.93593,30.26337],[80.95291,30.27053],[80.98227,30.27126],[81.00415,30.26393],[81.01157,30.25413],[81.03087,30.24689],[81.02642,30.22627],[81.02958,30.22553],[81.02901,30.21942],[81.04494,30.21107],[81.04496,30.2062],[81.03389,30.20117],[81.03479,30.19733],[81.02939,30.19495],[81.00934,30.19372],[80.99681,30.18608],[80.97425,30.1915],[80.96977,30.18897],[80.97036,30.18614],[80.95245,30.18449],[80.9407,30.17729],[80.92798,30.1752],[80.92051,30.18115],[80.91616,30.18977],[80.92282,30.20814],[80.91908,30.21601],[80.90806,30.22139],[80.89692,30.21241],[80.88384,30.1946],[80.88544,30.18834],[80.87941,30.18045],[80.86624,30.17433],[80.86274,30.16921],[80.82727,30.20871],[80.81879,30.22454],[80.79573,30.23876],[80.77103,30.27427],[80.76133,30.27984],[80.761,30.29424],[80.75814,30.30352],[80.75306,30.30817],[80.7424,30.30639],[80.73625,30.30883],[80.73358,30.31719],[80.71552,30.32899],[80.69917,30.33392],[80.68326,30.33386],[80.66603,30.34378],[80.66039,30.35343],[80.6546,30.37882],[80.6385,30.38939],[80.63459,30.40178],[80.62675,30.40982],[80.62761,30.41748],[80.62286,30.42418],[80.62224,30.43229],[80.61215,30.44431],[80.59839,30.44756],[80.5742,30.44333],[80.55633,30.42708],[80.53507,30.41695],[80.52529,30.42504],[80.52881,30.43663],[80.53913,30.44411],[80.54124,30.44928]]]]}}]}