{"type":"FeatureCollection","features":[{"type":"Feature","properties":{"ISO_A3":"OMN","WB_A3":"OMN","WB_NAME":"Oman","WB_REGION":"MEA"},"geometry":{"type":"MultiPolygon","coordinates":[[[[59.22538,22.89864],[59.22268,22.89208],[59.22625,22.88148],[59.23374,22.87211],[59.2384,22.85172],[59.25623,22.82985],[59.26422,22.82639],[59.26715,22.81091],[59.29094,22.76451],[59.30577,22.75542],[59.31966,22.7565],[59.32735,22.75176],[59.33512,22.75165],[59.34003,22.74681],[59.3433,22.73519],[59.35569,22.71365],[59.36211,22.70776],[59.37705,22.70561],[59.38003,22.70184],[59.37894,22.69478],[59.38327,22.68082],[59.39036,22.6739],[59.42632,22.65316],[59.462,22.61762],[59.48852,22.59766],[59.52998,22.57642],[59.52894,22.57258],[59.53813,22.56755],[59.53659,22.55908],[59.52752,22.56334],[59.52636,22.5604],[59.51627,22.56172],[59.52065,22.56628],[59.51994,22.57324],[59.50543,22.55957],[59.51106,22.55665],[59.50878,22.55321],[59.51476,22.54733],[59.51871,22.55087],[59.53843,22.55391],[59.54286,22.56889],[59.64655,22.55898],[59.67302,22.5525],[59.69387,22.54237],[59.72894,22.53676],[59.73332,22.5345],[59.73194,22.52732],[59.72776,22.52611],[59.72888,22.51966],[59.72207,22.51128],[59.7145,22.50678],[59.71477,22.49906],[59.72772,22.48881],[59.72951,22.48144],[59.7534,22.47139],[59.7655,22.4816],[59.77598,22.47962],[59.78173,22.48325],[59.77864,22.48819],[59.76385,22.49578],[59.74854,22.499],[59.74436,22.51168],[59.72911,22.52428],[59.73316,22.52627],[59.73612,22.536],[59.7571,22.53243],[59.75523,22.52924],[59.76138,22.52502],[59.76401,22.51803],[59.76629,22.52133],[59.76762,22.51848],[59.78114,22.51632],[59.78505,22.51792],[59.7856,22.5246],[59.77668,22.52862],[59.76349,22.52653],[59.76317,22.53155],[59.78963,22.53881],[59.79912,22.53569],[59.80328,22.5086],[59.80791,22.49798],[59.81909,22.48981],[59.82204,22.47818],[59.82693,22.47372],[59.82984,22.45335],[59.84003,22.42384],[59.82696,22.41378],[59.8186,22.39026],[59.81752,22.3779],[59.82486,22.36442],[59.81754,22.33034],[59.82487,22.32378],[59.82223,22.30942],[59.8247,22.29471],[59.81134,22.25558],[59.80913,22.22784],[59.7716,22.19555],[59.76843,22.18892],[59.77035,22.18117],[59.76452,22.17252],[59.74064,22.15157],[59.72807,22.13017],[59.71198,22.11166],[59.70778,22.10144],[59.68926,22.08579],[59.67578,22.0662],[59.67001,22.04546],[59.67604,22.0361],[59.67135,22.02845],[59.66756,22.01076],[59.65906,21.99855],[59.65862,21.98955],[59.64636,21.96814],[59.64571,21.96301],[59.65355,21.94718],[59.64898,21.93851],[59.60881,21.90596],[59.59713,21.89303],[59.57115,21.85818],[59.57199,21.85122],[59.5763,21.84849],[59.57674,21.83957],[59.53137,21.79859],[59.4971,21.76103],[59.48535,21.73445],[59.48414,21.72777],[59.48862,21.71613],[59.48678,21.70509],[59.46615,21.67426],[59.45701,21.65458],[59.46038,21.6427],[59.42317,21.58972],[59.41003,21.56032],[59.38464,21.53032],[59.38027,21.5152],[59.38257,21.51285],[59.34669,21.47064],[59.34234,21.4568],[59.34458,21.45059],[59.35116,21.44947],[59.35261,21.44534],[59.34566,21.43231],[59.30881,21.41326],[59.18827,21.36547],[59.14462,21.33026],[59.05764,21.26828],[59.02416,21.23986],[59.00037,21.21595],[58.96812,21.17527],[58.91418,21.13149],[58.85562,21.0665],[58.79855,20.98397],[58.79693,20.96314],[58.80244,20.95407],[58.8064,20.95274],[58.80238,20.93785],[58.75969,20.89531],[58.73988,20.85226],[58.72201,20.84639],[58.70348,20.82997],[58.68087,20.81604],[58.67169,20.80326],[58.65382,20.79596],[58.65103,20.7911],[58.64335,20.78963],[58.63215,20.77944],[58.66583,20.7432],[58.6915,20.73832],[58.70632,20.74165],[58.71434,20.74955],[58.71817,20.74938],[58.71903,20.75285],[58.73109,20.7544],[58.73167,20.75735],[58.72813,20.75893],[58.73067,20.76573],[58.73494,20.76787],[58.73686,20.78021],[58.74086,20.78275],[58.74158,20.74979],[58.70628,20.7383],[58.68301,20.73763],[58.66964,20.7411],[58.63173,20.77893],[58.60967,20.75082],[58.61776,20.75164],[58.61798,20.74713],[58.60647,20.74544],[58.59937,20.73392],[58.60381,20.72693],[58.6008,20.72657],[58.6009,20.72335],[58.60936,20.72095],[58.61419,20.72516],[58.60915,20.71426],[58.60433,20.71173],[58.60398,20.71727],[58.59958,20.71461],[58.60195,20.70583],[58.59554,20.69482],[58.59143,20.69409],[58.59396,20.68814],[58.58829,20.68189],[58.5831,20.68284],[58.58071,20.68942],[58.58924,20.69462],[58.57488,20.69501],[58.57628,20.68445],[58.56369,20.68379],[58.55177,20.66845],[58.55993,20.66451],[58.5653,20.66755],[58.56206,20.65883],[58.55435,20.65349],[58.54367,20.65204],[58.53512,20.64478],[58.52149,20.64915],[58.51585,20.63298],[58.50681,20.631],[58.5061,20.62792],[58.50991,20.62608],[58.52561,20.62427],[58.52689,20.62851],[58.53114,20.62988],[58.53076,20.63336],[58.53583,20.63422],[58.52524,20.64204],[58.53426,20.64106],[58.53532,20.6377],[58.54852,20.6444],[58.56119,20.6403],[58.55952,20.63723],[58.56221,20.63282],[58.55928,20.6268],[58.55573,20.62773],[58.5444,20.61625],[58.54379,20.60969],[58.54161,20.61048],[58.53243,20.59499],[58.52529,20.59196],[58.51947,20.58352],[58.51481,20.58279],[58.51941,20.57747],[58.52476,20.57961],[58.51875,20.56679],[58.51495,20.56888],[58.50688,20.55505],[58.49614,20.5469],[58.49529,20.54331],[58.50159,20.54454],[58.5059,20.53819],[58.50665,20.54475],[58.51204,20.5514],[58.52423,20.55412],[58.50949,20.54215],[58.50779,20.53573],[58.50288,20.53706],[58.4979,20.53118],[58.49562,20.52116],[58.49071,20.5221],[58.48877,20.51916],[58.49394,20.5168],[58.48549,20.51945],[58.4839,20.52409],[58.47916,20.51512],[58.4743,20.52083],[58.47574,20.51386],[58.47187,20.50978],[58.47438,20.50036],[58.48912,20.49856],[58.48509,20.5058],[58.48018,20.50739],[58.48212,20.51008],[58.48917,20.50448],[58.50062,20.50181],[58.49921,20.49641],[58.49264,20.49596],[58.49503,20.48834],[58.49283,20.48707],[58.49635,20.48395],[58.50699,20.49583],[58.50976,20.51383],[58.50535,20.52442],[58.50881,20.52877],[58.51295,20.53221],[58.51922,20.53113],[58.52448,20.52374],[58.51909,20.51774],[58.52399,20.51615],[58.52422,20.51113],[58.53037,20.51185],[58.5293,20.51443],[58.53522,20.51863],[58.53447,20.5252],[58.53692,20.52415],[58.54071,20.53493],[58.54401,20.53618],[58.54202,20.5429],[58.54677,20.55264],[58.54913,20.55674],[58.55171,20.55465],[58.5545,20.56029],[58.55626,20.55873],[58.55649,20.5541],[58.55165,20.54886],[58.55272,20.54641],[58.55806,20.5479],[58.55652,20.54354],[58.54096,20.51819],[58.53708,20.49917],[58.53792,20.48732],[58.54091,20.48652],[58.53971,20.47546],[58.53419,20.46959],[58.5315,20.46034],[58.53323,20.4557],[58.52747,20.42537],[58.52143,20.42233],[58.51697,20.4131],[58.51052,20.41058],[58.50428,20.40008],[58.49362,20.39927],[58.48869,20.39738],[58.4859,20.39174],[58.47743,20.39078],[58.47528,20.3805],[58.46802,20.37799],[58.44429,20.35089],[58.43473,20.35033],[58.40418,20.35277],[58.39172,20.36419],[58.37105,20.37363],[58.36967,20.37209],[58.37973,20.36673],[58.35608,20.37902],[58.32005,20.37981],[58.27982,20.36891],[58.27193,20.37257],[58.29158,20.37153],[58.30391,20.37672],[58.3064,20.3812],[58.28504,20.37338],[58.23222,20.39243],[58.21122,20.39567],[58.19861,20.4076],[58.19729,20.41327],[58.20141,20.41685],[58.19811,20.43155],[58.20771,20.43612],[58.20982,20.4446],[58.21865,20.45561],[58.21842,20.4605],[58.2206,20.46023],[58.22013,20.45277],[58.21325,20.44638],[58.21232,20.43119],[58.20766,20.42942],[58.218,20.42407],[58.22323,20.42957],[58.2292,20.42489],[58.23033,20.42991],[58.23604,20.42678],[58.23838,20.42843],[58.23582,20.43347],[58.23957,20.44053],[58.23205,20.43994],[58.22926,20.43236],[58.22834,20.437],[58.22248,20.43885],[58.2228,20.44438],[58.22809,20.43984],[58.22712,20.47306],[58.24516,20.50743],[58.24622,20.52056],[58.24867,20.51925],[58.24839,20.50097],[58.24346,20.49972],[58.24129,20.48506],[58.2469,20.48618],[58.24724,20.49403],[58.26036,20.49432],[58.26312,20.49829],[58.26289,20.50293],[58.25961,20.50244],[58.26157,20.50912],[58.25419,20.5084],[58.25409,20.51278],[58.26728,20.53804],[58.27631,20.53926],[58.27528,20.54661],[58.27884,20.54736],[58.28222,20.56046],[58.28621,20.56352],[58.28338,20.58466],[58.27278,20.59246],[58.26827,20.59249],[58.27615,20.58548],[58.27584,20.58162],[58.27009,20.58128],[58.26907,20.58914],[58.25655,20.59657],[58.229,20.60488],[58.23058,20.61465],[58.22338,20.62024],[58.22777,20.62175],[58.23193,20.62958],[58.21523,20.62789],[58.19877,20.62105],[58.19325,20.61414],[58.18806,20.61546],[58.18959,20.65382],[58.18646,20.65616],[58.1703,20.65395],[58.16568,20.65784],[58.16465,20.66532],[58.15945,20.66612],[58.15785,20.67154],[58.15375,20.67157],[58.15159,20.6757],[58.14961,20.66722],[58.13106,20.65627],[58.13472,20.65097],[58.12236,20.64397],[58.11875,20.63704],[58.10998,20.63426],[58.10373,20.64074],[58.10179,20.63638],[58.09058,20.63774],[58.08836,20.63363],[58.09574,20.63255],[58.0949,20.62998],[58.08806,20.62951],[58.0743,20.61801],[58.07317,20.61209],[58.0775,20.60537],[58.07308,20.59999],[58.0759,20.59225],[58.07263,20.5745],[58.07556,20.56238],[58.07261,20.55236],[58.07547,20.5508],[58.07493,20.53226],[58.07711,20.53044],[58.07137,20.51143],[58.07383,20.51064],[58.06651,20.49987],[58.0692,20.49316],[58.06667,20.46382],[58.06226,20.45818],[58.05213,20.45489],[58.04854,20.44925],[57.99543,20.43295],[57.95676,20.40806],[57.94393,20.38728],[57.94249,20.37389],[57.9454,20.3592],[57.95257,20.34783],[57.97439,20.34539],[57.96057,20.31688],[57.95425,20.31035],[57.87676,20.26737],[57.85015,20.24252],[57.8439,20.22246],[57.82429,20.20144],[57.81526,20.17006],[57.8163,20.15976],[57.81973,20.13863],[57.82638,20.1319],[57.83292,20.13238],[57.83465,20.12362],[57.83263,20.1038],[57.81877,20.05957],[57.82335,20.04951],[57.81007,20.00888],[57.8113,19.98312],[57.79126,19.95205],[57.78705,19.92683],[57.76727,19.89086],[57.76752,19.88674],[57.77159,19.88415],[57.76909,19.87386],[57.75257,19.83478],[57.73985,19.81939],[57.73871,19.8096],[57.74115,19.80728],[57.73813,19.80059],[57.69165,19.75056],[57.6822,19.73334],[57.67777,19.71636],[57.68039,19.69137],[57.67808,19.69125],[57.67776,19.68005],[57.6802,19.67952],[57.68179,19.66986],[57.68804,19.66983],[57.68398,19.67358],[57.68254,19.68724],[57.69158,19.66905],[57.69728,19.66671],[57.70734,19.66873],[57.71437,19.65891],[57.72376,19.66081],[57.72122,19.63996],[57.7119,19.62222],[57.71535,19.60418],[57.69853,19.54862],[57.69735,19.52751],[57.70393,19.50894],[57.70962,19.50647],[57.72178,19.49084],[57.72684,19.46906],[57.73226,19.46607],[57.741,19.44955],[57.74777,19.44541],[57.7488,19.43252],[57.75608,19.42193],[57.7614,19.3977],[57.75989,19.36449],[57.74506,19.32617],[57.74116,19.30352],[57.74148,19.25485],[57.7449,19.23217],[57.75272,19.22235],[57.75428,19.20766],[57.76593,19.17619],[57.77348,19.16689],[57.79368,19.16886],[57.80364,19.15594],[57.79588,19.12018],[57.79648,19.07485],[57.80334,19.06413],[57.81254,19.06267],[57.81763,19.02427],[57.82852,19.008],[57.84162,19.00253],[57.83794,18.9974],[57.81702,18.98204],[57.81188,18.98245],[57.80817,18.97255],[57.80125,18.96884],[57.78474,18.96968],[57.73761,18.96241],[57.72347,18.94869],[57.70476,18.94039],[57.68228,18.93764],[57.51826,18.93894],[57.42189,18.93558],[57.30439,18.92242],[57.25377,18.91219],[57.03264,18.85543],[56.86792,18.79048],[56.8363,18.77294],[56.79604,18.74495],[56.76607,18.71839],[56.74745,18.69415],[56.69943,18.64308],[56.68433,18.62219],[56.6447,18.58426],[56.63433,18.5693],[56.62844,18.54481],[56.63329,18.54766],[56.64162,18.57111],[56.64096,18.56235],[56.62605,18.5242],[56.63311,18.44411],[56.61026,18.40182],[56.6067,18.36626],[56.60838,18.34154],[56.6018,18.32865],[56.60304,18.31809],[56.59957,18.29953],[56.58936,18.28328],[56.58602,18.26988],[56.55943,18.22938],[56.54807,18.19149],[56.54877,18.18479],[56.54407,18.17834],[56.54938,18.15569],[56.55134,18.12684],[56.52604,18.11609],[56.51129,18.09558],[56.48008,18.08133],[56.43708,18.05184],[56.42972,18.03894],[56.43112,18.0222],[56.42644,18.01266],[56.38483,17.97801],[56.37353,17.97514],[56.35502,17.96014],[56.35118,17.94158],[56.35578,17.93464],[56.35582,17.9246],[56.35113,17.91904],[56.32542,17.91739],[56.28006,17.92794],[56.27977,17.9318],[56.27627,17.93295],[56.21273,17.9394],[56.17209,17.94051],[56.16268,17.9388],[56.15519,17.93053],[56.14659,17.9274],[56.11431,17.92661],[56.10787,17.92117],[56.0341,17.93061],[55.97787,17.92993],[55.97466,17.92631],[55.94351,17.91584],[55.93147,17.90393],[55.91913,17.89845],[55.91107,17.89647],[55.90702,17.89915],[55.90516,17.8958],[55.89172,17.89353],[55.86668,17.89609],[55.8532,17.90078],[55.84219,17.89788],[55.80477,17.90229],[55.75231,17.90222],[55.65394,17.89023],[55.58572,17.87713],[55.51328,17.8565],[55.42435,17.81576],[55.41351,17.78039],[55.41735,17.77166],[55.41436,17.76005],[55.39297,17.74777],[55.38131,17.72965],[55.38,17.71007],[55.38613,17.70136],[55.37711,17.68777],[55.37838,17.68172],[55.35604,17.6715],[55.355,17.66737],[55.34271,17.6598],[55.31809,17.6498],[55.31827,17.64491],[55.31147,17.64047],[55.3107,17.6366],[55.30293,17.63448],[55.30285,17.6283],[55.26348,17.60298],[55.25817,17.59701],[55.25988,17.58685],[55.2393,17.56259],[55.22604,17.52967],[55.22566,17.50221],[55.22958,17.4989],[55.23133,17.4711],[55.23571,17.46161],[55.24938,17.44937],[55.27286,17.44855],[55.28223,17.43678],[55.28476,17.42444],[55.29755,17.40472],[55.29788,17.39803],[55.30433,17.39667],[55.29758,17.38747],[55.29994,17.37873],[55.29567,17.37587],[55.29599,17.37097],[55.2933,17.37095],[55.29383,17.35757],[55.2884,17.35082],[55.28064,17.34818],[55.28257,17.34279],[55.27937,17.34096],[55.27895,17.3286],[55.26725,17.31794],[55.26183,17.29613],[55.24821,17.29047],[55.24257,17.27755],[55.2416,17.26621],[55.24604,17.26509],[55.24703,17.25879],[55.26355,17.2409],[55.26237,17.23806],[55.25374,17.22923],[55.2526,17.22253],[55.24035,17.21444],[55.23323,17.20253],[55.21349,17.1936],[55.20845,17.18789],[55.20484,17.17369],[55.19632,17.16795],[55.19357,17.16175],[55.19602,17.144],[55.1907,17.13983],[55.1856,17.14133],[55.16047,17.1366],[55.14314,17.12807],[55.13369,17.10944],[55.12625,17.10345],[55.12446,17.09468],[55.12125,17.09491],[55.11654,17.0843],[55.11146,17.08348],[55.10648,17.07262],[55.09929,17.06921],[55.09802,17.06224],[55.08946,17.06088],[55.08399,17.04692],[55.07543,17.04632],[55.07096,17.03804],[55.06585,17.04005],[55.06297,17.03384],[55.04937,17.02882],[55.04677,17.02184],[55.04248,17.02296],[55.04064,17.01921],[55.03077,17.01641],[55.02975,17.01138],[55.02128,17.0028],[55.02089,17.01387],[55.0163,17.01769],[55.00502,17.02105],[54.99165,17.02002],[54.98253,16.99727],[54.97722,16.99297],[54.96999,16.99354],[54.96871,16.98864],[54.95857,16.98544],[54.94355,16.98916],[54.94298,16.97962],[54.92978,16.9755],[54.91545,16.98913],[54.91265,16.98807],[54.91238,16.97648],[54.90627,16.97255],[54.90593,16.96689],[54.89701,16.96345],[54.89416,16.96651],[54.89112,16.9639],[54.88842,16.96555],[54.88685,16.96283],[54.87678,16.96581],[54.87111,16.9588],[54.8625,16.96373],[54.82668,16.96014],[54.82564,16.95742],[54.81683,16.95578],[54.81745,16.94897],[54.81347,16.94583],[54.80464,16.94587],[54.80016,16.94003],[54.78396,16.9535],[54.77405,16.95416],[54.76557,16.94737],[54.76565,16.95175],[54.75798,16.95579],[54.75632,16.96066],[54.7401,16.95199],[54.73057,16.95471],[54.72956,16.96075],[54.72115,16.95976],[54.71933,16.96617],[54.6955,16.96771],[54.69691,16.97313],[54.68659,16.97481],[54.68304,16.98044],[54.6908,16.99108],[54.68402,17.00954],[54.6649,17.01949],[54.62574,17.02702],[54.58345,17.02742],[54.52638,17.03317],[54.45285,17.0311],[54.44245,17.0266],[54.43972,17.03055],[54.43362,17.027],[54.42633,17.0318],[54.40838,17.0335],[54.32921,17.03106],[54.28032,17.02617],[54.04868,16.99089],[54.02471,16.98437],[54.00237,16.96822],[53.9964,16.95305],[53.99896,16.94632],[54.00412,16.95074],[54.01099,16.9475],[53.99903,16.9422],[54.00074,16.93628],[54.00697,16.93933],[54.01025,16.93488],[54.00446,16.929],[53.99187,16.92906],[53.98083,16.92394],[53.97558,16.91295],[53.96508,16.90822],[53.96299,16.91159],[53.95067,16.90984],[53.94716,16.90796],[53.94461,16.89809],[53.9195,16.89974],[53.90231,16.89445],[53.88551,16.89687],[53.86944,16.89491],[53.86108,16.88975],[53.84391,16.88613],[53.82549,16.88729],[53.77699,16.87972],[53.76275,16.87476],[53.75226,16.87027],[53.75163,16.86384],[53.72915,16.8433],[53.71243,16.83296],[53.70967,16.82669],[53.70029,16.82463],[53.69107,16.81536],[53.68251,16.81482],[53.67339,16.80259],[53.67086,16.79361],[53.67431,16.7825],[53.62304,16.76578],[53.61978,16.76158],[53.61044,16.76208],[53.59084,16.75538],[53.58622,16.74939],[53.55026,16.75743],[53.53634,16.75554],[53.53185,16.7592],[53.51131,16.76203],[53.48563,16.76002],[53.45883,16.75339],[53.45163,16.75451],[53.44029,16.74576],[53.43792,16.74811],[53.41409,16.7444],[53.40789,16.74009],[53.38944,16.73876],[53.38324,16.73484],[53.37204,16.73613],[53.33509,16.7296],[53.3144,16.72031],[53.29301,16.71887],[53.26863,16.71283],[53.25543,16.70397],[53.19384,16.69124],[53.17581,16.67985],[53.15597,16.67375],[53.15083,16.66762],[53.12967,16.66217],[53.10885,16.65055],[52.81228,17.28553],[52.74583,17.29444],[52.74264,17.30193],[52.75139,17.30417],[52.78218,17.34973],[52,19],[53.51337,19.51222],[55,20],[55.33682,21.01751],[55.66667,22],[55.20833,22.70833],[55.21335,22.70577],[55.22072,22.76491],[55.22809,22.79153],[55.22367,22.81726],[55.22657,22.82512],[55.22194,22.83268],[55.21822,22.85099],[55.22325,22.85928],[55.22564,22.8849],[55.21538,22.90957],[55.21364,22.93556],[55.21877,22.952],[55.22002,22.97834],[55.21729,22.98612],[55.22051,22.99452],[55.21658,23.02624],[55.2185,23.03329],[55.23012,23.04791],[55.22563,23.07241],[55.23144,23.08532],[55.23099,23.10349],[55.23648,23.11904],[55.28038,23.17696],[55.29908,23.2069],[55.40167,23.39231],[55.4164,23.38198],[55.43068,23.39941],[55.43689,23.41167],[55.44721,23.45593],[55.49828,23.53338],[55.52341,23.55485],[55.53494,23.5793],[55.56537,23.61483],[55.57158,23.62613],[55.57216,23.70359],[55.56873,23.72138],[55.56013,23.7341],[55.53184,23.75949],[55.5359,23.77124],[55.53179,23.80741],[55.53518,23.84328],[55.53315,23.85212],[55.51962,23.88568],[55.50023,23.90584],[55.49854,23.92378],[55.48486,23.93999],[55.48512,23.94432],[55.49478,23.95322],[55.57461,23.98745],[55.58516,23.99638],[55.63336,24.02014],[55.67954,24.03559],[55.73053,24.05723],[55.74311,24.05718],[55.75835,24.05131],[55.78017,24.05529],[55.80186,24.02501],[55.81976,24.02085],[55.83374,24.01375],[55.84293,24.02065],[55.85487,24.02199],[55.90404,24.04677],[55.95987,24.06053],[56.01813,24.06603],[56.01493,24.0899],[56.00027,24.1177],[55.97524,24.14618],[55.96128,24.17031],[55.97227,24.18509],[55.96329,24.21738],[55.95119,24.21407],[55.95525,24.22323],[55.87076,24.21548],[55.85342,24.21131],[55.83341,24.20135],[55.8082,24.21215],[55.77683,24.23486],[55.76567,24.23227],[55.753,24.23488],[55.75947,24.26107],[55.76793,24.26218],[55.7916,24.27935],[55.80798,24.31042],[55.83442,24.32743],[55.8347,24.41001],[55.82788,24.41],[55.82093,24.44027],[55.78575,24.48619],[55.76534,24.52963],[55.76807,24.57239],[55.81683,24.61526],[55.79426,24.63687],[55.83712,24.67091],[55.82795,24.72143],[55.83212,24.78016],[55.82241,24.78967],[55.82023,24.79975],[55.81525,24.79942],[55.81286,24.9107],[55.85162,24.96553],[55.9111,24.9653],[55.96114,25.00563],[56.00677,24.99442],[56.0301,24.97335],[56.04594,24.96813],[56.04156,24.94687],[56.06344,24.94778],[56.04076,24.90886],[56.04193,24.88873],[56.05112,24.87642],[56.06176,24.871],[55.97975,24.89504],[55.97795,24.87772],[55.99638,24.85968],[56.03616,24.81075],[56.0811,24.74334],[56.11273,24.73821],[56.20128,24.78435],[56.20591,24.85025],[56.25921,24.85993],[56.28073,24.875],[56.28068,24.88418],[56.30544,24.8842],[56.32609,24.89816],[56.35012,24.93391],[56.34126,24.94202],[56.32374,24.97213],[56.34339,24.97182],[56.35123,24.97624],[56.37461,24.98042],[56.39165,24.92252],[56.41206,24.87293],[56.41731,24.86728],[56.42589,24.84261],[56.43936,24.82567],[56.455,24.79768],[56.47728,24.72723],[56.4689,24.74342],[56.47945,24.7154],[56.47564,24.71538],[56.47636,24.71281],[56.47974,24.71257],[56.48155,24.71721],[56.54084,24.6093],[56.56306,24.57539],[56.60956,24.51219],[56.61434,24.51015],[56.62635,24.49345],[56.63366,24.49565],[56.62622,24.49061],[56.63173,24.48085],[56.63694,24.47983],[56.64161,24.4698],[56.69459,24.42281],[56.70839,24.41216],[56.71993,24.40768],[56.82892,24.25365],[56.86209,24.21198],[56.87164,24.20401],[56.90452,24.1541],[56.93371,24.12091],[56.99962,24.0648],[57.03241,24.04498],[57.06127,24.02039],[57.07864,24.00995],[57.0988,23.98883],[57.13072,23.96333],[57.1769,23.93702],[57.2519,23.90718],[57.37527,23.86793],[57.47678,23.84127],[57.51423,23.8275],[57.5215,23.82684],[57.52488,23.83133],[57.52951,23.83131],[57.52488,23.83081],[57.52122,23.82529],[57.52849,23.82217],[57.53115,23.82474],[57.52928,23.82861],[57.53462,23.81945],[57.54803,23.81336],[57.58797,23.79751],[57.64859,23.77989],[57.70951,23.76984],[57.74334,23.76788],[57.76882,23.77239],[57.79168,23.78244],[57.79195,23.75799],[57.79521,23.75806],[57.79535,23.76595],[57.81257,23.74552],[57.86997,23.71484],[57.92388,23.70796],[58.03463,23.71421],[58.09305,23.71278],[58.14995,23.69859],[58.1934,23.68166],[58.24362,23.64279],[58.26862,23.62766],[58.29643,23.61546],[58.326,23.6077],[58.39575,23.60353],[58.4391,23.6088],[58.48175,23.62654],[58.48097,23.63195],[58.48602,23.63371],[58.48493,23.63629],[58.48857,23.63664],[58.49369,23.64431],[58.49561,23.64185],[58.49984,23.64541],[58.50679,23.64174],[58.51033,23.63399],[58.52035,23.63067],[58.56315,23.63578],[58.56739,23.62853],[58.56381,23.62072],[58.57555,23.62188],[58.58007,23.62583],[58.58337,23.62129],[58.58494,23.62423],[58.59907,23.61508],[58.60196,23.61145],[58.60026,23.60915],[58.60472,23.60885],[58.59987,23.59989],[58.60093,23.59524],[58.60439,23.59315],[58.60499,23.58491],[58.61403,23.5704],[58.62655,23.56667],[58.62956,23.56226],[58.63573,23.56387],[58.64206,23.55698],[58.6471,23.55822],[58.643,23.55363],[58.64868,23.55022],[58.65029,23.54493],[58.65674,23.54756],[58.65961,23.55371],[58.66721,23.54771],[58.66675,23.54437],[58.6709,23.54136],[58.66438,23.53384],[58.67,23.53674],[58.68389,23.5317],[58.71407,23.53433],[58.72381,23.53165],[58.71977,23.52153],[58.72502,23.51787],[58.72409,23.51003],[58.73157,23.50583],[58.73152,23.51329],[58.72755,23.51887],[58.73484,23.52162],[58.73536,23.5184],[58.74648,23.51544],[58.74992,23.52235],[58.75411,23.52256],[58.75589,23.52022],[58.75316,23.51382],[58.76385,23.50958],[58.75686,23.50863],[58.76355,23.49775],[58.76663,23.49849],[58.77046,23.49317],[58.76916,23.48919],[58.77512,23.48629],[58.77945,23.47646],[58.77739,23.46877],[58.78541,23.42184],[58.79808,23.41037],[58.8062,23.392],[58.84661,23.37069],[58.85259,23.35955],[58.86665,23.3487],[58.87525,23.3459],[58.89061,23.32847],[58.91142,23.32178],[58.91498,23.31724],[58.91374,23.30889],[58.91842,23.30497],[58.9182,23.28928],[58.92493,23.27298],[58.92526,23.25728],[58.92998,23.25619],[58.94007,23.24114],[58.95956,23.23189],[58.99144,23.20318],[58.99198,23.19275],[58.99434,23.19234],[58.99066,23.16948],[58.99839,23.14622],[59.02053,23.11043],[59.05521,23.08579],[59.06827,23.04831],[59.1025,23.0144],[59.15452,22.98167],[59.186,22.96927],[59.20373,22.9487],[59.22538,22.89864]]],[[[59.72826,22.51632],[59.73002,22.52118],[59.73218,22.51857],[59.72826,22.51632]]],[[[58.8384,20.59715],[58.84643,20.60569],[58.85275,20.60871],[58.85655,20.60636],[58.86731,20.61435],[58.8636,20.63524],[58.87535,20.66806],[58.8767,20.67783],[58.87289,20.69023],[58.88883,20.69649],[58.9123,20.69186],[58.91528,20.67818],[58.90179,20.62787],[58.90189,20.61346],[58.91291,20.58708],[58.93856,20.57289],[58.93596,20.56185],[58.93762,20.54176],[58.94602,20.52544],[58.96246,20.51779],[58.94756,20.49582],[58.90914,20.48222],[58.90467,20.4739],[58.8742,20.46136],[58.8435,20.4411],[58.84203,20.43288],[58.82454,20.41993],[58.81933,20.40634],[58.8214,20.3968],[58.81689,20.385],[58.79887,20.36073],[58.80181,20.35607],[58.79524,20.33013],[58.79761,20.32316],[58.77797,20.29967],[58.77899,20.28164],[58.78321,20.28057],[58.78289,20.27645],[58.76903,20.26964],[58.76609,20.26324],[58.75748,20.26165],[58.75333,20.2559],[58.73961,20.24883],[58.73596,20.23934],[58.72837,20.23169],[58.72396,20.21551],[58.7086,20.20742],[58.70747,20.20319],[58.66857,20.18734],[58.66753,20.1795],[58.65829,20.1689],[58.63767,20.16588],[58.63456,20.18135],[58.63011,20.18603],[58.635,20.19731],[58.63061,20.20765],[58.63512,20.20864],[58.63371,20.21766],[58.62724,20.2248],[58.62933,20.22903],[58.62602,20.23885],[58.62938,20.2468],[58.62537,20.25456],[58.62773,20.2584],[58.62401,20.26847],[58.62971,20.2782],[58.62711,20.29097],[58.63066,20.29081],[58.63303,20.29645],[58.63368,20.34536],[58.63888,20.3466],[58.64447,20.35813],[58.65106,20.36193],[58.65223,20.36913],[58.65772,20.37217],[58.65916,20.37885],[58.6836,20.39226],[58.68652,20.40974],[58.69888,20.4158],[58.70558,20.42899],[58.71815,20.43002],[58.7257,20.42132],[58.73638,20.42379],[58.74563,20.42113],[58.75303,20.42298],[58.75748,20.4304],[58.76734,20.43288],[58.77468,20.44181],[58.77664,20.45814],[58.78509,20.46797],[58.78204,20.48756],[58.78483,20.4932],[58.78597,20.52022],[58.80642,20.55193],[58.81332,20.557],[58.8201,20.57547],[58.8384,20.59715]]],[[[58.74347,20.44754],[58.74093,20.4522],[58.74226,20.46145],[58.74639,20.46398],[58.75011,20.47862],[58.75256,20.46598],[58.75784,20.46207],[58.75393,20.45438],[58.74347,20.44754]]],[[[58.74427,23.51688],[58.74519,23.52343],[58.74782,23.52134],[58.74427,23.51688]]],[[[58.74065,20.8],[58.73618,20.80467],[58.73799,20.80697],[58.74065,20.8]]],[[[58.73068,23.52321],[58.72497,23.52469],[58.72603,23.53085],[58.73968,23.52864],[58.73822,23.52351],[58.73068,23.52321]]],[[[58.72406,20.80982],[58.72176,20.81254],[58.72554,20.81946],[58.7324,20.82093],[58.73527,20.83223],[58.73758,20.83066],[58.73705,20.82037],[58.72406,20.80982]]],[[[58.72134,20.76299],[58.71863,20.76572],[58.7217,20.77071],[58.72134,20.76299]]],[[[58.70009,20.69859],[58.69691,20.70801],[58.70487,20.71051],[58.7041,20.70254],[58.70009,20.69859]]],[[[58.68364,20.79464],[58.6859,20.80054],[58.6925,20.80279],[58.69079,20.79753],[58.68364,20.79464]]],[[[58.67666,20.70795],[58.68137,20.7128],[58.68465,20.71251],[58.67666,20.70795]]],[[[58.67091,20.70685],[58.6696,20.7124],[58.67207,20.71289],[58.67091,20.70685]]],[[[58.66885,20.7684],[58.66917,20.77342],[58.67205,20.77365],[58.66885,20.7684]]],[[[58.66449,20.77063],[58.66535,20.77448],[58.66834,20.77265],[58.66449,20.77063]]],[[[58.6511,20.69739],[58.65102,20.70202],[58.64675,20.69923],[58.64252,20.70056],[58.64755,20.71004],[58.6553,20.70559],[58.65835,20.70916],[58.66202,20.70784],[58.65884,20.70401],[58.66321,20.70384],[58.66319,20.70152],[58.6511,20.69739]]],[[[58.65046,20.7642],[58.65217,20.76998],[58.65792,20.77069],[58.65046,20.7642]]],[[[58.65303,20.7737],[58.65223,20.77616],[58.65663,20.77792],[58.65303,20.7737]]],[[[58.64913,20.76769],[58.64628,20.77003],[58.64754,20.77285],[58.64973,20.77258],[58.64913,20.76769]]],[[[58.62757,20.69658],[58.61912,20.69949],[58.61807,20.70362],[58.62203,20.70333],[58.62048,20.71184],[58.62579,20.70999],[58.63185,20.71328],[58.63315,20.70657],[58.63813,20.71206],[58.63634,20.69856],[58.62757,20.69658]]],[[[58.61227,20.6733],[58.60724,20.67566],[58.61291,20.68205],[58.60929,20.67564],[58.61227,20.6733]]],[[[58.60007,20.65771],[58.60452,20.6641],[58.6053,20.66075],[58.60007,20.65771]]],[[[58.58498,20.62618],[58.5818,20.63625],[58.58535,20.63622],[58.58513,20.64111],[58.59037,20.64518],[58.58961,20.65124],[58.5973,20.65387],[58.59614,20.64745],[58.59832,20.64743],[58.60427,20.65381],[58.58498,20.62618]]],[[[58.60064,23.6179],[58.59736,23.62346],[58.59989,23.62511],[58.60064,23.6179]]],[[[58.595,20.66934],[58.59476,20.6732],[58.59775,20.6706],[58.595,20.66934]]],[[[58.59658,20.66392],[58.59388,20.66678],[58.59716,20.66636],[58.59658,20.66392]]],[[[58.59517,20.65917],[58.59027,20.66166],[58.59192,20.66319],[58.59517,20.65917]]],[[[58.5674,20.56507],[58.5713,20.57301],[58.57116,20.58563],[58.58141,20.59841],[58.57236,20.58279],[58.57169,20.57043],[58.5674,20.56507]]],[[[58.57487,20.62756],[58.57684,20.63256],[58.57888,20.63139],[58.57487,20.62756]]],[[[58.57528,20.61378],[58.57287,20.61857],[58.57546,20.61829],[58.57528,20.61378]]],[[[58.5658,20.59572],[58.5694,20.60045],[58.57226,20.59952],[58.5658,20.59572]]],[[[58.55863,20.56309],[58.55319,20.56597],[58.55947,20.56565],[58.55863,20.56309]]],[[[58.55561,20.61564],[58.55512,20.62105],[58.55797,20.61896],[58.55561,20.61564]]],[[[58.55263,20.6454],[58.55269,20.65145],[58.55625,20.65219],[58.55263,20.6454]]],[[[58.54793,20.61326],[58.54632,20.61701],[58.54906,20.61698],[58.54793,20.61326]]],[[[58.53789,20.59365],[58.53603,20.59908],[58.53849,20.59957],[58.53789,20.59365]]],[[[58.52989,20.53232],[58.52912,20.53696],[58.53186,20.53797],[58.53348,20.53602],[58.52989,20.53232]]],[[[58.52383,20.55529],[58.52043,20.55699],[58.52633,20.55938],[58.52383,20.55529]]],[[[58.50434,20.54657],[58.50466,20.55082],[58.50848,20.55014],[58.50434,20.54657]]],[[[58.49938,23.67836],[58.50041,23.68247],[58.50332,23.68064],[58.49938,23.67836]]],[[[58.26567,20.54217],[58.26448,20.54695],[58.26701,20.55568],[58.26567,20.54217]]],[[[58.25994,20.54299],[58.25853,20.55446],[58.26171,20.55855],[58.25994,20.54299]]],[[[58.17455,20.56522],[58.16993,20.56924],[58.17431,20.56947],[58.17488,20.57294],[58.16874,20.57517],[58.17136,20.57734],[58.17573,20.57692],[58.17455,20.56522]]],[[[58.13722,20.58285],[58.13465,20.58698],[58.13895,20.59519],[58.13722,20.58285]]],[[[58.11391,20.57308],[58.11693,20.57512],[58.12459,20.57546],[58.11391,20.57308]]],[[[58.10221,23.8576],[58.09597,23.86115],[58.10114,23.86034],[58.10221,23.8576]]],[[[58.0707,23.85218],[58.06458,23.85557],[58.0685,23.85658],[58.0707,23.85218]]],[[[57.79994,23.78459],[57.79548,23.78731],[57.80136,23.7878],[57.79994,23.78459]]],[[[56.51629,26.35826],[56.51201,26.35927],[56.51256,26.36236],[56.52197,26.36677],[56.52305,26.38376],[56.52646,26.38673],[56.53522,26.37634],[56.53369,26.36655],[56.53853,26.36953],[56.5404,26.36683],[56.53741,26.36399],[56.52484,26.36356],[56.51629,26.35826]]],[[[56.26634,25.60643],[56.25334,25.60229],[56.20296,25.61915],[56.17748,25.61771],[56.15861,25.68935],[56.1677,25.72565],[56.15673,25.76104],[56.15489,25.79734],[56.14139,25.8126],[56.14157,25.82787],[56.15266,25.84803],[56.16298,25.85795],[56.1642,25.86501],[56.15978,25.87551],[56.17843,25.89317],[56.17958,25.9172],[56.17313,25.91886],[56.1729,25.92847],[56.16547,25.93965],[56.16592,25.94775],[56.17068,25.94679],[56.18034,25.95347],[56.19153,25.97198],[56.18873,25.98331],[56.18038,25.99537],[56.18218,26.01909],[56.17179,26.02359],[56.15605,26.0674],[56.15342,26.06939],[56.14201,26.06698],[56.13316,26.05596],[56.12827,26.05672],[56.12203,26.05087],[56.11657,26.05059],[56.10706,26.05566],[56.08667,26.05054],[56.08954,26.06695],[56.09887,26.0755],[56.1008,26.08452],[56.11603,26.10584],[56.12453,26.11169],[56.14111,26.14524],[56.14508,26.14758],[56.14824,26.14464],[56.15393,26.14544],[56.16753,26.15826],[56.17511,26.17426],[56.17834,26.20284],[56.1837,26.21136],[56.18727,26.23042],[56.19382,26.23278],[56.19662,26.24064],[56.20487,26.2439],[56.20484,26.24854],[56.21065,26.25449],[56.21865,26.25299],[56.21861,26.23703],[56.21451,26.23238],[56.21894,26.23137],[56.22445,26.21751],[56.22065,26.20977],[56.22396,26.20567],[56.22114,26.19973],[56.22288,26.19562],[56.22757,26.19925],[56.23076,26.21239],[56.23503,26.21422],[56.24361,26.21015],[56.24621,26.2054],[56.2542,26.20505],[56.26211,26.2168],[56.26525,26.21746],[56.26841,26.21336],[56.27268,26.21493],[56.27228,26.21029],[56.27643,26.20877],[56.27867,26.21483],[56.28736,26.21757],[56.28391,26.19826],[56.29112,26.20807],[56.2937,26.20603],[56.29323,26.18955],[56.29912,26.18289],[56.31181,26.18295],[56.31192,26.18784],[56.30537,26.18678],[56.30349,26.19038],[56.30648,26.19193],[56.32706,26.18508],[56.32774,26.19049],[56.33217,26.18948],[56.33272,26.1918],[56.33529,26.19156],[56.33735,26.18101],[56.34448,26.18053],[56.35014,26.18905],[56.34925,26.19406],[56.35381,26.19499],[56.35151,26.19858],[56.36059,26.20685],[56.36902,26.2038],[56.37884,26.20796],[56.39112,26.20673],[56.39201,26.20056],[56.40087,26.19609],[56.40756,26.19856],[56.40338,26.20691],[56.41538,26.20426],[56.41535,26.2103],[56.40562,26.21644],[56.41159,26.21994],[56.41227,26.2274],[56.40211,26.23289],[56.39143,26.22938],[56.39466,26.23865],[56.39093,26.24185],[56.38199,26.23397],[56.38123,26.24181],[56.37626,26.23729],[56.37433,26.22596],[56.36871,26.23558],[56.36443,26.23492],[56.36049,26.22538],[56.3555,26.22536],[56.3524,26.2184],[56.347,26.21528],[56.34042,26.21757],[56.33889,26.20997],[56.32682,26.20207],[56.30929,26.19941],[56.30454,26.20634],[56.30636,26.21226],[56.30247,26.21791],[56.30257,26.22563],[56.30538,26.23285],[56.31216,26.24433],[56.31418,26.24074],[56.31732,26.24127],[56.32,26.24604],[56.31423,26.25708],[56.31835,26.25993],[56.31475,26.26531],[56.32062,26.28619],[56.3275,26.2821],[56.32852,26.27773],[56.33738,26.27649],[56.34028,26.26852],[56.34828,26.26598],[56.34579,26.25311],[56.35694,26.2493],[56.36349,26.25139],[56.36722,26.24818],[56.37658,26.25839],[56.37513,26.2625],[56.36369,26.26708],[56.36893,26.2738],[56.36763,26.27662],[56.35993,26.27633],[56.35876,26.28031],[56.34922,26.2768],[56.34859,26.2876],[56.3416,26.28744],[56.33583,26.29694],[56.32394,26.30396],[56.33686,26.31663],[56.34233,26.3097],[56.34859,26.31333],[56.35169,26.31978],[56.35685,26.31672],[56.35659,26.3126],[56.36342,26.31597],[56.36619,26.33168],[56.36046,26.33526],[56.36895,26.34971],[56.3711,26.37391],[56.37763,26.38294],[56.37128,26.3667],[56.37943,26.36519],[56.38096,26.37292],[56.38766,26.37578],[56.38518,26.35879],[56.39317,26.36088],[56.39598,26.3699],[56.3987,26.36914],[56.39635,26.35394],[56.40348,26.35616],[56.41197,26.37164],[56.41758,26.36355],[56.41688,26.35956],[56.40961,26.35786],[56.41124,26.34603],[56.40798,26.34113],[56.41471,26.33781],[56.43049,26.351],[56.43624,26.34484],[56.4396,26.32762],[56.45202,26.32792],[56.45499,26.33411],[56.4607,26.33516],[56.45877,26.32126],[56.47019,26.32156],[56.47274,26.32543],[56.4899,26.32021],[56.49645,26.32345],[56.49957,26.32835],[56.49168,26.33579],[56.49266,26.34171],[56.48237,26.34347],[56.47491,26.35168],[56.49692,26.34636],[56.49576,26.35034],[56.50345,26.35693],[56.50702,26.35566],[56.50306,26.34586],[56.50855,26.33173],[56.50445,26.32168],[56.51759,26.32237],[56.52146,26.31813],[56.51478,26.30975],[56.50478,26.31254],[56.49737,26.30982],[56.49904,26.3187],[56.48106,26.31619],[56.46849,26.31833],[56.45638,26.3125],[56.45029,26.30282],[56.44882,26.31157],[56.44227,26.30833],[56.43612,26.30959],[56.43357,26.30495],[56.42371,26.30812],[56.42403,26.30079],[56.42933,26.29618],[56.43209,26.28731],[56.42381,26.28805],[56.41921,26.29344],[56.41009,26.2907],[56.40982,26.28761],[56.40153,26.29079],[56.39544,26.28137],[56.39788,26.27817],[56.40244,26.2796],[56.40447,26.27395],[56.41048,26.27037],[56.41051,26.26432],[56.40109,26.26403],[56.39484,26.25898],[56.41033,26.24284],[56.42173,26.24713],[56.42473,26.2447],[56.42466,26.23093],[56.43264,26.23315],[56.44524,26.22316],[56.45649,26.22783],[56.45476,26.23195],[56.4613,26.23557],[56.45585,26.24224],[56.45812,26.24585],[56.46253,26.24742],[56.466,26.23791],[56.476,26.23601],[56.48169,26.23951],[56.4803,26.23127],[56.48458,26.23051],[56.47449,26.22173],[56.47821,26.21891],[56.47755,26.2081],[56.4863,26.19629],[56.48419,26.19062],[56.47222,26.18672],[56.47447,26.19496],[56.46761,26.19725],[56.47015,26.20305],[56.47301,26.20319],[56.47283,26.21014],[56.47096,26.21386],[56.4601,26.21768],[56.45412,26.21522],[56.45076,26.20311],[56.44162,26.20372],[56.44609,26.19537],[56.44497,26.18919],[56.43511,26.19468],[56.44003,26.17991],[56.43461,26.1786],[56.43635,26.17346],[56.44105,26.17451],[56.43784,26.16098],[56.45027,26.15498],[56.45408,26.16426],[56.45934,26.16634],[56.45979,26.16145],[56.46493,26.16019],[56.46805,26.16329],[56.47409,26.15276],[56.473,26.14143],[56.47984,26.14171],[56.48438,26.14636],[56.48513,26.13761],[56.48885,26.13403],[56.4739,26.13037],[56.47388,26.13603],[56.47016,26.13846],[56.4659,26.13523],[56.44921,26.13825],[56.44481,26.13438],[56.44479,26.13824],[56.43595,26.13743],[56.43057,26.1311],[56.42599,26.13353],[56.41678,26.15151],[56.41194,26.15046],[56.41191,26.15663],[56.41562,26.15652],[56.41702,26.16052],[56.41073,26.16319],[56.41143,26.16615],[56.4181,26.17249],[56.41748,26.18278],[56.42019,26.18369],[56.41375,26.18817],[56.40366,26.18002],[56.40496,26.17668],[56.39925,26.17897],[56.38944,26.17301],[56.38992,26.16323],[56.39334,26.16402],[56.3935,26.15913],[56.38851,26.15937],[56.38456,26.15137],[56.38111,26.15676],[56.38519,26.16759],[56.3773,26.17579],[56.38555,26.17994],[56.38354,26.18328],[56.38581,26.18458],[56.40008,26.18438],[56.39487,26.19735],[56.38087,26.20192],[56.37461,26.19971],[56.37178,26.19494],[56.36521,26.19671],[56.36453,26.19117],[56.35431,26.18135],[56.35391,26.17697],[56.36076,26.17675],[56.36221,26.17186],[56.35907,26.17275],[56.35837,26.16927],[56.3423,26.16238],[56.33202,26.16465],[56.33091,26.15937],[56.32748,26.16013],[56.32622,26.15626],[56.33482,26.14961],[56.33347,26.13545],[56.34399,26.14116],[56.34331,26.13446],[56.33479,26.12825],[56.34125,26.12133],[56.33557,26.1177],[56.33306,26.10688],[56.33649,26.10535],[56.33213,26.09633],[56.34749,26.1],[56.34703,26.10669],[56.35439,26.11521],[56.35479,26.12062],[56.3754,26.13152],[56.37913,26.12716],[56.37816,26.12124],[56.37461,26.11942],[56.37437,26.11093],[56.37024,26.1104],[56.37114,26.10178],[56.36562,26.09545],[56.36805,26.09289],[56.37488,26.09472],[56.37577,26.08855],[56.3849,26.08756],[56.38858,26.09117],[56.38572,26.09322],[56.38626,26.09863],[56.39561,26.10922],[56.39854,26.09353],[56.40819,26.10232],[56.41105,26.10027],[56.41267,26.09076],[56.41013,26.08457],[56.41486,26.08022],[56.42624,26.08387],[56.43532,26.09188],[56.43933,26.08701],[56.44571,26.09269],[56.45929,26.08438],[56.4684,26.08724],[56.47297,26.08482],[56.45763,26.07292],[56.44111,26.07247],[56.44184,26.06823],[56.43533,26.05894],[56.4412,26.05433],[56.43651,26.05071],[56.43825,26.04351],[56.43128,26.04284],[56.42556,26.04642],[56.42444,26.04268],[56.41049,26.04198],[56.4096,26.04931],[56.38601,26.03828],[56.38774,26.0334],[56.39373,26.03316],[56.38894,26.02311],[56.38452,26.02296],[56.38924,26.01861],[56.39351,26.01888],[56.39746,26.02649],[56.40373,26.02664],[56.41202,26.02025],[56.42752,26.02494],[56.4223,26.01488],[56.42178,26.00459],[56.42692,26.00139],[56.42467,25.99508],[56.42853,25.99355],[56.42698,25.98981],[56.41886,25.99016],[56.41889,25.98347],[56.40766,25.98188],[56.4111,25.97598],[56.40314,25.97466],[56.40061,25.96834],[56.4143,25.96184],[56.42726,25.96009],[56.42478,25.94387],[56.43122,25.93617],[56.43891,25.93646],[56.44429,25.94137],[56.45282,25.94243],[56.45213,25.9396],[56.44048,25.93518],[56.44309,25.92464],[56.43611,25.92615],[56.43481,25.92924],[56.42499,25.92933],[56.41762,25.92363],[56.41502,25.93173],[56.40421,25.93092],[56.40191,25.93541],[56.39537,25.93525],[56.39367,25.93242],[56.39469,25.90128],[56.40293,25.90183],[56.40937,25.89465],[56.40047,25.88329],[56.40461,25.87996],[56.39305,25.85933],[56.38951,25.85712],[56.37498,25.86118],[56.36718,25.85767],[56.36792,25.8506],[56.3813,25.84873],[56.38518,25.84154],[56.37284,25.83621],[56.3657,25.84094],[56.36144,25.83989],[56.3649,25.83064],[56.36745,25.8322],[56.36974,25.82963],[56.37106,25.82243],[56.36711,25.8165],[56.37043,25.80725],[56.36533,25.80388],[56.35807,25.80616],[56.35969,25.79588],[56.35319,25.78774],[56.34529,25.80302],[56.34462,25.79658],[56.34192,25.79554],[56.3484,25.78064],[56.34446,25.77355],[56.33863,25.77468],[56.34065,25.76774],[56.33208,25.75162],[56.30689,25.73348],[56.3222,25.76379],[56.32062,25.76726],[56.31722,25.76583],[56.31044,25.75859],[56.31162,25.75011],[56.30568,25.74686],[56.30626,25.74416],[56.30044,25.74336],[56.29891,25.73821],[56.29522,25.73767],[56.27618,25.71391],[56.27397,25.70309],[56.2831,25.69618],[56.27801,25.69358],[56.2822,25.68048],[56.27301,25.67426],[56.27106,25.66756],[56.26836,25.64541],[56.27084,25.62587],[56.26352,25.62418],[56.26345,25.62014],[56.25943,25.61828],[56.26139,25.6106],[56.26634,25.60643]]],[[[56.50912,26.50131],[56.51167,26.50621],[56.51426,26.50184],[56.50912,26.50131]]],[[[56.4944,26.40051],[56.49524,26.40451],[56.49796,26.40246],[56.4944,26.40051]]],[[[56.46086,26.36295],[56.4597,26.36552],[56.44827,26.36625],[56.44611,26.36984],[56.44823,26.37551],[56.46368,26.37094],[56.46086,26.36295]]],[[[56.41795,26.37436],[56.41365,26.37795],[56.41777,26.3826],[56.41795,26.37436]]],[[[56.34735,26.33109],[56.34363,26.33158],[56.34232,26.33595],[56.34339,26.34959],[56.34973,26.36403],[56.35415,26.36663],[56.35196,26.37382],[56.35595,26.37564],[56.36112,26.37026],[56.35731,26.3633],[56.35811,26.34786],[56.35574,26.33627],[56.34735,26.33109]]],[[[56.34515,17.49141],[56.3387,17.49358],[56.33788,17.49667],[56.32566,17.49843],[56.33381,17.50889],[56.34805,17.50572],[56.35184,17.49582],[56.34515,17.49141]]],[[[56.35057,25.30427],[56.34487,25.27435],[56.3378,25.27296],[56.3214,25.26104],[56.30485,25.25773],[56.28232,25.2366],[56.27213,25.24259],[56.26059,25.24292],[56.25853,25.238],[56.24882,25.23738],[56.23435,25.24788],[56.22446,25.24872],[56.22322,25.26238],[56.24697,25.28167],[56.25546,25.28221],[56.25784,25.28645],[56.2587,25.29634],[56.25092,25.30306],[56.25153,25.30876],[56.24559,25.3179],[56.24807,25.32489],[56.26779,25.33723],[56.2761,25.33715],[56.28054,25.33482],[56.28045,25.331],[56.29122,25.3252],[56.30711,25.32943],[56.30931,25.31533],[56.31404,25.31298],[56.3145,25.30685],[56.31972,25.30248],[56.32265,25.3099],[56.35057,25.30427]],[[56.27443,25.28664],[56.26791,25.27787],[56.27122,25.27425],[56.27024,25.26409],[56.27357,25.26057],[56.28477,25.26276],[56.28472,25.27087],[56.2892,25.27531],[56.27972,25.29011],[56.27443,25.28664]]],[[[56.34723,26.19959],[56.34484,26.20044],[56.3472,26.20409],[56.35063,26.20385],[56.34723,26.19959]]],[[[55.9696,17.49343],[55.96368,17.49559],[55.96485,17.50229],[55.96254,17.50666],[55.95824,17.50741],[55.96413,17.51053],[55.96411,17.51491],[55.99278,17.52407],[55.99383,17.52884],[56.01423,17.52946],[56.02682,17.5348],[56.03405,17.53844],[56.0474,17.55293],[56.05236,17.55373],[56.0567,17.54576],[56.05622,17.53443],[56.06101,17.51668],[56.08386,17.51086],[56.09513,17.51194],[56.09355,17.5064],[56.08633,17.50044],[56.07399,17.49768],[56.05286,17.4847],[56.03086,17.48137],[56.02763,17.48393],[56.01584,17.47924],[55.9696,17.49343]]],[[[55.86477,17.47302],[55.85909,17.48033],[55.85454,17.47824],[55.85184,17.48029],[55.85502,17.48752],[55.84884,17.48774],[55.84538,17.48399],[55.83166,17.48829],[55.82805,17.48633],[55.82919,17.49664],[55.83497,17.49565],[55.84925,17.50874],[55.87,17.49482],[55.88074,17.49539],[55.88134,17.48548],[55.8744,17.47771],[55.86903,17.4782],[55.86477,17.47302]]],[[[55.59513,17.4628],[55.59324,17.46498],[55.59735,17.47067],[55.59554,17.47942],[55.59793,17.48291],[55.61001,17.48184],[55.60845,17.47603],[55.60138,17.4707],[55.6021,17.46452],[55.59513,17.4628]]]]}}]}