{"type":"FeatureCollection","features":[{"type":"Feature","properties":{"ISO_A3":"PLW","WB_A3":"PLW","WB_NAME":"Palau","WB_REGION":"EAS"},"geometry":{"type":"MultiPolygon","coordinates":[[[[134.71615,8.07028],[134.71653,8.08407],[134.7129,8.09026],[134.71924,8.09361],[134.72093,8.07815],[134.71615,8.07028]]],[[[134.70815,8.05171],[134.71046,8.0637],[134.7137,8.06319],[134.70815,8.05171]]],[[[134.6283,7.67824],[134.63321,7.67927],[134.63385,7.68262],[134.62945,7.68881],[134.62286,7.6906],[134.62001,7.69756],[134.61975,7.7013],[134.62621,7.69963],[134.6253,7.70453],[134.62155,7.70775],[134.61626,7.70478],[134.61741,7.71651],[134.6085,7.71276],[134.61068,7.72101],[134.62024,7.72785],[134.62877,7.72631],[134.62929,7.72064],[134.6249,7.7151],[134.63188,7.71549],[134.63525,7.70531],[134.64507,7.70094],[134.63849,7.69706],[134.63604,7.68469],[134.64238,7.68263],[134.64136,7.66716],[134.64655,7.62927],[134.64281,7.62772],[134.64295,7.61715],[134.63902,7.61568],[134.63585,7.60606],[134.64052,7.58853],[134.63044,7.5862],[134.62942,7.57898],[134.63848,7.55063],[134.62545,7.53748],[134.62725,7.54676],[134.62401,7.55011],[134.6226,7.54701],[134.6129,7.55654],[134.61135,7.5528],[134.61626,7.54984],[134.61627,7.54585],[134.61084,7.54481],[134.61705,7.53695],[134.60956,7.53591],[134.61215,7.53153],[134.60983,7.52418],[134.61448,7.52599],[134.61732,7.5238],[134.61888,7.50821],[134.62637,7.51118],[134.63232,7.50706],[134.63775,7.49907],[134.63711,7.49237],[134.62781,7.48643],[134.61865,7.48526],[134.61091,7.46837],[134.60381,7.46579],[134.6064,7.46347],[134.6055,7.452],[134.59763,7.44748],[134.5939,7.43381],[134.59195,7.44567],[134.58846,7.44644],[134.59031,7.40158],[134.58902,7.39888],[134.58321,7.40235],[134.5783,7.39874],[134.58193,7.38946],[134.58787,7.38586],[134.59267,7.36562],[134.58028,7.36278],[134.57949,7.37218],[134.57045,7.37127],[134.56606,7.37604],[134.56761,7.37823],[134.56012,7.37848],[134.55858,7.36288],[134.56401,7.36005],[134.54594,7.35372],[134.53419,7.35332],[134.52191,7.36439],[134.52101,7.36053],[134.5165,7.35975],[134.50654,7.37263],[134.51479,7.3814],[134.51284,7.39364],[134.50651,7.39969],[134.51153,7.41427],[134.50895,7.41517],[134.50997,7.42238],[134.49345,7.41876],[134.49111,7.42546],[134.47768,7.42969],[134.47561,7.4342],[134.48507,7.44289],[134.47897,7.44541],[134.47276,7.44103],[134.4632,7.44605],[134.465,7.44837],[134.46862,7.44631],[134.46732,7.45095],[134.47564,7.45518],[134.47559,7.45859],[134.48082,7.45844],[134.47485,7.46908],[134.48261,7.46977],[134.48072,7.47597],[134.48705,7.48114],[134.48032,7.48835],[134.48148,7.49402],[134.4882,7.4899],[134.48858,7.49403],[134.49869,7.49691],[134.49852,7.50177],[134.50368,7.50152],[134.50834,7.49598],[134.50899,7.49276],[134.5017,7.48312],[134.50272,7.47845],[134.51406,7.46905],[134.51225,7.46363],[134.52706,7.46528],[134.52606,7.47164],[134.53006,7.47706],[134.5249,7.47904],[134.51916,7.4899],[134.53056,7.49433],[134.52926,7.49897],[134.53287,7.49944],[134.53287,7.50361],[134.53731,7.50346],[134.53751,7.50852],[134.53106,7.50632],[134.52809,7.50902],[134.52159,7.50609],[134.52004,7.50188],[134.5042,7.50565],[134.49708,7.51389],[134.49927,7.52188],[134.50547,7.52318],[134.50309,7.53027],[134.51603,7.53171],[134.52458,7.52513],[134.52328,7.53042],[134.52612,7.53093],[134.51863,7.53505],[134.51655,7.54278],[134.52339,7.55413],[134.52157,7.55776],[134.52508,7.55835],[134.5261,7.55414],[134.5321,7.55197],[134.53875,7.55827],[134.54185,7.5655],[134.53771,7.56614],[134.53771,7.57013],[134.5421,7.57194],[134.54274,7.57761],[134.53802,7.58732],[134.54389,7.58689],[134.54027,7.5907],[134.54362,7.59682],[134.54814,7.59773],[134.55461,7.59324],[134.55783,7.59696],[134.56287,7.59413],[134.56399,7.60436],[134.57462,7.60214],[134.56577,7.60969],[134.5785,7.61555],[134.58907,7.61253],[134.59269,7.61582],[134.60226,7.60874],[134.61234,7.61123],[134.62033,7.6259],[134.62563,7.62796],[134.62833,7.64279],[134.63815,7.63764],[134.63633,7.64653],[134.63284,7.6473],[134.638,7.65891],[134.63193,7.65955],[134.63089,7.66251],[134.63528,7.66587],[134.63476,7.67012],[134.62637,7.66973],[134.62908,7.67179],[134.6283,7.67824]]],[[[134.6241,7.74861],[134.6175,7.7584],[134.62202,7.75815],[134.6241,7.74861]]],[[[134.57926,7.34885],[134.58532,7.35646],[134.58816,7.35466],[134.58674,7.35041],[134.58183,7.35195],[134.57926,7.34885]]],[[[134.56945,7.34433],[134.56493,7.34691],[134.56298,7.35438],[134.57048,7.34846],[134.56945,7.34433]]],[[[134.53357,7.32625],[134.53407,7.3412],[134.53085,7.3412],[134.53278,7.3443],[134.52322,7.35125],[134.52411,7.35821],[134.5395,7.33592],[134.54958,7.33091],[134.53551,7.32986],[134.53357,7.32625]]],[[[134.51817,7.48014],[134.52283,7.47318],[134.51462,7.46988],[134.51252,7.4724],[134.51817,7.48014]]],[[[134.50672,7.32906],[134.50619,7.33602],[134.49483,7.33626],[134.49224,7.34013],[134.48824,7.33806],[134.48501,7.34244],[134.47766,7.33985],[134.47921,7.33676],[134.4756,7.33186],[134.47237,7.33778],[134.46694,7.33829],[134.4672,7.34203],[134.46255,7.34254],[134.46525,7.34551],[134.47985,7.3445],[134.48526,7.35133],[134.50153,7.35071],[134.51369,7.3319],[134.51266,7.32339],[134.51047,7.31849],[134.50608,7.31952],[134.50531,7.31307],[134.49653,7.31642],[134.49923,7.32402],[134.5044,7.32364],[134.50672,7.32906]]],[[[134.47135,7.32464],[134.46824,7.33211],[134.46294,7.33391],[134.45842,7.34035],[134.46694,7.33597],[134.47885,7.31562],[134.48246,7.31356],[134.48788,7.31628],[134.48607,7.32272],[134.49059,7.32079],[134.48905,7.3146],[134.49512,7.3128],[134.4959,7.30262],[134.48145,7.29977],[134.48118,7.30725],[134.47149,7.31175],[134.47432,7.31794],[134.47177,7.31848],[134.47135,7.32464]]],[[[134.49511,7.31912],[134.48762,7.32349],[134.48839,7.32659],[134.49562,7.32415],[134.49511,7.31912]]],[[[134.45091,7.35993],[134.46434,7.35453],[134.46473,7.35195],[134.4553,7.35323],[134.45376,7.34562],[134.44769,7.34704],[134.43773,7.36275],[134.45091,7.35993]]],[[[134.45043,7.32706],[134.44887,7.33415],[134.45713,7.33931],[134.45611,7.33042],[134.45043,7.32706]]],[[[134.42383,7.33128],[134.42642,7.32278],[134.4489,7.3112],[134.45137,7.29806],[134.44608,7.29419],[134.44543,7.29728],[134.43808,7.29572],[134.43641,7.28515],[134.4425,7.26789],[134.44899,7.26651],[134.45179,7.26893],[134.44988,7.25114],[134.4358,7.26118],[134.43475,7.26723],[134.41837,7.26998],[134.41191,7.26269],[134.4116,7.24864],[134.40355,7.23819],[134.39503,7.24127],[134.39401,7.23457],[134.38705,7.22799],[134.37131,7.22126],[134.36549,7.22551],[134.36807,7.22706],[134.36457,7.23891],[134.35915,7.24329],[134.3514,7.24276],[134.34958,7.25075],[134.34055,7.25202],[134.34054,7.25486],[134.34224,7.25716],[134.35139,7.25307],[134.35578,7.24728],[134.36198,7.24664],[134.36767,7.23582],[134.37956,7.22759],[134.38148,7.23661],[134.39058,7.24758],[134.39941,7.25107],[134.4075,7.26999],[134.41925,7.27572],[134.42622,7.27573],[134.43409,7.28205],[134.43433,7.29855],[134.44103,7.30655],[134.43289,7.31608],[134.42617,7.31839],[134.42241,7.3269],[134.42206,7.33412],[134.42506,7.3343],[134.42383,7.33128]]],[[[134.43182,7.34392],[134.4499,7.34072],[134.44861,7.33724],[134.43518,7.34354],[134.42821,7.34031],[134.43182,7.34392]]],[[[134.44118,7.28941],[134.44221,7.29341],[134.44518,7.29186],[134.44118,7.28941]]],[[[134.41977,7.27611],[134.4177,7.28281],[134.42144,7.27998],[134.41977,7.27611]]],[[[134.41588,7.28693],[134.41394,7.28925],[134.41652,7.29209],[134.41588,7.28693]]],[[[134.41176,7.28241],[134.40891,7.28615],[134.41304,7.28564],[134.41176,7.28241]]],[[[134.39067,7.27183],[134.39129,7.26779],[134.38758,7.26491],[134.37357,7.26883],[134.37537,7.27295],[134.38131,7.26961],[134.38672,7.27787],[134.39067,7.27183]]],[[[134.38934,7.25055],[134.38594,7.24807],[134.38598,7.25054],[134.38934,7.25055]]],[[[134.37785,7.25354],[134.37745,7.26265],[134.38598,7.25621],[134.38353,7.24796],[134.37976,7.24884],[134.37785,7.25354]]],[[[134.35643,7.1555],[134.37836,7.16417],[134.37897,7.18943],[134.38158,7.16417],[134.37721,7.15411],[134.37968,7.14277],[134.38419,7.14355],[134.38498,7.13556],[134.38033,7.1371],[134.3727,7.14934],[134.35103,7.14119],[134.34418,7.14556],[134.34624,7.15304],[134.34105,7.1685],[134.34659,7.17495],[134.35666,7.17767],[134.35821,7.17445],[134.34944,7.168],[134.34881,7.15846],[134.35643,7.1555]]],[[[134.37268,7.2531],[134.37594,7.25376],[134.37703,7.24774],[134.37168,7.25102],[134.37268,7.2531]]],[[[134.36938,7.24561],[134.36624,7.24897],[134.37086,7.25097],[134.37295,7.24846],[134.36938,7.24561]]],[[[134.37176,7.26599],[134.36634,7.26779],[134.36892,7.27011],[134.37176,7.26599]]],[[[134.36026,7.18464],[134.36283,7.19251],[134.37134,7.1987],[134.3689,7.19174],[134.36554,7.19354],[134.36026,7.18464]]],[[[134.3614,7.1104],[134.35868,7.11181],[134.36074,7.11749],[134.3681,7.11492],[134.3614,7.1104]]],[[[134.33744,7.25975],[134.33187,7.27006],[134.33199,7.27805],[134.33898,7.26285],[134.33744,7.25975]]],[[[134.32031,7.1481],[134.31993,7.14192],[134.31645,7.14062],[134.32031,7.1481]]],[[[134.30669,7.27453],[134.29481,7.27632],[134.29352,7.27941],[134.31056,7.27827],[134.30669,7.27453]]],[[[134.28086,7.28673],[134.28111,7.2906],[134.2877,7.28417],[134.28254,7.28236],[134.28086,7.28673]]],[[[134.27936,7.0872],[134.27162,7.08925],[134.27496,7.09751],[134.28231,7.09855],[134.28375,7.08966],[134.2791,7.08952],[134.27936,7.0872]]],[[[134.27038,7.05832],[134.2732,7.0658],[134.27681,7.06671],[134.27785,7.064],[134.27038,7.05832]]],[[[134.26503,7.01358],[134.26335,7.01526],[134.267,7.01715],[134.26863,7.02351],[134.27559,7.02185],[134.26503,7.01358]]],[[[134.22249,6.99096],[134.2231,7.01055],[134.23896,7.01857],[134.25518,7.04386],[134.26936,7.04955],[134.26551,7.03782],[134.25751,7.03871],[134.25675,7.03007],[134.23949,7.01135],[134.24156,7.00671],[134.24504,7.0111],[134.24684,7.00956],[134.24774,7.0142],[134.256,7.01447],[134.25781,7.00996],[134.25059,7.00415],[134.25189,6.99951],[134.26103,7.00492],[134.25344,6.99629],[134.24468,6.99331],[134.23925,7.00078],[134.22562,6.97343],[134.22249,6.99096]]],[[[134.25877,7.05353],[134.25346,7.06474],[134.25669,7.065],[134.26109,7.05908],[134.26896,7.0578],[134.26497,7.0538],[134.25877,7.05353]]],[[[134.26132,7.00511],[134.2671,7.0114],[134.26659,7.00779],[134.26132,7.00511]]],[[[134.25366,7.02401],[134.25572,7.02788],[134.25779,7.02453],[134.25366,7.02401]]],[[[134.24682,7.10198],[134.24437,7.10519],[134.25545,7.11088],[134.25456,7.10702],[134.24682,7.10198]]],[[[134.23543,7.12529],[134.22974,7.13301],[134.23257,7.13559],[134.23646,7.12916],[134.23543,7.12529]]],[[[134.12567,6.88806],[134.12193,6.89025],[134.12939,6.90315],[134.12561,6.92286],[134.14237,6.9247],[134.15388,6.91041],[134.14874,6.90164],[134.13521,6.8904],[134.12567,6.88806]]],[[[132.30914,4.31861],[132.31387,4.32352],[132.31125,4.30336],[132.30914,4.31861]]],[[[132.22772,5.35063],[132.22461,5.35641],[132.23,5.35798],[132.23067,5.35257],[132.22772,5.35063]]],[[[132.22479,5.31714],[132.21871,5.32702],[132.21881,5.33192],[132.22497,5.33478],[132.22479,5.31714]]],[[[131.94932,4.65187],[131.94883,4.65677],[131.95448,4.65777],[131.95472,4.65468],[131.94932,4.65187]]],[[[131.12326,2.99939],[131.12072,3.0097],[131.1279,3.01303],[131.12326,2.99939]]]]}}]}