{"type":"FeatureCollection","features":[{"type":"Feature","properties":{"ISO_A3":"POL","WB_A3":"POL","WB_NAME":"Poland","WB_REGION":"ECS"},"geometry":{"type":"MultiPolygon","coordinates":[[[[23.54848,51.75065],[23.53057,51.74303],[23.53189,51.73524],[23.52737,51.72994],[23.53435,51.72853],[23.53471,51.72285],[23.54731,51.72351],[23.54867,51.71834],[23.55299,51.71631],[23.54719,51.71097],[23.55633,51.70788],[23.55004,51.70296],[23.55884,51.7015],[23.56061,51.69817],[23.55618,51.6969],[23.54884,51.68498],[23.5554,51.68195],[23.55248,51.67479],[23.55838,51.66636],[23.5557,51.66338],[23.54493,51.66212],[23.53918,51.6557],[23.54397,51.65131],[23.53703,51.64475],[23.54254,51.64544],[23.54877,51.64077],[23.54794,51.63697],[23.53962,51.63294],[23.54286,51.63221],[23.5464,51.62049],[23.54033,51.61222],[23.54441,51.60605],[23.54052,51.60279],[23.54878,51.59832],[23.55579,51.58191],[23.56723,51.57899],[23.56388,51.56973],[23.56888,51.5676],[23.56905,51.56081],[23.57802,51.55752],[23.56583,51.5508],[23.56267,51.54433],[23.56514,51.53424],[23.58757,51.52929],[23.59361,51.53562],[23.60193,51.52906],[23.61269,51.52883],[23.61409,51.52254],[23.6244,51.51278],[23.61896,51.51233],[23.61639,51.50333],[23.62478,51.49964],[23.62025,51.4964],[23.63481,51.49142],[23.6372,51.48655],[23.64293,51.48489],[23.6603,51.49041],[23.66323,51.48848],[23.67666,51.47133],[23.66575,51.46992],[23.65876,51.46243],[23.64671,51.45931],[23.65056,51.45451],[23.64908,51.44706],[23.66713,51.4455],[23.67655,51.4412],[23.68251,51.44526],[23.68627,51.44246],[23.68112,51.43846],[23.68549,51.43514],[23.67729,51.43244],[23.6791,51.42802],[23.68473,51.42674],[23.68952,51.41907],[23.70211,51.42087],[23.70244,51.41849],[23.69306,51.4151],[23.7012,51.41025],[23.69683,51.40599],[23.70117,51.40311],[23.68266,51.39873],[23.68651,51.39607],[23.67684,51.3939],[23.68564,51.38939],[23.68051,51.38016],[23.68463,51.37687],[23.68263,51.37216],[23.6866,51.36844],[23.66743,51.36805],[23.66589,51.3642],[23.66979,51.36231],[23.65635,51.35839],[23.65473,51.34898],[23.6497,51.34357],[23.65268,51.34035],[23.64672,51.33961],[23.64627,51.33526],[23.63567,51.32848],[23.64161,51.32527],[23.63574,51.319],[23.64393,51.31334],[23.63947,51.31089],[23.64304,51.3044],[23.65302,51.29955],[23.64678,51.29758],[23.65038,51.29415],[23.64625,51.29158],[23.65476,51.28864],[23.66318,51.29243],[23.67309,51.29017],[23.67787,51.29255],[23.70287,51.28239],[23.7131,51.27089],[23.72015,51.26981],[23.71738,51.26481],[23.72405,51.25997],[23.72404,51.24726],[23.7302,51.24233],[23.7263,51.23664],[23.73922,51.23175],[23.7429,51.22467],[23.74251,51.22071],[23.73611,51.21912],[23.73882,51.21308],[23.75636,51.21256],[23.75947,51.20623],[23.76784,51.20026],[23.78244,51.19922],[23.78045,51.19709],[23.78492,51.18964],[23.80797,51.18519],[23.81407,51.17952],[23.81425,51.1707],[23.81917,51.16908],[23.82241,51.16314],[23.83765,51.15939],[23.84983,51.16087],[23.84993,51.15518],[23.86151,51.15769],[23.86197,51.15192],[23.86895,51.14935],[23.86557,51.147],[23.87127,51.14556],[23.86777,51.14234],[23.86983,51.13029],[23.86189,51.12748],[23.85975,51.13107],[23.84942,51.12371],[23.85325,51.12237],[23.85169,51.11933],[23.85463,51.11849],[23.86063,51.10183],[23.85661,51.10004],[23.87117,51.09506],[23.87304,51.08245],[23.87959,51.07738],[23.88018,51.08103],[23.88478,51.08234],[23.89185,51.07506],[23.90419,51.07469],[23.90479,51.078],[23.90815,51.07801],[23.91278,51.07029],[23.90886,51.0642],[23.91293,51.06354],[23.91407,51.05283],[23.91952,51.04579],[23.91322,51.04271],[23.92228,51.03678],[23.93105,51.03749],[23.91583,51.02832],[23.92715,51.02027],[23.92421,51.01629],[23.93549,51.01518],[23.91457,51.01015],[23.91691,51.00588],[23.93883,51.0029],[23.95785,50.98946],[23.96697,50.97828],[23.96958,50.95153],[23.97775,50.94633],[23.98804,50.94497],[23.99752,50.92816],[24.02466,50.91597],[24.05052,50.89809],[24.05015,50.89356],[24.05538,50.8907],[24.08724,50.88845],[24.09887,50.87713],[24.11265,50.87571],[24.11778,50.86978],[24.12238,50.87193],[24.12583,50.86832],[24.14582,50.86919],[24.14338,50.85846],[24.13079,50.84828],[24.10028,50.83593],[24.05234,50.83617],[24.04338,50.83353],[24.03982,50.83595],[24.04568,50.83868],[24.03476,50.83961],[24.03177,50.83595],[24.02037,50.8417],[24.01875,50.83867],[24.00921,50.83882],[24.00785,50.8412],[23.98998,50.8375],[23.96803,50.81873],[23.96561,50.81347],[23.9689,50.81156],[23.96505,50.80146],[23.95741,50.7943],[23.96838,50.78554],[23.96342,50.7813],[23.96826,50.77568],[23.97825,50.77375],[23.97712,50.7702],[23.9821,50.7681],[23.98256,50.77103],[23.99835,50.76927],[24.00899,50.77218],[24.0232,50.76679],[24.0254,50.76004],[24.0219,50.75805],[24.02037,50.76172],[24.01231,50.75767],[24.01722,50.75204],[24.02348,50.75139],[24.01732,50.75065],[24.01519,50.74702],[24.02059,50.74666],[24.01664,50.73799],[24.02035,50.73711],[24.01662,50.72358],[24.02202,50.72182],[24.02362,50.72516],[24.04566,50.71692],[24.06138,50.72051],[24.07293,50.71864],[24.07108,50.71578],[24.07514,50.71127],[24.06971,50.70532],[24.07236,50.69912],[24.06311,50.68469],[24.06499,50.68028],[24.06226,50.67783],[24.0711,50.6782],[24.0724,50.6741],[24.08665,50.66921],[24.0852,50.66189],[24.08972,50.66206],[24.08849,50.65496],[24.08041,50.64458],[24.08718,50.64222],[24.087,50.63856],[24.09355,50.63518],[24.09818,50.63744],[24.09201,50.62333],[24.09184,50.61645],[24.09741,50.61053],[24.09865,50.59956],[24.09037,50.57798],[24.09132,50.56199],[24.07007,50.50338],[24.03799,50.45513],[24.03452,50.44482],[24.0058,50.43538],[23.9975,50.41215],[23.94077,50.41394],[23.80333,50.40473],[23.72717,50.3881],[23.7034,50.3756],[23.69114,50.35332],[23.68627,50.33161],[23.63887,50.32052],[23.63097,50.30477],[23.61157,50.29927],[23.58099,50.26598],[23.50632,50.23031],[23.47015,50.21789],[23.42945,50.18421],[23.38031,50.15937],[23.31409,50.11203],[23.29829,50.10713],[23.29685,50.1029],[23.27919,50.09982],[23.27926,50.08629],[23.26458,50.07886],[23.23931,50.05445],[23.216,50.0475],[23.21301,50.0311],[23.14263,49.97124],[23.11509,49.95665],[23.10751,49.94197],[23.03342,49.8815],[22.99549,49.84214],[22.97058,49.83864],[22.95661,49.81116],[22.96192,49.8047],[22.93281,49.79331],[22.9016,49.76826],[22.89791,49.7645],[22.89678,49.75176],[22.87341,49.74066],[22.85211,49.7204],[22.84778,49.71008],[22.82192,49.69453],[22.80556,49.6934],[22.78723,49.67649],[22.78327,49.65727],[22.74946,49.63127],[22.69578,49.58294],[22.6851,49.57209],[22.67466,49.54918],[22.66318,49.53883],[22.64083,49.52999],[22.65123,49.5084],[22.6707,49.49747],[22.69664,49.49513],[22.71285,49.43753],[22.73246,49.39862],[22.74683,49.35993],[22.7431,49.33589],[22.7509,49.31661],[22.74408,49.29889],[22.73963,49.24735],[22.72132,49.24135],[22.71668,49.23584],[22.71487,49.22653],[22.72014,49.22121],[22.7474,49.21673],[22.74007,49.21167],[22.73404,49.21155],[22.72925,49.19717],[22.72293,49.19614],[22.7154,49.18304],[22.70913,49.18133],[22.70795,49.1738],[22.71479,49.17005],[22.71633,49.16516],[22.71983,49.1652],[22.72453,49.16811],[22.72411,49.17462],[22.72932,49.17504],[22.73263,49.18223],[22.74937,49.18422],[22.75245,49.18133],[22.73824,49.16051],[22.74071,49.1575],[22.76043,49.15249],[22.77309,49.15598],[22.7752,49.15319],[22.78863,49.15781],[22.79239,49.15361],[22.78967,49.14836],[22.79274,49.14625],[22.79383,49.13758],[22.80497,49.1341],[22.80794,49.12862],[22.81658,49.12875],[22.81197,49.12547],[22.82886,49.11942],[22.82933,49.11245],[22.84395,49.11066],[22.85124,49.11473],[22.85813,49.10953],[22.85531,49.10388],[22.86256,49.10014],[22.87587,49.09665],[22.89005,49.09721],[22.8927,49.09465],[22.8822,49.08062],[22.8682,49.07761],[22.86666,49.07559],[22.8705,49.07091],[22.86456,49.06693],[22.86737,49.06506],[22.86772,49.05759],[22.87456,49.05578],[22.87482,49.05015],[22.86689,49.04118],[22.88119,49.03792],[22.87406,49.03113],[22.88663,49.01973],[22.89265,49.01895],[22.89389,49.01667],[22.88971,49.015],[22.8916,49.0079],[22.84711,49.00239],[22.8443,49.00477],[22.84444,49.01151],[22.83377,49.02607],[22.82253,49.02299],[22.8132,49.02514],[22.80951,49.03464],[22.76527,49.05351],[22.75468,49.04286],[22.71781,49.05277],[22.69955,49.04982],[22.68275,49.03889],[22.67223,49.04242],[22.66935,49.04761],[22.6601,49.04708],[22.65178,49.05067],[22.64596,49.05781],[22.6397,49.05964],[22.62567,49.08026],[22.60528,49.08441],[22.59972,49.09365],[22.58454,49.09732],[22.56569,49.088],[22.55597,49.08758],[22.53942,49.09469],[22.51131,49.09217],[22.49703,49.08589],[22.45703,49.10356],[22.42267,49.0995],[22.41389,49.10208],[22.39653,49.11719],[22.39183,49.11806],[22.39022,49.12739],[22.3785,49.13189],[22.37794,49.13608],[22.36619,49.14692],[22.36225,49.1445],[22.33461,49.14647],[22.32053,49.13558],[22.30725,49.13683],[22.29722,49.14153],[22.28178,49.14208],[22.24703,49.15328],[22.22461,49.15303],[22.22586,49.16111],[22.23589,49.16856],[22.23058,49.18072],[22.22384,49.18363],[22.21103,49.18556],[22.19306,49.17442],[22.18733,49.17525],[22.17592,49.18311],[22.14556,49.19164],[22.14294,49.19364],[22.14381,49.20053],[22.11906,49.20094],[22.06197,49.21158],[22.03042,49.22517],[22.03506,49.23383],[22.03336,49.24175],[22.03897,49.24503],[22.03814,49.25017],[22.04139,49.25456],[22.04078,49.25839],[22.03031,49.26267],[22.03306,49.26472],[22.03403,49.27856],[22.02339,49.28614],[22.01069,49.28953],[21.98369,49.30994],[21.97853,49.31692],[21.97783,49.32556],[21.961,49.34906],[21.93097,49.34667],[21.91803,49.35419],[21.90378,49.34997],[21.89336,49.35719],[21.88733,49.36897],[21.87547,49.37364],[21.859,49.36856],[21.84761,49.37858],[21.84731,49.38667],[21.83874,49.39159],[21.82583,49.39078],[21.81739,49.38433],[21.803,49.38217],[21.78878,49.36919],[21.79056,49.35947],[21.78798,49.35523],[21.778,49.35606],[21.76606,49.36797],[21.76339,49.38347],[21.73942,49.39314],[21.73539,49.39839],[21.72583,49.39917],[21.72178,49.41228],[21.70053,49.41836],[21.68122,49.41081],[21.65892,49.41681],[21.65661,49.42442],[21.64411,49.43128],[21.63094,49.44731],[21.61469,49.44464],[21.60158,49.43531],[21.59639,49.43694],[21.59056,49.43381],[21.57511,49.43558],[21.56397,49.44125],[21.55208,49.43311],[21.53028,49.43508],[21.51853,49.42428],[21.52353,49.41994],[21.51706,49.41781],[21.49569,49.42961],[21.48886,49.42908],[21.47908,49.41578],[21.47369,49.41361],[21.45622,49.41631],[21.43408,49.41228],[21.40653,49.42661],[21.40203,49.43342],[21.37392,49.43253],[21.36867,49.439],[21.34469,49.45042],[21.30683,49.44839],[21.27753,49.46094],[21.26733,49.45719],[21.26556,49.44742],[21.25928,49.44669],[21.24067,49.43419],[21.23411,49.4375],[21.22406,49.42672],[21.22725,49.41694],[21.20803,49.4025],[21.20183,49.40464],[21.19213,49.40099],[21.1835,49.40283],[21.17875,49.4095],[21.15467,49.42181],[21.15225,49.42694],[21.12403,49.43658],[21.11372,49.42394],[21.09639,49.4295],[21.06317,49.42056],[21.05569,49.42153],[21.04722,49.41694],[21.05458,49.40406],[21.06589,49.40244],[21.069,49.39986],[21.06719,49.39622],[21.10411,49.37639],[21.09411,49.36506],[21.07894,49.36392],[21.07533,49.35931],[21.06597,49.36533],[21.05444,49.36183],[21.04386,49.36536],[21.02728,49.35689],[21.01625,49.34689],[21.01131,49.34756],[21.00697,49.33956],[21.00808,49.33486],[20.98906,49.32845],[20.98819,49.32323],[20.99414,49.31267],[20.98572,49.30664],[20.96781,49.30953],[20.92564,49.29606],[20.91053,49.30719],[20.91025,49.31147],[20.90308,49.31681],[20.90711,49.32114],[20.90303,49.32378],[20.89717,49.32536],[20.88419,49.31908],[20.87608,49.3195],[20.87425,49.32144],[20.87964,49.32261],[20.882,49.32853],[20.88125,49.33442],[20.8655,49.3475],[20.85475,49.34744],[20.83694,49.334],[20.82608,49.33439],[20.81183,49.34769],[20.79897,49.34261],[20.79636,49.34514],[20.80131,49.34981],[20.80219,49.35553],[20.79808,49.35789],[20.80475,49.3595],[20.80569,49.35378],[20.81032,49.35467],[20.81003,49.35828],[20.79947,49.36314],[20.78353,49.3605],[20.78097,49.36322],[20.78819,49.37241],[20.78553,49.37436],[20.76192,49.37131],[20.75765,49.37492],[20.76164,49.38283],[20.74753,49.39233],[20.75828,49.39887],[20.75481,49.40219],[20.74228,49.40383],[20.74611,49.41164],[20.73781,49.41667],[20.72772,49.41494],[20.72292,49.41967],[20.69269,49.41997],[20.66578,49.40631],[20.66569,49.40356],[20.64258,49.401],[20.63682,49.40811],[20.62467,49.41044],[20.62236,49.41622],[20.61494,49.41783],[20.61142,49.41358],[20.61358,49.40183],[20.60578,49.40131],[20.60097,49.38906],[20.592,49.38389],[20.58525,49.38539],[20.58003,49.38289],[20.57625,49.37625],[20.55772,49.3781],[20.5465,49.38553],[20.51019,49.39336],[20.50336,49.40397],[20.49014,49.40642],[20.47197,49.41544],[20.44992,49.41503],[20.44986,49.41219],[20.44636,49.41192],[20.43351,49.41791],[20.4293,49.41472],[20.42887,49.40806],[20.43661,49.40538],[20.43128,49.39589],[20.42797,49.40197],[20.41686,49.40578],[20.41331,49.39594],[20.39303,49.39058],[20.38242,49.39103],[20.38092,49.40325],[20.37636,49.40756],[20.37114,49.40739],[20.36856,49.40055],[20.36228,49.39825],[20.32508,49.40303],[20.31789,49.39314],[20.33028,49.39006],[20.32103,49.37658],[20.32622,49.36586],[20.32372,49.35219],[20.31417,49.3435],[20.29306,49.35153],[20.27306,49.35136],[20.26639,49.34708],[20.24203,49.35053],[20.23181,49.34631],[20.22189,49.35181],[20.20336,49.34181],[20.19522,49.34228],[20.18368,49.32787],[20.17058,49.32772],[20.17358,49.32497],[20.16778,49.32356],[20.1758,49.31408],[20.15772,49.30282],[20.15897,49.30655],[20.15195,49.31833],[20.14606,49.318],[20.13023,49.29563],[20.12864,49.27725],[20.122,49.26792],[20.10075,49.25008],[20.09783,49.23439],[20.10161,49.22267],[20.08719,49.20756],[20.08436,49.19619],[20.08814,49.17961],[20.06911,49.18078],[20.04244,49.19336],[20.03975,49.19742],[20.02053,49.2015],[20.0065,49.21331],[20.00864,49.22006],[19.98156,49.23181],[19.97117,49.22994],[19.93222,49.2365],[19.90328,49.23092],[19.90525,49.22469],[19.90188,49.21304],[19.887,49.20817],[19.86944,49.19581],[19.83483,49.1965],[19.82947,49.20169],[19.81983,49.19953],[19.80753,49.20564],[19.79519,49.19875],[19.78425,49.19928],[19.77858,49.20494],[19.7675,49.20597],[19.76067,49.21003],[19.75842,49.216],[19.76694,49.22261],[19.76919,49.23069],[19.76633,49.23456],[19.77844,49.24539],[19.78503,49.24667],[19.7905,49.25525],[19.78883,49.26175],[19.79217,49.26342],[19.79247,49.26797],[19.80633,49.2745],[19.82281,49.27681],[19.80978,49.29542],[19.7945,49.29606],[19.79272,49.29892],[19.80497,49.32278],[19.79472,49.34453],[19.80247,49.35314],[19.80383,49.36481],[19.80219,49.37011],[19.79256,49.37858],[19.78894,49.40108],[19.79058,49.41069],[19.76758,49.413],[19.74633,49.40792],[19.72964,49.39175],[19.71853,49.38675],[19.70783,49.39492],[19.68547,49.40339],[19.68083,49.40206],[19.64461,49.41064],[19.63876,49.40866],[19.63464,49.4125],[19.64858,49.43536],[19.63781,49.4405],[19.63778,49.44814],[19.64156,49.44947],[19.64289,49.45456],[19.64111,49.45756],[19.62544,49.44961],[19.61144,49.44686],[19.5974,49.45861],[19.58165,49.45547],[19.58072,49.46106],[19.56707,49.47112],[19.56906,49.4745],[19.56564,49.48053],[19.55364,49.48994],[19.55161,49.50761],[19.53044,49.53578],[19.52742,49.56117],[19.52953,49.57126],[19.51822,49.57342],[19.51019,49.58144],[19.49722,49.58158],[19.47842,49.58803],[19.46844,49.59647],[19.47464,49.60467],[19.46739,49.61375],[19.45494,49.61089],[19.44625,49.61325],[19.44203,49.6055],[19.44458,49.6005],[19.40997,49.59214],[19.40764,49.58083],[19.40003,49.57414],[19.37136,49.56744],[19.37364,49.55944],[19.36658,49.55369],[19.36858,49.54503],[19.36614,49.53894],[19.35992,49.53558],[19.31881,49.53108],[19.31556,49.53658],[19.29289,49.53317],[19.28153,49.53531],[19.27472,49.53189],[19.26069,49.53122],[19.26103,49.52728],[19.23364,49.51086],[19.23403,49.50372],[19.23703,49.50169],[19.23489,49.49503],[19.22783,49.49194],[19.23156,49.48783],[19.22092,49.47494],[19.22,49.46931],[19.22714,49.46694],[19.22828,49.46375],[19.22531,49.45431],[19.219,49.44861],[19.209,49.45183],[19.19858,49.44817],[19.18575,49.43472],[19.19342,49.426],[19.191,49.42103],[19.19742,49.41456],[19.19161,49.41108],[19.18744,49.40967],[19.17728,49.414],[19.15339,49.40378],[19.13753,49.40994],[19.12236,49.40261],[19.10701,49.40384],[19.10022,49.41103],[19.09436,49.41031],[19.09178,49.41583],[19.07272,49.41797],[19.06975,49.41264],[19.05392,49.41517],[19.04431,49.40472],[19.04606,49.40192],[19.027,49.39397],[18.98964,49.39839],[18.97986,49.39522],[18.97119,49.40206],[18.97314,49.40694],[18.96875,49.41333],[18.98694,49.42406],[18.98831,49.43183],[18.97778,49.44053],[18.97386,49.45167],[18.96078,49.45469],[18.96619,49.46794],[18.96458,49.47244],[18.97019,49.47681],[18.96278,49.48194],[18.96622,49.49308],[18.97333,49.49681],[18.97128,49.50442],[18.94917,49.51261],[18.94167,49.51889],[18.89583,49.51453],[18.86756,49.51936],[18.85092,49.51714],[18.84302,49.51853],[18.83728,49.52375],[18.84467,49.5282],[18.8441,49.53409],[18.85745,49.53793],[18.85925,49.55057],[18.83718,49.56322],[18.8318,49.58467],[18.83908,49.59532],[18.82929,49.59494],[18.82321,49.60402],[18.82426,49.61447],[18.8193,49.61765],[18.82052,49.62324],[18.80634,49.65129],[18.80929,49.65753],[18.80663,49.66525],[18.81009,49.67105],[18.80852,49.6753],[18.80458,49.67888],[18.79495,49.67913],[18.78063,49.68537],[18.76677,49.68226],[18.76416,49.68462],[18.75115,49.67689],[18.74153,49.67642],[18.73548,49.68241],[18.71918,49.68381],[18.71523,49.69537],[18.70931,49.69677],[18.71149,49.6997],[18.70652,49.70445],[18.69365,49.7066],[18.66824,49.70344],[18.6672,49.70921],[18.65854,49.71083],[18.65355,49.70846],[18.63618,49.71497],[18.62575,49.72364],[18.62879,49.7257],[18.6263,49.73024],[18.62951,49.74654],[18.61484,49.75345],[18.61022,49.77101],[18.59763,49.78382],[18.59992,49.78867],[18.59268,49.79779],[18.5928,49.80222],[18.58489,49.80533],[18.58262,49.81776],[18.56893,49.82962],[18.56943,49.8344],[18.58945,49.84561],[18.58371,49.85231],[18.60388,49.85711],[18.60533,49.8621],[18.5991,49.86631],[18.58024,49.86679],[18.56567,49.88068],[18.57374,49.88952],[18.57205,49.89393],[18.58005,49.90555],[18.5737,49.90779],[18.5757,49.91041],[18.57292,49.92162],[18.559,49.91799],[18.54004,49.92584],[18.54303,49.92245],[18.53988,49.91206],[18.54706,49.90915],[18.53436,49.8996],[18.48511,49.90636],[18.483,49.9108],[18.46809,49.91549],[18.46115,49.92279],[18.44381,49.92365],[18.43268,49.92848],[18.43075,49.93817],[18.39139,49.93404],[18.36641,49.93736],[18.35639,49.94398],[18.33791,49.94588],[18.33451,49.94474],[18.33563,49.93972],[18.34743,49.93966],[18.3472,49.93555],[18.34083,49.93414],[18.34405,49.92942],[18.34148,49.92618],[18.3298,49.92983],[18.33087,49.92468],[18.31805,49.91567],[18.29911,49.92381],[18.29903,49.92874],[18.28969,49.92873],[18.2792,49.94006],[18.28184,49.95055],[18.27801,49.96347],[18.24151,49.97041],[18.22063,49.96886],[18.21428,49.972],[18.21358,49.98611],[18.20657,49.99794],[18.19321,49.99451],[18.19008,49.99878],[18.17313,50.00029],[18.16799,49.99852],[18.17201,49.99001],[18.16901,49.98644],[18.15384,49.98237],[18.14695,49.99161],[18.13607,49.9939],[18.13438,49.99743],[18.11697,49.99415],[18.10479,50.00091],[18.09329,50.01499],[18.10275,50.02274],[18.08492,50.03415],[18.08936,50.04412],[18.06598,50.04816],[18.06758,50.05312],[18.06379,50.05274],[18.06172,50.05918],[18.04983,50.05836],[18.04607,50.06259],[18.03362,50.06603],[18.00516,50.05349],[18.00431,50.0378],[18.00882,50.03129],[18.01312,50.03023],[18.02475,50.03877],[18.04439,50.0366],[18.04902,50.02742],[18.04293,50.02204],[18.04631,50.0159],[18.0409,50.01362],[18.04519,50.00614],[18.0353,50.01101],[18.00658,50.01143],[18.00464,50.01837],[17.98774,50.01221],[17.9826,50.00513],[17.97311,50.00861],[17.95405,50.00506],[17.92285,49.97874],[17.90914,49.9765],[17.88524,49.97928],[17.86849,49.97249],[17.86035,49.9809],[17.85257,49.9821],[17.85006,49.98691],[17.84292,49.98678],[17.82645,49.99407],[17.83686,50.00361],[17.82769,50.01131],[17.80419,50.01242],[17.79524,50.01429],[17.79504,50.0177],[17.77777,50.02012],[17.77129,50.02583],[17.77725,50.03058],[17.77512,50.03512],[17.77027,50.03563],[17.77313,50.04201],[17.77153,50.04844],[17.76305,50.05264],[17.75242,50.07432],[17.72922,50.08831],[17.73088,50.09717],[17.69708,50.11692],[17.68327,50.11731],[17.67666,50.10302],[17.65076,50.11063],[17.63929,50.13135],[17.61086,50.14003],[17.60626,50.14839],[17.59274,50.16001],[17.60446,50.17093],[17.62595,50.16935],[17.63157,50.17359],[17.70482,50.18501],[17.71745,50.20573],[17.74454,50.20267],[17.75847,50.20658],[17.75987,50.2169],[17.75654,50.22145],[17.76497,50.23639],[17.72495,50.25675],[17.72559,50.27226],[17.73417,50.2773],[17.75205,50.29952],[17.72883,50.30329],[17.72248,50.3177],[17.70975,50.32346],[17.68693,50.32797],[17.68912,50.30186],[17.686,50.29904],[17.65974,50.28596],[17.65076,50.27776],[17.61728,50.26694],[17.60544,50.26712],[17.59146,50.27892],[17.58072,50.27792],[17.56318,50.27029],[17.49559,50.27509],[17.46349,50.26705],[17.45783,50.27009],[17.45709,50.25982],[17.454,50.2563],[17.43956,50.25163],[17.42968,50.25418],[17.428,50.25964],[17.43118,50.26306],[17.42067,50.27742],[17.40687,50.27393],[17.40083,50.27959],[17.38903,50.28276],[17.37332,50.28265],[17.36315,50.27964],[17.36304,50.26503],[17.35242,50.2638],[17.34788,50.26525],[17.34273,50.28097],[17.33773,50.28347],[17.34819,50.28744],[17.34472,50.29131],[17.34599,50.29783],[17.35368,50.30805],[17.34861,50.3118],[17.33751,50.31307],[17.34048,50.32268],[17.34821,50.32279],[17.34866,50.32835],[17.32781,50.3271],[17.31276,50.32048],[17.28207,50.319],[17.26366,50.32823],[17.24732,50.33207],[17.22326,50.34617],[17.21305,50.35755],[17.20114,50.36402],[17.19912,50.37509],[17.20375,50.38613],[17.18404,50.38996],[17.15721,50.38007],[17.14333,50.38041],[17.1224,50.39428],[17.1111,50.39369],[17.11075,50.40496],[17.08513,50.40579],[17.08097,50.40223],[17.05253,50.40696],[17.0375,50.41489],[17.0303,50.41511],[17.02428,50.42147],[17.01368,50.41855],[16.99828,50.42775],[16.97401,50.41775],[16.9634,50.42602],[16.92192,50.4405],[16.90791,50.44945],[16.89284,50.44337],[16.88116,50.44243],[16.88072,50.43617],[16.87557,50.43264],[16.87582,50.42819],[16.86945,50.42288],[16.86815,50.4159],[16.86052,50.41123],[16.86099,50.40812],[16.89287,50.39511],[16.89904,50.38958],[16.91097,50.38904],[16.91048,50.3849],[16.91505,50.38249],[16.91957,50.36898],[16.91551,50.36303],[16.92984,50.34582],[16.93609,50.34346],[16.93846,50.3331],[16.93431,50.33079],[16.94615,50.31539],[16.95552,50.31228],[16.96826,50.31593],[16.97306,50.30839],[16.99344,50.30235],[17.00094,50.30304],[17.00371,50.29631],[17.00824,50.29575],[17.01992,50.27857],[17.01656,50.26735],[17.00155,50.2564],[17.01081,50.24923],[17.01067,50.24272],[17.02832,50.22998],[17.01481,50.21945],[16.99891,50.21586],[16.99224,50.22681],[16.98278,50.23305],[16.97769,50.24433],[16.96323,50.23906],[16.96113,50.23528],[16.96585,50.22979],[16.95591,50.22252],[16.92698,50.22303],[16.91737,50.2262],[16.898,50.22203],[16.8965,50.21778],[16.88504,50.21308],[16.88276,50.19986],[16.86279,50.19824],[16.84739,50.20744],[16.83519,50.20242],[16.83608,50.19885],[16.82588,50.1946],[16.82285,50.18866],[16.81563,50.19216],[16.80991,50.18934],[16.80068,50.18012],[16.79736,50.16566],[16.78162,50.15134],[16.78334,50.1456],[16.75495,50.13388],[16.74486,50.13457],[16.72937,50.11717],[16.72388,50.10526],[16.71845,50.10194],[16.70604,50.09659],[16.6893,50.09846],[16.66085,50.10802],[16.6332,50.11163],[16.6252,50.12102],[16.61399,50.12508],[16.61307,50.13187],[16.60352,50.13401],[16.5946,50.14059],[16.58008,50.14241],[16.58461,50.14589],[16.58036,50.14881],[16.58552,50.15201],[16.56063,50.16472],[16.5578,50.17075],[16.56382,50.17977],[16.5544,50.19601],[16.55652,50.20349],[16.5617,50.20762],[16.55851,50.21008],[16.55729,50.22047],[16.55149,50.2228],[16.54832,50.22975],[16.53759,50.23891],[16.52934,50.2376],[16.51694,50.24335],[16.51285,50.24739],[16.5139,50.25181],[16.50839,50.2529],[16.50809,50.25764],[16.50386,50.26087],[16.49775,50.25981],[16.48956,50.26448],[16.489,50.2685],[16.48121,50.27234],[16.48116,50.27563],[16.4662,50.28764],[16.46759,50.29047],[16.44938,50.30447],[16.43041,50.32508],[16.41108,50.3246],[16.39926,50.31919],[16.38323,50.32882],[16.37521,50.34227],[16.36217,50.34972],[16.36116,50.35365],[16.36589,50.35732],[16.36802,50.36696],[16.36065,50.37956],[16.34851,50.38066],[16.34181,50.37787],[16.30871,50.38313],[16.30183,50.38204],[16.29185,50.37027],[16.27863,50.36744],[16.27686,50.37621],[16.26776,50.37938],[16.26306,50.39356],[16.25072,50.39348],[16.24739,50.39619],[16.2519,50.39969],[16.25293,50.40564],[16.24162,50.40967],[16.23811,50.41408],[16.22093,50.40697],[16.21046,50.41124],[16.21411,50.41469],[16.20985,50.42679],[16.19829,50.42884],[16.19572,50.43212],[16.19867,50.43473],[16.19883,50.44178],[16.20517,50.44873],[16.2133,50.4518],[16.2197,50.45186],[16.22083,50.44625],[16.23045,50.44273],[16.23406,50.4487],[16.23022,50.45377],[16.22036,50.45788],[16.22396,50.46058],[16.23526,50.45992],[16.23354,50.46681],[16.24338,50.46306],[16.2557,50.46762],[16.2492,50.47395],[16.25871,50.48019],[16.26965,50.47958],[16.26851,50.48292],[16.29474,50.47969],[16.30157,50.48978],[16.31241,50.49412],[16.30943,50.49936],[16.31173,50.50619],[16.31902,50.50787],[16.34381,50.49583],[16.36036,50.50123],[16.37394,50.51638],[16.40178,50.52988],[16.3874,50.54177],[16.41054,50.54775],[16.41065,50.5564],[16.404,50.56467],[16.40464,50.56927],[16.41881,50.56864],[16.44491,50.57958],[16.44332,50.5865],[16.42248,50.60671],[16.41278,50.61012],[16.40565,50.61699],[16.39444,50.61872],[16.3804,50.63033],[16.37955,50.63651],[16.37303,50.63713],[16.36247,50.64832],[16.35121,50.64786],[16.34309,50.6615],[16.32212,50.6666],[16.30499,50.65906],[16.28409,50.66044],[16.27944,50.66822],[16.25836,50.66711],[16.23659,50.6712],[16.23175,50.66937],[16.22148,50.65151],[16.22052,50.63648],[16.21737,50.63335],[16.18419,50.6272],[16.17939,50.62865],[16.17695,50.63965],[16.16897,50.64584],[16.14839,50.65334],[16.1395,50.65078],[16.12584,50.66058],[16.11354,50.65956],[16.10367,50.66336],[16.09507,50.65301],[16.08828,50.65224],[16.08382,50.64651],[16.06759,50.63976],[16.05607,50.6097],[16.04262,50.61424],[16.02482,50.59861],[16.01979,50.60013],[16.0157,50.60611],[15.99159,50.61012],[15.98635,50.61476],[15.99838,50.62289],[16.02176,50.63018],[16.00898,50.63433],[16.00542,50.64251],[16.00092,50.64476],[16.00476,50.64831],[16.00432,50.65819],[15.99789,50.66862],[15.99889,50.67226],[15.9937,50.67339],[15.98957,50.67871],[15.99124,50.6829],[15.96716,50.69172],[15.95549,50.69133],[15.93317,50.68682],[15.9262,50.68076],[15.91953,50.6846],[15.88507,50.67534],[15.88479,50.67131],[15.86097,50.67445],[15.86337,50.68034],[15.85106,50.70822],[15.83019,50.72415],[15.83193,50.74269],[15.81969,50.74977],[15.81619,50.75533],[15.79146,50.75265],[15.78874,50.74674],[15.77922,50.74227],[15.75876,50.74335],[15.73978,50.73594],[15.72335,50.73979],[15.70571,50.73725],[15.68864,50.74279],[15.68026,50.75474],[15.6221,50.76519],[15.61644,50.77234],[15.60177,50.77682],[15.57874,50.77897],[15.56402,50.77612],[15.54567,50.78045],[15.52431,50.777],[15.51101,50.79081],[15.49365,50.78823],[15.48052,50.79083],[15.47522,50.79583],[15.45094,50.80407],[15.45023,50.80711],[15.43875,50.80906],[15.42083,50.80325],[15.40908,50.78682],[15.39213,50.77587],[15.37374,50.77808],[15.37037,50.78131],[15.37345,50.78482],[15.37246,50.79583],[15.36622,50.80182],[15.37262,50.80627],[15.3741,50.81089],[15.37005,50.81441],[15.37603,50.82127],[15.37213,50.82368],[15.36731,50.83802],[15.35836,50.84714],[15.33999,50.85666],[15.3098,50.86145],[15.27706,50.89102],[15.27684,50.89899],[15.2669,50.92075],[15.26971,50.92547],[15.26785,50.93251],[15.29004,50.94743],[15.29205,50.95354],[15.28503,50.95967],[15.27388,50.96291],[15.27721,50.97163],[15.27408,50.97955],[15.24846,50.97967],[15.23932,50.98595],[15.24279,50.98794],[15.23719,50.9946],[15.24232,50.99694],[15.23805,50.99861],[15.2037,50.99225],[15.19661,50.98834],[15.20003,50.98401],[15.19182,50.98054],[15.17155,50.98648],[15.17551,50.98868],[15.17587,50.99468],[15.17185,51.02003],[15.14437,51.01337],[15.13512,50.99932],[15.13311,50.99389],[15.13532,50.99164],[15.12803,50.99014],[15.12316,50.99295],[15.10514,50.99161],[15.1008,50.99418],[15.09687,51.00195],[15.10743,51.00831],[15.106,51.01074],[15.07738,51.01356],[15.07581,51.01729],[15.061,51.02289],[15.05772,51.02252],[15.05759,51.01296],[15.0356,51.01301],[15.03164,51.02103],[15.02414,51.02322],[15.01647,51.02181],[15.01472,51.01631],[14.99724,51.00921],[14.98543,51.01084],[14.96824,50.99001],[14.98892,50.97804],[15.00613,50.98645],[15.02172,50.96708],[15.01103,50.96236],[15.01537,50.94966],[15.01434,50.93982],[14.98946,50.92165],[14.99887,50.91286],[14.9982,50.90772],[15.0068,50.90723],[14.99618,50.90063],[14.99424,50.89161],[14.999,50.88613],[15.00194,50.86878],[14.98591,50.86915],[14.95813,50.86205],[14.93736,50.86942],[14.90017,50.87596],[14.89728,50.86735],[14.87437,50.87713],[14.86702,50.87721],[14.86375,50.87047],[14.85287,50.86866],[14.83116,50.87289],[14.82337,50.87056],[14.81754,50.88071],[14.82195,50.88771],[14.84338,50.90063],[14.85148,50.91045],[14.86784,50.91759],[14.8757,50.93147],[14.89198,50.93587],[14.89692,50.94185],[14.89303,50.94934],[14.89785,50.95959],[14.90225,50.96041],[14.90064,50.96479],[14.90362,50.96653],[14.90349,50.97186],[14.91959,50.97545],[14.92017,50.98836],[14.9173,50.99544],[14.92892,50.9978],[14.93815,51.01194],[14.93934,51.01695],[14.93526,51.02041],[14.94013,51.02082],[14.93924,51.02353],[14.94754,51.02817],[14.94651,51.03156],[14.95178,51.03737],[14.9482,51.04024],[14.95367,51.04669],[14.96466,51.05012],[14.9625,51.05603],[14.9708,51.06535],[14.9713,51.07235],[14.97944,51.07746],[14.97628,51.08695],[14.98016,51.08728],[14.98367,51.09233],[14.9843,51.10101],[14.97847,51.10671],[14.98178,51.11745],[14.98755,51.11601],[14.99778,51.12265],[14.99486,51.12363],[14.99546,51.13674],[14.99048,51.14254],[14.99696,51.14445],[15.00089,51.15025],[14.99313,51.16243],[15.00515,51.16794],[15.00151,51.17237],[15.00868,51.1805],[15.00499,51.19153],[15.01429,51.19583],[15.01405,51.19835],[15.00805,51.19919],[15.00781,51.20481],[15.01318,51.21053],[15.01008,51.21387],[15.0163,51.21431],[15.01679,51.2279],[15.02597,51.2319],[15.02406,51.23426],[15.03739,51.24382],[15.03013,51.25107],[15.02336,51.25005],[15.02575,51.25415],[15.03713,51.2577],[15.03679,51.27026],[15.0417,51.27422],[15.03428,51.2778],[15.03348,51.292],[15.02876,51.297],[15.0121,51.30232],[15.01255,51.30869],[15.0068,51.31129],[15.00959,51.31539],[14.99258,51.32343],[14.9937,51.32825],[14.9867,51.32889],[14.9816,51.3346],[14.9779,51.34129],[14.97612,51.35731],[14.96587,51.35986],[14.96561,51.3624],[14.97751,51.36575],[14.97828,51.37011],[14.98351,51.373],[14.96864,51.37966],[14.96477,51.3863],[14.96589,51.39138],[14.9616,51.39743],[14.96913,51.39808],[14.96817,51.40226],[14.95854,51.41048],[14.96703,51.41613],[14.96411,51.42358],[14.96628,51.42656],[14.95874,51.43089],[14.96287,51.43407],[14.96981,51.43206],[14.97428,51.44102],[14.9556,51.45947],[14.9565,51.46333],[14.95223,51.46874],[14.94769,51.47196],[14.92746,51.47304],[14.92514,51.47989],[14.91509,51.48382],[14.89834,51.48198],[14.88693,51.48803],[14.87211,51.4847],[14.86445,51.49061],[14.8533,51.48932],[14.84022,51.49575],[14.83184,51.50401],[14.81135,51.50633],[14.80528,51.51441],[14.79417,51.51809],[14.76555,51.51894],[14.75948,51.52352],[14.75252,51.52173],[14.73509,51.52641],[14.7295,51.53101],[14.72706,51.54083],[14.73151,51.5451],[14.7285,51.55068],[14.71684,51.55485],[14.71143,51.56192],[14.72659,51.57472],[14.73374,51.58682],[14.74266,51.59333],[14.75136,51.59519],[14.76487,51.60731],[14.76285,51.61989],[14.75329,51.62822],[14.75617,51.63294],[14.75597,51.64523],[14.75102,51.65178],[14.7568,51.66215],[14.74759,51.67524],[14.73677,51.67994],[14.73944,51.68364],[14.73581,51.68882],[14.72438,51.69059],[14.68964,51.70895],[14.67795,51.7225],[14.66825,51.72599],[14.65669,51.74031],[14.65986,51.74951],[14.6571,51.7524],[14.66405,51.75648],[14.65041,51.76197],[14.65507,51.77274],[14.6533,51.78469],[14.64883,51.78739],[14.64635,51.79433],[14.63453,51.80069],[14.60451,51.8053],[14.59631,51.81808],[14.59011,51.82077],[14.58957,51.82653],[14.59265,51.82926],[14.59048,51.83863],[14.59699,51.84233],[14.60218,51.83941],[14.6061,51.84198],[14.60311,51.84678],[14.60672,51.84829],[14.61267,51.84626],[14.60726,51.85182],[14.61087,51.85679],[14.62521,51.85848],[14.63525,51.8657],[14.64252,51.86651],[14.64679,51.8724],[14.65257,51.87421],[14.65623,51.88506],[14.66308,51.8905],[14.67355,51.88947],[14.67554,51.89483],[14.69326,51.9011],[14.69113,51.90776],[14.69949,51.91389],[14.70557,51.92371],[14.70335,51.93082],[14.71895,51.94137],[14.72099,51.9528],[14.70733,51.96559],[14.70484,51.97627],[14.71673,51.98306],[14.7217,51.99493],[14.7148,52.00193],[14.74095,52.02292],[14.74039,52.02911],[14.74841,52.03213],[14.74991,52.04176],[14.74534,52.0537],[14.75729,52.06065],[14.75916,52.0651],[14.73984,52.08608],[14.7243,52.0935],[14.70028,52.09816],[14.68598,52.10915],[14.68161,52.11791],[14.68415,52.12389],[14.67941,52.14451],[14.70534,52.16853],[14.70268,52.17853],[14.6855,52.19219],[14.68574,52.19573],[14.70842,52.21183],[14.716,52.23283],[14.71455,52.23706],[14.69321,52.25549],[14.59316,52.2744],[14.58865,52.28233],[14.57572,52.28867],[14.57475,52.29548],[14.58265,52.30104],[14.58476,52.3067],[14.57484,52.32265],[14.56102,52.32863],[14.56308,52.33799],[14.55215,52.35368],[14.55226,52.37358],[14.53427,52.39726],[14.54588,52.41139],[14.54395,52.42389],[14.54818,52.43231],[14.55934,52.43894],[14.58057,52.44284],[14.6102,52.46543],[14.61235,52.47592],[14.63171,52.48852],[14.63472,52.49818],[14.61112,52.51339],[14.60421,52.53328],[14.61422,52.54571],[14.61681,52.55548],[14.63835,52.56727],[14.63911,52.57294],[14.61392,52.58643],[14.6086,52.59891],[14.59772,52.6098],[14.56535,52.6244],[14.50489,52.64353],[14.4629,52.66286],[14.45788,52.67375],[14.4313,52.68287],[14.42394,52.6962],[14.41347,52.7009],[14.40471,52.71153],[14.3838,52.72556],[14.3734,52.73666],[14.36292,52.7395],[14.35121,52.75141],[14.28049,52.77375],[14.25387,52.78902],[14.21555,52.81749],[14.14487,52.82371],[14.13023,52.82822],[14.123,52.83744],[14.12312,52.84434],[14.15491,52.87165],[14.16143,52.88843],[14.15202,52.90197],[14.15015,52.91638],[14.14271,52.9331],[14.14427,52.94342],[14.13887,52.95171],[14.14398,52.96163],[14.15965,52.96446],[14.17577,52.97644],[14.20931,52.98814],[14.23545,52.99316],[14.26067,53.00392],[14.34827,53.05447],[14.36623,53.07957],[14.3712,53.09675],[14.37033,53.10463],[14.37832,53.11174],[14.3832,53.13675],[14.3877,53.14302],[14.37364,53.15441],[14.36635,53.1724],[14.37453,53.18774],[14.37723,53.20161],[14.40587,53.21073],[14.40843,53.22292],[14.43079,53.23911],[14.43479,53.24809],[14.45047,53.26131],[14.44524,53.27443],[14.4212,53.27613],[14.41493,53.30193],[14.40681,53.30874],[14.41548,53.32437],[14.4055,53.34708],[14.39029,53.35374],[14.39484,53.37574],[14.37333,53.40894],[14.36866,53.4326],[14.37126,53.45643],[14.35805,53.45732],[14.35418,53.4886],[14.35067,53.496],[14.32693,53.50381],[14.31578,53.52514],[14.31935,53.52984],[14.31585,53.53693],[14.3058,53.54391],[14.30725,53.55138],[14.3026,53.55339],[14.31386,53.56509],[14.31187,53.57977],[14.31694,53.61806],[14.31113,53.61845],[14.2839,53.63444],[14.28479,53.65885],[14.27888,53.66314],[14.27229,53.66338],[14.2707,53.66674],[14.28116,53.67294],[14.28371,53.68259],[14.27244,53.68935],[14.26707,53.69847],[14.2919,53.69816],[14.30739,53.70171],[14.30873,53.71197],[14.30192,53.7191],[14.28549,53.71977],[14.27809,53.72332],[14.27846,53.72704],[14.30266,53.72628],[14.29804,53.73112],[14.29944,53.73843],[14.29295,53.73852],[14.29377,53.74147],[14.28513,53.74091],[14.28768,53.74374],[14.30195,53.74318],[14.33061,53.73438],[14.34518,53.71421],[14.38876,53.68704],[14.40526,53.67995],[14.47914,53.67236],[14.51071,53.66583],[14.51637,53.66047],[14.53066,53.65592],[14.53134,53.65233],[14.5411,53.64725],[14.57237,53.60381],[14.58363,53.59694],[14.5819,53.58203],[14.58712,53.56797],[14.59511,53.55633],[14.60196,53.55904],[14.59286,53.62284],[14.59562,53.62708],[14.61714,53.6301],[14.61818,53.6342],[14.61363,53.63687],[14.61467,53.64136],[14.6209,53.64292],[14.62042,53.64932],[14.60553,53.65029],[14.60871,53.65671],[14.58458,53.65407],[14.56966,53.65863],[14.5681,53.66297],[14.57067,53.66503],[14.56117,53.66615],[14.54425,53.67557],[14.54372,53.68389],[14.54651,53.68544],[14.53855,53.70308],[14.55165,53.73003],[14.55729,53.7485],[14.55809,53.75388],[14.55549,53.75541],[14.56879,53.76468],[14.57144,53.75905],[14.57533,53.75906],[14.57493,53.75573],[14.58272,53.75525],[14.58999,53.7627],[14.60816,53.76187],[14.61461,53.76611],[14.6165,53.77183],[14.61031,53.78608],[14.61266,53.78916],[14.61159,53.8117],[14.60523,53.82116],[14.61965,53.83017],[14.6189,53.84118],[14.6279,53.85146],[14.627,53.85555],[14.63997,53.88403],[14.65372,53.89969],[14.67147,53.90384],[14.68092,53.91616],[14.6874,53.91913],[14.69827,53.91621],[14.69604,53.92466],[14.70641,53.93134],[14.72071,53.93471],[14.72415,53.94073],[14.74239,53.93924],[14.75026,53.92939],[14.74857,53.92324],[14.75638,53.92249],[14.76155,53.92916],[14.75914,53.93248],[14.76018,53.94145],[14.76513,53.94863],[14.76075,53.95452],[14.76305,53.97092],[14.77172,53.97465],[14.78519,53.97454],[14.76713,53.97938],[14.76552,53.99602],[14.77459,54.00629],[14.78327,54.01002],[14.79981,54.00774],[14.80476,54.01761],[14.80448,54.03016],[14.79403,54.03232],[14.77491,54.02832],[14.77276,54.02357],[14.7623,54.02637],[14.7358,54.01966],[14.73145,54.02003],[14.73013,54.0235],[14.90537,54.05628],[15.05737,54.09447],[15.09704,54.1006],[15.24498,54.13445],[15.28564,54.14704],[15.43724,54.16593],[15.48833,54.16676],[15.51721,54.17253],[15.5521,54.18659],[15.58115,54.18658],[15.67572,54.20094],[15.76299,54.21848],[15.8478,54.24084],[16.01349,54.25596],[16.10543,54.275],[16.18821,54.30675],[16.264,54.35029],[16.31731,54.38558],[16.36117,54.42455],[16.37397,54.43951],[16.38995,54.44394],[16.43415,54.48889],[16.48093,54.51715],[16.52801,54.53975],[16.61648,54.56011],[16.68917,54.56962],[16.76943,54.57001],[16.84989,54.58943],[16.88501,54.59055],[16.90554,54.59561],[16.95488,54.61263],[17.01115,54.64373],[17.05089,54.66971],[17.13478,54.69324],[17.25014,54.73188],[17.31393,54.74042],[17.35832,54.74981],[17.47479,54.75697],[17.6195,54.77519],[17.75964,54.80232],[17.81193,54.80802],[17.90943,54.82546],[17.98225,54.83164],[18.22554,54.83273],[18.30257,54.83574],[18.33151,54.83446],[18.35792,54.81762],[18.41458,54.7986],[18.41431,54.79603],[18.43752,54.78653],[18.68174,54.70216],[18.783,54.65423],[18.8211,54.62777],[18.82505,54.62399],[18.82897,54.60843],[18.82649,54.60122],[18.81194,54.59263],[18.79533,54.61039],[18.77867,54.61623],[18.76357,54.63799],[18.70112,54.68806],[18.68705,54.69432],[18.67788,54.69235],[18.67541,54.69679],[18.67271,54.69366],[18.66512,54.69877],[18.65446,54.69959],[18.62137,54.72085],[18.54276,54.7472],[18.52803,54.74908],[18.52009,54.75584],[18.48132,54.76657],[18.47392,54.77167],[18.42634,54.78796],[18.4219,54.78825],[18.41695,54.76843],[18.40118,54.75527],[18.39646,54.74594],[18.39423,54.72899],[18.40246,54.72481],[18.41897,54.72284],[18.44763,54.70349],[18.47205,54.69502],[18.46591,54.68695],[18.46423,54.66078],[18.46448,54.65669],[18.47417,54.65023],[18.47097,54.64478],[18.47526,54.63975],[18.46806,54.63831],[18.4688,54.63346],[18.48358,54.63031],[18.51353,54.63516],[18.51072,54.62331],[18.51472,54.60828],[18.53474,54.58742],[18.54148,54.58551],[18.54912,54.57339],[18.552,54.56087],[18.56017,54.54951],[18.55997,54.54182],[18.55284,54.54308],[18.54841,54.5362],[18.54488,54.53639],[18.54027,54.53963],[18.53375,54.53821],[18.52511,54.54265],[18.50597,54.54571],[18.50884,54.54206],[18.51685,54.5407],[18.51581,54.53605],[18.521,54.53782],[18.52036,54.53371],[18.52855,54.5367],[18.52446,54.53149],[18.53306,54.535],[18.538,54.53343],[18.52806,54.53028],[18.52906,54.52825],[18.54329,54.53342],[18.5482,54.53236],[18.54884,54.52905],[18.55953,54.52695],[18.55206,54.52667],[18.55311,54.52387],[18.55926,54.52425],[18.55895,54.52194],[18.55015,54.52189],[18.55136,54.51269],[18.56827,54.48741],[18.56221,54.47089],[18.56249,54.45901],[18.5664,54.45228],[18.58517,54.43409],[18.61527,54.41712],[18.63634,54.40985],[18.66028,54.40981],[18.66383,54.40501],[18.67847,54.40273],[18.67664,54.39603],[18.6581,54.38248],[18.64683,54.37995],[18.64209,54.37461],[18.64854,54.36551],[18.66639,54.36022],[18.66186,54.38191],[18.67045,54.38925],[18.67303,54.38238],[18.67579,54.38397],[18.67195,54.38979],[18.68279,54.39999],[18.68041,54.40328],[18.66557,54.40555],[18.66183,54.40958],[18.66341,54.41269],[18.69787,54.40118],[18.71217,54.40465],[18.69326,54.39725],[18.70335,54.39757],[18.71246,54.38365],[18.72825,54.376],[18.779,54.3708],[18.77622,54.36537],[18.7796,54.36364],[18.78592,54.34825],[18.79586,54.34267],[18.81205,54.34335],[18.82673,54.33939],[18.83763,54.32806],[18.85668,54.31994],[18.87039,54.30918],[18.89996,54.31339],[18.91327,54.31017],[18.91675,54.30613],[18.91307,54.30556],[18.91935,54.29824],[18.92051,54.28827],[18.92444,54.28859],[18.92237,54.29906],[18.91541,54.31124],[18.90206,54.31549],[18.86928,54.3135],[18.86054,54.32156],[18.84402,54.3274],[18.83553,54.33878],[18.82741,54.34312],[18.79248,54.3485],[18.78713,54.3584],[18.79871,54.36322],[18.78528,54.36835],[18.8351,54.35542],[18.88374,54.3477],[18.92368,54.34712],[18.93616,54.35181],[18.93726,54.35619],[18.94364,54.36013],[18.94741,54.35918],[18.93989,54.34291],[18.93185,54.31101],[18.92681,54.31118],[18.9265,54.30848],[18.93154,54.30844],[18.9342,54.29029],[18.94612,54.26206],[18.94118,54.23815],[18.91573,54.20953],[18.89831,54.19962],[18.86861,54.1909],[18.85447,54.1813],[18.84908,54.17146],[18.82739,54.14802],[18.82657,54.13032],[18.81937,54.12199],[18.81507,54.10834],[18.80496,54.09765],[18.80625,54.09306],[18.8195,54.10714],[18.82354,54.12156],[18.83258,54.13223],[18.8308,54.14526],[18.85954,54.18062],[18.86578,54.18637],[18.9032,54.19804],[18.91637,54.20544],[18.94744,54.23979],[18.95089,54.26291],[18.93815,54.29011],[18.93585,54.30979],[18.95363,54.35775],[18.9856,54.34535],[19.05009,54.34461],[19.19054,54.35167],[19.31501,54.36423],[19.41306,54.38119],[19.49614,54.40172],[19.57252,54.42737],[19.63922,54.45818],[19.64905,54.45325],[19.5937,54.42454],[19.53642,54.40478],[19.46314,54.38581],[19.44484,54.37635],[19.42287,54.37145],[19.42188,54.36862],[19.39134,54.36425],[19.36499,54.3539],[19.2888,54.35105],[19.24703,54.34328],[19.22586,54.33593],[19.22562,54.3313],[19.22963,54.32996],[19.24984,54.32885],[19.25025,54.31899],[19.25918,54.31515],[19.25906,54.30771],[19.26441,54.30549],[19.24722,54.29242],[19.25432,54.28511],[19.25938,54.28441],[19.25946,54.2775],[19.24984,54.26685],[19.2732,54.26282],[19.25765,54.2685],[19.25826,54.27467],[19.27496,54.27311],[19.2778,54.27853],[19.3173,54.27601],[19.37552,54.2649],[19.38294,54.26551],[19.39638,54.27427],[19.36982,54.2319],[19.36281,54.22668],[19.36457,54.22081],[19.36901,54.21895],[19.37468,54.21941],[19.37793,54.22586],[19.3836,54.2262],[19.39834,54.25765],[19.39832,54.26379],[19.4381,54.28814],[19.4593,54.29482],[19.49733,54.32091],[19.53178,54.32556],[19.56027,54.3382],[19.62944,54.3408],[19.64641,54.34522],[19.6859,54.36461],[19.69271,54.37801],[19.70751,54.38175],[19.71897,54.40135],[19.7456,54.41341],[19.74873,54.41881],[19.74347,54.4258],[19.74638,54.43109],[19.78844,54.43523],[19.80382,54.4424],[20.33197,54.40116],[20.36107,54.39586],[20.51512,54.38064],[20.58392,54.37808],[20.62237,54.37101],[20.63104,54.3663],[20.64806,54.37123],[20.68943,54.37227],[20.81828,54.36007],[20.95133,54.35715],[21.03916,54.34853],[21.09981,54.3466],[21.14317,54.34248],[21.16413,54.33721],[21.1968,54.33775],[21.27434,54.32834],[21.30278,54.33347],[21.32381,54.32929],[21.37938,54.33099],[21.41421,54.32614],[21.43322,54.32686],[21.44607,54.31816],[21.52876,54.32543],[21.57019,54.32193],[21.57356,54.32528],[21.79546,54.33171],[22.15289,54.33658],[22.22573,54.34386],[22.22923,54.34049],[22.31879,54.34051],[22.32926,54.34456],[22.38258,54.34469],[22.42179,54.34846],[22.43455,54.34622],[22.61639,54.35571],[22.65006,54.35416],[22.68061,54.36024],[22.792,54.36332],[22.81142,54.37097],[22.83631,54.40649],[22.85471,54.41043],[22.88798,54.4091],[22.88751,54.39994],[22.98384,54.38958],[22.98478,54.38454],[23.0102,54.3828],[22.99391,54.3619],[23.00937,54.35572],[23.04769,54.3492],[23.06316,54.34096],[23.05091,54.33354],[23.04637,54.32723],[23.04211,54.31599],[23.05095,54.31244],[23.09215,54.29846],[23.14037,54.31595],[23.14877,54.31436],[23.15975,54.30961],[23.15419,54.29701],[23.16958,54.29495],[23.17643,54.29087],[23.20241,54.28863],[23.23388,54.26091],[23.24886,54.25683],[23.28176,54.26068],[23.29663,54.25553],[23.33753,54.25173],[23.34839,54.2457],[23.36172,54.23101],[23.38131,54.22882],[23.38679,54.22483],[23.38554,54.21962],[23.39422,54.21686],[23.40638,54.19634],[23.41916,54.19112],[23.42448,54.17753],[23.45898,54.17554],[23.4612,54.16778],[23.4755,54.16342],[23.47332,54.15808],[23.48583,54.15324],[23.49117,54.13555],[23.49533,54.13257],[23.49261,54.11702],[23.49646,54.11302],[23.50201,54.11294],[23.50696,54.09948],[23.51832,54.0898],[23.51838,54.07867],[23.52861,54.06579],[23.52591,54.05687],[23.52734,54.04736],[23.52328,54.03769],[23.52487,54.03108],[23.5162,54.02858],[23.50897,54.0118],[23.48192,53.99984],[23.48474,53.9927],[23.48284,53.99066],[23.49111,53.97349],[23.49818,53.9717],[23.49832,53.96868],[23.51621,53.95805],[23.51186,53.91047],[23.52594,53.86923],[23.52696,53.86419],[23.52426,53.86256],[23.53542,53.85719],[23.54786,53.85649],[23.55175,53.85054],[23.54491,53.84508],[23.55232,53.84074],[23.54617,53.82605],[23.54462,53.79614],[23.54893,53.76779],[23.58202,53.74381],[23.58548,53.72858],[23.5852,53.70583],[23.58905,53.69474],[23.62649,53.59657],[23.65934,53.52165],[23.66687,53.51281],[23.70727,53.43654],[23.73661,53.39233],[23.79907,53.27395],[23.81869,53.24399],[23.85539,53.23173],[23.86123,53.22085],[23.86199,53.21376],[23.85723,53.20988],[23.86212,53.20562],[23.8637,53.19568],[23.87341,53.19263],[23.89625,53.17631],[23.9018,53.17635],[23.91498,53.16219],[23.91447,53.15207],[23.90986,53.14927],[23.91593,53.14384],[23.89746,53.13134],[23.89736,53.12457],[23.89387,53.12504],[23.88552,53.11262],[23.88779,53.10414],[23.88181,53.0999],[23.88155,53.09247],[23.87632,53.08996],[23.87183,53.08191],[23.87752,53.07976],[23.88215,53.06594],[23.90011,53.06045],[23.90294,53.05772],[23.89966,53.05289],[23.90111,53.04841],[23.9162,53.04011],[23.90998,53.0327],[23.92566,53.02321],[23.93331,52.98843],[23.92932,52.98255],[23.93109,52.97616],[23.94623,52.95873],[23.91639,52.93896],[23.91627,52.9061],[23.92578,52.89884],[23.92453,52.8306],[23.93963,52.81304],[23.9387,52.71303],[23.9001,52.69117],[23.89266,52.67975],[23.87947,52.67974],[23.76595,52.61783],[23.73991,52.61215],[23.73573,52.6088],[23.71886,52.61468],[23.64134,52.60744],[23.54017,52.58027],[23.46658,52.5495],[23.45783,52.54042],[23.43596,52.5302],[23.40726,52.51093],[23.35695,52.46932],[23.31228,52.42506],[23.31024,52.41397],[23.30021,52.40404],[23.27796,52.39285],[23.24144,52.35756],[23.1782,52.28304],[23.20483,52.2756],[23.19962,52.26848],[23.20568,52.2576],[23.19458,52.23907],[23.20198,52.22738],[23.27133,52.21499],[23.30635,52.22188],[23.30621,52.21583],[23.30051,52.21411],[23.31001,52.20853],[23.3252,52.21085],[23.33786,52.20606],[23.35181,52.21097],[23.35466,52.20884],[23.35151,52.20618],[23.35376,52.20427],[23.36752,52.20761],[23.37345,52.19524],[23.38025,52.19483],[23.39481,52.2013],[23.39693,52.19964],[23.39315,52.19724],[23.40102,52.19115],[23.3972,52.18787],[23.39908,52.17801],[23.41496,52.18227],[23.42232,52.17311],[23.42996,52.17245],[23.44448,52.18282],[23.45727,52.1848],[23.46175,52.18415],[23.46271,52.17592],[23.46676,52.17421],[23.48587,52.18139],[23.50327,52.17813],[23.50689,52.17546],[23.50523,52.17209],[23.49869,52.17068],[23.49824,52.17404],[23.4928,52.17324],[23.49513,52.16983],[23.4859,52.16589],[23.48881,52.15861],[23.48705,52.15256],[23.50043,52.14703],[23.50922,52.15048],[23.52086,52.13342],[23.53152,52.13301],[23.54208,52.12773],[23.54324,52.11909],[23.54788,52.11602],[23.5501,52.10936],[23.55599,52.11028],[23.55561,52.11749],[23.55942,52.11984],[23.56674,52.11583],[23.57821,52.11997],[23.60071,52.11604],[23.6086,52.10857],[23.61792,52.10912],[23.61994,52.10515],[23.61175,52.10333],[23.6122,52.09713],[23.62457,52.0888],[23.64006,52.0855],[23.64321,52.07728],[23.65376,52.07243],[23.645,52.06689],[23.64611,52.06318],[23.65417,52.06284],[23.65583,52.05992],[23.6438,52.06114],[23.64243,52.05788],[23.65441,52.05398],[23.65812,52.04255],[23.66236,52.03963],[23.66047,52.03002],[23.66302,52.02433],[23.65743,52.0205],[23.65935,52.01704],[23.66592,52.01574],[23.6749,52.00416],[23.68371,52.00101],[23.68826,51.99438],[23.68792,51.98888],[23.66552,51.97905],[23.67048,51.96594],[23.65094,51.96353],[23.64035,51.95357],[23.62938,51.95274],[23.62665,51.94889],[23.64117,51.94955],[23.6404,51.94287],[23.64507,51.93957],[23.64507,51.9323],[23.63348,51.93186],[23.62953,51.92173],[23.61963,51.92505],[23.61167,51.91772],[23.62001,51.91069],[23.61823,51.90348],[23.63246,51.89947],[23.63761,51.89227],[23.62422,51.88724],[23.62313,51.88321],[23.6316,51.87738],[23.63143,51.87323],[23.61654,51.87818],[23.60724,51.8763],[23.61045,51.86063],[23.61764,51.85635],[23.61228,51.85135],[23.61263,51.84586],[23.60083,51.84204],[23.60951,51.83679],[23.60256,51.83459],[23.6024,51.83053],[23.62174,51.83064],[23.62458,51.82646],[23.62137,51.82183],[23.62812,51.81919],[23.64007,51.80511],[23.64112,51.79976],[23.63505,51.79646],[23.6379,51.79263],[23.62806,51.78985],[23.63126,51.7823],[23.61515,51.77733],[23.61595,51.77308],[23.59527,51.77106],[23.58759,51.75916],[23.58168,51.76038],[23.57438,51.75692],[23.5587,51.76136],[23.54848,51.75065]]],[[[18.66316,54.36298],[18.65025,54.36618],[18.64424,54.37542],[18.64861,54.3796],[18.65958,54.37956],[18.66439,54.36838],[18.66316,54.36298]]],[[[14.37366,53.91278],[14.43257,53.9269],[14.50244,53.96384],[14.67806,54.00568],[14.72752,54.02207],[14.73146,54.01939],[14.74669,54.01891],[14.76579,54.02471],[14.76824,54.01627],[14.76825,54.01191],[14.76457,54.00934],[14.74067,54.00737],[14.71551,53.99784],[14.69942,53.9978],[14.69445,53.99407],[14.70019,53.9823],[14.70049,53.96988],[14.69615,53.96949],[14.69491,53.96052],[14.69188,53.96],[14.68824,53.95179],[14.69484,53.94079],[14.694,53.9372],[14.67262,53.92332],[14.66379,53.91457],[14.66406,53.90779],[14.64501,53.9035],[14.63424,53.89451],[14.6311,53.88195],[14.62355,53.87796],[14.61713,53.86833],[14.61609,53.86372],[14.62184,53.85118],[14.61675,53.83964],[14.61812,53.83273],[14.59349,53.82573],[14.58708,53.81777],[14.58863,53.81366],[14.59449,53.81241],[14.59562,53.80691],[14.58894,53.80394],[14.58051,53.8034],[14.57281,53.81567],[14.56985,53.83],[14.58198,53.82953],[14.58432,53.83364],[14.58252,53.84055],[14.56877,53.85139],[14.54009,53.85897],[14.52234,53.8571],[14.48021,53.86436],[14.44038,53.86239],[14.42606,53.8645],[14.42232,53.86781],[14.42268,53.87268],[14.42475,53.88088],[14.43053,53.88527],[14.43088,53.89143],[14.43711,53.89554],[14.43401,53.9004],[14.42842,53.8973],[14.42403,53.88524],[14.40828,53.89438],[14.37518,53.88986],[14.36962,53.88496],[14.3682,53.87842],[14.36041,53.87723],[14.36004,53.87313],[14.36961,53.87113],[14.38082,53.87503],[14.38831,53.86687],[14.3733,53.85591],[14.36002,53.86032],[14.35249,53.87078],[14.34053,53.87353],[14.31671,53.87225],[14.28788,53.85953],[14.28436,53.86297],[14.28173,53.88959],[14.27196,53.89056],[14.26932,53.89258],[14.27296,53.89556],[14.25691,53.89572],[14.25534,53.89865],[14.25895,53.90277],[14.28049,53.91136],[14.28553,53.92138],[14.33777,53.91105],[14.37366,53.91278]]],[[[14.71239,53.94583],[14.7026,53.94901],[14.70234,53.9549],[14.70792,53.96439],[14.71744,53.96928],[14.70913,53.97771],[14.72736,53.97993],[14.75696,53.9727],[14.75526,53.96603],[14.76031,53.95708],[14.75621,53.95233],[14.74186,53.95486],[14.71239,53.94583]]],[[[14.59254,53.63411],[14.59251,53.6372],[14.59724,53.63746],[14.59254,53.63411]]],[[[14.53093,53.67026],[14.52399,53.67395],[14.53517,53.67695],[14.53586,53.67336],[14.53093,53.67026]]],[[[14.38746,53.83625],[14.38225,53.83661],[14.38782,53.84125],[14.39136,53.851],[14.38804,53.85585],[14.41566,53.86342],[14.41698,53.84626],[14.38746,53.83625]]],[[[14.38153,53.85646],[14.38018,53.85889],[14.39049,53.86599],[14.40957,53.8648],[14.38153,53.85646]]],[[[14.32931,53.81622],[14.28811,53.84634],[14.28489,53.85682],[14.2997,53.85254],[14.32097,53.86317],[14.32286,53.86678],[14.34016,53.86943],[14.34679,53.86102],[14.36336,53.85445],[14.38851,53.85304],[14.38756,53.84356],[14.38306,53.84072],[14.35625,53.83776],[14.33906,53.82895],[14.33895,53.80871],[14.32931,53.81622]]],[[[14.34805,53.86359],[14.34103,53.86893],[14.34928,53.86795],[14.34805,53.86359]]],[[[14.21402,53.86522],[14.21538,53.88097],[14.21206,53.90063],[14.20397,53.90663],[14.20574,53.91056],[14.18531,53.91197],[14.18531,53.9141],[14.20762,53.91587],[14.22637,53.92882],[14.25252,53.92259],[14.27919,53.92365],[14.27927,53.91878],[14.26945,53.91027],[14.25282,53.90607],[14.24964,53.90195],[14.25133,53.89274],[14.2731,53.87494],[14.28352,53.84836],[14.33308,53.81048],[14.31965,53.81117],[14.30757,53.8216],[14.2807,53.82337],[14.27307,53.82652],[14.24163,53.85297],[14.22521,53.8626],[14.21402,53.86522]]],[[[14.29961,53.85794],[14.30171,53.86204],[14.30731,53.86362],[14.29961,53.85794]]],[[[14.27911,53.86575],[14.2748,53.87674],[14.2651,53.88616],[14.2775,53.88341],[14.27911,53.86575]]]]}}]}