{"type":"FeatureCollection","features":[{"type":"Feature","properties":{"ISO_A3":"PRT","WB_A3":"PRT","WB_NAME":"Portugal","WB_REGION":"ECS"},"geometry":{"type":"MultiPolygon","coordinates":[[[[-8.76949,41.92429],[-8.7712,41.92545],[-8.76603,41.92955],[-8.75639,41.93261],[-8.75985,41.92658],[-8.76949,41.92429]]],[[[-8.81319,41.90589],[-8.81799,41.90907],[-8.81181,41.90832],[-8.81319,41.90589]]],[[[-8.67518,40.71401],[-8.67719,40.71761],[-8.6718,40.71683],[-8.67518,40.71401]]],[[[-8.66446,40.6996],[-8.66729,40.70757],[-8.65764,40.71448],[-8.65901,40.7087],[-8.66628,40.70706],[-8.66446,40.6996]]],[[[-8.69359,40.67375],[-8.69728,40.67774],[-8.69287,40.68377],[-8.68935,40.67836],[-8.69359,40.67375]]],[[[-8.69799,40.67081],[-8.70641,40.6725],[-8.70657,40.67404],[-8.69799,40.67081]]],[[[-8.68081,40.66717],[-8.6867,40.6686],[-8.6811,40.67526],[-8.673,40.67755],[-8.67336,40.6719],[-8.68081,40.66717]]],[[[-8.72253,40.65962],[-8.72438,40.66111],[-8.7196,40.66397],[-8.7088,40.66429],[-8.70689,40.66159],[-8.72253,40.65962]]],[[[-8.67144,40.65251],[-8.67969,40.6542],[-8.67273,40.66368],[-8.66835,40.66341],[-8.6657,40.65442],[-8.67144,40.65251]]],[[[-8.691,40.65064],[-8.68963,40.65397],[-8.69468,40.65553],[-8.69534,40.66015],[-8.68521,40.66205],[-8.68203,40.65806],[-8.68662,40.65076],[-8.691,40.65064]]],[[[-8.67686,40.64726],[-8.68528,40.64729],[-8.68493,40.65075],[-8.67952,40.65318],[-8.67686,40.64726]]],[[[-8.69406,40.64449],[-8.69383,40.64848],[-8.69084,40.64756],[-8.69406,40.64449]]],[[[-31.11214,39.66934],[-31.12175,39.6704],[-31.11869,39.68524],[-31.12938,39.69543],[-31.1232,39.7151],[-31.11896,39.71837],[-31.12113,39.72405],[-31.10495,39.72597],[-31.0872,39.71862],[-31.08213,39.70762],[-31.0824,39.69954],[-31.08692,39.68652],[-31.11214,39.66934]]],[[[-9.22607,39.42434],[-9.22729,39.42472],[-9.22798,39.42659],[-9.22607,39.42434]]],[[[-9.22295,39.42062],[-9.22428,39.42318],[-9.21833,39.42212],[-9.22295,39.42062]]],[[[-9.51257,39.40815],[-9.51544,39.41635],[-9.50554,39.42025],[-9.50271,39.41795],[-9.505,39.41383],[-9.51257,39.40815]]],[[[-31.23103,39.3713],[-31.24929,39.3753],[-31.25031,39.38097],[-31.25618,39.38439],[-31.25575,39.39491],[-31.25931,39.39831],[-31.25125,39.40281],[-31.2515,39.40589],[-31.26279,39.41813],[-31.26421,39.42765],[-31.26011,39.43273],[-31.25992,39.44017],[-31.26761,39.45056],[-31.26458,39.45937],[-31.2593,39.45839],[-31.25601,39.46399],[-31.25707,39.48789],[-31.25413,39.49298],[-31.24761,39.49519],[-31.24804,39.49777],[-31.23334,39.5091],[-31.2322,39.51499],[-31.23621,39.51993],[-31.21201,39.52007],[-31.20579,39.52331],[-31.2065,39.51511],[-31.19519,39.50376],[-31.1814,39.4988],[-31.17866,39.50222],[-31.17437,39.50151],[-31.1728,39.49828],[-31.16436,39.49851],[-31.15873,39.50358],[-31.15387,39.49939],[-31.15413,39.48989],[-31.15065,39.48958],[-31.14792,39.47413],[-31.13973,39.47041],[-31.1366,39.46368],[-31.12603,39.46248],[-31.12476,39.45425],[-31.12689,39.44889],[-31.13814,39.44316],[-31.14363,39.43606],[-31.14374,39.43093],[-31.13967,39.42932],[-31.15015,39.42101],[-31.14815,39.40891],[-31.15067,39.40125],[-31.15917,39.39265],[-31.15916,39.38701],[-31.17635,39.37482],[-31.19129,39.37274],[-31.22034,39.3755],[-31.23103,39.3713]]],[[[-27.97183,39.0096],[-27.99509,39.01313],[-27.99845,39.01798],[-28.00688,39.02074],[-28.0076,39.02471],[-28.03192,39.02219],[-28.04627,39.03477],[-28.05712,39.05599],[-28.0661,39.06156],[-28.06651,39.06694],[-28.06966,39.0682],[-28.05582,39.07911],[-28.05347,39.08761],[-28.04419,39.09527],[-28.03202,39.0964],[-28.00883,39.088],[-27.99464,39.08658],[-27.99789,39.08373],[-27.99011,39.08123],[-27.98073,39.07001],[-27.97546,39.05773],[-27.97052,39.05777],[-27.9706,39.0516],[-27.9551,39.03812],[-27.95295,39.02478],[-27.94814,39.02225],[-27.9541,39.0127],[-27.97183,39.0096]]],[[[-27.22444,38.63975],[-27.23296,38.64345],[-27.22758,38.65066],[-27.22908,38.65618],[-27.26806,38.65776],[-27.2674,38.6552],[-27.27329,38.65582],[-27.27459,38.65338],[-27.28541,38.65579],[-27.35454,38.69143],[-27.36938,38.70911],[-27.37906,38.74247],[-27.37128,38.76124],[-27.37574,38.76713],[-27.36983,38.76587],[-27.36624,38.76922],[-27.36105,38.78204],[-27.3546,38.78231],[-27.32467,38.7966],[-27.26991,38.80309],[-27.26072,38.80045],[-27.25598,38.80385],[-27.24615,38.80215],[-27.24463,38.79843],[-27.23248,38.79858],[-27.22958,38.79217],[-27.21617,38.79382],[-27.21413,38.80089],[-27.20425,38.79684],[-27.18204,38.7966],[-27.15139,38.78652],[-27.14303,38.78794],[-27.14121,38.78255],[-27.13696,38.78692],[-27.13236,38.78693],[-27.13006,38.78205],[-27.10348,38.7858],[-27.06088,38.76025],[-27.05975,38.74666],[-27.04381,38.73517],[-27.0502,38.72983],[-27.05821,38.7317],[-27.06104,38.72814],[-27.06104,38.71471],[-27.05125,38.71196],[-27.05004,38.71584],[-27.04688,38.7139],[-27.04912,38.70866],[-27.04224,38.70275],[-27.04141,38.6971],[-27.05156,38.68605],[-27.0555,38.68657],[-27.05615,38.67758],[-27.06204,38.67796],[-27.07482,38.67217],[-27.07724,38.64469],[-27.08821,38.64314],[-27.09641,38.64904],[-27.10361,38.6448],[-27.11638,38.64799],[-27.14127,38.64501],[-27.16946,38.65525],[-27.195,38.65213],[-27.20713,38.65519],[-27.2117,38.65133],[-27.22218,38.65221],[-27.21708,38.64297],[-27.22444,38.63975]]],[[[-27.82512,38.53406],[-27.86224,38.54779],[-27.86821,38.55468],[-27.88662,38.56251],[-27.90993,38.56952],[-27.9393,38.58881],[-27.95635,38.59098],[-27.97116,38.59741],[-27.98389,38.59473],[-28.00065,38.60037],[-28.02392,38.60235],[-28.06947,38.62843],[-28.09965,38.6321],[-28.19127,38.66818],[-28.19901,38.6803],[-28.20946,38.67814],[-28.22361,38.68197],[-28.21989,38.68458],[-28.2187,38.69153],[-28.22445,38.6925],[-28.22952,38.70182],[-28.26879,38.71694],[-28.31505,38.75469],[-28.26371,38.74485],[-28.22949,38.73023],[-28.14371,38.70564],[-28.11584,38.69225],[-28.09168,38.68932],[-28.06589,38.67791],[-28.05674,38.67665],[-28.05132,38.68052],[-28.04491,38.67259],[-28.02295,38.67247],[-27.99393,38.6586],[-27.97692,38.64438],[-27.96513,38.64432],[-27.9597,38.63703],[-27.92455,38.62514],[-27.91906,38.61812],[-27.88326,38.60876],[-27.82372,38.583],[-27.82139,38.57929],[-27.7968,38.57522],[-27.79116,38.56807],[-27.78265,38.56748],[-27.76424,38.55926],[-27.75365,38.54764],[-27.77153,38.53712],[-27.82512,38.53406]]],[[[-28.62344,38.51574],[-28.632,38.51763],[-28.62943,38.52298],[-28.63844,38.52499],[-28.72033,38.51791],[-28.74763,38.52482],[-28.75226,38.54735],[-28.76082,38.56289],[-28.76958,38.56674],[-28.78164,38.56502],[-28.8151,38.58158],[-28.82763,38.59217],[-28.8281,38.59756],[-28.83371,38.59952],[-28.83297,38.60262],[-28.7913,38.61161],[-28.77523,38.61006],[-28.76351,38.6128],[-28.75461,38.61024],[-28.74395,38.61605],[-28.73062,38.63345],[-28.71547,38.64331],[-28.70334,38.64297],[-28.66211,38.62982],[-28.6607,38.62573],[-28.64674,38.61643],[-28.62374,38.61239],[-28.59809,38.59271],[-28.60328,38.59058],[-28.60812,38.57999],[-28.6046,38.56899],[-28.61102,38.56351],[-28.60929,38.55444],[-28.60298,38.54828],[-28.60423,38.54485],[-28.61892,38.54375],[-28.6231,38.54061],[-28.6257,38.52995],[-28.62176,38.52769],[-28.62304,38.52366],[-28.61937,38.52005],[-28.62344,38.51574]]],[[[-8.79777,38.50983],[-8.80005,38.51561],[-8.79319,38.51303],[-8.79777,38.50983]]],[[[-28.23814,38.38313],[-28.25028,38.38737],[-28.25004,38.39199],[-28.25361,38.39093],[-28.25548,38.39501],[-28.25291,38.39787],[-28.25581,38.40477],[-28.26637,38.41159],[-28.30749,38.41127],[-28.351,38.41617],[-28.36824,38.41314],[-28.4162,38.4285],[-28.42619,38.42195],[-28.44217,38.42073],[-28.46001,38.43155],[-28.48037,38.43682],[-28.51463,38.45141],[-28.52117,38.46712],[-28.53113,38.47469],[-28.5398,38.49102],[-28.54052,38.5095],[-28.53401,38.53385],[-28.52058,38.54032],[-28.52049,38.54392],[-28.51373,38.54888],[-28.477,38.56001],[-28.44746,38.55486],[-28.44099,38.55866],[-28.39095,38.5585],[-28.35144,38.54458],[-28.33557,38.53539],[-28.32856,38.53649],[-28.31705,38.52404],[-28.30554,38.52032],[-28.30179,38.51188],[-28.29373,38.50564],[-28.28045,38.50647],[-28.26894,38.49914],[-28.25953,38.49793],[-28.24316,38.50003],[-28.23274,38.48797],[-28.20018,38.47547],[-28.19181,38.46297],[-28.1807,38.46283],[-28.17014,38.45613],[-28.14302,38.45549],[-28.14134,38.45243],[-28.13085,38.45009],[-28.05726,38.4432],[-28.05589,38.43859],[-28.03303,38.42724],[-28.02781,38.41547],[-28.03947,38.4092],[-28.09222,38.40063],[-28.11679,38.40682],[-28.17853,38.40955],[-28.18697,38.40652],[-28.19626,38.39615],[-28.23814,38.38313]]],[[[-25.51088,37.70805],[-25.51573,37.71633],[-25.52915,37.71637],[-25.54697,37.73084],[-25.56235,37.73822],[-25.56613,37.74353],[-25.58397,37.74092],[-25.59585,37.74569],[-25.61009,37.74535],[-25.62325,37.75077],[-25.63102,37.75021],[-25.63825,37.74426],[-25.6655,37.73982],[-25.66947,37.73524],[-25.68309,37.73283],[-25.69534,37.73502],[-25.71184,37.74406],[-25.7177,37.75119],[-25.72897,37.75439],[-25.7385,37.76477],[-25.75744,37.7737],[-25.76765,37.78255],[-25.77636,37.78405],[-25.77932,37.79153],[-25.78591,37.79417],[-25.78777,37.79932],[-25.81575,37.81027],[-25.81938,37.81634],[-25.83977,37.82759],[-25.85217,37.85237],[-25.85316,37.86162],[-25.84764,37.86234],[-25.84392,37.87284],[-25.8384,37.87304],[-25.83996,37.87716],[-25.82726,37.88115],[-25.82378,37.88625],[-25.82515,37.8914],[-25.82159,37.89136],[-25.82179,37.89882],[-25.81788,37.90032],[-25.80238,37.89656],[-25.78531,37.90962],[-25.76269,37.90527],[-25.73409,37.89033],[-25.71957,37.8867],[-25.70839,37.87759],[-25.70407,37.86521],[-25.6989,37.86439],[-25.69277,37.84454],[-25.68667,37.84165],[-25.68661,37.84499],[-25.68077,37.84518],[-25.67864,37.8377],[-25.66383,37.83253],[-25.6393,37.82839],[-25.62952,37.83149],[-25.61154,37.82319],[-25.6044,37.82452],[-25.60446,37.82118],[-25.58646,37.8139],[-25.58291,37.81373],[-25.58121,37.81795],[-25.56184,37.81489],[-25.5566,37.81791],[-25.55277,37.81503],[-25.53128,37.82106],[-25.50011,37.84122],[-25.49432,37.8396],[-25.49005,37.84212],[-25.48963,37.84686],[-25.48608,37.84643],[-25.48406,37.83408],[-25.47809,37.83323],[-25.46871,37.82476],[-25.45418,37.82277],[-25.44922,37.82772],[-25.4451,37.82329],[-25.43928,37.82296],[-25.43424,37.83163],[-25.42764,37.83],[-25.42871,37.82539],[-25.40488,37.82648],[-25.39271,37.83518],[-25.38369,37.83313],[-25.35956,37.84063],[-25.3546,37.84518],[-25.33605,37.84929],[-25.32654,37.85429],[-25.32377,37.86221],[-25.31819,37.86521],[-25.30736,37.85722],[-25.2964,37.85475],[-25.26224,37.86119],[-25.23976,37.85264],[-25.20009,37.85897],[-25.17258,37.85791],[-25.14706,37.84878],[-25.13654,37.82267],[-25.13385,37.80747],[-25.14268,37.79708],[-25.14181,37.78679],[-25.13852,37.78263],[-25.14088,37.7724],[-25.14981,37.75802],[-25.16765,37.74315],[-25.18739,37.74243],[-25.20632,37.73552],[-25.24004,37.74554],[-25.2672,37.74594],[-25.30372,37.73324],[-25.30542,37.72967],[-25.3135,37.72966],[-25.31798,37.72497],[-25.34983,37.72478],[-25.36721,37.71372],[-25.39431,37.71666],[-25.41699,37.7144],[-25.42695,37.71736],[-25.42993,37.71393],[-25.44259,37.71166],[-25.45639,37.71646],[-25.46891,37.71342],[-25.48158,37.71833],[-25.49792,37.70968],[-25.51088,37.70805]]],[[[-7.61564,37.11312],[-7.61832,37.11546],[-7.61549,37.12134],[-7.60203,37.1294],[-7.60245,37.13249],[-7.59862,37.13154],[-7.59598,37.13511],[-7.57303,37.14421],[-7.5655,37.14361],[-7.59866,37.12897],[-7.6157,37.11826],[-7.61564,37.11312]]],[[[-7.99237,37.01383],[-7.99211,37.01442],[-7.99224,37.01412],[-7.99237,37.01383]]],[[[-7.80263,37.01214],[-7.80726,37.02298],[-7.80308,37.02383],[-7.79722,37.01979],[-7.7957,37.02492],[-7.78881,37.02459],[-7.74252,37.04389],[-7.72747,37.05444],[-7.72521,37.05264],[-7.79265,37.01474],[-7.80263,37.01214]]],[[[-7.95307,36.99712],[-7.95737,36.99947],[-7.95236,37.00251],[-7.9492,36.99966],[-7.95307,36.99712]]],[[[-7.93332,36.99001],[-7.93583,36.99337],[-7.93295,36.99309],[-7.93332,36.99001]]],[[[-7.97047,36.98982],[-7.98823,37.00308],[-8.08874,37.0617],[-8.18332,37.09051],[-8.21478,37.08764],[-8.22058,37.08434],[-8.2273,37.08567],[-8.23183,37.08236],[-8.25103,37.08634],[-8.2784,37.07392],[-8.30246,37.07265],[-8.33851,37.0929],[-8.36634,37.1014],[-8.39077,37.09497],[-8.39658,37.09025],[-8.43734,37.08518],[-8.47702,37.0977],[-8.50618,37.10206],[-8.51865,37.10712],[-8.51845,37.11406],[-8.52543,37.12642],[-8.52412,37.13129],[-8.52842,37.13606],[-8.52679,37.13991],[-8.51362,37.14255],[-8.50941,37.14742],[-8.49993,37.14995],[-8.50182,37.15962],[-8.49936,37.16292],[-8.49144,37.16182],[-8.48461,37.17425],[-8.48594,37.1784],[-8.48855,37.17148],[-8.50319,37.16692],[-8.50647,37.15627],[-8.51548,37.15207],[-8.51589,37.16312],[-8.53065,37.17285],[-8.52823,37.16573],[-8.52343,37.16392],[-8.52191,37.15004],[-8.52834,37.14788],[-8.53451,37.13699],[-8.53359,37.12979],[-8.52705,37.12385],[-8.5292,37.11359],[-8.55707,37.11947],[-8.57474,37.11607],[-8.59427,37.12218],[-8.61641,37.12148],[-8.60804,37.12672],[-8.5965,37.12642],[-8.59385,37.14183],[-8.59785,37.14287],[-8.59927,37.14853],[-8.60296,37.14751],[-8.59788,37.13773],[-8.59839,37.13208],[-8.60707,37.12993],[-8.61909,37.13189],[-8.61856,37.14165],[-8.62285,37.14886],[-8.62574,37.14861],[-8.62293,37.13396],[-8.63437,37.12346],[-8.62251,37.12099],[-8.64788,37.11593],[-8.66444,37.10634],[-8.66816,37.09993],[-8.66661,37.08631],[-8.66889,37.07899],[-8.68682,37.08521],[-8.72722,37.08633],[-8.75452,37.07316],[-8.78307,37.06872],[-8.78661,37.06333],[-8.81834,37.0657],[-8.83983,37.06059],[-8.85571,37.05329],[-8.85652,37.04841],[-8.86583,37.042],[-8.87287,37.04599],[-8.89484,37.04177],[-8.89532,37.03586],[-8.90623,37.02341],[-8.92498,37.0197],[-8.93012,37.012],[-8.92499,37.00814],[-8.93141,37.00172],[-8.93541,37.00545],[-8.94213,37.00455],[-8.9471,36.99916],[-8.94631,36.99376],[-8.94999,36.99402],[-8.94886,37.00892],[-8.96343,37.02229],[-8.96327,37.02563],[-8.98425,37.02666],[-8.98682,37.01921],[-8.98794,37.02383],[-8.99291,37.02101],[-8.99563,37.02332],[-8.98618,37.03128],[-8.98666,37.03475],[-8.97912,37.04336],[-8.98281,37.04837],[-8.97896,37.05517],[-8.96806,37.06725],[-8.9626,37.06853],[-8.95988,37.07444],[-8.96212,37.08086],[-8.95682,37.0937],[-8.94078,37.10423],[-8.92375,37.12657],[-8.92278,37.13428],[-8.91893,37.13582],[-8.91828,37.14507],[-8.90945,37.15328],[-8.90992,37.1579],[-8.90269,37.16663],[-8.90365,37.17075],[-8.91054,37.17486],[-8.90861,37.18051],[-8.91246,37.18295],[-8.90908,37.1895],[-8.91742,37.1967],[-8.90249,37.19849],[-8.89525,37.20593],[-8.87384,37.23725],[-8.8598,37.26935],[-8.86574,37.27758],[-8.86394,37.29145],[-8.86635,37.29505],[-8.87503,37.29544],[-8.87114,37.31124],[-8.87692,37.31767],[-8.85114,37.34256],[-8.84952,37.34975],[-8.8463,37.34872],[-8.83208,37.37567],[-8.81545,37.398],[-8.80687,37.41751],[-8.80457,37.43548],[-8.79694,37.4439],[-8.79537,37.43916],[-8.79504,37.44266],[-8.79971,37.44421],[-8.7966,37.4645],[-8.79996,37.47298],[-8.79364,37.48299],[-8.79585,37.50046],[-8.79052,37.50585],[-8.79373,37.50932],[-8.78725,37.52177],[-8.78592,37.53615],[-8.79458,37.55338],[-8.79182,37.55928],[-8.79648,37.56674],[-8.80099,37.56778],[-8.80307,37.57549],[-8.81161,37.58038],[-8.81047,37.58449],[-8.81867,37.59863],[-8.81202,37.60941],[-8.80986,37.63458],[-8.7957,37.67592],[-8.79193,37.6944],[-8.79513,37.70494],[-8.78702,37.71315],[-8.78733,37.7188],[-8.76629,37.72647],[-8.7574,37.72619],[-8.74697,37.70048],[-8.73758,37.7038],[-8.73679,37.7002],[-8.74392,37.69431],[-8.74395,37.68635],[-8.73959,37.6839],[-8.73123,37.68539],[-8.74266,37.68634],[-8.74182,37.69533],[-8.73566,37.69943],[-8.73548,37.70328],[-8.7468,37.70279],[-8.75253,37.73055],[-8.77567,37.72661],[-8.79089,37.71804],[-8.79666,37.73628],[-8.81072,37.74247],[-8.80418,37.76841],[-8.80675,37.77432],[-8.8027,37.77765],[-8.80184,37.79563],[-8.79402,37.81463],[-8.79039,37.83851],[-8.79587,37.84957],[-8.79354,37.87114],[-8.7996,37.90788],[-8.80684,37.92536],[-8.81623,37.93167],[-8.83665,37.93838],[-8.85449,37.93609],[-8.8561,37.94444],[-8.86678,37.95396],[-8.87863,37.94986],[-8.88674,37.95398],[-8.88494,37.96245],[-8.87162,37.96912],[-8.85894,37.98657],[-8.83841,38.02148],[-8.7969,38.11928],[-8.77997,38.18398],[-8.77529,38.22429],[-8.77614,38.26334],[-8.7883,38.34042],[-8.80093,38.37409],[-8.82073,38.41239],[-8.83033,38.4255],[-8.89393,38.47335],[-8.91009,38.48878],[-8.90534,38.49404],[-8.88933,38.49081],[-8.89228,38.48465],[-8.88771,38.48298],[-8.88331,38.47411],[-8.88004,38.47514],[-8.88232,38.48336],[-8.88673,38.48554],[-8.88346,38.48695],[-8.85769,38.46098],[-8.83061,38.44836],[-8.83241,38.44528],[-8.81925,38.41958],[-8.80704,38.40723],[-8.79682,38.38384],[-8.79356,38.38204],[-8.78916,38.38203],[-8.7898,38.3864],[-8.79518,38.38641],[-8.79892,38.39335],[-8.79434,38.39514],[-8.79251,38.40669],[-8.78663,38.40797],[-8.78645,38.41362],[-8.79215,38.41863],[-8.79672,38.41839],[-8.7941,38.42159],[-8.79801,38.42661],[-8.80682,38.42791],[-8.80828,38.43215],[-8.80351,38.44267],[-8.79829,38.44138],[-8.7988,38.43521],[-8.79114,38.42981],[-8.7892,38.42184],[-8.7768,38.42002],[-8.77667,38.41052],[-8.7739,38.40846],[-8.77161,38.41089],[-8.76803,38.40639],[-8.76052,38.4074],[-8.7592,38.41202],[-8.74776,38.41739],[-8.7311,38.41954],[-8.70009,38.41792],[-8.69945,38.41445],[-8.69292,38.41495],[-8.68739,38.41095],[-8.67205,38.40988],[-8.64891,38.40224],[-8.6195,38.40767],[-8.58001,38.40702],[-8.56496,38.41262],[-8.55746,38.41195],[-8.54657,38.40446],[-8.54766,38.38725],[-8.54671,38.38134],[-8.54346,38.37979],[-8.54167,38.40547],[-8.55548,38.41528],[-8.56298,38.41595],[-8.59338,38.40964],[-8.61655,38.41151],[-8.63419,38.40849],[-8.64561,38.40904],[-8.64722,38.41366],[-8.65116,38.40893],[-8.65541,38.40881],[-8.67787,38.42287],[-8.699,38.44386],[-8.71761,38.44468],[-8.72243,38.46562],[-8.72153,38.4872],[-8.72511,38.49208],[-8.72896,38.51213],[-8.7278,38.51456],[-8.71441,38.51286],[-8.70736,38.51756],[-8.71832,38.51441],[-8.72125,38.51917],[-8.734,38.5183],[-8.73791,38.52114],[-8.7413,38.5327],[-8.73473,38.54168],[-8.74105,38.55787],[-8.73663,38.56043],[-8.73759,38.56506],[-8.73425,38.56881],[-8.73708,38.56904],[-8.7479,38.56225],[-8.74579,38.55814],[-8.75136,38.55738],[-8.7486,38.55005],[-8.76598,38.53571],[-8.77972,38.53342],[-8.78722,38.54243],[-8.79669,38.54681],[-8.80029,38.5454],[-8.79802,38.53923],[-8.79361,38.53846],[-8.79558,38.53538],[-8.79983,38.53641],[-8.801,38.52704],[-8.78533,38.51854],[-8.8007,38.51574],[-8.80332,38.51394],[-8.80006,38.51021],[-8.80759,38.50792],[-8.81575,38.51114],[-8.81837,38.50755],[-8.79877,38.50469],[-8.78307,38.50774],[-8.77065,38.50656],[-8.77035,38.49757],[-8.77558,38.49733],[-8.77559,38.4945],[-8.78542,38.48759],[-8.78315,38.47962],[-8.77581,38.47755],[-8.77632,38.47216],[-8.80115,38.4722],[-8.8021,38.48094],[-8.79524,38.48221],[-8.79392,38.48683],[-8.80813,38.48737],[-8.8062,38.47606],[-8.80882,38.47556],[-8.80864,38.48172],[-8.81419,38.48173],[-8.81515,38.48943],[-8.8194,38.48751],[-8.83214,38.49306],[-8.8589,38.51197],[-8.8625,38.50941],[-8.87719,38.51803],[-8.89223,38.52022],[-8.92134,38.50946],[-8.92608,38.50574],[-8.93362,38.48853],[-8.94228,38.48366],[-8.96515,38.48431],[-8.97006,38.4802],[-8.98149,38.47866],[-8.98721,38.46852],[-8.99652,38.46056],[-9.01776,38.45413],[-9.02918,38.44604],[-9.04225,38.44681],[-9.05139,38.44115],[-9.06151,38.44038],[-9.06396,38.43511],[-9.10952,38.44176],[-9.11408,38.43482],[-9.13073,38.43249],[-9.13301,38.4294],[-9.16893,38.42948],[-9.18654,38.41893],[-9.18913,38.41289],[-9.19598,38.40941],[-9.22178,38.41283],[-9.21755,38.41849],[-9.21854,38.42183],[-9.21495,38.42286],[-9.21773,38.42568],[-9.20977,38.43674],[-9.21027,38.44085],[-9.19871,38.45371],[-9.18815,38.47479],[-9.18491,38.48584],[-9.18306,38.52848],[-9.19099,38.56031],[-9.21864,38.61626],[-9.24675,38.65139],[-9.25989,38.66253],[-9.24451,38.66809],[-9.23798,38.67504],[-9.17542,38.6808],[-9.17939,38.69787],[-9.21608,38.69139],[-9.24494,38.69903],[-9.28067,38.6987],[-9.30159,38.68683],[-9.31338,38.6841],[-9.31898,38.67497],[-9.34678,38.6808],[-9.39376,38.70197],[-9.40556,38.70347],[-9.41799,38.69919],[-9.41962,38.69687],[-9.41501,38.69239],[-9.41761,38.68994],[-9.42744,38.68952],[-9.43928,38.69551],[-9.45861,38.6948],[-9.47766,38.70191],[-9.4864,38.70997],[-9.47296,38.73442],[-9.47175,38.75009],[-9.48528,38.76159],[-9.49119,38.76311],[-9.49517,38.76951],[-9.49391,38.77607],[-9.50034,38.78105],[-9.45096,38.85984],[-9.45133,38.86703],[-9.44449,38.87502],[-9.4327,38.90948],[-9.41678,38.94113],[-9.41556,38.95782],[-9.42277,38.98014],[-9.41952,38.98734],[-9.42783,39.00195],[-9.42721,39.00812],[-9.42262,39.01096],[-9.42434,39.02354],[-9.41655,39.04257],[-9.41635,39.0644],[-9.42201,39.07337],[-9.41484,39.08829],[-9.39341,39.11456],[-9.39312,39.12201],[-9.35794,39.17426],[-9.35748,39.18196],[-9.34555,39.2046],[-9.34576,39.21307],[-9.34005,39.2267],[-9.34391,39.24081],[-9.33773,39.25932],[-9.33667,39.28038],[-9.33768,39.285],[-9.34315,39.28756],[-9.34303,39.29808],[-9.34768,39.3009],[-9.34639,39.3086],[-9.36086,39.325],[-9.36177,39.34143],[-9.37259,39.35578],[-9.37673,39.35576],[-9.3772,39.35088],[-9.39308,39.35288],[-9.40867,39.35874],[-9.40573,39.36542],[-9.39748,39.37059],[-9.37796,39.36911],[-9.37732,39.37322],[-9.37184,39.37067],[-9.37197,39.36348],[-9.35343,39.3611],[-9.33957,39.36795],[-9.33876,39.37077],[-9.34208,39.37282],[-9.33993,39.37437],[-9.32009,39.37673],[-9.29037,39.39171],[-9.2382,39.42752],[-9.22527,39.42267],[-9.22193,39.41369],[-9.2133,39.4051],[-9.21941,39.40162],[-9.21642,39.39854],[-9.22681,39.38697],[-9.20534,39.39972],[-9.19872,39.39909],[-9.19707,39.40346],[-9.184,39.40297],[-9.19063,39.40758],[-9.201,39.40344],[-9.20656,39.42142],[-9.23031,39.43056],[-9.23539,39.4283],[-9.23424,39.43138],[-9.21212,39.45376],[-9.20423,39.4733],[-9.19694,39.47408],[-9.17645,39.49568],[-9.17248,39.49646],[-9.16984,39.50237],[-9.15394,39.50933],[-9.14566,39.50908],[-9.14863,39.50446],[-9.14432,39.50279],[-9.13703,39.50524],[-9.13588,39.50986],[-9.13754,39.51268],[-9.14251,39.51191],[-9.14568,39.52141],[-9.13474,39.52347],[-9.12878,39.52862],[-9.12548,39.53786],[-9.11654,39.54352],[-9.0801,39.58541],[-9.07446,39.5867],[-9.07346,39.58259],[-9.07431,39.59877],[-9.07714,39.60352],[-9.0851,39.60428],[-9.08694,39.61237],[-9.05148,39.70176],[-9.05183,39.71793],[-9.0294,39.77084],[-8.97329,39.8751],[-8.89502,40.04719],[-8.86718,40.11588],[-8.86395,40.1404],[-8.8673,40.14092],[-8.86679,40.14413],[-8.86177,40.14335],[-8.86027,40.13847],[-8.85475,40.14103],[-8.85393,40.13487],[-8.85241,40.14103],[-8.84286,40.14436],[-8.85691,40.14797],[-8.87281,40.14696],[-8.87479,40.16057],[-8.90539,40.17767],[-8.90873,40.18063],[-8.90888,40.18987],[-8.87275,40.26379],[-8.83785,40.35361],[-8.77034,40.56481],[-8.7576,40.59637],[-8.75138,40.6409],[-8.74867,40.64423],[-8.73721,40.64421],[-8.74366,40.63228],[-8.73289,40.62879],[-8.73064,40.64175],[-8.73652,40.64639],[-8.73145,40.65036],[-8.72575,40.64354],[-8.72269,40.64944],[-8.72604,40.65484],[-8.70782,40.65813],[-8.68871,40.63497],[-8.67352,40.64019],[-8.67098,40.6434],[-8.67567,40.64777],[-8.66538,40.65005],[-8.65758,40.65992],[-8.64948,40.66053],[-8.64778,40.66451],[-8.63798,40.66717],[-8.63608,40.67615],[-8.62502,40.69409],[-8.63581,40.69438],[-8.6416,40.68426],[-8.64971,40.68223],[-8.65424,40.6852],[-8.64831,40.69031],[-8.64947,40.69494],[-8.64659,40.69801],[-8.64155,40.6944],[-8.63665,40.69644],[-8.63933,40.69902],[-8.62984,40.70643],[-8.6342,40.71107],[-8.62763,40.71053],[-8.62623,40.71823],[-8.61067,40.72614],[-8.61717,40.72933],[-8.61067,40.73268],[-8.61603,40.73206],[-8.61804,40.73515],[-8.63633,40.72327],[-8.6471,40.72908],[-8.67055,40.73095],[-8.67892,40.74381],[-8.67619,40.75099],[-8.67732,40.761],[-8.67914,40.76871],[-8.68318,40.7718],[-8.68229,40.77976],[-8.67246,40.78718],[-8.67651,40.7895],[-8.68853,40.78183],[-8.70163,40.76004],[-8.70184,40.75234],[-8.6965,40.73898],[-8.69861,40.71895],[-8.70758,40.71359],[-8.71979,40.69872],[-8.71835,40.67895],[-8.7277,40.66126],[-8.73614,40.65743],[-8.74056,40.64768],[-8.75709,40.64579],[-8.68759,40.83985],[-8.65106,40.97222],[-8.64536,41.0233],[-8.65641,41.05029],[-8.6579,41.0906],[-8.66545,41.10756],[-8.66522,41.11886],[-8.6686,41.12144],[-8.67093,41.13146],[-8.67005,41.13659],[-8.65918,41.13797],[-8.64112,41.14818],[-8.67611,41.14739],[-8.69063,41.16617],[-8.68982,41.1714],[-8.69827,41.17894],[-8.69767,41.1857],[-8.6878,41.18901],[-8.6871,41.19363],[-8.70312,41.1843],[-8.70719,41.18611],[-8.70851,41.19343],[-8.71646,41.2032],[-8.71789,41.22606],[-8.72179,41.22735],[-8.72802,41.24302],[-8.72473,41.25688],[-8.74153,41.31134],[-8.74042,41.33239],[-8.74635,41.33908],[-8.7426,41.34113],[-8.75537,41.34295],[-8.75532,41.3545],[-8.76464,41.36915],[-8.76326,41.3748],[-8.76922,41.37635],[-8.77921,41.39511],[-8.77935,41.40204],[-8.78801,41.41207],[-8.77606,41.4687],[-8.77721,41.48162],[-8.78418,41.48831],[-8.78875,41.50115],[-8.78683,41.51373],[-8.79294,41.52504],[-8.79172,41.53222],[-8.78133,41.52476],[-8.77879,41.51756],[-8.76992,41.51421],[-8.77025,41.51678],[-8.77809,41.52116],[-8.7893,41.5421],[-8.79408,41.54147],[-8.79354,41.55225],[-8.79894,41.57331],[-8.80405,41.58076],[-8.80774,41.60438],[-8.82084,41.62905],[-8.8203,41.63624],[-8.82745,41.64985],[-8.82535,41.66782],[-8.83439,41.67951],[-8.83044,41.6858],[-8.82513,41.68553],[-8.8169,41.69129],[-8.81245,41.68821],[-8.78607,41.69086],[-8.78777,41.69458],[-8.79805,41.69344],[-8.80489,41.69615],[-8.79256,41.69639],[-8.80283,41.6982],[-8.83403,41.68747],[-8.84345,41.68735],[-8.84226,41.68363],[-8.84757,41.68377],[-8.8513,41.69686],[-8.86241,41.70868],[-8.881,41.7526],[-8.87135,41.78006],[-8.87474,41.79598],[-8.86545,41.80957],[-8.86596,41.81317],[-8.87435,41.81959],[-8.87551,41.84141],[-8.86898,41.845],[-8.86879,41.85758],[-8.86327,41.8681],[-8.84902,41.86615],[-8.84006,41.8791],[-8.8325,41.87999],[-8.83318,41.88243],[-8.81492,41.90153],[-8.8077,41.90267],[-8.79048,41.91432],[-8.75504,41.92747],[-8.75018,41.93927],[-8.74553,41.94234],[-8.74684,41.95723],[-8.74217,41.96389],[-8.71355,41.97987],[-8.67669,41.99068],[-8.67115,41.99759],[-8.66114,42.00218],[-8.65642,42.01757],[-8.65739,42.02887],[-8.63686,42.04744],[-8.59795,42.05642],[-8.58647,42.05241],[-8.54828,42.05365],[-8.52451,42.06327],[-8.52861,42.07372],[-8.52251,42.07882],[-8.50239,42.07784],[-8.48645,42.08193],[-8.44892,42.08283],[-8.43957,42.08143],[-8.429,42.07228],[-8.41942,42.07311],[-8.40458,42.08038],[-8.39291,42.07989],[-8.39069,42.07521],[-8.38154,42.07642],[-8.3717,42.08788],[-8.36237,42.09032],[-8.33256,42.08392],[-8.32523,42.08959],[-8.32259,42.10163],[-8.31745,42.10427],[-8.30377,42.10392],[-8.27268,42.12409],[-8.25817,42.1216],[-8.25676,42.13251],[-8.24565,42.13973],[-8.23327,42.13375],[-8.22192,42.13409],[-8.21774,42.13869],[-8.20655,42.14109],[-8.1989,42.15427],[-8.1879,42.13781],[-8.19288,42.12545],[-8.18598,42.09703],[-8.18789,42.09229],[-8.18495,42.08323],[-8.18786,42.07341],[-8.18215,42.06714],[-8.16954,42.06858],[-8.14924,42.07958],[-8.13775,42.07738],[-8.11965,42.08203],[-8.09584,42.07032],[-8.08481,42.04804],[-8.08248,42.02822],[-8.08541,42.01844],[-8.10816,42.00572],[-8.12454,42.00621],[-8.14166,41.98811],[-8.16326,41.98323],[-8.16285,41.97589],[-8.16959,41.96291],[-8.17618,41.95902],[-8.1749,41.95494],[-8.19783,41.93961],[-8.21691,41.9136],[-8.21605,41.89913],[-8.20157,41.88847],[-8.2,41.87392],[-8.19184,41.87713],[-8.18158,41.87533],[-8.17076,41.87968],[-8.16563,41.86241],[-8.1622,41.86143],[-8.16491,41.818],[-8.15231,41.81809],[-8.1401,41.81329],[-8.13784,41.80874],[-8.12449,41.80835],[-8.11739,41.81219],[-8.08376,41.81046],[-8.06571,41.81713],[-8.05498,41.81675],[-8.03751,41.8306],[-8.01325,41.82981],[-8.00543,41.84723],[-7.99651,41.85142],[-7.99442,41.85844],[-7.99067,41.85895],[-7.98821,41.86848],[-7.9746,41.87509],[-7.94091,41.87123],[-7.93169,41.87688],[-7.9214,41.87807],[-7.91193,41.90077],[-7.9061,41.92714],[-7.88512,41.92526],[-7.88365,41.91939],[-7.88746,41.90416],[-7.88463,41.88956],[-7.88585,41.87488],[-7.89123,41.85923],[-7.88185,41.85595],[-7.87456,41.84695],[-7.86592,41.85898],[-7.85859,41.86271],[-7.8477,41.8629],[-7.8433,41.86828],[-7.84488,41.88118],[-7.83229,41.87953],[-7.78827,41.88344],[-7.77775,41.88735],[-7.76383,41.89911],[-7.7333,41.89223],[-7.72077,41.9013],[-7.70051,41.90824],[-7.65295,41.88133],[-7.63395,41.87879],[-7.61805,41.88442],[-7.60823,41.87944],[-7.58381,41.87877],[-7.58912,41.87143],[-7.60155,41.86667],[-7.60049,41.86017],[-7.60707,41.85269],[-7.6067,41.84858],[-7.61159,41.84657],[-7.61374,41.82967],[-7.59841,41.83335],[-7.5739,41.82974],[-7.52191,41.84145],[-7.50529,41.85094],[-7.51321,41.86214],[-7.50064,41.86975],[-7.49124,41.87129],[-7.48501,41.86119],[-7.45251,41.86505],[-7.446,41.85821],[-7.44898,41.85258],[-7.44376,41.83939],[-7.42614,41.83079],[-7.42707,41.82547],[-7.43073,41.82423],[-7.4249,41.81593],[-7.42928,41.81308],[-7.42801,41.80815],[-7.41627,41.81171],[-7.40277,41.82187],[-7.40281,41.82532],[-7.39757,41.82652],[-7.39042,41.84238],[-7.36963,41.84878],[-7.36586,41.85282],[-7.35627,41.84],[-7.34072,41.8448],[-7.31053,41.84431],[-7.30037,41.85214],[-7.28154,41.85336],[-7.25741,41.86538],[-7.22823,41.86816],[-7.21371,41.8779],[-7.1966,41.88025],[-7.1849,41.89765],[-7.18218,41.91222],[-7.17401,41.91847],[-7.18685,41.94139],[-7.18414,41.94538],[-7.18743,41.94737],[-7.18215,41.95258],[-7.18745,41.95781],[-7.18509,41.96224],[-7.18696,41.96976],[-7.17736,41.98015],[-7.16589,41.97988],[-7.15833,41.97628],[-7.14158,41.99024],[-7.11598,41.9854],[-7.08785,41.9734],[-7.08122,41.95675],[-7.07121,41.94923],[-7.05394,41.94882],[-7.04584,41.95444],[-7.02421,41.95004],[-7.00604,41.95063],[-6.99929,41.96211],[-6.97975,41.97393],[-6.95823,41.96904],[-6.94355,41.94483],[-6.93322,41.94642],[-6.89019,41.9404],[-6.86935,41.94847],[-6.84744,41.94165],[-6.822,41.94629],[-6.81027,41.96977],[-6.81027,41.99252],[-6.76893,41.98445],[-6.76467,41.96973],[-6.75108,41.94385],[-6.70002,41.9336],[-6.63614,41.94214],[-6.62143,41.93986],[-6.60769,41.94873],[-6.59941,41.94829],[-6.58813,41.96731],[-6.55005,41.94489],[-6.54446,41.93275],[-6.55755,41.91032],[-6.56134,41.89594],[-6.56626,41.89415],[-6.57084,41.88369],[-6.51717,41.87519],[-6.51616,41.86968],[-6.52582,41.86032],[-6.52355,41.85218],[-6.52716,41.85061],[-6.52637,41.84262],[-6.53254,41.8351],[-6.52889,41.83106],[-6.53568,41.81822],[-6.53319,41.81562],[-6.53833,41.81309],[-6.53711,41.80769],[-6.54289,41.80557],[-6.53945,41.80205],[-6.5468,41.79541],[-6.54367,41.78981],[-6.54729,41.78053],[-6.54389,41.77824],[-6.54988,41.77683],[-6.55575,41.76465],[-6.55471,41.7586],[-6.55824,41.75351],[-6.5648,41.75134],[-6.569,41.74337],[-6.55562,41.73766],[-6.55682,41.72714],[-6.54883,41.7257],[-6.55479,41.72139],[-6.54257,41.70086],[-6.54545,41.69843],[-6.55032,41.70257],[-6.55425,41.70125],[-6.55473,41.69742],[-6.5479,41.68524],[-6.52849,41.67546],[-6.51181,41.66072],[-6.49889,41.65692],[-6.48723,41.6578],[-6.46952,41.66629],[-6.45743,41.66667],[-6.45238,41.68099],[-6.44781,41.68416],[-6.41626,41.67859],[-6.40591,41.6808],[-6.37445,41.67381],[-6.35394,41.67623],[-6.30209,41.66184],[-6.25878,41.63685],[-6.23544,41.60719],[-6.20718,41.59902],[-6.19666,41.59046],[-6.19666,41.58483],[-6.18919,41.5748],[-6.21152,41.5593],[-6.21716,41.55088],[-6.21698,41.54344],[-6.23715,41.5212],[-6.24526,41.51621],[-6.25759,41.51426],[-6.25086,41.50083],[-6.25431,41.49744],[-6.26436,41.49886],[-6.26751,41.49616],[-6.26242,41.48813],[-6.28275,41.48018],[-6.28631,41.46649],[-6.30489,41.45101],[-6.30574,41.44795],[-6.29514,41.43598],[-6.29985,41.42947],[-6.3097,41.41964],[-6.31575,41.41634],[-6.32576,41.41655],[-6.33312,41.41044],[-6.33099,41.40455],[-6.32066,41.40135],[-6.31741,41.39716],[-6.31537,41.39018],[-6.31772,41.38586],[-6.32616,41.38665],[-6.34833,41.37814],[-6.359,41.38087],[-6.36512,41.38698],[-6.36577,41.39276],[-6.38851,41.38567],[-6.39312,41.37853],[-6.39349,41.37053],[-6.3849,41.36331],[-6.37659,41.36217],[-6.38012,41.3564],[-6.39345,41.3501],[-6.41537,41.34834],[-6.42617,41.33537],[-6.41923,41.32567],[-6.43435,41.31977],[-6.43965,41.31081],[-6.43869,41.30446],[-6.44992,41.2986],[-6.46934,41.30087],[-6.48678,41.29163],[-6.49165,41.28562],[-6.4791,41.27496],[-6.49954,41.26524],[-6.51042,41.26418],[-6.51758,41.27462],[-6.52233,41.27575],[-6.53037,41.26722],[-6.54792,41.25714],[-6.55089,41.24679],[-6.57225,41.23896],[-6.58594,41.24191],[-6.58623,41.25154],[-6.59238,41.25526],[-6.599,41.2438],[-6.60824,41.2496],[-6.62892,41.24277],[-6.64611,41.24819],[-6.64996,41.2455],[-6.65285,41.23577],[-6.66248,41.23283],[-6.6896,41.21081],[-6.6898,41.19738],[-6.69276,41.19307],[-6.69915,41.19157],[-6.69661,41.18922],[-6.69794,41.18363],[-6.70837,41.17709],[-6.70893,41.17309],[-6.73199,41.16076],[-6.74149,41.14826],[-6.75106,41.1417],[-6.76825,41.13475],[-6.77102,41.1244],[-6.7539,41.10356],[-6.77247,41.08405],[-6.78155,41.06658],[-6.79169,41.05588],[-6.80867,41.04521],[-6.80886,41.0366],[-6.8347,41.02836],[-6.8678,41.02695],[-6.9165,41.03839],[-6.93116,41.02972],[-6.93167,41.01802],[-6.92067,41.00171],[-6.91031,40.99971],[-6.90407,40.99055],[-6.89069,40.98141],[-6.87536,40.96108],[-6.85962,40.95036],[-6.85244,40.93622],[-6.85324,40.93137],[-6.84764,40.92394],[-6.84914,40.90287],[-6.83039,40.88555],[-6.82217,40.88485],[-6.81977,40.8811],[-6.80947,40.88285],[-6.80179,40.86048],[-6.80197,40.84574],[-6.81423,40.84206],[-6.82608,40.84315],[-6.82116,40.83714],[-6.82404,40.83208],[-6.82359,40.81817],[-6.81727,40.80736],[-6.81696,40.79695],[-6.8254,40.78433],[-6.82771,40.77614],[-6.82576,40.77005],[-6.83102,40.75267],[-6.8301,40.74252],[-6.82499,40.73734],[-6.82344,40.7288],[-6.81967,40.72804],[-6.81079,40.71699],[-6.81322,40.70845],[-6.80495,40.69272],[-6.80181,40.67809],[-6.8047,40.66699],[-6.79368,40.66232],[-6.81487,40.61898],[-6.83744,40.59502],[-6.83754,40.57997],[-6.84501,40.56615],[-6.80552,40.55496],[-6.80443,40.55062],[-6.80097,40.55054],[-6.80534,40.53579],[-6.79688,40.52238],[-6.79529,40.51168],[-6.81462,40.50155],[-6.81779,40.4898],[-6.83622,40.4742],[-6.84985,40.45195],[-6.83481,40.40796],[-6.81263,40.39121],[-6.80712,40.38262],[-6.79311,40.37204],[-6.78411,40.36964],[-6.78095,40.36454],[-6.79398,40.35565],[-6.79037,40.33382],[-6.79501,40.32827],[-6.80409,40.32443],[-6.82449,40.32258],[-6.86119,40.29989],[-6.86413,40.26802],[-6.87053,40.26183],[-6.90456,40.25717],[-6.90746,40.25401],[-6.92669,40.25832],[-6.95163,40.25755],[-6.95458,40.24899],[-6.96436,40.23769],[-6.97228,40.23651],[-6.97663,40.24085],[-6.98112,40.24019],[-6.99836,40.23536],[-7.01222,40.22605],[-7.01083,40.22276],[-7.01856,40.2063],[-7.01854,40.19736],[-7.02781,40.19073],[-7.02961,40.18403],[-7.01715,40.17753],[-7.01737,40.17157],[-7.02156,40.16702],[-7.01455,40.15864],[-7.01415,40.15062],[-7.01911,40.14272],[-7.0092,40.12949],[-7.01289,40.12609],[-6.99242,40.11818],[-6.99388,40.11416],[-6.9905,40.11329],[-6.98672,40.11917],[-6.96909,40.11499],[-6.96195,40.11699],[-6.96013,40.11112],[-6.95372,40.11567],[-6.95038,40.11177],[-6.94143,40.11273],[-6.94278,40.10375],[-6.93409,40.10368],[-6.93145,40.09574],[-6.92136,40.08793],[-6.91793,40.06741],[-6.90772,40.06611],[-6.90268,40.06126],[-6.89317,40.06131],[-6.89725,40.05216],[-6.88082,40.04131],[-6.88244,40.03329],[-6.87414,40.02328],[-6.87687,40.01853],[-6.86374,40.01254],[-6.87395,40.00734],[-6.87385,39.99504],[-6.88639,39.98026],[-6.87958,39.97186],[-6.88721,39.96547],[-6.88839,39.95967],[-6.88462,39.95333],[-6.88482,39.941],[-6.89314,39.93235],[-6.90135,39.93061],[-6.90668,39.9237],[-6.90365,39.92176],[-6.90754,39.91801],[-6.89962,39.90958],[-6.90207,39.90516],[-6.89932,39.90141],[-6.90603,39.8902],[-6.90228,39.8877],[-6.90352,39.87085],[-6.91504,39.85862],[-6.92968,39.85409],[-6.93606,39.84287],[-6.93509,39.83833],[-6.93987,39.83451],[-6.94393,39.83559],[-6.94846,39.82751],[-6.95842,39.8239],[-6.97176,39.82424],[-6.97529,39.81941],[-6.98068,39.82007],[-6.98394,39.81043],[-6.98717,39.8101],[-6.98923,39.79535],[-6.9837,39.79105],[-6.97671,39.77286],[-6.98743,39.76301],[-6.98731,39.75367],[-6.99391,39.74166],[-6.99318,39.73073],[-6.9873,39.72771],[-6.99978,39.71391],[-7.00525,39.70209],[-7.0039,39.69712],[-7.0077,39.68422],[-7.01322,39.67961],[-7.01545,39.67051],[-7.0654,39.65818],[-7.08827,39.66316],[-7.12427,39.66366],[-7.14431,39.65331],[-7.20384,39.66228],[-7.21814,39.66027],[-7.25256,39.66669],[-7.28598,39.66106],[-7.29303,39.65557],[-7.32081,39.64768],[-7.33028,39.64129],[-7.37507,39.65081],[-7.40482,39.64694],[-7.45606,39.66265],[-7.53173,39.66741],[-7.54166,39.66372],[-7.53178,39.66151],[-7.52792,39.65653],[-7.52492,39.64224],[-7.527,39.6342],[-7.50985,39.61827],[-7.5077,39.60676],[-7.50034,39.5997],[-7.49992,39.59095],[-7.49519,39.58624],[-7.4875,39.58638],[-7.47877,39.5789],[-7.47127,39.57858],[-7.46093,39.57233],[-7.45947,39.56637],[-7.45144,39.56143],[-7.4465,39.54861],[-7.43035,39.53467],[-7.40566,39.53073],[-7.40021,39.53389],[-7.39138,39.53041],[-7.38814,39.51921],[-7.38972,39.50259],[-7.38677,39.4987],[-7.37978,39.49717],[-7.38186,39.49259],[-7.36484,39.48626],[-7.36488,39.48222],[-7.34756,39.48773],[-7.34407,39.47836],[-7.32224,39.47454],[-7.31963,39.47043],[-7.29987,39.46318],[-7.29428,39.45689],[-7.30546,39.44595],[-7.30487,39.43788],[-7.30861,39.43041],[-7.30136,39.42287],[-7.30245,39.41289],[-7.32281,39.38221],[-7.31165,39.37089],[-7.30632,39.35616],[-7.3105,39.34099],[-7.30781,39.33629],[-7.28167,39.32048],[-7.26948,39.30783],[-7.27032,39.30402],[-7.26709,39.30097],[-7.23175,39.27841],[-7.24783,39.25357],[-7.24187,39.24207],[-7.24536,39.22608],[-7.24003,39.21808],[-7.24143,39.20831],[-7.22781,39.20053],[-7.22137,39.19312],[-7.20807,39.18738],[-7.19335,39.18719],[-7.17856,39.1809],[-7.16358,39.18032],[-7.14692,39.17196],[-7.13469,39.17137],[-7.13203,39.16471],[-7.13997,39.14941],[-7.13629,39.14661],[-7.1375,39.1419],[-7.14198,39.13905],[-7.14356,39.12775],[-7.14869,39.12261],[-7.14757,39.11444],[-7.14159,39.10771],[-7.10539,39.09932],[-7.10084,39.10499],[-7.0538,39.11779],[-7.03358,39.11758],[-6.99701,39.09994],[-6.98098,39.08789],[-6.95933,39.05443],[-6.96798,39.03938],[-6.95094,39.0235],[-6.96447,39.01116],[-6.98684,38.97597],[-7.02012,38.94057],[-7.02629,38.92447],[-7.05196,38.90713],[-7.04378,38.90065],[-7.03905,38.89239],[-7.04013,38.88351],[-7.03539,38.8832],[-7.03309,38.87758],[-7.03956,38.87034],[-7.03909,38.86493],[-7.04664,38.86446],[-7.05366,38.85832],[-7.06868,38.85382],[-7.0901,38.81998],[-7.09962,38.81508],[-7.10822,38.81701],[-7.12831,38.81387],[-7.14648,38.80175],[-7.16263,38.77995],[-7.19398,38.76578],[-7.19773,38.75661],[-7.21128,38.74397],[-7.22181,38.73836],[-7.24406,38.73359],[-7.25597,38.72392],[-7.26377,38.70599],[-7.2696,38.63901],[-7.26342,38.62879],[-7.24793,38.62904],[-7.24417,38.62434],[-7.25737,38.61205],[-7.26072,38.59333],[-7.27518,38.57722],[-7.286,38.57071],[-7.29119,38.5555],[-7.3028,38.5438],[-7.30141,38.5317],[-7.30462,38.52155],[-7.31432,38.51427],[-7.32296,38.47707],[-7.31344,38.47522],[-7.30527,38.48342],[-7.29832,38.48319],[-7.2943,38.47414],[-7.29947,38.46779],[-7.31057,38.46366],[-7.31484,38.45196],[-7.33375,38.44159],[-7.3349,38.43424],[-7.32441,38.43949],[-7.31613,38.43944],[-7.31454,38.43568],[-7.30353,38.43171],[-7.2996,38.4256],[-7.28791,38.42508],[-7.28338,38.41902],[-7.28046,38.42014],[-7.27168,38.39533],[-7.24291,38.36482],[-7.20658,38.33352],[-7.18199,38.29558],[-7.16842,38.2837],[-7.16938,38.2798],[-7.16425,38.28142],[-7.15165,38.27618],[-7.15261,38.26751],[-7.14758,38.26703],[-7.14305,38.26172],[-7.14485,38.25065],[-7.13994,38.2352],[-7.11271,38.20516],[-7.10771,38.18788],[-7.10232,38.18648],[-7.09731,38.17897],[-7.08969,38.17874],[-7.08611,38.17011],[-7.06761,38.17802],[-7.06637,38.18656],[-7.05821,38.18662],[-7.0552,38.18297],[-7.05922,38.18061],[-7.0515,38.17958],[-7.04324,38.18726],[-7.02881,38.18244],[-7.01708,38.19217],[-7.0177,38.19631],[-7.01038,38.19578],[-7.01149,38.20441],[-6.99555,38.20368],[-6.98056,38.21133],[-6.97201,38.20211],[-6.9551,38.21664],[-6.94726,38.21737],[-6.94963,38.21224],[-6.9463,38.21198],[-6.93791,38.21992],[-6.93586,38.21884],[-6.93854,38.20761],[-6.93157,38.20828],[-6.9346,38.20098],[-6.95305,38.18681],[-6.96326,38.17391],[-6.96266,38.16949],[-6.96919,38.16602],[-6.96893,38.15986],[-6.96259,38.15461],[-6.9587,38.15634],[-6.95223,38.15245],[-6.95887,38.15024],[-6.96155,38.1405],[-6.95804,38.13714],[-6.95938,38.13348],[-6.96438,38.13286],[-6.97239,38.11485],[-6.97074,38.11069],[-6.97553,38.10751],[-6.97482,38.10502],[-6.98788,38.10188],[-6.99041,38.0546],[-7.00022,38.049],[-7.00245,38.04392],[-6.99927,38.03691],[-7.00724,38.02096],[-7.02455,38.02486],[-7.04632,38.0147],[-7.05224,38.01895],[-7.0589,38.01731],[-7.06291,38.01915],[-7.06395,38.02705],[-7.07119,38.03361],[-7.07554,38.03236],[-7.09866,38.0439],[-7.10815,38.04093],[-7.11587,38.03186],[-7.12806,38.02996],[-7.12503,38.02367],[-7.1292,38.01084],[-7.12068,38.00459],[-7.13724,37.99907],[-7.14719,38.00215],[-7.15625,37.99414],[-7.16626,37.99542],[-7.17339,37.99285],[-7.17745,37.99845],[-7.18209,37.99715],[-7.18612,38.00216],[-7.20036,38.00317],[-7.20645,38.00098],[-7.2055,37.99824],[-7.20885,37.99639],[-7.21587,37.99627],[-7.22232,37.98998],[-7.22753,37.98846],[-7.23067,37.99151],[-7.24331,37.99215],[-7.25901,37.98194],[-7.26182,37.97749],[-7.24979,37.96713],[-7.2517,37.95967],[-7.24816,37.95504],[-7.25455,37.94619],[-7.25246,37.94127],[-7.25744,37.93213],[-7.25488,37.92311],[-7.26126,37.9207],[-7.26815,37.91212],[-7.26921,37.90652],[-7.27404,37.90445],[-7.27368,37.89878],[-7.2823,37.89721],[-7.27945,37.87617],[-7.28341,37.86905],[-7.29686,37.85738],[-7.30073,37.84254],[-7.30999,37.83612],[-7.3269,37.81412],[-7.36675,37.79239],[-7.37042,37.78606],[-7.37816,37.7826],[-7.38316,37.77454],[-7.39105,37.77128],[-7.3961,37.76432],[-7.40704,37.76723],[-7.41438,37.75925],[-7.4218,37.7584],[-7.41903,37.7434],[-7.42894,37.74025],[-7.42662,37.73506],[-7.4306,37.72265],[-7.43612,37.71868],[-7.4391,37.70094],[-7.44413,37.70185],[-7.44761,37.69783],[-7.44386,37.68839],[-7.45212,37.67692],[-7.44469,37.66432],[-7.45342,37.6637],[-7.45477,37.6602],[-7.45166,37.65821],[-7.45566,37.64637],[-7.46454,37.64997],[-7.46655,37.64731],[-7.46405,37.64364],[-7.47099,37.63504],[-7.47054,37.62598],[-7.4812,37.62462],[-7.48023,37.61829],[-7.48893,37.60424],[-7.49765,37.60691],[-7.50368,37.60397],[-7.49707,37.59445],[-7.50193,37.5849],[-7.50173,37.5777],[-7.51308,37.57332],[-7.51583,37.56891],[-7.5074,37.56607],[-7.5067,37.55754],[-7.51685,37.55993],[-7.52328,37.55371],[-7.51268,37.53845],[-7.5124,37.52574],[-7.50468,37.52231],[-7.49356,37.52332],[-7.49025,37.51946],[-7.49096,37.50845],[-7.48469,37.4987],[-7.46386,37.48716],[-7.46897,37.47993],[-7.46831,37.46696],[-7.4564,37.4517],[-7.45935,37.44097],[-7.45713,37.42808],[-7.44636,37.42096],[-7.44692,37.41623],[-7.46169,37.41298],[-7.46279,37.40884],[-7.44728,37.39973],[-7.43984,37.38953],[-7.43671,37.35937],[-7.44504,37.34342],[-7.43884,37.327],[-7.44195,37.30975],[-7.43091,37.28476],[-7.4218,37.27364],[-7.43257,37.25741],[-7.43373,37.24961],[-7.41907,37.23746],[-7.41516,37.2054],[-7.41743,37.20453],[-7.41005,37.18118],[-7.40261,37.16849],[-7.44434,37.17637],[-7.4699,37.17529],[-7.50971,37.16591],[-7.56015,37.14649],[-7.56573,37.14693],[-7.53979,37.15434],[-7.53876,37.15741],[-7.56522,37.15015],[-7.60538,37.13021],[-7.61406,37.12903],[-7.61415,37.1244],[-7.62132,37.11819],[-7.62888,37.11687],[-7.64182,37.10173],[-7.65364,37.10418],[-7.67031,37.09602],[-7.67426,37.09255],[-7.66833,37.0897],[-7.6557,37.09688],[-7.63975,37.10081],[-7.62458,37.11528],[-7.61881,37.11495],[-7.61615,37.11158],[-7.71115,37.06038],[-7.71237,37.06463],[-7.67133,37.08978],[-7.67449,37.09238],[-7.71318,37.07324],[-7.71781,37.06507],[-7.7261,37.06747],[-7.74233,37.05545],[-7.74241,37.05069],[-7.7546,37.04967],[-7.75822,37.04392],[-7.77468,37.0369],[-7.79261,37.03786],[-7.8123,37.02855],[-7.82447,37.0288],[-7.83545,37.02326],[-7.86017,37.02003],[-7.87039,37.02192],[-7.87398,37.01785],[-7.8791,37.01803],[-7.87771,37.01467],[-7.8857,37.01629],[-7.8856,37.01179],[-7.89015,37.00721],[-7.90656,37.00989],[-7.90906,37.01805],[-7.91733,37.01067],[-7.92501,37.011],[-7.92521,37.00843],[-7.91552,37.00269],[-7.92287,37.00379],[-7.92602,37.00805],[-7.93526,37.01135],[-7.95071,37.02908],[-7.95565,37.01962],[-7.95212,37.01972],[-7.95186,37.01522],[-7.95715,37.01565],[-7.95724,37.00898],[-7.96641,37.00533],[-7.97345,37.00642],[-7.99108,37.0172],[-7.98907,37.02441],[-7.99215,37.02902],[-7.99221,37.01673],[-8.00148,37.0186],[-8.00267,37.02529],[-7.99738,37.02576],[-7.99716,37.02987],[-8.00379,37.0253],[-8.0037,37.01978],[-8.01473,37.0218],[-8.02915,37.03463],[-8.03749,37.0338],[-7.98089,37.00045],[-7.96883,36.99238],[-7.97047,36.98982]],[[-8.702,37.62729],[-8.69714,37.63062],[-8.69005,37.62829],[-8.68939,37.63188],[-8.70328,37.62974],[-8.69923,37.63461],[-8.70517,37.64297],[-8.71244,37.64389],[-8.71142,37.65596],[-8.72044,37.66292],[-8.7275,37.67732],[-8.72602,37.68245],[-8.73023,37.68406],[-8.72061,37.66086],[-8.71239,37.65571],[-8.71228,37.6426],[-8.70517,37.64233],[-8.69988,37.6341],[-8.70377,37.63],[-8.702,37.62729]]],[[[-7.91208,36.97453],[-7.91752,36.97497],[-7.91652,36.97778],[-7.91208,36.97453]]],[[[-7.86605,36.96948],[-7.86657,36.97757],[-7.85553,36.98749],[-7.84909,36.99012],[-7.84463,36.98815],[-7.83971,36.9962],[-7.83687,36.99347],[-7.82628,36.99465],[-7.81753,37.00124],[-7.80322,37.00521],[-7.81669,36.99379],[-7.86164,36.97547],[-7.86605,36.96948]]],[[[-7.88731,36.96043],[-7.93456,36.96998],[-7.94345,36.97546],[-7.92815,36.96993],[-7.92237,36.97167],[-7.90227,36.96661],[-7.88403,36.96605],[-7.87565,36.96944],[-7.87183,36.96838],[-7.87061,36.96387],[-7.88731,36.96043]]],[[[-25.01454,36.92913],[-25.02948,36.93298],[-25.04461,36.9295],[-25.06957,36.92927],[-25.08164,36.93923],[-25.08262,36.94464],[-25.09748,36.95181],[-25.11284,36.95206],[-25.12294,36.94503],[-25.12738,36.94664],[-25.13611,36.94292],[-25.13876,36.93937],[-25.14564,36.94577],[-25.15762,36.93992],[-25.16743,36.94469],[-25.1708,36.95091],[-25.17337,36.97073],[-25.18426,36.98374],[-25.18222,36.99552],[-25.17319,36.99821],[-25.17017,37.00407],[-25.16467,37.00617],[-25.15862,37.00479],[-25.14505,37.00959],[-25.14513,37.00651],[-25.13403,37.00197],[-25.12941,37.00729],[-25.11862,37.00352],[-25.10989,37.00672],[-25.10748,37.01337],[-25.10306,37.01073],[-25.08723,37.01638],[-25.08127,37.01115],[-25.07186,37.00971],[-25.06381,37.01138],[-25.06419,37.01549],[-25.05465,37.01251],[-25.05133,37.00475],[-25.05507,36.98991],[-25.05213,36.98575],[-25.04636,36.98617],[-25.03101,36.97295],[-25.0276,36.96619],[-25.01967,36.9657],[-25.01535,36.95933],[-25.02096,36.95287],[-25.01351,36.94414],[-25.01692,36.93611],[-25.01454,36.92913]]],[[[-16.28151,33.05198],[-16.28706,33.05513],[-16.27845,33.05576],[-16.27744,33.05274],[-16.28151,33.05198]]],[[[-16.40888,33.0351],[-16.40942,33.04207],[-16.40226,33.03867],[-16.40888,33.0351]]],[[[-16.38008,33.02393],[-16.3841,33.02982],[-16.39061,33.03106],[-16.39514,33.04229],[-16.3883,33.04162],[-16.38901,33.04488],[-16.37538,33.05982],[-16.37682,33.06384],[-16.37376,33.07021],[-16.37692,33.07456],[-16.37026,33.07748],[-16.3705,33.08169],[-16.36126,33.08318],[-16.35236,33.09227],[-16.3212,33.10667],[-16.30656,33.09701],[-16.29416,33.09892],[-16.29311,33.09409],[-16.29922,33.08409],[-16.29022,33.07619],[-16.29848,33.069],[-16.29562,33.06069],[-16.31553,33.06255],[-16.32988,33.05954],[-16.36616,33.03121],[-16.38008,33.02393]]],[[[-16.38572,32.99789],[-16.38634,33.00334],[-16.39368,33.00513],[-16.38312,33.01828],[-16.38098,32.99941],[-16.38572,32.99789]]],[[[-16.66287,32.72961],[-16.6751,32.73318],[-16.66936,32.73493],[-16.66287,32.72961]]],[[[-16.9445,32.63277],[-16.95441,32.64161],[-16.97127,32.64456],[-16.985,32.65103],[-17.01662,32.65232],[-17.03231,32.66068],[-17.06549,32.66991],[-17.07153,32.67521],[-17.09434,32.68043],[-17.10412,32.67826],[-17.13876,32.70338],[-17.20267,32.73131],[-17.2127,32.7373],[-17.21393,32.74396],[-17.24256,32.76993],[-17.24351,32.78353],[-17.25162,32.80343],[-17.26086,32.80764],[-17.26603,32.8141],[-17.20787,32.85835],[-17.1997,32.86825],[-17.19446,32.8704],[-17.17703,32.86628],[-17.17073,32.86847],[-17.16584,32.86766],[-17.16047,32.85965],[-17.15059,32.8543],[-17.15013,32.84762],[-17.12621,32.82773],[-17.10579,32.82653],[-17.10228,32.81991],[-17.09212,32.81481],[-17.08332,32.81599],[-17.04966,32.80832],[-17.01484,32.81646],[-16.99018,32.82984],[-16.98158,32.82612],[-16.96149,32.82656],[-16.9494,32.83048],[-16.90294,32.83569],[-16.89671,32.82949],[-16.88419,32.82724],[-16.86955,32.81152],[-16.85663,32.80516],[-16.85972,32.79985],[-16.85488,32.79401],[-16.84816,32.79308],[-16.84562,32.78797],[-16.83649,32.78785],[-16.83077,32.77585],[-16.82621,32.77592],[-16.82672,32.77103],[-16.82147,32.76763],[-16.81113,32.76778],[-16.79886,32.76269],[-16.79041,32.76577],[-16.78332,32.75946],[-16.74517,32.75523],[-16.73775,32.74865],[-16.72652,32.75009],[-16.72587,32.74778],[-16.71612,32.74715],[-16.7077,32.75214],[-16.70429,32.74859],[-16.69698,32.74818],[-16.69521,32.75103],[-16.68112,32.74608],[-16.68237,32.73964],[-16.69378,32.74771],[-16.70198,32.73924],[-16.72038,32.74186],[-16.74658,32.73387],[-16.75573,32.71935],[-16.76476,32.71485],[-16.76112,32.70745],[-16.76903,32.70014],[-16.7731,32.69083],[-16.79066,32.68711],[-16.80119,32.67424],[-16.80295,32.66342],[-16.8309,32.64065],[-16.85134,32.63778],[-16.87488,32.64463],[-16.90621,32.64634],[-16.9249,32.63976],[-16.92545,32.63718],[-16.9445,32.63277]]],[[[-16.54105,32.57745],[-16.54553,32.58228],[-16.54673,32.59011],[-16.54323,32.58951],[-16.54105,32.57745]]],[[[-16.49087,32.47703],[-16.50295,32.49623],[-16.50465,32.50694],[-16.5117,32.52048],[-16.52107,32.53183],[-16.53769,32.54099],[-16.53574,32.55728],[-16.54037,32.56461],[-16.53986,32.57001],[-16.53608,32.57109],[-16.53142,32.56133],[-16.51639,32.54639],[-16.51673,32.53996],[-16.50001,32.51959],[-16.49381,32.50245],[-16.49087,32.47703]]],[[[-16.46681,32.4039],[-16.47939,32.41042],[-16.49211,32.43029],[-16.49429,32.45099],[-16.49338,32.46152],[-16.49047,32.4643],[-16.484,32.42805],[-16.48017,32.41983],[-16.46263,32.40426],[-16.46681,32.4039]]],[[[-15.86177,30.1377],[-15.87364,30.14213],[-15.86871,30.1536],[-15.85745,30.15175],[-15.85914,30.14196],[-15.85513,30.13993],[-15.86177,30.1377]]],[[[-16.01956,30.03023],[-16.03291,30.0354],[-16.0282,30.03762],[-16.0193,30.0337],[-16.01956,30.03023]]]]}}]}