{"type":"FeatureCollection","features":[{"type":"Feature","properties":{"ISO_A3":"PSE","WB_A3":"WBG","WB_NAME":"West Bank and Gaza","WB_REGION":"MEA"},"geometry":{"type":"MultiPolygon","coordinates":[[[[35.22712,31.78658],[35.22376,31.80077],[35.21699,31.80502],[35.19504,31.80991],[35.16035,31.80882],[35.1392,31.81376],[35.12002,31.82528],[35.11591,31.82214],[35.10166,31.82619],[35.07006,31.8441],[35.06972,31.84661],[35.07936,31.84612],[35.08457,31.8556],[35.05933,31.8569],[35.02782,31.83204],[35.01634,31.82854],[34.97767,31.83282],[34.97833,31.83757],[34.98927,31.84488],[34.9951,31.8531],[35.03369,31.85884],[35.03978,31.88655],[35.03897,31.90673],[35.0345,31.9195],[35.02845,31.92522],[35.00035,31.93206],[34.99687,31.93883],[35.00496,31.9481],[34.99223,31.95652],[34.99252,31.96056],[34.98884,31.95965],[34.98989,31.9631],[34.98614,31.96755],[34.98681,31.97085],[34.99563,31.97503],[34.99929,32.01762],[35.00501,32.02062],[35.00286,32.03267],[35.00778,32.0429],[35.00265,32.05299],[34.99554,32.05308],[35.00308,32.0637],[34.99316,32.06968],[34.9863,32.08956],[34.98289,32.09137],[34.98652,32.10081],[34.99324,32.10738],[34.98472,32.12747],[34.99046,32.14257],[34.98708,32.1481],[34.9745,32.15212],[34.9776,32.15776],[34.95942,32.17578],[34.95714,32.18944],[34.96224,32.19924],[34.97571,32.20083],[34.98932,32.20775],[35.01408,32.23563],[35.01786,32.23349],[35.01969,32.23559],[35.02376,32.25507],[35.03048,32.26584],[35.0196,32.27951],[35.00903,32.28129],[35.01294,32.29226],[35.01053,32.29347],[35.01528,32.31321],[35.01666,32.33813],[35.02931,32.34091],[35.03186,32.34641],[35.0407,32.34895],[35.04455,32.35905],[35.04881,32.35987],[35.05134,32.36697],[35.04901,32.3759],[35.04031,32.38079],[35.05032,32.39262],[35.05408,32.40261],[35.05324,32.41548],[35.06557,32.44311],[35.06538,32.44892],[35.07234,32.45392],[35.0725,32.45902],[35.09248,32.47619],[35.10225,32.47801],[35.10693,32.47547],[35.12537,32.48387],[35.13993,32.49346],[35.1389,32.49629],[35.1446,32.49626],[35.16438,32.50637],[35.18065,32.52397],[35.18665,32.52289],[35.2009,32.53902],[35.2121,32.54163],[35.22503,32.55176],[35.23656,32.53584],[35.25211,32.52299],[35.29168,32.50997],[35.30189,32.50909],[35.35495,32.51894],[35.37508,32.51291],[35.38584,32.50522],[35.40301,32.50142],[35.40759,32.48917],[35.40537,32.48348],[35.42097,32.45901],[35.41618,32.45559],[35.41159,32.43472],[35.4177,32.43076],[35.41545,32.42811],[35.41879,32.41726],[35.43132,32.40874],[35.44016,32.406],[35.44491,32.41075],[35.45403,32.41256],[35.4767,32.41101],[35.49398,32.40173],[35.53142,32.39273],[35.54169,32.387],[35.555,32.38936],[35.56245,32.3852],[35.56298,32.38212],[35.55885,32.37941],[35.5639,32.37487],[35.56393,32.36927],[35.56088,32.36319],[35.55356,32.3667],[35.55953,32.34759],[35.5539,32.34317],[35.5573,32.33083],[35.55311,32.32318],[35.56101,32.31704],[35.56391,32.30971],[35.55556,32.29715],[35.56245,32.29494],[35.56785,32.28382],[35.56242,32.27433],[35.55757,32.27304],[35.5593,32.26571],[35.56406,32.26301],[35.56247,32.25117],[35.5711,32.25093],[35.56704,32.24147],[35.56182,32.24246],[35.5643,32.23832],[35.56203,32.23138],[35.57221,32.22783],[35.56768,32.22585],[35.56654,32.2192],[35.56882,32.21363],[35.57386,32.21245],[35.56303,32.20493],[35.56696,32.19703],[35.56992,32.19756],[35.56885,32.19052],[35.5644,32.18683],[35.56165,32.19008],[35.55874,32.18881],[35.56246,32.18432],[35.5588,32.17952],[35.56004,32.17346],[35.55425,32.17704],[35.55226,32.1713],[35.5559,32.17102],[35.55675,32.16666],[35.54785,32.16661],[35.55252,32.16024],[35.55791,32.15938],[35.55586,32.15364],[35.5604,32.15144],[35.55748,32.14399],[35.55046,32.14575],[35.54907,32.14187],[35.54571,32.1441],[35.54336,32.13968],[35.55098,32.13341],[35.54591,32.13184],[35.55123,32.1282],[35.54921,32.12263],[35.53249,32.10679],[35.54386,32.08945],[35.54531,32.08171],[35.54064,32.08104],[35.53733,32.07504],[35.53419,32.07683],[35.53522,32.06957],[35.53025,32.06782],[35.53112,32.06122],[35.52842,32.05742],[35.53006,32.05112],[35.51919,32.04769],[35.52327,32.04284],[35.51891,32.03577],[35.52356,32.02888],[35.52166,32.02413],[35.52921,32.01868],[35.52571,32.00507],[35.52726,32.00093],[35.53564,32.00056],[35.53485,31.99779],[35.53903,31.99521],[35.53519,31.99243],[35.53535,31.98476],[35.54197,31.97751],[35.5406,31.97342],[35.54774,31.97201],[35.54827,31.96856],[35.54306,31.96588],[35.54499,31.96326],[35.54148,31.95618],[35.54394,31.94093],[35.54107,31.93657],[35.5455,31.93639],[35.53561,31.9299],[35.53632,31.92492],[35.52658,31.92225],[35.52566,31.90369],[35.53326,31.89585],[35.53383,31.89203],[35.52996,31.89073],[35.53508,31.88456],[35.53305,31.88324],[35.53922,31.87977],[35.53965,31.87417],[35.54667,31.8733],[35.54744,31.86801],[35.54292,31.85945],[35.537,31.85544],[35.54781,31.84255],[35.54828,31.82335],[35.54297,31.82248],[35.54178,31.81889],[35.54451,31.81564],[35.5428,31.80528],[35.55146,31.79644],[35.54747,31.7829],[35.55557,31.77206],[35.55328,31.7669],[35.55727,31.7661],[35.55831,31.75751],[35.54262,31.73319],[35.52657,31.69891],[35.49336,31.611],[35.48126,31.5537],[35.47603,31.49317],[35.39749,31.49175],[35.29322,31.4222],[35.22593,31.37292],[35.16381,31.36394],[35.14252,31.35619],[35.07647,31.35564],[35.0322,31.36015],[34.92456,31.34306],[34.91971,31.34401],[34.89049,31.36995],[34.88086,31.39211],[34.88436,31.40447],[34.89912,31.43653],[34.91202,31.4496],[34.91074,31.45427],[34.9171,31.45654],[34.92809,31.47026],[34.94334,31.50268],[34.93986,31.52453],[34.94253,31.56073],[34.95197,31.59416],[34.99954,31.64805],[35.03733,31.66433],[35.08402,31.69016],[35.08541,31.69578],[35.1065,31.71482],[35.1208,31.71588],[35.12772,31.73098],[35.13468,31.73444],[35.13832,31.72997],[35.14117,31.73072],[35.15845,31.74448],[35.17494,31.74135],[35.18676,31.7477],[35.19084,31.74589],[35.19546,31.75002],[35.20281,31.74671],[35.20918,31.74792],[35.21497,31.73687],[35.2207,31.73388],[35.22745,31.74453],[35.235,31.74449],[35.24276,31.75167],[35.24236,31.75867],[35.2288,31.76336],[35.23273,31.76908],[35.22587,31.77808],[35.23023,31.78164],[35.22712,31.78658]],[[35.25039,31.80167],[35.238,31.79828],[35.24778,31.78469],[35.25174,31.78466],[35.24786,31.78963],[35.24832,31.79493],[35.25175,31.79714],[35.25039,31.80167]]],[[[34.33059,31.26145],[34.31907,31.25272],[34.29136,31.24048],[34.26726,31.22005],[34.23995,31.2959],[34.23524,31.29694],[34.21855,31.32358],[34.35035,31.43791],[34.43872,31.53002],[34.49131,31.59504],[34.56687,31.5415],[34.56597,31.53405],[34.54714,31.51287],[34.5109,31.49959],[34.4783,31.47633],[34.44572,31.44374],[34.43698,31.44001],[34.42633,31.42702],[34.40201,31.41112],[34.38033,31.38937],[34.37349,31.37399],[34.3654,31.365],[34.37359,31.30644],[34.36928,31.29474],[34.36653,31.29005],[34.34308,31.27869],[34.33059,31.26145]]]]}},{"type":"Feature","properties":{"ISO_A3":"","WB_A3":"","WB_NAME":"No Man's Land","WB_REGION":"","STATUS":"non-determined","AREA_ID":"no-man-s-land","CLAIMANTS":"ISR,PSE"},"geometry":{"type":"MultiPolygon","coordinates":[[[[35.22705,31.78726],[35.2249,31.79648],[35.22765,31.7905],[35.22705,31.78726]]],[[[35.22712,31.78658],[35.23023,31.78164],[35.22587,31.77808],[35.23273,31.76908],[35.2288,31.76336],[35.24236,31.75867],[35.24276,31.75167],[35.235,31.74449],[35.22406,31.74435],[35.22967,31.76966],[35.22535,31.77688],[35.22712,31.78658]]],[[[35.08457,31.8556],[35.07936,31.84612],[35.06972,31.84661],[35.07006,31.8441],[35.05597,31.85051],[35.04611,31.8284],[35.03052,31.81777],[35.00987,31.8196],[34.97791,31.81571],[34.96201,31.82708],[34.9557,31.85615],[34.95894,31.8606],[35.01799,31.86898],[35.02627,31.87383],[35.02605,31.90033],[35.02144,31.91669],[34.99522,31.93014],[34.99087,31.94757],[34.98154,31.96248],[34.98255,31.96712],[34.98614,31.96755],[34.98989,31.9631],[34.98884,31.95965],[34.99252,31.96056],[34.99223,31.95652],[35.00496,31.9481],[34.99687,31.93883],[35.00035,31.93206],[35.02845,31.92522],[35.0345,31.9195],[35.03897,31.90673],[35.03978,31.88655],[35.03189,31.85691],[34.9951,31.8531],[34.98927,31.84488],[34.97833,31.83757],[34.97767,31.83282],[35.01634,31.82854],[35.02782,31.83204],[35.05933,31.8569],[35.08457,31.8556]]]]}}]}