{"type":"FeatureCollection","features":[{"type":"Feature","properties":{"ISO_A3":"QAT","WB_A3":"QAT","WB_NAME":"Qatar","WB_REGION":"MEA"},"geometry":{"type":"MultiPolygon","coordinates":[[[[52.41202,25.66422],[52.40385,25.66906],[52.40464,25.67626],[52.41168,25.68326],[52.41741,25.67562],[52.41202,25.66422]]],[[[52.22927,25.02961],[52.23551,25.03239],[52.23436,25.0297],[52.22927,25.02961]]],[[[50.90557,25.73086],[50.91607,25.73768],[50.91834,25.74708],[50.91408,25.7472],[50.90696,25.75994],[50.90709,25.77873],[50.90865,25.78336],[50.91945,25.78826],[50.92996,25.80705],[50.94048,25.80757],[50.94247,25.80345],[50.94759,25.80242],[50.96024,25.78132],[50.95513,25.76665],[50.93908,25.76407],[50.92402,25.75351],[50.93255,25.75326],[50.92886,25.74528],[50.92601,25.74747],[50.92431,25.74476],[50.93312,25.74065],[50.93852,25.74143],[50.93994,25.74863],[50.94164,25.74735],[50.94903,25.75919],[50.96011,25.76472],[50.96991,25.76383],[50.96863,25.77052],[50.98156,25.77567],[50.98355,25.77875],[50.98,25.78956],[50.98767,25.79394],[50.99094,25.79986],[50.98625,25.80681],[50.98781,25.81247],[50.98497,25.82302],[50.97886,25.82649],[50.96407,25.82598],[50.95795,25.83099],[50.95795,25.84],[50.96107,25.84927],[50.95894,25.85673],[50.96562,25.86342],[50.9669,25.87089],[50.96989,25.86934],[50.96975,25.86291],[50.98582,25.87063],[50.9834,25.87719],[50.98126,25.87115],[50.97216,25.87861],[50.97856,25.8871],[50.97941,25.89405],[50.99193,25.90151],[50.99634,25.91901],[50.99292,25.93523],[50.99378,25.95401],[50.98993,25.95813],[50.99008,25.96817],[50.98652,25.97512],[50.98965,25.97615],[50.99221,25.98374],[50.9989,25.97409],[50.99748,25.96868],[51.00474,25.95993],[51.00317,25.95659],[51.01299,25.95633],[51.01769,25.96148],[51.01328,25.96289],[51.02182,25.96714],[51.01954,25.97229],[51.02381,25.97692],[51.02367,25.98721],[51.02809,25.98425],[51.03563,25.98695],[51.0325,25.9903],[51.03464,26.00548],[51.03991,26.0132],[51.03821,26.02041],[51.04277,26.03302],[51.04035,26.04086],[51.03608,26.0419],[51.0375,26.04473],[51.0774,26.06002],[51.08595,26.0725],[51.09165,26.0725],[51.09165,26.06954],[51.09678,26.0676],[51.11389,26.08059],[51.11331,26.07312],[51.12157,26.06861],[51.1498,26.08493],[51.15623,26.09779],[51.1551,26.10551],[51.15796,26.11194],[51.18136,26.12735],[51.18894,26.14665],[51.1895,26.1397],[51.20404,26.13955],[51.2089,26.14456],[51.20689,26.13967],[51.21574,26.14442],[51.22258,26.14029],[51.23113,26.14324],[51.23943,26.15583],[51.24884,26.15775],[51.28102,26.1407],[51.30553,26.13512],[51.35676,26.10464],[51.36088,26.10077],[51.35648,26.05986],[51.35901,26.05033],[51.37874,26.02828],[51.37149,26.03177],[51.37219,26.0274],[51.39961,26.00931],[51.40093,25.97817],[51.39636,25.97406],[51.39847,25.96492],[51.40445,25.96477],[51.42206,25.95456],[51.44253,25.94781],[51.48184,25.9536],[51.50347,25.95327],[51.52184,25.94544],[51.54179,25.92971],[51.57503,25.91684],[51.59002,25.92785],[51.60184,25.92896],[51.60566,25.92573],[51.60266,25.92291],[51.60068,25.92536],[51.59185,25.92385],[51.58485,25.91835],[51.58711,25.91577],[51.58169,25.91193],[51.58181,25.90845],[51.59635,25.91225],[51.58522,25.90728],[51.58648,25.9029],[51.58232,25.89455],[51.57549,25.89523],[51.57447,25.8906],[51.57555,25.8785],[51.58552,25.85272],[51.58975,25.81694],[51.59707,25.80224],[51.59614,25.78706],[51.58864,25.7921],[51.58563,25.78684],[51.57094,25.77725],[51.56187,25.78333],[51.55785,25.77434],[51.55073,25.77089],[51.54534,25.77207],[51.53792,25.76592],[51.53538,25.76928],[51.53039,25.76724],[51.5251,25.76005],[51.52536,25.75336],[51.53585,25.74843],[51.53951,25.73992],[51.54689,25.73925],[51.57179,25.71664],[51.57803,25.71456],[51.58116,25.71686],[51.57708,25.72485],[51.57616,25.73927],[51.58722,25.73588],[51.59381,25.71707],[51.58149,25.6955],[51.58199,25.68263],[51.57401,25.67623],[51.56452,25.68154],[51.5506,25.68031],[51.56384,25.68785],[51.56216,25.69377],[51.55352,25.69921],[51.55921,25.70099],[51.5547,25.70705],[51.54956,25.70218],[51.54219,25.70504],[51.51717,25.70024],[51.50165,25.69193],[51.51001,25.68689],[51.52662,25.68516],[51.52474,25.67654],[51.53113,25.6769],[51.5296,25.68386],[51.54011,25.68408],[51.53808,25.67662],[51.53311,25.67561],[51.53195,25.67072],[51.53691,25.66762],[51.53448,25.66428],[51.53631,25.66144],[51.55448,25.65983],[51.55489,25.65597],[51.55116,25.64929],[51.54893,25.62678],[51.5398,25.61691],[51.53527,25.61834],[51.52872,25.61502],[51.52651,25.62712],[51.52225,25.62701],[51.51557,25.62523],[51.51422,25.60774],[51.50259,25.61099],[51.49322,25.60819],[51.49504,25.60343],[51.48931,25.59058],[51.49143,25.58825],[51.48867,25.57205],[51.48964,25.56664],[51.49701,25.56507],[51.48882,25.53834],[51.47511,25.51547],[51.4786,25.5026],[51.49146,25.49226],[51.49087,25.48505],[51.49467,25.47745],[51.50599,25.47394],[51.51108,25.46929],[51.50865,25.46621],[51.51754,25.45717],[51.53309,25.44772],[51.54103,25.44795],[51.5396,25.44422],[51.52235,25.45496],[51.51499,25.45537],[51.52371,25.44042],[51.52352,25.42987],[51.51442,25.42269],[51.51395,25.41163],[51.52371,25.40722],[51.51981,25.38973],[51.52503,25.38609],[51.52459,25.38096],[51.50556,25.37138],[51.50456,25.36739],[51.50695,25.36455],[51.51745,25.36799],[51.53188,25.36421],[51.52617,25.35393],[51.53183,25.35391],[51.53196,25.35031],[51.52269,25.3349],[51.52692,25.33167],[51.53655,25.33241],[51.54049,25.32634],[51.53894,25.31777],[51.52742,25.31571],[51.51989,25.3102],[51.52026,25.29811],[51.52732,25.29332],[51.53864,25.29161],[51.5398,25.29906],[51.55198,25.29953],[51.54974,25.30469],[51.55853,25.30826],[51.5612,25.3031],[51.5585,25.30157],[51.5564,25.30595],[51.55172,25.30507],[51.55635,25.29514],[51.54828,25.29594],[51.55164,25.28692],[51.56041,25.28638],[51.56951,25.29509],[51.57686,25.29275],[51.57759,25.29789],[51.58099,25.29814],[51.58136,25.28604],[51.59068,25.28188],[51.60407,25.3001],[51.60918,25.30163],[51.62668,25.26398],[51.62651,25.25832],[51.62254,25.25692],[51.60783,25.25904],[51.60568,25.25274],[51.59929,25.24788],[51.60441,25.22495],[51.62018,25.21073],[51.62065,25.19117],[51.61406,25.17395],[51.61569,25.17102],[51.61062,25.16496],[51.62155,25.14664],[51.6181,25.13456],[51.61794,25.1029],[51.62124,25.08435],[51.61839,25.07999],[51.61915,25.09003],[51.61588,25.08644],[51.60988,25.07308],[51.60955,25.06433],[51.61275,25.05376],[51.61329,25.0203],[51.61544,25.02724],[51.62331,25.01923],[51.62489,25.02308],[51.62855,25.02101],[51.62825,25.01844],[51.62379,25.00147],[51.62067,24.99994],[51.62184,25.00637],[51.61903,25.00998],[51.61079,25.00088],[51.59303,25.00739],[51.5922,25.01086],[51.58754,25.01011],[51.58222,25.01965],[51.58857,25.01963],[51.58833,25.0289],[51.5957,25.03376],[51.59918,25.05124],[51.59739,25.0618],[51.59336,25.04689],[51.58814,25.04717],[51.58646,25.05117],[51.57968,25.05016],[51.57866,25.04463],[51.57286,25.04183],[51.57495,25.03564],[51.5782,25.03563],[51.57984,25.02481],[51.57701,25.02328],[51.57897,25.02095],[51.57515,25.01788],[51.5747,25.01235],[51.58263,25.01708],[51.59761,24.99051],[51.58486,24.98078],[51.58676,24.97468],[51.59369,24.96813],[51.59539,24.97006],[51.60088,24.96656],[51.5955,24.96246],[51.59363,24.95449],[51.56178,24.90481],[51.53172,24.86992],[51.5146,24.85853],[51.50834,24.84594],[51.5034,24.84467],[51.50451,24.84054],[51.50071,24.84056],[51.50069,24.83592],[51.48996,24.83416],[51.49541,24.82153],[51.48782,24.79195],[51.48305,24.79634],[51.48282,24.80947],[51.47928,24.80742],[51.4753,24.79766],[51.47654,24.79147],[51.47329,24.78955],[51.47525,24.78633],[51.47724,24.78864],[51.48569,24.78733],[51.47721,24.78259],[51.46961,24.7848],[51.46692,24.78147],[51.46901,24.77631],[51.47675,24.77165],[51.47593,24.77964],[51.47946,24.78091],[51.48157,24.76144],[51.47794,24.7508],[51.45343,24.71613],[51.44006,24.67859],[51.43414,24.6799],[51.43567,24.67243],[51.43341,24.67089],[51.43804,24.66701],[51.43562,24.6575],[51.42968,24.65121],[51.42348,24.65136],[51.41922,24.6403],[51.41516,24.64649],[51.41714,24.64931],[51.41138,24.6528],[51.40303,24.64163],[51.40443,24.63802],[51.40062,24.6361],[51.39612,24.63547],[51.39599,24.63959],[51.40392,24.65321],[51.39617,24.65117],[51.39558,24.64397],[51.38994,24.64244],[51.38386,24.63422],[51.37518,24.60129],[51.37768,24.59253],[51.37374,24.59319],[51.36908,24.58664],[51.36133,24.58447],[51.36878,24.57969],[51.36018,24.57559],[51.36076,24.57945],[51.3578,24.57843],[51.35962,24.57508],[51.33705,24.55659],[51.33836,24.57384],[51.33079,24.58261],[51.33125,24.59856],[51.33562,24.60061],[51.34307,24.59545],[51.34673,24.59853],[51.36174,24.6299],[51.3585,24.62913],[51.35488,24.64175],[51.34489,24.64602],[51.34406,24.65001],[51.34871,24.65283],[51.34943,24.65837],[51.32998,24.65198],[51.31995,24.63797],[51.31701,24.64364],[51.31025,24.64545],[51.30615,24.63826],[51.30054,24.64547],[51.28892,24.67535],[51.28594,24.66584],[51.28326,24.6661],[51.28195,24.6468],[51.27731,24.64758],[51.27634,24.65504],[51.26775,24.65493],[51.25858,24.64787],[51.2407,24.64931],[51.23702,24.64301],[51.23238,24.64199],[51.23279,24.63929],[51.22857,24.63968],[51.22577,24.64638],[51.22069,24.64278],[51.22124,24.6366],[51.2156,24.63249],[51.21588,24.62863],[51.22067,24.62914],[51.21897,24.62515],[51.21559,24.62606],[51.21361,24.62014],[51.21924,24.62052],[51.2288,24.61368],[51.24964,24.61378],[51.25442,24.61068],[51.27076,24.61619],[51.27103,24.61233],[51.27638,24.61077],[51.284,24.61899],[51.28582,24.6159],[51.28018,24.60922],[51.28326,24.60227],[51.29142,24.60225],[51.29563,24.59478],[51.30224,24.59476],[51.30507,24.5981],[51.31434,24.59281],[51.30687,24.58755],[51.30051,24.57418],[51.30196,24.53531],[51.29403,24.5119],[51.30428,24.5048],[51.34881,24.53314],[51.35036,24.53546],[51.34741,24.53907],[51.35292,24.54626],[51.34646,24.55091],[51.34718,24.55503],[51.36186,24.57082],[51.38355,24.57785],[51.38723,24.58607],[51.40234,24.60071],[51.40237,24.61152],[51.39789,24.61642],[51.39749,24.62389],[51.40215,24.62562],[51.41388,24.59711],[51.36526,24.52137],[51.31384,24.48536],[51.09861,24.47111],[51,24.5],[50.92889,24.54528],[50.85952,24.67336],[50.8118,24.74431],[50.86008,24.76566],[50.87061,24.80016],[50.86609,24.81199],[50.85818,24.82022],[50.85464,24.83669],[50.86266,24.856],[50.85982,24.87299],[50.86376,24.8784],[50.85752,24.90439],[50.85032,24.91184],[50.85158,24.9188],[50.84776,24.92368],[50.82615,24.93987],[50.82203,24.95827],[50.80761,24.96945],[50.79728,24.98334],[50.79822,25.01705],[50.80244,25.02736],[50.81357,25.0405],[50.81044,25.06031],[50.7964,25.08886],[50.77191,25.11019],[50.7755,25.15884],[50.76683,25.18418],[50.76496,25.20052],[50.76834,25.20824],[50.76408,25.21596],[50.76687,25.23604],[50.76418,25.23964],[50.76172,25.26666],[50.76425,25.27464],[50.76323,25.28957],[50.76986,25.30116],[50.76524,25.35005],[50.75971,25.35082],[50.76351,25.36266],[50.75979,25.38222],[50.76289,25.39149],[50.7616,25.3974],[50.75479,25.40383],[50.75887,25.41542],[50.75008,25.42184],[50.75714,25.43394],[50.75612,25.44424],[50.76442,25.47771],[50.76951,25.48724],[50.76495,25.49881],[50.757,25.5006],[50.76422,25.51091],[50.78347,25.52767],[50.79822,25.52936],[50.80973,25.51509],[50.81259,25.4994],[50.81897,25.49657],[50.82196,25.49117],[50.82469,25.46492],[50.83802,25.46172],[50.84794,25.46649],[50.84778,25.47447],[50.84339,25.47627],[50.84523,25.47884],[50.83828,25.48038],[50.84351,25.49248],[50.83328,25.50405],[50.83654,25.50818],[50.82744,25.52438],[50.8185,25.52874],[50.82345,25.53596],[50.82401,25.54291],[50.83082,25.54549],[50.83548,25.55399],[50.83489,25.57586],[50.82678,25.59155],[50.82734,25.59786],[50.81995,25.60094],[50.81087,25.59977],[50.80592,25.5923],[50.79356,25.59974],[50.8012,25.61494],[50.81283,25.61817],[50.81823,25.6156],[50.82304,25.62269],[50.83213,25.62231],[50.84691,25.60869],[50.85329,25.60882],[50.85415,25.60265],[50.86593,25.59983],[50.86013,25.58258],[50.86043,25.57383],[50.8698,25.56998],[50.87179,25.56123],[50.86784,25.54269],[50.87396,25.52558],[50.88105,25.52366],[50.87992,25.51877],[50.88645,25.51826],[50.89169,25.52315],[50.88757,25.53113],[50.89665,25.52908],[50.89708,25.51878],[50.90262,25.51441],[50.90092,25.50283],[50.90376,25.50103],[50.89384,25.49073],[50.8947,25.48648],[50.90406,25.48662],[50.90746,25.4816],[50.9093,25.48739],[50.90448,25.48893],[50.90405,25.49228],[50.90887,25.4928],[50.91327,25.48585],[50.90504,25.50077],[50.91907,25.50361],[50.92233,25.51339],[50.91665,25.52394],[50.9131,25.52394],[50.91523,25.51776],[50.90772,25.51905],[50.90743,25.52419],[50.91338,25.52896],[50.91707,25.52832],[50.91863,25.53218],[50.90742,25.54182],[50.91039,25.54427],[50.91251,25.56126],[50.91889,25.5677],[50.91463,25.57464],[50.91647,25.58108],[50.92526,25.58777],[50.92241,25.60038],[50.92979,25.60296],[50.93277,25.60759],[50.92993,25.61223],[50.93433,25.61249],[50.93575,25.60708],[50.94625,25.604],[50.94881,25.59422],[50.96839,25.59654],[50.97166,25.60066],[50.96896,25.61584],[50.98343,25.63232],[50.99394,25.63592],[50.99166,25.64879],[50.9857,25.64763],[50.98243,25.65548],[50.97235,25.65792],[50.96781,25.64647],[50.96412,25.6475],[50.96313,25.64389],[50.9681,25.64235],[50.96711,25.64029],[50.94993,25.63887],[50.94468,25.63102],[50.93858,25.63102],[50.93432,25.62214],[50.92836,25.62406],[50.92523,25.62985],[50.91473,25.63319],[50.90236,25.64927],[50.90321,25.65519],[50.89624,25.67076],[50.89993,25.68041],[50.89294,25.7118],[50.90557,25.73086]]],[[[51.58242,25.03227],[51.58246,25.04243],[51.58795,25.03816],[51.58694,25.03276],[51.58242,25.03227]]],[[[51.58444,25.33814],[51.56904,25.34477],[51.57232,25.34964],[51.58336,25.34934],[51.58444,25.33814]]],[[[51.55849,25.36141],[51.55482,25.36399],[51.55368,25.36155],[51.5374,25.36419],[51.53078,25.3727],[51.52822,25.3704],[51.5316,25.36511],[51.51464,25.37418],[51.5311,25.38132],[51.53364,25.37951],[51.52895,25.37606],[51.52965,25.37297],[51.54015,25.37756],[51.54921,25.3765],[51.54763,25.37187],[51.55172,25.36697],[51.56154,25.36856],[51.56163,25.36538],[51.58172,25.36119],[51.57545,25.35336],[51.57264,25.35775],[51.57972,25.35734],[51.58115,25.36029],[51.55849,25.36141]]],[[[51.56603,25.39908],[51.56676,25.40371],[51.56099,25.41094],[51.56355,25.4135],[51.57483,25.40239],[51.56603,25.39908]]],[[[51.55713,25.74166],[51.55434,25.75158],[51.55803,25.75247],[51.55836,25.76096],[51.56576,25.76453],[51.56131,25.75503],[51.56254,25.74344],[51.55713,25.74166]]],[[[51.55573,25.68556],[51.54668,25.69409],[51.55151,25.69356],[51.55573,25.68556]]],[[[51.54445,25.76551],[51.54104,25.76553],[51.54077,25.76861],[51.54445,25.76551]]],[[[51.5149,25.36864],[51.5152,25.37147],[51.52058,25.3712],[51.5149,25.36864]]],[[[51.51064,25.36647],[51.50668,25.367],[51.51123,25.37213],[51.51064,25.36647]]],[[[51.50279,24.83334],[51.50395,24.84003],[51.5055,24.83951],[51.50279,24.83334]]],[[[51.37146,24.58097],[51.37232,24.58817],[51.37457,24.58636],[51.37146,24.58097]]],[[[51.34905,24.62027],[51.34539,24.62298],[51.34769,24.63726],[51.35049,24.63456],[51.34905,24.62027]]],[[[51.30126,26.13655],[51.28617,26.14494],[51.26825,26.16569],[51.26199,26.16892],[51.26911,26.16608],[51.2819,26.15035],[51.30126,26.13655]]],[[[51.21921,26.16783],[51.21507,26.16977],[51.21423,26.17878],[51.22008,26.17787],[51.21607,26.17131],[51.21921,26.16783]]],[[[50.88813,25.53229],[50.87636,25.53704],[50.87309,25.54296],[50.87905,25.53794],[50.8887,25.53679],[50.88813,25.53229]]],[[[50.87359,25.60653],[50.87172,25.62505],[50.87328,25.63239],[50.8764,25.63239],[50.87995,25.63098],[50.87968,25.62172],[50.87359,25.60653]]],[[[50.85484,25.62182],[50.85356,25.62555],[50.84831,25.62336],[50.83893,25.63313],[50.8463,25.63841],[50.8426,25.64278],[50.84544,25.64459],[50.84344,25.65128],[50.84714,25.6518],[50.84942,25.64035],[50.8639,25.64023],[50.86717,25.63534],[50.8686,25.6302],[50.85484,25.62182]]],[[[50.86649,25.61205],[50.86109,25.61552],[50.86421,25.61861],[50.86847,25.61785],[50.86649,25.61205]]],[[[50.86563,25.62106],[50.86023,25.62221],[50.8642,25.62505],[50.86563,25.62106]]],[[[50.85088,25.61114],[50.84406,25.61409],[50.83667,25.62373],[50.84291,25.62438],[50.84859,25.62091],[50.84747,25.61435],[50.85088,25.61114]]]]}}]}