{"type":"FeatureCollection","features":[{"type":"Feature","properties":{"ISO_A3":"ROU","WB_A3":"ROM","WB_NAME":"Romania","WB_REGION":"ECS"},"geometry":{"type":"MultiPolygon","coordinates":[[[[26.63013,48.25959],[26.63838,48.26104],[26.64572,48.25263],[26.65239,48.25385],[26.65874,48.26377],[26.66256,48.26402],[26.66673,48.25813],[26.66223,48.25099],[26.66744,48.24649],[26.68558,48.2503],[26.69178,48.25399],[26.69499,48.26241],[26.69956,48.26546],[26.70308,48.26499],[26.70822,48.25316],[26.72491,48.24566],[26.72902,48.2463],[26.73167,48.25092],[26.72783,48.25802],[26.7426,48.25438],[26.73697,48.24996],[26.73677,48.245],[26.73977,48.24479],[26.76928,48.24804],[26.78124,48.24327],[26.78605,48.24546],[26.78494,48.24891],[26.8105,48.25389],[26.81101,48.24754],[26.81687,48.24319],[26.82694,48.2431],[26.83087,48.22728],[26.84009,48.22754],[26.84931,48.23416],[26.85422,48.23291],[26.86053,48.21838],[26.88678,48.20131],[26.90898,48.20148],[26.90322,48.19477],[26.89233,48.19202],[26.90148,48.18168],[26.91766,48.17994],[26.92125,48.18394],[26.91362,48.19612],[26.91514,48.19928],[26.94162,48.19704],[26.95005,48.18772],[26.94914,48.18302],[26.93279,48.17064],[26.93302,48.16648],[26.94338,48.16077],[26.97509,48.16105],[26.98356,48.1582],[26.99188,48.15026],[26.9896,48.14655],[26.97996,48.14375],[26.95698,48.15245],[26.951,48.14886],[26.95177,48.14265],[26.96121,48.13224],[26.98578,48.12863],[27.00181,48.12186],[27.01597,48.13622],[27.0224,48.13893],[27.02881,48.13723],[27.02247,48.12625],[27.02707,48.12352],[27.03567,48.13014],[27.0404,48.12856],[27.03379,48.11507],[27.04103,48.1036],[27.02635,48.08835],[27.04292,48.08071],[27.04475,48.06944],[27.08349,48.04877],[27.08423,48.03433],[27.1085,48.03223],[27.1085,48.02818],[27.09291,48.02245],[27.09017,48.00782],[27.09951,48.00538],[27.11644,48.01525],[27.12673,48.01564],[27.13031,48.01167],[27.11757,48.00127],[27.12322,47.99325],[27.13686,47.99071],[27.16413,47.99582],[27.16729,47.99292],[27.16404,47.9887],[27.154,47.9855],[27.15617,47.97687],[27.15373,47.97094],[27.14299,47.96703],[27.15685,47.95596],[27.17841,47.95296],[27.17934,47.94843],[27.17253,47.93655],[27.15704,47.92321],[27.14245,47.91981],[27.14284,47.91496],[27.15152,47.91306],[27.1597,47.91769],[27.16829,47.91807],[27.19627,47.91038],[27.21101,47.89397],[27.20983,47.88866],[27.19784,47.87792],[27.19826,47.87263],[27.20288,47.86866],[27.20434,47.8603],[27.21837,47.85636],[27.21197,47.84945],[27.19456,47.84955],[27.20134,47.8413],[27.21041,47.83816],[27.21629,47.83804],[27.22626,47.84502],[27.23065,47.84379],[27.22955,47.84109],[27.23334,47.838],[27.24801,47.83453],[27.24702,47.83],[27.23619,47.82531],[27.23108,47.82491],[27.22346,47.83162],[27.21675,47.8267],[27.21476,47.82085],[27.21614,47.8171],[27.22413,47.81402],[27.23867,47.81713],[27.2424,47.8147],[27.23073,47.80556],[27.23172,47.7982],[27.25027,47.7935],[27.24877,47.78755],[27.25395,47.78408],[27.25225,47.77963],[27.25462,47.77786],[27.26662,47.77928],[27.26813,47.76812],[27.26478,47.76048],[27.26971,47.75952],[27.27855,47.7643],[27.28646,47.75511],[27.27895,47.7505],[27.2879,47.74842],[27.29412,47.75319],[27.29759,47.75205],[27.29789,47.74793],[27.28727,47.7454],[27.28074,47.73567],[27.28616,47.73013],[27.29252,47.7296],[27.29539,47.7267],[27.29379,47.72366],[27.28348,47.72416],[27.27914,47.72833],[27.26666,47.72744],[27.26799,47.73084],[27.26463,47.73318],[27.25139,47.71999],[27.26804,47.71152],[27.26776,47.70384],[27.27135,47.69937],[27.27936,47.70107],[27.28238,47.69851],[27.27358,47.68894],[27.28202,47.68209],[27.29578,47.68083],[27.29651,47.67236],[27.29281,47.66667],[27.29522,47.6619],[27.30871,47.66097],[27.3153,47.64911],[27.31497,47.64309],[27.33231,47.6283],[27.36327,47.61708],[27.36327,47.61216],[27.3741,47.60131],[27.37172,47.59928],[27.37383,47.59655],[27.40569,47.58278],[27.42463,47.58413],[27.42901,47.58091],[27.41674,47.57024],[27.42213,47.56249],[27.43307,47.56176],[27.42424,47.55382],[27.44029,47.54841],[27.42978,47.54656],[27.43051,47.54434],[27.44579,47.53468],[27.45714,47.53612],[27.44423,47.52992],[27.45108,47.52227],[27.45451,47.52118],[27.46401,47.52737],[27.46666,47.52462],[27.45538,47.51738],[27.45717,47.51351],[27.45434,47.50741],[27.46645,47.50054],[27.47348,47.48673],[27.47729,47.485],[27.49085,47.48869],[27.49594,47.487],[27.49123,47.48331],[27.49477,47.47946],[27.5073,47.47833],[27.5077,47.48575],[27.51701,47.49057],[27.5122,47.47618],[27.51715,47.47408],[27.5205,47.48141],[27.5353,47.4778],[27.53764,47.48017],[27.53219,47.4832],[27.53215,47.48649],[27.53781,47.48903],[27.54105,47.48678],[27.54187,47.47907],[27.55599,47.47043],[27.56045,47.46291],[27.56952,47.46539],[27.57306,47.46305],[27.57395,47.45651],[27.57073,47.45071],[27.55949,47.44779],[27.55742,47.44464],[27.56036,47.4371],[27.55255,47.43263],[27.55644,47.4256],[27.56537,47.42226],[27.57098,47.4244],[27.57009,47.42102],[27.57482,47.41902],[27.57483,47.40931],[27.58441,47.40821],[27.58146,47.39833],[27.57455,47.39834],[27.56947,47.39471],[27.56886,47.3731],[27.57532,47.37298],[27.58018,47.3785],[27.5839,47.37663],[27.58292,47.37421],[27.57466,47.37136],[27.57362,47.36816],[27.58883,47.36473],[27.59362,47.36685],[27.59362,47.37212],[27.59712,47.37142],[27.60118,47.36601],[27.59471,47.34901],[27.59635,47.34615],[27.60632,47.34918],[27.60486,47.33943],[27.61302,47.33705],[27.60093,47.32902],[27.59448,47.33233],[27.58364,47.33133],[27.58063,47.32948],[27.58301,47.32685],[27.59622,47.32641],[27.59259,47.32059],[27.6001,47.31711],[27.59968,47.32386],[27.60419,47.32859],[27.60857,47.32833],[27.61085,47.32364],[27.60611,47.31958],[27.60814,47.317],[27.61784,47.32017],[27.62234,47.32585],[27.62707,47.31818],[27.62721,47.31082],[27.63039,47.30921],[27.63613,47.31286],[27.63805,47.30948],[27.63401,47.30229],[27.64654,47.29954],[27.64901,47.3006],[27.64618,47.30687],[27.65348,47.30792],[27.65801,47.30492],[27.66585,47.30664],[27.67334,47.29928],[27.67632,47.30163],[27.67661,47.31014],[27.68011,47.3087],[27.67991,47.29821],[27.68473,47.29648],[27.68412,47.28533],[27.68771,47.28484],[27.68876,47.29011],[27.69276,47.29199],[27.70552,47.2893],[27.7043,47.29995],[27.71454,47.29764],[27.71843,47.29369],[27.72641,47.29551],[27.73719,47.28641],[27.73741,47.27655],[27.74838,47.27616],[27.74456,47.26457],[27.75669,47.25956],[27.75803,47.25601],[27.7417,47.25622],[27.74639,47.25119],[27.75093,47.25512],[27.75508,47.25328],[27.75664,47.24782],[27.75217,47.24608],[27.74884,47.24942],[27.7455,47.24198],[27.7512,47.23796],[27.75904,47.2379],[27.7542,47.23102],[27.77237,47.2317],[27.77513,47.22844],[27.76947,47.22253],[27.77147,47.22089],[27.78656,47.21802],[27.77695,47.2047],[27.78615,47.20785],[27.79058,47.20587],[27.78675,47.19961],[27.78808,47.18922],[27.80104,47.19061],[27.80365,47.18767],[27.79684,47.16979],[27.81049,47.16617],[27.80163,47.15242],[27.78977,47.15395],[27.78422,47.14989],[27.7879,47.14685],[27.79666,47.14864],[27.80027,47.14421],[27.79774,47.14144],[27.78451,47.14482],[27.78087,47.14299],[27.80043,47.13799],[27.82952,47.13613],[27.83091,47.13343],[27.8421,47.13577],[27.85037,47.13015],[27.84834,47.12316],[27.84484,47.12264],[27.83879,47.13015],[27.82565,47.12197],[27.83406,47.11547],[27.85496,47.1131],[27.85712,47.11125],[27.85434,47.10765],[27.86012,47.10347],[27.86445,47.10488],[27.86449,47.10823],[27.87491,47.10779],[27.87314,47.10475],[27.88308,47.09911],[27.88089,47.09069],[27.88848,47.09076],[27.89425,47.08581],[27.89786,47.07323],[27.90374,47.07642],[27.9175,47.06691],[27.92351,47.06774],[27.93315,47.06191],[27.94105,47.06617],[27.94404,47.06119],[27.96019,47.0561],[27.94419,47.05162],[27.94878,47.04779],[27.96245,47.04963],[27.95825,47.04264],[27.97347,47.04435],[27.97946,47.03618],[27.98666,47.03441],[27.99166,47.03799],[27.99606,47.03386],[27.99561,47.02889],[28.01598,47.02347],[28.02387,47.02406],[28.02743,47.03036],[28.03621,47.02976],[28.04376,47.02038],[28.04863,47.02466],[28.05369,47.0161],[28.052,47.01347],[28.04207,47.01936],[28.03225,47.01285],[28.03586,47.01016],[28.0393,47.01221],[28.04546,47.00345],[28.05087,47.00139],[28.05338,47.00612],[28.05607,47.00355],[28.05468,46.99968],[28.08038,46.99091],[28.08242,46.98955],[28.07843,46.98494],[28.09579,46.97925],[28.09425,46.97508],[28.08486,46.97218],[28.08476,46.96465],[28.07835,46.96271],[28.08222,46.95812],[28.09318,46.95666],[28.08961,46.94887],[28.09666,46.95038],[28.09857,46.94786],[28.0963,46.94086],[28.08218,46.93886],[28.08157,46.93658],[28.10161,46.93299],[28.10642,46.92888],[28.09605,46.9287],[28.11284,46.92222],[28.10195,46.90932],[28.09363,46.9086],[28.09588,46.90504],[28.0861,46.90728],[28.08338,46.90374],[28.08846,46.9],[28.08648,46.89486],[28.09435,46.89602],[28.09776,46.89221],[28.10411,46.8956],[28.10988,46.88968],[28.10935,46.89522],[28.11353,46.89289],[28.1129,46.88149],[28.11866,46.87865],[28.09913,46.87247],[28.09858,46.86988],[28.11095,46.8699],[28.10759,46.86552],[28.12242,46.85757],[28.12299,46.85558],[28.1172,46.85504],[28.12007,46.85256],[28.12552,46.85325],[28.12272,46.84704],[28.11852,46.84977],[28.1143,46.84291],[28.10752,46.84208],[28.11536,46.83656],[28.11433,46.82196],[28.11829,46.8187],[28.12592,46.82251],[28.12338,46.81472],[28.13061,46.81319],[28.12857,46.80669],[28.13435,46.8023],[28.14465,46.80226],[28.14933,46.79337],[28.15524,46.79154],[28.15908,46.78572],[28.16664,46.78898],[28.16518,46.78508],[28.17594,46.77903],[28.16053,46.77681],[28.16662,46.7742],[28.17159,46.77605],[28.16703,46.77083],[28.17879,46.76903],[28.17748,46.75971],[28.18201,46.75533],[28.17554,46.75615],[28.17311,46.75154],[28.17638,46.74753],[28.18307,46.74696],[28.18409,46.74418],[28.17799,46.74294],[28.1806,46.73693],[28.18562,46.73351],[28.19292,46.73591],[28.19508,46.73321],[28.19537,46.73017],[28.18638,46.72511],[28.19626,46.71963],[28.20177,46.72153],[28.20121,46.71647],[28.20948,46.71175],[28.20915,46.70327],[28.20208,46.7006],[28.21375,46.69662],[28.2125,46.6877],[28.20874,46.68509],[28.2152,46.68333],[28.21461,46.687],[28.22116,46.69037],[28.22365,46.67608],[28.23166,46.67469],[28.23021,46.68121],[28.23643,46.67795],[28.23492,46.67475],[28.23966,46.66716],[28.23632,46.66508],[28.23734,46.6512],[28.24545,46.64634],[28.24016,46.64573],[28.2389,46.64268],[28.24464,46.6369],[28.23898,46.63011],[28.24847,46.6275],[28.2516,46.62065],[28.24926,46.61541],[28.25232,46.61269],[28.24463,46.60803],[28.25034,46.60374],[28.24188,46.60166],[28.23815,46.59588],[28.24123,46.59299],[28.23162,46.58568],[28.24026,46.58261],[28.22275,46.57888],[28.22777,46.56786],[28.22638,46.56285],[28.2333,46.56301],[28.23568,46.55236],[28.2273,46.55392],[28.22085,46.54568],[28.22297,46.54398],[28.21541,46.53795],[28.2223,46.53386],[28.22754,46.5356],[28.22621,46.52928],[28.23044,46.5296],[28.22428,46.52034],[28.21838,46.52331],[28.21398,46.52174],[28.22296,46.512],[28.2167,46.51232],[28.20926,46.50501],[28.21463,46.50347],[28.21158,46.50071],[28.21512,46.49846],[28.22068,46.50306],[28.22449,46.49491],[28.23096,46.49445],[28.22868,46.48747],[28.23185,46.48368],[28.22596,46.4788],[28.23459,46.47606],[28.24033,46.47975],[28.24523,46.47733],[28.24466,46.4699],[28.25055,46.46634],[28.24618,46.46329],[28.25843,46.46164],[28.23994,46.45201],[28.24228,46.44737],[28.25635,46.44756],[28.26084,46.43687],[28.25642,46.43454],[28.25841,46.4277],[28.25032,46.42089],[28.25009,46.41654],[28.23344,46.41691],[28.22996,46.4144],[28.23016,46.40909],[28.23799,46.4076],[28.23744,46.40509],[28.22591,46.40306],[28.22466,46.39966],[28.23886,46.40067],[28.24322,46.39527],[28.23597,46.39055],[28.21903,46.3959],[28.21701,46.3912],[28.22345,46.38814],[28.21199,46.38017],[28.20882,46.3729],[28.20219,46.37466],[28.19781,46.37107],[28.20743,46.3685],[28.20122,46.36556],[28.20015,46.36049],[28.20712,46.36067],[28.20606,46.35766],[28.19098,46.35569],[28.19651,46.35021],[28.18557,46.35128],[28.19129,46.3432],[28.19944,46.34438],[28.19506,46.33747],[28.19727,46.33417],[28.18767,46.33716],[28.18438,46.33364],[28.19154,46.33066],[28.1872,46.32599],[28.19514,46.32393],[28.19906,46.32765],[28.20181,46.32022],[28.20861,46.32074],[28.20343,46.31145],[28.19418,46.30275],[28.1785,46.30038],[28.17951,46.29589],[28.1869,46.29265],[28.18045,46.29124],[28.17858,46.2858],[28.17322,46.29012],[28.17709,46.2941],[28.17257,46.29797],[28.16935,46.29557],[28.16989,46.28322],[28.16312,46.28177],[28.16515,46.28593],[28.15662,46.28624],[28.15213,46.29275],[28.14909,46.2901],[28.15204,46.27849],[28.14378,46.27973],[28.14736,46.28496],[28.1392,46.28469],[28.13545,46.26395],[28.12641,46.26151],[28.13115,46.25591],[28.14052,46.2576],[28.14657,46.25195],[28.13894,46.24819],[28.13266,46.25062],[28.11704,46.23952],[28.11462,46.24499],[28.11014,46.2434],[28.1119,46.23246],[28.10683,46.22299],[28.11183,46.22031],[28.10773,46.21459],[28.11485,46.21097],[28.10986,46.20444],[28.11688,46.20347],[28.11635,46.21001],[28.12029,46.2123],[28.1247,46.20983],[28.12555,46.20381],[28.1178,46.19579],[28.11863,46.19165],[28.13431,46.19566],[28.1416,46.19141],[28.1415,46.18517],[28.13088,46.18412],[28.14338,46.17977],[28.14319,46.17675],[28.13067,46.17914],[28.12827,46.17637],[28.13914,46.17003],[28.14251,46.16386],[28.13654,46.16237],[28.13131,46.15395],[28.12541,46.15416],[28.12395,46.14697],[28.12916,46.14263],[28.12522,46.13687],[28.12855,46.13127],[28.13444,46.13002],[28.12936,46.12549],[28.1244,46.12608],[28.12375,46.11124],[28.11629,46.11075],[28.11599,46.10763],[28.12261,46.10552],[28.12053,46.10291],[28.10903,46.10292],[28.10535,46.09093],[28.11126,46.0874],[28.10725,46.08355],[28.10914,46.07914],[28.10086,46.08096],[28.09222,46.07862],[28.09347,46.07415],[28.0894,46.06832],[28.10014,46.06483],[28.09788,46.06021],[28.08889,46.05799],[28.09393,46.05317],[28.10513,46.05299],[28.10037,46.04789],[28.10374,46.0432],[28.09666,46.0431],[28.09107,46.03643],[28.08761,46.02031],[28.09548,46.01447],[28.08586,46.00905],[28.09916,45.99081],[28.10466,45.9897],[28.09818,45.9792],[28.10644,45.97892],[28.10209,45.97166],[28.10818,45.96871],[28.10602,45.96153],[28.11529,45.95273],[28.1183,45.94474],[28.11453,45.9354],[28.11999,45.93225],[28.12538,45.9214],[28.11628,45.9097],[28.11994,45.9032],[28.11811,45.89979],[28.11328,45.89975],[28.11271,45.89542],[28.1181,45.88714],[28.11308,45.88575],[28.11553,45.88263],[28.12422,45.88256],[28.12699,45.8853],[28.13039,45.88243],[28.12811,45.87757],[28.13264,45.87613],[28.12726,45.86889],[28.12763,45.86368],[28.10575,45.85871],[28.11398,45.8494],[28.11174,45.84446],[28.10588,45.84383],[28.1128,45.83439],[28.10883,45.83061],[28.11303,45.82071],[28.10809,45.81721],[28.11848,45.8149],[28.12245,45.79856],[28.11894,45.79456],[28.11235,45.7952],[28.1139,45.79063],[28.12043,45.79111],[28.1355,45.77831],[28.15383,45.78284],[28.15437,45.77416],[28.14993,45.77334],[28.14983,45.76515],[28.1434,45.76096],[28.15201,45.7534],[28.14996,45.7514],[28.15183,45.74388],[28.16663,45.73665],[28.16207,45.72413],[28.16728,45.72331],[28.16445,45.71656],[28.17052,45.71039],[28.15997,45.70364],[28.16431,45.69768],[28.16258,45.69311],[28.16745,45.68117],[28.17129,45.67975],[28.16238,45.66086],[28.16597,45.65334],[28.15813,45.65166],[28.17405,45.64615],[28.17246,45.64119],[28.15754,45.63693],[28.14459,45.62132],[28.13754,45.62575],[28.13041,45.62391],[28.13194,45.61931],[28.12982,45.61891],[28.1199,45.62733],[28.11197,45.62623],[28.11021,45.62165],[28.10052,45.61854],[28.08909,45.60955],[28.08878,45.60441],[28.09386,45.59735],[28.10146,45.59474],[28.10639,45.58788],[28.11312,45.58629],[28.12141,45.57893],[28.11746,45.57605],[28.12169,45.57193],[28.13587,45.57302],[28.13604,45.57776],[28.14062,45.57664],[28.14438,45.5667],[28.15523,45.57531],[28.15717,45.57365],[28.15424,45.56476],[28.14892,45.56144],[28.15873,45.55954],[28.15564,45.55392],[28.1649,45.54595],[28.16565,45.53671],[28.16232,45.53308],[28.16656,45.52825],[28.16558,45.52456],[28.1574,45.52526],[28.16575,45.52072],[28.15816,45.50866],[28.16444,45.50753],[28.16234,45.50017],[28.17144,45.50134],[28.17651,45.49519],[28.17918,45.48425],[28.1857,45.47494],[28.20413,45.46971],[28.19233,45.46329],[28.18563,45.44797],[28.18917,45.41689],[28.16996,45.42183],[28.13425,45.43912],[28.10484,45.44493],[28.08621,45.44267],[28.03068,45.41484],[28.02411,45.40412],[28.01529,45.40148],[28.02425,45.40181],[28.02233,45.36591],[27.99628,45.31253],[27.9911,45.28666],[27.99538,45.28634],[27.99807,45.29045],[28.004,45.30707],[28.01738,45.32312],[28.0289,45.34687],[28.03106,45.36558],[28.02889,45.38663],[28.03328,45.39788],[28.05407,45.41898],[28.07875,45.43376],[28.11308,45.43779],[28.1298,45.43558],[28.16583,45.41585],[28.18611,45.40986],[28.19677,45.4145],[28.19922,45.41858],[28.19433,45.42863],[28.19714,45.44092],[28.20631,45.45211],[28.22436,45.46102],[28.24907,45.45729],[28.2718,45.44678],[28.27872,45.43875],[28.28351,45.4251],[28.27852,45.39771],[28.30134,45.37641],[28.31739,45.34647],[28.33257,45.3268],[28.34708,45.31752],[28.43898,45.28485],[28.45675,45.28347],[28.49532,45.27168],[28.55749,45.24673],[28.64043,45.23877],[28.70744,45.22111],[28.73972,45.22614],[28.74689,45.21731],[28.75263,45.21504],[28.76751,45.21481],[28.78945,45.2087],[28.78857,45.18614],[28.79331,45.18132],[28.80306,45.18001],[28.81032,45.19144],[28.82982,45.19998],[28.85993,45.19962],[28.89309,45.18189],[28.9106,45.15222],[28.92185,45.15254],[28.95671,45.14361],[28.99381,45.12642],[29.05396,45.11599],[29.08386,45.09134],[29.12836,45.07063],[29.13557,45.06973],[29.15401,45.07862],[29.16156,45.09169],[29.1306,45.09176],[29.12809,45.09745],[29.13402,45.1058],[29.15224,45.10867],[29.18218,45.10541],[29.19642,45.09872],[29.21394,45.0835],[29.2192,45.06955],[29.19422,45.06028],[29.18416,45.05278],[29.1843,45.04687],[29.21694,45.03919],[29.25807,45.03633],[29.27241,45.01924],[29.29547,45.02147],[29.30262,45.0194],[29.28856,45.01148],[29.28507,45.00103],[29.30995,44.99027],[29.31441,44.98427],[29.31149,44.96997],[29.32483,44.96931],[29.34201,44.98294],[29.3471,44.98348],[29.34996,44.97842],[29.34471,44.96493],[29.34681,44.95873],[29.35468,44.9569],[29.36504,44.96271],[29.37633,44.98223],[29.38221,44.98455],[29.38435,44.9795],[29.37842,44.96295],[29.36565,44.95115],[29.37624,44.94516],[29.38594,44.94393],[29.40166,44.94822],[29.4209,44.9677],[29.43049,44.97224],[29.45644,44.97053],[29.46273,44.96552],[29.45241,44.96087],[29.45166,44.95601],[29.4601,44.95467],[29.482,44.95984],[29.49283,44.95127],[29.52094,44.94142],[29.53344,44.93396],[29.57246,44.89793],[29.5802,44.8934],[29.59028,44.89278],[29.61678,44.8764],[29.61432,44.85773],[29.6003,44.83496],[29.57108,44.8346],[29.56284,44.8276],[29.55111,44.82324],[29.53604,44.82473],[29.35335,44.80915],[29.24074,44.79576],[29.13277,44.76987],[29.07969,44.74609],[29.02285,44.7058],[28.97125,44.65898],[28.93355,44.61704],[28.86505,44.5194],[28.83166,44.48402],[28.753,44.41828],[28.7201,44.38312],[28.71136,44.37761],[28.69869,44.36035],[28.68816,44.33587],[28.68174,44.34264],[28.67545,44.33529],[28.67494,44.34248],[28.66559,44.34069],[28.65845,44.32848],[28.6316,44.32682],[28.63797,44.32441],[28.62481,44.29445],[28.6222,44.25164],[28.62941,44.22845],[28.63595,44.21963],[28.65143,44.21197],[28.65295,44.20245],[28.65789,44.20033],[28.65491,44.19601],[28.65458,44.18421],[28.65983,44.17413],[28.66546,44.17148],[28.66042,44.16988],[28.65787,44.16158],[28.66331,44.15868],[28.65579,44.15725],[28.65617,44.17084],[28.65042,44.16939],[28.65324,44.15523],[28.64288,44.15436],[28.65249,44.15383],[28.65197,44.14807],[28.66614,44.14517],[28.64693,44.13993],[28.65093,44.12986],[28.64392,44.12766],[28.64237,44.1169],[28.639,44.11721],[28.64274,44.11074],[28.64197,44.10254],[28.62253,44.10102],[28.65079,44.09304],[28.65124,44.0965],[28.64662,44.09683],[28.65149,44.09906],[28.65192,44.10804],[28.65477,44.108],[28.65454,44.09979],[28.65739,44.09975],[28.65868,44.10769],[28.66474,44.10785],[28.66846,44.08817],[28.64305,44.08353],[28.63803,44.07591],[28.64571,44.04449],[28.65209,44.03747],[28.66424,44.00779],[28.66224,43.99986],[28.66725,43.98824],[28.65539,43.97687],[28.6533,43.96587],[28.64001,43.954],[28.63821,43.94017],[28.63288,43.93357],[28.63598,43.92378],[28.62983,43.91283],[28.61385,43.89946],[28.60591,43.87468],[28.60904,43.85282],[28.59078,43.83948],[28.59277,43.82765],[28.58803,43.82258],[28.58697,43.80925],[28.57613,43.80119],[28.56597,43.80595],[28.56056,43.80205],[28.57325,43.79956],[28.57725,43.79681],[28.57506,43.79428],[28.57697,43.79297],[28.58546,43.79234],[28.59307,43.79878],[28.58785,43.78923],[28.58019,43.78728],[28.57859,43.76703],[28.57409,43.75734],[28.57859,43.73871],[28.44558,43.73378],[28.34851,43.75217],[28.23614,43.7585],[28.11592,43.79722],[27.99427,43.84295],[27.97635,43.90087],[27.9542,43.94011],[27.94431,43.98477],[27.91684,44.00826],[27.84354,43.96632],[27.75435,43.95829],[27.73448,43.95351],[27.71,43.95931],[27.67366,44.02977],[27.64354,44.04796],[27.61205,44.01219],[27.46897,44.02254],[27.39939,44.01227],[27.37099,44.03881],[27.35622,44.05878],[27.29115,44.07511],[27.29066,44.08301],[27.27821,44.09634],[27.27625,44.10354],[27.28351,44.10881],[27.27673,44.11517],[27.27597,44.12861],[27.24417,44.11771],[27.21187,44.11662],[27.18412,44.11935],[27.16842,44.13133],[27.13707,44.1387],[27.11759,44.13908],[27.08652,44.13353],[27.05816,44.13706],[27.04482,44.14448],[27.02119,44.14198],[26.98951,44.13328],[26.97601,44.13597],[26.90033,44.13198],[26.88235,44.12312],[26.85635,44.11728],[26.78476,44.08496],[26.7617,44.078],[26.73659,44.07426],[26.70444,44.07685],[26.68253,44.07244],[26.66092,44.06247],[26.60102,44.05308],[26.5274,44.0536],[26.44131,44.03495],[26.38013,44.04199],[26.30007,44.02449],[26.27594,44.01135],[26.27635,44.00889],[26.20144,43.98577],[26.16451,43.98808],[26.1487,43.98575],[26.11014,43.97013],[26.09893,43.96179],[26.08059,43.94432],[26.08061,43.93804],[26.06547,43.9163],[26.05159,43.9041],[26.0003,43.88656],[25.97442,43.86875],[25.94925,43.85673],[25.92637,43.83788],[25.91392,43.81719],[25.89085,43.79829],[25.88234,43.78537],[25.88318,43.78213],[25.86474,43.76755],[25.86566,43.7649],[25.85108,43.75455],[25.80728,43.73789],[25.79591,43.71682],[25.78451,43.70888],[25.7577,43.69656],[25.75474,43.69993],[25.72707,43.69104],[25.68518,43.69155],[25.66073,43.68573],[25.61092,43.66755],[25.56002,43.64132],[25.54536,43.64084],[25.50912,43.64675],[25.46771,43.6387],[25.44656,43.62814],[25.39787,43.61928],[25.38175,43.61988],[25.34651,43.62892],[25.31652,43.64654],[25.29015,43.65537],[25.24973,43.68359],[25.20955,43.69055],[25.18723,43.69843],[25.14322,43.69363],[25.11039,43.68384],[25.05889,43.69144],[25.04266,43.6981],[25.00298,43.7246],[24.97853,43.72983],[24.95999,43.73099],[24.935,43.72751],[24.91504,43.71953],[24.91531,43.71505],[24.88172,43.70736],[24.85773,43.70588],[24.81884,43.71348],[24.79742,43.70819],[24.75295,43.68718],[24.73523,43.68516],[24.70302,43.69464],[24.62415,43.74248],[24.58878,43.75142],[24.53373,43.75866],[24.50972,43.76478],[24.4555,43.74458],[24.40433,43.73486],[24.38291,43.71945],[24.38148,43.71353],[24.34521,43.69674],[24.30919,43.70021],[24.19534,43.68225],[24.1656,43.68429],[24.13233,43.69516],[24.08664,43.70217],[24.06125,43.71866],[23.98579,43.74024],[23.96768,43.74412],[23.89452,43.74852],[23.856,43.7567],[23.81204,43.77402],[23.76813,43.78439],[23.74728,43.80238],[23.72519,43.80515],[23.69779,43.80376],[23.67497,43.80149],[23.62907,43.7904],[23.60894,43.79198],[23.5944,43.80192],[23.55222,43.81302],[23.50899,43.83809],[23.49542,43.83937],[23.48572,43.83659],[23.46419,43.83964],[23.42329,43.85363],[23.3729,43.84741],[23.32982,43.8505],[23.26973,43.84742],[23.24755,43.83936],[23.2109,43.83308],[23.13295,43.80376],[23.10718,43.80322],[23.05907,43.7955],[22.99646,43.80762],[22.97267,43.80756],[22.93797,43.82083],[22.87981,43.83293],[22.86538,43.83966],[22.85336,43.85081],[22.84128,43.86815],[22.83777,43.8838],[22.85994,43.92302],[22.86235,43.93752],[22.88097,43.98175],[22.89077,43.98956],[22.93834,44.00338],[23.00709,44.0124],[23.03525,44.03963],[23.0454,44.06129],[23.04018,44.0766],[23.02184,44.08851],[22.99402,44.09654],[22.92265,44.10267],[22.89629,44.11377],[22.8644,44.13752],[22.80937,44.1556],[22.75119,44.19582],[22.73735,44.20095],[22.69956,44.20347],[22.68597,44.20743],[22.67199,44.22125],[22.67278,44.2304],[22.68619,44.25375],[22.68449,44.27061],[22.67766,44.28104],[22.65432,44.29138],[22.61098,44.29476],[22.55941,44.30833],[22.5459,44.32629],[22.53012,44.33545],[22.52307,44.34424],[22.50186,44.38685],[22.5,44.4165],[22.47162,44.44083],[22.45694,44.46404],[22.45743,44.47438],[22.46746,44.48052],[22.52135,44.4746],[22.55157,44.486],[22.56115,44.50534],[22.56192,44.5262],[22.56593,44.53532],[22.57392,44.54383],[22.58591,44.54959],[22.61341,44.55193],[22.62833,44.54947],[22.69392,44.51649],[22.70727,44.51707],[22.75512,44.53491],[22.76178,44.53925],[22.76407,44.54618],[22.7613,44.55653],[22.7449,44.57441],[22.71426,44.60015],[22.68487,44.60798],[22.67029,44.61863],[22.63749,44.6145],[22.61175,44.61809],[22.57462,44.63668],[22.47892,44.70873],[22.46139,44.71422],[22.44614,44.71256],[22.41847,44.70391],[22.40762,44.69182],[22.38826,44.67867],[22.3671,44.67262],[22.33642,44.67643],[22.30892,44.65768],[22.30234,44.65114],[22.29894,44.63887],[22.27505,44.6259],[22.26816,44.60033],[22.23571,44.56488],[22.21043,44.5226],[22.1988,44.5108],[22.17849,44.47832],[22.15555,44.4741],[22.13211,44.47586],[22.08428,44.50091],[22.07035,44.52601],[22.03633,44.54681],[22.02786,44.56479],[22.02768,44.59218],[22.0051,44.60874],[22.00144,44.62535],[21.99804,44.63102],[21.99033,44.63502],[21.9537,44.63523],[21.92173,44.64689],[21.89497,44.64497],[21.85164,44.65535],[21.81962,44.65157],[21.78486,44.66092],[21.76488,44.6605],[21.72504,44.65326],[21.69222,44.66405],[21.63658,44.65949],[21.62298,44.66714],[21.61752,44.67607],[21.61242,44.69283],[21.61646,44.71576],[21.60733,44.73708],[21.59104,44.75838],[21.55791,44.76957],[21.53531,44.77282],[21.46977,44.77628],[21.42293,44.77415],[21.39906,44.778],[21.39014,44.78771],[21.38473,44.80998],[21.35846,44.82189],[21.35721,44.82609],[21.36395,44.8295],[21.35307,44.84002],[21.36196,44.84019],[21.35738,44.84599],[21.36599,44.86383],[21.38502,44.86586],[21.38813,44.86975],[21.40425,44.86635],[21.42753,44.87268],[21.43379,44.86774],[21.44913,44.87207],[21.45075,44.87496],[21.46312,44.86695],[21.47441,44.87154],[21.48198,44.86875],[21.49382,44.87082],[21.51079,44.88003],[21.55973,44.88914],[21.55773,44.90692],[21.55038,44.91642],[21.55257,44.92372],[21.54662,44.93034],[21.52711,44.93914],[21.51972,44.93791],[21.46922,44.95841],[21.44577,44.96219],[21.43825,44.96051],[21.40699,44.97854],[21.41481,44.9868],[21.38864,44.99806],[21.38288,45.00202],[21.38705,45.00453],[21.37704,45.00693],[21.36039,45.0205],[21.37424,45.02804],[21.38988,45.02902],[21.39235,45.02683],[21.41253,45.03606],[21.42006,45.03646],[21.42264,45.03222],[21.45638,45.04054],[21.44797,45.05737],[21.45669,45.06398],[21.45959,45.07206],[21.48319,45.09151],[21.47088,45.10301],[21.47871,45.12104],[21.48599,45.12486],[21.49983,45.12583],[21.52731,45.13784],[21.52852,45.14732],[21.51412,45.17132],[21.50834,45.16962],[21.49232,45.17345],[21.48287,45.19205],[21.43745,45.20397],[21.43037,45.21316],[21.41162,45.22166],[21.40298,45.2291],[21.39536,45.2188],[21.36951,45.22609],[21.35993,45.22211],[21.33825,45.2334],[21.33892,45.23553],[21.29278,45.24292],[21.27559,45.22943],[21.25217,45.24274],[21.22351,45.25296],[21.21886,45.25071],[21.2029,45.26555],[21.20868,45.27537],[21.19134,45.28681],[21.17995,45.31256],[21.18382,45.31599],[21.18055,45.31892],[21.18373,45.32076],[21.17616,45.3252],[21.16651,45.31962],[21.16206,45.32519],[21.14998,45.31592],[21.15437,45.31236],[21.14457,45.30478],[21.1282,45.30458],[21.09639,45.2959],[21.0811,45.31784],[21.06127,45.31589],[21.06368,45.33196],[21.01654,45.32464],[21.00992,45.3414],[20.99498,45.34393],[20.98189,45.35745],[20.96012,45.3669],[20.95088,45.37485],[20.94834,45.38564],[20.9312,45.38684],[20.93004,45.39238],[20.93559,45.3928],[20.93129,45.40204],[20.92423,45.40704],[20.92044,45.41735],[20.90042,45.4169],[20.86453,45.4319],[20.86603,45.43583],[20.87489,45.43829],[20.87159,45.44524],[20.88041,45.44622],[20.87848,45.45459],[20.87218,45.4558],[20.86622,45.4652],[20.83319,45.47995],[20.77101,45.47993],[20.77109,45.488],[20.77707,45.49051],[20.76885,45.50024],[20.80717,45.51578],[20.83283,45.53577],[20.81973,45.55043],[20.82326,45.55201],[20.81148,45.56574],[20.8138,45.56806],[20.79532,45.58757],[20.77199,45.58284],[20.7659,45.61258],[20.77929,45.62232],[20.78855,45.6453],[20.80489,45.65723],[20.80017,45.67184],[20.80311,45.68203],[20.79635,45.68711],[20.80271,45.69982],[20.80266,45.73762],[20.80822,45.74842],[20.81604,45.7493],[20.82312,45.77511],[20.78354,45.7859],[20.77397,45.75456],[20.73434,45.75591],[20.71794,45.74964],[20.70053,45.75064],[20.697,45.76061],[20.69301,45.75998],[20.69082,45.76621],[20.69471,45.76694],[20.68147,45.79739],[20.66293,45.79422],[20.65699,45.8081],[20.65077,45.81182],[20.66057,45.82916],[20.61174,45.86405],[20.59903,45.86188],[20.59448,45.8718],[20.58164,45.8696],[20.57477,45.8839],[20.57881,45.88492],[20.56941,45.91026],[20.54645,45.90594],[20.54979,45.90009],[20.51581,45.89211],[20.5019,45.9105],[20.48297,45.95352],[20.44726,45.97031],[20.40549,45.96524],[20.34808,45.99977],[20.35329,45.99999],[20.35208,46.00284],[20.35767,46.00572],[20.34044,46.03601],[20.33907,46.04121],[20.34612,46.04747],[20.30915,46.07206],[20.31124,46.07361],[20.30241,46.08671],[20.27332,46.09836],[20.26476,46.10949],[20.27549,46.11262],[20.27843,46.11809],[20.26518,46.11783],[20.26231,46.12198],[20.26431,46.12638],[20.27048,46.12734],[20.27168,46.13266],[20.2968,46.15211],[20.30915,46.15634],[20.31259,46.15004],[20.35558,46.16955],[20.36842,46.15279],[20.3811,46.15776],[20.39427,46.15242],[20.39744,46.15729],[20.4263,46.14511],[20.44542,46.14168],[20.4591,46.14276],[20.49516,46.17078],[20.49326,46.1738],[20.49647,46.17808],[20.492,46.18085],[20.498,46.18422],[20.49662,46.18859],[20.50129,46.18984],[20.52191,46.18175],[20.55216,46.17536],[20.59379,46.14964],[20.61043,46.14571],[20.62982,46.12816],[20.6384,46.12632],[20.64773,46.13383],[20.64974,46.14405],[20.65434,46.14912],[20.66591,46.15164],[20.6831,46.14444],[20.69169,46.15027],[20.6943,46.15838],[20.71374,46.16599],[20.72241,46.18749],[20.73321,46.19184],[20.72565,46.19645],[20.72742,46.20728],[20.76212,46.20432],[20.74916,46.25051],[20.77561,46.27582],[20.78927,46.27305],[20.87342,46.28729],[20.89063,46.27131],[20.92222,46.26172],[20.92516,46.27615],[20.94671,46.27903],[20.95256,46.26468],[20.99037,46.25937],[21.02503,46.26637],[21.03666,46.24776],[21.06604,46.24263],[21.07121,46.25375],[21.07989,46.25194],[21.08159,46.25589],[21.08534,46.25458],[21.09402,46.2621],[21.10325,46.26249],[21.11559,46.30155],[21.14552,46.30457],[21.14773,46.29912],[21.16738,46.29743],[21.18061,46.304],[21.17323,46.31832],[21.1776,46.32336],[21.17596,46.32947],[21.17884,46.33036],[21.17627,46.33551],[21.19046,46.33906],[21.19963,46.34781],[21.19667,46.37072],[21.20646,46.40314],[21.2164,46.40183],[21.21914,46.41111],[21.22533,46.41364],[21.27552,46.40661],[21.28324,46.40315],[21.29636,46.40662],[21.28987,46.41509],[21.31191,46.44015],[21.31328,46.44945],[21.31787,46.45062],[21.29643,46.47608],[21.27439,46.47639],[21.27292,46.48331],[21.26052,46.5019],[21.27621,46.53511],[21.27423,46.5407],[21.28027,46.54491],[21.2896,46.54425],[21.32072,46.58276],[21.30107,46.59076],[21.31404,46.61754],[21.33001,46.6316],[21.33485,46.62899],[21.35319,46.63023],[21.36557,46.63778],[21.37832,46.63312],[21.3811,46.62841],[21.41,46.62189],[21.41635,46.64258],[21.44153,46.65147],[21.45463,46.66064],[21.45569,46.66711],[21.44266,46.66645],[21.4312,46.67777],[21.42765,46.68945],[21.43009,46.69385],[21.43435,46.69557],[21.45113,46.6885],[21.46963,46.69541],[21.49187,46.68584],[21.49844,46.69406],[21.50774,46.69815],[21.50746,46.70481],[21.51237,46.70779],[21.51108,46.71168],[21.52932,46.72075],[21.52664,46.73918],[21.49311,46.75746],[21.48473,46.75843],[21.48403,46.76487],[21.49016,46.77579],[21.49342,46.77494],[21.51002,46.78459],[21.51382,46.79553],[21.51864,46.79983],[21.52231,46.81324],[21.51882,46.82364],[21.51919,46.8359],[21.52294,46.83896],[21.53443,46.83948],[21.53789,46.8474],[21.55701,46.8537],[21.59519,46.8605],[21.60327,46.86872],[21.60107,46.8789],[21.60352,46.88497],[21.61419,46.8865],[21.60709,46.90432],[21.6027,46.90398],[21.59901,46.90919],[21.59867,46.92745],[21.60617,46.93252],[21.63832,46.933],[21.64074,46.93874],[21.64906,46.94283],[21.66011,46.95573],[21.67314,46.95355],[21.67882,46.96026],[21.68184,46.96678],[21.66792,46.97005],[21.67932,46.99781],[21.68745,46.99923],[21.68801,47.00292],[21.68267,47.00388],[21.6779,47.01857],[21.66157,47.02021],[21.65006,47.03366],[21.64873,47.04031],[21.68261,47.04558],[21.68856,47.05543],[21.70476,47.06327],[21.70128,47.06822],[21.71635,47.07474],[21.71282,47.0825],[21.7261,47.09839],[21.77234,47.10883],[21.79081,47.10584],[21.7912,47.12265],[21.79852,47.12777],[21.81198,47.16576],[21.81753,47.17268],[21.82923,47.17468],[21.83102,47.17876],[21.83872,47.17708],[21.84753,47.18432],[21.85803,47.1869],[21.85808,47.22003],[21.84684,47.22367],[21.85166,47.23897],[21.87199,47.26336],[21.87999,47.26473],[21.88785,47.27201],[21.88819,47.27779],[21.87886,47.28386],[21.87872,47.2875],[21.88817,47.29466],[21.89613,47.3162],[21.91866,47.3375],[21.92525,47.35346],[21.93468,47.3602],[21.93969,47.36755],[21.93851,47.37292],[21.95258,47.37453],[21.9613,47.38128],[21.97852,47.37811],[21.9952,47.38081],[21.9967,47.37799],[22.01194,47.37565],[22.03551,47.41333],[22.02972,47.42266],[22.03528,47.42735],[22.02597,47.4423],[22.03285,47.45092],[22.02091,47.45445],[22.00744,47.47577],[22.0071,47.48323],[22.01271,47.50135],[22.0242,47.5199],[22.04548,47.53972],[22.06153,47.52894],[22.07139,47.53791],[22.0546,47.54686],[22.05802,47.55088],[22.07923,47.56222],[22.09374,47.55812],[22.10493,47.5726],[22.11526,47.57569],[22.12919,47.5891],[22.12835,47.598],[22.16003,47.59236],[22.17662,47.59432],[22.18295,47.60628],[22.19,47.61172],[22.20339,47.65482],[22.21173,47.65391],[22.22089,47.66046],[22.22529,47.68065],[22.22294,47.68258],[22.22603,47.68794],[22.23115,47.6933],[22.25429,47.69495],[22.25911,47.69814],[22.26239,47.7137],[22.25941,47.71733],[22.26467,47.73112],[22.28549,47.72933],[22.30338,47.73706],[22.30621,47.74132],[22.31759,47.74324],[22.32097,47.75493],[22.31733,47.76592],[22.33044,47.76508],[22.34643,47.7529],[22.35684,47.74896],[22.38907,47.74537],[22.41049,47.74664],[22.41156,47.74237],[22.43033,47.74094],[22.42598,47.75002],[22.42721,47.75449],[22.43269,47.76198],[22.44092,47.79183],[22.44795,47.80308],[22.46699,47.80508],[22.4815,47.81091],[22.53997,47.78195],[22.54964,47.7726],[22.61164,47.77199],[22.61683,47.77751],[22.62702,47.77609],[22.63689,47.78069],[22.64675,47.77904],[22.6615,47.78237],[22.67086,47.7882],[22.68022,47.78771],[22.70155,47.81498],[22.69976,47.81826],[22.70952,47.82393],[22.71102,47.83445],[22.71989,47.83815],[22.75639,47.83489],[22.76613,47.84126],[22.77708,47.84268],[22.77763,47.85209],[22.77314,47.86307],[22.7622,47.86703],[22.7686,47.87861],[22.75839,47.886],[22.75701,47.89034],[22.76036,47.89486],[22.79313,47.89096],[22.82442,47.90711],[22.84715,47.90808],[22.86334,47.92222],[22.8804,47.94386],[22.88518,47.94469],[22.88721,47.95172],[22.9059,47.95701],[22.91854,47.9569],[22.92338,47.96063],[22.92969,47.95915],[22.94797,47.96737],[22.94395,47.96992],[22.93779,47.99543],[22.93512,47.9991],[22.92299,48.00229],[22.92053,48.00632],[22.92188,48.01445],[22.92711,48.01917],[22.94436,48.01671],[22.96116,48.00771],[22.96257,48.01157],[22.97788,48.00991],[22.97718,48.00696],[22.99596,48.00108],[22.99738,47.99595],[23.01528,47.99182],[23.02434,47.99193],[23.03156,48.00035],[23.05694,48.00337],[23.06533,48.00776],[23.09095,48.00569],[23.09666,48.01538],[23.09023,48.01647],[23.08951,48.01931],[23.10153,48.02629],[23.10915,48.03505],[23.10915,48.03849],[23.09837,48.04451],[23.11218,48.05449],[23.1092,48.05908],[23.11231,48.06183],[23.10666,48.06358],[23.10634,48.06647],[23.11385,48.06959],[23.12345,48.08175],[23.11382,48.08621],[23.13055,48.0956],[23.14634,48.09964],[23.15096,48.11264],[23.16539,48.11537],[23.16652,48.12006],[23.18096,48.11763],[23.18205,48.11206],[23.18624,48.11156],[23.18787,48.10447],[23.18523,48.10343],[23.18929,48.09773],[23.24646,48.09189],[23.2521,48.10088],[23.26784,48.10017],[23.27117,48.08417],[23.28025,48.08213],[23.29127,48.07418],[23.27685,48.06031],[23.284,48.05047],[23.29388,48.04432],[23.30273,48.04199],[23.31246,48.04502],[23.32661,48.03568],[23.3319,48.03822],[23.33887,48.03579],[23.33231,48.03337],[23.32848,48.02602],[23.33219,48.02047],[23.33846,48.01806],[23.34873,48.02062],[23.35723,48.0145],[23.3733,48.00977],[23.37674,48.00678],[23.37586,48.00349],[23.39976,48.00102],[23.40342,47.99903],[23.40169,47.99501],[23.40488,47.99184],[23.41734,47.98659],[23.43375,47.99035],[23.43659,47.98295],[23.44607,47.98143],[23.45015,47.9763],[23.48046,47.97321],[23.49386,47.96776],[23.50484,47.97212],[23.50274,47.9741],[23.50515,47.98043],[23.52053,47.99405],[23.52563,48.00471],[23.52845,48.02256],[23.54056,48.01048],[23.56879,48.00299],[23.58543,48.00377],[23.59324,48.00843],[23.60028,48.00618],[23.61022,48.00854],[23.61602,48.00816],[23.61855,48.00327],[23.63595,48.00296],[23.64207,48.0003],[23.64514,47.9924],[23.66414,47.98376],[23.70743,47.99401],[23.71295,47.99093],[23.72074,47.99554],[23.73084,47.99243],[23.75093,47.99812],[23.75782,47.99175],[23.76862,47.99534],[23.79207,47.98599],[23.81886,47.98336],[23.82211,47.97718],[23.83602,47.96608],[23.83461,47.96242],[23.83963,47.96066],[23.84357,47.94427],[23.86388,47.93191],[23.88326,47.94392],[23.93824,47.94742],[23.94792,47.95489],[23.94892,47.96213],[23.96544,47.96225],[23.97102,47.96758],[23.98043,47.96643],[23.97863,47.96212],[23.98343,47.96106],[23.99811,47.96246],[24.00911,47.96716],[24.02277,47.95911],[24.03095,47.94968],[24.05991,47.9537],[24.09745,47.93716],[24.10062,47.92777],[24.11177,47.91501],[24.1308,47.91598],[24.14277,47.91243],[24.14921,47.91656],[24.16088,47.91482],[24.16525,47.9204],[24.18364,47.91508],[24.19714,47.91594],[24.21346,47.90625],[24.21853,47.89752],[24.22826,47.89643],[24.25553,47.90678],[24.27964,47.90573],[24.29767,47.91127],[24.30389,47.91695],[24.32421,47.92571],[24.33439,47.91776],[24.34486,47.91467],[24.38128,47.92644],[24.38296,47.93988],[24.39238,47.94905],[24.3923,47.95275],[24.40735,47.95932],[24.41663,47.95987],[24.43581,47.9702],[24.45055,47.96279],[24.47277,47.96302],[24.48849,47.95531],[24.51256,47.95196],[24.52695,47.96165],[24.55244,47.95847],[24.56276,47.9686],[24.57777,47.96716],[24.59514,47.95486],[24.59822,47.95052],[24.5967,47.94632],[24.60163,47.94521],[24.61084,47.95165],[24.62285,47.9517],[24.62838,47.94815],[24.63223,47.9394],[24.63002,47.93415],[24.6365,47.92971],[24.63539,47.92434],[24.65033,47.92001],[24.65269,47.91072],[24.66036,47.90853],[24.67329,47.89689],[24.66572,47.87633],[24.67299,47.86327],[24.70279,47.85277],[24.70557,47.84032],[24.72002,47.83933],[24.73443,47.84377],[24.75231,47.83007],[24.75845,47.83695],[24.76556,47.83918],[24.77827,47.8367],[24.78418,47.82335],[24.79631,47.82487],[24.82634,47.82116],[24.82819,47.81824],[24.82159,47.80613],[24.8366,47.79351],[24.83653,47.77963],[24.85024,47.77524],[24.85492,47.77088],[24.85522,47.76593],[24.87842,47.75257],[24.88167,47.73809],[24.88632,47.73379],[24.88311,47.72442],[24.98353,47.72951],[24.99622,47.72517],[25.00145,47.72708],[25.00642,47.73425],[25.04042,47.72547],[25.0545,47.74598],[25.06462,47.74053],[25.11587,47.7549],[25.11624,47.76785],[25.13414,47.78216],[25.14887,47.79214],[25.15311,47.78926],[25.16565,47.79053],[25.17105,47.79638],[25.167,47.80887],[25.17721,47.81375],[25.18369,47.82853],[25.20255,47.83954],[25.19913,47.84863],[25.22207,47.85942],[25.22474,47.87267],[25.22173,47.88026],[25.22989,47.89302],[25.24599,47.89387],[25.24883,47.89659],[25.2583,47.89202],[25.26495,47.89433],[25.2682,47.89198],[25.31114,47.91431],[25.34027,47.91407],[25.53463,47.93612],[25.59262,47.93842],[25.6272,47.949],[25.65592,47.94936],[25.71806,47.94106],[25.72056,47.94441],[25.73302,47.94571],[25.74207,47.9415],[25.77519,47.93958],[25.81899,47.95427],[25.82491,47.96296],[25.83766,47.9672],[25.86075,47.97011],[25.89207,47.96131],[25.90738,47.96477],[25.91467,47.97747],[25.93961,47.97583],[25.95199,47.97082],[26.06081,47.98786],[26.10127,47.97829],[26.11717,47.98187],[26.12638,47.98771],[26.13759,47.98431],[26.18462,47.99489],[26.19886,48.00784],[26.20826,48.02924],[26.21195,48.05073],[26.2668,48.07645],[26.27388,48.08329],[26.28203,48.10006],[26.28469,48.11373],[26.29757,48.1336],[26.33411,48.1593],[26.3334,48.16674],[26.32755,48.17609],[26.33469,48.18334],[26.34737,48.18271],[26.35066,48.18524],[26.34881,48.19103],[26.35167,48.19159],[26.35789,48.18482],[26.36433,48.18642],[26.37386,48.19284],[26.3718,48.19692],[26.37744,48.19895],[26.38602,48.1945],[26.37823,48.19001],[26.37959,48.18767],[26.38624,48.18671],[26.40407,48.1893],[26.41907,48.19814],[26.4394,48.19371],[26.43536,48.20189],[26.45312,48.20455],[26.46274,48.21077],[26.46009,48.21443],[26.47414,48.21788],[26.48172,48.21339],[26.49302,48.21851],[26.51731,48.21004],[26.52182,48.21356],[26.52961,48.20988],[26.5513,48.2182],[26.54753,48.22386],[26.54947,48.22526],[26.5726,48.21995],[26.57323,48.22476],[26.56907,48.23022],[26.57276,48.2396],[26.58818,48.24687],[26.59981,48.23799],[26.62195,48.241],[26.62234,48.24399],[26.61456,48.25058],[26.6209,48.25211],[26.62458,48.24766],[26.62982,48.24757],[26.63013,48.25959]]]]}}]}