{"type":"FeatureCollection","features":[{"type":"Feature","properties":{"ISO_A3":"RWA","WB_A3":"RWA","WB_NAME":"Rwanda","WB_REGION":"AFE,SSF"},"geometry":{"type":"MultiPolygon","coordinates":[[[[30.36959,-2.35568],[30.27161,-2.37444],[30.25553,-2.37457],[30.25006,-2.3721],[30.24851,-2.36455],[30.24322,-2.35933],[30.24042,-2.36027],[30.23457,-2.35256],[30.22388,-2.35049],[30.21886,-2.35597],[30.21896,-2.36461],[30.21337,-2.37948],[30.2041,-2.38613],[30.19745,-2.38614],[30.19583,-2.40968],[30.18348,-2.42855],[30.1654,-2.4263],[30.13202,-2.43756],[30.09686,-2.42304],[30.07535,-2.40149],[30.06407,-2.39431],[30.04607,-2.3609],[30.02948,-2.34808],[30.02013,-2.34413],[30.00076,-2.34492],[29.98324,-2.3386],[29.9827,-2.33497],[29.95643,-2.32921],[29.95643,-2.34986],[29.94412,-2.3641],[29.94351,-2.36997],[29.95468,-2.38961],[29.96207,-2.41488],[29.96255,-2.43575],[29.96765,-2.4457],[29.96569,-2.45016],[29.97053,-2.46106],[29.96669,-2.47133],[29.96786,-2.48469],[29.96438,-2.48895],[29.953,-2.49175],[29.95087,-2.49603],[29.94271,-2.49844],[29.93888,-2.51504],[29.93426,-2.52119],[29.93429,-2.53408],[29.92082,-2.55748],[29.93164,-2.58938],[29.93104,-2.6234],[29.92807,-2.63255],[29.9363,-2.64151],[29.92891,-2.65762],[29.9307,-2.66275],[29.91866,-2.70208],[29.89245,-2.7378],[29.89106,-2.74467],[29.8935,-2.74687],[29.87882,-2.75418],[29.87923,-2.75917],[29.86228,-2.76092],[29.85319,-2.76658],[29.83964,-2.76878],[29.82961,-2.7803],[29.82512,-2.77478],[29.81451,-2.77441],[29.80239,-2.75928],[29.79517,-2.75765],[29.78714,-2.76625],[29.77238,-2.76425],[29.76908,-2.76669],[29.76879,-2.77728],[29.76494,-2.7792],[29.75996,-2.80212],[29.75286,-2.81127],[29.74596,-2.80736],[29.7307,-2.81197],[29.72401,-2.81718],[29.70853,-2.81969],[29.70523,-2.81215],[29.68953,-2.80643],[29.68474,-2.79977],[29.68074,-2.8003],[29.66022,-2.78772],[29.63925,-2.78907],[29.62971,-2.80395],[29.62099,-2.80524],[29.61633,-2.81012],[29.6124,-2.8112],[29.60594,-2.80654],[29.59142,-2.80808],[29.58905,-2.80275],[29.57347,-2.81187],[29.56535,-2.81182],[29.5508,-2.81821],[29.545,-2.81716],[29.54256,-2.81904],[29.5434,-2.82917],[29.53501,-2.82748],[29.52263,-2.83014],[29.50749,-2.8221],[29.50064,-2.81267],[29.49058,-2.8079],[29.48643,-2.8023],[29.48366,-2.80197],[29.47866,-2.80937],[29.47043,-2.80761],[29.4646,-2.8104],[29.45525,-2.79997],[29.4378,-2.79736],[29.41419,-2.81441],[29.40755,-2.81467],[29.40072,-2.82184],[29.39104,-2.81813],[29.38529,-2.82129],[29.37711,-2.83779],[29.37084,-2.83975],[29.36719,-2.8317],[29.36255,-2.83238],[29.36458,-2.82752],[29.36101,-2.82325],[29.36244,-2.81973],[29.35298,-2.80528],[29.35183,-2.79917],[29.35752,-2.79264],[29.34814,-2.7768],[29.35076,-2.76812],[29.34037,-2.76382],[29.33823,-2.76098],[29.3412,-2.75442],[29.33337,-2.74619],[29.3512,-2.73509],[29.35139,-2.72416],[29.34794,-2.71987],[29.35126,-2.70485],[29.3493,-2.7],[29.34562,-2.70255],[29.33506,-2.69092],[29.33166,-2.6929],[29.32898,-2.68978],[29.33546,-2.66893],[29.3231,-2.64355],[29.31422,-2.64624],[29.29181,-2.63901],[29.28191,-2.62564],[29.26824,-2.62491],[29.2635,-2.61818],[29.25034,-2.62693],[29.24376,-2.62308],[29.23943,-2.62729],[29.23591,-2.62594],[29.23088,-2.62899],[29.22683,-2.62544],[29.22257,-2.63195],[29.21901,-2.63099],[29.21912,-2.62634],[29.21321,-2.62145],[29.20903,-2.62243],[29.20372,-2.61543],[29.19527,-2.61796],[29.18456,-2.61071],[29.18274,-2.6139],[29.17445,-2.61539],[29.16906,-2.60417],[29.16244,-2.60024],[29.16274,-2.5952],[29.14429,-2.59504],[29.13951,-2.59812],[29.14124,-2.6043],[29.1336,-2.6054],[29.12822,-2.61011],[29.11638,-2.59779],[29.10832,-2.59469],[29.09595,-2.59678],[29.08889,-2.59167],[29.07301,-2.60329],[29.06231,-2.60171],[29.05233,-2.62686],[29.05398,-2.64062],[29.05932,-2.64496],[29.06062,-2.65119],[29.05249,-2.65679],[29.04772,-2.67042],[29.05202,-2.67647],[29.05697,-2.67615],[29.05789,-2.68044],[29.04838,-2.68784],[29.05444,-2.68856],[29.05533,-2.69217],[29.05023,-2.69445],[29.05252,-2.69833],[29.04981,-2.70194],[29.05542,-2.70586],[29.05588,-2.70991],[29.04274,-2.72573],[29.04084,-2.74361],[29.01985,-2.71855],[28.99562,-2.69915],[28.98803,-2.69914],[28.98227,-2.69369],[28.96946,-2.69866],[28.96681,-2.70339],[28.95938,-2.69369],[28.94077,-2.69001],[28.9377,-2.6819],[28.91759,-2.68012],[28.91032,-2.66517],[28.8989,-2.66162],[28.8954,-2.65385],[28.90595,-2.64533],[28.90416,-2.62671],[28.90032,-2.62117],[28.90235,-2.60783],[28.8975,-2.59772],[28.89986,-2.58842],[28.8952,-2.56759],[28.89075,-2.55745],[28.87798,-2.55075],[28.8622,-2.53205],[28.86178,-2.52458],[28.86655,-2.51605],[28.87421,-2.50939],[28.88892,-2.50469],[28.89301,-2.49069],[28.89146,-2.47426],[28.87366,-2.45552],[28.86663,-2.43861],[28.87247,-2.41078],[28.885,-2.39137],[28.9089,-2.37247],[28.92745,-2.37161],[28.94737,-2.37638],[28.96168,-2.37332],[28.96608,-2.36657],[28.96102,-2.3559],[28.9623,-2.35161],[28.98161,-2.34169],[29.00093,-2.29408],[29.09533,-2.27565],[29.1094,-2.26528],[29.11696,-2.25369],[29.16725,-2.1486],[29.17484,-2.11824],[29.17078,-2.07533],[29.1622,-2.03795],[29.12666,-1.93025],[29.12928,-1.89093],[29.13605,-1.8611],[29.14999,-1.82869],[29.24486,-1.69808],[29.24341,-1.66848],[29.25593,-1.65953],[29.26868,-1.62885],[29.29422,-1.61413],[29.29862,-1.60645],[29.31035,-1.59973],[29.32705,-1.57302],[29.33712,-1.5471],[29.35333,-1.53682],[29.36181,-1.50891],[29.45033,-1.50616],[29.49695,-1.44219],[29.50382,-1.44049],[29.50766,-1.43032],[29.51577,-1.43218],[29.52684,-1.41074],[29.5423,-1.40476],[29.55918,-1.3882],[29.5775,-1.3877],[29.59004,-1.39291],[29.59157,-1.38771],[29.63913,-1.38942],[29.64667,-1.38565],[29.67769,-1.38305],[29.69041,-1.36313],[29.70956,-1.35137],[29.7119,-1.34577],[29.73299,-1.34071],[29.75824,-1.34551],[29.77679,-1.3664],[29.79686,-1.37324],[29.79654,-1.35017],[29.80955,-1.32937],[29.8195,-1.32761],[29.81906,-1.31451],[29.82459,-1.30881],[29.83039,-1.3156],[29.84085,-1.31929],[29.84301,-1.3228],[29.84016,-1.32555],[29.84139,-1.33369],[29.8497,-1.33885],[29.86151,-1.36097],[29.86979,-1.35589],[29.88191,-1.35686],[29.8837,-1.40629],[29.88729,-1.41177],[29.88558,-1.42335],[29.89065,-1.42868],[29.89381,-1.45187],[29.91577,-1.48232],[29.92619,-1.48132],[29.93446,-1.47208],[29.96167,-1.46143],[29.97859,-1.4586],[29.98711,-1.45019],[29.99612,-1.44778],[30.00007,-1.43516],[30.01145,-1.42544],[30.01424,-1.41608],[30.02156,-1.41284],[30.0249,-1.41725],[30.03747,-1.42147],[30.04174,-1.42704],[30.05374,-1.43113],[30.05585,-1.42134],[30.05228,-1.40102],[30.07046,-1.3917],[30.06993,-1.38276],[30.07271,-1.37866],[30.08135,-1.37315],[30.09946,-1.37606],[30.10478,-1.37249],[30.11209,-1.37618],[30.11842,-1.38495],[30.12228,-1.38426],[30.12977,-1.36298],[30.13749,-1.36139],[30.14529,-1.35055],[30.15272,-1.35144],[30.16993,-1.34517],[30.16309,-1.33489],[30.16512,-1.32761],[30.16199,-1.31761],[30.16766,-1.30555],[30.17454,-1.30169],[30.16967,-1.27442],[30.18753,-1.2707],[30.19103,-1.28172],[30.19786,-1.28084],[30.19782,-1.27418],[30.20467,-1.2727],[30.21086,-1.27646],[30.21373,-1.26905],[30.24497,-1.2385],[30.25431,-1.2204],[30.26777,-1.21165],[30.27585,-1.21007],[30.27795,-1.19952],[30.29256,-1.18908],[30.29755,-1.1596],[30.30269,-1.15008],[30.30714,-1.14498],[30.33565,-1.13157],[30.34342,-1.13222],[30.3393,-1.09607],[30.34902,-1.08694],[30.35133,-1.0792],[30.3494,-1.06971],[30.35606,-1.06162],[30.36963,-1.06517],[30.37394,-1.06995],[30.37623,-1.06185],[30.39086,-1.06896],[30.39801,-1.06231],[30.42905,-1.06432],[30.43077,-1.05807],[30.44177,-1.04798],[30.46755,-1.05262],[30.46648,-1.0552],[30.47312,-1.05741],[30.4526,-1.08146],[30.45142,-1.08999],[30.45872,-1.11643],[30.47617,-1.12122],[30.46923,-1.12983],[30.46994,-1.15508],[30.47552,-1.16032],[30.49173,-1.16005],[30.50133,-1.16399],[30.50892,-1.17136],[30.51452,-1.19194],[30.52157,-1.1993],[30.52575,-1.21497],[30.55088,-1.25024],[30.5522,-1.27189],[30.55636,-1.27377],[30.56208,-1.29092],[30.55871,-1.29175],[30.55938,-1.29693],[30.55454,-1.30541],[30.56664,-1.32576],[30.56863,-1.33679],[30.61139,-1.35331],[30.63097,-1.39016],[30.67889,-1.39343],[30.73633,-1.44953],[30.73712,-1.44534],[30.73947,-1.44797],[30.74583,-1.52172],[30.83859,-1.6507],[30.82105,-1.69245],[30.83119,-1.81183],[30.80784,-1.9377],[30.8609,-2.02352],[30.86162,-2.02893],[30.8642,-2.02875],[30.87711,-2.05031],[30.88446,-2.05345],[30.89817,-2.07134],[30.89906,-2.07739],[30.89221,-2.09347],[30.88616,-2.0936],[30.88598,-2.10301],[30.87356,-2.12016],[30.87588,-2.13384],[30.86552,-2.14367],[30.86072,-2.15534],[30.85943,-2.17982],[30.85228,-2.18616],[30.84903,-2.19938],[30.84356,-2.20598],[30.8461,-2.22339],[30.8419,-2.22849],[30.84168,-2.24057],[30.84622,-2.25114],[30.84525,-2.25779],[30.85285,-2.27351],[30.85055,-2.31205],[30.85598,-2.31202],[30.85648,-2.31464],[30.85278,-2.32066],[30.83747,-2.33008],[30.83615,-2.34323],[30.82653,-2.35615],[30.81686,-2.36494],[30.80588,-2.3639],[30.79604,-2.36696],[30.79133,-2.3765],[30.78286,-2.38012],[30.77901,-2.39023],[30.76793,-2.39188],[30.76334,-2.38263],[30.74648,-2.37935],[30.73969,-2.37468],[30.73296,-2.36392],[30.71619,-2.35554],[30.69488,-2.36439],[30.69073,-2.37018],[30.68961,-2.38117],[30.68274,-2.39091],[30.65646,-2.41372],[30.64383,-2.40963],[30.64014,-2.4039],[30.63092,-2.40371],[30.62447,-2.39992],[30.61488,-2.40297],[30.60613,-2.39948],[30.59035,-2.4055],[30.58372,-2.41413],[30.56912,-2.41925],[30.55127,-2.41139],[30.5448,-2.41358],[30.5354,-2.40538],[30.51114,-2.4012],[30.5085,-2.3896],[30.49463,-2.37718],[30.48894,-2.37636],[30.4865,-2.36684],[30.47686,-2.36869],[30.47116,-2.36658],[30.47005,-2.35152],[30.46059,-2.3478],[30.4586,-2.34316],[30.46308,-2.32552],[30.46021,-2.31926],[30.4496,-2.31896],[30.43822,-2.32961],[30.42844,-2.32805],[30.41738,-2.32072],[30.40861,-2.30981],[30.39206,-2.3135],[30.38049,-2.32614],[30.37275,-2.35509],[30.36959,-2.35568]]]]}}]}