{"type":"FeatureCollection","features":[{"type":"Feature","properties":{"ISO_A3":"SAU","WB_A3":"SAU","WB_NAME":"Saudi Arabia","WB_REGION":"MEA"},"geometry":{"type":"MultiPolygon","coordinates":[[[[37.26301,31.24979],[37.24006,31.27822],[37.19127,31.31798],[37.00627,31.50057],[37.96058,31.74371],[37.98321,31.74454],[38.03856,31.76302],[38.08992,31.77601],[39.00648,32.00062],[39.20093,32.15428],[39.85245,32.04496],[40.41169,31.94605],[40.92128,31.66523],[41.3621,31.41764],[41.4391,31.37118],[41.82138,31.21836],[42.08382,31.10966],[42.67925,30.69092],[43.24368,30.28624],[43.98811,29.7422],[44.71989,29.19648],[45.72299,29.12019],[46.42453,29.05916],[46.5439,29.09858],[46.56092,29.10071],[47.4657,29.00026],[47.49194,28.97412],[47.51378,28.93117],[47.54311,28.89868],[47.56462,28.86216],[47.58717,28.83668],[47.60002,28.75889],[47.5939,28.72751],[47.59568,28.6885],[47.60591,28.65523],[47.63891,28.63022],[47.65378,28.59635],[47.70902,28.54308],[47.70446,28.52433],[48.43056,28.53433],[48.44573,28.52697],[48.46691,28.50551],[48.50152,28.49458],[48.49656,28.47649],[48.50386,28.463],[48.50012,28.44905],[48.50098,28.43723],[48.50983,28.42583],[48.52578,28.41532],[48.53859,28.41452],[48.54421,28.40408],[48.52712,28.38269],[48.51583,28.35548],[48.5135,28.33718],[48.52033,28.31828],[48.54287,28.27935],[48.58412,28.25334],[48.61228,28.22118],[48.61525,28.21197],[48.6258,28.20753],[48.63551,28.19484],[48.62404,28.1949],[48.61781,28.18784],[48.61012,28.16199],[48.6099,28.11288],[48.61349,28.10818],[48.6285,28.11114],[48.62887,28.10742],[48.62507,28.10903],[48.61545,28.10449],[48.62103,28.08813],[48.64086,28.06327],[48.66324,28.04719],[48.66532,28.03128],[48.68019,28.02742],[48.68055,28.02383],[48.68392,28.02877],[48.69346,28.01633],[48.7935,27.9992],[48.79252,27.99044],[48.77165,27.9766],[48.77358,27.98165],[48.78534,27.98724],[48.78884,27.99295],[48.78814,27.99886],[48.7822,27.99915],[48.77585,27.98387],[48.76133,27.98569],[48.74628,27.97786],[48.74276,27.96623],[48.74767,27.95268],[48.76335,27.94368],[48.76389,27.9388],[48.77227,27.93251],[48.77625,27.92203],[48.78593,27.91575],[48.7934,27.9043],[48.80564,27.90025],[48.82327,27.90169],[48.8179,27.88798],[48.82659,27.86574],[48.84347,27.86086],[48.87316,27.8374],[48.88334,27.83447],[48.88285,27.82238],[48.88826,27.81938],[48.87725,27.79812],[48.87385,27.7798],[48.87876,27.77242],[48.88586,27.7715],[48.88987,27.76616],[48.8761,27.7455],[48.84418,27.72238],[48.83965,27.72527],[48.84315,27.73085],[48.8572,27.7366],[48.85797,27.74175],[48.85416,27.74401],[48.8604,27.75748],[48.8605,27.76725],[48.8577,27.76991],[48.84605,27.75996],[48.84207,27.76362],[48.86521,27.77813],[48.86989,27.79003],[48.85246,27.81625],[48.8401,27.8122],[48.83299,27.79846],[48.83631,27.79157],[48.83547,27.78307],[48.82986,27.77423],[48.82972,27.76703],[48.8355,27.76712],[48.83702,27.76303],[48.82109,27.75031],[48.80604,27.75097],[48.80158,27.75707],[48.81745,27.75886],[48.81861,27.76583],[48.81573,27.77221],[48.82135,27.78079],[48.81245,27.77756],[48.82134,27.78104],[48.82971,27.78915],[48.82648,27.80607],[48.83037,27.81411],[48.82904,27.82283],[48.82447,27.82713],[48.81132,27.81921],[48.80798,27.81272],[48.80812,27.76978],[48.80494,27.76252],[48.80008,27.75962],[48.79534,27.72945],[48.78425,27.71333],[48.78406,27.70883],[48.78934,27.7048],[48.8028,27.7108],[48.80405,27.72059],[48.80975,27.72454],[48.80878,27.72967],[48.80424,27.73242],[48.80489,27.73603],[48.81341,27.74376],[48.82591,27.73277],[48.82605,27.71862],[48.82011,27.71236],[48.81593,27.69712],[48.82523,27.68723],[48.82562,27.68184],[48.83171,27.68091],[48.84162,27.69135],[48.84569,27.70478],[48.84753,27.69916],[48.85337,27.69616],[48.85665,27.68335],[48.85243,27.67763],[48.85385,27.66428],[48.8465,27.66313],[48.84659,27.65851],[48.86106,27.65706],[48.8564,27.65917],[48.8584,27.66062],[48.87778,27.66619],[48.88005,27.65336],[48.8845,27.64752],[48.87983,27.64256],[48.87154,27.63832],[48.8742,27.64221],[48.87289,27.65042],[48.86692,27.65278],[48.85371,27.64923],[48.84974,27.63772],[48.86474,27.63152],[48.86629,27.62615],[48.87373,27.62215],[48.87426,27.60955],[48.87142,27.61465],[48.86394,27.61312],[48.86313,27.62533],[48.85095,27.62758],[48.84062,27.61726],[48.84293,27.60958],[48.85058,27.60237],[48.8738,27.59579],[48.88465,27.60225],[48.88652,27.61],[48.89567,27.62197],[48.89654,27.6297],[48.91193,27.62517],[48.89929,27.59913],[48.89663,27.58726],[48.89863,27.57314],[48.8948,27.56974],[48.89603,27.56565],[48.90613,27.56541],[48.92445,27.57379],[48.92624,27.57819],[48.92296,27.58354],[48.9269,27.589],[48.92262,27.59421],[48.91466,27.59259],[48.90936,27.5854],[48.91063,27.5795],[48.90457,27.57915],[48.92275,27.60257],[48.93798,27.60614],[48.96395,27.6226],[48.96916,27.62216],[48.99474,27.61276],[48.99525,27.60878],[49.02752,27.57221],[49.07042,27.56175],[49.09497,27.54357],[49.1031,27.54072],[49.14701,27.53797],[49.18096,27.54382],[49.20318,27.54411],[49.21041,27.54305],[49.21834,27.53466],[49.25426,27.52586],[49.26456,27.51287],[49.27519,27.48805],[49.28468,27.4807],[49.30291,27.4763],[49.30719,27.47018],[49.30652,27.45756],[49.31535,27.44558],[49.31197,27.44039],[49.31308,27.43346],[49.2963,27.42811],[49.30357,27.44287],[49.29797,27.4599],[49.29106,27.45956],[49.28417,27.43877],[49.27277,27.43065],[49.25711,27.43638],[49.26063,27.44156],[49.25828,27.44411],[49.24986,27.43886],[49.24652,27.43161],[49.23649,27.42788],[49.23519,27.437],[49.22265,27.4461],[49.21572,27.44653],[49.2103,27.44298],[49.19821,27.42405],[49.18734,27.41889],[49.19483,27.42761],[49.18892,27.44541],[49.18229,27.44584],[49.17144,27.43888],[49.16565,27.42311],[49.16278,27.42256],[49.15599,27.43224],[49.14965,27.4319],[49.14057,27.44066],[49.13502,27.4191],[49.13347,27.41715],[49.13111,27.42021],[49.12709,27.41951],[49.12284,27.40608],[49.12824,27.40204],[49.13705,27.40974],[49.14911,27.41222],[49.16589,27.40871],[49.1712,27.40106],[49.17875,27.39769],[49.17763,27.39575],[49.18573,27.39392],[49.18476,27.39147],[49.19158,27.3886],[49.19819,27.38958],[49.20098,27.39541],[49.20478,27.38298],[49.20159,27.37548],[49.23145,27.3819],[49.23583,27.38775],[49.23237,27.40597],[49.24369,27.40971],[49.25064,27.40787],[49.2499,27.39976],[49.27216,27.3864],[49.26811,27.37786],[49.2578,27.37388],[49.25275,27.36507],[49.2432,27.36816],[49.24674,27.37194],[49.24367,27.3746],[49.23312,27.36791],[49.23077,27.36145],[49.23419,27.35455],[49.23923,27.35461],[49.24073,27.34202],[49.23556,27.33167],[49.23597,27.32396],[49.22978,27.32375],[49.22627,27.32731],[49.2203,27.32273],[49.21761,27.31061],[49.226,27.30814],[49.23774,27.31227],[49.25154,27.32312],[49.25219,27.3275],[49.2665,27.33334],[49.27159,27.33932],[49.28424,27.34115],[49.29381,27.33689],[49.30215,27.33751],[49.31875,27.32601],[49.32243,27.32065],[49.31653,27.31981],[49.31201,27.31409],[49.31462,27.31335],[49.31343,27.30639],[49.31669,27.30026],[49.31456,27.27862],[49.32621,27.2605],[49.32754,27.24868],[49.31957,27.24267],[49.31997,27.2257],[49.31509,27.21509],[49.32586,27.20673],[49.3293,27.19777],[49.32064,27.19046],[49.32078,27.1812],[49.34789,27.15657],[49.35085,27.14143],[49.35802,27.16235],[49.36415,27.16577],[49.36602,27.17582],[49.36145,27.18323],[49.36448,27.19227],[49.38172,27.19375],[49.38139,27.19709],[49.39344,27.19916],[49.39793,27.19677],[49.40038,27.18651],[49.40427,27.1863],[49.40615,27.19532],[49.41308,27.19334],[49.4146,27.18796],[49.41099,27.17865],[49.39901,27.16128],[49.40167,27.15668],[49.40085,27.14355],[49.39481,27.14348],[49.38805,27.15382],[49.37949,27.14935],[49.37284,27.15185],[49.36548,27.13388],[49.36744,27.1177],[49.37138,27.1135],[49.37797,27.11512],[49.39987,27.11164],[49.41792,27.095],[49.43062,27.09141],[49.44167,27.08201],[49.45077,27.07877],[49.46926,27.08206],[49.45954,27.09932],[49.4548,27.09888],[49.45783,27.08759],[49.45241,27.08522],[49.44318,27.08743],[49.44051,27.09306],[49.43727,27.08891],[49.42003,27.09849],[49.4131,27.12131],[49.42028,27.13168],[49.4255,27.1284],[49.42821,27.14026],[49.43333,27.14456],[49.4431,27.14506],[49.44647,27.14072],[49.44247,27.11804],[49.44584,27.11332],[49.45102,27.11299],[49.45751,27.12155],[49.47894,27.13143],[49.49221,27.12849],[49.51224,27.11365],[49.52225,27.11787],[49.50231,27.13644],[49.50045,27.14645],[49.49489,27.15334],[49.49535,27.16209],[49.53374,27.19543],[49.52516,27.20267],[49.51795,27.20414],[49.50975,27.21447],[49.51013,27.21833],[49.49834,27.22888],[49.49135,27.22456],[49.48154,27.23706],[49.46414,27.2361],[49.48389,27.26538],[49.48115,27.2759],[49.47648,27.28074],[49.48789,27.28884],[49.48546,27.29807],[49.48181,27.29109],[49.4674,27.28167],[49.46197,27.26849],[49.45706,27.26946],[49.45429,27.28204],[49.46843,27.32155],[49.48641,27.34464],[49.52718,27.35498],[49.53643,27.35238],[49.54822,27.35431],[49.55319,27.34908],[49.56939,27.34346],[49.57675,27.33119],[49.58226,27.32854],[49.66626,27.31381],[49.7001,27.30113],[49.67481,27.29691],[49.66614,27.29991],[49.65146,27.29887],[49.64511,27.30022],[49.64303,27.30535],[49.64763,27.30642],[49.64716,27.30951],[49.64176,27.3155],[49.63197,27.31476],[49.59037,27.30238],[49.57667,27.29273],[49.57029,27.29639],[49.57096,27.29949],[49.56219,27.29875],[49.56087,27.28948],[49.54717,27.30271],[49.56738,27.30974],[49.56204,27.32152],[49.54971,27.32821],[49.54629,27.32586],[49.53292,27.33524],[49.52456,27.33541],[49.49968,27.32215],[49.49694,27.31144],[49.48768,27.30401],[49.48574,27.29859],[49.48917,27.29001],[49.49718,27.2937],[49.49555,27.27554],[49.50552,27.26227],[49.51024,27.23222],[49.51454,27.23356],[49.51515,27.24192],[49.52434,27.24318],[49.5273,27.23678],[49.53997,27.2364],[49.54303,27.23308],[49.54898,27.1961],[49.54026,27.19176],[49.53447,27.19505],[49.52717,27.18858],[49.53088,27.18305],[49.54389,27.1783],[49.55444,27.1631],[49.56758,27.17031],[49.57722,27.1816],[49.58574,27.17898],[49.58517,27.16688],[49.57292,27.15763],[49.56747,27.14484],[49.56971,27.12737],[49.57792,27.10327],[49.58323,27.10032],[49.58367,27.09201],[49.60071,27.07417],[49.60586,27.07576],[49.61054,27.06938],[49.63466,27.0709],[49.61703,27.06738],[49.61522,27.06222],[49.61839,27.06161],[49.68474,27.08887],[49.68693,27.09828],[49.70261,27.09753],[49.70287,27.08711],[49.6957,27.08589],[49.69527,27.07353],[49.6911,27.07375],[49.69096,27.08533],[49.68679,27.08593],[49.6782,27.08315],[49.67773,27.07363],[49.6717,27.07357],[49.67076,27.07986],[49.66733,27.07867],[49.66695,27.07378],[49.66047,27.07565],[49.62018,27.05609],[49.63292,27.04824],[49.63725,27.03439],[49.64701,27.0233],[49.65796,27.02902],[49.66425,27.0232],[49.67028,27.023],[49.67861,27.02347],[49.68656,27.03152],[49.69263,27.02836],[49.68086,27.015],[49.67713,27.01496],[49.67688,27.01162],[49.66824,27.01334],[49.67171,26.99935],[49.66631,26.99454],[49.66859,26.98375],[49.67657,26.97649],[49.688,26.98149],[49.69149,26.97779],[49.68683,26.9708],[49.69166,26.96339],[49.69859,26.95972],[49.69951,26.95471],[49.71454,26.94572],[49.73297,26.94061],[49.7374,26.92907],[49.76457,26.91259],[49.78107,26.89858],[49.7894,26.8984],[49.80785,26.89058],[49.81134,26.88597],[49.83524,26.87717],[49.84615,26.87636],[49.87071,26.85932],[49.95454,26.85263],[49.96269,26.83957],[49.99698,26.82129],[50.00791,26.80155],[50.03669,26.77088],[50.04412,26.75729],[50.06445,26.74147],[50.07333,26.72506],[50.10312,26.70711],[50.10448,26.6985],[50.10867,26.69364],[50.12233,26.68678],[50.13652,26.66628],[50.16335,26.63994],[50.16496,26.63532],[50.16216,26.62617],[50.13927,26.66218],[50.13007,26.66727],[50.13162,26.67114],[50.12222,26.68279],[50.10565,26.67767],[50.10043,26.68497],[50.07033,26.68889],[50.0606,26.6869],[50.0391,26.67157],[50.02473,26.69463],[50.01997,26.71506],[50.02239,26.71675],[50.00755,26.74366],[49.99422,26.74408],[49.98714,26.7183],[49.99061,26.66583],[49.98635,26.66143],[49.99381,26.65968],[49.99472,26.6548],[50.01448,26.65417],[50.01537,26.65018],[50.01067,26.64822],[50.01271,26.64386],[50.00654,26.62889],[50.00932,26.588],[50.00594,26.5818],[50.01609,26.5829],[50.01834,26.57134],[50.02278,26.57034],[50.02184,26.58037],[50.02942,26.58042],[50.02907,26.58814],[50.0498,26.59085],[50.05198,26.58701],[50.05824,26.59065],[50.06049,26.59633],[50.07795,26.59593],[50.07741,26.59103],[50.08738,26.579],[50.0886,26.57001],[50.08738,26.56099],[50.07788,26.55038],[50.07952,26.54293],[50.05577,26.54355],[50.05202,26.54725],[50.04371,26.54823],[50.03886,26.54665],[50.03531,26.56078],[50.02286,26.56082],[50.02118,26.55721],[50.0321,26.53412],[50.0366,26.5092],[50.0438,26.50333],[50.03952,26.50175],[50.04185,26.49714],[50.04984,26.49873],[50.05421,26.4895],[50.06079,26.48826],[50.07442,26.46493],[50.08496,26.46937],[50.08545,26.48044],[50.09632,26.47922],[50.09804,26.46096],[50.10507,26.45676],[50.1129,26.46106],[50.11084,26.46825],[50.11469,26.47008],[50.11773,26.48347],[50.11486,26.48474],[50.1194,26.4894],[50.1219,26.4992],[50.13479,26.4967],[50.13136,26.43981],[50.13297,26.43493],[50.15334,26.42451],[50.16506,26.42355],[50.19315,26.47311],[50.18054,26.47767],[50.18678,26.50498],[50.19124,26.50166],[50.18861,26.4893],[50.19319,26.48855],[50.19845,26.51354],[50.20505,26.50998],[50.20006,26.48756],[50.20521,26.48733],[50.20796,26.50305],[50.2114,26.50178],[50.20781,26.48272],[50.19865,26.48472],[50.19725,26.47957],[50.20697,26.47988],[50.2093,26.47423],[50.21301,26.47425],[50.21634,26.48932],[50.21405,26.4897],[50.21471,26.49819],[50.21915,26.4977],[50.2136,26.4722],[50.20644,26.47396],[50.20519,26.46881],[50.20121,26.46595],[50.19676,26.46786],[50.19437,26.4618],[50.1857,26.45583],[50.19287,26.45137],[50.19579,26.44264],[50.18939,26.43887],[50.1819,26.42737],[50.17273,26.42951],[50.17019,26.42512],[50.17941,26.41514],[50.1824,26.41696],[50.19402,26.40969],[50.21539,26.41971],[50.21986,26.41279],[50.20335,26.40395],[50.20412,26.39598],[50.19971,26.39338],[50.20539,26.37694],[50.21081,26.37826],[50.20934,26.38417],[50.21704,26.38653],[50.22036,26.38063],[50.21238,26.37853],[50.21558,26.3698],[50.21286,26.37068],[50.21147,26.36527],[50.22402,26.36778],[50.22055,26.37394],[50.22739,26.37604],[50.22984,26.37373],[50.22945,26.3682],[50.21034,26.36385],[50.21301,26.34855],[50.22327,26.35144],[50.23404,26.34313],[50.22391,26.34128],[50.22992,26.31789],[50.22861,26.30065],[50.2227,26.288],[50.21885,26.26585],[50.22125,26.24811],[50.21807,26.2324],[50.21957,26.22173],[50.26442,26.21296],[50.31613,26.18595],[50.26271,26.21295],[50.23471,26.21975],[50.21974,26.218],[50.21956,26.18068],[50.2167,26.18144],[50.20423,26.17005],[50.19577,26.1561],[50.18754,26.15104],[50.18581,26.1536],[50.19233,26.1584],[50.19043,26.16534],[50.19467,26.17102],[50.19124,26.17203],[50.18999,26.16752],[50.18166,26.17622],[50.17638,26.17632],[50.16615,26.17086],[50.16432,26.14769],[50.17192,26.14194],[50.16883,26.13562],[50.16198,26.13648],[50.15975,26.12888],[50.16518,26.12762],[50.16031,26.11113],[50.161,26.09389],[50.15129,26.07685],[50.15066,26.06629],[50.15516,26.05384],[50.14978,26.04892],[50.15378,26.04856],[50.15584,26.03905],[50.14364,26.03151],[50.1317,26.02938],[50.13375,26.03995],[50.13847,26.03766],[50.14271,26.0418],[50.1316,26.04225],[50.13156,26.04817],[50.13754,26.04782],[50.13793,26.05335],[50.11898,26.05388],[50.11816,26.06893],[50.12152,26.07667],[50.10187,26.11258],[50.0931,26.12268],[50.07954,26.12453],[50.07702,26.13764],[50.08214,26.13896],[50.07396,26.14534],[50.0591,26.18487],[50.03904,26.19657],[50.03916,26.19953],[50.03031,26.20037],[50.02141,26.19054],[50.02121,26.18076],[50.00936,26.16498],[50.00498,26.14333],[49.99174,26.12446],[49.98827,26.1144],[49.99354,26.09796],[50.00583,26.09419],[50.0126,26.08446],[50.01023,26.08426],[50.01247,26.08369],[50.01297,26.07443],[50.0085,26.0807],[50.0048,26.08067],[49.99993,26.06739],[50.00208,26.03138],[49.99874,26.02235],[50.00146,26.02134],[50.00038,26.01412],[49.99673,26.00741],[50.0003,25.98916],[50.00648,25.98277],[50.01757,25.98414],[50.03901,26.00924],[50.04731,26.00389],[50.0627,26.00206],[50.06149,25.99369],[50.06765,25.98768],[50.07992,25.98493],[50.10325,25.98675],[50.109,25.9801],[50.11921,25.96626],[50.11422,25.94848],[50.11611,25.94334],[50.133,25.93006],[50.11423,25.92724],[50.10662,25.91832],[50.1035,25.8972],[50.10538,25.89309],[50.10965,25.89363],[50.10654,25.89066],[50.10902,25.88282],[50.11676,25.87386],[50.12071,25.86025],[50.12844,25.85232],[50.14018,25.82202],[50.14661,25.81794],[50.18425,25.75974],[50.19255,25.75181],[50.21419,25.7455],[50.21719,25.74217],[50.22667,25.72678],[50.23426,25.6949],[50.243,25.68286],[50.26309,25.67163],[50.26573,25.65801],[50.26217,25.63586],[50.26904,25.6274],[50.26639,25.62018],[50.25966,25.62864],[50.25905,25.63661],[50.25649,25.6366],[50.25825,25.65102],[50.2493,25.65175],[50.24647,25.64916],[50.24755,25.65843],[50.23547,25.68282],[50.22511,25.68263],[50.22016,25.67913],[50.22062,25.67399],[50.21143,25.68874],[50.1992,25.69163],[50.19445,25.70112],[50.17651,25.70746],[50.165,25.72952],[50.16087,25.73091],[50.14585,25.72504],[50.14193,25.73634],[50.1358,25.74055],[50.1343,25.7314],[50.143,25.72605],[50.14566,25.71191],[50.15602,25.6937],[50.182,25.67313],[50.18797,25.67304],[50.18941,25.66996],[50.18488,25.66762],[50.18805,25.66017],[50.19515,25.66098],[50.19841,25.68236],[50.20179,25.68675],[50.2095,25.68113],[50.20944,25.66852],[50.21977,25.65108],[50.21105,25.63894],[50.21898,25.61968],[50.2313,25.60302],[50.25322,25.59232],[50.26029,25.57203],[50.27217,25.55613],[50.28924,25.54811],[50.30912,25.5437],[50.31055,25.54087],[50.30251,25.53363],[50.3085,25.52748],[50.31083,25.51668],[50.3309,25.50314],[50.34477,25.48287],[50.34723,25.47387],[50.36002,25.46775],[50.37032,25.44824],[50.38309,25.447],[50.38892,25.44317],[50.38967,25.43494],[50.3851,25.44148],[50.38242,25.43825],[50.39811,25.41773],[50.39829,25.41078],[50.40921,25.40748],[50.40689,25.41931],[50.41252,25.42628],[50.40936,25.43527],[50.3984,25.44475],[50.39181,25.45952],[50.38671,25.4586],[50.38376,25.45344],[50.38592,25.44702],[50.38094,25.45086],[50.38109,25.47608],[50.37423,25.48711],[50.36555,25.49312],[50.36182,25.50276],[50.38024,25.50477],[50.38333,25.51109],[50.39545,25.49698],[50.39406,25.49106],[50.38938,25.49194],[50.38615,25.48536],[50.39856,25.47049],[50.4068,25.46743],[50.42675,25.44564],[50.44859,25.44237],[50.49368,25.40213],[50.49348,25.38103],[50.5063,25.36563],[50.51035,25.34248],[50.51946,25.33067],[50.53204,25.29957],[50.52953,25.29184],[50.53272,25.271],[50.52035,25.24883],[50.52239,25.23416],[50.52981,25.21746],[50.5467,25.20361],[50.55879,25.18306],[50.55835,25.14934],[50.54708,25.13901],[50.54569,25.13335],[50.55651,25.1097],[50.55972,25.08346],[50.5708,25.0647],[50.56335,25.0567],[50.56269,25.04203],[50.57417,25.03241],[50.58362,25.03565],[50.57482,25.04798],[50.57561,25.06523],[50.57969,25.06975],[50.58634,25.06526],[50.60323,25.04266],[50.60974,25.03933],[50.63161,24.99949],[50.65441,24.9769],[50.66067,24.95915],[50.6737,24.94425],[50.67598,24.93525],[50.67309,24.90899],[50.68442,24.89048],[50.70954,24.88796],[50.71661,24.88334],[50.71803,24.87742],[50.7282,24.87152],[50.73092,24.85222],[50.72925,24.84166],[50.73535,24.82881],[50.74636,24.82007],[50.74906,24.80978],[50.74743,24.7825],[50.75353,24.7614],[50.76385,24.74649],[50.76883,24.72024],[50.7715,24.71947],[50.78992,24.74344],[50.8118,24.74431],[50.85952,24.67336],[50.92889,24.54528],[51,24.5],[51.09861,24.47111],[51.31384,24.48536],[51.36526,24.52137],[51.41388,24.59711],[51.40215,24.62562],[51.40904,24.62488],[51.40817,24.61922],[51.41379,24.61367],[51.42421,24.6148],[51.42588,24.61068],[51.43039,24.61144],[51.4328,24.61787],[51.43099,24.62225],[51.44323,24.62041],[51.45065,24.60906],[51.44978,24.60109],[51.4537,24.59464],[51.44975,24.59311],[51.45252,24.57972],[51.46182,24.58252],[51.45987,24.58986],[51.47705,24.59019],[51.47819,24.59418],[51.48185,24.59404],[51.48591,24.59016],[51.48742,24.58064],[51.49248,24.57714],[51.49755,24.57932],[51.50485,24.57466],[51.50512,24.57157],[51.49821,24.56799],[51.48553,24.56494],[51.48453,24.56083],[51.48734,24.55824],[51.47384,24.56047],[51.46988,24.55727],[51.45356,24.55719],[51.44353,24.54422],[51.44335,24.53328],[51.43997,24.53432],[51.44042,24.54191],[51.44653,24.55734],[51.43949,24.55607],[51.43888,24.54243],[51.42199,24.54145],[51.42338,24.53733],[51.41418,24.51857],[51.41526,24.50621],[51.41129,24.49644],[51.40017,24.49235],[51.39197,24.47847],[51.38352,24.47579],[51.37618,24.46474],[51.3624,24.46452],[51.32265,24.42973],[51.30392,24.35641],[51.29098,24.34987],[51.2886,24.3518],[51.28466,24.34795],[51.28661,24.34254],[51.2831,24.3437],[51.27902,24.33869],[51.28,24.33612],[51.28365,24.33894],[51.28166,24.32826],[51.28727,24.32375],[51.28796,24.31834],[51.28403,24.31783],[51.27556,24.30086],[51.28044,24.28335],[51.29081,24.27342],[51.29474,24.27354],[51.29392,24.28126],[51.30742,24.29166],[51.31613,24.29396],[51.35628,24.28872],[51.37175,24.2986],[51.38093,24.31453],[51.39289,24.32235],[51.40667,24.32618],[51.42575,24.32201],[51.44262,24.32466],[51.45101,24.31601],[51.47278,24.31479],[51.47375,24.31093],[51.49379,24.30159],[51.50539,24.28714],[51.51212,24.28326],[51.51712,24.27063],[51.52384,24.26674],[51.5255,24.25927],[51.53417,24.25075],[51.56251,24.24769],[51.59022,24.25372],[51.59022,24.12692],[51.96644,23.68193],[52.58127,22.93881],[53.54068,22.82843],[55.13737,22.63153],[55.20833,22.70833],[55.66667,22],[55.33682,21.01751],[55,20],[53.51337,19.51222],[52,19],[50.78333,18.78889],[49.11667,18.61667],[48.18333,18.16667],[47.6,17.45],[47.46667,17.11667],[47.18333,16.95],[47,16.95],[46.75,17.28333],[46.36667,17.23333],[46.1,17.25],[45.4,17.33333],[45.21667,17.43333],[44.65,17.43333],[44.56667,17.40556],[44.46667,17.43333],[44.36611,17.43333],[44.20833,17.41389],[44.13806,17.40889],[44.13083,17.38361],[44.11083,17.36639],[44.10061,17.36606],[44.06667,17.40583],[44.04958,17.40492],[44.02328,17.39131],[44.01136,17.40247],[43.96667,17.33056],[43.90534,17.34166],[43.83194,17.33889],[43.80583,17.35661],[43.78889,17.375],[43.68333,17.36667],[43.61781,17.42611],[43.56653,17.48336],[43.52719,17.51425],[43.52033,17.50906],[43.50617,17.52403],[43.49569,17.52689],[43.48464,17.54511],[43.4593,17.55253],[43.44542,17.55],[43.43128,17.56392],[43.41961,17.56583],[43.39922,17.55664],[43.37944,17.55539],[43.37556,17.544],[43.35475,17.55639],[43.33589,17.53983],[43.31022,17.52767],[43.30472,17.53189],[43.30269,17.5275],[43.28536,17.51728],[43.26044,17.48994],[43.24075,17.48053],[43.25649,17.45782],[43.22972,17.43212],[43.24706,17.4015],[43.22803,17.38553],[43.25883,17.36231],[43.27675,17.35817],[43.326,17.32836],[43.3365,17.304],[43.31498,17.30427],[43.30244,17.29319],[43.28948,17.29011],[43.26722,17.29222],[43.25766,17.28178],[43.23244,17.26892],[43.22407,17.26026],[43.20854,17.26197],[43.20322,17.25957],[43.20368,17.24949],[43.19877,17.24491],[43.21631,17.21036],[43.18076,17.18409],[43.15195,17.17471],[43.15914,17.1316],[43.16017,17.08697],[43.18528,17.09861],[43.20806,17.07833],[43.22722,17.07536],[43.23969,17.04739],[43.24863,17.01529],[43.23747,17.02925],[43.23094,17.02953],[43.23233,17.02208],[43.22747,17.02069],[43.22539,17.01142],[43.21153,17.02261],[43.2073,17.02097],[43.20272,17.01008],[43.191,17.01608],[43.19042,17.02483],[43.17922,17.02583],[43.179,17.01675],[43.18408,17.01425],[43.18003,17.009],[43.17805,16.99373],[43.18486,16.98934],[43.18824,16.98114],[43.17744,16.97553],[43.17775,16.96808],[43.19491,16.95549],[43.19404,16.94471],[43.17547,16.93689],[43.17225,16.93144],[43.14432,16.92531],[43.14193,16.91845],[43.13811,16.91758],[43.13792,16.90715],[43.15047,16.87765],[43.15684,16.87659],[43.1717,16.86553],[43.17997,16.84906],[43.20199,16.84479],[43.20228,16.84967],[43.22128,16.83811],[43.23256,16.80694],[43.24136,16.80547],[43.24618,16.8078],[43.26164,16.80086],[43.26661,16.79494],[43.2625,16.78694],[43.25736,16.78628],[43.25129,16.76914],[43.26511,16.75398],[43.25205,16.74728],[43.25144,16.74264],[43.23969,16.74144],[43.23543,16.74427],[43.23291,16.74171],[43.22631,16.74589],[43.224,16.73717],[43.23053,16.73053],[43.21167,16.70969],[43.21919,16.70008],[43.22764,16.70194],[43.23642,16.66703],[43.23472,16.64283],[43.22696,16.64171],[43.22389,16.64761],[43.21567,16.65007],[43.20622,16.64764],[43.16606,16.66564],[43.15739,16.66658],[43.15164,16.67725],[43.1448,16.6718],[43.13594,16.66272],[43.14633,16.63642],[43.1393,16.62197],[43.14217,16.60544],[43.13983,16.59661],[43.12947,16.59261],[43.12975,16.57392],[43.12642,16.57467],[43.12072,16.52858],[43.06717,16.52967],[43.05883,16.52517],[42.99217,16.52169],[42.95031,16.49697],[42.94475,16.48981],[42.93797,16.45072],[42.9465,16.43531],[42.93834,16.40871],[42.95,16.40761],[42.95646,16.40213],[42.83061,16.37953],[42.82736,16.38822],[42.80367,16.40128],[42.77097,16.40411],[42.76731,16.4067],[42.76355,16.42031],[42.7602,16.42182],[42.76066,16.42775],[42.77043,16.4366],[42.77679,16.45264],[42.77294,16.47448],[42.75453,16.4972],[42.74626,16.49698],[42.73726,16.5019],[42.73225,16.53107],[42.72629,16.53886],[42.72628,16.5507],[42.71514,16.56732],[42.71376,16.58275],[42.71748,16.59515],[42.7167,16.60467],[42.72096,16.60626],[42.72973,16.63184],[42.73006,16.64961],[42.72731,16.65628],[42.73097,16.66288],[42.7304,16.66609],[42.72155,16.66896],[42.71155,16.66717],[42.70682,16.67227],[42.73012,16.66686],[42.73635,16.67105],[42.73454,16.67695],[42.72756,16.67997],[42.72228,16.67489],[42.71679,16.67624],[42.72015,16.69713],[42.71637,16.70018],[42.71412,16.68741],[42.7086,16.69109],[42.70672,16.71398],[42.69693,16.7288],[42.68856,16.7354],[42.68784,16.74003],[42.69291,16.74086],[42.69336,16.73649],[42.7013,16.73194],[42.70124,16.72525],[42.70491,16.72052],[42.71421,16.73543],[42.70499,16.73559],[42.69501,16.74397],[42.6894,16.74378],[42.67213,16.77976],[42.67514,16.78494],[42.6661,16.79179],[42.65944,16.7903],[42.65161,16.79626],[42.65177,16.80527],[42.63938,16.81311],[42.63203,16.82358],[42.62075,16.82821],[42.60698,16.82818],[42.59926,16.8362],[42.59013,16.8397],[42.57622,16.84005],[42.57376,16.84465],[42.58121,16.84693],[42.5768,16.85731],[42.57158,16.85814],[42.56058,16.87179],[42.54933,16.87333],[42.53408,16.88447],[42.53424,16.89271],[42.53845,16.89739],[42.53693,16.90149],[42.54603,16.9007],[42.5459,16.91074],[42.55095,16.91376],[42.55363,16.92306],[42.55071,16.93229],[42.55454,16.93569],[42.55381,16.94057],[42.54951,16.94232],[42.54578,16.95103],[42.54859,16.97166],[42.55289,16.98072],[42.55237,16.98972],[42.55939,16.99495],[42.55079,17.00798],[42.55427,17.00802],[42.55687,17.01397],[42.55027,17.01698],[42.54594,17.01075],[42.53977,17.01248],[42.54306,17.01587],[42.54016,17.02317],[42.53188,17.02191],[42.5268,17.03215],[42.49118,17.04419],[42.46574,17.04581],[42.45222,17.05581],[42.45051,17.06389],[42.44618,17.06719],[42.44594,17.07491],[42.43378,17.08376],[42.4157,17.10425],[42.41479,17.13088],[42.42107,17.14152],[42.42096,17.14949],[42.42507,17.15238],[42.42485,17.15907],[42.39878,17.16568],[42.36302,17.18607],[42.35982,17.185],[42.36274,17.17731],[42.35915,17.17547],[42.36192,17.16881],[42.37618,17.15458],[42.37627,17.1484],[42.38256,17.13858],[42.3791,17.13686],[42.38076,17.1334],[42.39463,17.11775],[42.38022,17.11461],[42.3693,17.10147],[42.37,17.08938],[42.37822,17.0761],[42.37484,17.06885],[42.37664,17.03567],[42.38071,17.02842],[42.37185,17.01476],[42.36867,17.03145],[42.36493,17.12612],[42.35331,17.17153],[42.33793,17.20839],[42.33834,17.22641],[42.33458,17.24567],[42.3372,17.28714],[42.33008,17.30687],[42.32909,17.3295],[42.32332,17.34796],[42.32289,17.341],[42.31761,17.33578],[42.31085,17.33955],[42.31451,17.34578],[42.31423,17.36482],[42.32076,17.37701],[42.32491,17.39585],[42.32375,17.42003],[42.31815,17.43643],[42.30497,17.44809],[42.29218,17.45178],[42.28517,17.46339],[42.28212,17.45228],[42.27907,17.45868],[42.27628,17.45722],[42.28221,17.44585],[42.27371,17.44947],[42.2678,17.46817],[42.25913,17.47449],[42.25453,17.48601],[42.25716,17.48939],[42.2408,17.49843],[42.24114,17.50268],[42.23818,17.50302],[42.24081,17.50653],[42.23477,17.50684],[42.23263,17.51504],[42.21663,17.52653],[42.20963,17.52823],[42.19678,17.54426],[42.18026,17.55445],[42.18064,17.55849],[42.16212,17.565],[42.15829,17.56958],[42.15265,17.57014],[42.1523,17.5749],[42.14394,17.57786],[42.14021,17.57601],[42.14178,17.56162],[42.13947,17.56339],[42.13611,17.5726],[42.13909,17.58732],[42.13658,17.60208],[42.1146,17.62582],[42.08814,17.64447],[42.07693,17.65666],[42.06214,17.65837],[42.05869,17.65626],[42.05421,17.65915],[42.04529,17.67986],[42.03859,17.68684],[42.0199,17.69697],[42.0129,17.69841],[42.01094,17.69529],[42.00187,17.69953],[42.00013,17.7039],[41.99283,17.70733],[41.99584,17.71115],[41.98656,17.71],[41.98158,17.71728],[41.96689,17.72188],[41.95243,17.74088],[41.93377,17.74914],[41.92622,17.76366],[41.91389,17.76526],[41.90403,17.7703],[41.8982,17.77514],[41.89651,17.78701],[41.88206,17.79854],[41.88973,17.79933],[41.89146,17.80664],[41.88479,17.80931],[41.87688,17.80235],[41.86597,17.80843],[41.85949,17.80659],[41.83537,17.81042],[41.82692,17.81994],[41.81279,17.82683],[41.80595,17.83594],[41.78881,17.83966],[41.77986,17.83451],[41.77215,17.84002],[41.77166,17.84286],[41.78009,17.84917],[41.77734,17.8626],[41.76482,17.86947],[41.76119,17.87801],[41.71973,17.90922],[41.70526,17.92975],[41.69644,17.93348],[41.69654,17.94017],[41.68226,17.94706],[41.69097,17.95363],[41.69211,17.95825],[41.68501,17.96002],[41.68067,17.96613],[41.67881,17.97696],[41.66914,17.97774],[41.66477,17.98205],[41.66527,17.98847],[41.66712,17.98652],[41.67283,17.99069],[41.67441,18.00585],[41.66931,18.00695],[41.6681,18.01572],[41.6619,18.01503],[41.66038,18.01222],[41.6633,18.00961],[41.65363,17.99275],[41.64864,17.99153],[41.64815,17.99489],[41.64009,17.99525],[41.63733,17.99941],[41.6385,18.00583],[41.63252,18.01054],[41.63448,18.01605],[41.65169,18.01556],[41.65307,18.01824],[41.64128,18.03024],[41.6465,18.03738],[41.64347,18.04154],[41.64545,18.0482],[41.64304,18.04849],[41.6431,18.05312],[41.62941,18.05472],[41.61393,18.06369],[41.60287,18.0619],[41.6018,18.08058],[41.58635,18.09095],[41.58179,18.10131],[41.58403,18.10746],[41.58113,18.12963],[41.58011,18.13351],[41.57593,18.13305],[41.57684,18.14951],[41.57059,18.15474],[41.57074,18.16465],[41.54631,18.16948],[41.55094,18.17353],[41.5606,18.17122],[41.56305,18.17324],[41.55376,18.18199],[41.55176,18.19308],[41.5424,18.19707],[41.5342,18.20747],[41.52469,18.20168],[41.52429,18.21146],[41.53145,18.21317],[41.53552,18.22419],[41.52776,18.22789],[41.52843,18.23663],[41.51879,18.24088],[41.51547,18.25379],[41.51142,18.25307],[41.51218,18.24933],[41.50335,18.25357],[41.50026,18.23572],[41.50033,18.23083],[41.50301,18.23002],[41.49864,18.22609],[41.49133,18.23275],[41.49141,18.24793],[41.50022,18.25168],[41.50946,18.26636],[41.50992,18.26069],[41.51288,18.26052],[41.51561,18.27232],[41.50149,18.27418],[41.50796,18.28375],[41.50273,18.28575],[41.49797,18.28259],[41.49736,18.28723],[41.48903,18.28863],[41.49366,18.29217],[41.48831,18.29482],[41.48638,18.2915],[41.47637,18.28918],[41.47281,18.29425],[41.47259,18.30763],[41.48156,18.31267],[41.47119,18.32258],[41.46809,18.33189],[41.46005,18.3356],[41.44241,18.39348],[41.44191,18.40584],[41.45492,18.41108],[41.45071,18.41783],[41.45332,18.4214],[41.44981,18.43097],[41.44501,18.4345],[41.4413,18.42953],[41.44221,18.44651],[41.43774,18.45429],[41.44036,18.45589],[41.43088,18.46519],[41.4384,18.48234],[41.43138,18.48165],[41.42796,18.48775],[41.41958,18.48682],[41.42043,18.47973],[41.41603,18.47387],[41.41434,18.48805],[41.42431,18.49719],[41.41818,18.50242],[41.41941,18.5127],[41.41479,18.51996],[41.37775,18.54411],[41.36648,18.55841],[41.36384,18.5726],[41.3572,18.58092],[41.33886,18.58205],[41.3338,18.58662],[41.32785,18.58618],[41.32835,18.58321],[41.30783,18.58295],[41.30221,18.58636],[41.29435,18.58402],[41.25667,18.6133],[41.25191,18.63086],[41.25565,18.63803],[41.24436,18.64228],[41.24659,18.6474],[41.24516,18.66158],[41.22928,18.68648],[41.21074,18.70421],[41.20551,18.71817],[41.22056,18.753],[41.21739,18.75896],[41.23613,18.80713],[41.23756,18.83337],[41.23397,18.83753],[41.23617,18.84021],[41.24125,18.83616],[41.2437,18.84771],[41.23584,18.85643],[41.23199,18.8512],[41.22657,18.85062],[41.21098,18.85763],[41.18965,18.85994],[41.16047,18.88268],[41.14738,18.93818],[41.1397,18.95062],[41.13054,18.95408],[41.13146,18.96282],[41.13698,18.97099],[41.14351,18.97401],[41.13972,18.9846],[41.14251,18.99049],[41.15193,18.99759],[41.14995,19.01203],[41.15403,19.01353],[41.15526,19.02445],[41.16346,19.03118],[41.1667,19.04041],[41.16544,19.06874],[41.15976,19.08992],[41.14888,19.09674],[41.13858,19.09583],[41.12404,19.10217],[41.10022,19.10309],[41.06976,19.12596],[41.07098,19.1365],[41.06848,19.1422],[41.06145,19.14356],[41.06021,19.15284],[41.04851,19.17074],[41.04843,19.18618],[41.04043,19.19606],[41.04498,19.21325],[41.04225,19.22332],[41.05138,19.2379],[41.04947,19.2477],[41.04558,19.25083],[41.04505,19.2632],[41.03174,19.28291],[41.01661,19.2872],[41.01266,19.31839],[40.99871,19.33116],[40.98191,19.33237],[40.97574,19.33759],[40.97593,19.34273],[40.96938,19.35014],[40.9553,19.35223],[40.95913,19.35476],[40.96115,19.36529],[40.9521,19.37955],[40.94887,19.39374],[40.9512,19.40711],[40.94757,19.4213],[40.96168,19.46595],[40.96219,19.49696],[40.94812,19.50123],[40.94129,19.50864],[40.93763,19.52053],[40.92696,19.52527],[40.92704,19.53171],[40.92219,19.53498],[40.90753,19.53539],[40.89348,19.5412],[40.87828,19.54188],[40.86069,19.54785],[40.84591,19.56113],[40.83617,19.56432],[40.82786,19.57458],[40.80645,19.57891],[40.7896,19.60212],[40.78013,19.60556],[40.77653,19.61229],[40.7789,19.61793],[40.78381,19.6193],[40.78941,19.60959],[40.80105,19.60626],[40.79906,19.59804],[40.80315,19.59941],[40.80257,19.60869],[40.80677,19.6192],[40.80354,19.62258],[40.80447,19.63287],[40.79951,19.63884],[40.79943,19.64399],[40.80437,19.64755],[40.80687,19.66477],[40.81069,19.66602],[40.80858,19.6717],[40.80316,19.67305],[40.8064,19.68357],[40.79007,19.73085],[40.78102,19.74793],[40.77418,19.75649],[40.76607,19.76044],[40.76264,19.77051],[40.73575,19.79858],[40.72671,19.79249],[40.71256,19.79224],[40.70163,19.78732],[40.67656,19.78331],[40.66977,19.78376],[40.65818,19.79391],[40.64973,19.79309],[40.64546,19.78785],[40.65384,19.76962],[40.67143,19.76057],[40.67543,19.7532],[40.68441,19.75324],[40.6762,19.74894],[40.66596,19.75805],[40.65983,19.75708],[40.65838,19.76121],[40.64915,19.7631],[40.63072,19.78232],[40.63138,19.7939],[40.62583,19.79627],[40.62449,19.81198],[40.60895,19.82191],[40.5986,19.8211],[40.58806,19.82827],[40.58343,19.84119],[40.58828,19.85016],[40.58767,19.85737],[40.5828,19.87389],[40.577,19.87858],[40.57504,19.88684],[40.56341,19.89453],[40.55172,19.89592],[40.53709,19.90262],[40.54651,19.91953],[40.5493,19.94062],[40.54724,19.95325],[40.53529,19.97009],[40.52447,19.97739],[40.50436,19.98297],[40.43695,20.02717],[40.43042,20.02851],[40.42735,20.03562],[40.41477,20.04448],[40.41971,20.04843],[40.41758,20.05424],[40.41048,20.05288],[40.40288,20.05577],[40.39637,20.05981],[40.39181,20.06809],[40.39094,20.06179],[40.37303,20.07055],[40.37253,20.07545],[40.329,20.08377],[40.31167,20.09831],[40.30757,20.0959],[40.28579,20.10005],[40.27936,20.11284],[40.27474,20.11506],[40.26113,20.13447],[40.25969,20.14144],[40.2498,20.15],[40.24918,20.15773],[40.23825,20.15408],[40.23092,20.15864],[40.23055,20.16327],[40.237,20.16941],[40.23609,20.19182],[40.22216,20.18972],[40.1963,20.19582],[40.18455,20.19346],[40.17933,20.18821],[40.16899,20.19073],[40.16227,20.20365],[40.15413,20.20988],[40.14442,20.22488],[40.13243,20.22702],[40.1262,20.23247],[40.12709,20.2425],[40.11658,20.26111],[40.1169,20.26832],[40.11175,20.27299],[40.06219,20.28836],[40.04603,20.27957],[40.0103,20.28223],[40.00738,20.27516],[40.01252,20.26818],[40.00198,20.2627],[39.98835,20.26446],[39.98078,20.27634],[39.9691,20.28388],[39.96432,20.28313],[39.95944,20.28959],[39.93837,20.30207],[39.92691,20.30277],[39.92006,20.29908],[39.904,20.3056],[39.90453,20.30289],[39.91406,20.29924],[39.91553,20.29447],[39.911,20.29037],[39.92395,20.28747],[39.93087,20.28086],[39.94042,20.2803],[39.94269,20.27269],[39.95234,20.26569],[39.94767,20.26133],[39.9169,20.27154],[39.88589,20.28973],[39.86982,20.29521],[39.82363,20.33561],[39.79638,20.34578],[39.75094,20.37714],[39.74089,20.38826],[39.73052,20.39165],[39.72892,20.39964],[39.72238,20.40237],[39.70744,20.4211],[39.69926,20.42448],[39.7012,20.42911],[39.69411,20.43403],[39.68292,20.43446],[39.68102,20.43846],[39.6835,20.44411],[39.66552,20.45423],[39.66991,20.45936],[39.67051,20.47185],[39.66122,20.4715],[39.66194,20.47974],[39.65279,20.48106],[39.6482,20.4955],[39.64771,20.50812],[39.65251,20.5117],[39.64993,20.51583],[39.63324,20.51113],[39.62209,20.52701],[39.61295,20.52987],[39.61996,20.54092],[39.62475,20.54322],[39.62408,20.54632],[39.61328,20.54558],[39.61516,20.53656],[39.612,20.53245],[39.60001,20.54202],[39.59187,20.55724],[39.58328,20.56577],[39.58087,20.57891],[39.58677,20.58263],[39.58976,20.5794],[39.60015,20.57936],[39.60667,20.56852],[39.6135,20.56567],[39.61334,20.56],[39.61989,20.55818],[39.61515,20.56901],[39.60574,20.57496],[39.60621,20.5899],[39.60046,20.58644],[39.58871,20.58932],[39.58513,20.58353],[39.58131,20.58458],[39.56093,20.62095],[39.55026,20.6215],[39.54865,20.62872],[39.53406,20.64113],[39.53302,20.6571],[39.51328,20.68728],[39.4991,20.70136],[39.48645,20.72676],[39.48954,20.72856],[39.48469,20.73012],[39.47951,20.73811],[39.46118,20.74074],[39.45626,20.7441],[39.4364,20.78793],[39.43107,20.79155],[39.42375,20.81783],[39.43019,20.81962],[39.44125,20.80568],[39.44014,20.80311],[39.45369,20.79883],[39.46493,20.80511],[39.45126,20.81235],[39.44991,20.81674],[39.45731,20.81878],[39.4565,20.82341],[39.45213,20.82664],[39.44034,20.82461],[39.43872,20.83183],[39.43078,20.83288],[39.42899,20.83147],[39.43459,20.82502],[39.42253,20.82144],[39.40861,20.8413],[39.39931,20.84364],[39.38537,20.85732],[39.3628,20.86845],[39.36363,20.87334],[39.35913,20.88159],[39.36038,20.89008],[39.36107,20.8924],[39.36846,20.88697],[39.37449,20.88799],[39.36998,20.89547],[39.37096,20.90062],[39.36302,20.90475],[39.36262,20.90888],[39.35619,20.91172],[39.34772,20.92333],[39.34361,20.92385],[39.34277,20.91844],[39.33182,20.92246],[39.32249,20.91771],[39.30908,20.92611],[39.30813,20.93113],[39.28529,20.95615],[39.27271,20.97651],[39.2726,20.98862],[39.277,20.99427],[39.27676,21.01256],[39.26731,21.01927],[39.26678,21.03472],[39.25746,21.03422],[39.25774,21.03963],[39.25062,21.04582],[39.25077,21.05303],[39.23941,21.06785],[39.23915,21.07519],[39.23119,21.07378],[39.229,21.0801],[39.22173,21.07856],[39.21475,21.09248],[39.20515,21.09648],[39.20104,21.09417],[39.19637,21.09585],[39.19048,21.10512],[39.18748,21.11362],[39.18927,21.118],[39.17844,21.13011],[39.17845,21.14016],[39.17447,21.14145],[39.16859,21.15613],[39.1675,21.16437],[39.17286,21.17261],[39.16889,21.17982],[39.17123,21.18574],[39.17439,21.186],[39.1659,21.20352],[39.16619,21.21614],[39.15563,21.22876],[39.14451,21.23418],[39.13984,21.24037],[39.12792,21.26767],[39.12298,21.2687],[39.11256,21.29266],[39.10487,21.29859],[39.10309,21.30966],[39.10599,21.32614],[39.11176,21.33167],[39.12124,21.33334],[39.11754,21.33733],[39.10764,21.33644],[39.106,21.34262],[39.11067,21.34854],[39.11397,21.34905],[39.1163,21.33952],[39.12166,21.33347],[39.13004,21.33617],[39.13073,21.34132],[39.12441,21.34209],[39.12483,21.35471],[39.13625,21.36783],[39.13542,21.36165],[39.13102,21.36063],[39.12703,21.35291],[39.1306,21.3493],[39.12854,21.34544],[39.14586,21.348],[39.16896,21.36317],[39.18343,21.39199],[39.18083,21.3974],[39.18208,21.40822],[39.18483,21.4095],[39.18743,21.40345],[39.19006,21.41387],[39.17728,21.42213],[39.16851,21.4448],[39.16218,21.44403],[39.16341,21.43528],[39.16079,21.43167],[39.15943,21.44326],[39.15585,21.44275],[39.15421,21.44764],[39.15943,21.44815],[39.15725,21.46335],[39.1611,21.46283],[39.16383,21.44738],[39.16824,21.44789],[39.16468,21.46617],[39.15808,21.46747],[39.15918,21.47043],[39.16358,21.47042],[39.16167,21.48163],[39.15754,21.48137],[39.15836,21.47442],[39.15478,21.47005],[39.15258,21.46928],[39.14983,21.47417],[39.1512,21.46979],[39.14873,21.46799],[39.15067,21.48357],[39.1614,21.48472],[39.16058,21.49219],[39.16691,21.49295],[39.16883,21.4869],[39.17571,21.48779],[39.17213,21.48831],[39.17145,21.4932],[39.16114,21.50146],[39.16335,21.50712],[39.16005,21.51227],[39.15386,21.51408],[39.15016,21.52387],[39.15677,21.5303],[39.15595,21.53391],[39.14026,21.53469],[39.13694,21.51821],[39.12896,21.51539],[39.13158,21.52594],[39.11852,21.53265],[39.1155,21.53986],[39.11219,21.54038],[39.1155,21.54347],[39.10508,21.59677],[39.10702,21.61634],[39.09521,21.66656],[39.09783,21.66991],[39.09591,21.67789],[39.08587,21.70236],[39.08601,21.70493],[39.09469,21.70596],[39.0969,21.71548],[39.10131,21.71831],[39.11344,21.71985],[39.11758,21.73324],[39.13192,21.74713],[39.13911,21.76798],[39.13139,21.76284],[39.12958,21.751],[39.11621,21.74817],[39.11538,21.73813],[39.11083,21.73479],[39.11179,21.72346],[39.10655,21.72462],[39.0958,21.71909],[39.09221,21.70725],[39.08275,21.71],[39.07706,21.72554],[39.07486,21.72889],[39.07238,21.7276],[39.06137,21.74769],[39.05448,21.75413],[39.05158,21.76108],[39.0538,21.77473],[39.04649,21.78323],[39.04388,21.7925],[39.0385,21.80048],[39.02858,21.80332],[39.01314,21.81799],[39.02679,21.82804],[39.02803,21.83061],[39.02445,21.83396],[39.03148,21.83318],[39.02941,21.83692],[39.01976,21.83177],[39.01838,21.82752],[39.01548,21.82855],[39.01452,21.82443],[39.00762,21.82778],[39.00624,21.83473],[39.00266,21.83306],[38.99894,21.83937],[39.00169,21.84143],[38.98721,21.84915],[38.98859,21.85224],[38.97963,21.85842],[38.96983,21.88468],[38.96569,21.88571],[38.95575,21.90528],[38.95023,21.90631],[38.94885,21.90965],[38.95354,21.91107],[38.95161,21.91532],[38.94913,21.91467],[38.94912,21.92742],[38.95768,21.93128],[38.95547,21.93849],[38.94774,21.93862],[38.94746,21.943],[38.95933,21.94789],[38.94801,21.94686],[38.96264,21.95575],[38.95049,21.95407],[38.96236,21.95755],[38.94497,21.95651],[38.95574,21.96154],[38.94552,21.95819],[38.94663,21.96076],[38.96015,21.96579],[38.94249,21.96205],[38.93973,21.95574],[38.93752,21.96115],[38.94414,21.96269],[38.94814,21.97042],[38.94358,21.98098],[38.9382,21.982],[38.94013,21.98612],[38.93225,22.01419],[38.94067,22.0214],[38.93997,22.02887],[38.94729,22.03144],[38.9571,22.01947],[38.96649,22.01819],[38.96276,22.03299],[38.97725,22.04008],[38.97753,22.03377],[38.9872,22.03686],[38.98582,22.02965],[38.97284,22.02707],[38.97284,22.02295],[38.97836,22.02295],[38.97823,22.00236],[38.96622,21.98356],[38.97036,21.98021],[38.97602,21.98279],[38.98044,21.98021],[38.9872,21.99116],[39.00818,21.98549],[39.0115,21.98807],[39.00984,21.99875],[39.01592,21.99991],[39.01854,22.0106],[39.01371,22.0281],[39.01067,22.02913],[39.01509,22.06158],[39.02587,22.0702],[39.03692,22.06479],[39.03305,22.06325],[39.0347,22.05848],[39.05377,22.06208],[39.04673,22.08758],[39.04977,22.10019],[39.05406,22.10225],[39.05047,22.10895],[39.06042,22.12362],[39.0578,22.13238],[39.06181,22.14731],[39.05684,22.14795],[39.05408,22.15246],[39.05588,22.16147],[39.0527,22.16482],[39.04938,22.16405],[39.048,22.15452],[39.05131,22.15516],[39.05131,22.1522],[39.04412,22.14319],[39.03264,22.1038],[39.03333,22.09891],[39.03637,22.09865],[39.03637,22.08655],[39.03333,22.08578],[39.03085,22.09325],[39.02283,22.08707],[39.01827,22.09273],[39.02173,22.09943],[39.02118,22.10818],[39.04205,22.14551],[39.0386,22.15967],[39.04178,22.1692],[39.03736,22.17693],[39.04441,22.18465],[39.03446,22.18233],[39.04317,22.18748],[39.04096,22.20344],[39.04525,22.21194],[39.05396,22.21529],[39.06019,22.23099],[39.08164,22.25338],[39.09078,22.28453],[39.09673,22.28144],[39.09342,22.29071],[39.08954,22.29303],[39.08525,22.29123],[39.08816,22.29625],[39.09979,22.29972],[39.09924,22.30384],[39.09052,22.31105],[39.09233,22.32418],[39.09524,22.32495],[39.09496,22.31903],[39.09966,22.32031],[39.1041,22.33473],[39.10259,22.34258],[39.09705,22.34349],[39.09483,22.33911],[39.08791,22.33989],[39.0893,22.34941],[39.09207,22.35353],[39.09359,22.34684],[39.10231,22.34361],[39.10702,22.3543],[39.1091,22.35172],[39.11353,22.35403],[39.10896,22.35661],[39.11049,22.36356],[39.11783,22.366],[39.11977,22.36986],[39.13527,22.36998],[39.13765,22.3947],[39.14292,22.40473],[39.13946,22.41092],[39.12673,22.41414],[39.12423,22.40784],[39.11593,22.40939],[39.11177,22.40604],[39.12242,22.39806],[39.1231,22.37823],[39.10566,22.38185],[39.10607,22.37489],[39.09983,22.36048],[39.09471,22.36229],[39.09694,22.38288],[39.08545,22.38907],[39.07563,22.40323],[39.07633,22.41456],[39.08243,22.42666],[39.08286,22.44777],[39.08924,22.46064],[39.08814,22.473],[39.07984,22.49541],[39.08512,22.51935],[39.08652,22.55514],[39.0785,22.58037],[39.07199,22.59093],[39.05675,22.61462],[39.05301,22.61591],[39.05176,22.62158],[39.04816,22.62158],[39.03194,22.64295],[39.02736,22.65917],[39.02834,22.66844],[39.02043,22.69058],[39.0049,22.71144],[38.99962,22.7126],[38.9913,22.72277],[38.98797,22.73332],[38.9981,22.73693],[39.00184,22.73204],[39.00739,22.73525],[39.00309,22.74439],[39.01225,22.75083],[39.01156,22.75701],[39.00143,22.75083],[38.99824,22.7507],[38.99935,22.75547],[38.99324,22.75315],[38.98658,22.75534],[38.98477,22.75135],[38.98977,22.74439],[38.98963,22.74118],[38.9863,22.7413],[38.95825,22.78481],[38.95436,22.78687],[38.94269,22.8121],[38.93325,22.81724],[38.92713,22.82883],[38.91671,22.83551],[38.88751,22.87798],[38.88444,22.8911],[38.84994,22.9369],[38.8623,22.94013],[38.87426,22.93383],[38.87858,22.92637],[38.88678,22.92367],[38.89346,22.90836],[38.90111,22.90322],[38.91168,22.88108],[38.92461,22.86873],[38.926,22.86332],[38.91933,22.86461],[38.91669,22.86049],[38.92184,22.85161],[38.92767,22.85097],[38.92976,22.8538],[38.9574,22.84686],[38.97253,22.86308],[38.95516,22.88702],[38.95016,22.88741],[38.94543,22.89706],[38.9371,22.90182],[38.93445,22.91302],[38.9204,22.93953],[38.919,22.95755],[38.90843,22.96527],[38.89647,22.96899],[38.88062,22.96769],[38.87006,22.97065],[38.86476,22.98081],[38.83779,22.98117],[38.83736,22.9943],[38.83054,22.99829],[38.82665,22.99429],[38.82708,22.98374],[38.83405,22.97113],[38.83252,22.96907],[38.82695,22.97962],[38.81442,22.98861],[38.79017,23.02849],[38.7889,23.03878],[38.81042,23.06636],[38.81166,23.07692],[38.80873,23.0818],[38.8122,23.08721],[38.80801,23.10034],[38.80924,23.11424],[38.8066,23.11553],[38.80393,23.1284],[38.79724,23.13392],[38.79848,23.14332],[38.79277,23.14975],[38.7905,23.17498],[38.7866,23.17497],[38.79121,23.16777],[38.78915,23.14923],[38.78595,23.14923],[38.77493,23.16131],[38.77796,23.17753],[38.78144,23.18063],[38.78701,23.17909],[38.78337,23.19402],[38.77543,23.19581],[38.77879,23.18243],[38.76905,23.18254],[38.76739,23.17572],[38.76265,23.177],[38.75594,23.18934],[38.74172,23.20116],[38.7255,23.23332],[38.71573,23.24257],[38.70578,23.27113],[38.70661,23.27447],[38.71037,23.27178],[38.71301,23.27732],[38.71077,23.28092],[38.70449,23.28811],[38.70198,23.28734],[38.69851,23.28115],[38.70229,23.27292],[38.69866,23.27497],[38.6939,23.28681],[38.68412,23.29811],[38.68438,23.30416],[38.69136,23.29839],[38.69333,23.2917],[38.69598,23.29196],[38.6954,23.29865],[38.69136,23.3007],[38.68338,23.31665],[38.68809,23.32773],[38.69603,23.32864],[38.69714,23.33341],[38.68096,23.3375],[38.67968,23.34522],[38.67228,23.3537],[38.67146,23.34674],[38.66811,23.34777],[38.66836,23.35935],[38.67422,23.35846],[38.67616,23.36194],[38.67197,23.36425],[38.67098,23.36914],[38.67444,23.38073],[38.67038,23.3851],[38.67175,23.39772],[38.66586,23.40929],[38.66638,23.42397],[38.66343,23.43348],[38.66064,23.43348],[38.66039,23.42061],[38.65453,23.42214],[38.6513,23.43114],[38.65141,23.44247],[38.64497,23.45172],[38.64172,23.46536],[38.64394,23.47154],[38.6393,23.4844],[38.6377,23.50705],[38.62218,23.5168],[38.61683,23.53326],[38.60453,23.53812],[38.59935,23.54351],[38.60499,23.57133],[38.59605,23.57247],[38.58798,23.56112],[38.58212,23.56084],[38.5799,23.55685],[38.57333,23.55915],[38.56841,23.56814],[38.5645,23.56955],[38.5592,23.56812],[38.55642,23.56322],[38.55604,23.55189],[38.55998,23.54392],[38.56487,23.54072],[38.58414,23.53897],[38.58919,23.53345],[38.58192,23.53459],[38.58052,23.5378],[38.56631,23.52811],[38.55316,23.53734],[38.5431,23.54001],[38.54709,23.55624],[38.5473,23.57709],[38.54434,23.58352],[38.54155,23.58326],[38.54025,23.59432],[38.54345,23.59896],[38.53843,23.59818],[38.53658,23.60589],[38.52833,23.6105],[38.51682,23.62411],[38.52942,23.61759],[38.53108,23.62055],[38.52661,23.62234],[38.52602,23.63006],[38.53496,23.6315],[38.52963,23.63625],[38.51597,23.62643],[38.50967,23.63207],[38.51174,23.63787],[38.50249,23.64518],[38.50608,23.65677],[38.49531,23.6606],[38.50132,23.66087],[38.50213,23.66654],[38.4985,23.6673],[38.49678,23.67656],[38.49259,23.67784],[38.49502,23.66291],[38.49181,23.66162],[38.48321,23.68064],[38.47469,23.71407],[38.46922,23.71843],[38.46256,23.74003],[38.46366,23.78045],[38.45946,23.78147],[38.44244,23.80431],[38.43275,23.81174],[38.41988,23.81092],[38.40434,23.8155],[38.37347,23.86377],[38.36842,23.86517],[38.35604,23.87889],[38.33922,23.88396],[38.31141,23.90057],[38.2922,23.93318],[38.28715,23.93444],[38.28371,23.9231],[38.28723,23.91951],[38.28247,23.92052],[38.28629,23.9383],[38.26189,23.94436],[38.26187,23.94771],[38.24953,23.95022],[38.24194,23.95559],[38.23454,23.94337],[38.22853,23.94934],[38.23567,23.94964],[38.23468,23.95143],[38.21619,23.95289],[38.21614,23.96138],[38.20493,23.96171],[38.19,23.97553],[38.2054,23.97651],[38.19363,23.97658],[38.18745,23.98002],[38.19189,23.98674],[38.18433,23.98592],[38.18444,23.9903],[38.18957,23.99908],[38.17893,23.99774],[38.16832,23.99176],[38.15534,24.0061],[38.15515,24.01434],[38.15053,24.01406],[38.15075,24.02229],[38.13668,24.03122],[38.12476,24.0327],[38.11533,24.03934],[38.10738,24.05319],[38.10147,24.05637],[38.09757,24.05391],[38.08375,24.06618],[38.07785,24.06717],[38.08198,24.07724],[38.07557,24.07205],[38.06979,24.05837],[38.0653,24.0586],[38.05486,24.06716],[38.06464,24.07263],[38.07349,24.06972],[38.07495,24.08028],[38.07074,24.08206],[38.06657,24.0765],[38.06347,24.07893],[38.05258,24.07345],[38.04981,24.0688],[38.03943,24.0699],[38.01859,24.08199],[37.99584,24.10552],[37.96893,24.12182],[37.95085,24.13817],[37.93368,24.145],[37.93812,24.15056],[37.95046,24.1509],[37.95493,24.15402],[37.95973,24.16731],[37.96884,24.16827],[37.98066,24.16334],[37.98176,24.16604],[37.97776,24.17528],[37.96374,24.17442],[37.95507,24.17063],[37.95404,24.15981],[37.93945,24.15971],[37.93162,24.1733],[37.93325,24.18],[37.93504,24.18439],[37.94288,24.18586],[37.95274,24.19815],[37.95194,24.21024],[37.9351,24.21013],[37.94131,24.20657],[37.93938,24.20192],[37.9189,24.20139],[37.91192,24.19735],[37.91185,24.18937],[37.92717,24.18536],[37.93058,24.18049],[37.92387,24.17787],[37.92905,24.16285],[37.9337,24.15993],[37.93376,24.15246],[37.9289,24.14625],[37.89377,24.15514],[37.86125,24.15207],[37.84746,24.15724],[37.83061,24.17487],[37.82004,24.18071],[37.81349,24.19121],[37.78105,24.20923],[37.77481,24.21587],[37.7723,24.22923],[37.7604,24.24072],[37.76456,24.2459],[37.75647,24.25561],[37.75056,24.25685],[37.74771,24.26107],[37.74125,24.26128],[37.73738,24.2552],[37.73261,24.25503],[37.71599,24.2612],[37.71701,24.27099],[37.71078,24.27608],[37.69701,24.27802],[37.69485,24.28315],[37.69782,24.2945],[37.69284,24.30063],[37.66845,24.29733],[37.6789,24.29125],[37.67724,24.2893],[37.65559,24.2922],[37.6461,24.28633],[37.62895,24.28849],[37.62381,24.29629],[37.6171,24.29404],[37.61421,24.28861],[37.62432,24.27545],[37.62965,24.27588],[37.63437,24.26692],[37.6267,24.26248],[37.62538,24.25539],[37.6327,24.25249],[37.63051,24.24733],[37.59594,24.25151],[37.57579,24.24631],[37.569,24.26349],[37.56037,24.26984],[37.53786,24.27464],[37.52388,24.26962],[37.50462,24.28397],[37.50022,24.28805],[37.49511,24.30472],[37.47691,24.32358],[37.47711,24.33028],[37.47117,24.33408],[37.4694,24.34127],[37.43928,24.35769],[37.42692,24.3694],[37.42493,24.39408],[37.43399,24.39958],[37.43192,24.40779],[37.43518,24.41735],[37.45146,24.40696],[37.45623,24.40817],[37.46135,24.41401],[37.45893,24.42866],[37.46093,24.43769],[37.44699,24.45118],[37.44604,24.45992],[37.43583,24.46715],[37.43455,24.47936],[37.43034,24.47855],[37.43151,24.47483],[37.42785,24.47543],[37.42136,24.50007],[37.41475,24.51106],[37.40289,24.51506],[37.39638,24.52914],[37.38577,24.53417],[37.38214,24.54289],[37.37321,24.54832],[37.36299,24.5769],[37.35458,24.58505],[37.34922,24.59708],[37.34754,24.60684],[37.33888,24.61292],[37.33697,24.61856],[37.34188,24.63045],[37.33717,24.63581],[37.33182,24.63575],[37.33363,24.62625],[37.3283,24.6249],[37.32778,24.62181],[37.31875,24.62351],[37.31933,24.63252],[37.31093,24.65018],[37.29504,24.67007],[37.29354,24.67675],[37.28596,24.67486],[37.26207,24.69157],[37.24144,24.69673],[37.23913,24.70056],[37.2213,24.70679],[37.22125,24.71013],[37.22753,24.71432],[37.22768,24.72359],[37.22051,24.73225],[37.21779,24.74534],[37.20823,24.76401],[37.21881,24.76298],[37.22567,24.75624],[37.23223,24.76044],[37.23284,24.76688],[37.22037,24.77226],[37.22596,24.77567],[37.23095,24.7913],[37.21464,24.79857],[37.21315,24.8037],[37.19965,24.8016],[37.20028,24.79737],[37.20507,24.79742],[37.21363,24.79019],[37.19628,24.78162],[37.19888,24.77676],[37.19353,24.77696],[37.183,24.7933],[37.17556,24.79153],[37.16624,24.81162],[37.15504,24.82589],[37.16499,24.83952],[37.17513,24.84016],[37.19638,24.83283],[37.21627,24.83178],[37.20048,24.82207],[37.19062,24.82169],[37.19924,24.81048],[37.20711,24.81224],[37.20872,24.81792],[37.22168,24.81885],[37.22244,24.82439],[37.23475,24.84101],[37.255,24.85488],[37.26594,24.86942],[37.24891,24.89727],[37.24892,24.90653],[37.25759,24.93159],[37.26877,24.9397],[37.2818,24.95657],[37.28437,24.96407],[37.28248,24.97871],[37.286,24.98904],[37.28351,24.99596],[37.2744,25.00152],[37.26593,25.02149],[37.25531,25.0332],[37.25183,25.03985],[37.25166,25.05143],[37.244,25.0642],[37.24501,25.07245],[37.26272,25.08835],[37.26658,25.10564],[37.26006,25.12692],[37.26412,25.12979],[37.25889,25.1498],[37.2504,25.17029],[37.24464,25.17742],[37.23925,25.17865],[37.23908,25.19022],[37.22864,25.19859],[37.22856,25.20425],[37.21897,25.20272],[37.20728,25.20914],[37.19509,25.22983],[37.18538,25.23653],[37.17802,25.2367],[37.13042,25.29721],[37.12015,25.30222],[37.11092,25.31343],[37.108,25.33757],[37.09858,25.34234],[37.08879,25.35276],[37.09103,25.38109],[37.08554,25.38848],[37.08325,25.39849],[37.07703,25.39789],[37.07486,25.40095],[37.0776,25.42465],[37.07414,25.42847],[37.0769,25.44214],[37.0642,25.45664],[37.05097,25.45955],[37.04814,25.468],[37.03906,25.46891],[37.03634,25.47917],[37.02547,25.48545],[37.02284,25.4903],[36.999,25.50079],[37.00127,25.50905],[36.99806,25.51467],[37.00274,25.52322],[36.99758,25.52636],[37.00037,25.54634],[36.99305,25.55164],[36.99308,25.55833],[36.98803,25.55505],[36.98121,25.55572],[36.97876,25.5499],[36.97473,25.55319],[36.97276,25.56037],[36.97536,25.56619],[36.97258,25.57117],[36.97846,25.56739],[36.97232,25.57863],[36.96314,25.58442],[36.96113,25.59417],[36.96775,25.60558],[36.96368,25.61144],[36.94748,25.62124],[36.94041,25.64455],[36.92471,25.65771],[36.9168,25.65592],[36.90218,25.66395],[36.89868,25.6612],[36.8841,25.67488],[36.87419,25.67396],[36.8723,25.67599],[36.87499,25.68452],[36.87018,25.69165],[36.85056,25.70886],[36.84547,25.71599],[36.84564,25.72191],[36.82712,25.73346],[36.82013,25.74262],[36.82111,25.75138],[36.80539,25.7568],[36.79882,25.75079],[36.80758,25.73806],[36.81267,25.71614],[36.80733,25.71284],[36.80489,25.71435],[36.80368,25.71073],[36.7839,25.72098],[36.77108,25.73802],[36.74694,25.7379],[36.73554,25.75522],[36.72698,25.75714],[36.72053,25.76759],[36.72115,25.77995],[36.71743,25.78143],[36.71787,25.78813],[36.71245,25.78894],[36.70241,25.77914],[36.69636,25.78367],[36.69316,25.79468],[36.69557,25.80218],[36.67718,25.82735],[36.67217,25.84373],[36.64444,25.85152],[36.6521,25.86682],[36.6642,25.88065],[36.67558,25.88726],[36.68417,25.89871],[36.69493,25.92332],[36.70339,25.95638],[36.69898,25.96377],[36.70017,25.96842],[36.71147,25.97992],[36.71177,25.99381],[36.70542,26.00554],[36.70864,26.02283],[36.70579,26.03076],[36.6998,26.03105],[36.68829,26.04462],[36.67635,26.05086],[36.65057,26.05829],[36.63264,26.05787],[36.63085,26.06183],[36.6223,26.06233],[36.618,26.05686],[36.61331,26.05614],[36.61432,26.06246],[36.60134,26.05671],[36.5713,26.06354],[36.57775,26.06853],[36.57624,26.07262],[36.56494,26.06793],[36.55505,26.07792],[36.52165,26.09523],[36.51497,26.10142],[36.51342,26.1073],[36.493,26.1229],[36.49287,26.12907],[36.48432,26.14255],[36.48307,26.17442],[36.47503,26.18354],[36.45953,26.22133],[36.46353,26.22757],[36.45587,26.22564],[36.44526,26.24808],[36.43365,26.26382],[36.40987,26.28782],[36.40108,26.31081],[36.37158,26.35348],[36.36607,26.36984],[36.36813,26.3736],[36.35712,26.38047],[36.34489,26.40365],[36.34582,26.41909],[36.34068,26.43752],[36.31981,26.46901],[36.31149,26.49534],[36.29774,26.51463],[36.28326,26.54701],[36.27441,26.5525],[36.27292,26.56096],[36.24754,26.58799],[36.25275,26.59169],[36.2515,26.59603],[36.24496,26.59436],[36.23612,26.61091],[36.23591,26.61373],[36.24343,26.61041],[36.24665,26.61317],[36.24062,26.62025],[36.23502,26.615],[36.23154,26.61725],[36.22852,26.62362],[36.23013,26.62789],[36.22683,26.62847],[36.22318,26.6374],[36.22488,26.64386],[36.21911,26.64593],[36.21287,26.64363],[36.20951,26.6523],[36.19959,26.66034],[36.17391,26.66883],[36.15941,26.68769],[36.15368,26.71111],[36.14282,26.72169],[36.12433,26.72826],[36.11839,26.72531],[36.0981,26.74084],[36.09134,26.7587],[36.093,26.7721],[36.07839,26.78337],[36.0745,26.79563],[36.06654,26.80421],[36.06896,26.81043],[36.06554,26.80985],[36.06249,26.81698],[36.06071,26.83031],[36.0546,26.83379],[36.04718,26.84932],[36.04644,26.86653],[36.04316,26.87134],[36.04634,26.88144],[36.04497,26.88989],[36.03292,26.90661],[36.0211,26.90893],[36.0152,26.91524],[36.01404,26.92678],[36.00164,26.93989],[35.99154,26.93952],[35.98363,26.94406],[35.96661,26.96216],[35.97006,26.96826],[35.96169,26.97152],[35.94966,26.98334],[35.91583,26.99613],[35.91398,27.00208],[35.90275,27.01208],[35.89731,27.01271],[35.89412,27.02229],[35.88019,27.03929],[35.86688,27.04624],[35.84693,27.07493],[35.81795,27.09917],[35.81103,27.10985],[35.79963,27.11368],[35.80351,27.12518],[35.78823,27.14065],[35.78756,27.15969],[35.79359,27.17706],[35.79818,27.18224],[35.80977,27.18573],[35.81647,27.19485],[35.81673,27.19973],[35.8071,27.20558],[35.80883,27.21686],[35.80632,27.22591],[35.75645,27.28579],[35.74125,27.32286],[35.69569,27.34354],[35.69723,27.34788],[35.68943,27.34675],[35.66097,27.36067],[35.6605,27.3653],[35.65761,27.36472],[35.64183,27.37954],[35.61492,27.41091],[35.60888,27.42375],[35.59114,27.43552],[35.58586,27.46854],[35.54419,27.51199],[35.53483,27.53145],[35.52904,27.5619],[35.54226,27.55973],[35.54561,27.55452],[35.54841,27.5636],[35.5317,27.56442],[35.5312,27.5742],[35.52581,27.58459],[35.52818,27.58724],[35.53159,27.585],[35.53257,27.59012],[35.52591,27.58896],[35.526,27.60528],[35.51835,27.61815],[35.52879,27.62002],[35.52841,27.62234],[35.52265,27.62939],[35.52181,27.624],[35.51565,27.62013],[35.50392,27.63744],[35.49085,27.64668],[35.48033,27.6605],[35.47275,27.67632],[35.47358,27.69405],[35.47047,27.70362],[35.45005,27.73972],[35.44048,27.74504],[35.43684,27.7631],[35.42828,27.77482],[35.41893,27.77705],[35.40954,27.78377],[35.36066,27.79644],[35.35226,27.81574],[35.35292,27.83322],[35.348,27.8531],[35.33254,27.86082],[35.33069,27.86908],[35.32496,27.87175],[35.31911,27.88239],[35.30952,27.88718],[35.30624,27.8965],[35.28162,27.9162],[35.26757,27.95037],[35.25414,27.95908],[35.22995,27.96578],[35.21713,27.9764],[35.21035,27.97779],[35.20961,27.98423],[35.20576,27.98725],[35.16534,28.0014],[35.16284,28.01391],[35.16716,28.01281],[35.19993,28.02798],[35.20388,28.0229],[35.21262,28.0252],[35.21503,28.02967],[35.21276,28.03202],[35.22432,28.03016],[35.22721,28.03693],[35.22233,28.04652],[35.20048,28.05523],[35.19059,28.05359],[35.16981,28.05803],[35.16598,28.05501],[35.15532,28.05852],[35.14772,28.06957],[35.12368,28.0711],[35.10826,28.06851],[35.10656,28.07766],[35.10271,28.08132],[35.08831,28.08617],[35.0592,28.11079],[35.05052,28.11182],[35.04024,28.10503],[35.02555,28.11039],[35.02077,28.11882],[35.01328,28.12137],[35.00618,28.11415],[35.00669,28.11002],[35.01291,28.10942],[35.0146,28.11467],[35.02393,28.10154],[35.02974,28.10197],[35.02747,28.09712],[35.03201,28.09165],[35.02725,28.09288],[35.02281,28.08818],[35.00692,28.10693],[34.99799,28.11054],[34.99128,28.10819],[34.98621,28.10081],[34.94836,28.09261],[34.95065,28.0909],[34.94248,28.08844],[34.92747,28.0758],[34.89182,28.07706],[34.88407,28.08129],[34.87151,28.07644],[34.86084,28.0798],[34.85849,28.07816],[34.86144,28.07272],[34.85198,28.07041],[34.84246,28.07298],[34.84008,28.07815],[34.84452,28.08324],[34.83993,28.095],[34.85658,28.10172],[34.8635,28.10793],[34.85851,28.11263],[34.84865,28.11315],[34.84379,28.10845],[34.8373,28.11047],[34.83475,28.106],[34.82327,28.10461],[34.82887,28.10145],[34.82684,28.09286],[34.82101,28.09075],[34.80589,28.07128],[34.79574,28.07141],[34.79871,28.08436],[34.81831,28.09388],[34.81392,28.10036],[34.81998,28.10697],[34.81409,28.11052],[34.79514,28.10486],[34.79097,28.09835],[34.78369,28.09639],[34.78764,28.08965],[34.78356,28.08855],[34.76879,28.08964],[34.75655,28.09494],[34.76066,28.08923],[34.75474,28.09085],[34.75713,28.08644],[34.76047,28.0864],[34.76188,28.07519],[34.75416,28.07336],[34.759,28.06764],[34.76697,28.06703],[34.77008,28.06236],[34.74004,28.06043],[34.74138,28.07173],[34.75109,28.07135],[34.75664,28.08311],[34.75509,28.0857],[34.74491,28.08416],[34.73983,28.09258],[34.74493,28.0938],[34.75192,28.0869],[34.75499,28.08879],[34.74998,28.09219],[34.7498,28.09914],[34.75477,28.10165],[34.74525,28.10511],[34.74285,28.1],[34.74116,28.10337],[34.73018,28.10556],[34.72621,28.11114],[34.71485,28.10858],[34.71359,28.11143],[34.72242,28.11903],[34.7154,28.12504],[34.71185,28.13871],[34.70469,28.13546],[34.70484,28.12697],[34.69863,28.1282],[34.6942,28.12376],[34.68969,28.13205],[34.68421,28.13378],[34.67953,28.13166],[34.67635,28.11395],[34.67119,28.10835],[34.66378,28.10741],[34.66049,28.10077],[34.64815,28.09088],[34.6605,28.08263],[34.66131,28.07876],[34.66594,28.07845],[34.66897,28.06774],[34.66485,28.06406],[34.66029,28.06939],[34.65505,28.06791],[34.65471,28.06457],[34.64813,28.06079],[34.64515,28.05594],[34.64573,28.0369],[34.63778,28.03828],[34.63895,28.02952],[34.62961,28.025],[34.62367,28.02481],[34.61549,28.03057],[34.61434,28.04061],[34.62278,28.04296],[34.62267,28.04566],[34.61997,28.04916],[34.61428,28.04679],[34.61114,28.04991],[34.61153,28.05685],[34.6045,28.06182],[34.61156,28.07794],[34.60697,28.09098],[34.61032,28.09185],[34.61008,28.09545],[34.59696,28.10062],[34.59287,28.09848],[34.59129,28.08975],[34.58405,28.09099],[34.58195,28.086],[34.57372,28.08841],[34.57494,28.09226],[34.57135,28.09513],[34.57683,28.10278],[34.57533,28.10936],[34.58046,28.11329],[34.58127,28.11868],[34.58334,28.1211],[34.59174,28.12061],[34.58922,28.1263],[34.59854,28.1388],[34.61133,28.14019],[34.60877,28.14357],[34.61554,28.14992],[34.61604,28.15454],[34.6286,28.15954],[34.62699,28.1683],[34.63406,28.17516],[34.64104,28.17623],[34.63923,28.17201],[34.64271,28.17133],[34.64463,28.16436],[34.65827,28.16394],[34.65825,28.1723],[34.64685,28.17681],[34.65488,28.1798],[34.65482,28.18494],[34.6493,28.18449],[34.64678,28.19108],[34.64979,28.19761],[34.6626,28.20041],[34.66182,28.21572],[34.66656,28.22132],[34.66917,28.24007],[34.6717,28.24402],[34.6781,28.24446],[34.6727,28.25173],[34.67518,28.26186],[34.68422,28.26445],[34.68587,28.26764],[34.67963,28.26823],[34.67953,28.27106],[34.69213,28.28685],[34.71822,28.3462],[34.72218,28.34834],[34.72704,28.37026],[34.74048,28.40121],[34.73925,28.4056],[34.75468,28.42444],[34.75692,28.44524],[34.76432,28.45286],[34.76174,28.45521],[34.76677,28.46042],[34.77336,28.48026],[34.79285,28.49647],[34.79738,28.51467],[34.80553,28.52305],[34.80391,28.5475],[34.79883,28.56609],[34.79231,28.57672],[34.7922,28.59575],[34.79728,28.61163],[34.78469,28.65166],[34.77554,28.66232],[34.77686,28.67131],[34.794,28.70143],[34.79746,28.71656],[34.80577,28.72468],[34.80417,28.73344],[34.80961,28.74391],[34.81426,28.76854],[34.81894,28.76899],[34.81529,28.77701],[34.82589,28.79076],[34.83312,28.81226],[34.83321,28.82538],[34.82895,28.83264],[34.8391,28.8451],[34.83426,28.85185],[34.84007,28.86695],[34.83886,28.87288],[34.82165,28.88289],[34.83128,28.89896],[34.83418,28.92258],[34.84305,28.93609],[34.84485,28.97181],[34.85482,28.98144],[34.8612,28.99473],[34.86049,29.01248],[34.84717,29.0281],[34.8538,29.04704],[34.87297,29.07146],[34.8719,29.08536],[34.87825,29.1043],[34.87515,29.11103],[34.88231,29.13433],[34.88174,29.14334],[34.8924,29.14936],[34.89244,29.15965],[34.89823,29.17191],[34.89395,29.17814],[34.89631,29.17914],[34.896,29.18583],[34.9005,29.19181],[34.90803,29.19466],[34.90743,29.20212],[34.91613,29.20483],[34.91012,29.2206],[34.91732,29.22963],[34.92968,29.23189],[34.94113,29.24073],[34.94105,29.24407],[34.93405,29.24597],[34.93794,29.25003],[34.93738,29.2593],[34.93156,29.26941],[34.92874,29.29131],[34.93288,29.29279],[34.93479,29.30099],[34.9439,29.30176],[34.9462,29.29941],[34.95153,29.30178],[34.94448,29.32451],[34.95202,29.33546],[34.94784,29.33937],[34.95717,29.35132],[34.95727,29.35634],[35.0666,29.343],[35.22004,29.31633],[35.51592,29.27372],[35.67624,29.24638],[35.77689,29.23283],[35.84963,29.21625],[36.07253,29.18337],[36.1505,29.2374],[36.22737,29.29685],[36.31032,29.35209],[36.33133,29.373],[36.454,29.44827],[36.52759,29.51464],[36.5472,29.54599],[36.55058,29.56369],[36.60189,29.61712],[36.65192,29.70612],[36.76571,29.8673],[37.03664,29.91711],[37.04963,29.9169],[37.26235,29.95811],[37.47686,29.99154],[37.51722,30.00189],[37.52852,30.0447],[37.67241,30.33393],[38.00607,30.50129],[37.76373,30.74795],[37.53642,30.97256],[37.38868,31.12354],[37.32851,31.18005],[37.26301,31.24979]],[[50.0093,26.08449],[49.998,26.09311],[49.99504,26.08923],[50.00051,26.08232],[50.0093,26.08449]],[[39.48962,20.7286],[39.50111,20.73097],[39.50195,20.73444],[39.49811,20.73342],[39.49607,20.73858],[39.50321,20.7432],[39.50377,20.74706],[39.49571,20.75455],[39.49807,20.7633],[39.48972,20.76435],[39.48563,20.76887],[39.48015,20.76824],[39.48674,20.77183],[39.46758,20.77381],[39.46351,20.78683],[39.45228,20.78699],[39.44707,20.78327],[39.45484,20.77397],[39.45796,20.7647],[39.49072,20.73422],[39.48962,20.7286]]],[[[51.50327,24.3896],[51.50091,24.39733],[51.5047,24.39525],[51.50327,24.3896]]],[[[51.43852,24.52107],[51.43685,24.527],[51.44262,24.52801],[51.43852,24.52107]]],[[[50.42519,25.47471],[50.41774,25.49115],[50.42673,25.47909],[50.42519,25.47471]]],[[[50.3919,25.44254],[50.38706,25.44676],[50.38932,25.44806],[50.3919,25.44254]]],[[[50.35015,25.5094],[50.3416,25.51863],[50.33238,25.54303],[50.30364,25.55847],[50.29817,25.57298],[50.30326,25.5752],[50.31973,25.57373],[50.34037,25.56108],[50.33905,25.54358],[50.35015,25.5094]]],[[[50.16575,26.12801],[50.16046,26.12966],[50.16227,26.1361],[50.16798,26.13485],[50.16575,26.12801]]],[[[50.09779,26.65652],[50.10291,26.66196],[50.10578,26.66017],[50.09779,26.65652]]],[[[49.95596,27.19586],[49.9552,27.19972],[49.95851,27.19948],[49.95596,27.19586]]],[[[49.89588,27.36482],[49.89698,27.37036],[49.90158,27.37168],[49.89588,27.36482]]],[[[49.82189,27.71075],[49.81969,27.71369],[49.82293,27.72092],[49.83012,27.72471],[49.83146,27.72125],[49.82189,27.71075]]],[[[49.61284,27.13912],[49.599,27.14181],[49.59463,27.14653],[49.61284,27.13912]]],[[[49.58134,27.106],[49.57968,27.11203],[49.58587,27.1229],[49.5851,27.12701],[49.59084,27.12758],[49.58454,27.11388],[49.58621,27.10747],[49.58134,27.106]]],[[[49.53624,27.30144],[49.54024,27.30419],[49.54314,27.30229],[49.53624,27.30144]]],[[[49.50432,27.12553],[49.49177,27.13941],[49.48762,27.13834],[49.48783,27.14375],[49.48404,27.14756],[49.48684,27.15351],[49.49309,27.14869],[49.49555,27.13662],[49.50147,27.13463],[49.50432,27.12553]]],[[[49.35622,27.20658],[49.35957,27.21356],[49.35322,27.21477],[49.35271,27.21065],[49.34955,27.20971],[49.34847,27.21472],[49.35721,27.21752],[49.36517,27.2144],[49.35818,27.22949],[49.36741,27.22832],[49.37169,27.22091],[49.37009,27.2124],[49.35622,27.20658]]],[[[49.33167,27.23175],[49.33469,27.25134],[49.35088,27.25668],[49.35175,27.24588],[49.34879,27.24173],[49.33167,27.23175]]],[[[49.28981,27.35344],[49.28378,27.36159],[49.28443,27.36598],[49.29445,27.37021],[49.30241,27.377],[49.30151,27.37982],[49.31556,27.3841],[49.31781,27.37821],[49.3146,27.36197],[49.30838,27.36382],[49.28981,27.35344]]],[[[49.21831,27.39293],[49.21683,27.39561],[49.21167,27.39361],[49.21605,27.39907],[49.21566,27.4055],[49.21016,27.41597],[49.21843,27.4211],[49.22688,27.41542],[49.22744,27.40771],[49.22631,27.39702],[49.21831,27.39293]]],[[[48.62153,28.15114],[48.63048,28.16621],[48.64926,28.18299],[48.65048,28.18069],[48.63917,28.1733],[48.62153,28.15114]]],[[[42.64754,16.42857],[42.64041,16.42321],[42.63733,16.42408],[42.63793,16.42923],[42.64754,16.42857]]],[[[42.54998,16.67652],[42.54792,16.68126],[42.55433,16.69189],[42.56075,16.69042],[42.55492,16.68701],[42.54998,16.67652]]],[[[42.46065,16.80712],[42.45887,16.80993],[42.46354,16.81102],[42.46065,16.80712]]],[[[42.44808,16.7977],[42.45159,16.79517],[42.45036,16.78717],[42.45608,16.77849],[42.44443,16.7907],[42.44367,16.7979],[42.44808,16.7977]]],[[[42.40344,17.00345],[42.42669,16.98573],[42.41093,16.99389],[42.40344,17.00345]]],[[[42.41009,16.88873],[42.41911,16.88408],[42.4153,16.87953],[42.40605,16.8816],[42.40346,16.88543],[42.41009,16.88873]]],[[[42.40337,17.15339],[42.40704,17.14944],[42.40088,17.14937],[42.40337,17.15339]]],[[[42.35766,16.58136],[42.36124,16.57343],[42.35042,16.58359],[42.35766,16.58136]]],[[[42.3393,16.59619],[42.33742,16.59758],[42.34165,16.60008],[42.3393,16.59619]]],[[[42.31613,16.85946],[42.31661,16.8632],[42.32139,16.86558],[42.31986,16.86041],[42.31613,16.85946]]],[[[42.24335,16.43587],[42.27254,16.42686],[42.26804,16.41522],[42.27067,16.40856],[42.26155,16.41205],[42.26575,16.41699],[42.26377,16.4252],[42.25115,16.43108],[42.2437,16.42996],[42.23644,16.43411],[42.24335,16.43587]]],[[[42.27145,16.59003],[42.26387,16.58826],[42.26171,16.59042],[42.26378,16.59456],[42.27145,16.59003]]],[[[42.25745,16.61765],[42.25964,16.61356],[42.2573,16.60941],[42.25466,16.61684],[42.25745,16.61765]]],[[[42.25195,16.51591],[42.24762,16.51083],[42.24519,16.51324],[42.25195,16.51591]]],[[[42.23823,16.58007],[42.23411,16.57899],[42.23408,16.5813],[42.23823,16.58007]]],[[[42.23251,16.737],[42.2343,16.73342],[42.22808,16.73835],[42.23251,16.737]]],[[[42.21622,16.72738],[42.21406,16.72929],[42.22255,16.73275],[42.22207,16.72952],[42.21622,16.72738]]],[[[42.21717,16.7633],[42.21957,16.75394],[42.21117,16.74392],[42.211,16.7555],[42.2141,16.76313],[42.21717,16.7633]]],[[[42.20788,16.71337],[42.20217,16.71986],[42.2067,16.72082],[42.20788,16.71337]]],[[[42.20173,16.73221],[42.19507,16.72156],[42.1975,16.72932],[42.20173,16.73221]]],[[[41.76103,16.89235],[41.77632,16.88861],[41.77912,16.88119],[41.79214,16.86969],[41.82514,16.86184],[41.83386,16.85155],[41.84924,16.84253],[41.85432,16.84274],[41.85487,16.82576],[41.86664,16.81668],[41.8654,16.79453],[41.86987,16.78251],[41.88258,16.76469],[41.89613,16.7528],[41.91063,16.74774],[41.93676,16.75019],[41.95323,16.73937],[41.97414,16.73401],[41.99293,16.74535],[42.00145,16.74715],[42.00447,16.74153],[42.01895,16.73775],[42.02744,16.72462],[42.02733,16.71407],[42.03382,16.70915],[42.04234,16.71043],[42.05708,16.7244],[42.06242,16.72461],[42.06872,16.71441],[42.07459,16.71487],[42.08091,16.72075],[42.08252,16.72901],[42.07679,16.74553],[42.06658,16.74963],[42.06464,16.75424],[42.06011,16.75327],[42.05976,16.75031],[42.07066,16.73579],[42.06871,16.73281],[42.04388,16.73219],[42.03939,16.73715],[42.03795,16.75295],[42.03264,16.75095],[42.04659,16.76427],[42.04692,16.78615],[42.05326,16.79937],[42.05642,16.8025],[42.06668,16.79506],[42.06936,16.81221],[42.08628,16.81502],[42.08889,16.81043],[42.09439,16.80896],[42.09624,16.80152],[42.09944,16.80208],[42.09589,16.78942],[42.10375,16.79108],[42.10824,16.78574],[42.10323,16.78129],[42.10343,16.7764],[42.12434,16.74491],[42.13796,16.74549],[42.15493,16.71793],[42.1805,16.7224],[42.17831,16.70821],[42.16242,16.69911],[42.16077,16.6933],[42.1892,16.71222],[42.19217,16.70994],[42.19226,16.68524],[42.17437,16.66698],[42.17373,16.65642],[42.18196,16.65061],[42.1808,16.62022],[42.19021,16.60645],[42.19395,16.60625],[42.18868,16.59228],[42.1897,16.58637],[42.17938,16.58044],[42.15935,16.58145],[42.14064,16.60989],[42.12621,16.6205],[42.07374,16.63007],[42.07316,16.6334],[42.07712,16.63603],[42.09763,16.63928],[42.10874,16.646],[42.11523,16.65818],[42.11526,16.66513],[42.10765,16.68278],[42.08215,16.69182],[42.0538,16.69502],[42.01789,16.68576],[41.98509,16.68361],[41.98327,16.67174],[41.97626,16.6674],[41.95212,16.67438],[41.94587,16.68175],[41.93326,16.68568],[41.93103,16.69105],[41.92201,16.69632],[41.91619,16.70935],[41.90822,16.71528],[41.88924,16.71667],[41.87172,16.7267],[41.83934,16.75476],[41.83431,16.76858],[41.83378,16.78453],[41.81541,16.8047],[41.79605,16.8125],[41.79103,16.80895],[41.80201,16.80706],[41.77276,16.80725],[41.77421,16.81628],[41.78274,16.82542],[41.78851,16.8394],[41.7834,16.84961],[41.77597,16.85413],[41.77301,16.86373],[41.76081,16.86598],[41.75493,16.88981],[41.76103,16.89235]]],[[[42.04832,16.56421],[42.05472,16.56481],[42.05919,16.56037],[42.05377,16.53945],[42.06806,16.56449],[42.07342,16.5544],[42.06259,16.52954],[42.0548,16.52403],[42.04505,16.52492],[42.03592,16.54615],[42.04062,16.56191],[42.04832,16.56421]]],[[[42.0363,16.65192],[42.04158,16.64711],[42.04331,16.63916],[42.03469,16.62668],[42.03217,16.59937],[42.02624,16.62038],[42.035,16.6326],[42.03018,16.63331],[42.02544,16.62925],[42.01999,16.61913],[42.01593,16.62281],[42.01809,16.60405],[42.00876,16.6119],[42.00995,16.62092],[42.0028,16.62635],[41.99725,16.62254],[41.99755,16.62872],[41.99853,16.63491],[42.01068,16.65168],[42.03331,16.65535],[42.0363,16.65192]]],[[[42.02466,16.84296],[42.02591,16.83963],[42.03845,16.84136],[42.03816,16.83363],[42.0314,16.83032],[42.01532,16.83343],[41.99216,16.82808],[41.99207,16.83399],[41.99736,16.83729],[42.00532,16.84049],[42.01099,16.83697],[42.01819,16.83811],[42.02466,16.84296]]],[[[42.0091,16.79538],[42.00935,16.78844],[42.02034,16.78603],[42.02146,16.7827],[42.01481,16.78054],[42.01748,16.77235],[42.01447,16.76806],[42.01017,16.76992],[42.00323,16.78642],[42.00641,16.79663],[42.0091,16.79538]]],[[[41.92303,16.9552],[41.9327,16.95277],[41.93775,16.94641],[41.93705,16.93971],[41.94199,16.94056],[41.94706,16.93266],[41.9331,16.91135],[41.93634,16.90136],[41.9496,16.88303],[41.98292,16.87156],[41.97871,16.86712],[41.98302,16.86551],[41.98366,16.85034],[41.96847,16.85616],[41.96143,16.85336],[41.9543,16.85647],[41.94416,16.85529],[41.92413,16.84662],[41.92506,16.8384],[41.93358,16.83184],[41.93909,16.82163],[41.95142,16.81898],[41.96278,16.81066],[41.9729,16.81235],[41.98839,16.79637],[42.0111,16.7617],[41.99871,16.75161],[41.98818,16.76729],[41.98829,16.77707],[41.98486,16.78294],[41.97679,16.78655],[41.96483,16.78277],[41.96265,16.78544],[41.92352,16.79335],[41.89203,16.81578],[41.88061,16.81985],[41.88332,16.82568],[41.88182,16.83569],[41.8701,16.84195],[41.86464,16.85705],[41.84406,16.88143],[41.83696,16.89856],[41.84349,16.91539],[41.87316,16.9152],[41.88965,16.9206],[41.90939,16.93955],[41.91821,16.95602],[41.92303,16.9552]]],[[[41.99856,16.80347],[41.99399,16.79671],[41.99627,16.80472],[41.99856,16.80347]]],[[[41.99323,16.59803],[41.98443,16.58916],[41.97563,16.58826],[41.97331,16.59183],[41.98,16.599],[41.99253,16.60021],[41.99323,16.59803]]],[[[41.95523,16.99762],[41.95597,16.99326],[41.95411,16.99298],[41.95523,16.99762]]],[[[41.94581,17.06934],[41.94721,17.06455],[41.94112,17.06915],[41.94581,17.06934]]],[[[41.94528,16.95193],[41.9477,16.94244],[41.94545,16.94099],[41.9419,16.94596],[41.94528,16.95193]]],[[[41.8608,17.01265],[41.86617,17.01386],[41.88449,17.00523],[41.88654,17.00791],[41.89357,17.00433],[41.89291,16.99835],[41.91726,16.98148],[41.93311,16.97696],[41.93734,16.9796],[41.93623,16.97418],[41.94227,16.97247],[41.94206,16.95227],[41.92107,16.96109],[41.91628,16.96745],[41.91408,16.97951],[41.89817,16.98776],[41.90039,16.99062],[41.89117,16.99871],[41.87037,17.00865],[41.84796,17.01244],[41.84804,17.01772],[41.85605,17.01696],[41.8608,17.01265]]],[[[41.9228,17.09527],[41.93927,17.07869],[41.93724,17.07744],[41.92105,17.09414],[41.9228,17.09527]]],[[[41.93474,17.07168],[41.9204,17.07832],[41.90913,17.0938],[41.91607,17.09267],[41.92981,17.08166],[41.93474,17.07168]]],[[[41.92252,16.63071],[41.91684,16.62728],[41.92263,16.62402],[41.92614,16.61288],[41.91621,16.61672],[41.90618,16.62635],[41.91614,16.62933],[41.91489,16.6324],[41.92252,16.63071]]],[[[41.90859,16.42451],[41.91344,16.42163],[41.91267,16.4193],[41.90163,16.41811],[41.8997,16.43017],[41.90611,16.4295],[41.90859,16.42451]]],[[[41.90712,16.9637],[41.90904,16.96065],[41.90557,16.96046],[41.90392,16.9634],[41.90712,16.9637]]],[[[41.85321,16.66659],[41.87258,16.65711],[41.88541,16.63942],[41.87705,16.64495],[41.86074,16.64676],[41.86104,16.65294],[41.84335,16.66528],[41.84463,16.66903],[41.85321,16.66659]]],[[[41.88014,16.47002],[41.87781,16.46523],[41.87614,16.46996],[41.88014,16.47002]]],[[[41.74282,16.73821],[41.78622,16.72989],[41.79966,16.72456],[41.80952,16.71503],[41.80089,16.71493],[41.79534,16.71935],[41.79525,16.71678],[41.81234,16.7007],[41.82756,16.69232],[41.83271,16.67927],[41.81366,16.68541],[41.80552,16.69313],[41.76034,16.69706],[41.7557,16.70316],[41.74039,16.7082],[41.72494,16.7221],[41.72213,16.73004],[41.74396,16.73373],[41.7427,16.72959],[41.75235,16.72755],[41.75311,16.72988],[41.74282,16.73821]]],[[[41.79165,16.98559],[41.8079,16.98147],[41.81112,16.97277],[41.82043,16.96765],[41.81143,16.96197],[41.8073,16.95316],[41.80145,16.9514],[41.79565,16.95478],[41.79128,16.96809],[41.79211,16.982],[41.78795,16.98322],[41.78804,16.98566],[41.79165,16.98559]]],[[[41.79457,17.01125],[41.79759,17.00722],[41.79168,17.00589],[41.79457,17.01125]]],[[[41.79147,16.66294],[41.79327,16.65911],[41.79061,16.65868],[41.79147,16.66294]]],[[[41.75028,17.06475],[41.76945,17.05844],[41.77231,17.05222],[41.76531,17.04936],[41.74123,17.04968],[41.73871,17.0604],[41.74574,17.06545],[41.75028,17.06475]]],[[[41.73872,16.80607],[41.75979,16.8001],[41.754,16.78753],[41.74227,16.78631],[41.73046,16.78973],[41.72731,16.79392],[41.73049,16.80349],[41.73289,16.80379],[41.73295,16.80019],[41.74109,16.80032],[41.73872,16.80607]]],[[[41.75031,16.90981],[41.74659,16.90808],[41.74575,16.91038],[41.75031,16.90981]]],[[[41.73369,16.92009],[41.73523,16.91613],[41.73065,16.91811],[41.72241,16.91554],[41.72196,16.91103],[41.71161,16.90636],[41.71228,16.91422],[41.71835,16.91869],[41.72897,16.92246],[41.73369,16.92009]]],[[[41.68607,16.96113],[41.70469,16.95076],[41.70696,16.94333],[41.72693,16.93259],[41.72659,16.92898],[41.7166,16.92689],[41.72,16.92373],[41.71833,16.91972],[41.70933,16.91468],[41.70786,16.89935],[41.69093,16.89741],[41.67982,16.8908],[41.67486,16.89946],[41.67165,16.89915],[41.66154,16.91198],[41.65112,16.91927],[41.65593,16.93478],[41.66416,16.94521],[41.6778,16.9601],[41.68607,16.96113]]],[[[41.67,17.96319],[41.67129,17.95957],[41.68174,17.95685],[41.68027,17.9485],[41.67334,17.9531],[41.67,17.96319]]],[[[41.67411,16.97226],[41.6709,16.9722],[41.67219,16.97505],[41.67619,16.97551],[41.67411,16.97226]]],[[[41.65597,17.01864],[41.66022,17.0164],[41.65907,17.01062],[41.64758,17.01154],[41.65142,17.01857],[41.65597,17.01864]]],[[[41.64303,17.00195],[41.6445,16.99891],[41.64104,16.99808],[41.63887,17.00123],[41.64303,17.00195]]],[[[41.56986,16.89824],[41.5738,16.89484],[41.5793,16.87846],[41.60267,16.84901],[41.61495,16.82709],[41.63494,16.81481],[41.62673,16.81069],[41.61415,16.81203],[41.58393,16.82915],[41.58225,16.8335],[41.58658,16.83768],[41.56864,16.85488],[41.567,16.87929],[41.56986,16.89824]]],[[[41.58614,16.89196],[41.62534,16.82881],[41.61995,16.83116],[41.61917,16.83797],[41.60669,16.84831],[41.5872,16.87757],[41.58432,16.8891],[41.58614,16.89196]]],[[[41.58756,16.68554],[41.60334,16.68361],[41.58017,16.68078],[41.58756,16.68554]]],[[[41.5748,18.12019],[41.5742,18.11583],[41.56737,18.11862],[41.57012,18.12219],[41.5748,18.12019]]],[[[41.55053,16.81521],[41.54823,16.81672],[41.5531,16.82053],[41.55473,16.81914],[41.55053,16.81521]]],[[[41.51278,16.80557],[41.5038,16.80015],[41.50054,16.80305],[41.51278,16.80557]]],[[[41.46319,16.88717],[41.45705,16.8868],[41.46232,16.89101],[41.47115,16.89026],[41.46319,16.88717]]],[[[41.43714,17.78928],[41.43656,17.78568],[41.42686,17.78374],[41.43714,17.78928]]],[[[41.42724,18.46575],[41.43322,18.45898],[41.43024,18.45837],[41.42724,18.46575]]],[[[41.42352,18.47879],[41.42729,18.47887],[41.42587,18.47349],[41.42237,18.4743],[41.42352,18.47879]]],[[[41.33145,18.23244],[41.33304,18.23062],[41.32382,18.22558],[41.32414,18.22944],[41.33145,18.23244]]],[[[41.21898,18.4281],[41.22419,18.41907],[41.2252,18.42395],[41.23128,18.42504],[41.22805,18.41542],[41.22469,18.41572],[41.21898,18.4281]]],[[[41.08509,18.52543],[41.08176,18.51723],[41.08532,18.51088],[41.08339,18.50704],[41.07063,18.50113],[41.06643,18.48805],[41.07259,18.48412],[41.06279,18.47728],[41.07106,18.514],[41.07954,18.52395],[41.08509,18.52543]]],[[[41.06514,18.60546],[41.07166,18.59741],[41.07551,18.58089],[41.07273,18.56341],[41.06759,18.56231],[41.05285,18.5711],[41.0448,18.58689],[41.04615,18.59769],[41.05297,18.60341],[41.06514,18.60546]]],[[[40.89402,19.284],[40.89692,19.27651],[40.89632,19.27175],[40.89306,19.27063],[40.88929,19.27285],[40.8881,19.28754],[40.88894,19.28985],[40.89402,19.284]]],[[[40.88956,18.92734],[40.88449,18.92134],[40.88703,18.93045],[40.88956,18.92734]]],[[[40.8877,18.89363],[40.8837,18.88749],[40.88472,18.89392],[40.8877,18.89363]]],[[[40.82657,19.43518],[40.82135,19.44218],[40.81691,19.45767],[40.81896,19.47078],[40.81882,19.45843],[40.82657,19.43518]]],[[[40.75835,19.52699],[40.75981,19.52389],[40.75317,19.52473],[40.75835,19.52699]]],[[[40.75739,19.67607],[40.75858,19.66061],[40.7555,19.65189],[40.75208,19.65025],[40.752,19.65553],[40.75627,19.66038],[40.75481,19.67558],[40.75739,19.67607]]],[[[40.74352,19.68792],[40.75621,19.67982],[40.74156,19.68189],[40.73674,19.68876],[40.74352,19.68792]]],[[[40.74741,19.51963],[40.74898,19.51408],[40.74113,19.51609],[40.74741,19.51963]]],[[[40.74084,19.64109],[40.74191,19.63928],[40.73646,19.6383],[40.74084,19.64109]]],[[[40.74162,19.54904],[40.73981,19.54545],[40.73744,19.55217],[40.74162,19.54904]]],[[[40.73656,18.27532],[40.73235,18.27214],[40.73131,18.27511],[40.73656,18.27532]]],[[[40.70508,19.69022],[40.70652,19.68455],[40.70368,19.68638],[40.70508,19.69022]]],[[[40.69198,19.76218],[40.70156,19.75527],[40.69772,19.75234],[40.69014,19.7555],[40.69198,19.76218]]],[[[40.6896,19.71715],[40.69729,19.69905],[40.68925,19.70994],[40.6896,19.71715]]],[[[40.60549,19.63875],[40.62763,19.62503],[40.64361,19.61922],[40.64476,19.61303],[40.62893,19.61922],[40.61644,19.61985],[40.59509,19.63202],[40.59131,19.63449],[40.59433,19.63691],[40.60001,19.6348],[40.60549,19.63875]]],[[[40.60068,19.76997],[40.59899,19.76407],[40.59477,19.76436],[40.60068,19.76997]]],[[[40.58181,19.77336],[40.59153,19.76658],[40.57688,19.7698],[40.57636,19.77225],[40.58181,19.77336]]],[[[40.20864,20.16883],[40.21787,20.16297],[40.22822,20.16174],[40.22683,20.15841],[40.2026,20.16321],[40.19907,20.16581],[40.20864,20.16883]]],[[[39.99923,20.25899],[40.00278,20.25871],[40.00601,20.25251],[40.02424,20.24416],[40.06185,20.23892],[40.09234,20.22908],[40.12143,20.21447],[40.16839,20.18378],[40.18852,20.17721],[40.19635,20.16634],[40.18464,20.16912],[40.14117,20.19053],[40.13005,20.19897],[40.11739,20.20291],[40.09773,20.219],[40.06891,20.23373],[40.02717,20.23436],[40.00245,20.25008],[39.99824,20.2541],[39.99923,20.25899]]],[[[40.12753,19.98113],[40.13311,19.98058],[40.1423,19.97048],[40.14631,19.96016],[40.15214,19.95626],[40.14812,19.94753],[40.14166,19.958],[40.12635,19.96852],[40.12113,19.98169],[40.12753,19.98113]]],[[[40.03909,20.26262],[40.06117,20.25798],[40.06386,20.25371],[40.03649,20.26057],[40.03909,20.26262]]],[[[39.90029,19.82406],[39.89635,19.82575],[39.89827,19.82819],[39.90029,19.82406]]],[[[39.48953,20.76032],[39.48628,20.75715],[39.48642,20.76024],[39.48953,20.76032]]],[[[39.4718,20.76878],[39.46974,20.76544],[39.46783,20.76737],[39.4718,20.76878]]],[[[39.24858,21.05509],[39.2446,21.05175],[39.2435,21.05407],[39.24858,21.05509]]],[[[39.23695,21.07159],[39.23722,21.06837],[39.23145,21.0667],[39.22967,21.0698],[39.23338,21.07288],[39.23695,21.07159]]],[[[39.1491,21.43065],[39.15047,21.42499],[39.14827,21.42499],[39.1491,21.43065]]],[[[39.14618,21.53134],[39.14672,21.52258],[39.14052,21.51963],[39.14109,21.5316],[39.14618,21.53134]]],[[[39.13611,21.50637],[39.13529,21.51307],[39.13804,21.51255],[39.13611,21.50637]]],[[[39.11244,22.3736],[39.10343,22.35919],[39.10828,22.37129],[39.11244,22.3736]]],[[[39.03457,22.07496],[39.03692,22.07136],[39.03277,22.0693],[39.03222,22.07548],[39.03457,22.07496]]],[[[39.02376,21.8301],[39.01852,21.82598],[39.02058,21.8301],[39.02376,21.8301]]],[[[39.00377,22.05875],[39.00266,22.04845],[38.99935,22.04742],[38.99893,22.0536],[39.00377,22.05875]]],[[[38.99576,22.04613],[38.99976,22.04252],[38.99852,22.03892],[38.99576,22.04613]]],[[[38.92501,22.90143],[38.92404,22.89448],[38.94016,22.88727],[38.94183,22.87942],[38.93488,22.87916],[38.92502,22.88598],[38.92098,22.90117],[38.92501,22.90143]]],[[[38.87731,22.94156],[38.88301,22.9377],[38.88093,22.93487],[38.87731,22.94156]]],[[[38.85255,22.96201],[38.85672,22.96137],[38.86479,22.95185],[38.8723,22.95057],[38.87606,22.94491],[38.86229,22.95159],[38.85255,22.96201]]],[[[38.86477,22.97888],[38.86088,22.97193],[38.86032,22.97656],[38.86477,22.97888]]],[[[38.85381,22.94952],[38.8623,22.94258],[38.85785,22.94167],[38.84728,22.94797],[38.84283,22.95646],[38.85089,22.95467],[38.85381,22.94952]]],[[[38.84949,22.95956],[38.84128,22.96573],[38.84295,22.9665],[38.84949,22.95956]]],[[[38.83795,22.9665],[38.84421,22.95788],[38.83656,22.96315],[38.83503,22.96637],[38.83795,22.9665]]],[[[38.78037,23.15514],[38.78288,23.14948],[38.78149,23.14819],[38.78037,23.15514]]],[[[38.77787,23.15153],[38.78192,23.14381],[38.77942,23.13866],[38.77466,23.15281],[38.77787,23.15153]]],[[[38.66298,23.39165],[38.66577,23.38998],[38.66831,23.3766],[38.66176,23.37839],[38.66075,23.391],[38.66298,23.39165]]],[[[38.18276,23.99003],[38.18096,23.98668],[38.17618,23.99051],[38.18373,23.9921],[38.18276,23.99003]]],[[[37.20696,24.82241],[37.20728,24.81984],[37.2039,24.81954],[37.20696,24.82241]]],[[[37.18405,24.94345],[37.18889,24.94081],[37.17765,24.93707],[37.18009,24.94417],[37.18405,24.94345]]],[[[37.17576,25.20798],[37.17697,25.20285],[37.17063,25.18244],[37.1682,25.1837],[37.17576,25.20798]]],[[[37.09578,24.97644],[37.11296,24.96045],[37.11144,24.94911],[37.10836,24.94739],[37.0799,24.9626],[37.06603,24.96525],[37.07079,24.98564],[37.08607,24.98352],[37.09578,24.97644]]],[[[37.06174,25.41531],[37.06533,25.41214],[37.06454,25.40879],[37.06025,25.4113],[37.06174,25.41531]]],[[[37.05302,24.97563],[37.05492,24.97154],[37.04691,24.96963],[37.04755,24.97375],[37.05302,24.97563]]],[[[37.03452,25.41675],[37.03879,25.41539],[37.03942,25.41154],[37.03231,25.41351],[37.03084,25.41683],[37.03452,25.41675]]],[[[37.02864,25.45616],[37.02306,25.45094],[37.02228,25.45492],[37.02864,25.45616]]],[[[36.97233,25.47636],[36.98683,25.47399],[36.9942,25.46547],[36.99744,25.46655],[36.99601,25.45855],[37.00602,25.4448],[37.02328,25.4458],[37.02213,25.42945],[37.0106,25.42453],[37.01063,25.43097],[37.00646,25.4349],[36.98573,25.43757],[36.98224,25.43444],[36.9758,25.44696],[36.9755,25.45647],[36.98648,25.46074],[36.97498,25.47074],[36.96762,25.47012],[36.967,25.47333],[36.97233,25.47636]]],[[[37.01459,25.47463],[37.01946,25.47161],[37.01606,25.47169],[37.01459,25.47463]]],[[[36.95584,25.51292],[36.96895,25.50886],[36.97139,25.49912],[36.98305,25.49684],[36.98369,25.49221],[36.97092,25.49281],[36.95894,25.49753],[36.94165,25.49729],[36.94372,25.50877],[36.95269,25.51507],[36.95584,25.51292]]],[[[36.97361,25.46802],[36.97663,25.46549],[36.97398,25.46288],[36.97361,25.46802]]],[[[36.96701,25.57392],[36.96388,25.57414],[36.96326,25.57722],[36.96701,25.57392]]],[[[36.95749,25.33157],[36.96587,25.33812],[36.96507,25.33528],[36.95749,25.33157]]],[[[36.95338,25.54132],[36.96176,25.53217],[36.96101,25.52586],[36.95358,25.52949],[36.94842,25.54099],[36.95338,25.54132]]],[[[36.95335,25.59277],[36.95512,25.58881],[36.95003,25.58822],[36.95335,25.59277]]],[[[36.9441,25.59496],[36.94688,25.58959],[36.94417,25.59033],[36.9441,25.59496]]],[[[36.94132,25.61653],[36.94211,25.61139],[36.9391,25.61341],[36.94132,25.61653]]],[[[36.90979,25.569],[36.92538,25.54504],[36.93357,25.52252],[36.92393,25.52212],[36.92151,25.53958],[36.9159,25.54388],[36.90767,25.5444],[36.907,25.56665],[36.90979,25.569]]],[[[36.91756,25.60384],[36.92009,25.59667],[36.92994,25.59321],[36.92439,25.58593],[36.9245,25.57976],[36.92097,25.57894],[36.90792,25.59547],[36.90754,25.60061],[36.91756,25.60384]]],[[[36.89327,25.38611],[36.89946,25.38054],[36.9018,25.36771],[36.90988,25.36731],[36.90805,25.35854],[36.89087,25.36138],[36.88494,25.3847],[36.89327,25.38611]]],[[[36.85075,25.42022],[36.85569,25.42133],[36.88107,25.41192],[36.89408,25.39667],[36.88113,25.39198],[36.86313,25.40111],[36.85223,25.40918],[36.85075,25.42022]]],[[[36.8539,25.57025],[36.85803,25.56131],[36.8672,25.55565],[36.8629,25.55032],[36.86526,25.54546],[36.86063,25.54244],[36.85065,25.54589],[36.84879,25.53879],[36.84007,25.5348],[36.82796,25.54569],[36.82913,25.55162],[36.84028,25.57056],[36.8539,25.57025]]],[[[36.83879,25.47947],[36.85236,25.46565],[36.84323,25.46874],[36.83879,25.47947]]],[[[36.83839,25.43869],[36.85136,25.43387],[36.84591,25.43006],[36.83933,25.43369],[36.83839,25.43869]]],[[[36.80881,25.49189],[36.80405,25.48848],[36.80314,25.49206],[36.80881,25.49189]]],[[[36.80384,25.46867],[36.80843,25.46565],[36.8068,25.46189],[36.79992,25.46616],[36.8007,25.47029],[36.80384,25.46867]]],[[[36.7668,25.53319],[36.7757,25.52715],[36.77417,25.52571],[36.7668,25.53319]]],[[[36.76107,25.6661],[36.76594,25.66334],[36.75777,25.66026],[36.76107,25.6661]]],[[[36.757,25.53433],[36.75411,25.52939],[36.74665,25.52658],[36.757,25.53433]]],[[[36.74973,25.68033],[36.74755,25.67553],[36.74071,25.67684],[36.74973,25.68033]]],[[[36.73866,25.55205],[36.74946,25.54321],[36.74426,25.54108],[36.74313,25.548],[36.73866,25.55205]]],[[[36.72252,25.7599],[36.73015,25.75462],[36.72593,25.75262],[36.72252,25.7599]]],[[[36.70063,25.56895],[36.70227,25.5646],[36.69772,25.5653],[36.70063,25.56895]]],[[[36.68024,25.6921],[36.68076,25.68722],[36.67788,25.68897],[36.68024,25.6921]]],[[[36.6686,25.56793],[36.66624,25.56532],[36.6644,25.57223],[36.6686,25.56793]]],[[[36.60646,25.8815],[36.59978,25.88127],[36.604,25.88339],[36.60646,25.8815]]],[[[36.58072,25.74913],[36.58135,25.73898],[36.57475,25.73539],[36.57361,25.72843],[36.56738,25.72781],[36.57112,25.72505],[36.56823,25.72062],[36.5744,25.7107],[36.59091,25.7012],[36.58359,25.69837],[36.57728,25.70148],[36.5562,25.72582],[36.57208,25.7477],[36.58072,25.74913]]],[[[36.54478,25.77733],[36.55175,25.72807],[36.54718,25.72927],[36.54059,25.73919],[36.53832,25.77337],[36.54302,25.77987],[36.54478,25.77733]]],[[[36.54591,25.70147],[36.5447,25.69798],[36.54025,25.70035],[36.54089,25.70396],[36.54591,25.70147]]],[[[36.54521,25.8046],[36.5457,25.79458],[36.54257,25.79479],[36.54521,25.8046]]],[[[36.50569,25.66285],[36.51248,25.65718],[36.51206,25.64972],[36.50207,25.64607],[36.5101,25.64171],[36.50735,25.63755],[36.51258,25.63841],[36.51337,25.64845],[36.5176,25.64942],[36.52078,25.64703],[36.51971,25.63673],[36.52816,25.63301],[36.53081,25.62817],[36.54153,25.63118],[36.54497,25.62275],[36.5322,25.61572],[36.51382,25.61309],[36.50757,25.61337],[36.4966,25.62244],[36.49519,25.62885],[36.48224,25.64419],[36.48562,25.65235],[36.49775,25.66259],[36.50569,25.66285]]],[[[36.52327,25.67756],[36.52662,25.67311],[36.52341,25.67074],[36.5208,25.67327],[36.52327,25.67756]]],[[[36.36179,26.18691],[36.37815,26.1818],[36.38317,26.17405],[36.36043,26.18431],[36.36179,26.18691]]],[[[36.00268,26.91163],[36.00749,26.91404],[36.015,26.91189],[36.02786,26.90291],[36.01953,26.89232],[36.01347,26.89373],[36.00268,26.91163]]],[[[35.75342,27.13311],[35.75852,27.12427],[35.77161,27.11347],[35.77068,27.10474],[35.77776,27.09483],[35.77587,27.08793],[35.78441,27.08493],[35.7824,27.07918],[35.77587,27.08214],[35.76971,27.09448],[35.75843,27.10344],[35.75534,27.11764],[35.74953,27.12702],[35.75342,27.13311]]],[[[35.2834,27.64845],[35.27856,27.65213],[35.27991,27.65417],[35.2834,27.64845]]],[[[35.19076,27.97605],[35.1927,27.97152],[35.20048,27.96946],[35.19984,27.9597],[35.21322,27.94097],[35.22358,27.93785],[35.2088,27.93731],[35.19451,27.94641],[35.18616,27.95632],[35.18326,27.97025],[35.18347,27.97385],[35.19076,27.97605]]],[[[35.16849,27.78879],[35.18117,27.78692],[35.1782,27.78298],[35.1655,27.78382],[35.163,27.78926],[35.16849,27.78879]]],[[[35.14667,27.77512],[35.14413,27.77091],[35.1253,27.79139],[35.14041,27.7873],[35.14667,27.77512]]],[[[35.08195,28.06492],[35.09182,28.06529],[35.08611,28.06255],[35.07429,28.06594],[35.07606,28.06746],[35.08195,28.06492]]],[[[35.06876,27.91287],[35.07509,27.91072],[35.07657,27.90504],[35.07227,27.89996],[35.06866,27.90001],[35.06876,27.91287]]],[[[35.03435,28.06988],[35.04419,28.0534],[35.03686,28.04875],[35.02618,28.05161],[35.0236,28.06091],[35.02626,28.07116],[35.03435,28.06988]]],[[[34.91496,27.93439],[34.89935,27.92791],[34.90476,27.93916],[34.91496,27.93439]]],[[[34.7901,28.06313],[34.78159,28.05719],[34.7749,28.05586],[34.77378,28.05845],[34.7901,28.06313]]],[[[34.69319,27.92006],[34.69162,27.92188],[34.69686,27.92361],[34.69766,27.92823],[34.68529,27.94292],[34.67123,27.94219],[34.67286,27.92545],[34.66834,27.92396],[34.66903,27.92125],[34.65744,27.92114],[34.65242,27.92415],[34.6625,27.92969],[34.66812,27.9376],[34.65746,27.94133],[34.66162,27.94809],[34.67237,27.95002],[34.68509,27.95797],[34.69539,27.95874],[34.71072,27.95765],[34.71733,27.95423],[34.72132,27.9498],[34.71921,27.9452],[34.72573,27.94538],[34.72493,27.9405],[34.73585,27.93496],[34.74013,27.92204],[34.73378,27.91402],[34.71312,27.90785],[34.70726,27.90317],[34.70368,27.90552],[34.70236,27.91429],[34.69588,27.91591],[34.69319,27.92006]]],[[[34.73801,28.07871],[34.72897,28.08474],[34.73022,28.08987],[34.73515,28.08981],[34.7346,28.08287],[34.73801,28.07871]]],[[[34.72155,28.08278],[34.73213,28.07339],[34.73266,28.06168],[34.72979,28.07213],[34.72478,28.07644],[34.71758,28.07949],[34.70741,28.07845],[34.72155,28.08278]]],[[[34.72104,28.05089],[34.70884,28.04037],[34.70509,28.04132],[34.70471,28.04518],[34.71122,28.04433],[34.71131,28.04973],[34.72104,28.05089]]],[[[34.70224,28.03518],[34.69525,28.02382],[34.69414,28.02731],[34.70224,28.03518]]],[[[34.68501,28.04619],[34.68538,28.04182],[34.68204,28.0416],[34.68501,28.04619]]],[[[34.67426,28.05404],[34.67593,28.04913],[34.66772,28.04332],[34.66961,28.05281],[34.67426,28.05404]]],[[[34.67296,28.03528],[34.67116,28.03119],[34.6665,28.02996],[34.66684,28.03356],[34.67296,28.03528]]],[[[34.65516,28.05646],[34.66053,28.04713],[34.66604,28.04745],[34.66687,28.04449],[34.65705,28.04731],[34.65253,28.05482],[34.65288,28.04916],[34.64972,28.05151],[34.64907,28.05615],[34.65516,28.05646]]],[[[34.66219,28.04184],[34.66255,28.03695],[34.6597,28.04059],[34.66219,28.04184]]],[[[34.51463,27.9386],[34.50212,27.94543],[34.50533,27.95748],[34.50012,27.96808],[34.49579,28.00093],[34.50158,28.00009],[34.50517,28.00867],[34.51569,28.01421],[34.53943,28.01253],[34.54483,28.00514],[34.55145,28.00224],[34.5527,27.99837],[34.54898,27.99121],[34.53917,27.99402],[34.51425,27.98388],[34.50277,27.99172],[34.50334,27.98091],[34.51824,27.96866],[34.53093,27.96479],[34.55002,27.96277],[34.5707,27.97025],[34.58834,27.96799],[34.58516,27.95864],[34.59062,27.9461],[34.61969,27.93329],[34.62346,27.92424],[34.62122,27.91938],[34.59274,27.91238],[34.58699,27.91553],[34.55421,27.91154],[34.53183,27.92581],[34.52721,27.93718],[34.51463,27.9386]]]]}}]}