{"type":"FeatureCollection","features":[{"type":"Feature","properties":{"ISO_A3":"SDN","WB_A3":"SDN","WB_NAME":"Sudan","WB_REGION":"AFE,SSF"},"geometry":{"type":"MultiPolygon","coordinates":[[[[38.79465,18.5497],[38.79195,18.55614],[38.79667,18.5564],[38.79465,18.5497]]],[[[38.75564,18.82488],[38.75549,18.83635],[38.75779,18.83751],[38.76009,18.83455],[38.75564,18.82488]]],[[[38.73089,18.56585],[38.74169,18.57295],[38.74223,18.57012],[38.73089,18.56585]]],[[[38.72404,18.45933],[38.72349,18.46384],[38.72996,18.46977],[38.73118,18.46694],[38.72404,18.45933]]],[[[38.66532,18.53432],[38.65531,18.5428],[38.66072,18.54127],[38.66532,18.53432]]],[[[38.6512,18.83914],[38.64821,18.84442],[38.65307,18.84739],[38.6512,18.83914]]],[[[38.59451,18.8993],[38.59045,18.90328],[38.59654,18.90175],[38.59451,18.8993]]],[[[34.147,9.71348],[34.10195,9.55672],[34.10667,9.5],[33.87758,9.5],[33.87812,9.53063],[33.89414,9.67846],[33.90022,9.69868],[33.90443,9.73031],[33.9166,9.76585],[33.93883,9.77425],[33.95361,9.79762],[33.96456,9.80772],[33.96463,9.82634],[33.97326,9.86241],[33.97284,9.87481],[33.99114,9.92441],[33.98664,9.96216],[33.99969,10.00565],[33.99253,10.03872],[33.99506,10.0631],[33.97141,10.09179],[33.96686,10.12588],[33.97046,10.14591],[33.90369,10.17137],[33.80367,10.33571],[33.66833,10.44181],[33.51717,10.64255],[33.24609,10.77774],[33.2711,10.82789],[33.1364,11.62611],[33.18028,11.75],[33.25688,12.15933],[33.25218,12.17195],[33.25764,12.17415],[33.26002,12.18708],[33.26949,12.194],[33.27618,12.19393],[33.27714,12.19833],[33.28449,12.19921],[33.2919,12.20662],[33.29097,12.21246],[33.29442,12.21877],[32.73158,12.23639],[32.74445,12.20254],[32.73792,12.14643],[32.75482,12.07825],[32.75619,12.06684],[32.75083,12.05107],[32.75959,12.01349],[32.75647,11.99991],[32.75699,11.98052],[32.74519,11.95105],[32.09658,11.95105],[32.39111,11.70623],[32.39111,11.1808],[32.46973,11.04331],[32.41224,11.00003],[32.14889,10.73749],[31.98861,10.65028],[31.83972,10.37916],[31.77833,10.28889],[31.73391,10.25333],[31.36485,9.8162],[31.32597,9.78157],[31.28979,9.76201],[31.17999,9.75],[30.83791,9.75],[30.83658,9.74311],[30.84219,9.72491],[30.83579,9.71356],[30.83186,9.71218],[30.80193,9.74153],[30.77644,9.75897],[30.52988,9.9603],[30,10.28807],[29.94111,10.28805],[29.53749,10.08195],[29.5375,9.75],[29.11748,9.75],[29.11339,9.74747],[29.11246,9.73747],[29.10386,9.74499],[29.10075,9.73839],[29.09207,9.74527],[29.09331,9.74061],[29.08374,9.73532],[29.06985,9.74672],[29.06941,9.7379],[29.07406,9.73302],[29.06798,9.73156],[29.04656,9.7363],[29.03747,9.71908],[29.0258,9.71607],[29.01908,9.70746],[29,9.67356],[29,10.16667],[27.83333,10.16667],[27.83333,9.79445],[27.90555,9.6125],[27.82228,9.60582],[27.75001,9.60668],[27.49999,9.62361],[27.25045,9.62833],[27.14236,9.62637],[27.02364,9.60282],[26.844,9.53004],[26.75012,9.49664],[26.70277,9.48889],[26.54777,9.52222],[26.39392,9.56406],[26.37361,9.57308],[26.34588,9.59423],[26.32375,9.61929],[26.30828,9.64527],[26.21389,9.91667],[26.11667,10],[26.07832,10.05834],[26.05346,10.10871],[26.03785,10.12488],[26.00002,10.1561],[25.97512,10.16753],[25.93222,10.17917],[25.93323,10.37426],[25.92924,10.38579],[25.92446,10.38265],[25.92587,10.37852],[25.92123,10.37209],[25.91103,10.38002],[25.90776,10.37592],[25.90554,10.37936],[25.90101,10.3778],[25.89834,10.37934],[25.90556,10.40023],[25.89383,10.41121],[25.89427,10.40362],[25.89077,10.40639],[25.88703,10.40076],[25.8831,10.40559],[25.87095,10.40131],[25.87016,10.40396],[25.8627,10.40263],[25.86339,10.39564],[25.85476,10.40241],[25.85723,10.40921],[25.85425,10.41106],[25.85201,10.40503],[25.84401,10.40436],[25.84596,10.4133],[25.83849,10.42384],[25.83247,10.41672],[25.8216,10.42305],[25.82041,10.41295],[25.81219,10.42171],[25.81346,10.42622],[25.80138,10.4303],[25.80811,10.42418],[25.79739,10.41542],[25.79711,10.41998],[25.7848,10.42143],[25.78605,10.4253],[25.78083,10.43048],[25.77885,10.4238],[25.77007,10.41994],[25.76708,10.42201],[25.76748,10.42684],[25.76175,10.42697],[25.76233,10.43837],[25.75927,10.43891],[25.75294,10.42344],[25.74751,10.42622],[25.74666,10.42161],[25.74218,10.42162],[25.73025,10.41182],[25.72191,10.42037],[25.71764,10.41783],[25.71264,10.42004],[25.70071,10.41101],[25.69495,10.41428],[25.69002,10.40316],[25.6679,10.41273],[25.66657,10.4219],[25.66943,10.42762],[25.6629,10.43265],[25.66371,10.4259],[25.65407,10.42527],[25.64902,10.41642],[25.65269,10.40558],[25.6443,10.399],[25.63781,10.39827],[25.63516,10.40658],[25.61448,10.40212],[25.60427,10.40704],[25.58713,10.39842],[25.58218,10.40618],[25.57393,10.39952],[25.57748,10.39334],[25.57633,10.38968],[25.57242,10.3896],[25.56801,10.4016],[25.56491,10.39636],[25.56077,10.39626],[25.55489,10.40751],[25.54682,10.40185],[25.53851,10.38603],[25.53608,10.38711],[25.53703,10.39378],[25.52813,10.39759],[25.52282,10.39438],[25.52065,10.38629],[25.51211,10.38918],[25.50948,10.39542],[25.50636,10.39566],[25.50609,10.38746],[25.50084,10.38245],[25.49976,10.37511],[25.49365,10.37976],[25.48711,10.37987],[25.47394,10.39096],[25.47173,10.38846],[25.47422,10.37468],[25.47101,10.37321],[25.46519,10.37691],[25.45652,10.37417],[25.44664,10.38021],[25.44878,10.38937],[25.4417,10.39621],[25.44083,10.38335],[25.43238,10.38295],[25.42895,10.38704],[25.42439,10.38434],[25.41468,10.39171],[25.41333,10.37841],[25.40571,10.38224],[25.40018,10.37964],[25.39781,10.37418],[25.39433,10.3739],[25.39625,10.38336],[25.39073,10.38996],[25.37455,10.37105],[25.3707,10.37252],[25.37076,10.38081],[25.36737,10.38224],[25.35538,10.37613],[25.35211,10.37831],[25.35137,10.37021],[25.34306,10.37807],[25.33869,10.37855],[25.33527,10.37254],[25.33052,10.37141],[25.33082,10.36619],[25.32067,10.36531],[25.31879,10.35907],[25.32201,10.35348],[25.31499,10.35375],[25.30236,10.36017],[25.30147,10.35607],[25.28648,10.35424],[25.27626,10.3603],[25.27424,10.33524],[25.26957,10.3411],[25.25475,10.34468],[25.24977,10.3359],[25.24607,10.33722],[25.2507,10.34158],[25.24913,10.34451],[25.24545,10.34549],[25.23874,10.34085],[25.2362,10.34295],[25.24217,10.35358],[25.23853,10.35581],[25.22842,10.34921],[25.22526,10.35802],[25.21412,10.35945],[25.20843,10.35495],[25.21275,10.34753],[25.21043,10.34585],[25.2057,10.35012],[25.20268,10.34227],[25.19643,10.33803],[25.19709,10.34405],[25.19274,10.34889],[25.18956,10.34675],[25.19365,10.33618],[25.19172,10.33351],[25.1805,10.33728],[25.17772,10.33437],[25.18318,10.32242],[25.18132,10.31835],[25.17318,10.3221],[25.16818,10.33064],[25.16342,10.3205],[25.15825,10.3207],[25.15574,10.32537],[25.14709,10.32637],[25.14788,10.33362],[25.14376,10.33638],[25.13669,10.32706],[25.12362,10.32445],[25.12109,10.3127],[25.12493,10.30581],[25.12212,10.3037],[25.11167,10.3144],[25.10142,10.31743],[25.08597,10.30635],[25.08334,10.30103],[25.08493,10.28601],[25.0813,10.27668],[25.07795,10.27497],[25.07215,10.27767],[25.06854,10.26983],[25.06361,10.27116],[25.06195,10.26684],[25.06763,10.26135],[25.05717,10.25746],[25.06184,10.24817],[25.05901,10.23821],[25.06459,10.2365],[25.05637,10.23321],[25.05555,10.22611],[25.04835,10.22289],[25.05877,10.21069],[25.05067,10.20811],[25.05321,10.20138],[25.0424,10.18802],[25.05483,10.18238],[25.05464,10.17912],[25.04686,10.17836],[25.04332,10.17331],[25.03205,10.16789],[25.03046,10.16083],[25.03377,10.1621],[25.04114,10.15624],[25.04158,10.15291],[25.03819,10.15107],[25.04462,10.14956],[25.05214,10.15395],[25.05873,10.15033],[25.05527,10.14387],[25.06787,10.13658],[25.0732,10.12812],[25.07092,10.11413],[25.07827,10.11501],[25.0769,10.10581],[25.07202,10.0991],[25.07894,10.08892],[25.07659,10.08416],[25.06997,10.08709],[25.07103,10.07971],[25.06386,10.08268],[25.06316,10.07504],[25.06025,10.07381],[25.05566,10.08114],[25.04787,10.08279],[25.05607,10.06586],[25.05499,10.05885],[25.04895,10.06253],[25.03712,10.06129],[25.03095,10.05452],[25.03711,10.0466],[25.03584,10.04002],[25.03009,10.03769],[25.03017,10.0348],[25.04061,10.03787],[25.04167,10.03546],[25.03497,10.03011],[25.03548,10.02733],[25.03923,10.02727],[25.04543,10.03404],[25.04737,10.03099],[25.04218,10.02734],[25.04788,10.02213],[25.04758,10.01729],[25.04576,10.01566],[25.03705,10.02151],[25.03516,10.02011],[25.03982,10.01521],[25.0363,10.01149],[25.02503,10.00785],[25.02332,10.01067],[25.0196,10.00961],[25.02218,10.00449],[25.01943,10.00235],[25.01485,10.00454],[25.0123,10.0017],[25.0109,9.98516],[25.01741,9.97857],[25.01794,9.96966],[25.00805,9.96739],[25.00453,9.97264],[24.99941,9.97402],[24.99996,9.9648],[24.99662,9.96425],[24.9927,9.96934],[24.99322,9.96226],[24.98429,9.95676],[24.98658,9.95083],[24.98261,9.95131],[24.98852,9.94731],[24.98513,9.94425],[24.98796,9.93668],[24.98475,9.93547],[24.9857,9.9316],[24.97466,9.92976],[24.97962,9.92489],[24.97398,9.9183],[24.9702,9.90473],[24.97345,9.90242],[24.98269,9.90439],[24.98283,9.90053],[24.97715,9.89518],[24.96081,9.90216],[24.95543,9.90021],[24.95578,9.8966],[24.94827,9.8969],[24.95779,9.88997],[24.95249,9.8864],[24.94552,9.89035],[24.94501,9.8789],[24.93956,9.87741],[24.94369,9.87615],[24.94211,9.87143],[24.92703,9.87308],[24.91709,9.8599],[24.90877,9.86075],[24.91045,9.85603],[24.91501,9.85513],[24.91362,9.85169],[24.90835,9.85228],[24.90335,9.85771],[24.90234,9.85371],[24.89248,9.84728],[24.89735,9.84321],[24.89483,9.84163],[24.89037,9.84516],[24.88505,9.84115],[24.8802,9.84499],[24.87386,9.83844],[24.87304,9.83277],[24.87779,9.83065],[24.87614,9.82755],[24.86719,9.83035],[24.8629,9.82803],[24.86521,9.822],[24.85936,9.82402],[24.85846,9.8198],[24.85294,9.81731],[24.84243,9.81712],[24.83716,9.80938],[24.83956,9.80542],[24.83421,9.80255],[24.82993,9.78534],[24.82437,9.78547],[24.81736,9.77703],[24.80609,9.78166],[24.80595,9.76581],[24.80059,9.76599],[24.79917,9.76205],[24.79326,9.76476],[24.78936,9.75194],[24.78618,9.74967],[24.77886,9.75488],[24.77559,9.75388],[24.76651,9.74075],[24.76394,9.74476],[24.75164,9.74649],[24.75524,9.73407],[24.74583,9.72529],[24.74188,9.73007],[24.73969,9.72819],[24.73652,9.71732],[24.74579,9.70611],[24.74732,9.69394],[24.753,9.68679],[24.74968,9.68334],[24.74796,9.67015],[24.73898,9.66653],[24.74447,9.66189],[24.74415,9.65496],[24.75232,9.65479],[24.75337,9.64376],[24.75703,9.63868],[24.75162,9.63683],[24.7546,9.63241],[24.75197,9.6297],[24.75587,9.61385],[24.75191,9.59011],[24.74195,9.59035],[24.7402,9.58732],[24.74287,9.58242],[24.73054,9.57538],[24.72746,9.56864],[24.72235,9.56783],[24.72537,9.56405],[24.72048,9.55708],[24.71986,9.54682],[24.71344,9.54245],[24.71228,9.53324],[24.70654,9.52844],[24.70883,9.52642],[24.70084,9.52517],[24.70041,9.51312],[24.69754,9.51349],[24.69997,9.50859],[24.69524,9.5078],[24.69679,9.49124],[24.69007,9.49083],[24.68007,9.47841],[24.68261,9.47552],[24.67983,9.46545],[24.67151,9.46482],[24.67215,9.46081],[24.66368,9.45867],[24.66345,9.45173],[24.66779,9.45294],[24.66904,9.44916],[24.66611,9.44893],[24.66274,9.44077],[24.66764,9.43628],[24.66419,9.43622],[24.66482,9.4274],[24.6595,9.42642],[24.66423,9.42355],[24.66546,9.41838],[24.66,9.40629],[24.65087,9.40167],[24.6448,9.40373],[24.64008,9.39661],[24.64112,9.39282],[24.63078,9.39284],[24.631,9.38576],[24.62612,9.38817],[24.61706,9.37747],[24.61264,9.36755],[24.61263,9.36366],[24.61674,9.36218],[24.60967,9.35378],[24.61172,9.35339],[24.6108,9.31945],[24.59284,9.30908],[24.5914,9.30642],[24.59466,9.30303],[24.59124,9.29442],[24.5777,9.2866],[24.575,9.27855],[24.56727,9.27063],[24.56827,9.26665],[24.57215,9.26703],[24.56307,9.25098],[24.5687,9.25125],[24.55906,9.24206],[24.5608,9.23811],[24.55425,9.23255],[24.56414,9.20217],[24.56926,9.19912],[24.57056,9.19379],[24.56756,9.18539],[24.57058,9.17023],[24.56587,9.17065],[24.57035,9.16708],[24.56917,9.15975],[24.57161,9.15801],[24.56924,9.14863],[24.55691,9.13264],[24.55244,9.11697],[24.54869,9.11583],[24.54131,9.09832],[24.54578,9.08602],[24.54079,9.07463],[24.54518,9.06843],[24.5433,9.06497],[24.5463,9.06423],[24.54732,9.05535],[24.54136,9.04782],[24.55122,9.02489],[24.54683,9.01616],[24.55099,9.00509],[24.54934,8.98584],[24.55821,8.9791],[24.56173,8.96954],[24.56644,8.96904],[24.57639,8.95288],[24.57523,8.93022],[24.5776,8.92341],[24.57592,8.91428],[24.5701,8.90857],[24.56174,8.90986],[24.55415,8.89875],[24.5561,8.89752],[24.54919,8.89464],[24.546,8.888],[24.54008,8.88683],[24.53083,8.87599],[24.52135,8.87139],[24.51423,8.83968],[24.38849,8.78473],[24.22364,8.64077],[24.23859,8.65752],[24.23966,8.66381],[24.26037,8.69513],[24.26194,8.70161],[24.25283,8.70587],[24.23036,8.70357],[24.21654,8.69243],[24.20042,8.68723],[24.19962,8.69088],[24.16552,8.706],[24.1564,8.70087],[24.14267,8.6828],[24.13049,8.68529],[24.12859,8.68922],[24.11889,8.68663],[24.11427,8.69169],[24.08786,8.68766],[24.08343,8.69223],[24.06559,8.69598],[24.05814,8.70158],[24.05375,8.69881],[24.04824,8.70481],[24.03845,8.70259],[24.03225,8.7086],[24.01524,8.70795],[24.01447,8.70306],[24.00813,8.69987],[24.00371,8.70005],[24.00262,8.70353],[23.99976,8.7007],[23.99464,8.70179],[23.98973,8.71123],[23.98212,8.71122],[23.97639,8.72088],[23.96436,8.72021],[23.96107,8.72234],[23.96256,8.72827],[23.95554,8.73125],[23.94142,8.72466],[23.93332,8.73083],[23.93073,8.72765],[23.91536,8.7311],[23.9113,8.7203],[23.89619,8.71868],[23.88987,8.72492],[23.88667,8.72373],[23.88768,8.71877],[23.88155,8.71567],[23.87385,8.71583],[23.87073,8.72296],[23.86219,8.72447],[23.82937,8.72301],[23.82194,8.71833],[23.81595,8.72052],[23.80712,8.71838],[23.79357,8.70718],[23.787,8.70547],[23.77323,8.71307],[23.76981,8.72357],[23.75857,8.73057],[23.7439,8.72212],[23.73585,8.71268],[23.73104,8.71337],[23.71571,8.72605],[23.71187,8.72766],[23.70986,8.72527],[23.70059,8.73101],[23.6831,8.72981],[23.67905,8.72535],[23.6755,8.72895],[23.66922,8.72759],[23.65919,8.73259],[23.65499,8.73128],[23.63799,8.74997],[23.6238,8.75392],[23.62275,8.75062],[23.61649,8.75123],[23.60996,8.74598],[23.59529,8.75061],[23.5808,8.74955],[23.57768,8.73592],[23.57344,8.72911],[23.56756,8.72875],[23.561,8.71498],[23.54728,8.71705],[23.54445,8.72252],[23.53168,8.72432],[23.51894,8.72117],[23.5165,8.72335],[23.52394,8.75516],[23.50683,8.7684],[23.50471,8.77452],[23.50624,8.78773],[23.51295,8.79758],[23.50547,8.81303],[23.51794,8.82078],[23.51601,8.82954],[23.51806,8.83457],[23.52308,8.83559],[23.52738,8.83219],[23.54034,8.8467],[23.55359,8.85229],[23.55598,8.85996],[23.56986,8.87002],[23.56679,8.87469],[23.57171,8.88152],[23.57054,8.8855],[23.57634,8.89163],[23.57254,8.89565],[23.57335,8.90175],[23.58847,8.91262],[23.58924,8.91685],[23.58249,8.92237],[23.58554,8.92607],[23.58333,8.93107],[23.57209,8.93764],[23.56894,8.94977],[23.57523,8.95318],[23.58123,8.96318],[23.58533,8.97481],[23.58315,8.98379],[23.58989,9.00049],[23.58311,9.00184],[23.57276,9.01862],[23.56061,9.01384],[23.54972,9.00161],[23.54853,8.98369],[23.54335,8.98297],[23.53573,8.96642],[23.5226,8.96266],[23.51245,8.96798],[23.48781,8.97164],[23.48787,8.97983],[23.48132,8.98394],[23.47895,8.98199],[23.47426,8.98645],[23.4569,8.98718],[23.46119,9.00452],[23.45926,9.00884],[23.44098,9.02023],[23.44864,9.03588],[23.45526,9.03831],[23.45773,9.04296],[23.45792,9.05279],[23.45408,9.05533],[23.45833,9.07795],[23.46367,9.09047],[23.46968,9.09581],[23.47001,9.11164],[23.46618,9.11358],[23.46536,9.11943],[23.46979,9.12661],[23.46871,9.14072],[23.4861,9.15644],[23.486,9.17136],[23.49782,9.17771],[23.5003,9.18876],[23.51721,9.18509],[23.52022,9.17791],[23.5326,9.17966],[23.53493,9.17655],[23.55093,9.18176],[23.5596,9.19325],[23.58909,9.213],[23.59193,9.22226],[23.60876,9.22504],[23.61262,9.25013],[23.6258,9.27244],[23.63612,9.2739],[23.64804,9.26778],[23.65765,9.2857],[23.64919,9.29908],[23.64935,9.30557],[23.64485,9.30802],[23.64433,9.31455],[23.63979,9.31742],[23.6336,9.33018],[23.63948,9.34059],[23.63979,9.35278],[23.63641,9.35675],[23.64135,9.36723],[23.63836,9.37754],[23.64793,9.38072],[23.64773,9.40008],[23.65794,9.40275],[23.67106,9.434],[23.67628,9.43648],[23.67034,9.45232],[23.67158,9.45695],[23.66734,9.45777],[23.65683,9.45826],[23.65443,9.45364],[23.64554,9.45019],[23.64114,9.44305],[23.62935,9.4779],[23.63558,9.50146],[23.64027,9.50804],[23.63971,9.53266],[23.64401,9.54024],[23.63579,9.54757],[23.62802,9.5485],[23.63017,9.55964],[23.69625,9.67155],[23.67019,9.8918],[23.29415,10.4873],[23.26953,10.49769],[23.24317,10.5353],[23.20619,10.5551],[23.18741,10.57591],[23.16394,10.59015],[23.14882,10.6218],[23.13374,10.63496],[23.07902,10.66593],[23.04404,10.69465],[23.01461,10.70649],[23.00172,10.70647],[22.97686,10.78002],[22.91947,10.85155],[22.90633,10.87472],[22.87838,10.90134],[22.87681,10.93733],[22.92929,11.09184],[22.92961,11.10132],[22.98829,11.22129],[22.97888,11.30554],[22.93097,11.31762],[22.94365,11.42661],[22.82915,11.41885],[22.786,11.40685],[22.7836,11.44566],[22.7594,11.47766],[22.65689,11.51795],[22.60822,11.56694],[22.56085,11.63204],[22.5551,11.70617],[22.58281,11.85389],[22.63206,12.05152],[22.64275,12.0691],[22.63291,12.07428],[22.62079,12.05666],[22.61471,12.05595],[22.60246,12.05976],[22.59456,12.06745],[22.58715,12.06016],[22.56767,12.05327],[22.55883,12.05256],[22.54112,12.05955],[22.52139,12.04838],[22.5118,12.0367],[22.47933,12.03287],[22.47393,12.04582],[22.47654,12.05159],[22.4742,12.05435],[22.4818,12.07119],[22.47559,12.07727],[22.48657,12.08095],[22.48294,12.09417],[22.48653,12.09702],[22.48456,12.10415],[22.49074,12.10956],[22.4895,12.11767],[22.49275,12.12008],[22.49378,12.14355],[22.49098,12.15136],[22.49597,12.15816],[22.49568,12.16466],[22.48932,12.17227],[22.49164,12.18512],[22.48515,12.19446],[22.48357,12.20749],[22.47802,12.20842],[22.47936,12.21409],[22.47222,12.21656],[22.47587,12.22447],[22.47405,12.23695],[22.462,12.23524],[22.45917,12.2395],[22.46963,12.24359],[22.45547,12.25378],[22.46277,12.26203],[22.44927,12.26349],[22.45357,12.2775],[22.44108,12.2855],[22.44185,12.29316],[22.44882,12.299],[22.43963,12.31081],[22.43966,12.32163],[22.43451,12.3216],[22.43273,12.32563],[22.43717,12.33014],[22.4311,12.33679],[22.43347,12.34315],[22.42497,12.35063],[22.43397,12.35429],[22.42667,12.36076],[22.4328,12.36542],[22.42481,12.37545],[22.43443,12.37557],[22.43385,12.38316],[22.42852,12.39124],[22.4195,12.39617],[22.41252,12.40809],[22.40334,12.41243],[22.40063,12.4234],[22.39034,12.43225],[22.382,12.42786],[22.37275,12.43069],[22.36821,12.44193],[22.37504,12.44805],[22.37765,12.45633],[22.38663,12.46068],[22.3884,12.47077],[22.39376,12.47779],[22.39309,12.4836],[22.40436,12.49012],[22.41647,12.5111],[22.4393,12.51485],[22.4393,12.53558],[22.4362,12.54506],[22.44079,12.5523],[22.44333,12.55107],[22.47665,12.63286],[22.32972,12.6819],[22.20131,12.757],[22.20131,12.71179],[22.15294,12.67056],[21.94507,12.63059],[21.93848,12.63632],[21.93687,12.647],[21.93123,12.64757],[21.92809,12.65163],[21.92479,12.66279],[21.91218,12.67488],[21.89346,12.68105],[21.88775,12.68689],[21.8843,12.70881],[21.85967,12.72912],[21.85481,12.73876],[21.8616,12.76413],[21.86006,12.76871],[21.85313,12.7768],[21.84247,12.77811],[21.82836,12.79646],[21.8152,12.80464],[21.81508,12.81538],[21.82099,12.82245],[21.83995,12.83065],[21.85016,12.84421],[21.857,12.8809],[21.87969,12.92256],[21.88181,12.94522],[21.89838,12.98892],[21.92955,13.01774],[21.93101,13.02333],[21.92615,13.04871],[21.92981,13.05436],[21.9451,13.06867],[21.96633,13.07352],[21.98096,13.0841],[21.98769,13.099],[22.00491,13.11316],[22.01016,13.12541],[22.00743,13.13762],[22.00956,13.14232],[22.0213,13.14393],[22.04517,13.14068],[22.05847,13.14524],[22.06649,13.14344],[22.07314,13.1454],[22.07778,13.15519],[22.08768,13.16533],[22.09631,13.16673],[22.11036,13.16222],[22.1358,13.17109],[22.1444,13.18198],[22.15099,13.20209],[22.16279,13.20868],[22.17062,13.22189],[22.17985,13.22913],[22.18152,13.24946],[22.199,13.25761],[22.20993,13.27437],[22.22174,13.27677],[22.22175,13.28474],[22.23459,13.30107],[22.24998,13.30365],[22.25353,13.30933],[22.25007,13.31816],[22.26182,13.32377],[22.26502,13.33272],[22.28177,13.34197],[22.28167,13.35089],[22.29114,13.35423],[22.28606,13.3698],[22.28859,13.37725],[22.28328,13.38701],[22.26603,13.40663],[22.24804,13.41113],[22.24783,13.41669],[22.23941,13.42109],[22.24249,13.43198],[22.23655,13.43954],[22.23482,13.44887],[22.22173,13.45573],[22.21631,13.47043],[22.22153,13.48165],[22.21804,13.50577],[22.21353,13.51015],[22.21833,13.52544],[22.21611,13.52906],[22.22035,13.53539],[22.2169,13.55799],[22.20101,13.57184],[22.18972,13.58936],[22.1745,13.5924],[22.15755,13.61953],[22.15047,13.61933],[22.14222,13.62954],[22.14478,13.6387],[22.14283,13.64847],[22.13483,13.65147],[22.12703,13.66029],[22.12134,13.67518],[22.1143,13.68332],[22.13149,13.70906],[22.12397,13.73542],[22.11248,13.74424],[22.10739,13.75393],[22.09661,13.7565],[22.08772,13.76868],[22.07248,13.77704],[22.14202,13.85454],[22.20861,13.92134],[22.2121,13.92863],[22.21069,13.93328],[22.21999,13.9371],[22.21435,13.94819],[22.21967,13.95602],[22.21832,13.95955],[22.2314,13.96299],[22.25577,13.9604],[22.26382,13.96911],[22.27733,13.97452],[22.29478,13.9738],[22.3237,14.01266],[22.36165,14.02393],[22.39516,14.05584],[22.41079,14.05749],[22.4161,14.05483],[22.44079,14.05439],[22.48775,14.10823],[22.53908,14.11728],[22.5752,14.19113],[22.55027,14.21133],[22.5491,14.22167],[22.55782,14.23555],[22.50818,14.24843],[22.48448,14.24826],[22.47014,14.24201],[22.42505,14.29347],[22.42856,14.31476],[22.43256,14.31943],[22.44684,14.32367],[22.45077,14.33029],[22.45832,14.33482],[22.46161,14.34828],[22.4442,14.37572],[22.43661,14.41125],[22.44396,14.48692],[22.42817,14.50102],[22.3939,14.52021],[22.38811,14.51121],[22.38299,14.51233],[22.40985,14.60511],[22.44237,14.60885],[22.46474,14.6298],[22.51344,14.64538],[22.57948,14.65119],[22.71711,14.69776],[22.71359,14.72788],[22.66882,14.85173],[22.6714,14.86481],[22.6776,14.86976],[22.67989,14.87666],[22.70274,14.89253],[22.72671,14.90075],[22.74584,14.89904],[22.76018,14.9078],[22.75382,14.91341],[22.75531,14.92308],[22.74934,14.93319],[22.74658,14.95049],[22.75018,14.96794],[22.76623,14.97843],[22.77323,14.98968],[22.7851,14.99523],[22.79988,15.01832],[22.80901,15.02392],[22.81262,15.03511],[22.85182,15.05164],[22.86148,15.06535],[22.86186,15.07665],[22.87375,15.08588],[22.89402,15.09186],[22.91576,15.0891],[22.92757,15.09181],[22.92711,15.09486],[22.93598,15.10158],[22.93994,15.11496],[22.92905,15.15033],[22.93552,15.16057],[22.93618,15.17003],[22.96252,15.18165],[22.9774,15.1937],[22.98322,15.20555],[22.98154,15.2143],[22.98692,15.22324],[22.99703,15.22429],[23.00454,15.23144],[23.00309,15.2432],[22.98403,15.26028],[22.98805,15.26824],[22.98677,15.28438],[23.00059,15.30272],[23.0037,15.31675],[23.00354,15.32505],[22.99174,15.33571],[22.99632,15.34993],[22.99288,15.36621],[22.9866,15.3763],[22.99139,15.38726],[22.98714,15.41198],[22.97153,15.43431],[22.93444,15.46213],[22.92037,15.48522],[22.91901,15.4941],[22.92989,15.5161],[22.92409,15.52975],[22.92711,15.53608],[22.92404,15.54214],[22.92973,15.55533],[22.94032,15.56612],[22.94489,15.56559],[22.95246,15.57248],[22.9612,15.57538],[22.97323,15.57444],[22.99647,15.58712],[23.00888,15.60632],[23.03404,15.62387],[23.04065,15.63332],[23.0442,15.64848],[23.06545,15.66401],[23.07854,15.66756],[23.09488,15.6979],[23.11034,15.70794],[23.11795,15.71718],[23.12609,15.71972],[23.14881,15.71899],[23.16314,15.71362],[23.17498,15.71325],[23.21113,15.72268],[23.22067,15.71273],[23.24364,15.70373],[23.2752,15.70467],[23.28347,15.70907],[23.29637,15.70391],[23.30728,15.68964],[23.32456,15.68866],[23.37266,15.69788],[23.41786,15.69959],[23.43428,15.71481],[23.49645,15.74633],[23.56522,15.7563],[23.59055,15.76445],[23.61065,15.76539],[23.68761,15.76095],[23.73137,15.74706],[23.76525,15.751],[23.78223,15.74401],[23.80971,15.74346],[23.82346,15.73858],[23.85677,15.73948],[23.87865,15.73062],[23.89684,15.72779],[23.91476,15.71943],[23.96075,15.71903],[24,15.6988],[24,20],[25,20],[25,22],[31.31503,22],[31.3383,22.08046],[31.36458,22.13086],[31.38259,22.1545],[31.41841,22.18924],[31.44798,22.2131],[31.47001,22.22492],[31.48373,22.21447],[31.49102,22.19801],[31.5061,22.18609],[31.49985,22.17825],[31.49753,22.16821],[31.45643,22.11944],[31.43411,22.08604],[31.39888,22],[36.88059,22],[36.8743,21.98601],[36.86781,21.97743],[36.86327,21.97647],[36.88403,21.94393],[36.88478,21.9303],[36.87515,21.91988],[36.87614,21.90857],[36.87007,21.90887],[36.869,21.90641],[36.87236,21.90337],[36.87676,21.9042],[36.87897,21.8947],[36.88024,21.87362],[36.8763,21.87022],[36.87532,21.86146],[36.87765,21.853],[36.88238,21.85023],[36.88356,21.83557],[36.87782,21.83228],[36.87061,21.83515],[36.86305,21.83402],[36.86156,21.84172],[36.8539,21.83725],[36.85436,21.83442],[36.86434,21.83056],[36.87149,21.83181],[36.87157,21.82667],[36.86088,21.82241],[36.86696,21.82094],[36.87673,21.83124],[36.88637,21.83175],[36.88798,21.82585],[36.87703,21.79238],[36.86574,21.79198],[36.86692,21.78672],[36.87291,21.79142],[36.87981,21.791],[36.88624,21.76586],[36.87386,21.76441],[36.87088,21.76142],[36.87284,21.75912],[36.87554,21.76263],[36.8849,21.76327],[36.89844,21.73179],[36.89996,21.72254],[36.88252,21.71871],[36.89572,21.72055],[36.90086,21.71715],[36.9002,21.68703],[36.88625,21.68981],[36.88368,21.67755],[36.88616,21.67694],[36.89292,21.68552],[36.89901,21.68341],[36.90482,21.6719],[36.90598,21.64849],[36.89959,21.64365],[36.89282,21.64524],[36.89285,21.64292],[36.89832,21.63604],[36.90162,21.63608],[36.90318,21.64228],[36.90893,21.64467],[36.9151,21.63651],[36.91708,21.62341],[36.91187,21.61228],[36.91749,21.60437],[36.91763,21.59485],[36.93284,21.58938],[36.9322,21.5765],[36.94074,21.56605],[36.94017,21.55755],[36.94626,21.5548],[36.94745,21.54889],[36.95214,21.54792],[36.95389,21.54073],[36.9572,21.53975],[36.97006,21.50528],[36.96514,21.50355],[36.96454,21.50689],[36.9607,21.50594],[36.95777,21.49909],[36.9596,21.49628],[36.95498,21.49236],[36.95074,21.49763],[36.94803,21.48764],[36.95385,21.4845],[36.96151,21.48781],[36.96294,21.48371],[36.96733,21.48428],[36.96501,21.49274],[36.96685,21.4992],[36.97344,21.49979],[36.98337,21.48782],[37.00045,21.44504],[37.00955,21.43279],[37.01536,21.43029],[37.01625,21.42515],[37.01001,21.41916],[36.99475,21.40932],[36.9821,21.40981],[36.98493,21.40406],[36.97833,21.4041],[36.97797,21.40075],[36.982,21.39771],[36.98941,21.39832],[36.98949,21.40218],[36.99459,21.40147],[36.99672,21.40626],[37.00463,21.41085],[37.00593,21.41602],[37.01006,21.41555],[37.01549,21.42102],[37.02506,21.40389],[37.0444,21.38636],[37.05888,21.36104],[37.04524,21.35393],[37.03776,21.35861],[37.02485,21.3582],[37.01566,21.36762],[37.01292,21.36668],[37.01329,21.35948],[37.01743,21.35837],[37.00705,21.354],[37.00301,21.34778],[37.01348,21.34584],[37.0178,21.3513],[37.02099,21.34927],[37.0223,21.34324],[37.01727,21.33971],[37.02271,21.33334],[37.02755,21.34112],[37.02739,21.35347],[37.03211,21.34966],[37.046,21.34828],[37.05104,21.3513],[37.05355,21.34863],[37.05375,21.35481],[37.05949,21.35667],[37.06742,21.34956],[37.09205,21.32461],[37.09211,21.32024],[37.13094,21.26945],[37.14646,21.25804],[37.16318,21.23789],[37.19635,21.21971],[37.20092,21.20509],[37.20779,21.2049],[37.22758,21.17937],[37.23751,21.17536],[37.24942,21.15411],[37.26152,21.14008],[37.27397,21.13197],[37.29012,21.08721],[37.31692,21.06985],[37.31932,21.06369],[37.30875,21.05303],[37.30839,21.04814],[37.3117,21.04637],[37.3027,21.03006],[37.28516,21.04147],[37.28976,21.03482],[37.28717,21.03325],[37.29946,21.02539],[37.29474,21.01878],[37.27116,21.01906],[37.2637,21.02375],[37.26157,21.01845],[37.25691,21.01827],[37.2549,21.01387],[37.25848,21.00104],[37.25485,20.99508],[37.24397,21.02251],[37.23703,21.03055],[37.21481,21.07678],[37.21014,21.07764],[37.21112,21.0873],[37.1998,21.10468],[37.20881,21.09693],[37.21348,21.09646],[37.21836,21.10102],[37.23034,21.08544],[37.23603,21.06825],[37.27856,21.04295],[37.27465,21.04883],[37.27986,21.04875],[37.27175,21.06244],[37.25018,21.07818],[37.24166,21.09148],[37.24156,21.09972],[37.23295,21.10864],[37.23299,21.11662],[37.24157,21.1216],[37.23823,21.12645],[37.23841,21.13366],[37.23576,21.13737],[37.21934,21.13449],[37.21788,21.14143],[37.21291,21.14408],[37.20483,21.14309],[37.2042,21.13845],[37.20878,21.13412],[37.20098,21.13198],[37.19901,21.13634],[37.19435,21.13603],[37.19733,21.13915],[37.19421,21.14736],[37.19809,21.14418],[37.20247,21.14538],[37.19995,21.16029],[37.19595,21.16218],[37.18294,21.16062],[37.17945,21.15389],[37.18341,21.14441],[37.18153,21.14104],[37.17145,21.14647],[37.16321,21.14664],[37.16424,21.16351],[37.16062,21.1681],[37.17405,21.19116],[37.17285,21.19964],[37.15986,21.21816],[37.14415,21.22339],[37.14328,21.2266],[37.13367,21.22727],[37.12931,21.224],[37.12327,21.22445],[37.11553,21.21806],[37.11221,21.20901],[37.11523,21.20917],[37.11652,21.21549],[37.12119,21.21542],[37.11769,21.20946],[37.10322,21.20389],[37.10326,21.20067],[37.10684,21.19994],[37.09626,21.18953],[37.10116,21.18237],[37.09646,21.17408],[37.10423,21.16748],[37.10049,21.1592],[37.11617,21.15667],[37.12336,21.15186],[37.13472,21.15443],[37.12046,21.14269],[37.12029,21.1342],[37.12804,21.12939],[37.12278,21.12161],[37.12353,21.11647],[37.11837,21.11229],[37.12149,21.10486],[37.12672,21.10286],[37.12388,21.09974],[37.12537,21.09023],[37.1324,21.08761],[37.12614,21.08406],[37.1257,21.07518],[37.11261,21.06911],[37.10235,21.07814],[37.09336,21.0734],[37.09125,21.05588],[37.09465,21.03661],[37.10925,21.03085],[37.11164,21.02676],[37.1082,21.01668],[37.11115,21.01079],[37.11747,21.00983],[37.12957,20.99581],[37.12966,20.98835],[37.13411,20.9835],[37.13238,20.97911],[37.14282,20.96635],[37.14509,20.94862],[37.15242,20.94277],[37.15497,20.93637],[37.15046,20.93542],[37.14914,20.93141],[37.15465,20.92916],[37.15525,20.92479],[37.15935,20.92535],[37.16263,20.91483],[37.15873,20.89728],[37.16605,20.89298],[37.17076,20.87707],[37.169,20.85234],[37.17211,20.84414],[37.16907,20.8351],[37.17063,20.81941],[37.1679,20.79673],[37.17609,20.78703],[37.17253,20.78699],[37.16962,20.77847],[37.17667,20.78446],[37.18046,20.7652],[37.18003,20.75541],[37.17428,20.75509],[37.17299,20.74877],[37.17668,20.74945],[37.18433,20.72714],[37.17866,20.70932],[37.18205,20.7006],[37.17974,20.68796],[37.18606,20.68571],[37.19384,20.66391],[37.20251,20.65937],[37.2085,20.64965],[37.2075,20.63007],[37.21226,20.62008],[37.21038,20.61723],[37.22471,20.59627],[37.22693,20.5811],[37.23681,20.56576],[37.24147,20.54135],[37.24028,20.52563],[37.23086,20.48975],[37.23704,20.46291],[37.22394,20.46124],[37.20889,20.46366],[37.20441,20.46142],[37.20177,20.46526],[37.19577,20.46442],[37.18865,20.45457],[37.19117,20.43786],[37.19315,20.43196],[37.19989,20.42714],[37.19913,20.42198],[37.20733,20.39812],[37.20122,20.38339],[37.18935,20.37091],[37.19308,20.35576],[37.18693,20.33304],[37.19387,20.33465],[37.19659,20.31228],[37.19338,20.30607],[37.19575,20.30172],[37.19901,20.30356],[37.20483,20.28379],[37.20433,20.23204],[37.20131,20.23407],[37.20111,20.23973],[37.1981,20.24035],[37.19241,20.22497],[37.19289,20.2188],[37.19699,20.21819],[37.20386,20.22534],[37.20769,20.18934],[37.21419,20.1804],[37.20865,20.17661],[37.2142,20.1562],[37.21747,20.08363],[37.21297,20.06016],[37.20549,20.04682],[37.20063,20.04356],[37.20052,20.05308],[37.19713,20.05176],[37.1906,20.03882],[37.1854,20.04134],[37.18193,20.03513],[37.18482,20.02022],[37.19003,20.0177],[37.19368,20.00796],[37.18963,20.0047],[37.18142,20.00783],[37.18038,20.00422],[37.18179,19.9996],[37.19468,20.00359],[37.19561,19.98198],[37.20174,19.96942],[37.20874,19.9646],[37.21235,19.94662],[37.20585,19.9432],[37.21137,19.93631],[37.21184,19.94301],[37.21842,19.93947],[37.22417,19.91224],[37.23104,19.90587],[37.22895,19.89864],[37.23468,19.89664],[37.2354,19.89304],[37.23907,19.89385],[37.24659,19.87796],[37.25399,19.87314],[37.25296,19.86772],[37.25754,19.85979],[37.25371,19.8492],[37.25999,19.84745],[37.25936,19.8423],[37.25437,19.8389],[37.25606,19.83326],[37.25972,19.83458],[37.26009,19.83844],[37.26485,19.83849],[37.26735,19.84572],[37.26942,19.84343],[37.26934,19.83853],[37.26474,19.83591],[37.26704,19.81148],[37.26349,19.78853],[37.26626,19.78341],[37.26737,19.75639],[37.26158,19.73805],[37.26211,19.70201],[37.25658,19.69784],[37.25671,19.68574],[37.2611,19.68269],[37.25606,19.67106],[37.24451,19.65833],[37.24778,19.68256],[37.24572,19.68473],[37.24024,19.68271],[37.23708,19.65414],[37.24144,19.65315],[37.23845,19.62789],[37.24125,19.60835],[37.24006,19.6055],[37.23435,19.60545],[37.22543,19.62622],[37.22708,19.61233],[37.22346,19.60792],[37.23454,19.6003],[37.23573,19.59104],[37.24194,19.58209],[37.24718,19.54996],[37.25016,19.55025],[37.27306,19.51674],[37.27451,19.50774],[37.27992,19.50985],[37.28153,19.4988],[37.29335,19.48526],[37.29294,19.47239],[37.28874,19.47196],[37.28716,19.4798],[37.28322,19.48015],[37.28237,19.47048],[37.28993,19.4618],[37.29566,19.43302],[37.3032,19.42588],[37.3033,19.40297],[37.30879,19.39658],[37.31423,19.36882],[37.31991,19.35729],[37.32051,19.33876],[37.31725,19.33898],[37.31733,19.33178],[37.31081,19.33262],[37.30691,19.32885],[37.31039,19.32038],[37.31501,19.31991],[37.32145,19.2865],[37.32336,19.28549],[37.32467,19.29013],[37.3227,19.29732],[37.32852,19.29841],[37.32325,19.25665],[37.33143,19.23767],[37.33103,19.22427],[37.33575,19.21325],[37.33082,19.19157],[37.33441,19.17075],[37.33979,19.16153],[37.33864,19.14143],[37.34474,19.1402],[37.34928,19.13406],[37.35453,19.13643],[37.35647,19.13233],[37.34966,19.12299],[37.34224,19.11971],[37.33518,19.12132],[37.3373,19.12572],[37.3343,19.12775],[37.33444,19.11397],[37.33216,19.11228],[37.3386,19.10487],[37.34168,19.10747],[37.34201,19.11546],[37.35749,19.12512],[37.35642,19.11018],[37.36188,19.10611],[37.36783,19.09277],[37.36812,19.07681],[37.37274,19.07608],[37.37346,19.07094],[37.3694,19.07116],[37.36884,19.05892],[37.37709,19.05938],[37.38262,19.04784],[37.38203,19.03908],[37.39288,19.02347],[37.39488,18.99825],[37.40305,18.9924],[37.40643,18.9932],[37.40776,18.98163],[37.40321,18.97644],[37.39806,18.97717],[37.394,18.96245],[37.39876,18.94576],[37.4108,18.93247],[37.40869,18.92602],[37.4161,18.91501],[37.41078,18.89153],[37.41283,18.87429],[37.41962,18.87152],[37.43183,18.83892],[37.44571,18.82899],[37.44413,18.82486],[37.45308,18.8221],[37.46412,18.81215],[37.47281,18.7924],[37.48316,18.7845],[37.48983,18.76447],[37.49336,18.76269],[37.49339,18.75857],[37.49935,18.75682],[37.50621,18.74606],[37.5052,18.73729],[37.50904,18.73089],[37.51825,18.72877],[37.52578,18.73385],[37.54186,18.71775],[37.56942,18.71848],[37.57228,18.71567],[37.57084,18.71012],[37.58498,18.71602],[37.6008,18.71511],[37.66302,18.72535],[37.67602,18.73884],[37.68048,18.72174],[37.69814,18.70886],[37.69492,18.70678],[37.7009,18.70231],[37.70631,18.70183],[37.7095,18.70765],[37.71682,18.705],[37.72275,18.70697],[37.72542,18.71162],[37.74166,18.70813],[37.75097,18.69119],[37.74746,18.6913],[37.74412,18.68574],[37.74485,18.67931],[37.75217,18.67684],[37.75388,18.68194],[37.7584,18.67373],[37.76884,18.66813],[37.76708,18.65009],[37.78321,18.64247],[37.78352,18.63681],[37.79302,18.63069],[37.7966,18.62118],[37.8069,18.61545],[37.90244,18.58655],[37.93225,18.57165],[37.95341,18.55516],[37.97654,18.52592],[37.99507,18.49589],[38.01598,18.47411],[38.05094,18.4493],[38.11697,18.41356],[38.11836,18.40623],[38.0909,18.39464],[38.08261,18.38043],[38.07884,18.35362],[38.07996,18.34513],[38.08786,18.33126],[38.08521,18.32275],[38.09106,18.31273],[38.09929,18.31045],[38.09597,18.30078],[38.09166,18.30127],[38.07889,18.29413],[38.07946,18.28666],[38.08897,18.2992],[38.09356,18.29922],[38.10087,18.2932],[38.10254,18.28162],[38.10934,18.27109],[38.1169,18.26855],[38.11881,18.26341],[38.15095,18.25132],[38.15714,18.25328],[38.15766,18.2574],[38.16279,18.25614],[38.15652,18.24271],[38.16153,18.23784],[38.17959,18.23766],[38.18529,18.23073],[38.1931,18.23231],[38.20093,18.22771],[38.20254,18.23093],[38.20874,18.23057],[38.21199,18.22608],[38.22439,18.22587],[38.23759,18.22811],[38.2548,18.23823],[38.25769,18.25447],[38.24756,18.26061],[38.25301,18.27815],[38.2619,18.28101],[38.26947,18.27512],[38.2843,18.2744],[38.28752,18.27931],[38.28627,18.2878],[38.27804,18.28816],[38.27141,18.29547],[38.27207,18.29882],[38.27773,18.29936],[38.28043,18.29783],[38.28046,18.2919],[38.28719,18.29244],[38.29264,18.27855],[38.3059,18.26791],[38.31562,18.26447],[38.30781,18.26148],[38.29797,18.26235],[38.2954,18.26427],[38.29903,18.26699],[38.29645,18.2711],[38.29215,18.26773],[38.28458,18.27195],[38.26679,18.27111],[38.26209,18.26582],[38.26145,18.25963],[38.27415,18.25247],[38.27727,18.24656],[38.26574,18.23132],[38.25867,18.21467],[38.26004,18.21069],[38.27489,18.20263],[38.29674,18.19975],[38.30025,18.19719],[38.3011,18.18766],[38.34239,18.17093],[38.37173,18.17837],[38.37158,18.18378],[38.36605,18.18608],[38.35819,18.19687],[38.35334,18.19634],[38.35522,18.19944],[38.36248,18.20371],[38.38001,18.20081],[38.38391,18.20391],[38.38244,18.19901],[38.38756,18.19852],[38.38893,18.19337],[38.40353,18.17976],[38.4072,18.17102],[38.4048,18.16328],[38.39779,18.16455],[38.39391,18.15655],[38.39904,18.15167],[38.39637,18.14574],[38.40367,18.13906],[38.40426,18.12181],[38.41022,18.1141],[38.43313,18.10876],[38.44205,18.09977],[38.45159,18.10675],[38.45464,18.12041],[38.45896,18.12017],[38.46056,18.12481],[38.46352,18.12353],[38.46422,18.11451],[38.4807,18.10142],[38.47681,18.09458],[38.47116,18.09225],[38.46792,18.09482],[38.46872,18.09881],[38.45469,18.10624],[38.45362,18.10341],[38.45902,18.10059],[38.45784,18.08693],[38.46419,18.08128],[38.47901,18.08107],[38.47957,18.07257],[38.48927,18.07118],[38.48445,18.06241],[38.48635,18.05687],[38.49955,18.05291],[38.5087,18.05796],[38.51863,18.07035],[38.52725,18.06651],[38.52698,18.06986],[38.51718,18.07481],[38.52032,18.09096],[38.51383,18.0997],[38.50521,18.102],[38.50396,18.11513],[38.50692,18.11553],[38.51098,18.11026],[38.51127,18.10279],[38.51935,18.10191],[38.54472,18.08278],[38.5619,18.04959],[38.56138,18.04418],[38.55505,18.04313],[38.55748,18.04043],[38.56367,18.04187],[38.56449,18.03916],[38.5552,18.03618],[38.55616,18.02948],[38.56991,18.02346],[38.57474,18.0303],[38.58139,18.02046],[38.45208,17.89919],[38.38823,17.75489],[38.39029,17.73892],[38.34483,17.65233],[38.27938,17.63771],[38.27624,17.63033],[38.27722,17.60912],[38.26556,17.60569],[38.2628,17.60117],[38.26642,17.58428],[38.26129,17.5745],[38.26214,17.56808],[38.24245,17.55063],[38.23138,17.55088],[38.22077,17.56002],[38.20821,17.56552],[38.20565,17.55895],[38.19291,17.55194],[38.17948,17.58164],[38.16815,17.58488],[38.16583,17.58054],[38.15704,17.58343],[38.14529,17.57309],[38.13883,17.57094],[38.13399,17.57542],[38.12897,17.57492],[38.12497,17.57399],[38.12132,17.56784],[38.10804,17.56534],[38.10399,17.55814],[38.10558,17.55246],[38.09834,17.54113],[38.10053,17.52209],[38.09744,17.51527],[38.08238,17.5219],[38.07722,17.54503],[38.06914,17.5498],[38.06156,17.56573],[38.04085,17.56533],[38.03818,17.5512],[38.03109,17.55195],[38.02891,17.54482],[38.01401,17.55263],[38.00413,17.56333],[37.97059,17.50449],[37.97641,17.49927],[37.97442,17.49345],[37.97785,17.48699],[37.96873,17.48313],[37.96725,17.4778],[37.95716,17.47349],[37.95288,17.46735],[37.92388,17.4648],[37.89846,17.45174],[37.87493,17.44732],[37.8647,17.45888],[37.86488,17.46799],[37.85831,17.4779],[37.85531,17.4943],[37.84501,17.50277],[37.83593,17.50186],[37.83311,17.50499],[37.82314,17.50199],[37.8125,17.50498],[37.80815,17.49994],[37.80137,17.49825],[37.78836,17.50157],[37.77341,17.48337],[37.78304,17.47902],[37.78022,17.47403],[37.78153,17.46837],[37.77812,17.46602],[37.77998,17.45984],[37.77422,17.44387],[37.77283,17.42223],[37.768,17.41263],[37.76278,17.38347],[37.74543,17.38774],[37.74161,17.38257],[37.61143,17.37281],[37.51164,17.33921],[37.49892,17.30393],[37.50224,17.29224],[37.51954,17.27763],[37.52147,17.26745],[37.51678,17.26221],[37.49884,17.25654],[37.49806,17.24882],[37.50189,17.24311],[37.49679,17.24082],[37.49785,17.22912],[37.49318,17.22311],[37.4983,17.21216],[37.50519,17.20759],[37.50612,17.20149],[37.48465,17.19006],[37.48143,17.17501],[37.47191,17.16452],[37.47172,17.1499],[37.46055,17.14005],[37.45914,17.13459],[37.46264,17.12212],[37.46043,17.11766],[37.44292,17.1015],[37.42646,17.10132],[37.42235,17.09359],[37.4114,17.08461],[37.4148,17.0771],[37.40954,17.07308],[37.4057,17.07386],[37.40503,17.05816],[37.39594,17.05405],[37.39106,17.05726],[37.38014,17.05629],[37.3718,17.06238],[37.35967,17.06302],[37.3492,17.06999],[37.34878,17.07512],[37.32004,17.09575],[37.31364,17.09676],[37.30512,17.09628],[37.28867,17.08778],[37.24307,17.08486],[37.23401,17.08044],[37.21069,17.07877],[37.19954,17.06882],[37.17974,17.06749],[37.15226,17.07277],[37.14594,17.07936],[37.14569,17.08541],[37.13258,17.08684],[37.12567,17.09294],[37.11105,17.09173],[37.10133,17.08227],[37.09798,17.08383],[37.08902,17.0771],[37.07804,17.07902],[37.07497,17.08407],[37.06248,17.08772],[37.06308,17.09022],[37.05401,17.0941],[37.04873,17.09233],[37.04567,17.10078],[37.02736,17.10754],[37.01453,17.09858],[37.01796,17.09179],[37.01423,17.08616],[37.00728,17.08487],[37.00163,17.07891],[37.00599,17.06684],[37.01231,17.06325],[37.01663,17.0394],[37.02999,17.03099],[37.02553,17.0226],[37.01694,17.02175],[37.01144,17.01229],[37.001,17.00425],[36.99264,16.98947],[36.99287,16.98171],[36.9981,16.97759],[37.00318,16.96641],[37.00268,16.94613],[37.01454,16.93987],[37.01361,16.93357],[37.00373,16.93354],[36.99765,16.92828],[36.99857,16.90698],[37.00796,16.89903],[37.00399,16.89398],[37.00621,16.88756],[36.99282,16.88511],[36.98855,16.8759],[36.99629,16.86981],[36.99554,16.86212],[37.0013,16.84727],[36.99892,16.84314],[37.01113,16.83698],[37.01646,16.82999],[37.00898,16.81857],[37.00664,16.80855],[37.00768,16.80544],[37.01285,16.80517],[37.01421,16.79524],[37.0061,16.77797],[37.00961,16.76953],[37.00521,16.76472],[37.00691,16.74933],[36.99273,16.74268],[36.98552,16.73484],[36.97358,16.70902],[36.96749,16.71137],[36.93708,16.7071],[36.92327,16.68126],[36.91154,16.69171],[36.90223,16.68661],[36.90346,16.67966],[36.89243,16.65869],[36.89632,16.64999],[36.89554,16.63958],[36.89312,16.63953],[36.88698,16.62223],[36.88231,16.6208],[36.8883,16.60157],[36.88588,16.59707],[36.88958,16.59217],[36.88653,16.59066],[36.88331,16.57908],[36.87989,16.55598],[36.8833,16.55519],[36.88037,16.55117],[36.87717,16.55083],[36.87587,16.55453],[36.87076,16.55238],[36.86851,16.54024],[36.85887,16.53486],[36.8742,16.50834],[36.88442,16.50071],[36.89124,16.5012],[36.89344,16.47884],[36.8899,16.45696],[36.89262,16.44973],[36.89895,16.44828],[36.90199,16.43928],[36.90741,16.4376],[36.92848,16.45692],[36.93126,16.45313],[36.92934,16.4472],[36.93331,16.44637],[36.93831,16.43452],[36.96687,16.43246],[36.96124,16.41379],[36.96181,16.39861],[36.95285,16.38835],[36.95291,16.37224],[36.95066,16.36921],[36.93461,16.37319],[36.93347,16.36889],[36.93644,16.35293],[36.93417,16.33059],[36.94028,16.32721],[36.94381,16.32295],[36.94284,16.31851],[36.95091,16.31099],[36.94777,16.29965],[36.95147,16.29556],[36.94721,16.29224],[36.95806,16.28452],[36.93823,16.275],[36.92925,16.26727],[36.92427,16.26695],[36.92428,16.2601],[36.91983,16.25158],[36.91631,16.25081],[36.91738,16.24815],[36.90795,16.23715],[36.90072,16.23637],[36.89526,16.22793],[36.89435,16.21474],[36.76778,15.83745],[36.70482,15.73924],[36.65588,15.5793],[36.63048,15.50858],[36.63665,15.49553],[36.63734,15.48043],[36.6188,15.45157],[36.53431,15.22904],[36.50246,15.22438],[36.43335,15.16734],[36.45606,15.04016],[36.52406,14.3389],[36.54741,14.26587],[36.56,14.25667],[36.46565,13.97805],[36.4972,13.83482],[36.47831,13.81721],[36.47641,13.7988],[36.46998,13.79214],[36.46698,13.78076],[36.45629,13.77923],[36.45322,13.77386],[36.45172,13.77679],[36.40885,13.65902],[36.39085,13.54705],[36.38654,13.53926],[36.38247,13.53793],[36.38091,13.5295],[36.2824,13.37381],[36.17147,13.02341],[36.16849,13.01851],[36.16147,13.01753],[36.16135,12.99515],[36.1645,12.99408],[36.16101,12.98362],[36.1642,12.98229],[36.16333,12.9775],[36.15138,12.96122],[36.15184,12.9579],[36.14608,12.95389],[36.14671,12.94905],[36.14301,12.94723],[36.14662,12.94181],[36.14348,12.93656],[36.14941,12.91801],[36.16234,12.91199],[36.1671,12.906],[36.17637,12.90374],[36.15992,12.69718],[36.11825,12.68754],[36.09901,12.6892],[36.10247,12.69814],[36.09412,12.71264],[36.07635,12.72047],[36.07824,12.72274],[36.07494,12.72583],[36.05786,12.72182],[36.04847,12.72476],[36.04299,12.72061],[36.0263,12.71674],[36.00905,12.72423],[35.77248,12.6628],[35.77388,12.67194],[35.76894,12.67334],[35.76221,12.66773],[35.76508,12.66402],[35.76215,12.66197],[35.75895,12.6638],[35.75612,12.65974],[35.73981,12.65665],[35.73837,12.65947],[35.74156,12.66143],[35.73899,12.66345],[35.73664,12.6613],[35.72898,12.66989],[35.71778,12.67217],[35.71265,12.66822],[35.70814,12.67283],[35.70433,12.66929],[35.69837,12.67313],[35.6617,12.63659],[35.31071,12.04585],[35.26979,11.9442],[35.0869,11.80754],[35.04363,11.73412],[35.06186,11.69224],[35.06182,11.68148],[35.06958,11.67367],[35.06862,11.67047],[35.07169,11.66961],[35.08276,11.64417],[35.07742,11.53469],[35.04587,11.47804],[35.04501,11.42097],[34.98814,11.34073],[34.96667,11.28156],[34.94686,11.26864],[34.94477,11.26202],[34.94724,11.25432],[34.94257,11.25401],[34.94057,11.24916],[34.93666,11.24951],[34.9342,11.24603],[34.93034,11.24724],[34.92839,11.23762],[34.93769,11.23909],[34.96507,11.23326],[35.00055,11.18714],[34.95313,10.94928],[34.96362,10.94813],[34.96106,10.93227],[34.98602,10.9066],[34.98742,10.89014],[34.94416,10.86824],[34.86922,10.80518],[34.86643,10.7636],[34.87497,10.76203],[34.87896,10.75713],[34.86718,10.72997],[34.85886,10.72724],[34.85601,10.72035],[34.8522,10.72145],[34.83661,10.71109],[34.83174,10.71106],[34.81987,10.72378],[34.80464,10.72596],[34.78707,10.70639],[34.78233,10.7106],[34.77707,10.70933],[34.78111,10.71889],[34.79052,10.72476],[34.78866,10.73947],[34.79178,10.74122],[34.79019,10.74536],[34.79466,10.75411],[34.76272,10.75627],[34.70333,10.8216],[34.60282,10.90598],[34.46556,10.81394],[34.39075,10.67751],[34.29458,10.5849],[34.29856,10.57206],[34.29613,10.56242],[34.28404,10.54156],[34.2847,10.53801],[34.28025,10.53868],[34.29681,10.4797],[34.30887,10.45245],[34.29755,10.39899],[34.33863,10.2815],[34.3468,10.24267],[34.34659,10.22541],[34.33436,10.17914],[34.33292,10.15591],[34.32546,10.13652],[34.33365,10.11896],[34.23338,10.04939],[34.21661,9.92612],[34.224,9.88655],[34.16194,9.76546],[34.147,9.71348]],[[37.75268,18.67652],[37.75195,18.66866],[37.74385,18.66835],[37.73679,18.67217],[37.73224,18.66712],[37.73546,18.65117],[37.74077,18.64657],[37.73719,18.63728],[37.7444,18.6296],[37.76496,18.62536],[37.77087,18.63055],[37.77242,18.6397],[37.76703,18.63889],[37.76545,18.63231],[37.7618,18.63332],[37.76254,18.6426],[37.75845,18.64772],[37.76643,18.66503],[37.75268,18.67652]]],[[[38.49881,18.12607],[38.49422,18.1285],[38.49716,18.13804],[38.50026,18.13779],[38.50325,18.1275],[38.49881,18.12607]]],[[[38.48824,18.14652],[38.49173,18.15039],[38.48875,18.15657],[38.49225,18.15683],[38.49402,18.15143],[38.48824,18.14652]]],[[[38.43192,18.14868],[38.42975,18.15395],[38.43311,18.15693],[38.43536,18.16827],[38.4313,18.17469],[38.43167,18.18397],[38.42211,18.18445],[38.42452,18.18897],[38.43801,18.18308],[38.44824,18.18659],[38.45306,18.1982],[38.45871,18.19886],[38.4667,18.1869],[38.46242,18.17633],[38.4523,18.18119],[38.44733,18.17526],[38.46231,18.1686],[38.48206,18.14161],[38.48115,18.13182],[38.47481,18.1318],[38.47721,18.14211],[38.47248,18.14545],[38.463,18.16345],[38.44667,18.17075],[38.4405,18.1639],[38.43905,18.15385],[38.43192,18.14868]]],[[[38.41256,18.13819],[38.39691,18.14587],[38.39932,18.14884],[38.41039,18.14372],[38.41886,18.1471],[38.41875,18.14066],[38.41256,18.13819]]],[[[38.38478,18.22504],[38.37695,18.22733],[38.38288,18.22864],[38.38478,18.22504]]],[[[38.36645,18.22446],[38.35563,18.23486],[38.34781,18.23638],[38.33792,18.24806],[38.33913,18.25026],[38.35126,18.24888],[38.37153,18.23556],[38.37398,18.22745],[38.36645,18.22446]]],[[[38.33255,18.20863],[38.33118,18.21224],[38.31879,18.21219],[38.31202,18.21925],[38.30866,18.21731],[38.30255,18.22733],[38.31873,18.22778],[38.34085,18.22257],[38.34585,18.21847],[38.34573,18.21486],[38.33255,18.20863]]],[[[38.33315,18.26286],[38.33069,18.27006],[38.33489,18.26608],[38.33315,18.26286]]],[[[38.32457,18.25085],[38.32401,18.25471],[38.32751,18.25614],[38.32941,18.25357],[38.32457,18.25085]]],[[[38.3253,18.27069],[38.32232,18.27325],[38.32744,18.27378],[38.3253,18.27069]]],[[[38.30261,18.28194],[38.30069,18.28786],[38.30526,18.29148],[38.30865,18.28711],[38.30745,18.28311],[38.30261,18.28194]]],[[[38.23538,18.3028],[38.23117,18.30922],[38.22604,18.30998],[38.22643,18.31307],[38.23236,18.31399],[38.23266,18.3082],[38.24289,18.31082],[38.23538,18.3028]]],[[[38.22968,18.61225],[38.23073,18.61985],[38.2337,18.62051],[38.23441,18.61317],[38.22968,18.61225]]],[[[38.20898,19.05414],[38.20896,19.05813],[38.21193,19.05891],[38.21222,19.05557],[38.20898,19.05414]]],[[[38.19224,18.24158],[38.19357,18.24545],[38.19521,18.24211],[38.19224,18.24158]]],[[[38.18653,19.21385],[38.18596,19.21848],[38.19165,19.21876],[38.18653,19.21385]]],[[[38.18602,18.24786],[38.18571,18.25559],[38.19044,18.25316],[38.18602,18.24786]]],[[[38.17087,18.81779],[38.16541,18.82794],[38.15945,18.8301],[38.15527,18.82686],[38.15363,18.83072],[38.16265,18.83939],[38.17646,18.83572],[38.17651,18.8267],[38.17087,18.81779]]],[[[38.16768,18.8067],[38.16604,18.8112],[38.17536,18.81253],[38.17308,18.80801],[38.16768,18.8067]]],[[[38.14757,18.82644],[38.14755,18.83044],[38.15323,18.83072],[38.15351,18.82789],[38.14757,18.82644]]],[[[38.02404,18.76557],[37.99995,18.76995],[37.993,18.77867],[37.99524,18.78898],[38.00334,18.7907],[38.02081,18.78603],[38.0298,18.77423],[38.03038,18.76857],[38.02404,18.76557]]],[[[37.76033,18.89058],[37.76247,18.89395],[37.76482,18.89181],[37.76033,18.89058]]],[[[37.74352,18.63951],[37.74482,18.64608],[37.74568,18.63991],[37.74352,18.63951]]],[[[37.74237,18.64851],[37.73829,18.65274],[37.74099,18.65275],[37.74237,18.64851]]],[[[37.65925,18.77426],[37.66274,18.77737],[37.66451,18.77584],[37.65925,18.77426]]],[[[37.55915,18.71879],[37.56182,18.7219],[37.57155,18.72262],[37.57157,18.71978],[37.55915,18.71879]]],[[[37.40955,18.99233],[37.40748,18.99708],[37.40963,18.99787],[37.40955,18.99233]]],[[[37.40043,18.9553],[37.4007,18.96921],[37.40394,18.97052],[37.40043,18.9553]]],[[[37.40097,19.01273],[37.39564,19.01757],[37.39518,19.02298],[37.40048,19.02122],[37.40097,19.01273]]],[[[37.33602,20.78145],[37.33566,20.78891],[37.33963,20.78895],[37.33602,20.78145]]],[[[37.33693,19.10885],[37.33608,19.11232],[37.33934,19.11132],[37.33693,19.10885]]],[[[37.31774,19.31749],[37.31603,19.32584],[37.31919,19.32227],[37.31774,19.31749]]],[[[37.25923,20.74542],[37.25021,20.75665],[37.24877,20.76308],[37.25205,20.82283],[37.25702,20.83086],[37.25531,20.83677],[37.26678,20.85169],[37.29028,20.84433],[37.28227,20.82597],[37.27528,20.76669],[37.26921,20.75903],[37.26209,20.75909],[37.25666,20.75543],[37.25923,20.74542]]],[[[37.19365,21.14838],[37.18917,21.1558],[37.19247,21.15557],[37.19365,21.14838]]],[[[37.1915,21.12236],[37.18689,21.12926],[37.19243,21.12494],[37.1915,21.12236]]],[[[37.14052,21.20611],[37.13994,21.2088],[37.14707,21.20914],[37.14764,21.20709],[37.14052,21.20611]]]]}},{"type":"Feature","properties":{"ISO_A3":"","WB_A3":"","WB_NAME":"Abyei","WB_REGION":"","STATUS":"non-determined","AREA_ID":"abyei","CLAIMANTS":"SDN,SSD"},"geometry":{"type":"MultiPolygon","coordinates":[[[[29,9.67356],[28.97856,9.64659],[28.78724,9.49406],[28.78148,9.48155],[28.77937,9.45921],[28.7359,9.40334],[28.74443,9.34722],[28.03889,9.34722],[27.90555,9.6125],[27.83333,9.79445],[27.83333,10.16667],[29,10.16667],[29,9.67356]]]]}}]}