{"type":"FeatureCollection","features":[{"type":"Feature","properties":{"ISO_A3":"SGP","WB_A3":"SGP","WB_NAME":"Singapore","WB_REGION":"EAS"},"geometry":{"type":"MultiPolygon","coordinates":[[[[104.01628,1.39849],[104.01539,1.40184],[104.02768,1.40185],[104.03011,1.41164],[104.02358,1.40868],[104.01192,1.41086],[104.01,1.4253],[104.01589,1.4293],[104.02601,1.41809],[104.02717,1.4128],[104.03114,1.41293],[104.02972,1.42544],[104.03689,1.42466],[104.04432,1.43111],[104.04893,1.4297],[104.05252,1.42351],[104.05393,1.4297],[104.05841,1.43189],[104.06123,1.42223],[104.06968,1.42455],[104.07609,1.42185],[104.08557,1.4096],[104.07943,1.38794],[104.05331,1.37607],[104.04152,1.3771],[104.04217,1.3704],[104.0332,1.37839],[104.04152,1.37736],[104.046,1.38613],[104.03511,1.40249],[104.03127,1.40365],[104.02141,1.39798],[104.02769,1.39205],[104.02474,1.38534],[104.01628,1.39849]]],[[[104.05431,1.43241],[104.0374,1.43743],[104.02306,1.43549],[104.04329,1.44027],[104.04714,1.43498],[104.05431,1.43241]]],[[[103.86104,1.42375],[103.87244,1.42395],[103.87936,1.41634],[103.89371,1.4139],[103.89525,1.40926],[103.9019,1.41945],[103.9124,1.42139],[103.91574,1.4103],[103.9246,1.40312],[103.92593,1.39811],[103.93111,1.39961],[103.93778,1.39046],[103.94931,1.38312],[103.96621,1.38248],[103.97825,1.39267],[103.98824,1.39319],[103.99925,1.3892],[104.00669,1.37399],[104.00618,1.36935],[104.01233,1.37],[104.0341,1.36047],[104.02067,1.32759],[104.02233,1.32502],[104.03181,1.32541],[104.03207,1.31548],[104.02874,1.31574],[104.02874,1.32012],[104.0231,1.32012],[104.02259,1.31522],[104.00902,1.31431],[104.00185,1.30967],[103.99365,1.31353],[103.9852,1.31224],[103.9843,1.31624],[103.96214,1.31429],[103.89376,1.29364],[103.87558,1.28074],[103.86538,1.29391],[103.86175,1.28602],[103.87238,1.27881],[103.86227,1.26926],[103.85189,1.27106],[103.85177,1.26075],[103.84683,1.26533],[103.83614,1.26758],[103.82423,1.2628],[103.83742,1.26358],[103.84127,1.25675],[103.83589,1.25469],[103.82641,1.25726],[103.82846,1.25455],[103.84665,1.2534],[103.84819,1.25018],[103.84448,1.24502],[103.84025,1.24734],[103.84,1.23999],[103.83231,1.23754],[103.80695,1.2597],[103.8236,1.25687],[103.82359,1.2628],[103.81284,1.26628],[103.80387,1.26305],[103.77748,1.27954],[103.77083,1.26832],[103.7511,1.28055],[103.75673,1.28533],[103.76929,1.27876],[103.77133,1.28456],[103.76083,1.2901],[103.76172,1.29628],[103.75442,1.30557],[103.75634,1.29783],[103.75186,1.29538],[103.73035,1.3013],[103.72535,1.30967],[103.72343,1.30606],[103.7265,1.30529],[103.7274,1.30065],[103.71241,1.30889],[103.72061,1.30219],[103.71933,1.29948],[103.71216,1.29935],[103.71204,1.29291],[103.72497,1.28956],[103.73138,1.279],[103.73522,1.27874],[103.74022,1.27256],[103.73318,1.26933],[103.72601,1.27113],[103.72345,1.26868],[103.72742,1.26611],[103.72243,1.26108],[103.70654,1.26854],[103.70501,1.26532],[103.71436,1.25914],[103.69618,1.25114],[103.6922,1.26532],[103.68528,1.26802],[103.68068,1.26273],[103.68439,1.25912],[103.67761,1.24623],[103.68069,1.24546],[103.68708,1.25397],[103.69055,1.24237],[103.68607,1.24108],[103.6789,1.22703],[103.67723,1.23747],[103.68043,1.24417],[103.67275,1.24249],[103.66442,1.24829],[103.65673,1.27071],[103.68758,1.29058],[103.69565,1.28981],[103.68438,1.2764],[103.68708,1.2733],[103.69578,1.27692],[103.7009,1.28465],[103.70859,1.27538],[103.71102,1.2777],[103.70346,1.29033],[103.71114,1.29188],[103.71126,1.30812],[103.70909,1.30167],[103.70243,1.30193],[103.69756,1.30746],[103.69372,1.3063],[103.69372,1.30063],[103.6845,1.29921],[103.68334,1.30475],[103.6822,1.29805],[103.67784,1.29792],[103.67284,1.30629],[103.66964,1.30578],[103.66965,1.30036],[103.67605,1.29341],[103.66581,1.2885],[103.65018,1.3019],[103.65726,1.31006],[103.64851,1.30293],[103.64659,1.30911],[103.65145,1.31401],[103.64352,1.3113],[103.6357,1.31375],[103.65019,1.28153],[103.63764,1.27946],[103.63918,1.26993],[103.6219,1.26167],[103.62152,1.2578],[103.61563,1.25445],[103.62166,1.23924],[103.61756,1.23538],[103.62192,1.22558],[103.61667,1.22506],[103.61718,1.22146],[103.61155,1.22197],[103.61001,1.22712],[103.61859,1.23202],[103.61256,1.23975],[103.61858,1.24208],[103.61512,1.24762],[103.61038,1.24697],[103.61,1.25187],[103.61857,1.26115],[103.61818,1.26695],[103.60922,1.26785],[103.60628,1.26295],[103.60871,1.26901],[103.61562,1.26863],[103.62189,1.28564],[103.61714,1.29415],[103.63466,1.34056],[103.63312,1.35051],[103.65546,1.40036],[103.66773,1.41569],[103.67218,1.42808],[103.68162,1.43719],[103.69234,1.43983],[103.71239,1.45741],[103.72661,1.46008],[103.74506,1.45033],[103.759,1.4483],[103.76955,1.45282],[103.77048,1.44916],[103.80172,1.46864],[103.81709,1.47096],[103.82593,1.46646],[103.82836,1.47149],[103.83438,1.4644],[103.84963,1.45667],[103.85553,1.44173],[103.86168,1.43735],[103.86283,1.43348],[103.85682,1.42574],[103.86104,1.42375]]],[[[103.95801,1.39949],[103.95327,1.40542],[103.95928,1.41806],[103.99002,1.41807],[103.9913,1.40789],[103.97773,1.40788],[103.96825,1.40092],[103.95801,1.39949]]],[[[103.95237,1.40581],[103.92649,1.42217],[103.93443,1.42771],[103.94826,1.42269],[103.94673,1.41805],[103.95518,1.41934],[103.95237,1.40581]]],[[[103.95391,1.39988],[103.94878,1.40387],[103.9534,1.40336],[103.95391,1.39988]]],[[[103.92425,1.40391],[103.9174,1.40979],[103.91548,1.41675],[103.93072,1.40412],[103.92425,1.40391]]],[[[103.89576,1.41442],[103.88474,1.41905],[103.88883,1.42537],[103.89767,1.41958],[103.89576,1.41442]]],[[[103.88295,1.41776],[103.87577,1.42008],[103.86911,1.42807],[103.87961,1.43181],[103.88781,1.42602],[103.88295,1.41776]]],[[[103.85757,1.44946],[103.86616,1.43838],[103.85988,1.44276],[103.85757,1.44946]]],[[[103.85128,1.21332],[103.84333,1.22259],[103.85166,1.22208],[103.84909,1.22956],[103.85882,1.23214],[103.8537,1.22827],[103.85832,1.22157],[103.85691,1.21809],[103.85255,1.22221],[103.85128,1.21332]]],[[[103.79801,1.19937],[103.79173,1.20839],[103.79391,1.20968],[103.80108,1.20247],[103.79801,1.19937]]],[[[103.7683,1.18866],[103.77496,1.19678],[103.76651,1.20207],[103.76023,1.19832],[103.75818,1.20915],[103.78008,1.21097],[103.78149,1.20117],[103.7683,1.18866]]],[[[103.77879,1.22398],[103.77315,1.22488],[103.77162,1.22901],[103.76931,1.22514],[103.7624,1.22552],[103.75381,1.23235],[103.75496,1.23544],[103.75778,1.23673],[103.7606,1.23338],[103.76085,1.24021],[103.76393,1.24009],[103.77802,1.22824],[103.77879,1.22398]]],[[[103.74447,1.23093],[103.73934,1.23441],[103.7501,1.23699],[103.75087,1.23377],[103.74447,1.23093]]],[[[103.7386,1.16648],[103.73374,1.16751],[103.72887,1.17408],[103.74167,1.17408],[103.7386,1.16648]]],[[[103.72681,1.2023],[103.70734,1.20552],[103.714,1.21132],[103.72347,1.21352],[103.72501,1.21017],[103.72962,1.2112],[103.72834,1.20733],[103.7327,1.20553],[103.72681,1.2023]]],[[[103.72016,1.18026],[103.71964,1.18645],[103.72425,1.19122],[103.73066,1.18955],[103.7281,1.18439],[103.72016,1.18026]]],[[[103.69987,1.29909],[103.69551,1.29934],[103.69551,1.30669],[103.69987,1.29909]]]]}}]}