{"type":"FeatureCollection","features":[{"type":"Feature","properties":{"ISO_A3":"SLV","WB_A3":"SLV","WB_NAME":"El Salvador","WB_REGION":"LCN"},"geometry":{"type":"MultiPolygon","coordinates":[[[[-87.68412,13.16665],[-87.68769,13.17373],[-87.68453,13.17296],[-87.68412,13.16665]]],[[[-87.70751,13.16208],[-87.70608,13.16749],[-87.70859,13.17032],[-87.7233,13.16654],[-87.72255,13.17904],[-87.72782,13.18264],[-87.72686,13.21253],[-87.71925,13.21848],[-87.70424,13.21414],[-87.69577,13.19432],[-87.69731,13.18118],[-87.69415,13.17912],[-87.6944,13.17423],[-87.69098,13.1732],[-87.69228,13.16843],[-87.69727,13.16584],[-87.70174,13.16738],[-87.70751,13.16208]]],[[[-88.50197,13.89917],[-88.49143,13.87743],[-88.49636,13.86786],[-88.49266,13.85977],[-88.48483,13.86025],[-88.47152,13.85405],[-88.46758,13.8487],[-88.46499,13.86286],[-88.45207,13.85902],[-88.45035,13.86431],[-88.44444,13.8637],[-88.43997,13.85968],[-88.43116,13.87921],[-88.42326,13.87971],[-88.4172,13.88488],[-88.41378,13.87895],[-88.40228,13.883],[-88.39382,13.88121],[-88.3853,13.88516],[-88.37601,13.88497],[-88.37076,13.8754],[-88.36176,13.86938],[-88.3562,13.87032],[-88.3507,13.87674],[-88.34991,13.89048],[-88.34552,13.8963],[-88.31736,13.88996],[-88.31723,13.89785],[-88.31353,13.90211],[-88.30713,13.90237],[-88.29677,13.91089],[-88.28818,13.91445],[-88.28134,13.90927],[-88.26553,13.9152],[-88.26276,13.91989],[-88.26656,13.92411],[-88.2653,13.9369],[-88.23686,13.93996],[-88.2275,13.93823],[-88.22007,13.95497],[-88.23175,13.96358],[-88.23582,13.97035],[-88.23438,13.98792],[-88.23828,13.99484],[-88.23007,13.99985],[-88.21841,13.99307],[-88.19749,13.99655],[-88.18716,13.98972],[-88.1774,13.99026],[-88.17321,13.98484],[-88.16455,13.98606],[-88.15997,13.98352],[-88.14903,13.99116],[-88.13264,13.99069],[-88.10808,14.00102],[-88.07264,13.99212],[-88.07312,13.97584],[-88.06482,13.96067],[-88.06532,13.94933],[-88.06204,13.94289],[-88.05688,13.9424],[-88.04552,13.93136],[-88.0437,13.92236],[-88.02863,13.90207],[-88.01726,13.89313],[-88.01285,13.87168],[-88.00731,13.87074],[-88.00518,13.87534],[-87.99611,13.87827],[-87.98594,13.88762],[-87.97844,13.88727],[-87.96866,13.8946],[-87.96373,13.8928],[-87.96018,13.90194],[-87.95137,13.89135],[-87.94429,13.89587],[-87.934,13.89344],[-87.92429,13.88501],[-87.9204,13.88671],[-87.92154,13.89381],[-87.91786,13.89589],[-87.9166,13.89253],[-87.91196,13.89344],[-87.9141,13.89668],[-87.91186,13.89955],[-87.90937,13.89805],[-87.90678,13.90165],[-87.90442,13.89958],[-87.89884,13.90345],[-87.88942,13.89841],[-87.88227,13.90269],[-87.87353,13.89627],[-87.85145,13.89536],[-87.84435,13.89806],[-87.84249,13.90626],[-87.8304,13.9184],[-87.80571,13.9221],[-87.80003,13.92068],[-87.7964,13.91326],[-87.79413,13.90479],[-87.79971,13.89413],[-87.79605,13.88923],[-87.78865,13.88534],[-87.7804,13.87521],[-87.77173,13.87556],[-87.74981,13.85903],[-87.7464,13.85425],[-87.74614,13.83466],[-87.74243,13.83049],[-87.73318,13.82895],[-87.72793,13.82099],[-87.71644,13.82002],[-87.70854,13.80432],[-87.70898,13.79027],[-87.71963,13.76592],[-87.72635,13.76323],[-87.73153,13.75047],[-87.7369,13.74819],[-87.73457,13.74055],[-87.72642,13.73409],[-87.73412,13.71973],[-87.73229,13.71565],[-87.75534,13.68889],[-87.75354,13.67835],[-87.75621,13.67249],[-87.75288,13.66755],[-87.75689,13.65985],[-87.75249,13.65685],[-87.75162,13.64582],[-87.75551,13.63596],[-87.75396,13.60367],[-87.76859,13.59545],[-87.77029,13.58518],[-87.77443,13.58338],[-87.77354,13.57364],[-87.78359,13.56928],[-87.77861,13.56689],[-87.78515,13.55657],[-87.78697,13.54294],[-87.78052,13.53604],[-87.78401,13.52972],[-87.79408,13.52444],[-87.77814,13.52065],[-87.78229,13.5139],[-87.77998,13.51025],[-87.76207,13.50825],[-87.75598,13.51879],[-87.7501,13.51803],[-87.74602,13.50585],[-87.73432,13.51167],[-87.71993,13.50504],[-87.72391,13.49439],[-87.72172,13.47619],[-87.71621,13.46609],[-87.72207,13.45944],[-87.72102,13.44777],[-87.72255,13.44339],[-87.7264,13.44265],[-87.73363,13.44716],[-87.74873,13.43667],[-87.75803,13.44115],[-87.77337,13.43034],[-87.77722,13.42417],[-87.78341,13.42951],[-87.79175,13.41347],[-87.79279,13.42905],[-87.79701,13.43162],[-87.79361,13.43859],[-87.78229,13.43733],[-87.77613,13.44689],[-87.77852,13.45177],[-87.76891,13.45374],[-87.7734,13.45566],[-87.77315,13.46261],[-87.77921,13.46131],[-87.77972,13.45847],[-87.78552,13.46077],[-87.78159,13.46491],[-87.78397,13.4698],[-87.78659,13.46515],[-87.79106,13.46462],[-87.79026,13.45921],[-87.79475,13.46435],[-87.80555,13.46638],[-87.80157,13.46796],[-87.80232,13.47246],[-87.80161,13.46819],[-87.80662,13.46998],[-87.80475,13.46251],[-87.82,13.45718],[-87.82133,13.45963],[-87.83028,13.45934],[-87.83065,13.45418],[-87.83553,13.45687],[-87.83935,13.45544],[-87.83893,13.45068],[-87.85524,13.44508],[-87.85494,13.434],[-87.85758,13.43786],[-87.8681,13.43538],[-87.86625,13.43165],[-87.87281,13.42621],[-87.87345,13.42106],[-87.87882,13.41563],[-87.88409,13.41561],[-87.88301,13.40711],[-87.89011,13.40708],[-87.89404,13.40217],[-87.89245,13.39831],[-87.89718,13.39727],[-87.89821,13.39108],[-87.89321,13.38929],[-87.89846,13.38799],[-87.90026,13.37535],[-87.88258,13.36214],[-87.86941,13.35923],[-87.86861,13.35549],[-87.85359,13.3495],[-87.84698,13.34204],[-87.81351,13.32888],[-87.81219,13.3254],[-87.81547,13.3241],[-87.81242,13.31677],[-87.80162,13.31332],[-87.79502,13.30639],[-87.78963,13.3064],[-87.77985,13.29329],[-87.78682,13.29327],[-87.78759,13.28554],[-87.79375,13.27985],[-87.79401,13.27495],[-87.81013,13.2615],[-87.8151,13.25195],[-87.82482,13.24805],[-87.8374,13.23487],[-87.85896,13.23184],[-87.86367,13.22396],[-87.87417,13.22006],[-87.88073,13.21334],[-87.88626,13.21551],[-87.89597,13.21174],[-87.90383,13.20295],[-87.91331,13.20652],[-87.91645,13.20033],[-87.92277,13.20211],[-87.9364,13.19124],[-87.95034,13.1917],[-87.95242,13.18564],[-87.95585,13.18794],[-87.95415,13.18018],[-87.94476,13.17678],[-87.9458,13.17265],[-87.93868,13.16933],[-87.93593,13.17037],[-87.93582,13.17604],[-87.93279,13.17579],[-87.93225,13.17296],[-87.92317,13.17054],[-87.92189,13.17789],[-87.91808,13.17893],[-87.9197,13.18949],[-87.91251,13.20163],[-87.91027,13.20009],[-87.91586,13.18751],[-87.91465,13.1756],[-87.89858,13.16767],[-87.89592,13.15994],[-87.89998,13.15594],[-87.91971,13.15896],[-87.92549,13.15713],[-87.94391,13.1617],[-87.94995,13.15962],[-87.96074,13.16203],[-87.9702,13.15851],[-87.97415,13.16095],[-87.97102,13.16779],[-87.97471,13.16919],[-87.9764,13.17477],[-87.98325,13.17551],[-87.98244,13.17768],[-87.98973,13.17738],[-87.99904,13.17193],[-87.99785,13.16859],[-87.98864,13.16759],[-87.9781,13.16158],[-88.06175,13.16923],[-88.06491,13.17064],[-88.06203,13.17374],[-88.01546,13.16865],[-88.01337,13.17059],[-88.01601,13.17277],[-88.04128,13.17846],[-88.05257,13.17481],[-88.06389,13.1776],[-88.06806,13.17011],[-88.11173,13.17327],[-88.12773,13.16534],[-88.15904,13.16971],[-88.16665,13.1671],[-88.18638,13.16894],[-88.19189,13.16518],[-88.20083,13.16669],[-88.20843,13.1615],[-88.24631,13.16505],[-88.24633,13.16905],[-88.2566,13.17041],[-88.27717,13.18229],[-88.28346,13.17853],[-88.28995,13.18008],[-88.29291,13.17629],[-88.29053,13.17398],[-88.26159,13.17],[-88.26,13.16705],[-88.3497,13.17522],[-88.35313,13.17727],[-88.35131,13.1805],[-88.34276,13.1799],[-88.34042,13.18506],[-88.32687,13.18423],[-88.32447,13.17793],[-88.32114,13.17726],[-88.29013,13.18025],[-88.29439,13.18298],[-88.29375,13.18659],[-88.30677,13.18704],[-88.30435,13.20174],[-88.3104,13.20184],[-88.31279,13.20504],[-88.31748,13.19845],[-88.30853,13.19656],[-88.32194,13.19675],[-88.3188,13.22279],[-88.32209,13.22458],[-88.3195,13.23155],[-88.32506,13.23886],[-88.32715,13.23589],[-88.34003,13.23453],[-88.33034,13.24128],[-88.33272,13.24333],[-88.33875,13.24124],[-88.34379,13.24868],[-88.34798,13.24505],[-88.35064,13.25058],[-88.35827,13.2508],[-88.35821,13.24049],[-88.38451,13.24022],[-88.38843,13.23582],[-88.38747,13.2281],[-88.39418,13.22935],[-88.39568,13.2381],[-88.39948,13.23602],[-88.41093,13.23853],[-88.41256,13.22409],[-88.41837,13.22844],[-88.41831,13.24132],[-88.42474,13.23768],[-88.42608,13.24205],[-88.44344,13.24299],[-88.4432,13.24659],[-88.46087,13.25474],[-88.46062,13.25809],[-88.44903,13.2539],[-88.44167,13.25562],[-88.44222,13.25871],[-88.44747,13.25791],[-88.43787,13.26525],[-88.45846,13.27019],[-88.46339,13.28075],[-88.46814,13.28304],[-88.46784,13.27737],[-88.47704,13.27693],[-88.47596,13.27114],[-88.4904,13.26681],[-88.49063,13.26204],[-88.4969,13.25556],[-88.51402,13.25945],[-88.52143,13.26559],[-88.53433,13.26873],[-88.53801,13.26794],[-88.54191,13.26122],[-88.54591,13.26944],[-88.55276,13.27171],[-88.5545,13.27608],[-88.56648,13.27833],[-88.5667,13.28462],[-88.58202,13.28197],[-88.58999,13.29338],[-88.6033,13.29716],[-88.6032,13.30206],[-88.61162,13.30213],[-88.62877,13.31117],[-88.63032,13.30627],[-88.63374,13.30676],[-88.63379,13.31423],[-88.64355,13.31803],[-88.64133,13.30053],[-88.64476,13.30257],[-88.64987,13.31825],[-88.65036,13.31361],[-88.65457,13.3141],[-88.65006,13.30794],[-88.65426,13.30714],[-88.65078,13.29802],[-88.63643,13.29515],[-88.64575,13.29303],[-88.63937,13.2838],[-88.64319,13.28326],[-88.64996,13.293],[-88.65415,13.29117],[-88.65176,13.28758],[-88.65412,13.28679],[-88.65678,13.2909],[-88.67828,13.299],[-88.67977,13.30569],[-88.68132,13.30233],[-88.67917,13.2959],[-88.66676,13.2889],[-88.6662,13.28298],[-88.66307,13.28776],[-88.64563,13.275],[-88.64348,13.26857],[-88.64689,13.267],[-88.65166,13.27315],[-88.66246,13.27476],[-88.66571,13.26971],[-88.66979,13.26917],[-88.6701,13.27664],[-88.67815,13.27469],[-88.68301,13.28042],[-88.6876,13.27833],[-88.69199,13.28603],[-88.69726,13.28754],[-88.70225,13.28647],[-88.69724,13.2838],[-88.70432,13.28053],[-88.71037,13.28152],[-88.71277,13.28615],[-88.71388,13.27558],[-88.72111,13.27424],[-88.72326,13.28118],[-88.72825,13.28076],[-88.73565,13.28599],[-88.74195,13.28337],[-88.74035,13.28029],[-88.73313,13.28214],[-88.73178,13.27752],[-88.7265,13.27446],[-88.74713,13.27239],[-88.74131,13.26792],[-88.7238,13.26443],[-88.7079,13.24702],[-88.70146,13.24745],[-88.69912,13.2521],[-88.69015,13.2483],[-88.68701,13.25012],[-88.65299,13.23605],[-88.58132,13.21409],[-88.54894,13.20836],[-88.53502,13.20999],[-88.51863,13.19618],[-88.50653,13.19625],[-88.50046,13.19268],[-88.50098,13.19023],[-88.49215,13.18809],[-88.48617,13.17704],[-88.47959,13.17567],[-88.4791,13.18224],[-88.46966,13.1859],[-88.4667,13.17471],[-88.46355,13.17563],[-88.46386,13.18361],[-88.46108,13.18028],[-88.46274,13.17254],[-88.4801,13.17257],[-88.51251,13.18423],[-88.62363,13.21009],[-88.75658,13.23342],[-88.76983,13.24763],[-88.74114,13.24448],[-88.74224,13.25027],[-88.74646,13.25269],[-88.74617,13.26686],[-88.75004,13.27456],[-88.75444,13.26564],[-88.75207,13.26424],[-88.75626,13.26163],[-88.75576,13.26627],[-88.7637,13.27318],[-88.7607,13.27603],[-88.76771,13.28139],[-88.77394,13.27091],[-88.78317,13.27407],[-88.78696,13.27069],[-88.78637,13.26194],[-88.79004,13.26088],[-88.79655,13.26921],[-88.80101,13.26802],[-88.79469,13.26703],[-88.79255,13.26138],[-88.79931,13.26581],[-88.79756,13.26354],[-88.80018,13.26313],[-88.80445,13.27109],[-88.78537,13.28642],[-88.77066,13.28948],[-88.75685,13.30826],[-88.74352,13.31891],[-88.74134,13.32691],[-88.72233,13.33567],[-88.71658,13.34176],[-88.71664,13.35026],[-88.71993,13.34947],[-88.71982,13.35243],[-88.72403,13.35356],[-88.72743,13.36874],[-88.71508,13.40746],[-88.70765,13.41743],[-88.69508,13.42666],[-88.68974,13.43468],[-88.68723,13.45247],[-88.67584,13.46105],[-88.67018,13.51648],[-88.66434,13.52939],[-88.6681,13.54045],[-88.66382,13.54885],[-88.6591,13.5512],[-88.64934,13.54894],[-88.64554,13.55142],[-88.64177,13.56732],[-88.635,13.57081],[-88.63202,13.57727],[-88.6324,13.58675],[-88.62801,13.58824],[-88.60846,13.58381],[-88.60563,13.58826],[-88.59826,13.58865],[-88.60563,13.58916],[-88.61009,13.58552],[-88.63013,13.589],[-88.63432,13.58601],[-88.63378,13.57449],[-88.64184,13.56922],[-88.64857,13.55217],[-88.66043,13.55402],[-88.66933,13.54585],[-88.66619,13.5299],[-88.67215,13.51646],[-88.67697,13.49067],[-88.67823,13.46284],[-88.68949,13.45504],[-88.69799,13.42947],[-88.71161,13.41934],[-88.71982,13.40846],[-88.7231,13.38835],[-88.73054,13.38057],[-88.73141,13.35467],[-88.72653,13.35303],[-88.722,13.3443],[-88.72367,13.33888],[-88.73601,13.33661],[-88.74334,13.33128],[-88.74982,13.31809],[-88.77543,13.29512],[-88.79559,13.28223],[-88.80951,13.27955],[-88.81205,13.28546],[-88.80754,13.29721],[-88.81045,13.30041],[-88.80812,13.30545],[-88.79683,13.30772],[-88.81026,13.30968],[-88.81075,13.3053],[-88.81443,13.30502],[-88.81198,13.31148],[-88.80621,13.31385],[-88.8098,13.31819],[-88.8187,13.31323],[-88.82635,13.31575],[-88.81983,13.32301],[-88.82984,13.32487],[-88.83324,13.32188],[-88.8448,13.33777],[-88.85046,13.33799],[-88.85055,13.35009],[-88.8585,13.35802],[-88.87263,13.34761],[-88.851,13.3336],[-88.86595,13.33491],[-88.8834,13.34663],[-88.92504,13.35546],[-88.93117,13.36649],[-88.93338,13.36364],[-88.93044,13.35645],[-88.93605,13.35126],[-88.95265,13.35474],[-88.94942,13.34575],[-88.96892,13.34894],[-88.97283,13.34544],[-88.98764,13.35562],[-88.9892,13.35342],[-88.99711,13.35465],[-88.99608,13.35736],[-89.00538,13.36397],[-89.00897,13.35805],[-89.01787,13.35294],[-89.00941,13.34747],[-88.99939,13.34497],[-88.9973,13.34718],[-88.99095,13.34157],[-88.94426,13.32466],[-88.94252,13.32133],[-88.94057,13.32405],[-88.92923,13.32027],[-88.91679,13.31007],[-88.8875,13.2983],[-88.88508,13.29162],[-88.88955,13.29095],[-88.97007,13.32963],[-89.0606,13.36624],[-89.08705,13.38264],[-89.0933,13.3907],[-89.09296,13.39688],[-89.09531,13.39455],[-89.10348,13.39654],[-89.10297,13.39938],[-89.11006,13.39764],[-89.12933,13.40456],[-89.16594,13.42357],[-89.16876,13.43088],[-89.18027,13.43709],[-89.18434,13.43642],[-89.17479,13.42863],[-89.24668,13.46355],[-89.24948,13.46765],[-89.30743,13.48721],[-89.32321,13.48655],[-89.32868,13.48083],[-89.34135,13.48509],[-89.35662,13.48521],[-89.36615,13.4913],[-89.39803,13.49473],[-89.43301,13.49375],[-89.47176,13.50045],[-89.48409,13.49711],[-89.48569,13.49941],[-89.50253,13.49886],[-89.52775,13.49487],[-89.5444,13.50191],[-89.55122,13.50055],[-89.5742,13.50856],[-89.60925,13.51334],[-89.65205,13.52924],[-89.68973,13.5336],[-89.68394,13.53405],[-89.68044,13.53808],[-89.69043,13.54943],[-89.69436,13.54823],[-89.69062,13.55419],[-89.69587,13.56469],[-89.69884,13.56002],[-89.69614,13.55362],[-89.69853,13.54458],[-89.70452,13.53846],[-89.70495,13.53035],[-89.73361,13.52837],[-89.76706,13.5316],[-89.80618,13.52409],[-89.82319,13.5396],[-89.83466,13.57448],[-89.83582,13.59429],[-89.84622,13.60627],[-89.88399,13.62771],[-89.88058,13.62865],[-89.86918,13.62196],[-89.87029,13.62658],[-89.8846,13.63466],[-89.89012,13.63408],[-89.88962,13.63666],[-89.90466,13.63957],[-89.93566,13.65645],[-89.93545,13.66057],[-89.91478,13.64988],[-89.91935,13.65716],[-89.9302,13.66192],[-89.93698,13.67076],[-89.94949,13.66788],[-89.95011,13.66453],[-89.94361,13.66035],[-89.95632,13.66637],[-89.95481,13.67214],[-89.95883,13.67754],[-89.96273,13.67427],[-89.95628,13.66857],[-89.96135,13.66901],[-90.03367,13.70306],[-90.00431,13.69318],[-89.99896,13.68761],[-89.98551,13.68507],[-89.97487,13.67631],[-89.96727,13.67885],[-89.9659,13.6844],[-89.9674,13.68953],[-89.98776,13.69675],[-89.99183,13.69567],[-89.99435,13.6977],[-89.99367,13.70569],[-90.00455,13.71571],[-90.01217,13.71708],[-90.01914,13.72798],[-90.01543,13.72974],[-90.01672,13.73258],[-90.02423,13.73115],[-90.024,13.75069],[-90.03381,13.75467],[-90.0362,13.7529],[-90.03688,13.74132],[-90.04035,13.73763],[-90.04586,13.73886],[-90.04154,13.734],[-90.03853,13.73542],[-90.03804,13.73233],[-90.04967,13.72861],[-90.0376,13.71482],[-90.02954,13.71782],[-90.02247,13.71464],[-90.02793,13.7098],[-90.02282,13.70705],[-90.02812,13.70518],[-90.03384,13.71091],[-90.04147,13.71075],[-90.04178,13.7074],[-90.04676,13.70875],[-90.08609,13.72538],[-90.08103,13.72666],[-90.0806,13.72976],[-90.08984,13.73848],[-90.09858,13.7342],[-90.09006,13.73089],[-90.09259,13.72873],[-90.11723,13.73777],[-90.12006,13.74321],[-90.12745,13.74188],[-90.13108,13.74694],[-90.12599,13.74265],[-90.11626,13.74798],[-90.11376,13.74052],[-90.10826,13.74376],[-90.10396,13.74002],[-90.10122,13.74904],[-90.09241,13.7559],[-90.10109,13.75914],[-90.09662,13.76667],[-90.10399,13.77354],[-90.10628,13.78199],[-90.11321,13.7773],[-90.11802,13.78901],[-90.11343,13.79608],[-90.1169,13.79706],[-90.11033,13.79995],[-90.11495,13.80487],[-90.10572,13.80962],[-90.10658,13.81859],[-90.113,13.82704],[-90.11214,13.83422],[-90.09855,13.83949],[-90.09532,13.84362],[-90.09474,13.85445],[-90.08301,13.86831],[-90.08141,13.87764],[-90.06565,13.88154],[-90.06725,13.88764],[-90.04029,13.89392],[-90.03607,13.89763],[-90.03764,13.91736],[-90.02877,13.91879],[-90.03093,13.92763],[-90.02289,13.93938],[-90.00887,13.94448],[-90.00005,13.95615],[-89.99325,13.95435],[-89.98055,13.96182],[-89.97827,13.95978],[-89.97584,13.96463],[-89.96925,13.96514],[-89.96182,13.97053],[-89.96005,13.97825],[-89.94008,13.98622],[-89.93773,13.99368],[-89.93301,13.99263],[-89.92794,14.00661],[-89.92078,14.00664],[-89.91966,14.01254],[-89.91268,14.01077],[-89.90719,14.01442],[-89.90454,14.03242],[-89.88644,14.04301],[-89.86963,14.04031],[-89.86041,14.04347],[-89.86163,14.04799],[-89.85647,14.05811],[-89.8448,14.05719],[-89.82408,14.06328],[-89.81768,14.06318],[-89.79163,14.04867],[-89.78834,14.04164],[-89.77901,14.0338],[-89.76014,14.03481],[-89.75883,14.03232],[-89.74502,14.03619],[-89.73729,14.03194],[-89.73518,14.0347],[-89.74392,14.04466],[-89.74266,14.05722],[-89.74608,14.061],[-89.72557,14.11922],[-89.71108,14.14074],[-89.67144,14.17508],[-89.66697,14.18531],[-89.63008,14.20441],[-89.58154,14.20297],[-89.5677,14.21013],[-89.55839,14.21017],[-89.55035,14.22216],[-89.53811,14.21791],[-89.52554,14.21994],[-89.5206,14.23244],[-89.52347,14.23629],[-89.52251,14.24179],[-89.55234,14.27581],[-89.54737,14.279],[-89.54549,14.29511],[-89.55243,14.30306],[-89.55697,14.30399],[-89.56187,14.31445],[-89.56961,14.3172],[-89.57715,14.31469],[-89.58188,14.31724],[-89.58987,14.31032],[-89.5924,14.31124],[-89.59195,14.33298],[-89.58804,14.34611],[-89.56951,14.35266],[-89.56512,14.35086],[-89.56415,14.35557],[-89.58007,14.37215],[-89.58121,14.37853],[-89.57837,14.40492],[-89.57389,14.41695],[-89.54251,14.41617],[-89.54333,14.41322],[-89.53375,14.39818],[-89.53672,14.38546],[-89.52961,14.37963],[-89.51895,14.38747],[-89.52113,14.39195],[-89.51638,14.39523],[-89.51646,14.39888],[-89.51233,14.39786],[-89.50869,14.41024],[-89.50253,14.40629],[-89.49786,14.40865],[-89.49124,14.42003],[-89.48482,14.42026],[-89.47079,14.42949],[-89.45632,14.42153],[-89.4463,14.42032],[-89.43955,14.41227],[-89.43432,14.41221],[-89.41313,14.42659],[-89.41126,14.43301],[-89.40764,14.43204],[-89.40153,14.44704],[-89.3927,14.45056],[-89.38695,14.44479],[-89.3852,14.42738],[-89.37976,14.43787],[-89.37271,14.42946],[-89.35023,14.41857],[-89.34292,14.4196],[-89.32137,14.41112],[-89.29931,14.41588],[-89.27798,14.40119],[-89.23085,14.38569],[-89.21588,14.38891],[-89.21182,14.38702],[-89.20979,14.37451],[-89.20309,14.37077],[-89.18988,14.36684],[-89.16852,14.36593],[-89.14808,14.35282],[-89.12567,14.38045],[-89.12139,14.39034],[-89.11655,14.39296],[-89.11339,14.40114],[-89.10186,14.40447],[-89.08971,14.39464],[-89.08211,14.37677],[-89.07992,14.35855],[-89.08533,14.35087],[-89.08143,14.34744],[-89.0828,14.34141],[-89.06317,14.33462],[-89.03584,14.33245],[-89.03374,14.32541],[-89.03608,14.32211],[-89.02203,14.3122],[-89.02535,14.29894],[-89.02153,14.28854],[-89.02604,14.2806],[-89.02618,14.27213],[-89.00899,14.26817],[-88.99001,14.25667],[-88.98736,14.24803],[-88.97795,14.24106],[-88.97952,14.23828],[-88.97011,14.22498],[-88.97496,14.21923],[-88.97261,14.21328],[-88.96255,14.21209],[-88.94086,14.20279],[-88.93018,14.20344],[-88.92393,14.20841],[-88.90284,14.20567],[-88.9012,14.19147],[-88.88171,14.1893],[-88.87305,14.18354],[-88.86049,14.17235],[-88.86245,14.16874],[-88.85876,14.15288],[-88.84942,14.14935],[-88.84633,14.14155],[-88.84701,14.13085],[-88.84014,14.1315],[-88.83362,14.11454],[-88.82971,14.11211],[-88.83131,14.1044],[-88.82057,14.10945],[-88.81454,14.10864],[-88.81283,14.11257],[-88.80578,14.11109],[-88.79198,14.11468],[-88.78308,14.10484],[-88.7741,14.10261],[-88.77222,14.10584],[-88.76667,14.10478],[-88.76505,14.10917],[-88.75362,14.10966],[-88.75054,14.11489],[-88.74114,14.11677],[-88.73875,14.12182],[-88.73448,14.11927],[-88.72899,14.11433],[-88.72935,14.09131],[-88.74042,14.07189],[-88.73789,14.05626],[-88.73215,14.05055],[-88.71298,14.04426],[-88.70883,14.04657],[-88.6939,14.04393],[-88.68244,14.03211],[-88.68566,14.02505],[-88.68147,14.01941],[-88.68376,14.01012],[-88.67079,14.00992],[-88.66383,14.01906],[-88.6638,14.0239],[-88.65288,14.01756],[-88.63962,14.017],[-88.63418,14.02205],[-88.62754,14.02273],[-88.6079,14.00548],[-88.5944,14.00916],[-88.5874,14.00753],[-88.57805,13.99826],[-88.57323,13.98245],[-88.56825,13.97797],[-88.5574,13.98331],[-88.54798,13.9806],[-88.53987,13.98518],[-88.52886,13.98544],[-88.50724,13.97252],[-88.5002,13.96757],[-88.49779,13.95283],[-88.50654,13.94299],[-88.50646,13.92307],[-88.51107,13.9117],[-88.50591,13.90912],[-88.50197,13.89917]]],[[[-87.74415,13.27832],[-87.74693,13.28128],[-87.74156,13.29006],[-87.73655,13.28852],[-87.73404,13.28209],[-87.74415,13.27832]]],[[[-87.75735,13.29168],[-87.76577,13.29321],[-87.76926,13.31523],[-87.75532,13.31656],[-87.75215,13.31348],[-87.74875,13.31787],[-87.74296,13.31891],[-87.74229,13.31531],[-87.7524,13.30884],[-87.75476,13.30406],[-87.75158,13.29905],[-87.75421,13.29698],[-87.75157,13.2957],[-87.75735,13.29168]]],[[[-87.76606,13.215],[-87.77396,13.21948],[-87.7806,13.23866],[-87.77484,13.24911],[-87.76195,13.24825],[-87.75549,13.24234],[-87.75507,13.23667],[-87.75086,13.23617],[-87.75188,13.22573],[-87.75741,13.22584],[-87.75843,13.21734],[-87.76606,13.215]]],[[[-87.80285,13.44693],[-87.81128,13.4469],[-87.81341,13.45347],[-87.80498,13.45324],[-87.80195,13.45093],[-87.80285,13.44693]]],[[[-87.81309,13.43723],[-87.81678,13.43851],[-87.81403,13.44264],[-87.81732,13.44366],[-87.81602,13.44624],[-87.81101,13.44471],[-87.81309,13.43723]]],[[[-87.81888,13.4358],[-87.82652,13.44003],[-87.81969,13.44404],[-87.81691,13.43774],[-87.81888,13.4358]]],[[[-87.8241,13.42264],[-87.82594,13.42405],[-87.81806,13.42897],[-87.8241,13.42264]]],[[[-87.83646,13.4217],[-87.83621,13.42531],[-87.82858,13.42662],[-87.82778,13.42301],[-87.83646,13.4217]]],[[[-87.85831,13.41969],[-87.85806,13.42343],[-87.86621,13.4216],[-87.86741,13.42649],[-87.86309,13.43295],[-87.84756,13.43222],[-87.85831,13.41969]]],[[[-87.85474,13.37912],[-87.85804,13.38143],[-87.85925,13.38877],[-87.84766,13.38636],[-87.85093,13.37965],[-87.85474,13.37912]]],[[[-88.33905,13.1986],[-88.36009,13.199],[-88.36141,13.20144],[-88.34408,13.20514],[-88.33867,13.20233],[-88.33905,13.1986]]],[[[-88.35643,13.20404],[-88.3504,13.20768],[-88.35013,13.20537],[-88.35643,13.20404]]],[[[-88.4344,13.18172],[-88.43403,13.18584],[-88.42258,13.18359],[-88.42216,13.18685],[-88.42681,13.18794],[-88.42517,13.19191],[-88.39685,13.19004],[-88.39016,13.19253],[-88.38606,13.18843],[-88.37831,13.18976],[-88.38025,13.18446],[-88.40839,13.18521],[-88.40996,13.18314],[-88.40469,13.18111],[-88.40895,13.17533],[-88.40621,13.17157],[-88.40519,13.17724],[-88.39495,13.18052],[-88.38519,13.17452],[-88.38258,13.17711],[-88.38059,13.17351],[-88.37811,13.17662],[-88.36941,13.17319],[-88.408,13.16241],[-88.42512,13.16747],[-88.44747,13.19015],[-88.44463,13.20021],[-88.44003,13.19946],[-88.43891,13.18762],[-88.4344,13.18172]]],[[[-88.38402,13.19964],[-88.39218,13.20089],[-88.39272,13.20398],[-88.38773,13.20413],[-88.38402,13.19964]]],[[[-88.47401,13.20932],[-88.49614,13.21628],[-88.51716,13.21461],[-88.52902,13.21853],[-88.52944,13.22162],[-88.52669,13.22395],[-88.503,13.22049],[-88.47852,13.21599],[-88.4785,13.21367],[-88.46562,13.21413],[-88.4638,13.21659],[-88.45799,13.21405],[-88.47271,13.21255],[-88.47401,13.20932]]],[[[-88.58005,13.22015],[-88.58848,13.2228],[-88.58929,13.22692],[-88.60694,13.23067],[-88.60696,13.23377],[-88.62328,13.23727],[-88.62831,13.24213],[-88.64281,13.24668],[-88.62288,13.25595],[-88.60365,13.25092],[-88.60152,13.24694],[-88.57256,13.24184],[-88.57043,13.23811],[-88.57675,13.23975],[-88.58252,13.23701],[-88.58747,13.22874],[-88.56034,13.22182],[-88.55167,13.22303],[-88.54954,13.21944],[-88.58005,13.22015]]],[[[-88.69289,13.43286],[-88.69266,13.43831],[-88.69172,13.43518],[-88.69289,13.43286]]],[[[-88.71395,13.26707],[-88.71608,13.27067],[-88.7124,13.26992],[-88.71395,13.26707]]],[[[-88.74195,13.32796],[-88.74175,13.32923],[-88.73675,13.33126],[-88.74195,13.32796]]],[[[-88.75408,13.25147],[-88.76252,13.25515],[-88.76386,13.25875],[-88.75506,13.26035],[-88.75408,13.25147]]],[[[-88.76255,13.30433],[-88.76886,13.29594],[-88.76968,13.29889],[-88.76255,13.30433]]],[[[-88.76729,13.26053],[-88.77257,13.26255],[-88.76707,13.26555],[-88.76729,13.26053]]],[[[-88.78066,13.29074],[-88.76885,13.2936],[-88.77015,13.29155],[-88.78066,13.29074]]],[[[-88.81093,13.25154],[-88.80772,13.25071],[-88.80617,13.25472],[-88.79116,13.25147],[-88.7919,13.24451],[-88.81093,13.25154]]],[[[-88.807,13.26064],[-88.80611,13.26386],[-88.80359,13.26156],[-88.807,13.26064]]],[[[-88.83379,13.26643],[-88.83383,13.26598],[-88.83386,13.26579],[-88.83379,13.26643]]],[[[-88.83563,13.2621],[-88.87421,13.2796],[-88.87926,13.28677],[-88.87134,13.28245],[-88.86216,13.28638],[-88.85884,13.28254],[-88.85161,13.28234],[-88.84894,13.27721],[-88.8348,13.26752],[-88.8386,13.26646],[-88.85024,13.27488],[-88.8547,13.27356],[-88.84389,13.27003],[-88.83563,13.2621]]],[[[-88.8361,13.31851],[-88.83799,13.32417],[-88.84139,13.32157],[-88.83959,13.32776],[-88.83722,13.32752],[-88.8361,13.31851]]],[[[-88.84664,13.3205],[-88.8522,13.32484],[-88.84595,13.3339],[-88.84261,13.32645],[-88.84664,13.3205]]],[[[-88.85724,13.31577],[-88.85054,13.31416],[-88.85734,13.30999],[-88.89023,13.32791],[-88.89183,13.32541],[-88.88714,13.31981],[-88.88937,13.3189],[-88.89084,13.32172],[-88.90028,13.31869],[-88.90453,13.32368],[-88.90714,13.32147],[-88.9225,13.33462],[-88.9178,13.3389],[-88.92077,13.34854],[-88.91236,13.34938],[-88.89066,13.3328],[-88.85724,13.31577]]],[[[-88.89638,13.307],[-88.90154,13.31056],[-88.89521,13.30829],[-88.89638,13.307]]],[[[-90.00524,13.70297],[-90.01442,13.70553],[-90.01125,13.70639],[-90.00524,13.70297]]]]}}]}