{"type":"FeatureCollection","features":[{"type":"Feature","properties":{"ISO_A3":"SOM","WB_A3":"SOM","WB_NAME":"Federal Republic of Somalia","WB_REGION":"AFE,SSF"},"geometry":{"type":"MultiPolygon","coordinates":[[[[50.35505,11.63764],[50.38884,11.65611],[50.41497,11.66428],[50.44552,11.6829],[50.49198,11.73067],[50.50646,11.7526],[50.52052,11.78948],[50.52875,11.79619],[50.53435,11.8078],[50.54526,11.85679],[50.55935,11.87949],[50.55281,11.87793],[50.54759,11.87071],[50.53199,11.81295],[50.52691,11.79799],[50.52365,11.79696],[50.54863,11.87664],[50.57096,11.90322],[50.60207,11.92607],[50.62588,11.93087],[50.63032,11.94093],[50.68032,11.93545],[50.72715,11.95844],[50.75175,11.96387],[50.75829,11.96852],[50.75934,11.9653],[50.76693,11.96698],[50.76719,11.9702],[50.78236,11.97846],[50.78786,11.97988],[50.79205,11.97731],[50.79676,11.98144],[50.79571,11.98414],[50.78576,11.98658],[50.7745,11.9849],[50.77476,11.9876],[50.79571,11.98685],[50.80409,11.9826],[50.84953,11.94964],[50.84691,11.94216],[50.85044,11.9508],[50.86222,11.94526],[50.8939,11.94231],[50.91196,11.9351],[50.97504,11.91965],[51.05015,11.87429],[51.0614,11.87093],[51.07475,11.87351],[51.09045,11.87041],[51.14593,11.87193],[51.18752,11.8491],[51.21734,11.84444],[51.22571,11.83812],[51.23774,11.8345],[51.26104,11.8417],[51.27569,11.84194],[51.28719,11.83432],[51.28836,11.82144],[51.28494,11.8083],[51.26856,11.77713],[51.26018,11.76708],[51.25716,11.75033],[51.25832,11.73203],[51.24719,11.71374],[51.2558,11.69208],[51.25657,11.67842],[51.24295,11.65343],[51.22738,11.63953],[51.22371,11.62793],[51.19846,11.60604],[51.19388,11.59625],[51.16485,11.56379],[51.12443,11.49912],[51.12181,11.49113],[51.12781,11.46664],[51.12545,11.44319],[51.11446,11.40247],[51.0959,11.36433],[51.08126,11.31588],[51.07758,11.23288],[51.08253,11.20711],[51.09375,11.18081],[51.10158,11.16921],[51.11371,11.15928],[51.15756,11.15205],[51.15469,11.1487],[51.13485,11.15309],[51.11841,11.15284],[51.11606,11.14936],[51.12545,11.1433],[51.14816,11.13891],[51.15469,11.14457],[51.16591,11.14599],[51.17009,11.1523],[51.17636,11.15384],[51.18274,11.14391],[51.18196,11.13799],[51.14917,11.07846],[51.12997,11.02589],[51.12095,10.98259],[51.11846,10.95115],[51.11935,10.90192],[51.12287,10.88645],[51.13012,10.78309],[51.12749,10.71968],[51.12982,10.68617],[51.13242,10.67612],[51.14193,10.6667],[51.14349,10.65974],[51.14636,10.65987],[51.15194,10.62198],[51.15923,10.60032],[51.16964,10.58253],[51.17054,10.5699],[51.15804,10.56411],[51.11453,10.55884],[51.11714,10.56915],[51.14723,10.5761],[51.14059,10.58048],[51.1458,10.58564],[51.14476,10.58924],[51.14203,10.58873],[51.14268,10.59762],[51.13291,10.5975],[51.12861,10.59492],[51.12743,10.5859],[51.12431,10.58668],[51.12027,10.58126],[51.12496,10.58229],[51.12365,10.57521],[51.10385,10.57031],[51.09369,10.5631],[51.07363,10.55628],[51.05878,10.54481],[51.05175,10.54713],[51.03181,10.52277],[51.0128,10.50834],[51.01019,10.49184],[51.01514,10.47638],[51.00798,10.47045],[51.00694,10.45576],[51.00069,10.45498],[51.00642,10.4381],[51.01032,10.43874],[51.00564,10.43462],[51.00824,10.4332],[51.01319,10.43746],[51.01931,10.43514],[51.01761,10.42946],[51.02334,10.42766],[51.02621,10.42263],[51.02178,10.41941],[51.03154,10.40833],[51.02777,10.40691],[51.01904,10.41993],[51.01032,10.42624],[51.00772,10.42405],[51.0111,10.42199],[51.01475,10.40601],[51.01345,10.39931],[51.00772,10.39931],[51.01227,10.39441],[51.01084,10.39054],[51.01943,10.39067],[51.02282,10.39518],[51.04912,10.40227],[51.05446,10.40523],[51.05016,10.40781],[51.05172,10.41245],[51.05693,10.4149],[51.10849,10.42777],[51.14391,10.43214],[51.23505,10.43273],[51.23558,10.44923],[51.22595,10.45091],[51.21137,10.46729],[51.20148,10.47283],[51.19771,10.48018],[51.19668,10.49385],[51.19759,10.49771],[51.2028,10.49874],[51.20437,10.50879],[51.20411,10.51523],[51.20151,10.51627],[51.20204,10.53057],[51.21897,10.52682],[51.23875,10.50786],[51.26062,10.49586],[51.27052,10.49572],[51.30357,10.4761],[51.32779,10.47118],[51.34316,10.47645],[51.35046,10.48263],[51.38874,10.47975],[51.39277,10.47691],[51.39419,10.46685],[51.40303,10.45318],[51.41538,10.44286],[51.41108,10.439],[51.40571,10.41632],[51.39829,10.41066],[51.39841,10.40499],[51.39188,10.39262],[51.37534,10.38362],[51.37714,10.36429],[51.37168,10.37009],[51.35215,10.3705],[51.34175,10.3776],[51.30217,10.37326],[51.28395,10.3774],[51.27171,10.37586],[51.26729,10.3845],[51.27239,10.41079],[51.26342,10.41917],[51.23452,10.42487],[51.19338,10.42283],[51.11916,10.41282],[51.04912,10.39608],[51.00017,10.37559],[50.93665,10.34272],[50.89917,10.31474],[50.89515,10.25675],[50.89672,10.23329],[50.90454,10.20107],[50.90429,10.17942],[50.90039,10.1704],[50.89675,10.13869],[50.88805,10.11703],[50.88584,10.09358],[50.88963,10.0562],[50.89236,10.0544],[50.89353,10.03919],[50.89835,10.02733],[50.89588,10.01831],[50.89979,9.99215],[50.89615,9.99073],[50.88459,9.9616],[50.87864,9.92093],[50.86953,9.89586],[50.87006,9.88143],[50.85161,9.85719],[50.85214,9.83966],[50.84669,9.82393],[50.84229,9.77934],[50.83243,9.7551],[50.83166,9.74634],[50.83712,9.73912],[50.83024,9.71179],[50.83116,9.69375],[50.8226,9.67183],[50.82443,9.65585],[50.81405,9.63394],[50.80653,9.61151],[50.80783,9.60223],[50.80135,9.58908],[50.80084,9.55686],[50.80449,9.54397],[50.80502,9.51613],[50.81763,9.4883],[50.84555,9.47387],[50.84478,9.45428],[50.80977,9.3857],[50.78448,9.34934],[50.778,9.34521],[50.77359,9.33309],[50.7487,9.29621],[50.7334,9.28524],[50.71887,9.27943],[50.70526,9.26756],[50.69114,9.2459],[50.65757,9.20772],[50.64593,9.17522],[50.64594,9.16079],[50.65297,9.13837],[50.64757,9.093],[50.63087,9.06411],[50.62103,9.05314],[50.59045,9.03352],[50.57647,9.01146],[50.55653,8.99326],[50.50913,8.95853],[50.47702,8.92859],[50.46512,8.9131],[50.44674,8.89787],[50.44261,8.88317],[50.4201,8.85607],[50.41094,8.83234],[50.40765,8.78568],[50.39228,8.75601],[50.3842,8.70186],[50.3758,8.68973],[50.36209,8.68069],[50.34529,8.65901],[50.33097,8.62573],[50.32648,8.59994],[50.33495,8.57135],[50.32891,8.54221],[50.31821,8.51822],[50.30181,8.49602],[50.24004,8.43739],[50.22484,8.40204],[50.20313,8.38164],[50.19063,8.35893],[50.18434,8.33314],[50.17051,8.3246],[50.15954,8.30989],[50.15363,8.29106],[50.1486,8.28486],[50.14454,8.24722],[50.1372,8.23251],[50.13426,8.2124],[50.12693,8.19356],[50.09259,8.16514],[50.07039,8.14137],[50.02698,8.12142],[49.97121,8.08288],[49.91911,8.03016],[49.90107,8.00692],[49.85102,7.96528],[49.82114,7.92551],[49.80909,7.88965],[49.80419,7.84118],[49.80606,7.82159],[49.8128,7.81414],[49.81659,7.79739],[49.83521,7.79487],[49.82592,7.78711],[49.82544,7.7737],[49.83101,7.77037],[49.81994,7.75668],[49.81983,7.74895],[49.8254,7.74484],[49.82283,7.73761],[49.78744,7.68957],[49.77892,7.68491],[49.76967,7.66916],[49.76319,7.63125],[49.75114,7.59926],[49.69106,7.47666],[49.66435,7.43018],[49.58802,7.31809],[49.47481,7.16902],[49.42938,7.09877],[49.41657,7.07141],[49.39215,7.04633],[49.33804,6.95542],[49.32701,6.93992],[49.31929,6.93474],[49.31317,6.91668],[49.30596,6.91202],[49.30239,6.90015],[49.28546,6.87587],[49.27113,6.84489],[49.25292,6.8188],[49.21488,6.75192],[49.2053,6.73075],[49.19869,6.70393],[49.1878,6.68585],[49.16866,6.63501],[49.14207,6.58029],[49.13854,6.55786],[49.11145,6.49849],[49.08978,6.4376],[49.08089,6.40355],[49.07337,6.34864],[49.07866,6.31078],[49.07618,6.28578],[49.05174,6.2107],[48.98994,6.07262],[48.91253,5.92186],[48.79732,5.74081],[48.72405,5.63258],[48.67819,5.55821],[48.67399,5.54557],[48.64385,5.49547],[48.62174,5.46344],[48.53784,5.36084],[48.52805,5.33504],[48.49875,5.30324],[48.48113,5.27612],[48.41849,5.2004],[48.38594,5.15081],[48.3541,5.11514],[48.27339,5.00766],[48.22849,4.93485],[48.1976,4.89378],[48.16525,4.83132],[48.16376,4.8205],[48.14645,4.78515],[48.11661,4.7379],[48.08465,4.67648],[48.02511,4.58662],[47.98169,4.50549],[47.94682,4.45834],[47.84835,4.3595],[47.77751,4.2789],[47.74824,4.23754],[47.68891,4.18031],[47.66264,4.14795],[47.63279,4.11998],[47.58375,4.06424],[47.47007,3.92086],[47.40562,3.8533],[47.20263,3.65623],[47.07715,3.51224],[46.92965,3.36387],[46.87401,3.2962],[46.84304,3.25348],[46.79628,3.20048],[46.73284,3.13719],[46.68686,3.08288],[46.6083,3.01238],[46.57852,2.98072],[46.45148,2.88012],[46.40425,2.8294],[46.3632,2.80225],[46.3378,2.7805],[46.33189,2.772],[46.32996,2.76143],[46.30918,2.74754],[46.30197,2.7197],[46.29427,2.70914],[46.26926,2.6946],[46.22052,2.65818],[46.19396,2.62959],[46.19049,2.61722],[46.18408,2.61336],[46.18138,2.60511],[46.17048,2.59868],[46.16662,2.58541],[46.16072,2.58541],[46.14687,2.5755],[46.13174,2.55979],[46.11891,2.54253],[46.11749,2.53557],[46.11967,2.53479],[46.11582,2.52887],[46.10273,2.51483],[46.0499,2.47311],[46.02501,2.44619],[46.02347,2.44077],[45.99988,2.4212],[45.98065,2.41283],[45.90166,2.35243],[45.88961,2.34793],[45.87372,2.33621],[45.84218,2.32321],[45.83218,2.31303],[45.81654,2.30827],[45.80475,2.29783],[45.7927,2.2972],[45.75322,2.26924],[45.6781,2.22713],[45.66887,2.21798],[45.65118,2.21167],[45.64528,2.20407],[45.63555,2.20381],[45.48661,2.11002],[45.47148,2.10512],[45.42406,2.07652],[45.391,2.05177],[45.36819,2.0434],[45.35575,2.03347],[45.35153,2.0358],[45.34358,2.03399],[45.34358,2.03064],[45.33589,2.02549],[45.34076,2.02381],[45.30257,2.01105],[45.29309,2.00358],[45.28463,2.00293],[45.269,1.99127],[45.23517,1.97651],[45.22594,1.96556],[45.19493,1.95924],[45.18032,1.94829],[45.16956,1.947],[45.16597,1.94249],[45.15623,1.93991],[45.15392,1.93578],[45.13624,1.93514],[45.12702,1.93037],[45.12548,1.92547],[45.09652,1.91078],[45.09139,1.91116],[45.07653,1.89917],[45.07294,1.90085],[45.06218,1.89247],[45.04552,1.88564],[45.00939,1.85534],[45.00426,1.8565],[44.93738,1.81421],[44.91304,1.80364],[44.9033,1.79423],[44.88152,1.78314],[44.78646,1.72048],[44.76289,1.7108],[44.74829,1.69572],[44.74842,1.69159],[44.72907,1.67844],[44.71421,1.67457],[44.69679,1.65704],[44.67937,1.64556],[44.664,1.64117],[44.63684,1.62119],[44.633,1.61139],[44.62339,1.60417],[44.59816,1.5972],[44.58612,1.58082],[44.53488,1.54459],[44.52669,1.53453],[44.49723,1.51467],[44.42704,1.45638],[44.37505,1.41975],[44.36224,1.4048],[44.35225,1.40118],[44.31998,1.37552],[44.30807,1.36301],[44.3041,1.35373],[44.28746,1.34496],[44.22369,1.29002],[44.20602,1.2632],[44.20115,1.26385],[44.18963,1.25675],[44.14276,1.21523],[44.13009,1.2013],[44.12753,1.19486],[44.12817,1.19035],[44.13073,1.19048],[44.12894,1.18429],[44.1251,1.18725],[44.11921,1.18532],[44.08771,1.16468],[44.03778,1.12212],[44.02011,1.0917],[44.01396,1.09208],[43.99732,1.0837],[43.95968,1.05571],[43.93817,1.03366],[43.93753,1.02541],[43.86571,0.97821],[43.80785,0.9305],[43.78199,0.91374],[43.75766,0.89104],[43.75408,0.88099],[43.71568,0.85107],[43.7144,0.8472],[43.66832,0.81368],[43.61916,0.76597],[43.52573,0.68397],[43.36728,0.52386],[42.87535,-0.01636],[42.64142,-0.24591],[42.63911,-0.24565],[42.64193,-0.23998],[42.65652,-0.23097],[42.65293,-0.22994],[42.63963,-0.23792],[42.6276,-0.25119],[42.61301,-0.25131],[42.6084,-0.24719],[42.62363,-0.24101],[42.61595,-0.23225],[42.6157,-0.22194],[42.61954,-0.21447],[42.6079,-0.20159],[42.60739,-0.19592],[42.6166,-0.18021],[42.6033,-0.17377],[42.60176,-0.16681],[42.59204,-0.15844],[42.59268,-0.15161],[42.58436,-0.14568],[42.58462,-0.14066],[42.57937,-0.13873],[42.58001,-0.13486],[42.56799,-0.11709],[42.58104,-0.10768],[42.58437,-0.11181],[42.59153,-0.11258],[42.60433,-0.10897],[42.60612,-0.1055],[42.60407,-0.09365],[42.59537,-0.08991],[42.59435,-0.07793],[42.5877,-0.08463],[42.58411,-0.08257],[42.59166,-0.07561],[42.58759,-0.0629],[42.59345,-0.06015],[42.58987,-0.05784],[42.58667,-0.07123],[42.59064,-0.07638],[42.58258,-0.08102],[42.5877,-0.08527],[42.59435,-0.07909],[42.5946,-0.09042],[42.60279,-0.09403],[42.60407,-0.10807],[42.58565,-0.11168],[42.5813,-0.10653],[42.56709,-0.11837],[42.5795,-0.13564],[42.57886,-0.14027],[42.58385,-0.14169],[42.58347,-0.14594],[42.59153,-0.15187],[42.58986,-0.15753],[42.60112,-0.1681],[42.60381,-0.17673],[42.61545,-0.17944],[42.60585,-0.19747],[42.61775,-0.2137],[42.61493,-0.23225],[42.62274,-0.24075],[42.61045,-0.24345],[42.60533,-0.25041],[42.63258,-0.25235],[42.61441,-0.26651],[42.60545,-0.27836],[42.60328,-0.28635],[42.59995,-0.28673],[42.58203,-0.30644],[42.57423,-0.32138],[42.57205,-0.34147],[42.56385,-0.35332],[42.55605,-0.35615],[42.55656,-0.36207],[42.55976,-0.36401],[42.55541,-0.36697],[42.55528,-0.37264],[42.54312,-0.36684],[42.53621,-0.36683],[42.51958,-0.37778],[42.48988,-0.41873],[42.47798,-0.42723],[42.47337,-0.43959],[42.47631,-0.44487],[42.48514,-0.44835],[42.47554,-0.45865],[42.47669,-0.46458],[42.47093,-0.46767],[42.46709,-0.46406],[42.46774,-0.45736],[42.47158,-0.4553],[42.45763,-0.45581],[42.44585,-0.47332],[42.43792,-0.4768],[42.41949,-0.49572],[42.38774,-0.54001],[42.3752,-0.54748],[42.34372,-0.58507],[42.31978,-0.61648],[42.31555,-0.63039],[42.3112,-0.63103],[42.30531,-0.63785],[42.28982,-0.66283],[42.28534,-0.66463],[42.2623,-0.69423],[42.25756,-0.70479],[42.25896,-0.71458],[42.24796,-0.71521],[42.24233,-0.71998],[42.2203,-0.75756],[42.1842,-0.79668],[42.17844,-0.80853],[42.14887,-0.8304],[42.14734,-0.82627],[42.14248,-0.82576],[42.13762,-0.83116],[42.11458,-0.84312],[42.09719,-0.84285],[42.08287,-0.83769],[42.06828,-0.83999],[42.06214,-0.84862],[42.0629,-0.86046],[42.0588,-0.86187],[42.05458,-0.85788],[42.05612,-0.85041],[42.04922,-0.84397],[42.05192,-0.82955],[42.06524,-0.79866],[42.06359,-0.7863],[42.07448,-0.76596],[42.08126,-0.76108],[42.08139,-0.75696],[42.07755,-0.75541],[42.07038,-0.77394],[42.05975,-0.78295],[42.05296,-0.80766],[42.04401,-0.80045],[42.0348,-0.8043],[42.0307,-0.81035],[42.01817,-0.80815],[42.0151,-0.81086],[42.00128,-0.81059],[41.99226,-0.79913],[41.99301,-0.78368],[42.0053,-0.74377],[41.99899,-0.73398],[41.99516,-0.73811],[41.99004,-0.73618],[41.98568,-0.72653],[41.99131,-0.71777],[41.98389,-0.72653],[41.98812,-0.73631],[41.99695,-0.74454],[41.98865,-0.76669],[41.99121,-0.7703],[41.98573,-0.78626],[41.97345,-0.78511],[41.98483,-0.78961],[41.98561,-0.80274],[41.98958,-0.81098],[42.00128,-0.8214],[42.04298,-0.80933],[42.04975,-0.82363],[42.04514,-0.82877],[42.0464,-0.84912],[42.05573,-0.86367],[42.06776,-0.86162],[42.07313,-0.8521],[42.08184,-0.84567],[42.09437,-0.85186],[42.09603,-0.8574],[42.08371,-0.89833],[42.07002,-0.90811],[42.05568,-0.9238],[42.04748,-0.94053],[42.03263,-0.95391],[42.02969,-0.9588],[42.03018,-0.97528],[42.02352,-0.98763],[42.01726,-0.98801],[41.99537,-1.00358],[41.98337,-1.01998],[41.96826,-1.01545],[41.98295,-0.98917],[41.97591,-0.98532],[41.97219,-0.97245],[41.96464,-0.96756],[41.96821,-0.96344],[41.97062,-0.94052],[41.97496,-0.92918],[41.97265,-0.91193],[41.94871,-0.88749],[41.92773,-0.883],[41.92134,-0.88764],[41.91545,-0.88674],[41.9134,-0.88288],[41.9175,-0.88082],[41.9189,-0.87541],[41.91058,-0.86769],[41.90776,-0.8601],[41.89394,-0.86075],[41.89023,-0.85123],[41.87372,-0.84274],[41.87716,-0.8278],[41.87435,-0.82858],[41.87257,-0.84145],[41.8791,-0.8502],[41.88729,-0.85174],[41.89011,-0.86024],[41.90546,-0.86345],[41.90802,-0.87104],[41.91672,-0.87619],[41.91621,-0.87928],[41.90854,-0.88108],[41.90816,-0.88469],[41.9152,-0.89125],[41.9459,-0.89097],[41.9564,-0.90203],[41.9541,-0.90487],[41.96126,-0.90448],[41.96779,-0.91322],[41.97049,-0.93176],[41.96461,-0.9364],[41.96578,-0.96112],[41.96182,-0.96241],[41.96016,-0.96874],[41.96528,-0.97451],[41.96491,-0.98623],[41.97246,-0.99408],[41.97183,-1.00129],[41.96327,-1.00928],[41.96673,-1.01932],[41.9771,-1.03167],[41.96382,-1.05949],[41.96269,-1.07391],[41.9572,-1.08679],[41.93586,-1.11308],[41.92948,-1.12699],[41.92885,-1.13883],[41.92207,-1.13768],[41.91824,-1.14554],[41.90239,-1.15354],[41.90163,-1.15946],[41.89652,-1.1641],[41.89934,-1.17234],[41.89653,-1.17363],[41.89806,-1.17608],[41.90369,-1.17002],[41.8996,-1.17646],[41.89269,-1.17827],[41.89167,-1.18342],[41.88656,-1.18549],[41.8849,-1.19193],[41.8766,-1.19889],[41.87443,-1.2043],[41.8761,-1.21614],[41.88224,-1.21189],[41.88198,-1.20674],[41.8894,-1.20776],[41.90396,-1.19178],[41.89426,-1.20866],[41.87509,-1.22336],[41.86817,-1.21757],[41.85333,-1.219],[41.84924,-1.21643],[41.84335,-1.21129],[41.84564,-1.20497],[41.83615,-1.1755],[41.82796,-1.17448],[41.81989,-1.16702],[41.81465,-1.17024],[41.80415,-1.15982],[41.79852,-1.16086],[41.80055,-1.14772],[41.79543,-1.14592],[41.788,-1.12558],[41.76957,-1.12019],[41.77122,-1.10963],[41.75446,-1.10488],[41.75011,-1.10708],[41.75076,-1.1148],[41.74628,-1.11854],[41.71148,-1.11819],[41.70841,-1.12077],[41.71009,-1.13055],[41.70625,-1.13519],[41.71111,-1.13055],[41.70982,-1.12514],[41.7134,-1.1205],[41.71839,-1.11934],[41.72044,-1.12269],[41.74603,-1.12086],[41.75242,-1.11622],[41.75178,-1.1112],[41.75523,-1.10771],[41.76188,-1.10951],[41.76701,-1.12174],[41.78672,-1.13292],[41.79595,-1.15004],[41.79519,-1.15494],[41.76397,-1.15149],[41.75451,-1.15652],[41.74479,-1.16696],[41.70873,-1.18799],[41.70516,-1.19701],[41.69902,-1.19688],[41.69749,-1.20448],[41.68689,-1.22046],[41.68549,-1.23154],[41.67373,-1.24005],[41.67361,-1.25319],[41.66939,-1.2568],[41.65429,-1.25488],[41.64892,-1.26042],[41.64329,-1.2576],[41.63907,-1.26095],[41.63433,-1.25181],[41.60208,-1.24952],[41.60464,-1.2521],[41.63587,-1.25451],[41.63754,-1.26404],[41.641,-1.2652],[41.64393,-1.25888],[41.64957,-1.26377],[41.65353,-1.25733],[41.66402,-1.25693],[41.66863,-1.26066],[41.67592,-1.2537],[41.67578,-1.2452],[41.67987,-1.23747],[41.68664,-1.23282],[41.69366,-1.21711],[41.69865,-1.21478],[41.69596,-1.21273],[41.70196,-1.20164],[41.70862,-1.20138],[41.71245,-1.19133],[41.72587,-1.18295],[41.73073,-1.1823],[41.73138,-1.18616],[41.73063,-1.20651],[41.72629,-1.21604],[41.7286,-1.22583],[41.72897,-1.21372],[41.73319,-1.20754],[41.73368,-1.18307],[41.73124,-1.17818],[41.75119,-1.17159],[41.75502,-1.16322],[41.76679,-1.15535],[41.78483,-1.15752],[41.82285,-1.1853],[41.82658,-1.20229],[41.83785,-1.21181],[41.84067,-1.22494],[41.83404,-1.24271],[41.83776,-1.24709],[41.83597,-1.25095],[41.82563,-1.27131],[41.79906,-1.30636],[41.79332,-1.32363],[41.78782,-1.32698],[41.78336,-1.34282],[41.77492,-1.34863],[41.77109,-1.35713],[41.75984,-1.36539],[41.74298,-1.38627],[41.73685,-1.3958],[41.73737,-1.40121],[41.74095,-1.40224],[41.732,-1.40791],[41.71999,-1.42338],[41.71336,-1.4409],[41.67988,-1.48473],[41.67287,-1.50302],[41.66149,-1.51437],[41.66073,-1.52081],[41.64566,-1.54195],[41.64477,-1.54813],[41.62713,-1.56722],[41.62293,-1.58268],[41.61091,-1.58784],[41.60606,-1.59764],[41.59557,-1.60795],[41.58677,-1.62909],[41.58947,-1.63784],[41.59382,-1.63822],[41.58948,-1.64505],[41.58692,-1.6466],[41.58845,-1.6399],[41.57719,-1.64159],[41.55941,-1.66212],[41.55892,-1.59857],[40.99352,-0.83342],[40.9957,0.57605],[40.99213,1.56509],[40.99432,1.7977],[40.99122,2.04647],[40.99212,2.82181],[41.33087,3.15758],[41.91033,3.98497],[41.91287,3.99458],[41.91503,3.99684],[41.92457,3.99588],[41.92581,4.00132],[41.93533,4.00094],[41.94433,4.00872],[41.94657,4.02192],[41.95275,4.0245],[41.95153,4.04343],[41.94638,4.05216],[41.9509,4.06294],[41.9568,4.06106],[41.9711,4.08335],[41.97899,4.0787],[41.98083,4.08024],[41.97716,4.08865],[41.98125,4.09175],[41.97989,4.09734],[41.98602,4.09889],[41.99075,4.10553],[42.0016,4.09985],[42.0027,4.11339],[42.02111,4.11126],[42.02382,4.12435],[42.0341,4.12562],[42.03779,4.14042],[42.04152,4.14283],[42.04534,4.13625],[42.05227,4.14023],[42.05531,4.14819],[42.06084,4.1483],[42.05904,4.15552],[42.07348,4.16238],[42.07559,4.17462],[42.07975,4.17932],[42.1932,4.19142],[42.38654,4.19246],[42.42181,4.20183],[42.46305,4.20729],[42.54076,4.2108],[42.59451,4.22335],[42.62674,4.23868],[42.6764,4.25413],[42.7176,4.26242],[42.76411,4.26462],[42.80341,4.27061],[42.84414,4.28351],[42.8838,4.30972],[42.91053,4.33278],[42.96309,4.40032],[42.99907,4.46536],[43.01572,4.52164],[43.0294,4.55298],[43.04125,4.57145],[43.05572,4.58716],[43.08161,4.60701],[43.12633,4.63457],[43.21594,4.68338],[43.32577,4.73632],[43.53128,4.81695],[43.63497,4.8546],[43.99883,4.95671],[44.02595,4.95882],[44.31325,4.94634],[44.97045,4.91329],[44.99895,4.93955],[45.0584,5.00631],[45.99488,5.99547],[46.65928,6.66378],[46.99907,6.99932],[48.00106,8.00131],[47.00103,8.00114],[45.89394,8.37458],[43.99531,9.00319],[43.64297,9.35678],[43.59223,9.35933],[43.56726,9.36995],[43.55547,9.37003],[43.54493,9.37751],[43.52061,9.37967],[43.50893,9.3883],[43.48763,9.39741],[43.47641,9.40982],[43.46229,9.41636],[43.45187,9.43334],[43.44268,9.43975],[43.43874,9.44678],[43.43136,9.47368],[43.42578,9.47905],[43.41335,9.50386],[43.41032,9.52868],[43.39465,9.55583],[43.3827,9.56056],[43.36285,9.57938],[43.32793,9.60318],[43.29879,9.60658],[43.27883,9.70102],[43.25498,9.84676],[43.25053,9.84669],[43.17887,9.88884],[43.1642,9.88776],[43.14894,9.89892],[43.14169,9.89995],[43.14039,9.88894],[43.11603,9.8868],[43.08745,9.90259],[43.0838,9.90738],[43.00903,10.08645],[42.96476,10.12809],[42.94389,10.13786],[42.93514,10.14661],[42.91737,10.17549],[42.8924,10.18709],[42.88394,10.19414],[42.886,10.20173],[42.86859,10.20842],[42.86557,10.21445],[42.85965,10.21412],[42.85352,10.21997],[42.85584,10.23805],[42.85184,10.25214],[42.81324,10.33235],[42.81055,10.34469],[42.79917,10.34863],[42.8015,10.35785],[42.79871,10.37277],[42.79832,10.45271],[42.78929,10.45944],[42.78677,10.47403],[42.77645,10.47785],[42.7682,10.4877],[42.76095,10.48938],[42.74371,10.50185],[42.74091,10.50976],[42.7431,10.51532],[42.73608,10.52291],[42.72465,10.52407],[42.70427,10.54236],[42.69795,10.55417],[42.6988,10.57226],[42.67255,10.61335],[42.67008,10.62381],[42.71428,10.6377],[42.75476,10.71082],[42.77398,10.73606],[42.79997,10.75731],[42.83008,10.79091],[42.85753,10.85311],[42.86787,10.85508],[42.87566,10.86083],[42.88984,10.85985],[42.89495,10.87029],[42.91323,10.88148],[42.91601,10.89331],[42.93422,10.92035],[42.93065,10.94059],[43.25815,11.46107],[43.29253,11.46516],[43.29515,11.46427],[43.29465,11.45912],[43.30197,11.458],[43.31006,11.46024],[43.31172,11.46643],[43.32182,11.4366],[43.33064,11.42429],[43.34161,11.42409],[43.34321,11.4192],[43.34594,11.42102],[43.34366,11.43106],[43.34575,11.43107],[43.35188,11.40921],[43.37889,11.38952],[43.38547,11.38028],[43.39854,11.37803],[43.39982,11.38242],[43.40426,11.38334],[43.42465,11.37972],[43.43123,11.36983],[43.45192,11.35873],[43.45298,11.35539],[43.46587,11.35511],[43.46967,11.36024],[43.47828,11.36016],[43.48113,11.36468],[43.49077,11.36911],[43.50461,11.36867],[43.50633,11.37258],[43.49755,11.37095],[43.49492,11.37442],[43.49753,11.37559],[43.50799,11.37191],[43.48911,11.36228],[43.48265,11.34962],[43.4791,11.32924],[43.48046,11.31869],[43.49182,11.29349],[43.49304,11.25923],[43.49999,11.22834],[43.52385,11.18054],[43.53665,11.17944],[43.52487,11.18608],[43.52538,11.18879],[43.53533,11.18188],[43.55335,11.17939],[43.5779,11.12024],[43.5842,11.11332],[43.59896,11.08221],[43.62862,11.04343],[43.64902,11.0041],[43.64968,11.00178],[43.6416,11.00072],[43.64787,10.99765],[43.64906,10.99379],[43.63888,10.99581],[43.64896,10.98761],[43.64731,10.97806],[43.6503,10.97885],[43.65254,10.97474],[43.65409,10.97732],[43.65352,10.98763],[43.65638,10.98996],[43.65401,10.99562],[43.67672,10.96144],[43.77708,10.84616],[43.86265,10.76015],[43.91755,10.7119],[43.97242,10.67059],[44.00792,10.64983],[44.04944,10.61967],[44.04893,10.61748],[44.06379,10.61263],[44.08473,10.57957],[44.09883,10.56724],[44.11814,10.5548],[44.14212,10.54829],[44.20214,10.50656],[44.25539,10.45515],[44.29269,10.42933],[44.3607,10.40112],[44.4042,10.39166],[44.42165,10.39183],[44.45261,10.40077],[44.52553,10.38749],[44.53516,10.38918],[44.55705,10.38031],[44.59167,10.37843],[44.63853,10.38634],[44.6544,10.39719],[44.67418,10.40404],[44.74707,10.41841],[44.78848,10.41328],[44.8205,10.41537],[44.88664,10.40406],[44.93169,10.4069],[44.95642,10.41232],[44.99535,10.4341],[44.99782,10.4323],[45.00433,10.44003],[45.00772,10.44003],[45.00303,10.45112],[44.99548,10.44777],[44.99053,10.44957],[44.98402,10.44055],[44.98038,10.4439],[44.98454,10.44764],[45.04965,10.47418],[45.06137,10.48179],[45.0869,10.50807],[45.1403,10.51643],[45.16792,10.53291],[45.18616,10.54141],[45.19866,10.54295],[45.23306,10.56019],[45.25418,10.58196],[45.27218,10.60875],[45.29904,10.6327],[45.32147,10.66103],[45.33451,10.66398],[45.35431,10.65983],[45.36916,10.66162],[45.41059,10.65796],[45.46428,10.66536],[45.4708,10.66909],[45.47942,10.68209],[45.49063,10.68645],[45.51201,10.68822],[45.52205,10.69478],[45.52507,10.70431],[45.53028,10.70804],[45.5441,10.70931],[45.57044,10.72008],[45.57645,10.72639],[45.57569,10.73721],[45.58561,10.7457],[45.59372,10.76115],[45.59868,10.76436],[45.62162,10.76535],[45.66805,10.78123],[45.71009,10.81284],[45.75394,10.83117],[45.76061,10.83965],[45.76207,10.85202],[45.76991,10.85857],[45.80017,10.86288],[45.80566,10.86737],[45.82803,10.85031],[45.85069,10.83968],[45.85744,10.83193],[45.85586,10.82394],[45.84698,10.81933],[45.86468,10.81142],[45.86951,10.81308],[45.86471,10.81928],[45.8707,10.81746],[45.8712,10.81204],[45.88501,10.80955],[45.88684,10.81187],[45.88098,10.81382],[45.87619,10.82324],[45.86303,10.82469],[45.86252,10.83037],[45.85771,10.83463],[45.87387,10.83433],[45.91424,10.81849],[45.97798,10.77835],[46.01941,10.77564],[46.06447,10.76569],[46.10434,10.76426],[46.2058,10.7827],[46.22404,10.78057],[46.23317,10.78311],[46.2493,10.77647],[46.26931,10.76273],[46.33106,10.69985],[46.3412,10.69362],[46.35915,10.68723],[46.39873,10.68242],[46.44354,10.68299],[46.47067,10.69008],[46.53056,10.71657],[46.5873,10.72894],[46.62055,10.73031],[46.62256,10.72649],[46.62366,10.73087],[46.66633,10.74651],[46.68821,10.76185],[46.71793,10.77486],[46.72536,10.78203],[46.7688,10.80011],[46.78644,10.8127],[46.81086,10.82331],[46.81699,10.83175],[46.83429,10.84073],[46.84609,10.85246],[46.86785,10.85931],[46.8861,10.87511],[46.89499,10.89092],[46.92375,10.89953],[46.93082,10.91544],[46.95657,10.91604],[46.96487,10.91808],[46.96842,10.92455],[46.98634,10.92749],[46.997,10.93779],[47.00957,10.96097],[47.01656,10.96337],[47.0439,10.9627],[47.05654,10.97148],[47.083,10.97851],[47.08581,10.98253],[47.10058,10.98722],[47.10758,10.99914],[47.11419,11.02109],[47.14077,11.03969],[47.14957,11.0636],[47.19963,11.07889],[47.22474,11.09053],[47.25157,11.11041],[47.29196,11.12995],[47.31013,11.13455],[47.32512,11.14399],[47.34483,11.15118],[47.36872,11.15739],[47.41173,11.17694],[47.44513,11.17348],[47.45237,11.17807],[47.49219,11.18227],[47.54016,11.18039],[47.55695,11.17106],[47.6303,11.11503],[47.66804,11.09576],[47.69963,11.0907],[47.73443,11.10086],[47.76347,11.11404],[47.79313,11.11887],[47.79596,11.12211],[47.80695,11.11785],[47.87607,11.11292],[47.89506,11.11543],[47.91866,11.127],[47.9498,11.11548],[47.95945,11.1148],[47.98548,11.11815],[48.02302,11.11776],[48.03655,11.11943],[48.05108,11.12704],[48.07429,11.12521],[48.09405,11.13081],[48.13998,11.1261],[48.15738,11.1327],[48.17032,11.14248],[48.21113,11.18277],[48.22462,11.19023],[48.2396,11.2053],[48.2724,11.21127],[48.30594,11.22226],[48.35429,11.26943],[48.38164,11.27353],[48.39252,11.28161],[48.40606,11.28482],[48.43426,11.28198],[48.46921,11.28356],[48.48507,11.28936],[48.51258,11.30659],[48.52664,11.31006],[48.59346,11.30778],[48.65882,11.32504],[48.77941,11.28978],[48.89012,11.2459],[48.92591,11.23997],[48.958,11.24019],[48.99005,11.24634],[49.00983,11.25471],[49.06246,11.26743],[49.25199,11.30287],[49.27491,11.31228],[49.30218,11.33601],[49.32936,11.33088],[49.38576,11.33017],[49.43375,11.33918],[49.44598,11.34659],[49.4501,11.35782],[49.46523,11.35919],[49.47252,11.36322],[49.47716,11.37497],[49.49622,11.37635],[49.50976,11.38312],[49.52561,11.39957],[49.55201,11.44556],[49.57104,11.45313],[49.6029,11.45457],[49.6068,11.45781],[49.6251,11.45583],[49.63449,11.45949],[49.65434,11.45932],[49.67584,11.47089],[49.6796,11.47631],[49.68926,11.47829],[49.75335,11.45796],[49.8265,11.4598],[49.85938,11.46818],[49.8792,11.47702],[49.91646,11.50306],[49.91933,11.50371],[49.92956,11.49512],[49.93714,11.49412],[49.9387,11.49618],[49.92601,11.49975],[49.92638,11.5067],[49.94725,11.5149],[50.00112,11.50272],[50.07793,11.50825],[50.10558,11.522],[50.12774,11.53998],[50.13663,11.53923],[50.14681,11.54403],[50.14862,11.54816],[50.16821,11.55453],[50.21731,11.56446],[50.23453,11.57894],[50.2476,11.5782],[50.26875,11.58624],[50.27815,11.59129],[50.30004,11.61596],[50.31337,11.61792],[50.35505,11.63764]]],[[[51.10618,10.5301],[51.09889,10.53178],[51.10592,10.53126],[51.10592,10.53487],[51.09733,10.539],[51.09577,10.54828],[51.10384,10.54931],[51.10775,10.55459],[51.1045,10.5475],[51.09785,10.54725],[51.09837,10.53977],[51.10645,10.53693],[51.10618,10.5301]]],[[[51.08428,10.46374],[51.08298,10.46825],[51.09093,10.46966],[51.08428,10.46374]]],[[[51.02178,10.44068],[51.02608,10.44751],[51.02595,10.45601],[51.0309,10.4555],[51.03584,10.45988],[51.02178,10.44068]]],[[[51.02881,10.45833],[51.02764,10.46168],[51.03116,10.46504],[51.02881,10.45833]]],[[[51.02803,10.4015],[51.02673,10.40691],[51.03024,10.40446],[51.02803,10.4015]]],[[[51.02308,10.45382],[51.02178,10.4555],[51.02569,10.45898],[51.02308,10.45382]]],[[[47.23562,11.21645],[47.24151,11.22437],[47.24465,11.22325],[47.23562,11.21645]]],[[[43.45421,11.41801],[43.45295,11.43398],[43.4564,11.44739],[43.47076,11.44901],[43.47616,11.44028],[43.47062,11.42647],[43.46619,11.42425],[43.46174,11.42694],[43.45942,11.42035],[43.45421,11.41801]]],[[[43.44782,11.48896],[43.45375,11.50252],[43.46518,11.5152],[43.46872,11.51187],[43.45705,11.49532],[43.44782,11.48896]]],[[[43.37993,11.43629],[43.37601,11.43768],[43.37964,11.44208],[43.37993,11.43629]]],[[[43.37287,11.43818],[43.36919,11.44177],[43.37259,11.4423],[43.37287,11.43818]]],[[[43.36385,11.46209],[43.3594,11.46413],[43.36383,11.46596],[43.36385,11.46209]]],[[[43.33263,11.44079],[43.33364,11.44839],[43.33964,11.44946],[43.33263,11.44079]]],[[[43.28329,11.48172],[43.28273,11.487],[43.29448,11.48823],[43.29632,11.48579],[43.29433,11.48402],[43.28691,11.48754],[43.28329,11.48172]]],[[[42.54414,-0.38912],[42.55771,-0.37534],[42.55911,-0.37676],[42.54414,-0.38912]]],[[[42.32756,-0.66362],[42.32168,-0.65846],[42.32296,-0.64417],[42.32923,-0.65023],[42.32783,-0.64082],[42.3355,-0.64122],[42.33832,-0.63349],[42.33627,-0.63091],[42.34997,-0.62191],[42.35274,-0.62715],[42.34971,-0.62937],[42.34958,-0.63581],[42.33946,-0.6474],[42.33575,-0.65783],[42.32846,-0.6577],[42.32756,-0.66362]]],[[[42.26201,-0.75064],[42.27737,-0.72721],[42.28556,-0.72438],[42.28864,-0.71794],[42.2958,-0.7146],[42.30528,-0.70147],[42.30707,-0.70263],[42.26201,-0.75064]]],[[[42.19057,-0.83918],[42.19134,-0.83635],[42.20235,-0.82696],[42.19057,-0.83918]]],[[[42.12861,-0.90545],[42.14167,-0.88241],[42.16702,-0.85822],[42.17061,-0.84767],[42.17649,-0.84973],[42.17649,-0.84703],[42.18135,-0.84767],[42.18545,-0.84433],[42.18532,-0.84819],[42.15114,-0.87959],[42.14115,-0.89928],[42.1345,-0.89966],[42.12861,-0.90545]]],[[[42.11631,-0.92462],[42.11734,-0.9187],[42.11887,-0.91973],[42.11631,-0.92462]]],[[[42.09966,-0.95216],[42.10299,-0.94624],[42.10452,-0.94869],[42.09966,-0.95216]]],[[[42.09922,-0.86615],[42.09948,-0.85997],[42.10191,-0.86204],[42.09922,-0.86615]]],[[[42.03334,-1.02356],[42.02285,-1.02034],[42.02363,-1.0157],[42.0395,-1.00207],[42.03848,-0.99975],[42.04257,-0.99975],[42.04488,-0.9892],[42.05179,-0.98998],[42.05191,-0.99976],[42.03731,-1.01365],[42.03334,-1.02356]]],[[[42.02642,-1.03347],[42.0295,-1.02807],[42.03026,-1.0309],[42.02642,-1.03347]]],[[[42.01947,-1.03947],[42.01901,-1.03166],[42.0222,-1.0327],[42.01947,-1.03947]]],[[[42,-0.74026],[41.99721,-0.74338],[41.99593,-0.74042],[42,-0.74026]]],[[[41.97524,-1.09566],[41.98137,-1.07981],[41.98546,-1.07736],[41.99365,-1.08096],[41.99455,-1.08392],[41.9801,-1.08934],[41.97524,-1.09566]]],[[[41.93539,-1.15299],[41.9405,-1.14217],[41.94357,-1.14165],[41.93539,-1.15299]]],[[[41.91623,-1.17773],[41.91763,-1.17206],[41.91341,-1.16949],[41.91429,-1.16177],[41.91724,-1.16267],[41.92644,-1.15519],[41.9313,-1.15583],[41.93283,-1.15274],[41.93463,-1.15454],[41.91623,-1.17773]]],[[[41.60991,-1.61257],[41.61119,-1.60922],[41.61375,-1.61205],[41.60991,-1.61257]]]]}}]}