{"type":"FeatureCollection","features":[{"type":"Feature","properties":{"ISO_A3":"SRB","WB_A3":"SRB","WB_NAME":"Serbia","WB_REGION":"ECS"},"geometry":{"type":"MultiPolygon","coordinates":[[[[22.60919,44.06215],[22.5822,44.06172],[22.58087,44.05407],[22.55986,44.05749],[22.55481,44.05363],[22.53277,44.05089],[22.53123,44.04819],[22.54197,44.04231],[22.53831,44.0384],[22.54349,44.03344],[22.53874,44.02566],[22.53305,44.02499],[22.52746,44.01958],[22.48435,44.02023],[22.4679,44.01504],[22.44238,44.01655],[22.44107,44.01014],[22.40946,44.00424],[22.412,43.9999],[22.40919,43.99726],[22.4173,43.99239],[22.40893,43.98721],[22.40826,43.98164],[22.41217,43.97992],[22.41322,43.97225],[22.4115,43.95484],[22.40637,43.94789],[22.40889,43.93972],[22.38849,43.92671],[22.39443,43.90779],[22.3896,43.89565],[22.38869,43.87885],[22.37789,43.84412],[22.36604,43.82532],[22.35947,43.82008],[22.35716,43.81285],[22.37746,43.77519],[22.39528,43.75927],[22.40263,43.75882],[22.39916,43.75434],[22.39986,43.73795],[22.39426,43.73036],[22.40461,43.7168],[22.40788,43.69586],[22.42171,43.68376],[22.42048,43.68151],[22.4398,43.67378],[22.45149,43.66335],[22.46024,43.6588],[22.47653,43.65756],[22.49182,43.63918],[22.49159,43.63393],[22.48187,43.62551],[22.48895,43.61689],[22.49354,43.60014],[22.48701,43.59229],[22.4893,43.58738],[22.49658,43.58353],[22.48767,43.56867],[22.49008,43.55584],[22.5028,43.54126],[22.50204,43.52845],[22.50655,43.51628],[22.52406,43.49665],[22.52468,43.48576],[22.53271,43.47913],[22.53342,43.47124],[22.55399,43.4616],[22.57591,43.46379],[22.58631,43.45311],[22.59143,43.44042],[22.59769,43.43566],[22.62833,43.42814],[22.63884,43.43335],[22.66122,43.42593],[22.65949,43.42282],[22.66647,43.41275],[22.6672,43.4025],[22.67848,43.39471],[22.72253,43.39561],[22.76788,43.37664],[22.76995,43.36362],[22.78946,43.35169],[22.79451,43.34302],[22.82775,43.32901],[22.83127,43.31311],[22.83743,43.30261],[22.84504,43.29706],[22.84237,43.28635],[22.84832,43.27603],[22.85908,43.27426],[22.86888,43.26739],[22.87048,43.25464],[22.88272,43.2449],[22.88806,43.23579],[22.89666,43.2307],[22.8963,43.22725],[22.92026,43.21855],[22.94157,43.20259],[22.9611,43.20693],[22.98322,43.20252],[23.00557,43.1918],[23.00636,43.18714],[22.98643,43.16717],[22.9974,43.15583],[22.99367,43.15057],[22.99554,43.13953],[22.99225,43.12882],[22.98516,43.12205],[22.98321,43.11121],[22.95265,43.09239],[22.93142,43.08744],[22.91852,43.08017],[22.91113,43.05906],[22.89959,43.04761],[22.89839,43.03619],[22.86251,43.02143],[22.84937,43.00469],[22.78384,42.98109],[22.78599,42.97571],[22.78397,42.97359],[22.78621,42.96684],[22.78293,42.96448],[22.78445,42.95755],[22.77805,42.95046],[22.76921,42.94919],[22.77216,42.93581],[22.77966,42.93198],[22.77773,42.92534],[22.77247,42.91758],[22.76813,42.91793],[22.76057,42.91109],[22.76174,42.90703],[22.75817,42.90136],[22.75298,42.89929],[22.7542,42.89468],[22.74457,42.88605],[22.71384,42.88654],[22.70522,42.87941],[22.70168,42.88433],[22.69561,42.88358],[22.69555,42.87876],[22.68169,42.87202],[22.68229,42.86838],[22.67825,42.86545],[22.67436,42.86865],[22.67367,42.87597],[22.65665,42.88306],[22.64029,42.87799],[22.6194,42.89608],[22.6031,42.89206],[22.59618,42.89421],[22.59214,42.89075],[22.58428,42.89208],[22.57257,42.87581],[22.57438,42.86373],[22.53603,42.88213],[22.52762,42.87644],[22.52047,42.87569],[22.51548,42.86845],[22.51625,42.8581],[22.50689,42.85045],[22.49032,42.84372],[22.4752,42.83185],[22.46609,42.83339],[22.43976,42.82355],[22.44087,42.80579],[22.44873,42.80263],[22.4494,42.79578],[22.45568,42.79393],[22.46004,42.77793],[22.47627,42.76722],[22.47573,42.76398],[22.48717,42.74877],[22.49933,42.74389],[22.50135,42.73958],[22.49629,42.73271],[22.49658,42.72268],[22.48624,42.72147],[22.47409,42.70671],[22.47191,42.69493],[22.45842,42.68885],[22.46017,42.68377],[22.4696,42.68201],[22.47592,42.67582],[22.47266,42.66699],[22.4587,42.65511],[22.46097,42.64812],[22.45405,42.64648],[22.46708,42.64097],[22.46488,42.63254],[22.45836,42.6312],[22.45857,42.62205],[22.4514,42.6121],[22.4488,42.59547],[22.4417,42.58962],[22.43784,42.57214],[22.44142,42.56597],[22.4514,42.56695],[22.47082,42.56207],[22.47688,42.55427],[22.48789,42.5498],[22.50125,42.53427],[22.51359,42.52702],[22.52394,42.52547],[22.54766,42.50688],[22.55916,42.47994],[22.54409,42.46379],[22.54053,42.45412],[22.54399,42.44888],[22.53551,42.43147],[22.53529,42.42126],[22.52293,42.41261],[22.5211,42.39782],[22.51365,42.39485],[22.509,42.39719],[22.47779,42.39358],[22.48065,42.38033],[22.46913,42.37597],[22.46851,42.37126],[22.45935,42.3612],[22.46322,42.34511],[22.45223,42.33154],[22.43227,42.32304],[22.42501,42.3318],[22.41565,42.3293],[22.40414,42.33245],[22.40019,42.32615],[22.3664,42.32099],[22.35981,42.31174],[22.35649,42.31175],[22.35271,42.31683],[22.33276,42.3214],[22.3227,42.33395],[22.31631,42.33179],[22.29167,42.35053],[22.29917,42.36551],[22.29412,42.37354],[22.2813,42.36915],[22.27478,42.361],[22.25971,42.36589],[22.25173,42.36047],[22.25331,42.3533],[22.24939,42.34954],[22.2367,42.35007],[22.24213,42.34671],[22.23025,42.33606],[22.22176,42.3352],[22.21888,42.33884],[22.20618,42.33651],[22.20201,42.34044],[22.19438,42.33991],[22.18173,42.33277],[22.17861,42.32298],[22.17369,42.3215],[22.16664,42.31252],[22.14566,42.32146],[22.13276,42.30729],[22.11787,42.31477],[22.10082,42.30512],[22.09809,42.30673],[22.06631,42.29862],[22.06104,42.30368],[22.04514,42.30741],[22.03192,42.29844],[22.02188,42.30209],[22.01767,42.30804],[22.00863,42.31094],[22.00684,42.31501],[21.99331,42.32278],[21.98046,42.32546],[21.94632,42.34432],[21.93497,42.34048],[21.92835,42.31032],[21.91586,42.30438],[21.89314,42.30004],[21.88542,42.31202],[21.88199,42.31348],[21.86922,42.30933],[21.86664,42.31658],[21.85161,42.32561],[21.83433,42.3216],[21.83583,42.31152],[21.81519,42.29375],[21.80396,42.29354],[21.79502,42.29835],[21.78984,42.28542],[21.78652,42.28445],[21.77586,42.26648],[21.77097,42.26811],[21.7651,42.25965],[21.75683,42.25715],[21.75156,42.26067],[21.73453,42.26071],[21.72391,42.26486],[21.72396,42.25809],[21.71492,42.25259],[21.7166,42.24703],[21.6988,42.23228],[21.6839,42.24204],[21.66355,42.24379],[21.66346,42.24663],[21.65807,42.24892],[21.65444,42.24711],[21.62958,42.25092],[21.61251,42.25699],[21.60566,42.25476],[21.60118,42.25667],[21.60065,42.25446],[21.59165,42.25898],[21.58695,42.26282],[21.59007,42.26617],[21.58225,42.27948],[21.58429,42.2823],[21.56183,42.29884],[21.56553,42.30982],[21.5608,42.31428],[21.54141,42.30962],[21.52413,42.32698],[21.52696,42.33279],[21.52527,42.342],[21.5354,42.35966],[21.53206,42.36596],[21.54161,42.37227],[21.55205,42.36245],[21.55305,42.36564],[21.56119,42.36789],[21.57291,42.36526],[21.57838,42.36684],[21.5743,42.37558],[21.57793,42.37857],[21.5956,42.38364],[21.60571,42.37532],[21.62065,42.37799],[21.62774,42.39128],[21.63718,42.39904],[21.6356,42.40356],[21.64506,42.40874],[21.64645,42.41363],[21.63707,42.42077],[21.63799,42.42847],[21.6224,42.4531],[21.64242,42.46878],[21.65795,42.47613],[21.66026,42.48028],[21.65783,42.48367],[21.67113,42.48427],[21.66726,42.49285],[21.69114,42.50273],[21.69265,42.51516],[21.70779,42.51325],[21.70976,42.51906],[21.69669,42.53095],[21.69472,42.5401],[21.70132,42.54087],[21.70612,42.54928],[21.72937,42.5475],[21.74775,42.5588],[21.7489,42.5615],[21.74485,42.56548],[21.74779,42.56976],[21.74779,42.57971],[21.73412,42.60065],[21.74353,42.60908],[21.74834,42.60671],[21.75219,42.60967],[21.752,42.6138],[21.75731,42.61832],[21.75338,42.63012],[21.75994,42.63795],[21.76862,42.63369],[21.77574,42.63765],[21.77933,42.64672],[21.78987,42.65123],[21.77865,42.66419],[21.77132,42.66733],[21.77202,42.67683],[21.76007,42.68364],[21.75297,42.69532],[21.7541,42.70237],[21.73377,42.69395],[21.72521,42.69538],[21.71526,42.69001],[21.6895,42.69157],[21.67459,42.68789],[21.66988,42.67179],[21.66288,42.66995],[21.66063,42.66557],[21.64401,42.68017],[21.64159,42.691],[21.6338,42.69963],[21.62839,42.70035],[21.61858,42.69518],[21.60358,42.69864],[21.59557,42.70418],[21.58665,42.70395],[21.59379,42.71832],[21.59242,42.72579],[21.57123,42.72807],[21.56002,42.73727],[21.55274,42.73097],[21.54358,42.72979],[21.54049,42.72306],[21.5056,42.73249],[21.4797,42.74747],[21.47522,42.74702],[21.46753,42.73651],[21.45261,42.74439],[21.44885,42.7497],[21.39525,42.74623],[21.38948,42.75007],[21.38907,42.75778],[21.40288,42.76716],[21.4075,42.76679],[21.41129,42.77609],[21.40772,42.78181],[21.40836,42.78773],[21.41321,42.79014],[21.40642,42.79444],[21.41008,42.80531],[21.42289,42.80594],[21.41715,42.82548],[21.42423,42.8326],[21.42356,42.84706],[21.43676,42.85148],[21.43436,42.87275],[21.39967,42.87379],[21.39439,42.87144],[21.39347,42.86751],[21.38542,42.86656],[21.38014,42.87237],[21.36974,42.87341],[21.36534,42.87091],[21.35019,42.88068],[21.35125,42.88751],[21.34404,42.89095],[21.34362,42.89792],[21.33094,42.90262],[21.31469,42.90208],[21.30455,42.90612],[21.30185,42.90195],[21.28694,42.90084],[21.28238,42.89518],[21.27585,42.89423],[21.27119,42.89706],[21.2703,42.90979],[21.25122,42.93109],[21.24588,42.93337],[21.23568,42.95041],[21.23514,42.96075],[21.24386,42.98077],[21.23753,42.99502],[21.23528,43.00965],[21.23205,43.00961],[21.22464,43.02063],[21.20553,43.02464],[21.19691,43.02166],[21.19199,43.01513],[21.19263,43.00763],[21.17553,42.99978],[21.16945,43.00392],[21.16348,43.01434],[21.16772,43.02627],[21.15578,43.0296],[21.15246,43.0403],[21.15305,43.05976],[21.13975,43.08222],[21.15022,43.09119],[21.14069,43.1106],[21.1358,43.11398],[21.11277,43.11126],[21.10774,43.11736],[21.10138,43.11854],[21.09804,43.1279],[21.08799,43.1353],[21.07837,43.12725],[21.07944,43.119],[21.07625,43.11508],[21.04944,43.10814],[21.0255,43.12925],[20.9978,43.13807],[20.97535,43.13547],[20.96874,43.13044],[20.96763,43.12487],[20.96451,43.1246],[20.93347,43.13451],[20.92906,43.14428],[20.92104,43.14763],[20.90651,43.14818],[20.90027,43.15592],[20.8916,43.15473],[20.87897,43.16764],[20.86321,43.16472],[20.85612,43.17437],[20.83875,43.17286],[20.83084,43.1794],[20.83521,43.18433],[20.85103,43.18551],[20.85521,43.19021],[20.84399,43.19718],[20.8413,43.2028],[20.84356,43.20709],[20.84943,43.20498],[20.86372,43.2075],[20.88817,43.20289],[20.88922,43.20552],[20.87991,43.2115],[20.88082,43.22215],[20.87132,43.23185],[20.86181,43.238],[20.8506,43.25179],[20.83671,43.25718],[20.83566,43.26221],[20.83087,43.26254],[20.81944,43.27269],[20.81213,43.27283],[20.79112,43.26424],[20.78601,43.25413],[20.7747,43.25462],[20.77034,43.24803],[20.76164,43.24392],[20.72767,43.24836],[20.70947,43.22722],[20.70053,43.22546],[20.68836,43.21848],[20.68873,43.2149],[20.67157,43.20862],[20.65248,43.21106],[20.6418,43.20672],[20.63314,43.20968],[20.61529,43.20431],[20.6042,43.20697],[20.60087,43.21085],[20.59384,43.20509],[20.60942,43.19218],[20.61382,43.17988],[20.60865,43.17718],[20.61162,43.1694],[20.63985,43.16259],[20.65874,43.15343],[20.65749,43.15029],[20.66204,43.14424],[20.65759,43.13694],[20.66568,43.13536],[20.67275,43.13149],[20.67343,43.12671],[20.68477,43.12323],[20.69279,43.10893],[20.69314,43.10575],[20.6875,43.10297],[20.69324,43.09487],[20.68729,43.08366],[20.67005,43.0778],[20.66215,43.07841],[20.65645,43.07377],[20.66205,43.06673],[20.66911,43.06522],[20.67046,43.05704],[20.66587,43.04988],[20.67011,43.04797],[20.67138,43.03909],[20.66339,43.03421],[20.65212,43.03344],[20.651,43.0221],[20.64138,43.02268],[20.63687,43.01638],[20.64051,43.00683],[20.62985,43.00913],[20.61951,43.00272],[20.61532,43.00461],[20.61854,43.01769],[20.61005,43.01546],[20.59084,43.01703],[20.59045,43.01459],[20.58136,43.01279],[20.58124,43.00197],[20.56778,42.99634],[20.56493,42.98471],[20.5519,42.97557],[20.5542,42.97122],[20.54657,42.96124],[20.54033,42.96433],[20.53574,42.97408],[20.52975,42.9751],[20.51454,42.97052],[20.51359,42.9655],[20.49961,42.9568],[20.4929,42.94042],[20.48552,42.93394],[20.48627,42.92906],[20.49987,42.91771],[20.50551,42.90532],[20.52061,42.89817],[20.52046,42.89358],[20.53529,42.88911],[20.53824,42.88312],[20.48583,42.8676],[20.44087,42.83349],[20.42931,42.83516],[20.41525,42.84661],[20.4089,42.84699],[20.38406,42.84287],[20.36367,42.8323],[20.35293,42.83344],[20.34804,42.84637],[20.34895,42.85493],[20.34206,42.86935],[20.34589,42.87646],[20.34538,42.88969],[20.34989,42.89632],[20.34433,42.91004],[20.33655,42.90766],[20.3292,42.91372],[20.3104,42.91736],[20.31126,42.92339],[20.29943,42.92175],[20.28459,42.92701],[20.28196,42.92899],[20.28365,42.93163],[20.27782,42.93449],[20.2691,42.93237],[20.25158,42.94017],[20.23902,42.9406],[20.20758,42.95923],[20.20116,42.95735],[20.18868,42.96021],[20.17385,42.97235],[20.15236,42.97525],[20.15103,42.98805],[20.14738,42.98901],[20.13108,42.96905],[20.12171,42.96374],[20.10287,42.97447],[20.10016,42.98363],[20.08721,42.99235],[20.08672,42.99558],[20.08262,42.99351],[20.07847,42.99722],[20.07381,42.99646],[20.06755,42.99952],[20.06395,43.00682],[20.05416,43.00945],[20.05637,43.01765],[20.0475,43.02637],[20.02867,43.03734],[19.99211,43.0518],[19.96744,43.0872],[19.97352,43.10368],[19.96941,43.11139],[19.95998,43.10995],[19.9301,43.09604],[19.92197,43.09593],[19.91549,43.08676],[19.90657,43.09113],[19.90265,43.09927],[19.88755,43.09738],[19.87744,43.1101],[19.87015,43.11311],[19.86131,43.11033],[19.83867,43.09405],[19.8338,43.09613],[19.83629,43.09999],[19.83308,43.10729],[19.84034,43.11196],[19.83698,43.11578],[19.80673,43.11735],[19.80738,43.12099],[19.79109,43.12348],[19.78131,43.13758],[19.77684,43.13778],[19.78049,43.14118],[19.78056,43.15216],[19.77875,43.15812],[19.76927,43.16566],[19.7409,43.15905],[19.7337,43.17126],[19.68488,43.16799],[19.67878,43.17887],[19.6714,43.18351],[19.64076,43.18885],[19.63785,43.19527],[19.63859,43.20715],[19.6263,43.22217],[19.6192,43.2258],[19.61835,43.23053],[19.59076,43.23941],[19.56189,43.24194],[19.54632,43.24667],[19.54239,43.26135],[19.52954,43.27309],[19.52725,43.27932],[19.52744,43.28501],[19.53765,43.30423],[19.53544,43.30825],[19.52137,43.32095],[19.48524,43.32757],[19.48195,43.33358],[19.46104,43.34485],[19.46207,43.35786],[19.45748,43.36503],[19.45053,43.3673],[19.44849,43.38812],[19.43935,43.39179],[19.41209,43.39268],[19.39269,43.40174],[19.38565,43.41163],[19.35938,43.41154],[19.34919,43.41625],[19.33428,43.43661],[19.32185,43.44133],[19.3116,43.43997],[19.28817,43.4458],[19.27638,43.45432],[19.25343,43.46139],[19.24835,43.46813],[19.22144,43.48318],[19.22615,43.48697],[19.22222,43.49251],[19.2256,43.49552],[19.22244,43.50315],[19.22757,43.51253],[19.22275,43.5235],[19.22429,43.52746],[19.25034,43.52942],[19.24644,43.54792],[19.25373,43.57355],[19.24639,43.59284],[19.26317,43.58957],[19.27257,43.59686],[19.26858,43.60199],[19.25785,43.59927],[19.26375,43.60706],[19.27397,43.59713],[19.28776,43.59578],[19.29076,43.59867],[19.3042,43.59006],[19.31997,43.58824],[19.32996,43.59081],[19.336,43.58892],[19.35666,43.60576],[19.36938,43.61089],[19.36938,43.60637],[19.3817,43.60179],[19.3842,43.59212],[19.39746,43.59109],[19.40208,43.58751],[19.39975,43.58141],[19.38843,43.57638],[19.40536,43.57734],[19.40245,43.5703],[19.42209,43.57533],[19.42172,43.57925],[19.44595,43.58195],[19.47208,43.57664],[19.48011,43.57158],[19.51136,43.58605],[19.50008,43.59266],[19.49619,43.59849],[19.49184,43.59763],[19.49905,43.61691],[19.49221,43.61948],[19.49243,43.62494],[19.48763,43.63158],[19.49931,43.63864],[19.50069,43.63321],[19.50549,43.63365],[19.51047,43.62824],[19.5147,43.6385],[19.51245,43.64437],[19.52697,43.652],[19.53189,43.668],[19.51726,43.6891],[19.5182,43.696],[19.51427,43.70089],[19.51969,43.70681],[19.5192,43.71412],[19.48123,43.73353],[19.47717,43.74745],[19.46715,43.75385],[19.46511,43.76551],[19.44633,43.77587],[19.43221,43.77651],[19.43162,43.78372],[19.421,43.79691],[19.40924,43.79442],[19.40572,43.79742],[19.39474,43.7982],[19.39151,43.80921],[19.37237,43.82415],[19.3749,43.8348],[19.36484,43.83743],[19.35393,43.84596],[19.33361,43.87194],[19.31522,43.88327],[19.3153,43.88882],[19.29646,43.91036],[19.29576,43.9175],[19.29108,43.92283],[19.27435,43.93653],[19.26763,43.9462],[19.25733,43.94924],[19.25111,43.95502],[19.25539,43.96044],[19.25437,43.96586],[19.23698,43.98812],[19.23486,44.00997],[19.237,44.01338],[19.24749,44.01469],[19.26859,43.99988],[19.30271,43.99767],[19.33256,43.98352],[19.35497,43.98155],[19.36255,43.97182],[19.38746,43.96043],[19.40422,43.96793],[19.42471,43.95885],[19.52602,43.95598],[19.53852,43.97308],[19.55147,43.98058],[19.56689,43.9845],[19.56829,43.98904],[19.5633,43.9989],[19.59082,44.00383],[19.59684,44.00956],[19.61831,44.01364],[19.6227,44.02017],[19.61416,44.03406],[19.62328,44.05228],[19.61897,44.05393],[19.61194,44.05003],[19.60444,44.0507],[19.60207,44.054],[19.60301,44.06395],[19.59907,44.07051],[19.59019,44.07244],[19.58236,44.06827],[19.58216,44.0503],[19.5748,44.04623],[19.57,44.04916],[19.5666,44.05944],[19.55744,44.06996],[19.51012,44.08204],[19.49741,44.09857],[19.4941,44.11495],[19.47483,44.11686],[19.47037,44.12115],[19.47038,44.1285],[19.48002,44.13636],[19.48234,44.14551],[19.4749,44.14993],[19.46706,44.14883],[19.45439,44.14032],[19.44915,44.13173],[19.44395,44.13158],[19.42087,44.14341],[19.40943,44.16848],[19.40388,44.17254],[19.39678,44.17127],[19.37688,44.18157],[19.35747,44.18433],[19.35548,44.20047],[19.35867,44.20924],[19.34292,44.22083],[19.34903,44.23163],[19.33946,44.24525],[19.32978,44.24993],[19.32636,44.27067],[19.32056,44.27302],[19.29392,44.27031],[19.27824,44.27631],[19.27276,44.27124],[19.25269,44.26326],[19.23909,44.26162],[19.23044,44.26358],[19.22231,44.26979],[19.21793,44.28467],[19.21006,44.29105],[19.19818,44.29092],[19.18249,44.28006],[19.16932,44.28156],[19.13016,44.31827],[19.13556,44.33492],[19.13423,44.33926],[19.11862,44.3419],[19.10948,44.35402],[19.10974,44.35796],[19.11724,44.36206],[19.118,44.36556],[19.10295,44.3711],[19.10864,44.39622],[19.14555,44.41314],[19.14726,44.41905],[19.14507,44.43302],[19.14928,44.45438],[19.13251,44.48317],[19.13334,44.49391],[19.12,44.50311],[19.12922,44.51574],[19.13029,44.52437],[19.13933,44.52774],[19.14771,44.52342],[19.17078,44.52414],[19.17691,44.53785],[19.19629,44.55308],[19.19576,44.56103],[19.18166,44.56683],[19.18321,44.57294],[19.19706,44.58674],[19.20604,44.59111],[19.22498,44.59377],[19.22736,44.59993],[19.22283,44.61474],[19.24135,44.61645],[19.24093,44.63063],[19.24975,44.63666],[19.2566,44.65894],[19.27661,44.67163],[19.27053,44.6831],[19.27309,44.68819],[19.29477,44.68706],[19.29912,44.6903],[19.30037,44.70011],[19.3124,44.70812],[19.31311,44.71321],[19.31996,44.71744],[19.32216,44.72604],[19.32723,44.72977],[19.32365,44.73639],[19.3414,44.74102],[19.33384,44.74831],[19.33907,44.7566],[19.32653,44.76499],[19.32653,44.77086],[19.34051,44.77208],[19.33955,44.78526],[19.34797,44.78869],[19.34767,44.80196],[19.35574,44.80742],[19.34749,44.81636],[19.3537,44.82606],[19.34534,44.83084],[19.34791,44.83418],[19.36189,44.83653],[19.36081,44.84912],[19.36469,44.8517],[19.37359,44.84975],[19.36422,44.86199],[19.36481,44.867],[19.37216,44.87508],[19.36786,44.87711],[19.36129,44.87476],[19.35765,44.87738],[19.3666,44.88735],[19.35401,44.89109],[19.34736,44.88906],[19.30686,44.90846],[19.29558,44.90973],[19.27548,44.9049],[19.25382,44.91365],[19.22125,44.89631],[19.21414,44.89617],[19.2099,44.89797],[19.19794,44.91729],[19.17711,44.92198],[19.16571,44.91733],[19.15195,44.90625],[19.12929,44.89899],[19.1203,44.88754],[19.08723,44.87899],[19.07454,44.86527],[19.05915,44.86011],[19.02129,44.85527],[19.00282,44.88498],[18.9925,44.89442],[18.98913,44.90574],[18.99792,44.91537],[19.0143,44.92094],[19.03493,44.92174],[19.04455,44.9122],[19.0675,44.90111],[19.08701,44.91048],[19.08066,44.91343],[19.08739,44.92541],[19.12527,44.93874],[19.14315,44.94098],[19.14349,44.94744],[19.15595,44.95288],[19.15384,44.95781],[19.14702,44.95714],[19.14763,44.97544],[19.13813,44.98087],[19.11887,44.97574],[19.10955,44.96993],[19.09298,44.97107],[19.08705,44.97439],[19.07534,44.97119],[19.05272,44.97669],[19.05435,44.97985],[19.07959,44.98678],[19.0861,44.99351],[19.09262,44.99475],[19.09611,45.00534],[19.10275,45.01088],[19.09759,45.02543],[19.09901,45.03292],[19.09446,45.03754],[19.10515,45.04973],[19.10432,45.05341],[19.09525,45.05855],[19.10588,45.07927],[19.09165,45.09271],[19.09329,45.10165],[19.08401,45.10734],[19.08195,45.11],[19.08414,45.11152],[19.07657,45.11408],[19.07791,45.12795],[19.08758,45.13853],[19.08642,45.14546],[19.12003,45.13377],[19.1421,45.12992],[19.187,45.16593],[19.19466,45.17902],[19.16596,45.18984],[19.16906,45.19738],[19.17652,45.20254],[19.19101,45.20111],[19.21409,45.18791],[19.22692,45.18488],[19.23774,45.17536],[19.24746,45.17783],[19.25015,45.17267],[19.27268,45.17583],[19.27798,45.17151],[19.28883,45.17107],[19.2938,45.17842],[19.28132,45.19308],[19.28783,45.19495],[19.28294,45.20563],[19.31852,45.20782],[19.33241,45.18111],[19.32982,45.17698],[19.34709,45.17163],[19.34946,45.16479],[19.35476,45.16468],[19.35439,45.16905],[19.3629,45.17341],[19.37228,45.17048],[19.38707,45.17325],[19.41859,45.16576],[19.43596,45.17291],[19.42774,45.18763],[19.44738,45.19597],[19.42743,45.21747],[19.42114,45.23372],[19.34796,45.23154],[19.28623,45.23687],[19.246,45.24582],[19.1965,45.26518],[19.14217,45.28115],[19.10936,45.2955],[19.10234,45.30165],[19.09904,45.30816],[19.09857,45.32827],[19.08966,45.33738],[19.02238,45.34501],[18.9768,45.37187],[18.97096,45.37845],[18.97002,45.38737],[18.97714,45.39507],[18.98737,45.39905],[19.01997,45.40169],[19.02974,45.40988],[19.02853,45.42149],[18.99238,45.44149],[18.98738,45.44928],[18.99162,45.47979],[18.99709,45.49123],[19.00783,45.49693],[19.03641,45.48614],[19.08287,45.48781],[19.09758,45.49847],[19.10155,45.51054],[19.09564,45.51996],[19.06997,45.531],[19.03459,45.53499],[19.02568,45.55373],[19.01595,45.55751],[19.00758,45.55499],[18.99116,45.53977],[18.95038,45.53357],[18.92363,45.54989],[18.93339,45.5581],[18.92973,45.56507],[18.90719,45.56755],[18.89789,45.57233],[18.90014,45.58611],[18.91183,45.59327],[18.91281,45.60095],[18.93166,45.59802],[18.94312,45.60236],[18.94612,45.60722],[18.943,45.61376],[18.9452,45.61922],[18.94267,45.62085],[18.928,45.61427],[18.91396,45.61429],[18.91672,45.62226],[18.9249,45.62585],[18.93884,45.62124],[18.95053,45.62399],[18.95191,45.62702],[18.94517,45.63421],[18.93498,45.63304],[18.93751,45.64096],[18.94044,45.64431],[18.96629,45.64853],[18.97578,45.65629],[18.95857,45.67925],[18.95063,45.68534],[18.92822,45.68927],[18.91322,45.70774],[18.94408,45.70443],[18.95325,45.69683],[18.9674,45.69484],[18.97366,45.69901],[18.97674,45.70728],[18.97779,45.71265],[18.97433,45.71968],[18.96211,45.72151],[18.94039,45.71493],[18.91192,45.71181],[18.90852,45.71752],[18.90981,45.72188],[18.9262,45.72856],[18.9436,45.7241],[18.95838,45.72417],[18.97118,45.73153],[18.97872,45.74204],[18.9706,45.75156],[18.97214,45.76049],[18.96949,45.76475],[18.95833,45.76732],[18.91958,45.74549],[18.90641,45.7457],[18.89587,45.75053],[18.88972,45.77385],[18.88024,45.78289],[18.89208,45.77894],[18.91646,45.7849],[18.92304,45.80586],[18.91487,45.81991],[18.89357,45.82627],[18.88201,45.82111],[18.87645,45.80742],[18.86257,45.80611],[18.84931,45.80926],[18.84846,45.81477],[18.85783,45.84263],[18.85524,45.85911],[18.85966,45.86199],[18.88776,45.85909],[18.90336,45.86861],[18.90114,45.87378],[18.87646,45.88521],[18.87055,45.89349],[18.87124,45.89721],[18.87702,45.90184],[18.90244,45.90978],[18.90552,45.91515],[18.9024,45.91885],[18.89057,45.92292],[18.90601,45.93527],[18.96202,45.92587],[18.98796,45.93221],[18.9947,45.92389],[19.00885,45.9233],[18.99787,45.94621],[19.00582,45.95871],[19.03268,45.96465],[19.07956,45.96353],[19.06568,46.00004],[19.10458,46.03998],[19.13379,46.03707],[19.1472,46.00797],[19.14774,45.99612],[19.20492,45.99268],[19.19956,45.99817],[19.20659,45.99886],[19.23272,45.99933],[19.23666,45.99506],[19.28535,45.99676],[19.29654,45.9878],[19.30271,45.99155],[19.28163,46.01453],[19.36416,46.05217],[19.38018,46.0358],[19.41544,46.04572],[19.43977,46.06718],[19.46653,46.08165],[19.46443,46.09528],[19.48184,46.1048],[19.48577,46.10349],[19.50897,46.11072],[19.52707,46.12094],[19.50809,46.13358],[19.50939,46.13741],[19.50245,46.14209],[19.51675,46.15174],[19.52657,46.14769],[19.56044,46.1663],[19.55864,46.16801],[19.56317,46.16976],[19.55986,46.17393],[19.56763,46.17872],[19.6316,46.16924],[19.66154,46.19005],[19.68255,46.17973],[19.69983,46.18746],[19.71768,46.17598],[19.71794,46.17158],[19.72706,46.1681],[19.73406,46.16982],[19.74103,46.16564],[19.75849,46.14787],[19.79716,46.13949],[19.81782,46.12779],[19.84424,46.1414],[19.8527,46.14945],[19.87427,46.15158],[19.91487,46.16398],[19.93515,46.1762],[20.01633,46.17661],[20.02243,46.17332],[20.03137,46.14852],[20.03673,46.14474],[20.05924,46.14772],[20.06373,46.14367],[20.09581,46.17724],[20.10649,46.17332],[20.10378,46.17168],[20.10686,46.16265],[20.13237,46.15016],[20.13729,46.14423],[20.16924,46.15277],[20.18183,46.16006],[20.20804,46.14394],[20.21034,46.13546],[20.22982,46.12907],[20.23318,46.12381],[20.24822,46.12984],[20.25157,46.12646],[20.24955,46.11987],[20.25492,46.11579],[20.26431,46.12638],[20.26231,46.12198],[20.26518,46.11783],[20.27843,46.11809],[20.27549,46.11262],[20.26476,46.10949],[20.27332,46.09836],[20.30241,46.08671],[20.31124,46.07361],[20.30915,46.07206],[20.34612,46.04747],[20.33907,46.04121],[20.34044,46.03601],[20.35767,46.00572],[20.35208,46.00284],[20.35329,45.99999],[20.34808,45.99977],[20.40549,45.96524],[20.44726,45.97031],[20.48297,45.95352],[20.5019,45.9105],[20.51581,45.89211],[20.54979,45.90009],[20.54645,45.90594],[20.56941,45.91026],[20.57881,45.88492],[20.57477,45.8839],[20.58164,45.8696],[20.59448,45.8718],[20.59903,45.86188],[20.61174,45.86405],[20.66057,45.82916],[20.65077,45.81182],[20.65699,45.8081],[20.66293,45.79422],[20.68147,45.79739],[20.69471,45.76694],[20.69082,45.76621],[20.69301,45.75998],[20.697,45.76061],[20.70053,45.75064],[20.71794,45.74964],[20.73434,45.75591],[20.77397,45.75456],[20.78354,45.7859],[20.82312,45.77511],[20.81604,45.7493],[20.80822,45.74842],[20.80266,45.73762],[20.80271,45.69982],[20.79635,45.68711],[20.80311,45.68203],[20.80017,45.67184],[20.80489,45.65723],[20.78855,45.6453],[20.77929,45.62232],[20.7659,45.61258],[20.77199,45.58284],[20.79532,45.58757],[20.8138,45.56806],[20.81148,45.56574],[20.82326,45.55201],[20.81973,45.55043],[20.83283,45.53577],[20.80717,45.51578],[20.76885,45.50024],[20.77707,45.49051],[20.77109,45.488],[20.77101,45.47993],[20.83319,45.47995],[20.86622,45.4652],[20.87218,45.4558],[20.87848,45.45459],[20.88041,45.44622],[20.87159,45.44524],[20.87489,45.43829],[20.86603,45.43583],[20.86453,45.4319],[20.90042,45.4169],[20.92044,45.41735],[20.92423,45.40704],[20.93129,45.40204],[20.93559,45.3928],[20.93004,45.39238],[20.9312,45.38684],[20.94834,45.38564],[20.95088,45.37485],[20.96012,45.3669],[20.98189,45.35745],[20.99498,45.34393],[21.00992,45.3414],[21.01654,45.32464],[21.06368,45.33196],[21.06127,45.31589],[21.0811,45.31784],[21.09639,45.2959],[21.1282,45.30458],[21.14457,45.30478],[21.15437,45.31236],[21.14998,45.31592],[21.16206,45.32519],[21.16651,45.31962],[21.17616,45.3252],[21.18373,45.32076],[21.18055,45.31892],[21.18382,45.31599],[21.17995,45.31256],[21.19134,45.28681],[21.20868,45.27537],[21.2029,45.26555],[21.21886,45.25071],[21.22351,45.25296],[21.25217,45.24274],[21.27559,45.22943],[21.29278,45.24292],[21.33892,45.23553],[21.33825,45.2334],[21.35993,45.22211],[21.36951,45.22609],[21.39536,45.2188],[21.40298,45.2291],[21.41162,45.22166],[21.43037,45.21316],[21.43745,45.20397],[21.48287,45.19205],[21.49232,45.17345],[21.50834,45.16962],[21.51412,45.17132],[21.52852,45.14732],[21.52731,45.13784],[21.49983,45.12583],[21.48599,45.12486],[21.47871,45.12104],[21.47088,45.10301],[21.48319,45.09151],[21.45959,45.07206],[21.45669,45.06398],[21.44797,45.05737],[21.45638,45.04054],[21.42264,45.03222],[21.42006,45.03646],[21.41253,45.03606],[21.39235,45.02683],[21.38988,45.02902],[21.37424,45.02804],[21.36039,45.0205],[21.37704,45.00693],[21.38705,45.00453],[21.38288,45.00202],[21.38864,44.99806],[21.41481,44.9868],[21.40699,44.97854],[21.43825,44.96051],[21.44577,44.96219],[21.46922,44.95841],[21.51972,44.93791],[21.52711,44.93914],[21.54662,44.93034],[21.55257,44.92372],[21.55038,44.91642],[21.55773,44.90692],[21.55973,44.88914],[21.51079,44.88003],[21.49382,44.87082],[21.48198,44.86875],[21.47441,44.87154],[21.46312,44.86695],[21.45075,44.87496],[21.44913,44.87207],[21.43379,44.86774],[21.42753,44.87268],[21.40425,44.86635],[21.38813,44.86975],[21.38502,44.86586],[21.36599,44.86383],[21.35738,44.84599],[21.36196,44.84019],[21.35307,44.84002],[21.36395,44.8295],[21.35721,44.82609],[21.35846,44.82189],[21.38473,44.80998],[21.39014,44.78771],[21.39906,44.778],[21.42293,44.77415],[21.46977,44.77628],[21.53531,44.77282],[21.55791,44.76957],[21.59104,44.75838],[21.60733,44.73708],[21.61646,44.71576],[21.61242,44.69283],[21.61752,44.67607],[21.62298,44.66714],[21.63658,44.65949],[21.69222,44.66405],[21.72504,44.65326],[21.76488,44.6605],[21.78486,44.66092],[21.81962,44.65157],[21.85164,44.65535],[21.89497,44.64497],[21.92173,44.64689],[21.9537,44.63523],[21.99033,44.63502],[21.99804,44.63102],[22.00144,44.62535],[22.0051,44.60874],[22.02768,44.59218],[22.02786,44.56479],[22.03633,44.54681],[22.07035,44.52601],[22.08428,44.50091],[22.13211,44.47586],[22.15555,44.4741],[22.17849,44.47832],[22.1988,44.5108],[22.21043,44.5226],[22.23571,44.56488],[22.26816,44.60033],[22.27505,44.6259],[22.29894,44.63887],[22.30234,44.65114],[22.30892,44.65768],[22.33642,44.67643],[22.3671,44.67262],[22.38826,44.67867],[22.40762,44.69182],[22.41847,44.70391],[22.44614,44.71256],[22.46139,44.71422],[22.47892,44.70873],[22.57462,44.63668],[22.61175,44.61809],[22.63749,44.6145],[22.67029,44.61863],[22.68487,44.60798],[22.71426,44.60015],[22.7449,44.57441],[22.7613,44.55653],[22.76407,44.54618],[22.76178,44.53925],[22.70727,44.51707],[22.6894,44.5175],[22.62833,44.54947],[22.61341,44.55193],[22.58591,44.54959],[22.57392,44.54383],[22.56593,44.53532],[22.56192,44.5262],[22.55868,44.4975],[22.55157,44.486],[22.54436,44.48125],[22.52135,44.4746],[22.46746,44.48052],[22.46067,44.47777],[22.45596,44.46983],[22.45981,44.45788],[22.47162,44.44083],[22.5,44.4165],[22.50186,44.38685],[22.52307,44.34424],[22.53012,44.33545],[22.5459,44.32629],[22.55941,44.30833],[22.61098,44.29476],[22.66126,44.28956],[22.67766,44.28104],[22.68449,44.27061],[22.68619,44.25375],[22.67177,44.22589],[22.6758,44.21583],[22.66709,44.21223],[22.66439,44.21384],[22.65527,44.20471],[22.64531,44.20907],[22.64563,44.1986],[22.64131,44.19259],[22.63708,44.19178],[22.6433,44.18662],[22.63658,44.18154],[22.62905,44.18284],[22.63633,44.17631],[22.62416,44.17078],[22.62161,44.17385],[22.6183,44.1728],[22.61634,44.16979],[22.61684,44.16135],[22.62226,44.16272],[22.62814,44.15584],[22.62517,44.14727],[22.62039,44.15058],[22.61031,44.10732],[22.61985,44.09772],[22.61997,44.08239],[22.61579,44.0789],[22.6246,44.07299],[22.61914,44.06869],[22.62111,44.06328],[22.60919,44.06215]],[[19.42247,43.56826],[19.41516,43.56705],[19.40796,43.55512],[19.39765,43.55328],[19.41113,43.54723],[19.41347,43.54044],[19.42188,43.54352],[19.42882,43.5531],[19.42343,43.55907],[19.42247,43.56826]]]]}}]}