{"type":"FeatureCollection","features":[{"type":"Feature","properties":{"ISO_A3":"SSD","WB_A3":"SSD","WB_NAME":"South Sudan","WB_REGION":"AFE,SSF"},"geometry":{"type":"MultiPolygon","coordinates":[[[[33.03624,7.98786],[33.04001,7.97992],[33.0378,7.96748],[33.02777,7.96064],[33.01255,7.95662],[32.99751,7.94391],[33.00547,7.9349],[33.00495,7.92684],[32.99969,7.9186],[33.00099,7.91368],[33.01626,7.89419],[33.01459,7.89036],[33.00474,7.89038],[32.99991,7.87417],[33.00385,7.86974],[33.00484,7.8585],[33.04785,7.8107],[33.04677,7.79052],[33.05792,7.79641],[33.06354,7.79029],[33.06574,7.79289],[33.07212,7.79141],[33.07051,7.79461],[33.07802,7.79798],[33.08507,7.79525],[33.08834,7.79707],[33.08731,7.80118],[33.09153,7.80342],[33.09448,7.80246],[33.09363,7.79812],[33.09742,7.79254],[33.10254,7.79231],[33.10439,7.79547],[33.10681,7.79337],[33.10549,7.78654],[33.09948,7.78337],[33.10854,7.77986],[33.1071,7.78346],[33.11534,7.78375],[33.11493,7.78834],[33.12378,7.78682],[33.12545,7.7909],[33.12786,7.79011],[33.12639,7.78653],[33.12985,7.78545],[33.13399,7.79094],[33.13688,7.78643],[33.14171,7.79078],[33.14594,7.78837],[33.15083,7.79204],[33.15632,7.78914],[33.15716,7.7968],[33.16042,7.79775],[33.15885,7.80299],[33.16904,7.79948],[33.17037,7.79414],[33.16486,7.79373],[33.16408,7.7905],[33.17146,7.79129],[33.17242,7.79575],[33.17621,7.79466],[33.17867,7.78881],[33.18587,7.79085],[33.18598,7.78259],[33.18946,7.78226],[33.18951,7.78894],[33.19532,7.7833],[33.20036,7.78579],[33.20446,7.77331],[33.20581,7.77845],[33.20936,7.77892],[33.20746,7.77345],[33.21108,7.77224],[33.21233,7.77505],[33.22398,7.76826],[33.22686,7.77774],[33.23319,7.77871],[33.23248,7.78161],[33.24121,7.77655],[33.24645,7.7796],[33.25003,7.77746],[33.2465,7.77416],[33.25438,7.76797],[33.25159,7.76546],[33.25503,7.76069],[33.25585,7.76504],[33.26121,7.7599],[33.26802,7.75888],[33.26823,7.753],[33.27449,7.75645],[33.27466,7.74981],[33.27748,7.74853],[33.28234,7.7536],[33.28514,7.75037],[33.28025,7.74711],[33.285,7.74284],[33.29333,7.74966],[33.2964,7.74889],[33.29137,7.74066],[33.29489,7.73495],[33.29613,7.74085],[33.30278,7.74273],[33.30066,7.73551],[33.30439,7.73239],[33.30305,7.72721],[33.30732,7.7296],[33.31267,7.72641],[33.31411,7.73107],[33.31706,7.73058],[33.31478,7.72512],[33.31974,7.72184],[33.3183,7.71067],[33.32307,7.70802],[33.32336,7.71266],[33.32854,7.7104],[33.3348,7.71514],[33.33884,7.71298],[33.34,7.70743],[33.3424,7.71356],[33.33926,7.71843],[33.34316,7.71645],[33.35044,7.72902],[33.36329,7.72054],[33.36472,7.73218],[33.37289,7.73188],[33.38103,7.7371],[33.3809,7.74301],[33.38399,7.73897],[33.38929,7.74213],[33.39288,7.73131],[33.39761,7.73305],[33.39973,7.73],[33.40329,7.73412],[33.40042,7.73798],[33.41555,7.74069],[33.41818,7.73795],[33.42389,7.74939],[33.42888,7.75096],[33.42526,7.75696],[33.42917,7.75487],[33.43529,7.75677],[33.43444,7.75333],[33.43912,7.74777],[33.44661,7.75025],[33.44934,7.74655],[33.44739,7.74466],[33.44473,7.74741],[33.44289,7.74449],[33.45448,7.73807],[33.4537,7.74592],[33.45774,7.74385],[33.46346,7.7466],[33.46059,7.75236],[33.46816,7.74936],[33.46978,7.75217],[33.47386,7.74729],[33.4825,7.74659],[33.48422,7.73582],[33.49293,7.73506],[33.49725,7.74143],[33.50072,7.7357],[33.49927,7.73279],[33.50388,7.72979],[33.50406,7.73362],[33.5095,7.73212],[33.51498,7.73665],[33.51797,7.73554],[33.51439,7.72947],[33.51819,7.73102],[33.52474,7.72792],[33.52253,7.72537],[33.52439,7.71971],[33.52127,7.71752],[33.52949,7.71643],[33.53726,7.70969],[33.54109,7.70332],[33.5385,7.69749],[33.5424,7.6937],[33.55037,7.69444],[33.54898,7.69746],[33.5561,7.69976],[33.56707,7.69872],[33.57037,7.69285],[33.58106,7.68909],[33.59086,7.69407],[33.60311,7.69044],[33.62114,7.69634],[33.63177,7.69357],[33.63607,7.68895],[33.64135,7.69383],[33.64686,7.69352],[33.66648,7.68569],[33.66729,7.67996],[33.67372,7.68026],[33.67908,7.67116],[33.68781,7.67052],[33.68864,7.66457],[33.69454,7.66619],[33.70217,7.66143],[33.71535,7.66327],[33.71834,7.656],[33.72357,7.65701],[33.73616,7.63946],[33.73387,7.63335],[33.73688,7.63237],[33.74049,7.62169],[33.75324,7.62249],[33.76285,7.61124],[33.76282,7.60682],[33.7805,7.60133],[33.78004,7.59548],[33.7857,7.5873],[33.79953,7.58045],[33.80469,7.57289],[33.81233,7.57303],[33.82046,7.56305],[33.83084,7.56464],[33.8502,7.55933],[33.86076,7.56089],[33.8669,7.55849],[33.87227,7.54646],[33.87939,7.54824],[33.89881,7.53894],[33.90582,7.52583],[33.89939,7.51941],[33.89961,7.51274],[33.90499,7.51017],[33.9078,7.50035],[33.91626,7.49756],[33.91729,7.49275],[33.92977,7.48288],[33.92561,7.47449],[33.92823,7.47235],[33.9403,7.47471],[33.9462,7.46916],[33.95731,7.46918],[33.9559,7.45903],[33.95895,7.44843],[33.96246,7.45024],[33.97213,7.44364],[33.97898,7.4433],[34.00426,7.4185],[34.00827,7.40068],[34.00428,7.39034],[34.00788,7.38167],[34.01872,7.37698],[34.03672,7.35675],[34.02959,7.33095],[34.03398,7.31636],[34.03146,7.31026],[34.04137,7.27588],[34.03912,7.27174],[34.03052,7.27048],[34.02386,7.26427],[34.01274,7.27095],[34.01194,7.26518],[34.01578,7.25636],[34.01965,7.25474],[34.02107,7.24708],[34.02402,7.24384],[34.03326,7.24416],[34.03171,7.23991],[34.03998,7.23044],[34.03778,7.2266],[34.03976,7.2229],[34.04673,7.22256],[34.04853,7.22605],[34.06133,7.21933],[34.06341,7.21412],[34.06731,7.21619],[34.06422,7.21859],[34.06614,7.22204],[34.07245,7.21865],[34.08695,7.19973],[34.09287,7.19872],[34.09442,7.19301],[34.10136,7.19336],[34.10192,7.18733],[34.09752,7.18311],[34.10337,7.17096],[34.11027,7.1722],[34.115,7.16837],[34.12578,7.16754],[34.13571,7.15925],[34.14252,7.14731],[34.16006,7.14778],[34.17844,7.13439],[34.18434,7.13528],[34.19042,7.13136],[34.19519,7.11996],[34.18945,7.11667],[34.19265,7.11519],[34.19108,7.10521],[34.19907,7.09533],[34.19194,7.09332],[34.18879,7.0868],[34.19143,7.08085],[34.18811,7.07846],[34.19801,7.06487],[34.19324,7.05679],[34.19653,7.04798],[34.19212,7.04279],[34.2079,7.03612],[34.21584,7.0356],[34.22095,7.03868],[34.22226,7.03628],[34.21813,7.03075],[34.22352,7.0295],[34.22372,7.02226],[34.21938,7.0215],[34.21959,7.01646],[34.22303,7.01782],[34.22797,7.01201],[34.23259,7.01212],[34.23163,7.00448],[34.23723,7.00206],[34.25634,7.01191],[34.26832,7.00227],[34.27538,7.00471],[34.27603,7.00172],[34.2686,6.996],[34.27486,6.99798],[34.27479,6.99086],[34.27778,6.98846],[34.28314,6.99247],[34.28702,6.98141],[34.30535,6.97788],[34.29914,6.97174],[34.30213,6.96692],[34.30044,6.96419],[34.2951,6.96982],[34.29386,6.96488],[34.29636,6.96258],[34.29378,6.95852],[34.29759,6.95748],[34.29767,6.95448],[34.29259,6.94858],[34.30066,6.94648],[34.30217,6.94944],[34.30515,6.94357],[34.31011,6.94316],[34.31124,6.9506],[34.31948,6.93572],[34.32084,6.93918],[34.32633,6.93943],[34.32512,6.92825],[34.33268,6.92507],[34.33416,6.92133],[34.33828,6.92455],[34.34067,6.92161],[34.34167,6.93015],[34.34747,6.92233],[34.35261,6.92406],[34.35903,6.91712],[34.36457,6.92166],[34.36611,6.91602],[34.38321,6.91143],[34.38333,6.92031],[34.38952,6.92029],[34.39332,6.92374],[34.39791,6.92046],[34.40187,6.92318],[34.41408,6.91692],[34.4215,6.91952],[34.42496,6.91556],[34.42817,6.92],[34.4239,6.91077],[34.42824,6.91221],[34.43241,6.9079],[34.43426,6.90929],[34.43022,6.91442],[34.4324,6.9166],[34.43562,6.91216],[34.43799,6.91783],[34.44905,6.91722],[34.45649,6.92287],[34.46034,6.92041],[34.46053,6.91172],[34.46893,6.91396],[34.46983,6.9191],[34.47298,6.91688],[34.46824,6.91171],[34.4779,6.90282],[34.47841,6.90668],[34.48065,6.90528],[34.48709,6.89084],[34.49605,6.88699],[34.50096,6.88013],[34.50479,6.88372],[34.50811,6.88199],[34.50554,6.87967],[34.51161,6.8765],[34.51644,6.86743],[34.5112,6.86798],[34.51385,6.86129],[34.51034,6.8608],[34.51075,6.85756],[34.51311,6.85619],[34.52025,6.86238],[34.52641,6.86058],[34.53035,6.85288],[34.5228,6.84784],[34.52728,6.84523],[34.52688,6.84013],[34.53371,6.83809],[34.52918,6.83669],[34.53273,6.83233],[34.53091,6.82775],[34.53677,6.82823],[34.5344,6.8235],[34.54281,6.81778],[34.53457,6.81358],[34.53769,6.81068],[34.53283,6.8025],[34.53901,6.80398],[34.54181,6.79964],[34.5347,6.79797],[34.53531,6.79294],[34.53102,6.79005],[34.5356,6.78344],[34.53387,6.7772],[34.53709,6.77504],[34.53438,6.76222],[34.53855,6.75966],[34.53695,6.75639],[34.52966,6.75547],[34.53104,6.74534],[34.53485,6.74813],[34.53841,6.74487],[34.54365,6.74969],[34.5456,6.74892],[34.54312,6.74381],[34.54973,6.74306],[34.54958,6.73585],[34.55302,6.73769],[34.55573,6.73512],[34.56528,6.73962],[34.56778,6.73317],[34.57219,6.73585],[34.57323,6.73142],[34.57905,6.73405],[34.58174,6.72964],[34.58475,6.73203],[34.58732,6.72899],[34.60697,6.73341],[34.61173,6.72641],[34.61831,6.72351],[34.62193,6.72491],[34.62401,6.73154],[34.62455,6.74347],[34.64068,6.74057],[34.64298,6.73652],[34.65216,6.73278],[34.66062,6.71474],[34.66975,6.71365],[34.67728,6.70058],[34.68557,6.69997],[34.70947,6.68672],[34.71138,6.68341],[34.70579,6.67435],[34.71726,6.65725],[34.7143,6.65452],[34.727,6.6466],[34.72745,6.64108],[34.73967,6.63932],[34.7493,6.62273],[34.7661,6.60877],[34.76779,6.59486],[34.77691,6.60349],[34.77699,6.59967],[34.78598,6.59067],[34.79275,6.58944],[34.79298,6.5965],[34.80791,6.60486],[34.8157,6.60707],[34.84066,6.60133],[34.85172,6.60945],[34.86462,6.61116],[34.87063,6.60452],[34.87817,6.60737],[34.89019,6.60026],[34.88852,6.59165],[34.88318,6.58926],[34.89082,6.57898],[34.89783,6.57702],[34.90551,6.58083],[34.91182,6.58015],[34.90842,6.5715],[34.91377,6.56569],[34.92253,6.56293],[34.92776,6.55643],[34.93895,6.55823],[34.94552,6.54946],[34.94391,6.53805],[34.95269,6.53459],[34.9519,6.52443],[34.96045,6.51892],[34.9586,6.5059],[34.97111,6.50742],[34.98269,6.49362],[34.98033,6.49203],[34.98223,6.48627],[34.99298,6.48348],[35.00144,6.4758],[35.00834,6.47569],[35.01781,6.46428],[35.01745,6.45009],[35.02148,6.44266],[35.02188,6.43444],[35.01684,6.43418],[35.01206,6.42496],[35.01206,6.40712],[34.99169,6.39366],[34.99004,6.38655],[34.99247,6.38132],[34.9898,6.37803],[34.99333,6.3621],[34.99749,6.36143],[35.00059,6.35011],[34.99127,6.34364],[34.98952,6.33604],[34.99216,6.3288],[34.98598,6.31953],[34.98859,6.31578],[34.97391,6.30751],[34.97048,6.30169],[34.96806,6.28828],[34.96114,6.28344],[34.9639,6.27877],[34.96445,6.25802],[34.96154,6.25335],[34.95279,6.25194],[34.9504,6.2464],[34.95617,6.23972],[34.96348,6.23748],[34.96088,6.23067],[34.97163,6.21288],[34.97502,6.18749],[34.97826,6.18696],[34.97777,6.17562],[34.97039,6.17516],[34.97197,6.1713],[34.96755,6.16003],[34.9702,6.15192],[34.96436,6.14048],[34.96762,6.12966],[34.96353,6.12621],[34.96504,6.11955],[34.97147,6.11451],[34.97301,6.10548],[34.97159,6.08929],[34.97589,6.08697],[34.97625,6.09024],[34.98416,6.092],[34.98963,6.087],[34.99082,6.07936],[34.99533,6.08229],[35.0049,6.07566],[35.00109,6.07126],[34.99448,6.04254],[34.99601,6.03867],[34.99328,6.03653],[35.0018,6.03051],[35.00081,6.02694],[35.00619,6.02214],[35.00908,6.00731],[35.00615,5.99211],[34.99585,5.9759],[34.99081,5.95321],[34.99865,5.93471],[35.01128,5.9184],[35.0106,5.90795],[35.00529,5.89689],[34.99766,5.89697],[35.00627,5.88993],[35.04131,5.838],[35.13015,5.68745],[35.12603,5.62442],[35.3145,5.49823],[35.30706,5.48417],[35.30798,5.45858],[35.2991,5.43502],[35.29303,5.42802],[35.29422,5.39895],[35.29123,5.39744],[35.28873,5.38151],[35.29727,5.36636],[35.2963,5.3618],[35.30197,5.34951],[35.31,5.34948],[35.31654,5.34325],[35.31601,5.33482],[35.33626,5.34493],[35.37562,5.3559],[35.37697,5.3589],[35.38936,5.35828],[35.39011,5.36164],[35.41178,5.36455],[35.41488,5.37055],[35.42696,5.37348],[35.44246,5.38461],[35.4484,5.39288],[35.45101,5.39357],[35.45202,5.39021],[35.4556,5.39264],[35.47304,5.41243],[35.47852,5.41133],[35.48944,5.41873],[35.49798,5.41686],[35.50699,5.42322],[35.52442,5.41883],[35.52538,5.42258],[35.5284,5.42078],[35.53774,5.4238],[35.54402,5.42107],[35.54497,5.417],[35.55581,5.41299],[35.55866,5.41516],[35.56679,5.41204],[35.57182,5.41778],[35.57925,5.41635],[35.58533,5.4193],[35.58867,5.41324],[35.59162,5.41419],[35.58996,5.40885],[35.59887,5.39958],[35.6068,5.4007],[35.60511,5.40396],[35.61796,5.40399],[35.62004,5.39327],[35.61786,5.38673],[35.62085,5.38201],[35.62414,5.38547],[35.62666,5.38289],[35.63467,5.38794],[35.63936,5.38642],[35.65032,5.39419],[35.65531,5.39435],[35.655,5.38882],[35.66167,5.38614],[35.66522,5.38873],[35.67333,5.38608],[35.68623,5.3905],[35.68927,5.38858],[35.70029,5.39397],[35.70582,5.38914],[35.71792,5.39202],[35.71774,5.38557],[35.7205,5.38805],[35.72412,5.3864],[35.72522,5.38067],[35.72229,5.37591],[35.72472,5.37487],[35.7259,5.37839],[35.72801,5.37436],[35.73155,5.37502],[35.73594,5.37961],[35.74565,5.37194],[35.75202,5.37358],[35.75576,5.36811],[35.75156,5.36687],[35.75444,5.35988],[35.7727,5.34892],[35.77528,5.34985],[35.7714,5.35393],[35.77292,5.35763],[35.77657,5.35491],[35.78162,5.35627],[35.78976,5.34769],[35.7991,5.34564],[35.80515,5.34771],[35.81743,5.3434],[35.82192,5.33563],[35.8297,5.3383],[35.84021,5.33592],[35.83962,5.32831],[35.85259,5.32587],[35.86229,5.32029],[35.86367,5.30139],[35.85725,5.29541],[35.85908,5.29008],[35.85302,5.29117],[35.84658,5.27922],[35.84101,5.27819],[35.82875,5.2632],[35.82623,5.2493],[35.83953,5.2327],[35.84854,5.21513],[35.85462,5.21304],[35.85522,5.1979],[35.8658,5.1839],[35.85828,5.15316],[35.85599,5.14939],[35.84988,5.1481],[35.83793,5.12341],[35.83003,5.12051],[35.81823,5.1032],[35.80931,4.79069],[35.949,4.63104],[35.85983,4.62508],[35.78128,4.62508],[35.7808,4.67985],[35.77337,4.67922],[35.77007,4.68486],[35.75465,4.67895],[35.74929,4.68117],[35.74136,4.67766],[35.73337,4.68046],[35.7278,4.67183],[35.71774,4.6711],[35.71393,4.65593],[35.70539,4.65045],[35.70798,4.64042],[35.70298,4.63489],[35.70636,4.62465],[35.59703,4.62465],[35.52183,4.76003],[35.5194,4.79547],[35.56609,4.89796],[35.56145,4.91818],[35.53856,4.91551],[35.47003,4.92957],[35.38791,4.91714],[35.42943,5.00662],[35.41434,5.03142],[35.40829,5.03342],[35.26407,4.94397],[35.24482,4.98711],[35.0842,4.92049],[34.65648,4.76003],[34.377,4.61707],[34.08491,4.32387],[33.99206,4.21863],[33.51247,3.74907],[33.1943,3.77761],[33.02863,3.89072],[32.90236,3.81356],[32.72003,3.76507],[32.41524,3.74401],[32.19672,3.59843],[32.19589,3.59482],[32.20399,3.5906],[32.20841,3.59206],[32.21609,3.57508],[32.21454,3.56626],[32.21884,3.56123],[32.20985,3.55319],[32.20802,3.5419],[32.21088,3.53812],[32.20188,3.52378],[32.20502,3.51376],[32.20254,3.50513],[32.1006,3.52991],[32.08691,3.52991],[32.08359,3.53413],[32.08994,3.53582],[32.08692,3.54109],[32.08937,3.54606],[32.08212,3.55104],[32.08397,3.56137],[32.07689,3.56809],[32.07248,3.5667],[32.07271,3.57153],[32.06962,3.57117],[32.07102,3.57507],[32.06311,3.57545],[32.06268,3.58035],[32.05705,3.58093],[32.06089,3.58542],[32.05431,3.58809],[32.0538,3.59105],[32.04763,3.58905],[32.04335,3.59235],[32.04005,3.58594],[31.95438,3.58687],[31.9544,3.60773],[31.94698,3.64482],[31.94326,3.64753],[31.9456,3.65384],[31.94282,3.6692],[31.92256,3.71104],[31.91184,3.71876],[31.91404,3.72537],[31.90757,3.73694],[31.90248,3.73854],[31.89518,3.75498],[31.88948,3.76005],[31.88296,3.75899],[31.87718,3.76466],[31.87738,3.77712],[31.87301,3.78294],[31.84243,3.80294],[31.82011,3.8254],[31.80501,3.83548],[31.79307,3.8283],[31.79783,3.81966],[31.79615,3.81482],[31.80366,3.80618],[31.80184,3.79961],[31.75691,3.76644],[31.73941,3.74906],[31.73702,3.74759],[31.73067,3.75301],[31.72485,3.73372],[31.71219,3.71698],[31.70818,3.71727],[31.70387,3.71203],[31.6996,3.71529],[31.69309,3.70873],[31.63316,3.68968],[31.57741,3.67584],[31.54522,3.6509],[31.29054,3.79371],[31.17793,3.79378],[31.16287,3.79049],[31.15283,3.77782],[31.13618,3.76959],[31.13325,3.76498],[31.12856,3.76519],[31.11827,3.75418],[31.11001,3.75292],[31.108,3.74903],[31.10559,3.75066],[31.09991,3.74468],[31.10413,3.74176],[31.10038,3.73599],[31.09412,3.73973],[31.093,3.73488],[31.09054,3.73513],[31.08909,3.74122],[31.06941,3.74308],[31.06108,3.73642],[31.06322,3.73019],[31.05935,3.71884],[31.0263,3.6957],[31.01999,3.69351],[31.00748,3.70663],[31.00198,3.7074],[30.98832,3.70349],[30.98768,3.69954],[30.98056,3.69903],[30.97645,3.69535],[30.97234,3.69098],[30.96886,3.67641],[30.95589,3.66839],[30.94788,3.6534],[30.94882,3.63307],[30.94233,3.62918],[30.93923,3.61898],[30.92956,3.61887],[30.92652,3.61573],[30.92068,3.59913],[30.90912,3.59415],[30.90322,3.5742],[30.88704,3.55233],[30.86623,3.49365],[30.85473,3.48884],[30.85167,3.49006],[30.85019,3.50392],[30.85281,3.5123],[30.8497,3.51389],[30.85191,3.52564],[30.86029,3.53529],[30.86395,3.5476],[30.86172,3.57096],[30.85328,3.57606],[30.85069,3.58249],[30.84139,3.5801],[30.82523,3.58257],[30.82413,3.59265],[30.81557,3.5897],[30.80493,3.59345],[30.80615,3.60025],[30.79941,3.60293],[30.79559,3.62135],[30.80125,3.6323],[30.79655,3.63638],[30.79771,3.65566],[30.7828,3.66819],[30.77556,3.68399],[30.77138,3.68116],[30.7716,3.67518],[30.76302,3.67715],[30.76092,3.67373],[30.76388,3.66492],[30.75462,3.65541],[30.75776,3.63771],[30.73521,3.64034],[30.72789,3.62365],[30.71776,3.62702],[30.71306,3.63237],[30.70556,3.63464],[30.70408,3.63226],[30.69058,3.64214],[30.68303,3.64331],[30.67298,3.63904],[30.66981,3.63084],[30.64496,3.61847],[30.63973,3.61919],[30.62957,3.60731],[30.6222,3.60538],[30.60583,3.60776],[30.60387,3.61074],[30.58744,3.60978],[30.57682,3.62059],[30.56225,3.61961],[30.55656,3.6303],[30.5675,3.64229],[30.56738,3.65238],[30.57141,3.66025],[30.57358,3.67474],[30.57158,3.69368],[30.57532,3.70126],[30.57959,3.73652],[30.56663,3.79166],[30.55784,3.80795],[30.55984,3.81116],[30.5516,3.81409],[30.55305,3.82114],[30.54958,3.82989],[30.55195,3.84274],[30.54465,3.84093],[30.54066,3.84648],[30.53341,3.84204],[30.52902,3.85553],[30.52485,3.85086],[30.50716,3.84556],[30.49144,3.83576],[30.46638,3.83264],[30.45587,3.84977],[30.45653,3.85889],[30.44933,3.86513],[30.44657,3.88141],[30.43921,3.87943],[30.4296,3.86463],[30.41827,3.86863],[30.41133,3.86531],[30.40554,3.86794],[30.40354,3.88131],[30.39511,3.89213],[30.38154,3.89211],[30.37556,3.90489],[30.35407,3.91177],[30.34602,3.9239],[30.33072,3.91705],[30.31188,3.92539],[30.29753,3.91591],[30.29836,3.93168],[30.29493,3.94043],[30.28756,3.94673],[30.28366,3.94656],[30.27827,3.95553],[30.27366,3.95621],[30.2698,3.94661],[30.26514,3.94853],[30.25319,3.94595],[30.2379,3.9329],[30.23484,3.93923],[30.22985,3.94109],[30.21781,3.93151],[30.21122,3.941],[30.20953,3.95551],[30.19848,3.96538],[30.19831,3.97256],[30.19272,3.98015],[30.19828,3.98831],[30.20057,4.00177],[30.19242,4.01914],[30.19376,4.02497],[30.17354,4.0411],[30.16624,4.03955],[30.1598,4.0486],[30.16215,4.05522],[30.17076,4.0607],[30.16751,4.06355],[30.17055,4.06931],[30.16503,4.07474],[30.16406,4.08116],[30.16883,4.09581],[30.16241,4.108],[30.16301,4.11741],[30.15993,4.11997],[30.15707,4.11366],[30.1516,4.11082],[30.13704,4.10895],[30.1258,4.11055],[30.1182,4.11713],[30.09636,4.12237],[30.08678,4.12895],[30.06994,4.12655],[30.06243,4.13072],[30.0527,4.14289],[30.05231,4.14952],[30.03388,4.16367],[30.02736,4.17365],[30.02495,4.18109],[30.02978,4.18813],[30.02612,4.20817],[30.01612,4.21349],[30.01167,4.20874],[30.00625,4.20864],[30.00233,4.21265],[29.98883,4.21498],[29.97191,4.21069],[29.96969,4.22069],[29.95748,4.22395],[29.9587,4.23054],[29.95194,4.23391],[29.95378,4.23867],[29.94362,4.24563],[29.95486,4.2592],[29.95302,4.26779],[29.96699,4.28518],[29.96454,4.29775],[29.95316,4.30573],[29.95299,4.31094],[29.94378,4.31361],[29.92154,4.32878],[29.91619,4.3358],[29.9124,4.33412],[29.90956,4.34118],[29.90068,4.34764],[29.89854,4.34556],[29.89077,4.34825],[29.88374,4.34109],[29.86666,4.34362],[29.8581,4.34261],[29.84571,4.33526],[29.8384,4.33599],[29.83687,4.34342],[29.83189,4.34762],[29.83098,4.35905],[29.81891,4.35892],[29.7995,4.37555],[29.80215,4.37825],[29.79952,4.39467],[29.80333,4.39989],[29.79704,4.41463],[29.80074,4.43134],[29.79714,4.43784],[29.803,4.44441],[29.80454,4.46665],[29.80814,4.46892],[29.80323,4.47776],[29.80943,4.50017],[29.79739,4.50773],[29.79999,4.50981],[29.80084,4.52485],[29.81041,4.52863],[29.81431,4.54002],[29.8223,4.54183],[29.81929,4.54659],[29.82065,4.55198],[29.82902,4.55557],[29.82562,4.56045],[29.80201,4.56635],[29.79509,4.56024],[29.78271,4.5678],[29.77958,4.57176],[29.78092,4.57463],[29.77094,4.57777],[29.76864,4.58609],[29.76234,4.58454],[29.75206,4.57007],[29.74111,4.57164],[29.72781,4.58462],[29.72753,4.59173],[29.71524,4.59731],[29.71611,4.60043],[29.70611,4.60821],[29.71028,4.61724],[29.68379,4.62029],[29.68008,4.62809],[29.65674,4.63542],[29.65763,4.64564],[29.6292,4.65243],[29.62773,4.6567],[29.62216,4.65909],[29.61351,4.65235],[29.60273,4.65274],[29.59788,4.64962],[29.59909,4.653],[29.58457,4.65791],[29.57875,4.66425],[29.56325,4.66134],[29.55548,4.67198],[29.54792,4.67028],[29.54764,4.66534],[29.53525,4.65598],[29.52113,4.66581],[29.51931,4.67427],[29.51272,4.6758],[29.51101,4.69016],[29.50299,4.68936],[29.50291,4.69333],[29.49728,4.69838],[29.49034,4.69558],[29.48448,4.68788],[29.48513,4.68278],[29.47965,4.67065],[29.47484,4.66696],[29.46653,4.67254],[29.46412,4.66765],[29.47306,4.6489],[29.4707,4.63861],[29.47311,4.63367],[29.47002,4.62656],[29.47381,4.61981],[29.47279,4.6112],[29.47768,4.5945],[29.46271,4.58067],[29.45972,4.57414],[29.44576,4.56339],[29.44775,4.54658],[29.44556,4.53104],[29.44813,4.52857],[29.44547,4.5265],[29.44616,4.52012],[29.43971,4.51664],[29.4318,4.5052],[29.432,4.50095],[29.42138,4.49738],[29.4046,4.47308],[29.39578,4.47432],[29.38077,4.46842],[29.37567,4.47212],[29.36877,4.47089],[29.364,4.45495],[29.35485,4.4488],[29.35455,4.42853],[29.34838,4.41817],[29.34749,4.39784],[29.30551,4.38285],[29.29578,4.39471],[29.28519,4.38905],[29.27843,4.39249],[29.27434,4.39978],[29.26862,4.39848],[29.26466,4.3906],[29.25402,4.38601],[29.25446,4.37836],[29.25998,4.37524],[29.25319,4.36508],[29.25472,4.35734],[29.25115,4.35226],[29.2279,4.34766],[29.22213,4.34123],[29.21472,4.34065],[29.20929,4.34763],[29.20118,4.35088],[29.20077,4.36584],[29.18534,4.37736],[29.17822,4.37902],[29.16262,4.39455],[29.15502,4.39307],[29.15566,4.39705],[29.14789,4.411],[29.13398,4.41748],[29.13672,4.42083],[29.13701,4.43251],[29.12436,4.43156],[29.10558,4.43688],[29.07964,4.43253],[29.07965,4.45123],[29.08434,4.45244],[29.08133,4.46131],[29.07541,4.46286],[29.06317,4.45791],[29.06134,4.46171],[29.05734,4.46078],[29.04204,4.47242],[29.04333,4.48127],[29.03825,4.48622],[29.03935,4.48873],[29.0299,4.49358],[29.02762,4.49133],[29.01652,4.49669],[29.00059,4.49501],[28.99711,4.48476],[28.96497,4.47928],[28.95181,4.4841],[28.94592,4.47895],[28.93617,4.47686],[28.92614,4.47838],[28.92278,4.48483],[28.91719,4.47812],[28.91188,4.47694],[28.89142,4.48747],[28.87196,4.49289],[28.85181,4.48077],[28.84682,4.48287],[28.83511,4.47875],[28.83429,4.48241],[28.8246,4.48465],[28.8168,4.49707],[28.81139,4.49509],[28.80886,4.49763],[28.81117,4.51364],[28.81726,4.51732],[28.81297,4.52403],[28.81219,4.54137],[28.80103,4.54634],[28.80187,4.55487],[28.79171,4.55926],[28.7881,4.5658],[28.78246,4.56442],[28.766,4.54578],[28.75685,4.5476],[28.75438,4.54378],[28.74434,4.5445],[28.7379,4.53893],[28.73399,4.53901],[28.72964,4.54545],[28.72409,4.5363],[28.71615,4.53261],[28.72438,4.52556],[28.71981,4.52327],[28.71453,4.51272],[28.70675,4.51476],[28.69656,4.51098],[28.69535,4.50293],[28.7024,4.48896],[28.69788,4.49004],[28.69685,4.48266],[28.68951,4.47813],[28.69234,4.46878],[28.68276,4.45345],[28.66964,4.44319],[28.66834,4.44053],[28.67362,4.43311],[28.67054,4.42985],[28.65066,4.42442],[28.64042,4.42573],[28.62865,4.4177],[28.60358,4.42135],[28.58812,4.3882],[28.57993,4.38256],[28.57006,4.38298],[28.56293,4.38838],[28.51718,4.37939],[28.5132,4.37595],[28.5151,4.37101],[28.51101,4.36306],[28.4983,4.35899],[28.4974,4.35503],[28.50238,4.3492],[28.48989,4.33664],[28.49067,4.32382],[28.4863,4.32313],[28.47954,4.31165],[28.47001,4.30743],[28.46386,4.29342],[28.45517,4.29227],[28.45229,4.28814],[28.43033,4.28662],[28.42084,4.27861],[28.39553,4.29002],[28.37983,4.28458],[28.37878,4.2958],[28.37498,4.29776],[28.37368,4.30318],[28.37256,4.32448],[28.36656,4.33938],[28.36018,4.34359],[28.3548,4.35447],[28.34839,4.35658],[28.34082,4.35244],[28.33363,4.35905],[28.31722,4.35822],[28.3088,4.36138],[28.27922,4.35558],[28.26793,4.36152],[28.25884,4.34978],[28.23098,4.35014],[28.21881,4.35542],[28.2073,4.35101],[28.20302,4.3583],[28.19603,4.36062],[28.19713,4.3658],[28.19395,4.37061],[28.18044,4.379],[28.17697,4.38615],[28.15793,4.39091],[28.15625,4.39519],[28.14576,4.39603],[28.13777,4.40287],[28.13961,4.41433],[28.15066,4.42223],[28.14367,4.43331],[28.14501,4.43906],[28.14063,4.44263],[28.13653,4.44159],[28.13324,4.43334],[28.12382,4.43624],[28.1199,4.44414],[28.11459,4.44699],[28.09775,4.43723],[28.0908,4.43918],[28.08927,4.43228],[28.09301,4.42483],[28.08575,4.41742],[28.08076,4.41686],[28.07192,4.44298],[28.06243,4.4486],[28.06147,4.45658],[28.05203,4.45723],[28.04732,4.46942],[28.03714,4.47846],[28.0406,4.49896],[28.03846,4.5158],[28.0416,4.51794],[28.04122,4.52952],[28.04951,4.54806],[28.04816,4.55166],[28.02273,4.54845],[28.01737,4.55484],[28.00082,4.55444],[27.99948,4.55855],[27.99512,4.55993],[27.99296,4.55614],[27.98334,4.56215],[27.98258,4.55441],[27.97851,4.55484],[27.97602,4.56079],[27.96869,4.56106],[27.95466,4.56923],[27.95563,4.57295],[27.95133,4.57974],[27.94279,4.57249],[27.94056,4.55294],[27.92837,4.54683],[27.92961,4.54258],[27.92545,4.53661],[27.89563,4.53978],[27.88638,4.54259],[27.85747,4.56871],[27.84919,4.56797],[27.8422,4.57939],[27.84354,4.59317],[27.83814,4.59769],[27.82324,4.59421],[27.81771,4.60079],[27.81723,4.6068],[27.78936,4.60576],[27.78576,4.61116],[27.79759,4.62912],[27.78795,4.64698],[27.78884,4.6508],[27.78113,4.66106],[27.78383,4.66634],[27.78168,4.67705],[27.77456,4.68754],[27.76752,4.68948],[27.77208,4.69687],[27.77236,4.70109],[27.76875,4.70228],[27.77064,4.70936],[27.77594,4.71186],[27.77843,4.72231],[27.78344,4.72603],[27.7744,4.7359],[27.78546,4.74583],[27.78281,4.75384],[27.77177,4.75826],[27.77486,4.76841],[27.78012,4.77149],[27.77009,4.77764],[27.77134,4.79217],[27.76491,4.7908],[27.7568,4.79701],[27.75098,4.79472],[27.746,4.7983],[27.73852,4.79569],[27.73133,4.80126],[27.72855,4.79908],[27.72988,4.78869],[27.72434,4.78638],[27.72206,4.78913],[27.70927,4.78969],[27.69957,4.79568],[27.69768,4.801],[27.70701,4.81009],[27.70726,4.81601],[27.70692,4.82308],[27.69653,4.8279],[27.70137,4.84026],[27.686,4.85124],[27.68371,4.86682],[27.6779,4.86698],[27.67424,4.87059],[27.67584,4.87455],[27.66324,4.88022],[27.66053,4.88598],[27.65517,4.88413],[27.64851,4.89762],[27.63383,4.89595],[27.63023,4.89274],[27.62473,4.89503],[27.61565,4.89102],[27.60606,4.89702],[27.60256,4.8946],[27.58424,4.89557],[27.57492,4.88713],[27.56024,4.89083],[27.54955,4.90882],[27.5357,4.91195],[27.53491,4.9172],[27.53125,4.9149],[27.53011,4.91846],[27.52783,4.91671],[27.52169,4.92613],[27.51035,4.92123],[27.50919,4.93277],[27.50414,4.9428],[27.51277,4.95543],[27.51228,4.96117],[27.50536,4.96211],[27.50115,4.97134],[27.48684,4.97288],[27.4868,4.98013],[27.47856,4.98453],[27.47691,4.98949],[27.46647,4.98718],[27.45944,4.99505],[27.45795,5.00323],[27.45037,5.00269],[27.44745,5.00908],[27.44591,5.018],[27.45065,5.02557],[27.44814,5.0349],[27.45591,5.04291],[27.45857,5.05063],[27.46386,5.0851],[27.46136,5.08878],[27.45193,5.08923],[27.44242,5.0944],[27.42277,5.11673],[27.41808,5.13214],[27.42033,5.14316],[27.39027,5.17658],[27.38634,5.18454],[27.36695,5.18057],[27.3626,5.19002],[27.36819,5.20131],[27.35552,5.20629],[27.35251,5.20146],[27.34593,5.20143],[27.32609,5.21475],[27.31941,5.22229],[27.3208,5.23043],[27.31527,5.23576],[27.31433,5.24329],[27.30836,5.24717],[27.31144,5.25707],[27.28945,5.26305],[27.28656,5.27077],[27.28168,5.27379],[27.28076,5.27787],[27.28505,5.28519],[27.27494,5.30763],[27.27542,5.31418],[27.25159,5.33887],[27.25698,5.36751],[27.24406,5.40122],[27.24728,5.41595],[27.23845,5.42246],[27.24362,5.43202],[27.24168,5.44862],[27.25865,5.5059],[27.27277,5.52295],[27.27909,5.52589],[27.28754,5.54143],[27.28732,5.54721],[27.29425,5.55409],[27.27968,5.56569],[27.28624,5.57289],[27.28775,5.58703],[27.29214,5.59546],[27.2886,5.60002],[27.27188,5.59985],[27.25851,5.60508],[27.24771,5.59903],[27.23749,5.60101],[27.23738,5.60756],[27.23224,5.61018],[27.22375,5.62761],[27.22997,5.63464],[27.23052,5.64417],[27.21611,5.65046],[27.22459,5.66598],[27.22141,5.67657],[27.22332,5.70065],[27.21683,5.70373],[27.21287,5.7126],[27.20058,5.72441],[27.19644,5.73363],[27.19734,5.74136],[27.18332,5.74566],[27.1633,5.74525],[27.15452,5.76319],[27.16211,5.76977],[27.16397,5.77386],[27.16115,5.77697],[27.13911,5.77708],[27.13679,5.78535],[27.12348,5.78981],[27.11809,5.8008],[27.10756,5.80163],[27.10536,5.80855],[27.09521,5.80447],[27.08845,5.80538],[27.07352,5.79512],[27.05845,5.80481],[27.04773,5.80618],[27.04616,5.82043],[27.03617,5.8219],[27.01954,5.84432],[27.01105,5.84402],[27.00822,5.84876],[27.0007,5.84908],[26.99956,5.86055],[26.9821,5.86167],[26.96683,5.857],[26.94142,5.87014],[26.93283,5.86965],[26.92818,5.88602],[26.93203,5.8934],[26.92277,5.90035],[26.91785,5.90146],[26.89466,5.89492],[26.88026,5.89691],[26.87068,5.89139],[26.85728,5.89219],[26.84592,5.89873],[26.83666,5.89713],[26.83258,5.90272],[26.83067,5.93273],[26.83325,5.94168],[26.83138,5.946],[26.82504,5.9482],[26.83035,5.95685],[26.83201,5.9729],[26.8241,5.9889],[26.80198,5.97509],[26.78742,5.99476],[26.77971,5.99241],[26.77543,5.99441],[26.7718,6.00335],[26.76553,6.0028],[26.75887,6.00773],[26.7294,6.00108],[26.72168,6.00438],[26.72162,6.0181],[26.71059,6.01885],[26.70217,6.01537],[26.68884,6.01848],[26.66306,5.99827],[26.6563,6.00666],[26.6432,6.01468],[26.63191,6.0122],[26.62149,6.01616],[26.61583,6.02671],[26.60311,6.03252],[26.58686,6.02648],[26.5601,6.0337],[26.55352,6.05676],[26.54417,6.05854],[26.53956,6.06307],[26.54089,6.07577],[26.53815,6.08216],[26.54198,6.08906],[26.53927,6.09705],[26.52432,6.10472],[26.51814,6.11577],[26.48187,6.10155],[26.45779,6.07279],[26.4492,6.07453],[26.45895,6.11527],[26.47267,6.12693],[26.4832,6.13127],[26.49491,6.14579],[26.51488,6.15464],[26.52523,6.17029],[26.53278,6.18679],[26.53707,6.20714],[26.53228,6.22848],[26.5211,6.23558],[26.51321,6.23083],[26.50389,6.21597],[26.49146,6.22086],[26.47693,6.21874],[26.47145,6.23477],[26.4849,6.26772],[26.47941,6.27706],[26.45145,6.29397],[26.43904,6.293],[26.4355,6.29633],[26.43557,6.30476],[26.42581,6.30145],[26.39189,6.30639],[26.37135,6.33855],[26.3644,6.33738],[26.36083,6.34788],[26.35039,6.3574],[26.33625,6.36042],[26.31901,6.37624],[26.31188,6.37427],[26.29463,6.4042],[26.29503,6.40701],[26.30596,6.41112],[26.31383,6.42071],[26.31272,6.44998],[26.28888,6.48285],[26.32383,6.49832],[26.32492,6.50246],[26.32106,6.50962],[26.3292,6.5189],[26.33013,6.53713],[26.3497,6.54178],[26.35319,6.55117],[26.35318,6.56037],[26.3483,6.56959],[26.3536,6.5812],[26.36968,6.58285],[26.37166,6.57744],[26.37678,6.57802],[26.37782,6.59599],[26.38232,6.60256],[26.39455,6.61426],[26.40323,6.6164],[26.40799,6.62166],[26.40623,6.62932],[26.41658,6.64278],[26.41215,6.65594],[26.40187,6.66106],[26.38708,6.65986],[26.38385,6.66317],[26.38328,6.67678],[26.37048,6.67949],[26.36437,6.68448],[26.36405,6.69453],[26.35384,6.69409],[26.3506,6.69714],[26.33467,6.69248],[26.3306,6.70312],[26.32549,6.70601],[26.31635,6.70277],[26.29692,6.70686],[26.29195,6.70345],[26.27406,6.70105],[26.25765,6.70752],[26.25498,6.70941],[26.25532,6.73206],[26.26255,6.73525],[26.2556,6.74261],[26.24139,6.73915],[26.23695,6.74354],[26.21296,6.74374],[26.20701,6.74709],[26.20291,6.75239],[26.20532,6.76044],[26.19465,6.76459],[26.18587,6.77785],[26.17455,6.78093],[26.1703,6.78581],[26.17119,6.79297],[26.17748,6.80063],[26.17229,6.8122],[26.15839,6.81243],[26.15128,6.82073],[26.14383,6.82094],[26.13076,6.81433],[26.1187,6.81704],[26.10901,6.81103],[26.10501,6.81193],[26.09553,6.83343],[26.08714,6.83514],[26.085,6.83876],[26.08224,6.85068],[26.08184,6.8693],[26.0776,6.8808],[26.08835,6.89909],[26.07932,6.90462],[26.07517,6.90014],[26.05647,6.90471],[26.0552,6.9164],[26.05753,6.92054],[26.05284,6.92461],[26.03879,6.92547],[26.03891,6.93435],[26.04933,6.93948],[26.05246,6.94459],[26.05213,6.95011],[26.04533,6.95509],[26.03985,6.96565],[26.04932,6.98722],[26.04768,6.9974],[26.04035,7.00512],[26.02719,7.00424],[26.02127,6.99535],[26.01709,6.99728],[26.01221,7.01151],[26.00539,7.00722],[25.98783,7.01636],[25.98252,7.03765],[25.97325,7.04171],[25.96289,7.03567],[25.955,7.04008],[25.94374,7.03998],[25.93709,7.04272],[25.93253,7.06187],[25.91557,7.06563],[25.9119,7.06293],[25.90633,7.06432],[25.90064,7.07184],[25.90521,7.08532],[25.89422,7.09673],[25.86623,7.10988],[25.85249,7.10501],[25.83778,7.10691],[25.82512,7.12005],[25.82731,7.14607],[25.82012,7.15485],[25.80443,7.15234],[25.78569,7.15384],[25.7773,7.16013],[25.75478,7.16595],[25.75427,7.1753],[25.75017,7.18066],[25.74461,7.18196],[25.732,7.18139],[25.72185,7.17234],[25.71883,7.17316],[25.71855,7.17811],[25.7137,7.18042],[25.71009,7.18984],[25.69963,7.19587],[25.68684,7.19182],[25.6738,7.19474],[25.65272,7.20432],[25.65001,7.2146],[25.64143,7.21156],[25.63428,7.21324],[25.62393,7.22207],[25.61141,7.21284],[25.60915,7.21872],[25.60036,7.22133],[25.59778,7.23291],[25.58839,7.23904],[25.57257,7.24062],[25.57179,7.25174],[25.56472,7.26074],[25.54863,7.25606],[25.53567,7.27845],[25.52355,7.27739],[25.51433,7.27161],[25.51075,7.26455],[25.50786,7.26403],[25.50024,7.2744],[25.49611,7.27518],[25.48627,7.26824],[25.47672,7.27538],[25.47358,7.28313],[25.46358,7.28173],[25.45721,7.28635],[25.45277,7.30634],[25.43694,7.31054],[25.43474,7.31842],[25.43001,7.31821],[25.41429,7.33365],[25.41152,7.34556],[25.40352,7.34239],[25.3998,7.34523],[25.39382,7.33262],[25.38731,7.3318],[25.37632,7.34233],[25.37055,7.34103],[25.35477,7.34873],[25.35375,7.36641],[25.34386,7.37758],[25.34527,7.39262],[25.33513,7.40898],[25.33711,7.42652],[25.323,7.4295],[25.31173,7.42678],[25.30781,7.43205],[25.30825,7.43725],[25.29981,7.43894],[25.29725,7.44699],[25.28778,7.45237],[25.2842,7.46374],[25.28568,7.47214],[25.2745,7.47454],[25.26596,7.48255],[25.25847,7.47997],[25.25132,7.48416],[25.24533,7.47992],[25.23659,7.47966],[25.2205,7.49112],[25.20841,7.48718],[25.20312,7.49401],[25.19478,7.49469],[25.19848,7.50721],[25.18657,7.52874],[25.19536,7.53679],[25.19373,7.54721],[25.17954,7.56191],[25.1836,7.56568],[25.18118,7.57064],[25.16921,7.57484],[25.16782,7.58676],[25.1787,7.58734],[25.18614,7.60157],[25.2006,7.60561],[25.20518,7.61263],[25.21477,7.61831],[25.22436,7.61786],[25.2271,7.62488],[25.2252,7.63049],[25.22886,7.63418],[25.239,7.63682],[25.24144,7.63193],[25.25109,7.6343],[25.25604,7.63989],[25.27222,7.64051],[25.28657,7.65323],[25.28417,7.66898],[25.28995,7.66845],[25.29579,7.67241],[25.29849,7.68702],[25.28749,7.6919],[25.27886,7.70816],[25.27818,7.73617],[25.28474,7.75661],[25.28243,7.78181],[25.28768,7.79706],[25.28084,7.80592],[25.26552,7.79965],[25.26501,7.80858],[25.25713,7.81095],[25.25539,7.8229],[25.24863,7.82975],[25.24685,7.83922],[25.23442,7.85192],[25.23469,7.85805],[25.2217,7.87172],[25.21882,7.88115],[25.21442,7.88242],[25.21016,7.87862],[25.20408,7.88028],[25.19912,7.88411],[25.19594,7.89341],[25.18285,7.89868],[25.17732,7.90508],[25.17599,7.91225],[25.16302,7.91299],[25.13818,7.90577],[25.12604,7.90923],[25.12303,7.90542],[25.10912,7.90391],[25.10646,7.89653],[25.08382,7.89582],[25.07452,7.90275],[25.06646,7.91957],[25.0552,7.9247],[25.04715,7.9383],[25.02919,7.95402],[25.02246,7.95204],[25.01001,7.95614],[25.00154,7.96631],[24.99118,7.96467],[24.98469,7.97217],[24.96356,7.98313],[24.96078,7.99821],[24.95366,8.00516],[24.95671,8.01666],[24.94965,8.01943],[24.9474,8.02607],[24.94269,8.02846],[24.93942,8.04276],[24.93069,8.03707],[24.91731,8.03534],[24.90821,8.03688],[24.9019,8.0467],[24.90228,8.06029],[24.89687,8.06488],[24.89719,8.07653],[24.88099,8.09476],[24.88992,8.1129],[24.88207,8.12716],[24.87987,8.14482],[24.86589,8.15],[24.86852,8.1555],[24.85975,8.16679],[24.85903,8.17613],[24.85552,8.17743],[24.84139,8.17007],[24.83685,8.18301],[24.81313,8.1845],[24.8031,8.19624],[24.79403,8.19147],[24.78643,8.18155],[24.76649,8.18794],[24.75824,8.18194],[24.7496,8.18341],[24.74132,8.20252],[24.72379,8.21147],[24.71083,8.20568],[24.6934,8.20766],[24.68953,8.20518],[24.67978,8.20725],[24.67071,8.22151],[24.65681,8.21804],[24.63354,8.22579],[24.62839,8.2154],[24.61273,8.22434],[24.59574,8.21648],[24.5894,8.20988],[24.57435,8.20853],[24.56661,8.19885],[24.55692,8.1999],[24.5497,8.2102],[24.54103,8.20619],[24.53656,8.20765],[24.53601,8.21304],[24.52738,8.22087],[24.52086,8.2172],[24.5175,8.2187],[24.51388,8.22352],[24.51329,8.23558],[24.50766,8.23772],[24.49558,8.23444],[24.4909,8.25301],[24.48034,8.27436],[24.46975,8.26796],[24.46072,8.27942],[24.45543,8.28129],[24.44865,8.27215],[24.4425,8.27882],[24.42486,8.28092],[24.40568,8.27272],[24.39187,8.27168],[24.3821,8.25401],[24.35838,8.24636],[24.3521,8.25735],[24.34255,8.26162],[24.33899,8.26892],[24.32437,8.27016],[24.30206,8.26544],[24.27042,8.27618],[24.26337,8.2823],[24.25677,8.2805],[24.24692,8.29061],[24.23839,8.28559],[24.23283,8.28673],[24.22382,8.29688],[24.21587,8.31386],[24.21211,8.31611],[24.20795,8.31244],[24.18871,8.32775],[24.1796,8.32496],[24.1812,8.3349],[24.16707,8.36172],[24.15541,8.36983],[24.15472,8.38609],[24.14931,8.39246],[24.16085,8.40713],[24.15894,8.41167],[24.167,8.42431],[24.16501,8.43575],[24.1695,8.47024],[24.16438,8.47397],[24.16585,8.4825],[24.18972,8.49076],[24.20369,8.50414],[24.20981,8.52243],[24.20449,8.53156],[24.2166,8.53581],[24.21616,8.54413],[24.22847,8.54737],[24.23408,8.56476],[24.24003,8.56442],[24.25776,8.5774],[24.2501,8.60005],[24.22639,8.62802],[24.22739,8.63885],[24.22364,8.64077],[24.38849,8.78473],[24.51423,8.83968],[24.52135,8.87139],[24.53083,8.87599],[24.54008,8.88683],[24.546,8.888],[24.54919,8.89464],[24.5561,8.89752],[24.55415,8.89875],[24.56174,8.90986],[24.5701,8.90857],[24.57592,8.91428],[24.57639,8.95288],[24.56644,8.96904],[24.56173,8.96954],[24.55821,8.9791],[24.54934,8.98584],[24.55099,9.00509],[24.54683,9.01616],[24.55122,9.02489],[24.54136,9.04782],[24.54732,9.05535],[24.5463,9.06423],[24.5433,9.06497],[24.54518,9.06843],[24.54079,9.07463],[24.54578,9.08602],[24.54131,9.09832],[24.54869,9.11583],[24.55244,9.11697],[24.55691,9.13264],[24.56924,9.14863],[24.57161,9.15801],[24.56917,9.15975],[24.57035,9.16708],[24.56587,9.17065],[24.57058,9.17023],[24.56756,9.18539],[24.57056,9.19379],[24.56926,9.19912],[24.56414,9.20217],[24.55425,9.23255],[24.5608,9.23811],[24.55906,9.24206],[24.5687,9.25125],[24.56307,9.25098],[24.57215,9.26703],[24.56827,9.26665],[24.56727,9.27063],[24.575,9.27855],[24.5777,9.2866],[24.59124,9.29442],[24.59466,9.30303],[24.5914,9.30642],[24.59284,9.30908],[24.6108,9.31945],[24.61172,9.35339],[24.60967,9.35378],[24.61674,9.36218],[24.61263,9.36366],[24.61264,9.36755],[24.61706,9.37747],[24.62612,9.38817],[24.631,9.38576],[24.63078,9.39284],[24.64112,9.39282],[24.64008,9.39661],[24.6448,9.40373],[24.65087,9.40167],[24.66,9.40629],[24.66546,9.41838],[24.66423,9.42355],[24.6595,9.42642],[24.66482,9.4274],[24.66419,9.43622],[24.66764,9.43628],[24.66274,9.44077],[24.66611,9.44893],[24.66904,9.44916],[24.66779,9.45294],[24.66345,9.45173],[24.66368,9.45867],[24.67215,9.46081],[24.67151,9.46482],[24.67983,9.46545],[24.68261,9.47552],[24.68007,9.47841],[24.69007,9.49083],[24.69679,9.49124],[24.69524,9.5078],[24.69997,9.50859],[24.69754,9.51349],[24.70041,9.51312],[24.70084,9.52517],[24.70883,9.52642],[24.70654,9.52844],[24.71228,9.53324],[24.71344,9.54245],[24.71986,9.54682],[24.72048,9.55708],[24.72537,9.56405],[24.72235,9.56783],[24.72746,9.56864],[24.73054,9.57538],[24.74287,9.58242],[24.7402,9.58732],[24.74195,9.59035],[24.75191,9.59011],[24.75587,9.61385],[24.75197,9.6297],[24.7546,9.63241],[24.75162,9.63683],[24.75703,9.63868],[24.75337,9.64376],[24.75232,9.65479],[24.74415,9.65496],[24.74447,9.66189],[24.73898,9.66653],[24.74796,9.67015],[24.74968,9.68334],[24.753,9.68679],[24.74732,9.69394],[24.74579,9.70611],[24.73652,9.71732],[24.73969,9.72819],[24.74188,9.73007],[24.74583,9.72529],[24.75524,9.73407],[24.75164,9.74649],[24.76394,9.74476],[24.76651,9.74075],[24.77559,9.75388],[24.77886,9.75488],[24.78618,9.74967],[24.78936,9.75194],[24.79326,9.76476],[24.79917,9.76205],[24.80059,9.76599],[24.80595,9.76581],[24.80609,9.78166],[24.81736,9.77703],[24.82437,9.78547],[24.82993,9.78534],[24.83421,9.80255],[24.83956,9.80542],[24.83716,9.80938],[24.84243,9.81712],[24.85294,9.81731],[24.85846,9.8198],[24.85936,9.82402],[24.86521,9.822],[24.8629,9.82803],[24.86719,9.83035],[24.87614,9.82755],[24.87779,9.83065],[24.87304,9.83277],[24.87386,9.83844],[24.8802,9.84499],[24.88505,9.84115],[24.89037,9.84516],[24.89483,9.84163],[24.89735,9.84321],[24.89248,9.84728],[24.90234,9.85371],[24.90335,9.85771],[24.90835,9.85228],[24.91362,9.85169],[24.91501,9.85513],[24.91045,9.85603],[24.90877,9.86075],[24.91709,9.8599],[24.92703,9.87308],[24.94211,9.87143],[24.94369,9.87615],[24.93956,9.87741],[24.94501,9.8789],[24.94552,9.89035],[24.95249,9.8864],[24.95779,9.88997],[24.94827,9.8969],[24.95578,9.8966],[24.95543,9.90021],[24.96081,9.90216],[24.97715,9.89518],[24.98283,9.90053],[24.98269,9.90439],[24.97345,9.90242],[24.9702,9.90473],[24.97398,9.9183],[24.97962,9.92489],[24.97466,9.92976],[24.9857,9.9316],[24.98475,9.93547],[24.98796,9.93668],[24.98513,9.94425],[24.98852,9.94731],[24.98261,9.95131],[24.98658,9.95083],[24.98429,9.95676],[24.99322,9.96226],[24.9927,9.96934],[24.99662,9.96425],[24.99996,9.9648],[24.99941,9.97402],[25.00453,9.97264],[25.00805,9.96739],[25.01794,9.96966],[25.01741,9.97857],[25.0109,9.98516],[25.0123,10.0017],[25.01485,10.00454],[25.01943,10.00235],[25.02218,10.00449],[25.0196,10.00961],[25.02332,10.01067],[25.02503,10.00785],[25.0363,10.01149],[25.03982,10.01521],[25.03516,10.02011],[25.03705,10.02151],[25.04576,10.01566],[25.04758,10.01729],[25.04788,10.02213],[25.04218,10.02734],[25.04737,10.03099],[25.04543,10.03404],[25.03923,10.02727],[25.03548,10.02733],[25.03497,10.03011],[25.04167,10.03546],[25.04061,10.03787],[25.03017,10.0348],[25.03009,10.03769],[25.03584,10.04002],[25.03711,10.0466],[25.03095,10.05452],[25.03712,10.06129],[25.04895,10.06253],[25.05499,10.05885],[25.05607,10.06586],[25.04787,10.08279],[25.05566,10.08114],[25.06025,10.07381],[25.06316,10.07504],[25.06386,10.08268],[25.07103,10.07971],[25.06997,10.08709],[25.07659,10.08416],[25.07894,10.08892],[25.07202,10.0991],[25.0769,10.10581],[25.07827,10.11501],[25.07092,10.11413],[25.0732,10.12812],[25.06787,10.13658],[25.05527,10.14387],[25.05873,10.15033],[25.05214,10.15395],[25.04462,10.14956],[25.03819,10.15107],[25.04158,10.15291],[25.04114,10.15624],[25.03377,10.1621],[25.03046,10.16083],[25.03205,10.16789],[25.04332,10.17331],[25.04686,10.17836],[25.05464,10.17912],[25.05483,10.18238],[25.0424,10.18802],[25.05321,10.20138],[25.05067,10.20811],[25.05877,10.21069],[25.04835,10.22289],[25.05555,10.22611],[25.05637,10.23321],[25.06459,10.2365],[25.05901,10.23821],[25.06184,10.24817],[25.0568,10.25452],[25.06005,10.2598],[25.06763,10.26135],[25.06136,10.26912],[25.06854,10.26983],[25.07215,10.27767],[25.07795,10.27497],[25.0813,10.27668],[25.08493,10.28601],[25.08334,10.30103],[25.09817,10.31702],[25.11167,10.3144],[25.12212,10.3037],[25.12493,10.30581],[25.12109,10.3127],[25.12362,10.32445],[25.13669,10.32706],[25.14376,10.33638],[25.14788,10.33362],[25.14709,10.32637],[25.15574,10.32537],[25.15825,10.3207],[25.16342,10.3205],[25.16818,10.33064],[25.17318,10.3221],[25.18132,10.31835],[25.18318,10.32242],[25.17772,10.33437],[25.1805,10.33728],[25.19172,10.33351],[25.19365,10.33618],[25.18956,10.34675],[25.19274,10.34889],[25.19709,10.34405],[25.19643,10.33803],[25.20268,10.34227],[25.2057,10.35012],[25.21043,10.34585],[25.21275,10.34753],[25.20843,10.35495],[25.21412,10.35945],[25.22526,10.35802],[25.22842,10.34921],[25.23853,10.35581],[25.24217,10.35358],[25.2362,10.34295],[25.23874,10.34085],[25.24545,10.34549],[25.24913,10.34451],[25.2507,10.34158],[25.24607,10.33722],[25.24977,10.3359],[25.25475,10.34468],[25.26957,10.3411],[25.27424,10.33524],[25.27626,10.3603],[25.28648,10.35424],[25.30147,10.35607],[25.30236,10.36017],[25.31499,10.35375],[25.32201,10.35348],[25.31879,10.35907],[25.32067,10.36531],[25.33082,10.36619],[25.33052,10.37141],[25.33527,10.37254],[25.33869,10.37855],[25.34306,10.37807],[25.35137,10.37021],[25.35211,10.37831],[25.35538,10.37613],[25.36737,10.38224],[25.37076,10.38081],[25.3707,10.37252],[25.37455,10.37105],[25.39073,10.38996],[25.39625,10.38336],[25.39433,10.3739],[25.39781,10.37418],[25.40018,10.37964],[25.40571,10.38224],[25.41333,10.37841],[25.41468,10.39171],[25.42439,10.38434],[25.42895,10.38704],[25.43238,10.38295],[25.44083,10.38335],[25.4417,10.39621],[25.44878,10.38937],[25.44664,10.38021],[25.45652,10.37417],[25.46519,10.37691],[25.47101,10.37321],[25.47422,10.37468],[25.47173,10.38846],[25.47394,10.39096],[25.48711,10.37987],[25.49365,10.37976],[25.49976,10.37511],[25.50084,10.38245],[25.50609,10.38746],[25.50636,10.39566],[25.50948,10.39542],[25.51211,10.38918],[25.52065,10.38629],[25.52282,10.39438],[25.52813,10.39759],[25.53703,10.39378],[25.53608,10.38711],[25.53851,10.38603],[25.54682,10.40185],[25.55489,10.40751],[25.56077,10.39626],[25.56491,10.39636],[25.56801,10.4016],[25.57242,10.3896],[25.57633,10.38968],[25.57748,10.39334],[25.57393,10.39952],[25.58218,10.40618],[25.58713,10.39842],[25.60427,10.40704],[25.61448,10.40212],[25.63516,10.40658],[25.63781,10.39827],[25.6443,10.399],[25.65269,10.40558],[25.64902,10.41642],[25.65407,10.42527],[25.66371,10.4259],[25.6629,10.43265],[25.66943,10.42762],[25.66657,10.4219],[25.6679,10.41273],[25.69002,10.40316],[25.69495,10.41428],[25.70071,10.41101],[25.71264,10.42004],[25.71764,10.41783],[25.72191,10.42037],[25.73025,10.41182],[25.74218,10.42162],[25.74666,10.42161],[25.74751,10.42622],[25.75294,10.42344],[25.75927,10.43891],[25.76233,10.43837],[25.76175,10.42697],[25.76748,10.42684],[25.76708,10.42201],[25.77007,10.41994],[25.77885,10.4238],[25.78083,10.43048],[25.78605,10.4253],[25.7848,10.42143],[25.79711,10.41998],[25.79739,10.41542],[25.80811,10.42418],[25.80138,10.4303],[25.81346,10.42622],[25.81219,10.42171],[25.82041,10.41295],[25.8216,10.42305],[25.83247,10.41672],[25.83849,10.42384],[25.84596,10.4133],[25.84401,10.40436],[25.85201,10.40503],[25.85425,10.41106],[25.85723,10.40921],[25.85476,10.40241],[25.86339,10.39564],[25.8627,10.40263],[25.87016,10.40396],[25.87095,10.40131],[25.8831,10.40559],[25.88703,10.40076],[25.89077,10.40639],[25.89427,10.40362],[25.89383,10.41121],[25.89693,10.40983],[25.89961,10.40331],[25.90556,10.40023],[25.89834,10.37934],[25.90554,10.37936],[25.90776,10.37592],[25.91103,10.38002],[25.92123,10.37209],[25.92587,10.37852],[25.92446,10.38265],[25.92924,10.38579],[25.93296,10.38016],[25.93222,10.17917],[25.97512,10.16753],[26.00002,10.1561],[26.03785,10.12488],[26.05346,10.10871],[26.07832,10.05834],[26.11667,10],[26.21389,9.91667],[26.30828,9.64527],[26.32375,9.61929],[26.34588,9.59423],[26.37361,9.57308],[26.39392,9.56406],[26.54777,9.52222],[26.70277,9.48889],[26.75012,9.49664],[26.844,9.53004],[27.02364,9.60282],[27.14236,9.62637],[27.25045,9.62833],[27.49999,9.62361],[27.75001,9.60668],[27.82228,9.60582],[27.90555,9.6125],[28.03889,9.34722],[28.74443,9.34722],[28.7359,9.40334],[28.77937,9.45921],[28.78148,9.48155],[28.78724,9.49406],[28.97856,9.64659],[29.00778,9.68334],[29.01908,9.70746],[29.0258,9.71607],[29.03747,9.71908],[29.04656,9.7363],[29.06798,9.73156],[29.07406,9.73302],[29.06941,9.7379],[29.06985,9.74672],[29.08374,9.73532],[29.09331,9.74061],[29.09207,9.74527],[29.10075,9.73839],[29.10386,9.74499],[29.11246,9.73747],[29.11339,9.74747],[29.11748,9.75],[29.5375,9.75],[29.53749,10.08195],[29.94111,10.28805],[30,10.28807],[30.52988,9.9603],[30.77644,9.75897],[30.80193,9.74153],[30.83186,9.71218],[30.83579,9.71356],[30.84219,9.72491],[30.83658,9.74311],[30.83791,9.75],[31.17999,9.75],[31.28979,9.76201],[31.32597,9.78157],[31.36485,9.8162],[31.73391,10.25333],[31.77833,10.28889],[31.83972,10.37916],[31.98861,10.65028],[32.14889,10.73749],[32.41224,11.00003],[32.46973,11.04331],[32.39111,11.1808],[32.39111,11.70623],[32.09658,11.95105],[32.74519,11.95105],[32.75699,11.98052],[32.75647,11.99991],[32.75959,12.01349],[32.75083,12.05107],[32.75619,12.06684],[32.75482,12.07825],[32.73792,12.14643],[32.74445,12.20254],[32.73158,12.23639],[33.29442,12.21877],[33.29097,12.21246],[33.2919,12.20662],[33.28449,12.19921],[33.27714,12.19833],[33.27618,12.19393],[33.26949,12.194],[33.26002,12.18708],[33.25764,12.17415],[33.25218,12.17195],[33.25688,12.15933],[33.18028,11.75],[33.1364,11.62611],[33.2711,10.82789],[33.24609,10.77774],[33.51717,10.64255],[33.66833,10.44181],[33.80367,10.33571],[33.90369,10.17137],[33.97046,10.14591],[33.96686,10.12588],[33.97141,10.09179],[33.99506,10.0631],[33.99253,10.03872],[33.99969,10.00565],[33.98664,9.96216],[33.99114,9.92441],[33.97284,9.87481],[33.97326,9.86241],[33.96463,9.82634],[33.96456,9.80772],[33.95361,9.79762],[33.93883,9.77425],[33.9166,9.76585],[33.90443,9.73031],[33.90022,9.69868],[33.89414,9.67846],[33.87812,9.53063],[33.87758,9.5],[34.10667,9.5],[34.14552,9.03281],[34.14552,8.6077],[34.13782,8.59891],[34.13063,8.59942],[34.12829,8.58856],[34.1194,8.58211],[34.10062,8.55586],[34.09652,8.55387],[34.09432,8.5567],[34.0853,8.55635],[34.073,8.54399],[34.06472,8.5413],[34.0556,8.53279],[34.04519,8.52996],[34.0359,8.51835],[34.03543,8.50935],[34.02515,8.49018],[34.01205,8.48882],[34.00369,8.4956],[33.9893,8.49051],[33.97537,8.4928],[33.97204,8.50439],[33.95619,8.49608],[33.94954,8.50032],[33.93882,8.49884],[33.93071,8.49625],[33.92756,8.48946],[33.90868,8.48786],[33.89721,8.48282],[33.89715,8.47827],[33.87433,8.4533],[33.87688,8.4502],[33.87398,8.44279],[33.8841,8.434],[33.88343,8.42832],[33.87648,8.42137],[33.87608,8.41138],[33.86335,8.41493],[33.85197,8.40954],[33.84534,8.41105],[33.84227,8.40498],[33.8367,8.40925],[33.83705,8.40521],[33.82759,8.39833],[33.81931,8.40044],[33.81733,8.40558],[33.8098,8.40088],[33.81126,8.39727],[33.80158,8.3994],[33.78868,8.38741],[33.7902,8.3803],[33.77217,8.37326],[33.7679,8.36754],[33.75155,8.37891],[33.7375,8.37488],[33.7333,8.36873],[33.72962,8.3683],[33.7155,8.37036],[33.70944,8.37865],[33.70119,8.37808],[33.69613,8.38492],[33.68881,8.38774],[33.68958,8.3991],[33.67936,8.40932],[33.67952,8.42007],[33.67385,8.42721],[33.6737,8.43145],[33.67837,8.43595],[33.67772,8.44447],[33.66016,8.45003],[33.65735,8.45597],[33.64527,8.46319],[33.62881,8.46534],[33.61819,8.47234],[33.60237,8.45476],[33.59887,8.44351],[33.59481,8.44414],[33.59234,8.44959],[33.58521,8.44738],[33.56887,8.45126],[33.56709,8.46124],[33.56075,8.46466],[33.56356,8.4678],[33.55885,8.47452],[33.54378,8.46748],[33.53012,8.47174],[33.52116,8.46814],[33.51152,8.47496],[33.50533,8.47286],[33.49631,8.48119],[33.48901,8.47745],[33.48846,8.46354],[33.47741,8.45636],[33.46869,8.45984],[33.44593,8.44456],[33.42123,8.45261],[33.41721,8.44668],[33.40319,8.44056],[33.3987,8.42729],[33.39508,8.42626],[33.38315,8.43253],[33.37963,8.43792],[33.37019,8.43959],[33.36692,8.44774],[33.34749,8.45071],[33.33536,8.44784],[33.32117,8.45479],[33.31363,8.4683],[33.30981,8.46774],[33.29853,8.44431],[33.29206,8.43997],[33.28474,8.44323],[33.28157,8.45707],[33.27085,8.46266],[33.26867,8.45642],[33.258,8.44956],[33.24464,8.44824],[33.24288,8.44418],[33.2494,8.43945],[33.2435,8.43734],[33.24089,8.42999],[33.23523,8.42554],[33.22637,8.42734],[33.21961,8.43528],[33.21384,8.42721],[33.21696,8.40779],[33.21493,8.40536],[33.19794,8.4094],[33.19007,8.40594],[33.18853,8.40179],[33.19387,8.39591],[33.18686,8.38319],[33.19442,8.35212],[33.21526,8.36084],[33.21748,8.35972],[33.21751,8.34321],[33.20499,8.33185],[33.19537,8.33572],[33.19166,8.33434],[33.20208,8.31264],[33.19753,8.30008],[33.18962,8.29854],[33.17451,8.30165],[33.16992,8.29581],[33.17505,8.28681],[33.17093,8.27317],[33.17558,8.25549],[33.19903,8.24833],[33.20496,8.23973],[33.19794,8.21551],[33.17462,8.20535],[33.16619,8.19519],[33.16761,8.19229],[33.17652,8.19111],[33.17614,8.17757],[33.18906,8.16835],[33.1828,8.16042],[33.19319,8.13198],[33.18778,8.12603],[33.17281,8.13069],[33.16685,8.12386],[33.16557,8.11642],[33.15982,8.11173],[33.1475,8.11624],[33.11992,8.11047],[33.11841,8.09514],[33.12237,8.06809],[33.11979,8.06204],[33.11518,8.06293],[33.10593,8.07528],[33.08535,8.07436],[33.08356,8.07219],[33.08778,8.06253],[33.07924,8.05656],[33.08238,8.04441],[33.07696,8.02145],[33.06748,8.02159],[33.06071,8.01664],[33.04429,8.01378],[33.03825,8.00663],[33.03624,7.98786]]]]}},{"type":"Feature","properties":{"ISO_A3":"","WB_A3":"","WB_NAME":"Abyei","WB_REGION":"","STATUS":"non-determined","AREA_ID":"abyei","CLAIMANTS":"SDN,SSD"},"geometry":{"type":"MultiPolygon","coordinates":[[[[29,9.67356],[28.97856,9.64659],[28.78724,9.49406],[28.78148,9.48155],[28.77937,9.45921],[28.7359,9.40334],[28.74443,9.34722],[28.03889,9.34722],[27.90555,9.6125],[27.83333,9.79445],[27.83333,10.16667],[29,10.16667],[29,9.67356]]]]}},{"type":"Feature","properties":{"ISO_A3":"","WB_A3":"","WB_NAME":"Ilemi Triangle","WB_REGION":"","STATUS":"non-determined","AREA_ID":"ilemi-triangle","CLAIMANTS":"KEN,SSD"},"geometry":{"type":"MultiPolygon","coordinates":[[[[35.59876,4.62404],[35.70636,4.62465],[35.70222,4.61147],[35.70645,4.59903],[35.70226,4.58774],[35.59876,4.62404]]],[[[35.59876,4.62404],[34.377,4.61707],[34.65648,4.76003],[35.0842,4.92049],[35.24482,4.98711],[35.26407,4.94397],[35.40829,5.03342],[35.41434,5.03142],[35.42943,5.00662],[35.38791,4.91714],[35.47003,4.92957],[35.53856,4.91551],[35.56145,4.91818],[35.56609,4.89796],[35.5194,4.79547],[35.52183,4.76003],[35.59876,4.62404]]],[[[35.70636,4.62465],[35.70298,4.63489],[35.70798,4.64042],[35.70539,4.65045],[35.71393,4.65593],[35.71774,4.6711],[35.7278,4.67183],[35.73337,4.68046],[35.74136,4.67766],[35.74929,4.68117],[35.75465,4.67895],[35.77007,4.68486],[35.77337,4.67922],[35.7808,4.67985],[35.78128,4.62508],[35.70636,4.62465]]]]}}]}