{"type":"FeatureCollection","features":[{"type":"Feature","properties":{"ISO_A3":"STP","WB_A3":"STP","WB_NAME":"São Tomé and Príncipe","WB_REGION":"AFE,SSF"},"geometry":{"type":"MultiPolygon","coordinates":[[[[7.36988,1.65381],[7.36719,1.65625],[7.36936,1.66463],[7.36615,1.67056],[7.36884,1.67339],[7.36819,1.68035],[7.37126,1.68293],[7.37869,1.6792],[7.38817,1.68024],[7.39546,1.6863],[7.39354,1.69326],[7.41685,1.68967],[7.42684,1.68375],[7.43709,1.68479],[7.44349,1.68995],[7.45194,1.68197],[7.46117,1.68043],[7.45989,1.66844],[7.44913,1.67359],[7.44529,1.66933],[7.44696,1.66237],[7.43326,1.6603],[7.4284,1.65025],[7.42277,1.64689],[7.42073,1.64148],[7.42508,1.63993],[7.42662,1.6438],[7.43904,1.64665],[7.44429,1.63866],[7.45454,1.6397],[7.45185,1.63248],[7.45877,1.63145],[7.46185,1.62501],[7.45072,1.61431],[7.44892,1.61675],[7.43944,1.61662],[7.43151,1.60592],[7.42511,1.60385],[7.42358,1.59328],[7.42961,1.58504],[7.42961,1.57885],[7.4222,1.56364],[7.42515,1.55475],[7.42131,1.55204],[7.41746,1.55783],[7.41234,1.55719],[7.40364,1.54713],[7.40005,1.54738],[7.39903,1.54403],[7.40531,1.53527],[7.40007,1.52663],[7.39699,1.53965],[7.38265,1.53629],[7.37623,1.54943],[7.3706,1.54646],[7.36484,1.54839],[7.35599,1.55933],[7.34652,1.55817],[7.34373,1.55154],[7.34127,1.55301],[7.33819,1.55868],[7.33972,1.5744],[7.33459,1.58573],[7.33586,1.59321],[7.32856,1.59887],[7.3283,1.60326],[7.33393,1.60829],[7.34316,1.60082],[7.3557,1.60083],[7.3639,1.60509],[7.36351,1.61102],[7.36901,1.61669],[7.36785,1.63112],[7.36451,1.63396],[7.36476,1.64117],[7.37232,1.64633],[7.36988,1.65381]]],[[[7.43056,1.50952],[7.42556,1.51389],[7.42697,1.5157],[7.43273,1.51338],[7.43056,1.50952]]],[[[6.54236,0.35743],[6.5462,0.36078],[6.56078,0.3586],[6.57434,0.3662],[6.58816,0.38372],[6.60453,0.39532],[6.60888,0.40692],[6.62014,0.40705],[6.62602,0.41066],[6.63856,0.40667],[6.63882,0.40898],[6.65238,0.41221],[6.66799,0.41131],[6.66978,0.40848],[6.68898,0.40462],[6.69538,0.39045],[6.70152,0.38504],[6.71944,0.38118],[6.72021,0.37809],[6.71343,0.37191],[6.71484,0.36109],[6.7238,0.36135],[6.72623,0.35722],[6.72188,0.34949],[6.72662,0.34189],[6.73429,0.34048],[6.73813,0.34718],[6.74223,0.33301],[6.74249,0.31652],[6.74812,0.31343],[6.7517,0.30106],[6.76041,0.29617],[6.75977,0.28999],[6.75785,0.28754],[6.7512,0.28857],[6.74544,0.27581],[6.74915,0.26718],[6.74736,0.2619],[6.74288,0.2601],[6.74864,0.24103],[6.73521,0.22815],[6.73329,0.22145],[6.72766,0.21719],[6.72843,0.21346],[6.72318,0.21346],[6.72152,0.20573],[6.70604,0.20135],[6.69913,0.18486],[6.69517,0.18395],[6.69312,0.17919],[6.68787,0.17867],[6.69107,0.17094],[6.67905,0.16914],[6.68199,0.15961],[6.67418,0.16064],[6.67342,0.15394],[6.66804,0.15342],[6.66983,0.14531],[6.65461,0.13796],[6.65551,0.13139],[6.64591,0.12946],[6.64655,0.12508],[6.65448,0.12096],[6.65333,0.10962],[6.64041,0.10795],[6.63542,0.10524],[6.63683,0.10189],[6.62685,0.10138],[6.62659,0.09828],[6.62429,0.09919],[6.61175,0.08708],[6.61277,0.08308],[6.59844,0.08257],[6.59819,0.07767],[6.59,0.07935],[6.58718,0.07677],[6.58514,0.08398],[6.57925,0.08308],[6.57848,0.08656],[6.56786,0.08411],[6.56414,0.07168],[6.56595,0.05732],[6.55865,0.05062],[6.55776,0.03594],[6.54611,0.03697],[6.54471,0.04238],[6.53765,0.04801],[6.53423,0.04482],[6.53626,0.03336],[6.53345,0.02872],[6.51631,0.02203],[6.51196,0.02409],[6.51336,0.03825],[6.50709,0.05242],[6.51426,0.05268],[6.51528,0.05654],[6.51797,0.07896],[6.5172,0.08694],[6.51362,0.09003],[6.5163,0.1006],[6.51195,0.10755],[6.50069,0.10652],[6.49788,0.11193],[6.49122,0.11193],[6.4957,0.11631],[6.49634,0.12584],[6.48444,0.13382],[6.48815,0.13614],[6.4879,0.14026],[6.47868,0.14567],[6.47855,0.17452],[6.46742,0.1892],[6.46422,0.22269],[6.46153,0.22501],[6.46524,0.2366],[6.46127,0.24265],[6.46996,0.2688],[6.48071,0.27189],[6.49247,0.31852],[6.5045,0.32239],[6.51012,0.33089],[6.52266,0.33167],[6.52829,0.34429],[6.53929,0.34919],[6.54236,0.35743]]],[[[6.52449,0.00142],[6.5273,0.00401],[6.52829,0.0019],[6.52552,-0.00039],[6.52782,-0.00322],[6.52424,-0.01237],[6.51528,-0.01224],[6.51298,-0.00322],[6.52449,0.00142]]]]}}]}