{"type":"FeatureCollection","features":[{"type":"Feature","properties":{"ISO_A3":"SUR","WB_A3":"SUR","WB_NAME":"Suriname","WB_REGION":"LCN"},"geometry":{"type":"MultiPolygon","coordinates":[[[[-55.04262,5.88365],[-55.03086,5.87564],[-55.01651,5.85976],[-55.00389,5.86074],[-54.98145,5.87638],[-54.97631,5.87688],[-54.94601,5.85886],[-54.93547,5.85637],[-54.92903,5.85957],[-54.91919,5.87409],[-54.89343,5.88456],[-54.88752,5.88222],[-54.87972,5.86969],[-54.86766,5.8614],[-54.87002,5.8493],[-54.86567,5.84181],[-54.86751,5.83126],[-54.86277,5.82544],[-54.85414,5.82914],[-54.85037,5.84098],[-54.8447,5.84315],[-54.83751,5.8399],[-54.83294,5.82442],[-54.8198,5.82888],[-54.81262,5.82254],[-54.8085,5.82291],[-54.79765,5.83549],[-54.79328,5.83483],[-54.78665,5.81935],[-54.79335,5.81551],[-54.79689,5.80032],[-54.7942,5.79671],[-54.77913,5.80051],[-54.77837,5.79793],[-54.78779,5.79076],[-54.78755,5.78586],[-54.78164,5.78442],[-54.77235,5.79186],[-54.77043,5.78889],[-54.7751,5.7786],[-54.76654,5.76633],[-54.75754,5.76526],[-54.74768,5.75273],[-54.74656,5.74499],[-54.75005,5.73857],[-54.73579,5.73439],[-54.72954,5.7238],[-54.73206,5.70423],[-54.73949,5.7098],[-54.74595,5.70326],[-54.74762,5.69169],[-54.74635,5.70017],[-54.73924,5.70903],[-54.73514,5.70399],[-54.73051,5.70474],[-54.72902,5.72535],[-54.73938,5.73737],[-54.74967,5.73908],[-54.74578,5.74499],[-54.74665,5.75272],[-54.75599,5.76538],[-54.76602,5.76671],[-54.77484,5.7804],[-54.7698,5.78759],[-54.77055,5.79223],[-54.77492,5.79315],[-54.78395,5.78507],[-54.78678,5.78689],[-54.7865,5.79049],[-54.77735,5.79716],[-54.779,5.8018],[-54.79214,5.79786],[-54.79586,5.80032],[-54.7922,5.81499],[-54.78575,5.81909],[-54.78982,5.83224],[-54.79713,5.83678],[-54.8085,5.82407],[-54.81954,5.82991],[-54.83113,5.82506],[-54.83507,5.83757],[-54.84264,5.84417],[-54.85139,5.84176],[-54.85711,5.82761],[-54.862,5.82647],[-54.8652,5.82919],[-54.86438,5.84258],[-54.86821,5.85032],[-54.86611,5.86217],[-54.85056,5.85837],[-54.8446,5.86981],[-54.84099,5.8707],[-54.83728,5.86489],[-54.82868,5.86061],[-54.82069,5.86405],[-54.81937,5.87358],[-54.80907,5.87457],[-54.80549,5.86863],[-54.8108,5.86092],[-54.80786,5.8555],[-54.79579,5.85069],[-54.78523,5.85425],[-54.78099,5.85256],[-54.77538,5.83992],[-54.76729,5.83473],[-54.75983,5.83586],[-54.75362,5.84563],[-54.74105,5.8372],[-54.73255,5.83781],[-54.7204,5.85219],[-54.71258,5.84739],[-54.71017,5.83914],[-54.7045,5.84066],[-54.70384,5.84452],[-54.70871,5.85021],[-54.70289,5.85701],[-54.69519,5.85312],[-54.68952,5.85451],[-54.6909,5.86534],[-54.68587,5.86725],[-54.6814,5.85911],[-54.67614,5.85742],[-54.66837,5.86898],[-54.64393,5.86978],[-54.63422,5.85286],[-54.62959,5.85375],[-54.62439,5.8675],[-54.61617,5.86489],[-54.59814,5.8692],[-54.57579,5.86202],[-54.57067,5.85749],[-54.56321,5.85797],[-54.55232,5.84749],[-54.53674,5.8509],[-54.53612,5.84613],[-54.52958,5.84262],[-54.52392,5.83415],[-54.52333,5.82985],[-54.52799,5.82394],[-54.52173,5.81322],[-54.51736,5.81385],[-54.51089,5.82142],[-54.50292,5.82074],[-54.49575,5.81478],[-54.48648,5.8159],[-54.48302,5.81421],[-54.48359,5.80134],[-54.47823,5.79152],[-54.47271,5.79047],[-54.47099,5.8018],[-54.46751,5.80268],[-54.46022,5.79479],[-54.46371,5.78914],[-54.46271,5.78424],[-54.45911,5.78281],[-54.43618,5.79301],[-54.41614,5.78905],[-54.4012,5.79311],[-54.3953,5.79102],[-54.395,5.79978],[-54.38717,5.79704],[-54.38723,5.78467],[-54.38274,5.78066],[-54.37398,5.78616],[-54.37106,5.77636],[-54.36531,5.77015],[-54.37072,5.7676],[-54.37152,5.76013],[-54.37564,5.75964],[-54.38253,5.77074],[-54.3869,5.77115],[-54.40647,5.76544],[-54.41396,5.75775],[-54.41515,5.75183],[-54.41033,5.73816],[-54.40635,5.73595],[-54.39784,5.74132],[-54.39257,5.74014],[-54.40082,5.72529],[-54.39115,5.74181],[-54.39964,5.74159],[-54.4066,5.73673],[-54.40917,5.73828],[-54.41312,5.7459],[-54.41294,5.75775],[-54.40596,5.76454],[-54.38819,5.77013],[-54.38408,5.77011],[-54.37539,5.75848],[-54.37153,5.75872],[-54.36995,5.76759],[-54.36376,5.77066],[-54.36889,5.77454],[-54.37371,5.78744],[-54.38146,5.78117],[-54.38658,5.78493],[-54.38589,5.79677],[-54.39268,5.80131],[-54.39706,5.79914],[-54.3958,5.7927],[-54.41123,5.79264],[-54.41536,5.78982],[-54.4372,5.79379],[-54.46091,5.78411],[-54.46269,5.78888],[-54.45921,5.79092],[-54.45957,5.7953],[-54.46545,5.8028],[-54.47188,5.80231],[-54.47283,5.79227],[-54.47708,5.79152],[-54.48332,5.80546],[-54.48148,5.81395],[-54.48468,5.8168],[-54.49574,5.81581],[-54.50318,5.82139],[-54.51063,5.82245],[-54.52173,5.81438],[-54.52671,5.8211],[-54.52254,5.83345],[-54.52599,5.84016],[-54.53445,5.84587],[-54.53596,5.85231],[-54.55064,5.8489],[-54.55781,5.85679],[-54.57246,5.85917],[-54.59197,5.8693],[-54.61126,5.86899],[-54.61642,5.86618],[-54.62387,5.86879],[-54.63088,5.85401],[-54.63396,5.85389],[-54.64213,5.87003],[-54.64572,5.8712],[-54.66837,5.87001],[-54.67249,5.86809],[-54.67536,5.85909],[-54.67999,5.85911],[-54.68509,5.8684],[-54.68947,5.86803],[-54.69245,5.86302],[-54.69107,5.85452],[-54.70289,5.8583],[-54.70947,5.85202],[-54.70527,5.84195],[-54.70862,5.84106],[-54.71577,5.85282],[-54.71988,5.85348],[-54.72727,5.84791],[-54.72945,5.84076],[-54.73551,5.83842],[-54.74284,5.83953],[-54.75155,5.84716],[-54.75748,5.84448],[-54.76008,5.83728],[-54.76729,5.83602],[-54.77524,5.84146],[-54.78085,5.85462],[-54.79578,5.85223],[-54.80785,5.8573],[-54.80951,5.86092],[-54.80408,5.86853],[-54.81061,5.87715],[-54.82039,5.87513],[-54.82404,5.86252],[-54.82996,5.86241],[-54.84304,5.87226],[-54.84691,5.86982],[-54.85003,5.86056],[-54.85416,5.85942],[-54.86134,5.86447],[-54.87214,5.86593],[-54.88891,5.88787],[-54.88669,5.89948],[-54.86695,5.90116],[-54.86375,5.90609],[-54.84469,5.91181],[-54.79862,5.91652],[-54.79705,5.92116],[-54.78574,5.92034],[-54.77929,5.92315],[-54.79213,5.93118],[-54.79625,5.92862],[-54.80552,5.92866],[-54.81245,5.93268],[-54.8297,5.93004],[-54.85259,5.9331],[-54.85412,5.93671],[-54.8416,5.93507],[-54.83636,5.93612],[-54.83402,5.94191],[-54.82618,5.94137],[-54.82911,5.9473],[-54.82549,5.9527],[-54.817,5.95138],[-54.81673,5.95601],[-54.81158,5.95586],[-54.81135,5.95032],[-54.80466,5.95017],[-54.80438,5.95493],[-54.80052,5.95569],[-54.76785,5.95247],[-54.7647,5.94791],[-54.75345,5.95061],[-54.756,5.95719],[-54.75342,5.95898],[-54.74802,5.95703],[-54.74826,5.96076],[-54.74286,5.95984],[-54.73796,5.9633],[-54.72331,5.96027],[-54.71151,5.96293],[-54.70736,5.96008],[-54.69526,5.9599],[-54.69451,5.95577],[-54.67431,5.95569],[-54.67098,5.95181],[-54.65763,5.95571],[-54.65079,5.95044],[-54.64153,5.95053],[-54.63023,5.94558],[-54.62559,5.94711],[-54.60145,5.93825],[-54.57907,5.93622],[-54.57626,5.93247],[-54.56187,5.92764],[-54.52381,5.92618],[-54.52508,5.92928],[-54.53819,5.93192],[-54.50371,5.93202],[-54.49881,5.93547],[-54.48789,5.93298],[-54.487,5.92924],[-54.4672,5.92915],[-54.44536,5.92222],[-54.4199,5.92107],[-54.42199,5.91516],[-54.41969,5.91206],[-54.40503,5.91044],[-54.39549,5.91684],[-54.38288,5.91665],[-54.37315,5.90849],[-54.35876,5.90533],[-54.3554,5.90841],[-54.34025,5.90409],[-54.31863,5.90617],[-54.29627,5.90323],[-54.28543,5.89634],[-54.2498,5.88678],[-54.24391,5.88108],[-54.2241,5.88227],[-54.20642,5.87072],[-54.19278,5.87246],[-54.14706,5.86103],[-54.1037,5.84329],[-54.03623,5.83093],[-54.03227,5.83417],[-54.01816,5.8274],[-54.01663,5.8243],[-54.02628,5.82306],[-54.02797,5.81998],[-54.01695,5.81271],[-53.98477,5.74869],[-53.98544,5.74432],[-54.0114,5.71922],[-54.01161,5.70352],[-54.01631,5.68989],[-54.02086,5.67988],[-54.03079,5.67246],[-54.03198,5.66706],[-54.02979,5.64284],[-54.03607,5.62022],[-54.0333,5.60939],[-54.03567,5.59704],[-54.03041,5.56947],[-54.03024,5.52659],[-54.04107,5.5197],[-54.04986,5.50931],[-54.0539,5.49671],[-54.06835,5.48623],[-54.07031,5.47774],[-54.09071,5.45827],[-54.09721,5.44208],[-54.12585,5.41621],[-54.13768,5.38742],[-54.14783,5.38618],[-54.14414,5.3787],[-54.14711,5.37678],[-54.1512,5.38079],[-54.15701,5.37548],[-54.16511,5.37403],[-54.17261,5.36312],[-54.16723,5.35795],[-54.18428,5.33871],[-54.18817,5.32998],[-54.20624,5.31293],[-54.23237,5.30056],[-54.24102,5.2912],[-54.26288,5.28486],[-54.28792,5.25908],[-54.30935,5.23265],[-54.33474,5.18254],[-54.35075,5.16329],[-54.35262,5.14655],[-54.36883,5.13838],[-54.37234,5.12912],[-54.37108,5.12371],[-54.37794,5.10931],[-54.40343,5.09486],[-54.41564,5.09725],[-54.42323,5.05747],[-54.43316,5.04617],[-54.43448,5.03716],[-54.44209,5.03075],[-54.44304,5.01736],[-54.44827,5.00576],[-54.44332,4.97269],[-54.44376,4.95279],[-54.43992,4.95217],[-54.44349,4.94031],[-54.47938,4.90053],[-54.47754,4.89525],[-54.4688,4.89021],[-54.47033,4.87967],[-54.46633,4.87207],[-54.46948,4.8607],[-54.46559,4.82632],[-54.46739,4.8128],[-54.45997,4.7768],[-54.46636,4.74262],[-54.46405,4.73399],[-54.45645,4.72425],[-54.43606,4.72472],[-54.4236,4.7216],[-54.42065,4.71735],[-54.42133,4.70592],[-54.41718,4.70224],[-54.42544,4.6896],[-54.42806,4.67412],[-54.4227,4.66492],[-54.42703,4.65719],[-54.42309,4.6505],[-54.43161,4.64016],[-54.42915,4.62589],[-54.42058,4.61367],[-54.41409,4.61017],[-54.41657,4.58528],[-54.41099,4.57456],[-54.41297,4.56791],[-54.41999,4.56092],[-54.41788,4.55583],[-54.42004,4.54728],[-54.42777,4.54318],[-54.43866,4.54267],[-54.44936,4.52561],[-54.43975,4.49827],[-54.44203,4.47787],[-54.4338,4.47206],[-54.43163,4.46635],[-54.43481,4.44881],[-54.43913,4.44462],[-54.44151,4.43489],[-54.43339,4.41804],[-54.42743,4.41358],[-54.42807,4.39438],[-54.42402,4.38469],[-54.42724,4.37326],[-54.41768,4.36706],[-54.40788,4.37012],[-54.39984,4.36869],[-54.38565,4.3496],[-54.39116,4.33316],[-54.38892,4.32962],[-54.39451,4.30502],[-54.39071,4.28073],[-54.38345,4.27208],[-54.38237,4.26246],[-54.3879,4.24875],[-54.3961,4.20273],[-54.38537,4.17801],[-54.37127,4.17753],[-54.36115,4.17103],[-54.3493,4.16872],[-54.34076,4.15552],[-54.32316,4.14622],[-54.32277,4.13505],[-54.33269,4.13305],[-54.33475,4.12438],[-54.34208,4.12029],[-54.34699,4.10257],[-54.3428,4.08876],[-54.35453,4.06493],[-54.35981,4.06474],[-54.36235,4.06076],[-54.35853,4.05814],[-54.3611,4.05319],[-54.35583,4.04613],[-54.34555,4.042],[-54.34599,4.03709],[-54.34123,4.04158],[-54.32651,4.01912],[-54.31895,4.01646],[-54.312,4.00903],[-54.31012,4.01057],[-54.29898,3.99612],[-54.29235,3.98096],[-54.29102,3.96017],[-54.28332,3.95159],[-54.28583,3.93741],[-54.28242,3.92768],[-54.25215,3.89948],[-54.25083,3.88736],[-54.23708,3.86129],[-54.23234,3.85747],[-54.21086,3.85632],[-54.20032,3.85269],[-54.19036,3.84504],[-54.19057,3.83661],[-54.20096,3.82242],[-54.19458,3.80336],[-54.18163,3.80071],[-54.16765,3.80505],[-54.1492,3.80436],[-54.12975,3.79979],[-54.11971,3.79019],[-54.11333,3.76902],[-54.10103,3.75219],[-54.09627,3.73401],[-54.07986,3.71647],[-54.07866,3.70818],[-54.08656,3.69065],[-54.08237,3.6736],[-54.05297,3.65675],[-54.05008,3.6515],[-54.05133,3.63541],[-54.03253,3.63075],[-54.02692,3.6343],[-54.02409,3.64573],[-54.01002,3.65026],[-53.9982,3.63756],[-53.99124,3.61737],[-53.98002,3.60725],[-53.98576,3.58176],[-54.00803,3.56688],[-54.00536,3.54336],[-54.00941,3.537],[-53.99968,3.52491],[-54.00838,3.50398],[-54.00838,3.46651],[-54.01696,3.45785],[-54.01306,3.44974],[-54.01959,3.44583],[-54.02012,3.44213],[-54.01918,3.43613],[-54.01218,3.42745],[-54.01923,3.41429],[-54.03636,3.40298],[-54.04796,3.38719],[-54.05941,3.38446],[-54.05359,3.36767],[-54.06679,3.32578],[-54.0626,3.32084],[-54.06777,3.29573],[-54.07534,3.29217],[-54.09274,3.29098],[-54.10132,3.30092],[-54.11129,3.28709],[-54.11878,3.28464],[-54.12162,3.2731],[-54.13501,3.26761],[-54.14465,3.25158],[-54.15086,3.24736],[-54.15268,3.23429],[-54.16433,3.22949],[-54.16758,3.21749],[-54.17288,3.21345],[-54.17503,3.20657],[-54.18741,3.20814],[-54.18952,3.20562],[-54.19825,3.17931],[-54.20273,3.17538],[-54.20419,3.16759],[-54.20147,3.16017],[-54.21438,3.1523],[-54.21103,3.1435],[-54.2011,3.14236],[-54.2139,3.13693],[-54.2114,3.12785],[-54.19925,3.12398],[-54.19497,3.13528],[-54.18812,3.13302],[-54.18267,3.13501],[-54.18458,3.12692],[-54.17937,3.1236],[-54.17822,3.11006],[-54.17444,3.10934],[-54.18173,3.08861],[-54.17356,3.08006],[-54.17422,3.07382],[-54.18464,3.07339],[-54.1943,3.06591],[-54.19242,3.05593],[-54.18449,3.05144],[-54.16973,3.01499],[-54.1718,3.00509],[-54.18552,2.9991],[-54.18091,2.9919],[-54.18151,2.98395],[-54.17499,2.97494],[-54.16223,2.9724],[-54.16063,2.96722],[-54.16455,2.96451],[-54.17234,2.96556],[-54.17597,2.9574],[-54.17203,2.94952],[-54.17927,2.94652],[-54.17279,2.9428],[-54.17252,2.93953],[-54.1791,2.92849],[-54.19088,2.92555],[-54.19251,2.92052],[-54.18496,2.91402],[-54.18591,2.90437],[-54.19148,2.89848],[-54.19527,2.88478],[-54.19025,2.86874],[-54.18118,2.86508],[-54.18016,2.85675],[-54.18314,2.85524],[-54.18602,2.83815],[-54.19459,2.83139],[-54.19673,2.83526],[-54.20763,2.83155],[-54.20794,2.82686],[-54.20349,2.82689],[-54.20378,2.81308],[-54.1979,2.80418],[-54.21046,2.78877],[-54.20931,2.77598],[-54.21724,2.76115],[-54.22522,2.76237],[-54.22315,2.75393],[-54.22785,2.74999],[-54.23512,2.75071],[-54.23554,2.74671],[-54.24356,2.74056],[-54.24482,2.73287],[-54.25725,2.72973],[-54.26576,2.72113],[-54.27316,2.69347],[-54.26612,2.68687],[-54.2764,2.68579],[-54.27471,2.67512],[-54.28227,2.66317],[-54.29133,2.66021],[-54.29555,2.65208],[-54.30762,2.64233],[-54.3111,2.63394],[-54.31865,2.63035],[-54.31714,2.61949],[-54.31279,2.61349],[-54.3208,2.61113],[-54.32404,2.58895],[-54.32768,2.58753],[-54.33013,2.57756],[-54.32781,2.5753],[-54.33072,2.57037],[-54.33467,2.56561],[-54.34563,2.56252],[-54.34412,2.55823],[-54.34821,2.55639],[-54.34304,2.55254],[-54.34691,2.55119],[-54.34361,2.5435],[-54.34609,2.5328],[-54.35151,2.52951],[-54.3485,2.52536],[-54.35455,2.51726],[-54.36048,2.51759],[-54.36074,2.50841],[-54.37046,2.50879],[-54.37485,2.49609],[-54.37292,2.49101],[-54.3815,2.48543],[-54.38269,2.48842],[-54.38893,2.48155],[-54.38741,2.47056],[-54.39887,2.46805],[-54.40342,2.45517],[-54.41175,2.45021],[-54.4117,2.44555],[-54.415,2.44538],[-54.41921,2.43678],[-54.42818,2.43809],[-54.43728,2.43019],[-54.4438,2.43377],[-54.45107,2.43452],[-54.45243,2.43203],[-54.47225,2.43463],[-54.48395,2.41899],[-54.48565,2.41216],[-54.49995,2.40161],[-54.50499,2.39124],[-54.50505,2.3775],[-54.51028,2.37087],[-54.51173,2.35974],[-54.506,2.33771],[-54.52232,2.33678],[-54.5277,2.33231],[-54.53343,2.33519],[-54.53568,2.34156],[-54.55773,2.35149],[-54.57458,2.35385],[-54.5848,2.34949],[-54.59063,2.35208],[-54.59362,2.34596],[-54.59167,2.34195],[-54.60685,2.33565],[-54.61031,2.32976],[-54.61641,2.32992],[-54.61717,2.32499],[-54.61353,2.31967],[-54.62086,2.31657],[-54.62492,2.3214],[-54.62404,2.32559],[-54.63273,2.32228],[-54.64188,2.32206],[-54.65539,2.32728],[-54.66988,2.32389],[-54.68535,2.33143],[-54.69835,2.33006],[-54.70644,2.34014],[-54.7033,2.34968],[-54.6942,2.353],[-54.69272,2.35669],[-54.69618,2.36384],[-54.70675,2.36317],[-54.71,2.37353],[-54.71691,2.37726],[-54.71783,2.38333],[-54.71462,2.39124],[-54.71029,2.3938],[-54.71507,2.39914],[-54.71401,2.4074],[-54.69546,2.40694],[-54.68936,2.41137],[-54.69931,2.42285],[-54.70066,2.43212],[-54.70356,2.43234],[-54.70316,2.43596],[-54.69642,2.43668],[-54.68739,2.44308],[-54.68665,2.4475],[-54.69461,2.45201],[-54.69141,2.45775],[-54.69662,2.46282],[-54.7159,2.46023],[-54.72195,2.46637],[-54.73181,2.46304],[-54.73757,2.46941],[-54.74026,2.46484],[-54.7516,2.46668],[-54.76131,2.46344],[-54.76461,2.46574],[-54.76518,2.47428],[-54.769,2.47572],[-54.77184,2.47219],[-54.77789,2.47265],[-54.78033,2.46121],[-54.77893,2.45814],[-54.77241,2.4581],[-54.7731,2.45092],[-54.78143,2.44282],[-54.79206,2.44697],[-54.79748,2.44526],[-54.79621,2.43945],[-54.80326,2.43314],[-54.81466,2.43152],[-54.81679,2.42183],[-54.8394,2.42376],[-54.83818,2.4335],[-54.84531,2.42907],[-54.85768,2.42759],[-54.87667,2.43418],[-54.87799,2.45221],[-54.86975,2.45362],[-54.87278,2.46119],[-54.86569,2.47067],[-54.86712,2.47266],[-54.87137,2.47408],[-54.87993,2.47071],[-54.88434,2.47842],[-54.89031,2.48124],[-54.89699,2.47898],[-54.91265,2.48485],[-54.91496,2.49266],[-54.92409,2.49358],[-54.92576,2.50657],[-54.93034,2.5135],[-54.94847,2.52456],[-54.95034,2.53273],[-54.95874,2.53626],[-54.95871,2.54399],[-54.96485,2.54653],[-54.96458,2.55806],[-54.97289,2.56093],[-54.96997,2.56821],[-54.96435,2.56844],[-54.95604,2.58569],[-54.95174,2.58442],[-54.95108,2.58107],[-54.93615,2.58348],[-54.93366,2.58905],[-54.94042,2.59231],[-54.93471,2.59701],[-54.9305,2.60709],[-54.93113,2.61078],[-54.93921,2.61612],[-54.93529,2.62285],[-54.9398,2.62716],[-54.95756,2.60952],[-54.9612,2.60736],[-54.9662,2.6092],[-54.97059,2.5905],[-54.98868,2.5948],[-55.00207,2.58683],[-55.00556,2.59064],[-55.01514,2.58762],[-55.01706,2.57606],[-55.03226,2.57263],[-55.0399,2.55592],[-55.04693,2.55719],[-55.05498,2.55427],[-55.06479,2.5441],[-55.07032,2.53762],[-55.06848,2.53222],[-55.07419,2.52295],[-55.09521,2.53333],[-55.10097,2.52732],[-55.10379,2.52794],[-55.10504,2.52051],[-55.11736,2.51615],[-55.11875,2.51266],[-55.1239,2.5149],[-55.12846,2.53745],[-55.12236,2.54763],[-55.12877,2.55182],[-55.12337,2.56118],[-55.12806,2.56953],[-55.14903,2.56148],[-55.15653,2.56733],[-55.15989,2.56668],[-55.1683,2.55733],[-55.17605,2.55652],[-55.18311,2.54846],[-55.18124,2.54256],[-55.18956,2.53947],[-55.18643,2.53221],[-55.19104,2.52661],[-55.19575,2.52303],[-55.20129,2.52878],[-55.20543,2.52663],[-55.21189,2.52029],[-55.21151,2.50966],[-55.21587,2.51151],[-55.21947,2.50761],[-55.22437,2.51141],[-55.23624,2.5067],[-55.2325,2.49659],[-55.25108,2.48204],[-55.26235,2.48432],[-55.26038,2.49237],[-55.26432,2.4938],[-55.26458,2.50411],[-55.26904,2.50659],[-55.27472,2.50414],[-55.27739,2.50912],[-55.27611,2.51655],[-55.28286,2.51814],[-55.2834,2.51385],[-55.28935,2.50884],[-55.29547,2.51247],[-55.2943,2.5165],[-55.29739,2.52127],[-55.31582,2.52613],[-55.32004,2.51385],[-55.33373,2.51111],[-55.33746,2.50431],[-55.35052,2.50084],[-55.34398,2.48852],[-55.35067,2.472],[-55.35685,2.47264],[-55.36158,2.48203],[-55.36435,2.47994],[-55.36667,2.46231],[-55.36321,2.45895],[-55.34623,2.45518],[-55.34461,2.44785],[-55.3474,2.43896],[-55.35534,2.43129],[-55.36544,2.42843],[-55.36571,2.42576],[-55.37427,2.4258],[-55.37219,2.41301],[-55.37419,2.40961],[-55.38548,2.40682],[-55.38594,2.41397],[-55.39563,2.41281],[-55.40667,2.42448],[-55.40171,2.4355],[-55.40563,2.44105],[-55.4172,2.43512],[-55.42546,2.4359],[-55.43194,2.42996],[-55.43165,2.43578],[-55.4373,2.43979],[-55.4476,2.43536],[-55.45382,2.44096],[-55.4643,2.43581],[-55.46907,2.444],[-55.47528,2.4445],[-55.4786,2.43131],[-55.48426,2.4341],[-55.48695,2.43972],[-55.49343,2.43798],[-55.4951,2.44184],[-55.50838,2.43238],[-55.52464,2.43348],[-55.53375,2.42618],[-55.53664,2.42721],[-55.53973,2.4215],[-55.54246,2.42323],[-55.54104,2.42888],[-55.54691,2.42453],[-55.5507,2.42659],[-55.55531,2.42187],[-55.56105,2.42353],[-55.5702,2.42061],[-55.5735,2.43287],[-55.57759,2.43405],[-55.58128,2.43123],[-55.5876,2.43265],[-55.59077,2.42797],[-55.59535,2.42995],[-55.60477,2.42713],[-55.61284,2.42342],[-55.61535,2.41799],[-55.62558,2.41388],[-55.63915,2.41191],[-55.65149,2.41657],[-55.66961,2.40872],[-55.6954,2.41672],[-55.70024,2.40187],[-55.70461,2.39777],[-55.71843,2.39749],[-55.72412,2.40528],[-55.72985,2.40104],[-55.73631,2.40633],[-55.74109,2.40401],[-55.75538,2.40996],[-55.75172,2.42627],[-55.75664,2.42588],[-55.76025,2.43128],[-55.76504,2.43238],[-55.76547,2.43706],[-55.75615,2.4381],[-55.75944,2.45268],[-55.7725,2.46028],[-55.77793,2.46206],[-55.78166,2.45634],[-55.78984,2.45863],[-55.79272,2.45495],[-55.81129,2.45982],[-55.83771,2.46013],[-55.85302,2.46999],[-55.86323,2.48171],[-55.87786,2.48703],[-55.88958,2.49923],[-55.90584,2.50687],[-55.90774,2.51485],[-55.91273,2.51842],[-55.93045,2.5136],[-55.93064,2.52184],[-55.94095,2.52769],[-55.96366,2.52632],[-55.97841,2.52117],[-55.97847,2.51428],[-55.99078,2.51052],[-55.99509,2.49761],[-55.98153,2.49033],[-55.98135,2.48614],[-55.97742,2.48356],[-55.98007,2.47626],[-55.98929,2.47441],[-55.98977,2.46276],[-56.00777,2.45345],[-56.01382,2.44315],[-56.01035,2.43824],[-56.00544,2.44117],[-55.98637,2.42915],[-55.9855,2.42387],[-55.99184,2.41698],[-55.98685,2.41554],[-55.98657,2.41275],[-56.00364,2.40646],[-56.0037,2.3967],[-56.0118,2.39623],[-56.01754,2.38994],[-56.0204,2.39066],[-56.023,2.37919],[-56.03511,2.36916],[-56.0313,2.36388],[-56.03499,2.36004],[-56.01935,2.34336],[-56.02685,2.33743],[-56.02841,2.33063],[-56.03431,2.33346],[-56.04533,2.3324],[-56.0588,2.34222],[-56.05849,2.34836],[-56.06875,2.35434],[-56.0709,2.36215],[-56.08188,2.36172],[-56.08443,2.36661],[-56.08982,2.36499],[-56.08775,2.35492],[-56.09147,2.35163],[-56.0885,2.34579],[-56.09042,2.33886],[-56.0959,2.33658],[-56.09208,2.3337],[-56.09236,2.32052],[-56.10576,2.31591],[-56.10779,2.31046],[-56.11154,2.30917],[-56.114,2.29606],[-56.12938,2.28037],[-56.12588,2.27561],[-56.13971,2.26426],[-56.12989,2.26101],[-56.13034,2.25717],[-56.12371,2.25711],[-56.11948,2.25388],[-56.11998,2.24655],[-56.1118,2.24519],[-56.10996,2.24171],[-56.1035,2.24339],[-56.09753,2.23781],[-56.09412,2.23993],[-56.09466,2.24465],[-56.08617,2.24876],[-56.08216,2.23982],[-56.07692,2.2388],[-56.0753,2.23424],[-56.06478,2.2415],[-56.05241,2.23067],[-56.04644,2.2341],[-56.0454,2.23087],[-56.04139,2.23079],[-56.03778,2.22721],[-56.03925,2.22064],[-56.03557,2.22031],[-56.03355,2.21535],[-56.04082,2.20497],[-56.04212,2.1941],[-56.04774,2.19225],[-56.04173,2.18888],[-56.03498,2.19022],[-56.04046,2.17196],[-56.0351,2.16769],[-56.01984,2.16835],[-56.01796,2.16263],[-56.00777,2.1659],[-55.9971,2.164],[-55.9873,2.14837],[-55.99186,2.1413],[-55.99197,2.13307],[-55.98046,2.13014],[-55.97856,2.12664],[-55.97043,2.09244],[-55.95931,2.08541],[-55.95336,2.09058],[-55.94793,2.09021],[-55.93881,2.07906],[-55.93153,2.07864],[-55.93629,2.06525],[-55.93479,2.05814],[-55.9329,2.05977],[-55.92755,2.05333],[-55.92322,2.05512],[-55.92085,2.04548],[-55.91483,2.04831],[-55.90595,2.0392],[-55.91231,2.01909],[-55.91839,2.01673],[-55.91135,2.01051],[-55.9116,1.99777],[-55.92119,1.994],[-55.93328,2.00024],[-55.93809,1.98664],[-55.93476,1.98563],[-55.9315,1.97263],[-55.92704,1.9696],[-55.92662,1.9568],[-55.92327,1.95214],[-55.92746,1.94501],[-55.92151,1.93697],[-55.92137,1.92347],[-55.90199,1.91208],[-55.90168,1.89693],[-55.90586,1.89104],[-55.90969,1.89338],[-55.92208,1.88818],[-55.92662,1.88429],[-55.9268,1.87971],[-55.93372,1.88131],[-55.93818,1.86947],[-55.95155,1.85629],[-55.97197,1.84923],[-55.97653,1.84316],[-55.98219,1.84492],[-55.98418,1.84007],[-55.98955,1.83803],[-56.00362,1.8398],[-56.00601,1.83754],[-56.01697,1.84293],[-56.02032,1.84122],[-56.02153,1.8468],[-56.03692,1.85103],[-56.03921,1.85674],[-56.04414,1.85304],[-56.04672,1.85656],[-56.06883,1.85844],[-56.07727,1.84712],[-56.08442,1.84842],[-56.08494,1.85423],[-56.09359,1.85827],[-56.09918,1.85352],[-56.10993,1.85645],[-56.11385,1.86075],[-56.11797,1.85684],[-56.12625,1.8581],[-56.13278,1.87317],[-56.14106,1.87449],[-56.15593,1.8918],[-56.16172,1.89349],[-56.16605,1.8876],[-56.17058,1.88747],[-56.17141,1.9011],[-56.17915,1.89496],[-56.19683,1.8905],[-56.21717,1.90169],[-56.22529,1.89716],[-56.23479,1.89771],[-56.24609,1.88155],[-56.24401,1.87808],[-56.25011,1.87688],[-56.24984,1.87926],[-56.26869,1.88444],[-56.27026,1.89125],[-56.2753,1.89533],[-56.28608,1.89713],[-56.28642,1.90083],[-56.29379,1.90545],[-56.29228,1.90776],[-56.30437,1.90721],[-56.30858,1.9162],[-56.31273,1.91554],[-56.31305,1.92118],[-56.3249,1.92325],[-56.33171,1.9329],[-56.33621,1.93244],[-56.3376,1.93879],[-56.34237,1.93462],[-56.34583,1.93782],[-56.35717,1.93858],[-56.36308,1.94362],[-56.37282,1.93456],[-56.37211,1.92984],[-56.37725,1.92804],[-56.38334,1.9323],[-56.38865,1.93102],[-56.39154,1.91993],[-56.39774,1.9228],[-56.40522,1.9175],[-56.40764,1.92293],[-56.40474,1.92869],[-56.41476,1.92781],[-56.42059,1.93745],[-56.42383,1.9365],[-56.42586,1.93976],[-56.42303,1.94166],[-56.4247,1.94396],[-56.43365,1.94553],[-56.43696,1.94267],[-56.44665,1.94578],[-56.4513,1.95482],[-56.4611,1.94622],[-56.46257,1.94913],[-56.47104,1.94673],[-56.47439,1.96029],[-56.49112,1.95956],[-56.49731,1.96981],[-56.52027,1.99057],[-56.53015,2.00419],[-56.53226,2.01543],[-56.54574,2.01632],[-56.58075,2.02971],[-56.58858,2.02428],[-56.60657,2.02877],[-56.60764,2.02532],[-56.63809,2.01205],[-56.64482,2.01393],[-56.65882,2.00764],[-56.66303,2.00874],[-56.66438,2.01474],[-56.66796,2.01598],[-56.67689,2.01312],[-56.68475,2.01814],[-56.68443,2.0274],[-56.68794,2.03391],[-56.68615,2.04547],[-56.68958,2.04557],[-56.69013,2.04987],[-56.69696,2.05452],[-56.69791,2.0606],[-56.70776,2.06739],[-56.71289,2.08227],[-56.73513,2.10432],[-56.73448,2.10875],[-56.73792,2.10909],[-56.73897,2.11391],[-56.74464,2.11809],[-56.74803,2.11633],[-56.74921,2.12182],[-56.75495,2.12237],[-56.76087,2.12783],[-56.76178,2.13442],[-56.7708,2.14203],[-56.77215,2.14825],[-56.78048,2.1535],[-56.77697,2.16108],[-56.78972,2.17616],[-56.79113,2.1888],[-56.80161,2.19276],[-56.80449,2.18958],[-56.80705,2.1934],[-56.79959,2.20354],[-56.80818,2.21183],[-56.81451,2.21081],[-56.81313,2.2203],[-56.80809,2.22238],[-56.81084,2.2277],[-56.81045,2.24121],[-56.80578,2.24836],[-56.80437,2.2617],[-56.81983,2.27172],[-56.82488,2.26732],[-56.82861,2.27594],[-56.84243,2.27933],[-56.84741,2.28605],[-56.85774,2.28494],[-56.8635,2.29191],[-56.87382,2.29008],[-56.87818,2.29914],[-56.87815,2.31933],[-56.87358,2.33406],[-56.86804,2.33697],[-56.86764,2.34151],[-56.87554,2.35774],[-56.88342,2.36664],[-56.90259,2.37486],[-56.91194,2.38642],[-56.92012,2.38062],[-56.93288,2.40015],[-56.91765,2.42203],[-56.92252,2.43126],[-56.91786,2.42962],[-56.91428,2.43563],[-56.91817,2.43787],[-56.92118,2.43512],[-56.93488,2.43507],[-56.93654,2.45336],[-56.95141,2.46917],[-56.95212,2.47814],[-56.94826,2.474],[-56.93734,2.47356],[-56.94063,2.48622],[-56.93623,2.50018],[-56.93932,2.50639],[-56.94183,2.50791],[-56.9497,2.49402],[-56.95581,2.49561],[-56.95635,2.50438],[-56.98744,2.50037],[-56.99154,2.50372],[-56.99041,2.51427],[-56.98012,2.51877],[-56.98281,2.52236],[-56.99154,2.52217],[-56.99239,2.52654],[-56.98457,2.53826],[-56.98838,2.55772],[-56.99804,2.555],[-57.00238,2.55748],[-57.00238,2.56582],[-57.01887,2.56952],[-57.02231,2.58132],[-57.01672,2.59262],[-57.03063,2.60275],[-57.02447,2.61259],[-57.01734,2.6463],[-57.03095,2.64476],[-57.04096,2.6489],[-57.04622,2.63882],[-57.05125,2.64105],[-57.05967,2.66081],[-57.05972,2.66792],[-57.05358,2.6804],[-57.06825,2.69071],[-57.06777,2.70173],[-57.08981,2.71845],[-57.09252,2.73338],[-57.10235,2.74065],[-57.08646,2.75983],[-57.08683,2.766],[-57.10531,2.76858],[-57.10634,2.77599],[-57.11232,2.7808],[-57.11796,2.77112],[-57.13443,2.77348],[-57.13642,2.7897],[-57.12032,2.80816],[-57.11641,2.82018],[-57.12377,2.82703],[-57.17232,2.80934],[-57.17406,2.81457],[-57.16802,2.82134],[-57.17059,2.82731],[-57.18214,2.83066],[-57.19739,2.83027],[-57.20402,2.83634],[-57.1985,2.84843],[-57.18986,2.84911],[-57.1912,2.85542],[-57.19499,2.86175],[-57.20846,2.87054],[-57.21093,2.88577],[-57.21977,2.89158],[-57.22271,2.89755],[-57.21395,2.90769],[-57.19767,2.91068],[-57.18541,2.91707],[-57.17335,2.94094],[-57.17558,2.94929],[-57.18098,2.95462],[-57.19792,2.95186],[-57.21113,2.94047],[-57.21514,2.94075],[-57.21917,2.94688],[-57.2201,2.96031],[-57.21496,2.96776],[-57.22342,2.97129],[-57.22495,2.97707],[-57.21287,2.98314],[-57.20649,2.99224],[-57.2047,3.00104],[-57.23065,3.01728],[-57.226,3.0213],[-57.20118,3.01635],[-57.1944,3.01992],[-57.19247,3.02453],[-57.19938,3.03901],[-57.19884,3.04441],[-57.20855,3.05472],[-57.20557,3.07362],[-57.22142,3.07731],[-57.22614,3.08605],[-57.24483,3.08748],[-57.2607,3.09643],[-57.25549,3.11543],[-57.23468,3.13392],[-57.24173,3.14375],[-57.24913,3.1461],[-57.25949,3.13964],[-57.26222,3.13171],[-57.26824,3.1265],[-57.28666,3.12948],[-57.29233,3.13885],[-57.29194,3.14311],[-57.27559,3.16003],[-57.27428,3.16743],[-57.27991,3.17199],[-57.29423,3.16872],[-57.30204,3.17608],[-57.28349,3.23155],[-57.29058,3.24838],[-57.28123,3.2532],[-57.28009,3.25727],[-57.29263,3.26786],[-57.2951,3.28085],[-57.30017,3.2845],[-57.29378,3.29954],[-57.28562,3.30382],[-57.28723,3.31929],[-57.28266,3.32844],[-57.2882,3.3492],[-57.29613,3.35414],[-57.29342,3.36724],[-57.30319,3.37572],[-57.30514,3.38873],[-57.3158,3.39418],[-57.31856,3.38224],[-57.33733,3.36872],[-57.39105,3.36562],[-57.40917,3.36647],[-57.41871,3.38568],[-57.42632,3.38824],[-57.42995,3.3646],[-57.44142,3.36055],[-57.44085,3.35377],[-57.45051,3.35008],[-57.46094,3.3507],[-57.48475,3.34078],[-57.49595,3.35007],[-57.495,3.36286],[-57.50701,3.36299],[-57.5141,3.3706],[-57.52766,3.37091],[-57.53112,3.3693],[-57.53215,3.3641],[-57.5442,3.35873],[-57.56834,3.35579],[-57.57866,3.35838],[-57.58671,3.36985],[-57.59401,3.37331],[-57.60932,3.36397],[-57.63502,3.37249],[-57.64363,3.3695],[-57.65339,3.37153],[-57.67208,3.38432],[-57.69773,3.41563],[-57.69665,3.42025],[-57.6899,3.4226],[-57.69237,3.45075],[-57.68493,3.47089],[-57.67385,3.47961],[-57.67627,3.48433],[-57.66815,3.48725],[-57.6724,3.48922],[-57.67141,3.49755],[-57.67425,3.49943],[-57.67027,3.51077],[-57.66289,3.51523],[-57.66716,3.53453],[-57.6786,3.54574],[-57.68473,3.54434],[-57.69153,3.54933],[-57.69135,3.55356],[-57.70076,3.55534],[-57.70205,3.5603],[-57.71432,3.56787],[-57.71575,3.57527],[-57.72365,3.583],[-57.72731,3.59222],[-57.72488,3.59848],[-57.74057,3.61181],[-57.73736,3.61705],[-57.74383,3.62591],[-57.76398,3.62334],[-57.80502,3.65078],[-57.81762,3.64925],[-57.83318,3.66421],[-57.83855,3.67992],[-57.83863,3.71306],[-57.8465,3.74365],[-57.84347,3.76055],[-57.84459,3.76553],[-57.85694,3.77866],[-57.85767,3.79697],[-57.86697,3.80564],[-57.87129,3.8152],[-57.88204,3.82218],[-57.88885,3.83879],[-57.89581,3.84401],[-57.91465,3.87976],[-57.93529,3.90396],[-57.94345,3.91996],[-57.95185,3.92093],[-57.9674,3.91621],[-57.97552,3.92616],[-57.97936,3.92586],[-57.98971,3.93462],[-57.99701,3.94847],[-58.00996,3.95309],[-58.00962,3.95929],[-58.01249,3.96176],[-58.03018,3.95931],[-58.03308,3.97519],[-58.03971,3.98222],[-58.03674,3.98665],[-58.04044,3.99674],[-58.03683,4.00104],[-58.0379,4.00844],[-58.03151,4.01758],[-58.03444,4.02754],[-58.02721,4.06212],[-58.0288,4.06945],[-58.0491,4.08464],[-58.04779,4.10003],[-58.05014,4.10429],[-58.06562,4.11694],[-58.07074,4.1355],[-58.0666,4.14453],[-58.0658,4.15919],[-58.05852,4.16837],[-58.05472,4.1812],[-58.04856,4.18312],[-58.04294,4.19169],[-58.04529,4.19773],[-58.04344,4.20089],[-58.03317,4.20884],[-58.02348,4.22225],[-58.02569,4.23363],[-58.02167,4.24213],[-58.00991,4.24554],[-57.9884,4.27706],[-57.98968,4.30829],[-57.96439,4.31602],[-57.94671,4.33032],[-57.95319,4.34677],[-57.95242,4.35595],[-57.95931,4.36123],[-57.96154,4.37074],[-57.96202,4.39651],[-57.95602,4.4046],[-57.95474,4.41668],[-57.92711,4.44638],[-57.92158,4.44829],[-57.91724,4.45623],[-57.90414,4.4942],[-57.8894,4.52256],[-57.88771,4.55071],[-57.8777,4.56214],[-57.87446,4.57618],[-57.84692,4.61331],[-57.8468,4.61835],[-57.84139,4.62214],[-57.83512,4.63898],[-57.84306,4.6503],[-57.84918,4.6532],[-57.84995,4.6726],[-57.83955,4.68193],[-57.83982,4.68509],[-57.8521,4.69747],[-57.85939,4.715],[-57.8696,4.72187],[-57.86765,4.73405],[-57.87185,4.74529],[-57.87169,4.76064],[-57.88808,4.77456],[-57.90795,4.77639],[-57.91689,4.78182],[-57.92713,4.81242],[-57.92536,4.82524],[-57.91856,4.83604],[-57.90631,4.84188],[-57.90401,4.84985],[-57.88204,4.88257],[-57.83825,4.92644],[-57.8221,4.9333],[-57.81576,4.93262],[-57.80932,4.92306],[-57.80368,4.9207],[-57.75771,4.9255],[-57.75157,4.93521],[-57.75515,4.9528],[-57.75089,4.96393],[-57.73936,4.9679],[-57.72794,4.97996],[-57.69844,5.00115],[-57.68593,5.00378],[-57.67352,5.01204],[-57.66446,5.00761],[-57.63931,5.00621],[-57.61656,4.99314],[-57.57447,5.00433],[-57.55254,5.00693],[-57.54295,5.01328],[-57.53279,5.01513],[-57.51889,5.01012],[-57.51375,4.99986],[-57.50844,4.99744],[-57.4761,4.99091],[-57.44202,4.99737],[-57.41328,4.99204],[-57.37999,5.01781],[-57.35895,5.01441],[-57.34349,5.01867],[-57.33828,5.0246],[-57.338,5.03279],[-57.32887,5.03741],[-57.31605,5.0354],[-57.30947,5.02981],[-57.30458,5.01771],[-57.29229,5.01545],[-57.28598,5.02805],[-57.28967,5.03964],[-57.29771,5.04842],[-57.32387,5.06235],[-57.32616,5.07146],[-57.32178,5.09864],[-57.32472,5.08701],[-57.32111,5.0852],[-57.31816,5.09294],[-57.29619,5.12079],[-57.29234,5.144],[-57.29402,5.16385],[-57.2894,5.1721],[-57.2768,5.17817],[-57.25893,5.17702],[-57.25018,5.16619],[-57.24709,5.15227],[-57.23795,5.13474],[-57.22638,5.12688],[-57.21584,5.12959],[-57.20581,5.14971],[-57.1837,5.15165],[-57.17521,5.15539],[-57.17033,5.16183],[-57.16892,5.17266],[-57.17587,5.1987],[-57.19015,5.21236],[-57.20212,5.24227],[-57.21138,5.24897],[-57.21254,5.25902],[-57.21833,5.26572],[-57.23158,5.27552],[-57.24469,5.28054],[-57.25473,5.28131],[-57.26707,5.27473],[-57.27182,5.25668],[-57.25985,5.226],[-57.27451,5.22574],[-57.2839,5.2412],[-57.28468,5.2492],[-57.28495,5.28864],[-57.27853,5.30051],[-57.28214,5.32113],[-57.29925,5.33131],[-57.30671,5.3313],[-57.32574,5.32124],[-57.33487,5.32291],[-57.3206,5.34225],[-57.2756,5.37038],[-57.26197,5.38791],[-57.25722,5.40545],[-57.26109,5.42788],[-57.25955,5.4467],[-57.2476,5.48022],[-57.23114,5.49699],[-57.21005,5.50795],[-57.19153,5.51247],[-57.18445,5.51789],[-57.17069,5.54342],[-57.16272,5.5625],[-57.16028,5.58003],[-57.14794,5.61613],[-57.13251,5.67904],[-57.13046,5.70508],[-57.13652,5.74221],[-57.12778,5.79016],[-57.10873,5.83039],[-57.0866,5.86648],[-57.07811,5.89588],[-57.07914,5.90735],[-57.07116,5.92037],[-57.06794,5.94229],[-57.06215,5.94848],[-57.02095,5.96133],[-57.0185,5.96575],[-57.01319,5.95673],[-57.00138,5.95015],[-56.97202,5.94384],[-56.95477,5.92514],[-56.9401,5.92437],[-56.92619,5.92772],[-56.92323,5.91779],[-56.92594,5.90439],[-56.90406,5.88788],[-56.89427,5.87215],[-56.85591,5.88117],[-56.84974,5.85461],[-56.83018,5.84017],[-56.81834,5.82702],[-56.78873,5.82004],[-56.76068,5.80908],[-56.75476,5.79554],[-56.73752,5.78612],[-56.75425,5.79631],[-56.75913,5.80907],[-56.76428,5.81191],[-56.81654,5.82702],[-56.84832,5.85461],[-56.85411,5.88117],[-56.86132,5.88181],[-56.88964,5.87241],[-56.89402,5.87344],[-56.90225,5.88762],[-56.92581,5.90645],[-56.92246,5.91779],[-56.92388,5.92746],[-56.95632,5.92708],[-56.97563,5.94925],[-56.98335,5.9526],[-56.97614,5.96404],[-56.97078,5.96279],[-56.96893,5.96962],[-56.95155,5.97297],[-56.93404,5.96987],[-56.91846,5.97683],[-56.91254,5.97284],[-56.90353,5.97554],[-56.8931,5.96987],[-56.88331,5.97347],[-56.88177,5.96909],[-56.8752,5.96986],[-56.87134,5.95903],[-56.87572,5.93093],[-56.86955,5.92693],[-56.85899,5.92951],[-56.84122,5.94265],[-56.83092,5.94523],[-56.82216,5.94162],[-56.80671,5.94174],[-56.79796,5.94677],[-56.78508,5.93774],[-56.77401,5.94096],[-56.76706,5.94985],[-56.76113,5.95178],[-56.75032,5.94791],[-56.75135,5.93914],[-56.74904,5.93798],[-56.73435,5.94816],[-56.70243,5.93654],[-56.68852,5.9413],[-56.68596,5.93859],[-56.68827,5.9337],[-56.68467,5.93111],[-56.68673,5.92403],[-56.68281,5.91934],[-56.6588,5.90738],[-56.65997,5.90171],[-56.63474,5.88713],[-56.63114,5.89035],[-56.62393,5.88892],[-56.58272,5.90179],[-56.49749,5.90932],[-56.46171,5.90826],[-56.46132,5.91212],[-56.45733,5.91238],[-56.45733,5.90774],[-56.38577,5.89722],[-56.3379,5.88324],[-56.33505,5.89059],[-56.31986,5.89121],[-56.30184,5.88243],[-56.27174,5.87646],[-56.26685,5.8722],[-56.25167,5.87037],[-56.24445,5.87359],[-56.24446,5.86959],[-56.23777,5.87023],[-56.23133,5.86674],[-56.2218,5.86956],[-56.22001,5.86002],[-56.21074,5.86336],[-56.20792,5.85871],[-56.19633,5.85844],[-56.18965,5.85495],[-56.18655,5.8592],[-56.18295,5.85713],[-56.18191,5.86061],[-56.17728,5.86022],[-56.17343,5.85647],[-56.16493,5.8562],[-56.16082,5.85181],[-56.15425,5.85348],[-56.15632,5.84601],[-56.14898,5.8496],[-56.14847,5.84522],[-56.14306,5.84702],[-56.1417,5.84246],[-56.13647,5.84091],[-56.12016,5.84221],[-56.11776,5.83907],[-56.10421,5.83832],[-56.08621,5.8254],[-56.07642,5.82719],[-56.06459,5.82124],[-56.05713,5.82239],[-56.04195,5.81489],[-56.0296,5.81384],[-56.0296,5.811],[-56.02162,5.8124],[-56.00661,5.80615],[-55.98251,5.80434],[-55.96425,5.79645],[-55.9573,5.79759],[-55.94701,5.79411],[-55.94368,5.78661],[-55.91268,5.77857],[-55.91179,5.77211],[-55.90691,5.76734],[-55.89158,5.77517],[-55.9026,5.79762],[-55.89948,5.81592],[-55.89006,5.82479],[-55.86507,5.83802],[-55.85761,5.83594],[-55.82336,5.84334],[-55.73302,5.84276],[-55.7204,5.8466],[-55.72026,5.84982],[-55.70984,5.85006],[-55.70467,5.85752],[-55.68433,5.86237],[-55.64128,5.85943],[-55.59865,5.84979],[-55.56592,5.86607],[-55.55512,5.86411],[-55.52119,5.84547],[-55.48697,5.841],[-55.46577,5.83],[-55.48311,5.84111],[-55.51759,5.8461],[-55.5473,5.86224],[-55.5636,5.86761],[-55.60152,5.85181],[-55.62282,5.85938],[-55.67917,5.86674],[-55.73968,5.85566],[-55.7644,5.85456],[-55.77404,5.85664],[-55.77378,5.85949],[-55.77777,5.86064],[-55.77958,5.85601],[-55.78975,5.86157],[-55.79116,5.8572],[-55.83259,5.86076],[-55.8483,5.85873],[-55.86888,5.86664],[-55.87943,5.8664],[-55.87903,5.87439],[-55.88405,5.87221],[-55.88242,5.87019],[-55.89514,5.86579],[-55.89178,5.86914],[-55.89847,5.87314],[-55.8964,5.87778],[-55.90025,5.88101],[-55.90772,5.88063],[-55.90951,5.88656],[-55.90642,5.88579],[-55.90345,5.89197],[-55.90628,5.89429],[-55.90381,5.90537],[-55.88848,5.9105],[-55.88601,5.92248],[-55.8551,5.93286],[-55.84995,5.93155],[-55.82754,5.94092],[-55.81645,5.94966],[-55.8077,5.94564],[-55.80615,5.94925],[-55.79224,5.95489],[-55.79146,5.95824],[-55.75025,5.96317],[-55.74304,5.96741],[-55.72114,5.97097],[-55.68226,5.97461],[-55.67146,5.96789],[-55.6506,5.97235],[-55.63854,5.95853],[-55.63594,5.96741],[-55.62179,5.96402],[-55.6223,5.97099],[-55.61945,5.97085],[-55.61998,5.9657],[-55.61561,5.96479],[-55.59475,5.96808],[-55.58871,5.96446],[-55.58406,5.96831],[-55.58202,5.96212],[-55.56283,5.96606],[-55.55691,5.96489],[-55.55409,5.96089],[-55.55137,5.96695],[-55.53964,5.97683],[-55.52832,5.97126],[-55.52189,5.97047],[-55.51725,5.97355],[-55.51159,5.97018],[-55.51186,5.96696],[-55.50439,5.96875],[-55.49281,5.96601],[-55.49282,5.96317],[-55.48355,5.96573],[-55.48046,5.96327],[-55.48255,5.95387],[-55.47123,5.95139],[-55.45383,5.9592],[-55.45678,5.96295],[-55.45239,5.97015],[-55.43462,5.97139],[-55.42459,5.96917],[-55.42563,5.96543],[-55.43618,5.96753],[-55.44031,5.96367],[-55.44777,5.96446],[-55.44701,5.96124],[-55.42538,5.96144],[-55.41743,5.9542],[-55.41341,5.96218],[-55.41764,5.96863],[-55.41945,5.96645],[-55.42382,5.96762],[-55.42458,5.97213],[-55.44928,5.97581],[-55.42277,5.97509],[-55.40966,5.96719],[-55.39629,5.9638],[-55.36383,5.9713],[-55.35536,5.96317],[-55.33349,5.96014],[-55.33172,5.94957],[-55.32325,5.9422],[-55.25872,5.91971],[-55.22969,5.9039],[-55.18931,5.89642],[-55.1803,5.896],[-55.17305,5.90006],[-55.17338,5.89611],[-55.16975,5.89481],[-55.15866,5.90405],[-55.15506,5.90339],[-55.1552,5.89927],[-55.14247,5.89717],[-55.13183,5.88554],[-55.12629,5.88539],[-55.12129,5.88035],[-55.11819,5.88523],[-55.12062,5.8882],[-55.09996,5.87306],[-55.09818,5.86774],[-55.1022,5.85632],[-55.11512,5.84038],[-55.16014,5.82163],[-55.16512,5.81504],[-55.16518,5.80529],[-55.15782,5.80678],[-55.15715,5.81579],[-55.12421,5.81529],[-55.1112,5.81898],[-55.0996,5.82744],[-55.08846,5.84957],[-55.09308,5.89004],[-55.06066,5.88993],[-55.04262,5.88365]]],[[[-53.98327,5.81331],[-53.98399,5.8231],[-53.98206,5.82386],[-53.98327,5.81331]]],[[[-54.01859,5.54456],[-54.02584,5.55914],[-54.02796,5.597],[-54.02239,5.60624],[-54.01744,5.59438],[-54.01652,5.57351],[-54.00991,5.5588],[-54.01859,5.54456]]],[[[-54.03173,5.8388],[-54.09263,5.8462],[-54.09595,5.84905],[-54.06642,5.84297],[-54.03403,5.84126],[-54.03173,5.8388]]],[[[-54.15682,5.37425],[-54.15301,5.379],[-54.14557,5.376],[-54.14337,5.37844],[-54.14707,5.38567],[-54.13769,5.38511],[-54.14366,5.37329],[-54.15798,5.35829],[-54.16673,5.35589],[-54.16633,5.35989],[-54.17131,5.36438],[-54.16537,5.37159],[-54.15682,5.37425]]],[[[-54.26573,5.28036],[-54.26057,5.28562],[-54.25131,5.28764],[-54.26573,5.28036]]],[[[-54.25438,5.89633],[-54.26414,5.89908],[-54.26413,5.90011],[-54.25438,5.89633]]],[[[-54.27518,5.90287],[-54.2834,5.9051],[-54.28288,5.90613],[-54.27518,5.90287]]],[[[-54.29801,5.24187],[-54.2931,5.24932],[-54.29285,5.24661],[-54.29801,5.24187]]],[[[-54.41999,5.06415],[-54.41796,5.05848],[-54.42677,5.03842],[-54.43346,5.03639],[-54.43214,5.04565],[-54.42751,5.04795],[-54.41999,5.06415]]],[[[-54.44048,5.01375],[-54.43733,5.03151],[-54.42859,5.03392],[-54.43957,5.01684],[-54.43748,4.99444],[-54.44128,4.9902],[-54.44509,5.00019],[-54.44048,5.01375]]],[[[-54.53812,5.94634],[-54.57155,5.951],[-54.56716,5.95432],[-54.53812,5.94634]]],[[[-54.58029,5.95271],[-54.59853,5.95807],[-54.59158,5.95765],[-54.58029,5.95271]]],[[[-54.58212,5.94447],[-54.59369,5.9462],[-54.59086,5.94799],[-54.58212,5.94447]]],[[[-54.61525,5.95969],[-54.62424,5.96204],[-54.61498,5.96136],[-54.61525,5.95969]]],[[[-54.63818,5.95167],[-54.64846,5.95352],[-54.64794,5.95519],[-54.63818,5.95167]]],[[[-54.64969,5.96743],[-54.65342,5.96797],[-54.65328,5.97067],[-54.64967,5.9713],[-54.64969,5.96743]]],[[[-54.80794,5.96706],[-54.80818,5.96989],[-54.80355,5.9691],[-54.80794,5.96706]]],[[[-54.83911,5.95752],[-54.83858,5.96164],[-54.83498,5.9615],[-54.83911,5.95752]]],[[[-54.84097,5.94271],[-54.84842,5.94686],[-54.84968,5.95163],[-54.83839,5.94451],[-54.84097,5.94271]]],[[[-54.84022,5.93769],[-54.8438,5.94144],[-54.83865,5.94245],[-54.84022,5.93769]]],[[[-54.86421,5.98772],[-54.85701,5.98657],[-54.85785,5.96777],[-54.85298,5.96414],[-54.85865,5.96082],[-54.861,5.97534],[-54.85908,5.9831],[-54.86628,5.98545],[-54.86421,5.98772]]],[[[-54.86815,5.96704],[-54.86455,5.96612],[-54.86431,5.96161],[-54.8723,5.95958],[-54.87331,5.96474],[-54.86815,5.96704]]],[[[-54.8724,5.96525],[-54.88655,5.96659],[-54.88563,5.97187],[-54.86788,5.97064],[-54.8724,5.96525]]],[[[-54.88143,5.95962],[-54.88283,5.96529],[-54.87845,5.96502],[-54.87873,5.95973],[-54.88143,5.95962]]],[[[-54.89035,5.94883],[-54.89135,5.95746],[-54.89675,5.95813],[-54.90058,5.96677],[-54.88836,5.96583],[-54.88631,5.96144],[-54.88981,5.95656],[-54.88749,5.95603],[-54.88671,5.95964],[-54.88208,5.95885],[-54.88571,5.95113],[-54.89035,5.94883]]],[[[-54.89283,5.97423],[-54.89358,5.97976],[-54.88252,5.97817],[-54.88562,5.97561],[-54.89217,5.97718],[-54.89283,5.97423]]],[[[-54.889,5.9666],[-54.90547,5.96795],[-54.90029,5.97347],[-54.88768,5.9733],[-54.889,5.9666]]],[[[-55.02763,5.88261],[-55.04077,5.89266],[-55.06191,5.9014],[-55.09947,5.90308],[-55.12936,5.92985],[-55.15325,5.94384],[-55.15542,5.94965],[-55.16031,5.95018],[-55.16341,5.94594],[-55.16572,5.94827],[-55.15073,5.96548],[-55.14145,5.97022],[-55.13325,5.95962],[-55.1254,5.95998],[-55.12335,5.95714],[-55.1191,5.95894],[-55.12294,5.9641],[-55.12087,5.96744],[-55.10439,5.96842],[-55.108,5.96379],[-55.10315,5.95604],[-55.09901,5.96299],[-55.08821,5.96398],[-55.07709,5.97399],[-55.07223,5.96676],[-55.06091,5.96672],[-55.05604,5.96],[-55.03956,5.96188],[-55.04626,5.96035],[-55.04694,5.95018],[-55.04193,5.94591],[-55.02933,5.9447],[-55.02851,5.9581],[-55.02438,5.96066],[-55.01692,5.96167],[-55.01333,5.95598],[-55.00792,5.95828],[-55.0051,5.95415],[-54.99944,5.95362],[-54.99995,5.95747],[-54.97935,5.96025],[-54.98061,5.96682],[-54.99128,5.96853],[-54.9865,5.97457],[-54.97314,5.96975],[-54.97135,5.96614],[-54.97306,5.95661],[-54.97511,5.95688],[-54.97398,5.95133],[-54.98234,5.94788],[-54.98224,5.94222],[-54.97581,5.94284],[-54.97337,5.93985],[-54.96423,5.94291],[-54.95777,5.9505],[-54.94851,5.9475],[-54.94439,5.95006],[-54.94849,5.9537],[-54.94307,5.95714],[-54.94355,5.96604],[-54.9392,5.96087],[-54.93199,5.96058],[-54.91744,5.96542],[-54.91578,5.96078],[-54.91166,5.96102],[-54.914,5.95626],[-54.91657,5.95692],[-54.91556,5.95227],[-54.90708,5.94786],[-54.90851,5.94323],[-54.91702,5.93862],[-54.91667,5.93012],[-54.91204,5.93036],[-54.91463,5.922],[-54.89432,5.91896],[-54.89158,5.89576],[-54.89495,5.8883],[-54.9228,5.87552],[-54.93212,5.86035],[-54.9425,5.86055],[-54.96652,5.87787],[-54.97758,5.88036],[-54.98891,5.87692],[-55.01058,5.86334],[-55.01675,5.86401],[-55.02763,5.88261]]],[[[-54.96339,5.99535],[-54.89945,5.99099],[-54.89869,5.98789],[-54.91338,5.98318],[-54.9129,5.97442],[-54.91933,5.97625],[-54.92598,5.98568],[-54.92121,5.98862],[-54.93292,5.98957],[-54.93522,5.99241],[-54.98978,5.99313],[-54.98722,5.98874],[-54.99314,5.98928],[-54.99509,5.98452],[-54.99931,5.98943],[-55.00126,5.98609],[-55.00447,5.98816],[-55.0029,5.99318],[-55.00729,5.99088],[-55.00805,5.99384],[-54.96339,5.99535]]],[[[-54.94841,5.97275],[-54.94853,5.97662],[-54.95586,5.97845],[-54.95353,5.98282],[-54.94273,5.98149],[-54.94244,5.98588],[-54.93858,5.98792],[-54.93757,5.98392],[-54.93294,5.98326],[-54.93295,5.97965],[-54.93809,5.98186],[-54.94841,5.97275]]],[[[-54.94579,5.98794],[-54.95582,5.98953],[-54.95221,5.99132],[-54.94579,5.98794]]],[[[-54.9508,5.95421],[-54.95003,5.95884],[-54.9477,5.95832],[-54.9508,5.95421]]],[[[-54.96434,5.97693],[-54.96832,5.98442],[-54.96401,5.98634],[-54.95908,5.97923],[-54.96,5.97254],[-54.96434,5.97693]]],[[[-54.9632,5.96629],[-54.96734,5.97128],[-54.9644,5.97529],[-54.96462,5.96947],[-54.96155,5.97074],[-54.96054,5.96663],[-54.9632,5.96629]]],[[[-54.98417,5.97945],[-54.98673,5.9832],[-54.98158,5.98305],[-54.98417,5.97945]]],[[[-55.00633,5.97155],[-55.00967,5.97195],[-55.01222,5.9784],[-55.0104,5.98303],[-55.00527,5.97992],[-55.00633,5.97155]]],[[[-55.00833,5.98702],[-55.01064,5.98999],[-55.00626,5.98997],[-55.00833,5.98702]]],[[[-55.01101,5.95868],[-55.00765,5.96292],[-55.00766,5.95996],[-55.01101,5.95868]]],[[[-55.01998,5.96826],[-55.01635,5.97687],[-55.01508,5.97222],[-55.01998,5.96826]]],[[[-55.03523,5.95091],[-55.04036,5.95428],[-55.03444,5.95426],[-55.03523,5.95091]]],[[[-55.12551,5.88886],[-55.12808,5.88976],[-55.12678,5.89248],[-55.12345,5.89002],[-55.12551,5.88886]]],[[[-55.12629,5.96192],[-55.12989,5.96258],[-55.12911,5.96696],[-55.12629,5.96192]]],[[[-55.14913,5.90698],[-55.14655,5.90646],[-55.15197,5.90261],[-55.1517,5.90686],[-55.14913,5.90698]]],[[[-55.48663,5.96638],[-55.48404,5.97333],[-55.47658,5.97241],[-55.47659,5.967],[-55.48663,5.96638]]],[[[-55.53165,5.97745],[-55.53834,5.98069],[-55.53088,5.97951],[-55.53165,5.97745]]],[[[-55.56334,5.96684],[-55.56552,5.97084],[-55.56281,5.97354],[-55.55278,5.9721],[-55.55458,5.9694],[-55.55973,5.97109],[-55.56334,5.96684]]],[[[-57.12186,5.80615],[-57.12881,5.79274],[-57.13074,5.79944],[-57.12354,5.82884],[-57.11157,5.85565],[-57.10797,5.87602],[-57.09819,5.88401],[-57.08866,5.88453],[-57.0875,5.87912],[-57.09188,5.86597],[-57.11504,5.82523],[-57.12186,5.80615]]],[[[-57.13614,5.88839],[-57.13544,5.90077],[-57.13539,5.88994],[-57.13614,5.88839]]],[[[-57.14216,5.92824],[-57.14145,5.95403],[-57.14543,5.9649],[-57.14388,5.97914],[-57.14468,5.96367],[-57.14004,5.95181],[-57.1412,5.92629],[-57.13633,5.9044],[-57.14216,5.92824]]],[[[-57.13809,5.87968],[-57.13813,5.88276],[-57.13637,5.88817],[-57.13809,5.87968]]],[[[-57.14723,5.853],[-57.14423,5.86414],[-57.13822,5.87907],[-57.14723,5.853]]],[[[-57.1404,5.82084],[-57.14246,5.82496],[-57.13873,5.82754],[-57.1404,5.82084]]],[[[-57.14217,5.69992],[-57.14629,5.71204],[-57.14423,5.71668],[-57.14217,5.69992]]],[[[-57.14965,5.7627],[-57.1557,5.77056],[-57.15661,5.78165],[-57.14838,5.81465],[-57.1431,5.80589],[-57.14965,5.7627]]],[[[-57.14443,5.99137],[-57.14719,5.99765],[-57.147,5.99871],[-57.14443,5.99137]]],[[[-57.15091,5.66202],[-57.1468,5.67955],[-57.14692,5.66924],[-57.15091,5.66202]]],[[[-57.15509,5.8336],[-57.14711,5.85243],[-57.14864,5.84585],[-57.15509,5.8336]]],[[[-57.16921,5.74477],[-57.17059,5.75371],[-57.16715,5.76063],[-57.15338,5.75148],[-57.15286,5.71616],[-57.14809,5.68935],[-57.15272,5.68445],[-57.15594,5.68935],[-57.15826,5.70868],[-57.17062,5.72028],[-57.18015,5.73807],[-57.17667,5.74864],[-57.17384,5.75019],[-57.16921,5.74477]]],[[[-57.15812,5.65918],[-57.16262,5.67413],[-57.15812,5.69064],[-57.15439,5.68084],[-57.15554,5.66099],[-57.15812,5.65918]]],[[[-57.16503,5.81501],[-57.16315,5.81952],[-57.15752,5.82824],[-57.16503,5.81501]]],[[[-57.16146,5.6548],[-57.16674,5.65969],[-57.16378,5.67181],[-57.1603,5.6615],[-57.16146,5.6548]]],[[[-57.16105,5.6938],[-57.16063,5.70145],[-57.16031,5.69734],[-57.16105,5.6938]]],[[[-57.16433,5.62927],[-57.16242,5.65105],[-57.16287,5.63855],[-57.16433,5.62927]]],[[[-57.16527,5.67618],[-57.16433,5.68335],[-57.16293,5.68825],[-57.16527,5.67618]]],[[[-57.16871,5.61293],[-57.16437,5.62897],[-57.16506,5.62386],[-57.16871,5.61293]]],[[[-57.16622,5.65686],[-57.16772,5.6627],[-57.1667,5.6671],[-57.16622,5.65686]]],[[[-57.17611,5.57757],[-57.16942,5.59318],[-57.16685,5.59343],[-57.17611,5.57757]]],[[[-57.21057,5.51285],[-57.18742,5.54805],[-57.18447,5.56197],[-57.17636,5.57409],[-57.16865,5.579],[-57.16954,5.5594],[-57.18934,5.52149],[-57.21057,5.51285]]],[[[-57.17038,5.78782],[-57.17096,5.79323],[-57.16869,5.80579],[-57.17038,5.78782]]],[[[-57.1701,5.78075],[-57.17038,5.78773],[-57.16986,5.78293],[-57.1701,5.78075]]],[[[-57.18869,5.57151],[-57.1701,5.60793],[-57.1729,5.59936],[-57.18869,5.57151]]],[[[-57.17118,5.77463],[-57.17042,5.77768],[-57.17063,5.77571],[-57.17118,5.77463]]],[[[-57.18197,5.73635],[-57.18344,5.74671],[-57.178,5.76123],[-57.18298,5.74683],[-57.18197,5.73635]]],[[[-57.20122,5.15583],[-57.19018,5.15884],[-57.18276,5.16839],[-57.18336,5.1873],[-57.18858,5.19791],[-57.18255,5.18529],[-57.18255,5.16802],[-57.18936,5.15874],[-57.20122,5.15583]]],[[[-57.19588,5.55737],[-57.18868,5.57144],[-57.199,5.55063],[-57.21469,5.53025],[-57.24198,5.50236],[-57.22854,5.51452],[-57.19588,5.55737]]],[[[-57.19591,5.54186],[-57.19462,5.54495],[-57.19231,5.54315],[-57.19591,5.54186]]],[[[-57.21546,5.51375],[-57.19539,5.53954],[-57.21134,5.51556],[-57.21546,5.51375]]],[[[-57.19812,5.22345],[-57.207,5.23427],[-57.20867,5.24394],[-57.20366,5.23995],[-57.19812,5.22345]]],[[[-57.2093,5.15322],[-57.20629,5.15511],[-57.20287,5.15548],[-57.2093,5.15322]]],[[[-57.22874,5.13543],[-57.22329,5.13439],[-57.21408,5.13963],[-57.2158,5.14569],[-57.21314,5.15098],[-57.2161,5.13668],[-57.22874,5.13543]]],[[[-57.2142,5.22951],[-57.2177,5.24256],[-57.21807,5.25077],[-57.2142,5.22951]]],[[[-57.23564,5.13848],[-57.24413,5.15511],[-57.24092,5.15485],[-57.23629,5.14686],[-57.23564,5.13848]]],[[[-57.2359,5.15408],[-57.24568,5.16774],[-57.23822,5.16233],[-57.2359,5.15408]]],[[[-57.24748,5.17754],[-57.25417,5.18385],[-57.2498,5.18243],[-57.24748,5.17754]]],[[[-57.26197,5.48513],[-57.25792,5.48986],[-57.24841,5.49789],[-57.26197,5.48513]]],[[[-57.26097,5.45546],[-57.26008,5.47222],[-57.25172,5.48396],[-57.26097,5.45546]]],[[[-57.25862,5.18885],[-57.25654,5.18876],[-57.25436,5.1874],[-57.25862,5.18885]]],[[[-57.26436,5.25115],[-57.25741,5.2425],[-57.26204,5.24508],[-57.26436,5.25115]]],[[[-57.26296,5.18905],[-57.25976,5.1889],[-57.26086,5.18875],[-57.26296,5.18905]]],[[[-57.26566,5.47881],[-57.26405,5.48223],[-57.26203,5.48505],[-57.26566,5.47881]]],[[[-57.27612,5.18988],[-57.26787,5.19033],[-57.26422,5.18923],[-57.27612,5.18988]]],[[[-57.2699,5.46526],[-57.26904,5.46992],[-57.2658,5.47851],[-57.2699,5.46526]]],[[[-57.28297,5.17997],[-57.27037,5.18681],[-57.2696,5.18307],[-57.28297,5.17997]]],[[[-57.27011,5.45497],[-57.27064,5.46122],[-57.27023,5.46346],[-57.27011,5.45497]]],[[[-57.28348,5.18767],[-57.28167,5.18883],[-57.27808,5.18951],[-57.28348,5.18767]]],[[[-57.28226,5.30063],[-57.28329,5.30489],[-57.28059,5.30747],[-57.28226,5.30063]]],[[[-57.30043,5.17107],[-57.29422,5.17917],[-57.2845,5.18701],[-57.30043,5.17107]]],[[[-57.29557,5.24804],[-57.29799,5.27721],[-57.28907,5.30323],[-57.29035,5.32031],[-57.28882,5.30334],[-57.29755,5.27884],[-57.29557,5.24804]]],[[[-57.30044,5.36934],[-57.29724,5.37253],[-57.2902,5.37664],[-57.30044,5.36934]]],[[[-57.31801,5.31286],[-57.29641,5.32435],[-57.2977,5.31919],[-57.31801,5.31286]]],[[[-57.32172,5.09887],[-57.30266,5.1334],[-57.2997,5.14484],[-57.30442,5.12827],[-57.32172,5.09887]]],[[[-57.32187,5.3544],[-57.30086,5.36892],[-57.30132,5.36753],[-57.32187,5.3544]]],[[[-57.3066,5.11537],[-57.30429,5.12079],[-57.30108,5.12131],[-57.3066,5.11537]]],[[[-57.31519,5.31931],[-57.31262,5.32421],[-57.3067,5.32679],[-57.31519,5.31931]]],[[[-57.3367,5.33537],[-57.32885,5.34756],[-57.33243,5.33902],[-57.3367,5.33537]]],[[[-57.34025,5.32136],[-57.3414,5.32596],[-57.33809,5.33319],[-57.34025,5.32136]]]]}}]}