{"type":"FeatureCollection","features":[{"type":"Feature","properties":{"ISO_A3":"SVK","WB_A3":"SVK","WB_NAME":"Slovak Republic","WB_REGION":"ECS"},"geometry":{"type":"MultiPolygon","coordinates":[[[[20.41876,48.42073],[20.41431,48.41214],[20.42061,48.40422],[20.41675,48.40067],[20.41644,48.39369],[20.41258,48.38775],[20.40253,48.38256],[20.41183,48.36972],[20.40983,48.36586],[20.3855,48.35075],[20.38644,48.34767],[20.38089,48.34147],[20.36764,48.33219],[20.37428,48.327],[20.36533,48.31642],[20.35644,48.31281],[20.35786,48.30975],[20.33522,48.29894],[20.33342,48.28739],[20.32811,48.28844],[20.32572,48.27281],[20.30911,48.27336],[20.30575,48.26989],[20.31097,48.26558],[20.28456,48.262],[20.28094,48.26603],[20.26961,48.268],[20.24972,48.27911],[20.23494,48.27994],[20.22906,48.27506],[20.23467,48.27253],[20.22847,48.26281],[20.22019,48.26261],[20.21531,48.25897],[20.20611,48.26211],[20.20314,48.25925],[20.20772,48.25294],[20.20617,48.25097],[20.18494,48.24797],[20.16842,48.25161],[20.15406,48.25025],[20.14661,48.25497],[20.13319,48.25397],[20.13225,48.24717],[20.13911,48.24392],[20.13919,48.24],[20.13444,48.23558],[20.13222,48.225],[20.102,48.20944],[20.10022,48.20444],[20.09547,48.204],[20.09075,48.197],[20.07825,48.19642],[20.07003,48.19169],[20.0675,48.1885],[20.07622,48.18461],[20.07147,48.17911],[20.06133,48.17836],[20.05189,48.16769],[20.04428,48.16728],[20.04319,48.173],[20.02808,48.17719],[19.99143,48.1684],[19.98869,48.16217],[19.97439,48.166],[19.96356,48.15203],[19.95156,48.15156],[19.94978,48.14628],[19.93717,48.13628],[19.93882,48.13386],[19.92936,48.13011],[19.90831,48.12956],[19.89831,48.12489],[19.90211,48.13658],[19.91008,48.13981],[19.91453,48.14686],[19.90592,48.15131],[19.89875,48.16631],[19.88239,48.16414],[19.88006,48.17022],[19.86219,48.16942],[19.85611,48.17122],[19.85839,48.17475],[19.85517,48.17844],[19.84394,48.16794],[19.84528,48.16275],[19.83244,48.16258],[19.82914,48.16742],[19.82133,48.16908],[19.81383,48.16703],[19.80647,48.15414],[19.79481,48.15353],[19.78253,48.16528],[19.78958,48.16828],[19.78842,48.17311],[19.80486,48.18311],[19.79872,48.19483],[19.78717,48.19253],[19.78133,48.201],[19.76417,48.20747],[19.76211,48.21286],[19.74619,48.2165],[19.73556,48.21558],[19.72119,48.20183],[19.70536,48.20114],[19.67986,48.21303],[19.68008,48.21636],[19.67467,48.21975],[19.67589,48.22386],[19.67089,48.23819],[19.66578,48.24139],[19.65439,48.23814],[19.64453,48.23917],[19.63083,48.25008],[19.60758,48.23853],[19.60294,48.23222],[19.578,48.21628],[19.56831,48.21556],[19.54594,48.2055],[19.54131,48.20933],[19.52617,48.20325],[19.52953,48.19125],[19.52369,48.18439],[19.51244,48.18181],[19.50458,48.17356],[19.50867,48.17103],[19.51286,48.15642],[19.50883,48.14819],[19.49367,48.14042],[19.49642,48.13219],[19.49406,48.12711],[19.49669,48.12489],[19.49219,48.11839],[19.4945,48.11008],[19.48497,48.10547],[19.48722,48.09953],[19.47194,48.09464],[19.46708,48.08867],[19.46914,48.08506],[19.46242,48.08292],[19.45114,48.09444],[19.45431,48.10136],[19.44264,48.10128],[19.43531,48.09958],[19.42503,48.08869],[19.40831,48.0885],[19.40022,48.08233],[19.38553,48.09189],[19.36736,48.08647],[19.35972,48.09033],[19.30094,48.08828],[19.28436,48.08233],[19.27536,48.07358],[19.26517,48.07419],[19.25403,48.07039],[19.24792,48.05772],[19.23889,48.05383],[19.21147,48.06442],[19.18928,48.06033],[19.15036,48.06692],[19.1355,48.07414],[19.12867,48.07392],[19.11897,48.06644],[19.10783,48.06558],[19.08978,48.07247],[19.08233,48.07206],[19.07847,48.06742],[19.06553,48.06469],[19.05825,48.05742],[19.0445,48.06631],[19.033,48.065],[19.03247,48.06833],[19.01425,48.07719],[19.00758,48.07247],[19.00939,48.07075],[18.99228,48.06531],[18.99069,48.05764],[18.98192,48.05369],[18.96836,48.05839],[18.94392,48.05886],[18.90897,48.05114],[18.8859,48.05731],[18.88336,48.05181],[18.87478,48.04683],[18.86008,48.05006],[18.85589,48.04811],[18.84558,48.05258],[18.83793,48.04671],[18.83326,48.04822],[18.82919,48.0415],[18.82289,48.04311],[18.82,48.03967],[18.82661,48.03244],[18.81575,48.02194],[18.81717,48.01106],[18.82114,48.00767],[18.81597,47.99367],[18.80269,47.986],[18.76878,47.98519],[18.75481,47.97536],[18.75703,47.97061],[18.77067,47.96314],[18.77675,47.95542],[18.77233,47.95072],[18.77258,47.93275],[18.75736,47.91772],[18.76261,47.90922],[18.75953,47.90831],[18.75869,47.90525],[18.76244,47.90333],[18.75722,47.89636],[18.76042,47.89569],[18.76456,47.88083],[18.76317,47.87314],[18.76994,47.86842],[18.77844,47.86947],[18.78158,47.86547],[18.79311,47.86514],[18.79556,47.85872],[18.81358,47.85556],[18.82175,47.8505],[18.82303,47.84136],[18.82803,47.83428],[18.83919,47.82917],[18.85117,47.83],[18.85589,47.82608],[18.84936,47.82095],[18.84803,47.81592],[18.79519,47.82275],[18.74278,47.81425],[18.73444,47.80942],[18.7289,47.79241],[18.72244,47.78683],[18.70561,47.77725],[18.66289,47.76114],[18.61981,47.75731],[18.56717,47.76611],[18.54042,47.76464],[18.51944,47.75653],[18.49247,47.75261],[18.47244,47.76169],[18.45053,47.76483],[18.42808,47.7555],[18.28886,47.73122],[18.26361,47.73781],[18.22628,47.74178],[18.17764,47.74053],[18.08581,47.75653],[18.03772,47.75664],[18.00414,47.74722],[17.97228,47.75692],[17.94622,47.74506],[17.91794,47.74414],[17.89825,47.73933],[17.86711,47.74572],[17.82892,47.74003],[17.80286,47.74428],[17.78403,47.73919],[17.77553,47.74103],[17.76564,47.74853],[17.71281,47.75517],[17.68781,47.77519],[17.63092,47.80339],[17.60839,47.82189],[17.58911,47.82094],[17.57364,47.81408],[17.56631,47.81592],[17.54975,47.83183],[17.54253,47.84669],[17.54308,47.85236],[17.52572,47.86617],[17.49689,47.86778],[17.48139,47.87672],[17.45392,47.88525],[17.43167,47.92169],[17.40947,47.93711],[17.40042,47.94992],[17.37436,47.96025],[17.33464,47.99314],[17.30336,47.99606],[17.27794,47.99417],[17.25722,47.99889],[17.24839,48.00383],[17.24593,48.01875],[17.24044,48.02056],[17.22664,48.01622],[17.20178,48.02006],[17.16081,48.00667],[17.14387,48.02024],[17.1366,48.02296],[17.12676,48.02091],[17.11008,48.03123],[17.08987,48.01979],[17.06745,48.03144],[17.08781,48.0457],[17.08474,48.0503],[17.07214,48.05356],[17.07175,48.05621],[17.0868,48.06536],[17.07226,48.07045],[17.07891,48.07822],[17.07164,48.08108],[17.0746,48.08589],[17.08965,48.09219],[17.08781,48.09656],[17.09265,48.09967],[17.07744,48.10595],[17.0791,48.10789],[17.07296,48.11031],[17.07609,48.11399],[17.06251,48.12193],[17.06758,48.1235],[17.06789,48.12703],[17.0572,48.14377],[17.03163,48.1401],[16.97622,48.1719],[16.97613,48.19027],[16.96218,48.21428],[16.96184,48.22052],[16.94616,48.23562],[16.9511,48.25612],[16.95732,48.26282],[16.9454,48.27066],[16.92003,48.2737],[16.89503,48.3094],[16.89768,48.31585],[16.90934,48.32438],[16.90759,48.32668],[16.87328,48.33716],[16.86965,48.33965],[16.87427,48.34438],[16.87473,48.34771],[16.87165,48.349],[16.85015,48.34814],[16.84363,48.35092],[16.83913,48.36465],[16.84043,48.37286],[16.83331,48.37987],[16.83379,48.38242],[16.85077,48.38368],[16.85103,48.39133],[16.85547,48.39474],[16.85026,48.40795],[16.85165,48.41184],[16.8631,48.41823],[16.85164,48.43536],[16.84943,48.44748],[16.85248,48.45123],[16.86047,48.4515],[16.86407,48.45539],[16.85962,48.45959],[16.86571,48.46591],[16.87349,48.46718],[16.88033,48.4774],[16.89017,48.47717],[16.89043,48.4814],[16.89627,48.48585],[16.88992,48.49197],[16.8964,48.4968],[16.90718,48.49801],[16.91392,48.49431],[16.91751,48.49726],[16.91446,48.49981],[16.91301,48.51031],[16.92248,48.51476],[16.91968,48.51883],[16.94366,48.52194],[16.94046,48.52738],[16.94928,48.53409],[16.95357,48.54219],[16.95333,48.54549],[16.94269,48.55223],[16.94487,48.55962],[16.93706,48.56793],[16.93558,48.57444],[16.93898,48.58434],[16.93374,48.59917],[16.94206,48.60663],[16.94019,48.61654],[16.95731,48.62494],[16.96403,48.64067],[16.96808,48.64353],[16.96914,48.67006],[16.97641,48.6749],[16.98161,48.68364],[16.99733,48.69175],[16.99778,48.70883],[17.01078,48.71661],[17.01575,48.73031],[17.02533,48.73808],[17.03028,48.74753],[17.04006,48.7535],[17.04328,48.76425],[17.06039,48.77153],[17.07203,48.78044],[17.08867,48.78553],[17.09324,48.79868],[17.10594,48.80783],[17.10519,48.82375],[17.10819,48.82875],[17.11492,48.83325],[17.15314,48.84436],[17.19228,48.87469],[17.202,48.87814],[17.21678,48.87108],[17.24206,48.86836],[17.2535,48.86219],[17.27211,48.86175],[17.30606,48.84364],[17.31786,48.84564],[17.32856,48.8335],[17.34703,48.82633],[17.36389,48.81356],[17.37847,48.81919],[17.39788,48.8138],[17.40269,48.82044],[17.41847,48.82931],[17.42703,48.82631],[17.43594,48.84061],[17.44261,48.83814],[17.45319,48.84675],[17.477,48.84156],[17.50808,48.82031],[17.51222,48.81969],[17.51703,48.8255],[17.51578,48.81814],[17.51994,48.81278],[17.52853,48.81217],[17.53939,48.81886],[17.54589,48.81631],[17.55303,48.81975],[17.55533,48.82269],[17.54825,48.82744],[17.55458,48.83156],[17.57114,48.82372],[17.58889,48.82519],[17.59572,48.82911],[17.60178,48.84086],[17.62094,48.84203],[17.62053,48.84672],[17.63297,48.85489],[17.6685,48.85422],[17.68247,48.86078],[17.70425,48.86136],[17.71875,48.87331],[17.73669,48.88083],[17.75033,48.89875],[17.76206,48.90703],[17.78267,48.91669],[17.78131,48.92528],[17.84703,48.92761],[17.86889,48.92258],[17.88531,48.92767],[17.88892,48.94408],[17.90303,48.96417],[17.89967,48.96919],[17.90411,48.98458],[17.91447,48.99642],[17.91208,49.00581],[17.91389,49.01092],[17.92425,49.01983],[17.95128,49.02503],[17.97458,49.02256],[17.99092,49.0285],[18.00731,49.02133],[18.02447,49.02122],[18.02972,49.02683],[18.03725,49.02636],[18.071,49.03811],[18.08206,49.04619],[18.08244,49.05128],[18.09539,49.0593],[18.09058,49.06272],[18.09119,49.06667],[18.09386,49.06928],[18.09689,49.06742],[18.11594,49.09214],[18.11028,49.11356],[18.11378,49.1185],[18.12117,49.11875],[18.10675,49.13419],[18.11814,49.1443],[18.11878,49.15275],[18.13672,49.16103],[18.12992,49.16844],[18.13089,49.18892],[18.14939,49.20508],[18.14811,49.21483],[18.15483,49.21619],[18.15267,49.21961],[18.15631,49.22947],[18.14461,49.22925],[18.14775,49.23544],[18.14719,49.24842],[18.16128,49.25508],[18.16256,49.26064],[18.18272,49.26875],[18.18594,49.28092],[18.18403,49.287],[18.20425,49.29347],[18.24684,49.29469],[18.27225,49.30214],[18.29697,49.30439],[18.30314,49.30592],[18.30108,49.31003],[18.32667,49.31819],[18.36606,49.32461],[18.37892,49.33056],[18.38803,49.34319],[18.39533,49.34872],[18.40425,49.35022],[18.39817,49.35681],[18.40842,49.36036],[18.41531,49.367],[18.40892,49.38989],[18.40367,49.39669],[18.41297,49.39889],[18.42894,49.39369],[18.44994,49.3935],[18.44939,49.39744],[18.45669,49.40317],[18.47542,49.40842],[18.47644,49.41669],[18.48194,49.42392],[18.49469,49.42978],[18.49014,49.43217],[18.49206,49.43478],[18.50092,49.43581],[18.50531,49.44289],[18.52297,49.44922],[18.52481,49.45647],[18.53272,49.45811],[18.53525,49.46353],[18.54794,49.46786],[18.53425,49.48489],[18.53547,49.49089],[18.54164,49.49269],[18.54575,49.5005],[18.55292,49.50311],[18.59725,49.51025],[18.60192,49.50686],[18.60281,49.49708],[18.61553,49.49525],[18.63153,49.49872],[18.63953,49.49622],[18.64233,49.50078],[18.66439,49.50233],[18.67644,49.50764],[18.68486,49.50492],[18.68792,49.50072],[18.71019,49.5025],[18.72039,49.50011],[18.7355,49.49022],[18.75422,49.48844],[18.77917,49.505],[18.79975,49.50933],[18.81236,49.51639],[18.84,49.51489],[18.86756,49.51936],[18.89583,49.51453],[18.94167,49.51889],[18.94917,49.51261],[18.97128,49.50442],[18.97333,49.49681],[18.96622,49.49308],[18.96278,49.48194],[18.97019,49.47681],[18.96458,49.47244],[18.96619,49.46794],[18.96078,49.45469],[18.97386,49.45167],[18.97778,49.44053],[18.98831,49.43183],[18.98694,49.42406],[18.96875,49.41333],[18.97314,49.40694],[18.97119,49.40206],[18.97986,49.39522],[18.98964,49.39839],[19.027,49.39397],[19.04606,49.40192],[19.04431,49.40472],[19.05392,49.41517],[19.06975,49.41264],[19.07272,49.41797],[19.09178,49.41583],[19.09436,49.41031],[19.10022,49.41103],[19.10701,49.40384],[19.12236,49.40261],[19.13753,49.40994],[19.15339,49.40378],[19.17728,49.414],[19.18744,49.40967],[19.19742,49.41456],[19.191,49.42103],[19.19342,49.426],[19.18575,49.43472],[19.19858,49.44817],[19.209,49.45183],[19.219,49.44861],[19.22531,49.45431],[19.22828,49.46375],[19.22714,49.46694],[19.22,49.46931],[19.22092,49.47494],[19.23156,49.48783],[19.22783,49.49194],[19.23489,49.49503],[19.23703,49.50169],[19.23403,49.50372],[19.23364,49.51086],[19.26103,49.52728],[19.26069,49.53122],[19.27472,49.53189],[19.28153,49.53531],[19.29289,49.53317],[19.31556,49.53658],[19.31881,49.53108],[19.35992,49.53558],[19.36614,49.53894],[19.36858,49.54503],[19.36658,49.55369],[19.37364,49.55944],[19.37136,49.56744],[19.40003,49.57414],[19.40764,49.58083],[19.40997,49.59214],[19.44458,49.6005],[19.44203,49.6055],[19.4485,49.61381],[19.45494,49.61089],[19.46739,49.61375],[19.47464,49.60467],[19.46844,49.59647],[19.47842,49.58803],[19.49722,49.58158],[19.51019,49.58144],[19.51822,49.57342],[19.52953,49.57126],[19.52742,49.56117],[19.53044,49.53578],[19.55161,49.50761],[19.55364,49.48994],[19.56564,49.48053],[19.56906,49.4745],[19.56707,49.47112],[19.58072,49.46106],[19.58165,49.45547],[19.5974,49.45861],[19.61144,49.44686],[19.62544,49.44961],[19.64111,49.45756],[19.64289,49.45456],[19.64156,49.44947],[19.63778,49.44814],[19.63781,49.4405],[19.64858,49.43536],[19.63464,49.4125],[19.63876,49.40866],[19.64461,49.41064],[19.68083,49.40206],[19.68547,49.40339],[19.70783,49.39492],[19.71853,49.38675],[19.72964,49.39175],[19.74633,49.40792],[19.76758,49.413],[19.79058,49.41069],[19.78894,49.40108],[19.79256,49.37858],[19.80219,49.37011],[19.80383,49.36481],[19.80247,49.35314],[19.79472,49.34453],[19.80497,49.32278],[19.79272,49.29892],[19.7945,49.29606],[19.80978,49.29542],[19.82281,49.27681],[19.80633,49.2745],[19.79247,49.26797],[19.79217,49.26342],[19.78883,49.26175],[19.7905,49.25525],[19.78503,49.24667],[19.77844,49.24539],[19.76633,49.23456],[19.76919,49.23069],[19.76694,49.22261],[19.75842,49.216],[19.76067,49.21003],[19.7675,49.20597],[19.77858,49.20494],[19.78425,49.19928],[19.79519,49.19875],[19.80753,49.20564],[19.81983,49.19953],[19.82947,49.20169],[19.83483,49.1965],[19.86944,49.19581],[19.887,49.20817],[19.90188,49.21304],[19.90525,49.22469],[19.90328,49.23092],[19.93222,49.2365],[19.97117,49.22994],[19.98156,49.23181],[20.00864,49.22006],[20.0065,49.21331],[20.02053,49.2015],[20.03975,49.19742],[20.04244,49.19336],[20.06911,49.18078],[20.08814,49.17961],[20.08436,49.19619],[20.08719,49.20756],[20.10161,49.22267],[20.09783,49.23439],[20.10075,49.25008],[20.122,49.26792],[20.12864,49.27725],[20.13023,49.29563],[20.14606,49.318],[20.15195,49.31833],[20.15897,49.30655],[20.15772,49.30282],[20.1758,49.31408],[20.16778,49.32356],[20.17358,49.32497],[20.17058,49.32772],[20.18368,49.32787],[20.19522,49.34228],[20.20336,49.34181],[20.22189,49.35181],[20.23181,49.34631],[20.24203,49.35053],[20.26639,49.34708],[20.27306,49.35136],[20.29306,49.35153],[20.31417,49.3435],[20.32372,49.35219],[20.32622,49.36586],[20.32103,49.37658],[20.33028,49.39006],[20.31789,49.39314],[20.32508,49.40303],[20.36228,49.39825],[20.36856,49.40055],[20.37114,49.40739],[20.37636,49.40756],[20.38092,49.40325],[20.38242,49.39103],[20.39303,49.39058],[20.41331,49.39594],[20.41686,49.40578],[20.42797,49.40197],[20.43128,49.39589],[20.43661,49.40538],[20.42887,49.40806],[20.4293,49.41472],[20.43351,49.41791],[20.44636,49.41192],[20.44986,49.41219],[20.44992,49.41503],[20.47197,49.41544],[20.49014,49.40642],[20.50336,49.40397],[20.51019,49.39336],[20.5465,49.38553],[20.55772,49.3781],[20.57625,49.37625],[20.58003,49.38289],[20.58525,49.38539],[20.592,49.38389],[20.60097,49.38906],[20.60578,49.40131],[20.61358,49.40183],[20.61142,49.41358],[20.61494,49.41783],[20.62236,49.41622],[20.62467,49.41044],[20.63682,49.40811],[20.64258,49.401],[20.66569,49.40356],[20.66578,49.40631],[20.69269,49.41997],[20.72292,49.41967],[20.72772,49.41494],[20.73781,49.41667],[20.74611,49.41164],[20.74228,49.40383],[20.75481,49.40219],[20.75828,49.39887],[20.74753,49.39233],[20.76164,49.38283],[20.75765,49.37492],[20.76192,49.37131],[20.78553,49.37436],[20.78819,49.37241],[20.78097,49.36322],[20.78353,49.3605],[20.79947,49.36314],[20.81003,49.35828],[20.81032,49.35467],[20.80569,49.35378],[20.80475,49.3595],[20.79808,49.35789],[20.80219,49.35553],[20.80131,49.34981],[20.79636,49.34514],[20.79897,49.34261],[20.81183,49.34769],[20.82608,49.33439],[20.83694,49.334],[20.85475,49.34744],[20.8655,49.3475],[20.88125,49.33442],[20.882,49.32853],[20.87964,49.32261],[20.87425,49.32144],[20.87608,49.3195],[20.88419,49.31908],[20.89717,49.32536],[20.90303,49.32378],[20.90711,49.32114],[20.90308,49.31681],[20.91025,49.31147],[20.91053,49.30719],[20.92564,49.29606],[20.96781,49.30953],[20.98572,49.30664],[20.99414,49.31267],[20.98819,49.32323],[20.98906,49.32845],[21.00808,49.33486],[21.00697,49.33956],[21.01131,49.34756],[21.01625,49.34689],[21.02728,49.35689],[21.04386,49.36536],[21.05444,49.36183],[21.06597,49.36533],[21.07533,49.35931],[21.07894,49.36392],[21.09411,49.36506],[21.10411,49.37639],[21.06719,49.39622],[21.069,49.39986],[21.06589,49.40244],[21.05458,49.40406],[21.04722,49.41694],[21.05569,49.42153],[21.06317,49.42056],[21.09639,49.4295],[21.11372,49.42394],[21.12403,49.43658],[21.15225,49.42694],[21.15467,49.42181],[21.17875,49.4095],[21.1835,49.40283],[21.19213,49.40099],[21.20183,49.40464],[21.20803,49.4025],[21.22725,49.41694],[21.22406,49.42672],[21.23411,49.4375],[21.24067,49.43419],[21.25928,49.44669],[21.26556,49.44742],[21.26733,49.45719],[21.27753,49.46094],[21.30683,49.44839],[21.34469,49.45042],[21.36867,49.439],[21.37392,49.43253],[21.40203,49.43342],[21.40653,49.42661],[21.43408,49.41228],[21.45622,49.41631],[21.47369,49.41361],[21.47908,49.41578],[21.48886,49.42908],[21.49569,49.42961],[21.51706,49.41781],[21.52353,49.41994],[21.51853,49.42428],[21.53028,49.43508],[21.55208,49.43311],[21.56397,49.44125],[21.57511,49.43558],[21.59056,49.43381],[21.59639,49.43694],[21.60158,49.43531],[21.61469,49.44464],[21.63094,49.44731],[21.64411,49.43128],[21.65661,49.42442],[21.65892,49.41681],[21.68122,49.41081],[21.70053,49.41836],[21.72178,49.41228],[21.72583,49.39917],[21.73539,49.39839],[21.73942,49.39314],[21.76339,49.38347],[21.76606,49.36797],[21.778,49.35606],[21.78798,49.35523],[21.79056,49.35947],[21.78878,49.36919],[21.803,49.38217],[21.81739,49.38433],[21.82583,49.39078],[21.83874,49.39159],[21.84731,49.38667],[21.84761,49.37858],[21.859,49.36856],[21.87547,49.37364],[21.88733,49.36897],[21.89336,49.35719],[21.90378,49.34997],[21.91803,49.35419],[21.93097,49.34667],[21.961,49.34906],[21.97783,49.32556],[21.97853,49.31692],[21.98369,49.30994],[22.01069,49.28953],[22.02339,49.28614],[22.03403,49.27856],[22.03306,49.26472],[22.03031,49.26267],[22.04078,49.25839],[22.04139,49.25456],[22.03814,49.25017],[22.03897,49.24503],[22.03336,49.24175],[22.03506,49.23383],[22.03042,49.22517],[22.06197,49.21158],[22.11906,49.20094],[22.14381,49.20053],[22.14294,49.19364],[22.14556,49.19164],[22.17592,49.18311],[22.18733,49.17525],[22.19306,49.17442],[22.21103,49.18556],[22.22384,49.18363],[22.23058,49.18072],[22.23589,49.16856],[22.22586,49.16111],[22.22461,49.15303],[22.24703,49.15328],[22.28178,49.14208],[22.29722,49.14153],[22.30725,49.13683],[22.32053,49.13558],[22.33461,49.14647],[22.36225,49.1445],[22.36619,49.14692],[22.37794,49.13608],[22.3785,49.13189],[22.39022,49.12739],[22.39183,49.11806],[22.39653,49.11719],[22.41389,49.10208],[22.42267,49.0995],[22.45703,49.10356],[22.49703,49.08589],[22.51131,49.09217],[22.53942,49.09469],[22.55597,49.08758],[22.56569,49.088],[22.56258,49.08103],[22.55325,49.07947],[22.55108,49.03017],[22.54769,49.02519],[22.538,49.02133],[22.5455,49.00678],[22.52219,48.99714],[22.50547,48.99992],[22.47731,48.99119],[22.47406,48.97514],[22.46622,48.97294],[22.42492,48.92933],[22.43156,48.91925],[22.42456,48.91169],[22.42111,48.88461],[22.39467,48.87708],[22.39442,48.87328],[22.38423,48.86605],[22.37994,48.83886],[22.37592,48.83403],[22.38369,48.8245],[22.38703,48.79894],[22.38083,48.79647],[22.37336,48.78244],[22.35028,48.77161],[22.34569,48.76614],[22.343,48.75117],[22.36011,48.74183],[22.36181,48.73019],[22.35069,48.72033],[22.35369,48.71783],[22.34558,48.70589],[22.34569,48.69858],[22.33961,48.68389],[22.30256,48.67636],[22.28228,48.66156],[22.25031,48.64739],[22.24967,48.63947],[22.2405,48.62769],[22.22997,48.62056],[22.21569,48.62128],[22.20347,48.61143],[22.18993,48.61008],[22.17139,48.58753],[22.16097,48.56733],[22.15828,48.52703],[22.13769,48.43269],[22.14024,48.42852],[22.1371,48.41877],[22.1428,48.41128],[22.1423,48.40533],[22.15525,48.40339],[22.15531,48.39933],[22.13083,48.38969],[22.13583,48.3845],[22.13497,48.38047],[22.12108,48.37831],[22.11156,48.38131],[22.10133,48.37619],[22.09475,48.37728],[22.08594,48.37178],[22.08261,48.37872],[22.08428,48.38092],[22.0765,48.38725],[22.06958,48.38208],[22.05761,48.38133],[22.05825,48.37789],[22.05461,48.37753],[22.02861,48.39203],[22.02111,48.39242],[22.02297,48.38861],[21.99447,48.37733],[21.97139,48.38028],[21.948,48.37803],[21.94631,48.37492],[21.93925,48.37458],[21.93169,48.36978],[21.928,48.37125],[21.92786,48.36742],[21.93186,48.36536],[21.93039,48.36228],[21.91756,48.36339],[21.90961,48.36822],[21.89561,48.36256],[21.88828,48.36339],[21.88731,48.36897],[21.883,48.36383],[21.88717,48.35744],[21.88156,48.35778],[21.88092,48.36261],[21.87592,48.36133],[21.87239,48.35614],[21.86369,48.35886],[21.86553,48.35656],[21.86297,48.35519],[21.85428,48.36628],[21.83867,48.36361],[21.83511,48.36106],[21.83756,48.34906],[21.83506,48.34614],[21.83689,48.34183],[21.83356,48.34022],[21.83519,48.33464],[21.81983,48.33372],[21.81878,48.33644],[21.79839,48.3425],[21.76406,48.33903],[21.74542,48.34856],[21.72239,48.35069],[21.71189,48.35761],[21.71428,48.36631],[21.70536,48.36606],[21.70242,48.37117],[21.70567,48.37517],[21.70264,48.37997],[21.68114,48.39086],[21.66869,48.38922],[21.66456,48.39217],[21.66739,48.39786],[21.66344,48.41792],[21.65956,48.418],[21.6505,48.4375],[21.63983,48.44739],[21.63014,48.4515],[21.62836,48.45647],[21.63056,48.45939],[21.62228,48.46608],[21.62122,48.49214],[21.61839,48.49764],[21.61461,48.49781],[21.61394,48.50942],[21.60961,48.51061],[21.60569,48.50747],[21.59461,48.51325],[21.586,48.51136],[21.57972,48.50469],[21.56564,48.50528],[21.56117,48.51153],[21.54203,48.50839],[21.54122,48.51339],[21.52522,48.52264],[21.52144,48.53453],[21.51614,48.53886],[21.51836,48.54692],[21.51408,48.55106],[21.47114,48.56617],[21.45828,48.57533],[21.44808,48.57675],[21.43947,48.58525],[21.42886,48.58356],[21.42267,48.57883],[21.42175,48.56347],[21.41656,48.55931],[21.40619,48.55997],[21.40019,48.56386],[21.37961,48.55819],[21.31856,48.56058],[21.31603,48.55786],[21.32619,48.55611],[21.32656,48.5535],[21.31333,48.55069],[21.32147,48.548],[21.31628,48.54358],[21.31839,48.53992],[21.31156,48.54047],[21.30992,48.53742],[21.31319,48.53669],[21.31475,48.53131],[21.30311,48.52725],[21.30867,48.52592],[21.30586,48.52239],[21.29667,48.52167],[21.27056,48.52742],[21.26919,48.52533],[21.23928,48.53967],[21.23292,48.53906],[21.23331,48.53417],[21.22106,48.5375],[21.21656,48.53153],[21.20928,48.5335],[21.20914,48.52736],[21.19964,48.52464],[21.19247,48.52653],[21.19122,48.52264],[21.18803,48.52433],[21.17883,48.51828],[21.17358,48.52192],[21.16108,48.52158],[21.15947,48.51794],[21.15278,48.51692],[21.14267,48.5085],[21.13394,48.49542],[21.11744,48.49106],[21.10114,48.49456],[21.09428,48.50111],[21.09769,48.50392],[21.09778,48.51097],[21.08969,48.51778],[21.07331,48.52122],[21.06633,48.52589],[21.05336,48.52214],[21.05275,48.52514],[21.01511,48.53231],[21.00408,48.52736],[20.99242,48.52706],[20.98158,48.51778],[20.97611,48.5245],[20.96539,48.52042],[20.95619,48.52167],[20.95589,48.53397],[20.94094,48.53503],[20.94153,48.54211],[20.93469,48.54119],[20.92914,48.55353],[20.92017,48.55942],[20.87711,48.55078],[20.87519,48.55369],[20.86817,48.55181],[20.85408,48.56697],[20.84711,48.56811],[20.85044,48.58164],[20.83781,48.57422],[20.83539,48.5765],[20.83958,48.58025],[20.83636,48.58283],[20.79978,48.57464],[20.73392,48.57008],[20.73475,48.56669],[20.71314,48.57039],[20.67861,48.56042],[20.65386,48.56142],[20.64717,48.55394],[20.64153,48.55525],[20.63392,48.55092],[20.62325,48.55064],[20.61642,48.54372],[20.60014,48.54261],[20.58719,48.53886],[20.58658,48.53575],[20.5465,48.54431],[20.53747,48.52789],[20.52522,48.53039],[20.51911,48.53753],[20.5065,48.53442],[20.50197,48.52725],[20.50453,48.52586],[20.50342,48.51958],[20.51044,48.51228],[20.50731,48.5095],[20.50647,48.48878],[20.49508,48.48767],[20.48878,48.47583],[20.46425,48.46408],[20.46953,48.45989],[20.47008,48.45483],[20.45142,48.44825],[20.43447,48.43006],[20.41876,48.42073]]]]}}]}