{"type":"FeatureCollection","features":[{"type":"Feature","properties":{"ISO_A3":"SVN","WB_A3":"SVN","WB_NAME":"Slovenia","WB_REGION":"ECS"},"geometry":{"type":"MultiPolygon","coordinates":[[[[15.30091,45.53849],[15.30631,45.53211],[15.31422,45.53165],[15.31386,45.52476],[15.32632,45.51975],[15.33318,45.50992],[15.36398,45.49451],[15.3718,45.49669],[15.38579,45.48895],[15.38478,45.48589],[15.36081,45.47769],[15.34631,45.45662],[15.32922,45.45276],[15.27252,45.4657],[15.24369,45.453],[15.22176,45.42557],[15.20157,45.42704],[15.19608,45.43529],[15.19188,45.43591],[15.18844,45.43341],[15.18952,45.42826],[15.17665,45.42149],[15.15509,45.42573],[15.14713,45.43101],[15.13952,45.44345],[15.12282,45.44737],[15.10571,45.46158],[15.08466,45.46848],[15.08656,45.48136],[15.08405,45.48321],[15.07812,45.48236],[15.07181,45.48745],[15.05975,45.48838],[15.05479,45.49441],[15.02831,45.48567],[15.01398,45.49708],[14.98905,45.49611],[14.93197,45.52936],[14.92104,45.52776],[14.91951,45.52279],[14.91472,45.52036],[14.91304,45.51101],[14.91655,45.50482],[14.9118,45.49922],[14.91547,45.49371],[14.91043,45.48827],[14.91153,45.48137],[14.9064,45.47666],[14.87493,45.47232],[14.86666,45.46603],[14.8181,45.45936],[14.81546,45.47223],[14.80521,45.47873],[14.80535,45.48684],[14.79903,45.49197],[14.80358,45.49528],[14.7966,45.50275],[14.7889,45.50019],[14.78578,45.50697],[14.76779,45.50618],[14.76789,45.51244],[14.75871,45.5108],[14.73829,45.52441],[14.73483,45.5298],[14.73169,45.52858],[14.72067,45.53419],[14.70346,45.53469],[14.70026,45.52553],[14.69058,45.52662],[14.68497,45.5351],[14.6903,45.54757],[14.68887,45.55295],[14.69535,45.55568],[14.70024,45.56274],[14.69286,45.57735],[14.6779,45.58946],[14.6512,45.59185],[14.63837,45.60449],[14.63096,45.60465],[14.62717,45.61397],[14.61325,45.61666],[14.59584,45.62786],[14.60199,45.63423],[14.60137,45.64367],[14.6095,45.65857],[14.59715,45.66875],[14.58339,45.66465],[14.56995,45.673],[14.56637,45.65249],[14.54358,45.62217],[14.52599,45.61032],[14.50189,45.60834],[14.50697,45.58853],[14.49882,45.57604],[14.50038,45.56741],[14.49749,45.55929],[14.50019,45.54927],[14.49056,45.53806],[14.47548,45.53376],[14.45501,45.51985],[14.44182,45.51657],[14.43725,45.51077],[14.4157,45.5099],[14.39979,45.50282],[14.39368,45.49361],[14.36284,45.48437],[14.35074,45.48559],[14.32262,45.47047],[14.3167,45.48297],[14.30594,45.4802],[14.29095,45.48487],[14.2866,45.4903],[14.27905,45.4903],[14.26457,45.48266],[14.24554,45.50341],[14.2374,45.50581],[14.22338,45.50139],[14.22006,45.49341],[14.20958,45.48729],[14.20635,45.4821],[14.20924,45.47978],[14.20662,45.47853],[14.20765,45.46923],[14.17311,45.47953],[14.15406,45.48107],[14.14353,45.47536],[14.13384,45.47564],[14.11639,45.48137],[14.09137,45.48188],[14.07054,45.48543],[14.04961,45.49852],[14.04375,45.49811],[14.01108,45.51971],[14.00192,45.51995],[13.99757,45.51604],[14.00188,45.50805],[13.97458,45.51503],[13.96216,45.50592],[13.96567,45.4962],[13.9816,45.49137],[13.99174,45.48313],[13.98752,45.48229],[13.99674,45.47218],[13.98523,45.46864],[13.98721,45.45899],[13.98502,45.45608],[13.97072,45.4477],[13.95712,45.45566],[13.91483,45.45357],[13.89763,45.44181],[13.89809,45.43827],[13.89288,45.43785],[13.88707,45.42587],[13.85427,45.42554],[13.85513,45.42837],[13.85046,45.43238],[13.81494,45.43414],[13.81178,45.44206],[13.80319,45.44421],[13.8079,45.45566],[13.78627,45.46627],[13.77689,45.46428],[13.76745,45.46753],[13.75915,45.46239],[13.72653,45.45989],[13.72328,45.45623],[13.70814,45.45241],[13.708,45.45622],[13.70314,45.45649],[13.67561,45.44256],[13.66496,45.44707],[13.66146,45.45196],[13.64154,45.45966],[13.60096,45.46772],[13.58561,45.47842],[13.59237,45.48341],[13.59186,45.48931],[13.58433,45.49845],[13.59368,45.50395],[13.59254,45.51317],[13.57319,45.51345],[13.56855,45.51647],[13.56644,45.52773],[13.5629,45.53076],[13.57945,45.52558],[13.59916,45.5257],[13.60259,45.52715],[13.60143,45.53714],[13.61377,45.54024],[13.63109,45.53327],[13.64499,45.53202],[13.6573,45.53614],[13.65571,45.54177],[13.66965,45.53911],[13.677,45.54471],[13.69206,45.54847],[13.71957,45.54301],[13.7256,45.55091],[13.734,45.55061],[13.73132,45.55636],[13.73589,45.56385],[13.74647,45.56473],[13.74129,45.56763],[13.74078,45.57391],[13.71169,45.58435],[13.70316,45.58965],[13.70419,45.59248],[13.71921,45.59085],[13.72259,45.59472],[13.74687,45.59794],[13.78706,45.58293],[13.83901,45.58224],[13.85105,45.58628],[13.85434,45.59274],[13.86562,45.59683],[13.86873,45.60919],[13.89073,45.61697],[13.91873,45.63358],[13.87483,45.65469],[13.83358,45.6872],[13.83134,45.69482],[13.83574,45.69774],[13.83396,45.70704],[13.81084,45.72318],[13.79495,45.74381],[13.76737,45.75044],[13.76224,45.75613],[13.74578,45.7553],[13.6863,45.79006],[13.68034,45.79283],[13.67444,45.79069],[13.66938,45.79972],[13.63749,45.79823],[13.63749,45.80134],[13.62401,45.79607],[13.62375,45.80025],[13.60322,45.8044],[13.59576,45.80883],[13.59696,45.81959],[13.5923,45.82341],[13.58786,45.8354],[13.57477,45.84212],[13.57548,45.85367],[13.57986,45.85642],[13.58723,45.87127],[13.59284,45.87449],[13.5868,45.88248],[13.5961,45.89494],[13.60891,45.89922],[13.6181,45.9158],[13.63799,45.93518],[13.63333,45.948],[13.64002,45.97116],[13.6395,45.97953],[13.64288,45.98296],[13.63327,45.98914],[13.61837,45.98326],[13.59079,45.99001],[13.57763,45.98311],[13.56783,45.96849],[13.5516,45.97056],[13.54187,45.96479],[13.52826,45.96698],[13.52655,45.97264],[13.51767,45.97494],[13.51363,45.97989],[13.50154,45.9805],[13.47767,46.00561],[13.47962,46.01144],[13.49437,46.01484],[13.50809,46.03395],[13.5098,46.04203],[13.5071,46.0459],[13.49626,46.04839],[13.49642,46.05847],[13.50425,46.06262],[13.51352,46.06189],[13.53004,46.0665],[13.52971,46.07024],[13.5335,46.06954],[13.53396,46.07275],[13.54322,46.07836],[13.54366,46.08272],[13.55033,46.08189],[13.56186,46.08748],[13.57263,46.08836],[13.58312,46.10044],[13.59654,46.10468],[13.60143,46.11273],[13.62388,46.12417],[13.63467,46.13488],[13.64446,46.13763],[13.65561,46.15481],[13.65372,46.16134],[13.66672,46.1741],[13.66443,46.17757],[13.65718,46.18534],[13.63362,46.19196],[13.61454,46.18436],[13.61274,46.18933],[13.58595,46.19047],[13.57312,46.18431],[13.56529,46.18696],[13.56606,46.19517],[13.56219,46.19806],[13.56202,46.20423],[13.54561,46.21216],[13.52951,46.21218],[13.52888,46.21896],[13.51526,46.21496],[13.50227,46.21579],[13.49731,46.21837],[13.49764,46.22163],[13.48266,46.22485],[13.444,46.22541],[13.44817,46.21622],[13.44618,46.2128],[13.42341,46.20622],[13.40912,46.21488],[13.41644,46.22242],[13.41307,46.2277],[13.42218,46.23099],[13.42255,46.23451],[13.40542,46.24416],[13.39348,46.26586],[13.39235,46.28217],[13.38648,46.29059],[13.37996,46.28903],[13.3756,46.29824],[13.40277,46.30006],[13.40658,46.30586],[13.41858,46.30578],[13.41527,46.31494],[13.41805,46.3181],[13.42561,46.32255],[13.43701,46.32158],[13.44773,46.33064],[13.44911,46.33517],[13.43699,46.35444],[13.43895,46.36011],[13.44849,46.36295],[13.46832,46.36068],[13.48282,46.36892],[13.51601,46.37658],[13.5169,46.38298],[13.52747,46.38819],[13.53866,46.3864],[13.54265,46.39146],[13.55195,46.39244],[13.55893,46.39858],[13.56567,46.39804],[13.57778,46.40911],[13.57862,46.42548],[13.59777,46.43925],[13.61092,46.44147],[13.61682,46.43912],[13.62063,46.44211],[13.64864,46.44616],[13.65363,46.44393],[13.65468,46.43949],[13.68909,46.44009],[13.69872,46.45655],[13.69391,46.46801],[13.70953,46.4802],[13.70378,46.48428],[13.70561,46.49274],[13.70247,46.49877],[13.71673,46.50686],[13.71392,46.523],[13.72142,46.52344],[13.73732,46.51709],[13.77856,46.51617],[13.78017,46.51216],[13.79478,46.50535],[13.81178,46.50607],[13.82703,46.51361],[13.83105,46.51863],[13.85636,46.51391],[13.87891,46.51916],[13.88197,46.52279],[13.90127,46.5188],[13.91174,46.52111],[13.94278,46.5115],[13.96736,46.49786],[13.97572,46.49824],[13.98885,46.49287],[13.98981,46.48819],[14.0064,46.48141],[14.01922,46.48135],[14.03421,46.49088],[14.05139,46.4932],[14.07134,46.48711],[14.09456,46.48492],[14.10249,46.47892],[14.12099,46.47668],[14.13545,46.45779],[14.13498,46.45102],[14.15203,46.44137],[14.15247,46.43734],[14.17009,46.43317],[14.19246,46.44241],[14.20752,46.43933],[14.21573,46.44314],[14.22176,46.44193],[14.22683,46.4359],[14.23713,46.43225],[14.28327,46.44349],[14.3027,46.43748],[14.3082,46.43065],[14.32616,46.43101],[14.34471,46.43697],[14.38151,46.43904],[14.4014,46.44485],[14.42961,46.44701],[14.43778,46.44301],[14.43868,46.44077],[14.43019,46.43721],[14.44212,46.42814],[14.44255,46.42329],[14.46701,46.42197],[14.47815,46.41792],[14.47826,46.4139],[14.48442,46.41547],[14.4922,46.41288],[14.5034,46.42305],[14.52181,46.4272],[14.53204,46.41471],[14.5399,46.4115],[14.54185,46.40407],[14.55365,46.3915],[14.55592,46.37865],[14.56344,46.37231],[14.57862,46.37748],[14.5816,46.38162],[14.57861,46.3832],[14.58755,46.39642],[14.58652,46.40421],[14.58934,46.41025],[14.58834,46.41474],[14.58327,46.41594],[14.58414,46.42278],[14.58669,46.42833],[14.59629,46.43401],[14.59604,46.43682],[14.63164,46.43953],[14.65991,46.4446],[14.66643,46.44984],[14.67478,46.45072],[14.67924,46.45778],[14.6756,46.46183],[14.68326,46.46789],[14.69306,46.46382],[14.70235,46.4672],[14.69754,46.47449],[14.7093,46.48111],[14.71479,46.49997],[14.72973,46.49159],[14.74141,46.50526],[14.74841,46.49764],[14.75877,46.50405],[14.77689,46.5046],[14.78428,46.49955],[14.81859,46.50937],[14.81802,46.52248],[14.82185,46.52438],[14.82349,46.53633],[14.82982,46.53858],[14.82318,46.54315],[14.82615,46.54805],[14.83231,46.54874],[14.83803,46.55817],[14.83457,46.56333],[14.83937,46.56733],[14.83799,46.56908],[14.85577,46.5862],[14.85787,46.59305],[14.86475,46.59332],[14.87023,46.60714],[14.88955,46.61251],[14.9054,46.60524],[14.91658,46.60505],[14.91899,46.60192],[14.92334,46.6035],[14.92059,46.61756],[14.92286,46.62011],[14.93111,46.61525],[14.95602,46.63255],[14.97114,46.62373],[14.97943,46.60136],[14.99599,46.61534],[14.99463,46.62113],[15.01615,46.64078],[15.044,46.65211],[15.06527,46.65196],[15.08254,46.64515],[15.08905,46.65231],[15.09744,46.65286],[15.11077,46.65961],[15.11616,46.65482],[15.1312,46.65066],[15.13414,46.6566],[15.14497,46.65978],[15.15474,46.65596],[15.16452,46.6573],[15.16687,46.65416],[15.18118,46.65631],[15.1972,46.64576],[15.22436,46.64339],[15.23573,46.63944],[15.26214,46.64469],[15.27699,46.64349],[15.29425,46.65257],[15.31108,46.65222],[15.32167,46.64806],[15.32846,46.65326],[15.34113,46.65088],[15.35358,46.65501],[15.35574,46.65147],[15.3701,46.64989],[15.41368,46.65555],[15.42047,46.65489],[15.42323,46.65265],[15.42184,46.64741],[15.43025,46.64669],[15.43926,46.63987],[15.44954,46.64243],[15.45675,46.63898],[15.45502,46.63016],[15.46219,46.62599],[15.46392,46.61459],[15.47281,46.61196],[15.48813,46.62069],[15.50399,46.6143],[15.53711,46.63387],[15.54565,46.63344],[15.55105,46.64029],[15.54427,46.64388],[15.54682,46.64877],[15.55139,46.64769],[15.55318,46.65021],[15.54379,46.66933],[15.55921,46.6711],[15.56742,46.67538],[15.56833,46.67982],[15.5781,46.68094],[15.59502,46.68999],[15.60855,46.68765],[15.60429,46.68472],[15.6055,46.68122],[15.63312,46.68172],[15.63667,46.69024],[15.65399,46.69278],[15.6541,46.6994],[15.64981,46.70505],[15.6524,46.70615],[15.67657,46.7068],[15.69885,46.69842],[15.72104,46.69587],[15.74318,46.6999],[15.76881,46.69905],[15.80282,46.71584],[15.83683,46.72233],[15.87668,46.71989],[15.91436,46.70915],[15.95096,46.68803],[15.99666,46.68126],[16.00175,46.67846],[16.00938,46.6659],[16.0381,46.65615],[16.04251,46.68613],[16.0293,46.70029],[16.02787,46.7122],[16.02078,46.71115],[16.01636,46.71616],[16.00342,46.71736],[16.00367,46.7227],[15.99284,46.73213],[15.98488,46.75163],[15.98974,46.75821],[15.98863,46.77585],[15.99399,46.79372],[15.99221,46.80278],[15.99747,46.80799],[15.9977,46.8112],[15.98747,46.82038],[15.98607,46.8275],[15.99142,46.83308],[15.99618,46.83537],[16.00798,46.8308],[16.01348,46.83593],[16.02793,46.84102],[16.0338,46.8355],[16.04131,46.84005],[16.05837,46.83866],[16.06597,46.84605],[16.06564,46.84988],[16.079,46.8526],[16.09207,46.86461],[16.09761,46.86101],[16.11115,46.86916],[16.11691,46.86709],[16.11684,46.86391],[16.12401,46.86317],[16.12656,46.85691],[16.15606,46.85373],[16.16275,46.85939],[16.17845,46.85851],[16.18913,46.86645],[16.21575,46.86849],[16.2314,46.87595],[16.26693,46.87174],[16.29133,46.87286],[16.30149,46.85947],[16.31892,46.85595],[16.32957,46.84463],[16.33973,46.84652],[16.33909,46.84307],[16.3477,46.84072],[16.35047,46.83248],[16.3506,46.82982],[16.34461,46.82973],[16.34372,46.82192],[16.34025,46.8218],[16.33989,46.80402],[16.31278,46.7975],[16.31219,46.77801],[16.32957,46.77815],[16.31858,46.75545],[16.33256,46.74844],[16.3348,46.7434],[16.34637,46.73542],[16.35624,46.71616],[16.37012,46.72156],[16.37972,46.71548],[16.37941,46.711],[16.36864,46.70428],[16.38048,46.69858],[16.42858,46.69399],[16.4232,46.68625],[16.42035,46.67415],[16.42521,46.67167],[16.41843,46.66462],[16.41924,46.65979],[16.40312,46.65882],[16.40341,46.66126],[16.39597,46.66473],[16.39122,46.65649],[16.38525,46.6539],[16.38589,46.64428],[16.39206,46.64074],[16.38972,46.63987],[16.39177,46.63376],[16.40772,46.63077],[16.42484,46.61315],[16.44553,46.61097],[16.45221,46.60068],[16.4612,46.59697],[16.46912,46.58559],[16.47337,46.58763],[16.48413,46.57762],[16.48298,46.56608],[16.49997,46.56239],[16.50842,46.56522],[16.51873,46.55273],[16.51641,46.54205],[16.51854,46.53544],[16.53251,46.53134],[16.5309,46.52522],[16.52437,46.51965],[16.5258,46.51557],[16.53321,46.51447],[16.52992,46.50762],[16.5252,46.50868],[16.52358,46.50539],[16.56964,46.48775],[16.57986,46.47888],[16.59679,46.47591],[16.57505,46.47139],[16.5625,46.47443],[16.55454,46.48048],[16.54396,46.47611],[16.53287,46.4808],[16.51216,46.47886],[16.51762,46.48482],[16.51735,46.49156],[16.49289,46.49756],[16.48532,46.50315],[16.48819,46.50826],[16.48073,46.50888],[16.47738,46.51276],[16.47192,46.51105],[16.47135,46.51675],[16.4668,46.51751],[16.46576,46.51281],[16.46169,46.51446],[16.46543,46.51967],[16.46147,46.52069],[16.45972,46.51651],[16.44061,46.51501],[16.43802,46.51724],[16.44022,46.52617],[16.43152,46.52723],[16.43003,46.53216],[16.42474,46.53242],[16.42305,46.52787],[16.40996,46.53402],[16.4113,46.52741],[16.40686,46.52686],[16.40162,46.53224],[16.40274,46.53935],[16.38691,46.53611],[16.38573,46.54124],[16.37112,46.54334],[16.36907,46.54544],[16.37202,46.54753],[16.38212,46.54991],[16.36877,46.55502],[16.36554,46.5528],[16.36611,46.54676],[16.35146,46.54597],[16.35894,46.54204],[16.3588,46.53847],[16.35522,46.53846],[16.35523,46.54293],[16.34191,46.54553],[16.33706,46.54291],[16.34526,46.5396],[16.34113,46.53544],[16.3419,46.53025],[16.31291,46.52459],[16.31452,46.5201],[16.31077,46.52035],[16.30529,46.51297],[16.26597,46.51529],[16.26691,46.50491],[16.25994,46.50098],[16.24177,46.49851],[16.24076,46.48482],[16.25176,46.48155],[16.25811,46.47261],[16.25915,46.46109],[16.2657,46.45132],[16.26436,46.44358],[16.27414,46.4266],[16.27318,46.41478],[16.283,46.41462],[16.29916,46.40558],[16.30789,46.39649],[16.3042,46.39427],[16.3051,46.38633],[16.30166,46.37834],[16.26542,46.37609],[16.24815,46.38],[16.23875,46.37881],[16.23453,46.38621],[16.23003,46.38788],[16.22529,46.38677],[16.21979,46.37865],[16.21534,46.38524],[16.18903,46.37788],[16.19001,46.38631],[16.17555,46.38561],[16.17402,46.3906],[16.1478,46.40523],[16.13841,46.40488],[16.08868,46.38868],[16.05813,46.3936],[16.05242,46.38026],[16.07237,46.36501],[16.07755,46.34675],[16.07223,46.34097],[16.06367,46.34233],[16.05333,46.33516],[16.03631,46.33717],[16.02776,46.33186],[16.02866,46.32744],[16.01877,46.32167],[16.0218,46.3144],[16.0136,46.30879],[16.00154,46.30756],[15.98902,46.31456],[15.98842,46.3102],[15.97699,46.3123],[15.96703,46.29932],[15.94237,46.29005],[15.91688,46.28536],[15.91276,46.28966],[15.89885,46.28842],[15.89738,46.28386],[15.86664,46.27599],[15.8677,46.2708],[15.86322,46.26758],[15.79137,46.25923],[15.80146,46.24262],[15.79317,46.23535],[15.7941,46.22777],[15.78845,46.21899],[15.76742,46.20873],[15.75663,46.20707],[15.75032,46.21112],[15.75485,46.21704],[15.75291,46.21996],[15.74125,46.22167],[15.72988,46.21612],[15.72595,46.21917],[15.72896,46.22243],[15.70534,46.22233],[15.6779,46.22704],[15.64752,46.2168],[15.64123,46.20719],[15.64851,46.20335],[15.64803,46.19042],[15.64473,46.1867],[15.63609,46.18584],[15.63772,46.18178],[15.63333,46.17693],[15.60737,46.16683],[15.60931,46.1658],[15.60472,46.16075],[15.61417,46.15312],[15.59589,46.14623],[15.61153,46.13665],[15.61159,46.12552],[15.60492,46.11258],[15.61421,46.10693],[15.61257,46.10285],[15.61675,46.09906],[15.624,46.09776],[15.62106,46.08943],[15.63557,46.08322],[15.64854,46.08711],[15.64877,46.08288],[15.65582,46.08342],[15.6589,46.08039],[15.6575,46.07179],[15.66201,46.07025],[15.67297,46.07354],[15.67427,46.07045],[15.6813,46.06994],[15.6932,46.06287],[15.71572,46.05707],[15.72339,46.0518],[15.72349,46.04866],[15.7301,46.047],[15.72966,46.04131],[15.72309,46.04113],[15.71582,46.03502],[15.72005,46.02769],[15.71512,46.02728],[15.71428,46.01816],[15.70569,46.01523],[15.71518,46.00918],[15.7113,46.00359],[15.70031,45.9993],[15.70622,45.99411],[15.70141,45.98973],[15.70156,45.98526],[15.70507,45.98374],[15.70994,45.96197],[15.70832,45.94343],[15.71179,45.93938],[15.70766,45.93877],[15.70771,45.923],[15.70549,45.91976],[15.69986,45.91979],[15.69858,45.91467],[15.67917,45.90467],[15.68368,45.88872],[15.68837,45.88494],[15.68674,45.88165],[15.68111,45.88102],[15.68201,45.87357],[15.67777,45.86867],[15.69381,45.86036],[15.7092,45.84673],[15.70359,45.84494],[15.69896,45.84902],[15.68997,45.84221],[15.66513,45.84122],[15.64165,45.82048],[15.62883,45.83286],[15.61847,45.83406],[15.60894,45.84066],[15.58532,45.84646],[15.57304,45.8532],[15.56292,45.84391],[15.55987,45.8347],[15.55233,45.84012],[15.55109,45.84558],[15.53842,45.84767],[15.5392,45.83614],[15.52816,45.82407],[15.52084,45.82113],[15.5023,45.82181],[15.50285,45.82841],[15.49261,45.83193],[15.47897,45.8276],[15.47876,45.81996],[15.46565,45.81827],[15.47584,45.79791],[15.46947,45.79506],[15.42049,45.79603],[15.40811,45.79104],[15.39936,45.79178],[15.38222,45.77916],[15.37475,45.78062],[15.36878,45.77585],[15.36171,45.77674],[15.32587,45.7607],[15.29998,45.75487],[15.29522,45.74846],[15.27961,45.74342],[15.2599,45.72559],[15.25695,45.71952],[15.26677,45.71512],[15.26968,45.70727],[15.2839,45.71004],[15.28773,45.7057],[15.28799,45.69273],[15.2997,45.68602],[15.29916,45.69719],[15.311,45.69758],[15.30567,45.6888],[15.31085,45.68622],[15.31804,45.6744],[15.32246,45.6737],[15.32611,45.67548],[15.31881,45.69185],[15.31975,45.69618],[15.33264,45.70197],[15.33973,45.71469],[15.35814,45.71334],[15.35734,45.69884],[15.3647,45.69729],[15.36399,45.69155],[15.36022,45.68492],[15.35153,45.6846],[15.3481,45.67115],[15.34953,45.66952],[15.35553,45.67368],[15.35416,45.67546],[15.36299,45.67798],[15.36898,45.69313],[15.36927,45.68615],[15.37707,45.6766],[15.39167,45.66728],[15.39512,45.65392],[15.40652,45.64783],[15.3892,45.63748],[15.37463,45.64123],[15.37217,45.64548],[15.34398,45.64605],[15.3435,45.64142],[15.34969,45.64102],[15.35184,45.63736],[15.34051,45.63317],[15.32887,45.63507],[15.30619,45.63233],[15.30224,45.63012],[15.30167,45.62324],[15.30835,45.61417],[15.29287,45.61251],[15.27766,45.60517],[15.2841,45.59562],[15.29907,45.58384],[15.30091,45.53849]]]]}}]}