{"type":"FeatureCollection","features":[{"type":"Feature","properties":{"ISO_A3":"SWZ","WB_A3":"SWZ","WB_NAME":"Eswatini","WB_REGION":"AFE,SSF"},"geometry":{"type":"MultiPolygon","coordinates":[[[[30.90052,-26.3139],[30.96153,-26.26168],[30.96559,-26.25471],[31.0715,-26.06689],[31.11257,-25.98263],[31.12668,-25.92115],[31.26472,-25.80872],[31.31528,-25.74303],[31.32434,-25.74058],[31.41483,-25.71792],[31.86884,-25.99923],[31.97538,-25.95261],[32.00303,-25.99698],[32.01031,-25.99342],[32.02983,-26.00015],[32.08733,-26.00859],[32.08566,-26.02974],[32.10523,-26.16078],[32.07435,-26.30583],[32.07786,-26.40552],[32.13492,-26.5268],[32.13462,-26.84007],[32.11955,-26.83791],[32.10722,-26.81995],[32.10509,-26.80891],[32.09978,-26.80486],[32.07106,-26.80986],[32.05923,-26.81784],[32.04373,-26.81613],[32.03524,-26.80718],[32.02741,-26.80579],[32.01108,-26.81029],[32.0149,-26.82226],[31.99752,-26.92063],[32.00038,-26.93827],[31.98582,-27.00678],[31.97462,-27.11769],[31.97748,-27.3174],[31.4939,-27.31496],[31.1505,-27.20155],[31.06116,-27.096],[30.98469,-27.03666],[30.95817,-26.99213],[30.97341,-26.96438],[30.97685,-26.95086],[30.97679,-26.92114],[30.97288,-26.90758],[30.94328,-26.88891],[30.92899,-26.87472],[30.9073,-26.86013],[30.90697,-26.85502],[30.90279,-26.85199],[30.89337,-26.80433],[30.8925,-26.78387],[30.88893,-26.79075],[30.88838,-26.80357],[30.87135,-26.81016],[30.86207,-26.81894],[30.84798,-26.81936],[30.84481,-26.82469],[30.83624,-26.82665],[30.8228,-26.84134],[30.81327,-26.84439],[30.80289,-26.82498],[30.7909,-26.71504],[30.79103,-26.67562],[30.79179,-26.56946],[30.80516,-26.46665],[30.83077,-26.41112],[30.85779,-26.3836],[30.892,-26.32125],[30.90052,-26.3139]]]]}}]}