{"type":"FeatureCollection","features":[{"type":"Feature","properties":{"ISO_A3":"SYC","WB_A3":"SYC","WB_NAME":"Seychelles","WB_REGION":"AFE,SSF"},"geometry":{"type":"MultiPolygon","coordinates":[[[[56.25832,-7.17482],[56.28554,-7.09933],[56.29444,-7.0978],[56.28897,-7.13079],[56.27061,-7.15293],[56.25832,-7.17482]]],[[[55.93496,-4.58095],[55.94165,-4.57877],[55.95088,-4.58883],[55.9483,-4.59231],[55.93906,-4.59204],[55.93239,-4.58301],[55.93496,-4.58095]]],[[[55.9222,-4.35059],[55.91848,-4.34505],[55.92068,-4.33384],[55.92465,-4.3381],[55.9222,-4.35059]]],[[[55.88242,-4.32875],[55.88511,-4.33494],[55.87856,-4.33829],[55.86971,-4.3308],[55.86561,-4.32254],[55.86823,-4.31627],[55.87653,-4.3205],[55.88242,-4.32875]]],[[[55.86759,-4.29084],[55.86554,-4.28259],[55.87234,-4.28827],[55.87374,-4.29626],[55.87066,-4.29664],[55.86759,-4.29084]]],[[[55.85629,-4.29005],[55.85206,-4.2854],[55.85835,-4.28618],[55.85988,-4.29083],[55.85629,-4.29005]]],[[[55.83952,-4.34055],[55.85669,-4.36455],[55.85181,-4.36493],[55.85103,-4.36879],[55.84319,-4.37432],[55.84241,-4.38154],[55.83894,-4.38269],[55.83176,-4.37882],[55.82472,-4.36269],[55.83221,-4.3377],[55.83952,-4.34055]]],[[[55.78893,-4.34305],[55.78816,-4.34021],[55.79381,-4.34073],[55.78893,-4.34305]]],[[[55.68085,-4.29409],[55.70119,-4.2947],[55.70325,-4.28916],[55.70684,-4.28968],[55.72247,-4.3111],[55.73544,-4.30816],[55.73481,-4.30481],[55.73943,-4.30559],[55.74001,-4.3108],[55.75661,-4.3207],[55.76149,-4.32057],[55.76381,-4.31555],[55.77639,-4.31583],[55.78036,-4.31957],[55.77997,-4.32524],[55.79061,-4.33222],[55.7874,-4.33583],[55.77944,-4.33671],[55.77559,-4.33516],[55.77303,-4.32665],[55.76327,-4.3287],[55.75876,-4.3399],[55.76016,-4.34558],[55.77081,-4.35281],[55.76862,-4.35526],[55.76117,-4.35447],[55.76075,-4.35865],[55.75397,-4.36129],[55.7468,-4.35316],[55.72883,-4.34952],[55.72177,-4.34345],[55.7223,-4.33494],[55.71679,-4.32823],[55.69343,-4.326],[55.68535,-4.31942],[55.68383,-4.30859],[55.67884,-4.3002],[55.67807,-4.29569],[55.68085,-4.29409]]],[[[55.76361,-4.58454],[55.76272,-4.58041],[55.76516,-4.57861],[55.76361,-4.58454]]],[[[55.7612,-4.34016],[55.76377,-4.33888],[55.76491,-4.34481],[55.76132,-4.34403],[55.7612,-4.34016]]],[[[55.74024,-4.28187],[55.72803,-4.28469],[55.72965,-4.29149],[55.71238,-4.28208],[55.71277,-4.2777],[55.71688,-4.27642],[55.74384,-4.27788],[55.74024,-4.28187]]],[[[55.66871,-4.21486],[55.65947,-4.21291],[55.66025,-4.20982],[55.67052,-4.2101],[55.67436,-4.21397],[55.66871,-4.21486]]],[[[55.66423,-3.81493],[55.66143,-3.8023],[55.66733,-3.79779],[55.67181,-3.80412],[55.67065,-3.81004],[55.66423,-3.81493]]],[[[55.66286,-4.33484],[55.65978,-4.33149],[55.6639,-4.3275],[55.66569,-4.33175],[55.66286,-4.33484]]],[[[55.65178,-4.35415],[55.64434,-4.34963],[55.64563,-4.34718],[55.64948,-4.34822],[55.65178,-4.35415]]],[[[55.45877,-4.61797],[55.46197,-4.62339],[55.45812,-4.62325],[55.4576,-4.62621],[55.46223,-4.6248],[55.46684,-4.62778],[55.46546,-4.63061],[55.47197,-4.63398],[55.4717,-4.63939],[55.4822,-4.65565],[55.48708,-4.65153],[55.49068,-4.65257],[55.50085,-4.66093],[55.50195,-4.66574],[55.51274,-4.66576],[55.52659,-4.6761],[55.53443,-4.67406],[55.53403,-4.68231],[55.53067,-4.69016],[55.52527,-4.69285],[55.52113,-4.70805],[55.52776,-4.73333],[55.51836,-4.74001],[55.51577,-4.75134],[55.52536,-4.7725],[55.5238,-4.78255],[55.53675,-4.79263],[55.5393,-4.80191],[55.53711,-4.80474],[55.52376,-4.80123],[55.51835,-4.80663],[55.51477,-4.80031],[55.5018,-4.79487],[55.50105,-4.78585],[55.49734,-4.7821],[55.49245,-4.78222],[55.49388,-4.77526],[55.48254,-4.76667],[55.48581,-4.76468],[55.48518,-4.7603],[55.47915,-4.75603],[55.47427,-4.75718],[55.46705,-4.76618],[55.46219,-4.7587],[55.46528,-4.75407],[55.46196,-4.74659],[55.46737,-4.7408],[55.47635,-4.74262],[55.49114,-4.73737],[55.49025,-4.73093],[55.47974,-4.72265],[55.47693,-4.71517],[55.48156,-4.71415],[55.48182,-4.70951],[55.47721,-4.70409],[55.47129,-4.70807],[55.46757,-4.70665],[55.45694,-4.69335],[55.45683,-4.68601],[55.45041,-4.68264],[55.4485,-4.67774],[55.43385,-4.67758],[55.42539,-4.67369],[55.40988,-4.6591],[55.40101,-4.66281],[55.39357,-4.657],[55.39486,-4.65365],[55.39923,-4.65417],[55.39962,-4.65031],[55.38615,-4.64474],[55.3864,-4.64809],[55.37869,-4.64936],[55.36612,-4.64327],[55.36664,-4.63889],[55.37973,-4.64253],[55.38051,-4.63918],[55.3736,-4.63144],[55.3916,-4.61949],[55.40804,-4.61837],[55.42989,-4.6112],[55.4323,-4.56791],[55.43565,-4.56121],[55.45208,-4.56305],[55.46604,-4.58113],[55.45664,-4.59502],[55.46118,-4.6056],[55.45971,-4.59864],[55.46357,-4.59826],[55.471,-4.60665],[55.46329,-4.61031],[55.46352,-4.61991],[55.45877,-4.61797]]],[[[55.51339,-4.6021],[55.50798,-4.60995],[55.49603,-4.61341],[55.49901,-4.5995],[55.5039,-4.59706],[55.51339,-4.6021]]],[[[55.50512,-4.62528],[55.51077,-4.62529],[55.51231,-4.62865],[55.50512,-4.62528]]],[[[55.49304,-4.62887],[55.50254,-4.6294],[55.50638,-4.63766],[55.4979,-4.63815],[55.49226,-4.63402],[55.49304,-4.62887]]],[[[55.47991,-4.64379],[55.47351,-4.63527],[55.47979,-4.6376],[55.48274,-4.64173],[55.47991,-4.64379]]],[[[55.46967,-4.62546],[55.47071,-4.62031],[55.47275,-4.62599],[55.46967,-4.62546]]],[[[55.46205,-4.58833],[55.46411,-4.58602],[55.46564,-4.59169],[55.46126,-4.59761],[55.45793,-4.59399],[55.46205,-4.58833]]],[[[55.40457,-4.67996],[55.39777,-4.6735],[55.39791,-4.66822],[55.4051,-4.67146],[55.40688,-4.67713],[55.40457,-4.67996]]],[[[55.38377,-5.86957],[55.38211,-5.86183],[55.38509,-5.85785],[55.38725,-5.86546],[55.38377,-5.86957]]],[[[55.37249,-4.66661],[55.3635,-4.66505],[55.36042,-4.66233],[55.36172,-4.65899],[55.37249,-4.66661]]],[[[55.23776,-4.51321],[55.22467,-4.51073],[55.22482,-4.50222],[55.20688,-4.4862],[55.20652,-4.47409],[55.21399,-4.46586],[55.23659,-4.46553],[55.24351,-4.47005],[55.25221,-4.48477],[55.25503,-4.484],[55.25579,-4.48864],[55.25232,-4.49121],[55.24701,-4.51001],[55.23776,-4.51321]]],[[[55.24341,-4.4015],[55.23869,-4.39273],[55.23909,-4.38294],[55.24474,-4.38347],[55.25037,-4.3934],[55.25319,-4.39354],[55.25318,-4.39689],[55.24341,-4.4015]]],[[[55.20306,-3.72737],[55.20309,-3.71255],[55.20719,-3.71256],[55.21038,-3.72055],[55.20306,-3.72737]]],[[[53.67905,-5.68804],[53.67522,-5.69205],[53.66661,-5.69274],[53.66522,-5.69841],[53.64956,-5.70376],[53.64965,-5.69539],[53.65438,-5.69086],[53.668,-5.68848],[53.68748,-5.67551],[53.69237,-5.67562],[53.68624,-5.68633],[53.67905,-5.68804]]],[[[53.3618,-5.44316],[53.3577,-5.44549],[53.35435,-5.44319],[53.35522,-5.43571],[53.34991,-5.42762],[53.36408,-5.43439],[53.36539,-5.44108],[53.3618,-5.44316]]],[[[53.34503,-5.42622],[53.33885,-5.42444],[53.33884,-5.42186],[53.34503,-5.42622]]],[[[53.32518,-5.4129],[53.32593,-5.4071],[53.32824,-5.40722],[53.32518,-5.4129]]],[[[53.31304,-5.11965],[53.30944,-5.11927],[53.31431,-5.11385],[53.31304,-5.11965]]],[[[53.30132,-5.75395],[53.2991,-5.74533],[53.30797,-5.74387],[53.31286,-5.74643],[53.31391,-5.74965],[53.30722,-5.7498],[53.30132,-5.75395]]],[[[53.2998,-5.76027],[53.30443,-5.7587],[53.30368,-5.76437],[53.30587,-5.76488],[53.30597,-5.75767],[53.30962,-5.77079],[53.31256,-5.76743],[53.31209,-5.77774],[53.30863,-5.78058],[53.29983,-5.76774],[53.29775,-5.76182],[53.2998,-5.76027]]],[[[53.29565,-5.42216],[53.29128,-5.42153],[53.291,-5.41509],[53.30101,-5.41003],[53.30538,-5.41091],[53.30438,-5.41826],[53.29565,-5.42216]]],[[[53.14455,-6.18547],[53.14014,-6.17647],[53.14399,-6.17375],[53.14698,-6.18056],[53.14455,-6.18547]]],[[[53.04255,-6.23869],[53.03984,-6.23561],[53.04355,-6.23134],[53.04781,-6.23403],[53.04255,-6.23869]]],[[[52.76626,-7.0958],[52.76106,-7.09411],[52.76161,-7.08942],[52.76626,-7.0958]]],[[[52.73887,-7.16066],[52.73435,-7.15849],[52.73463,-7.14483],[52.73989,-7.15537],[52.74544,-7.15612],[52.73887,-7.16066]]],[[[52.74357,-7.15053],[52.73776,-7.14691],[52.74298,-7.14676],[52.74357,-7.15053]]],[[[52.73856,-7.14589],[52.73591,-7.14606],[52.73471,-7.14046],[52.7424,-7.13737],[52.74237,-7.14269],[52.73856,-7.14589]]],[[[52.73823,-7.13746],[52.73366,-7.13271],[52.7374,-7.12932],[52.73823,-7.13746]]],[[[52.72151,-7.00134],[52.72511,-6.99836],[52.7365,-7.00747],[52.73031,-7.00891],[52.7244,-7.01537],[52.72151,-7.00134]]],[[[51.17786,-10.15374],[51.17435,-10.15232],[51.18553,-10.1384],[51.1824,-10.12319],[51.17758,-10.11559],[51.17004,-10.11636],[51.16302,-10.12436],[51.15807,-10.12011],[51.17393,-10.10592],[51.18396,-10.11649],[51.18865,-10.13246],[51.18709,-10.14381],[51.17786,-10.15374]]],[[[51.15421,-10.20633],[51.15057,-10.20517],[51.15018,-10.19822],[51.16578,-10.17501],[51.16746,-10.16367],[51.17344,-10.15928],[51.17813,-10.16443],[51.15421,-10.20633]]],[[[51.12872,-10.22748],[51.12638,-10.2271],[51.12716,-10.22168],[51.13444,-10.22271],[51.12872,-10.22748]]],[[[51.0339,-9.24255],[51.02754,-9.22257],[51.03078,-9.20917],[51.03454,-9.22128],[51.0339,-9.24255]]],[[[50.98978,-9.54183],[50.98614,-9.53887],[50.99056,-9.53474],[50.99302,-9.53938],[50.98978,-9.54183]]],[[[50.98666,-9.53784],[50.98368,-9.52289],[50.98744,-9.51077],[50.9903,-9.51129],[50.98524,-9.51825],[50.98446,-9.52546],[50.98835,-9.5283],[50.98666,-9.53784]]],[[[50.72584,-9.33757],[50.72052,-9.3346],[50.72221,-9.32777],[50.73311,-9.32739],[50.73362,-9.33499],[50.72584,-9.33757]]],[[[47.73397,-10.10853],[47.72259,-10.09936],[47.72017,-10.08985],[47.73396,-10.07557],[47.7421,-10.05555],[47.75438,-10.06408],[47.7598,-10.07433],[47.76173,-10.08796],[47.75266,-10.10516],[47.73659,-10.1107],[47.73617,-10.10671],[47.74436,-10.10767],[47.75031,-10.10479],[47.75924,-10.08541],[47.75904,-10.0764],[47.75093,-10.07028],[47.75218,-10.06435],[47.74479,-10.06622],[47.72961,-10.09904],[47.73397,-10.10853]]],[[[47.65684,-9.72728],[47.65542,-9.7121],[47.65874,-9.72186],[47.65684,-9.72728]]],[[[47.63921,-9.76282],[47.63478,-9.76067],[47.64934,-9.74794],[47.65057,-9.73866],[47.64599,-9.73432],[47.6556,-9.73514],[47.65209,-9.74998],[47.63921,-9.76282]]],[[[47.57931,-9.77204],[47.5728,-9.76977],[47.59485,-9.7678],[47.57931,-9.77204]]],[[[47.50862,-9.72801],[47.50489,-9.71478],[47.51234,-9.70442],[47.52739,-9.70405],[47.51057,-9.7101],[47.50862,-9.72801]]],[[[46.5043,-9.75376],[46.49247,-9.75239],[46.49035,-9.74312],[46.4928,-9.7377],[46.51222,-9.72447],[46.51567,-9.71183],[46.51315,-9.7005],[46.51936,-9.69635],[46.52606,-9.71204],[46.52561,-9.72854],[46.51312,-9.75075],[46.5043,-9.75376]]],[[[46.46058,-9.38761],[46.45443,-9.38946],[46.4526,-9.3856],[46.4557,-9.38237],[46.4466,-9.37996],[46.44295,-9.37404],[46.45463,-9.37464],[46.49177,-9.38312],[46.52063,-9.39665],[46.52363,-9.40076],[46.52396,-9.41545],[46.51663,-9.4312],[46.50914,-9.43845],[46.45678,-9.45529],[46.43575,-9.45332],[46.42249,-9.4477],[46.40043,-9.44895],[46.36804,-9.46209],[46.33588,-9.4693],[46.29003,-9.49331],[46.25377,-9.49367],[46.23471,-9.48578],[46.22767,-9.47691],[46.20919,-9.42595],[46.20891,-9.42054],[46.21371,-9.41923],[46.21869,-9.43262],[46.22389,-9.43492],[46.2252,-9.4411],[46.23053,-9.44237],[46.23355,-9.45189],[46.24629,-9.457],[46.24293,-9.46307],[46.24774,-9.46396],[46.25097,-9.46034],[46.25539,-9.46316],[46.26005,-9.45824],[46.26215,-9.46416],[46.26772,-9.46337],[46.26475,-9.46776],[46.26788,-9.4711],[46.26943,-9.46774],[46.28579,-9.47],[46.29926,-9.46274],[46.30601,-9.46374],[46.31326,-9.45727],[46.32286,-9.45801],[46.32467,-9.45491],[46.34892,-9.45173],[46.3493,-9.44786],[46.362,-9.44317],[46.36746,-9.44702],[46.37964,-9.44259],[46.38171,-9.4391],[46.39158,-9.44228],[46.39649,-9.43659],[46.40714,-9.43939],[46.40765,-9.43655],[46.43127,-9.43594],[46.43449,-9.43129],[46.43317,-9.42485],[46.45275,-9.42322],[46.45588,-9.42656],[46.45895,-9.41624],[46.46704,-9.42703],[46.47299,-9.42262],[46.47637,-9.4239],[46.47666,-9.42931],[46.48159,-9.42955],[46.48764,-9.41947],[46.48516,-9.4151],[46.47413,-9.41515],[46.47161,-9.40124],[46.46562,-9.3974],[46.46663,-9.39031],[46.46058,-9.38761]]],[[[46.46332,-9.4054],[46.46122,-9.39897],[46.46511,-9.39921],[46.46605,-9.40642],[46.46332,-9.4054]]],[[[46.45471,-9.39513],[46.45573,-9.39074],[46.45988,-9.39072],[46.46199,-9.39716],[46.45471,-9.39513]]],[[[46.44748,-9.40314],[46.44934,-9.4137],[46.44648,-9.41294],[46.4449,-9.40599],[46.44748,-9.40314]]],[[[46.38116,-9.36759],[46.43931,-9.3738],[46.4401,-9.37612],[46.43208,-9.38156],[46.41212,-9.38628],[46.38512,-9.38278],[46.38134,-9.37919],[46.37681,-9.38333],[46.36903,-9.38413],[46.33865,-9.37858],[46.32206,-9.38341],[46.29999,-9.38117],[46.2949,-9.38355],[46.28726,-9.37683],[46.27896,-9.37725],[46.27946,-9.37158],[46.28982,-9.36832],[46.36716,-9.37009],[46.38116,-9.36759]]],[[[46.25534,-9.37605],[46.2465,-9.37067],[46.2779,-9.37107],[46.27532,-9.37546],[46.26675,-9.37394],[46.26287,-9.37885],[46.25534,-9.37605]]],[[[46.22165,-9.38879],[46.22271,-9.39523],[46.21207,-9.39707],[46.2095,-9.40468],[46.20664,-9.4025],[46.20361,-9.38885],[46.21005,-9.37905],[46.2247,-9.37126],[46.24105,-9.37146],[46.24257,-9.38597],[46.22165,-9.38879]]]]}}]}