{"type":"FeatureCollection","features":[{"type":"Feature","properties":{"ISO_A3":"SYR","WB_A3":"SYR","WB_NAME":"Syrian Arab Republic","WB_REGION":"MEA"},"geometry":{"type":"MultiPolygon","coordinates":[[[[42.34939,37.11276],[42.35286,37.09934],[42.3501,37.08872],[42.37521,37.0788],[42.37252,37.0695],[41.88555,36.63641],[41.81717,36.58778],[41.3994,36.52377],[41.28334,36.34897],[41.2845,36.29624],[41.27278,36.18194],[41.25591,36.0594],[41.36953,35.8429],[41.38207,35.62526],[41.26806,35.48472],[41.26541,35.38117],[41.22028,35.25889],[41.21789,35.20069],[41.20875,35.14278],[41.22486,34.82344],[41.22854,34.80345],[41.22566,34.79269],[41.22753,34.77739],[41.12253,34.65384],[41.01528,34.44458],[41.00434,34.43668],[40.98362,34.41246],[40.97774,34.39803],[40.64012,34.31513],[40.09081,34.04045],[39.06552,33.51715],[38.43328,33.18528],[38.35811,33.16641],[38.34166,33.13959],[38.32399,33.12755],[38.2211,33.07553],[38.21156,33.06786],[37.79854,32.84712],[37.79166,32.84203],[37.76682,32.77141],[37.75779,32.76167],[37.65256,32.73348],[37.6137,32.73233],[37.57255,32.72525],[37.50454,32.68308],[37.48422,32.66273],[37.46313,32.63216],[37.43698,32.60323],[37.39575,32.59081],[37.38671,32.58541],[37.38208,32.57594],[37.37287,32.56999],[37.33015,32.55446],[37.31315,32.55301],[37.28635,32.55701],[37.26276,32.55506],[37.25052,32.55043],[37.16713,32.5049],[37.14998,32.48584],[37.14539,32.47019],[37.10993,32.42398],[37.0873,32.41868],[37.00668,32.41697],[36.93967,32.38019],[36.92724,32.37881],[36.91841,32.37396],[36.91565,32.36824],[36.8684,32.34051],[36.83895,32.31184],[36.72513,32.32962],[36.71086,32.32183],[36.70064,32.33295],[36.66569,32.33945],[36.54556,32.35549],[36.51193,32.35732],[36.47371,32.37135],[36.4403,32.37151],[36.40202,32.37887],[36.39828,32.38455],[36.38534,32.38976],[36.37168,32.40007],[36.30625,32.45909],[36.29972,32.45996],[36.2418,32.49799],[36.23667,32.49983],[36.22355,32.49382],[36.21072,32.49435],[36.20516,32.5057],[36.20609,32.51872],[36.20191,32.5294],[36.16449,32.51487],[36.15593,32.52393],[36.12314,32.52508],[36.07821,32.51403],[36.07622,32.53379],[36.07913,32.5441],[36.07368,32.54956],[36.06861,32.56819],[36.0623,32.57694],[36.02979,32.59714],[36.02557,32.60261],[36.0238,32.61416],[36.02891,32.64006],[36.02375,32.6582],[35.96752,32.66237],[35.94813,32.68135],[35.94571,32.68626],[35.94893,32.69333],[35.93737,32.69998],[35.9398,32.70778],[35.93504,32.72059],[35.92006,32.72222],[35.918,32.71847],[35.91123,32.72329],[35.90481,32.71943],[35.90588,32.723],[35.90001,32.71839],[35.88576,32.717],[35.87344,32.73308],[35.85542,32.73107],[35.85272,32.72937],[35.85661,32.72649],[35.85417,32.72481],[35.84529,32.73171],[35.83709,32.7266],[35.82613,32.73397],[35.81054,32.73579],[35.80657,32.74063],[35.80464,32.73661],[35.80052,32.73659],[35.79895,32.74271],[35.79475,32.7438],[35.80015,32.74833],[35.79564,32.75512],[35.78669,32.74745],[35.75778,32.74522],[35.83713,32.82785],[35.84652,32.85389],[35.84437,32.87026],[35.85144,32.89038],[35.87373,32.92257],[35.88186,32.92688],[35.89624,32.9452],[35.87222,32.97523],[35.86764,32.98613],[35.84926,33.10244],[35.81589,33.11276],[35.81636,33.12625],[35.84109,33.16346],[35.83471,33.19255],[35.81282,33.20217],[35.81119,33.24791],[35.78021,33.26818],[35.77764,33.27823],[35.81147,33.31572],[35.77351,33.33263],[35.79122,33.3357],[35.81167,33.3522],[35.81816,33.35314],[35.82094,33.36041],[35.81559,33.36914],[35.81955,33.38676],[35.82847,33.3986],[35.84456,33.40786],[35.84613,33.41253],[35.85615,33.41334],[35.88398,33.42821],[35.88866,33.42714],[35.89814,33.43439],[35.89782,33.44129],[35.90303,33.44501],[35.91305,33.44576],[35.92604,33.45697],[35.93587,33.45364],[35.93852,33.4628],[35.94525,33.46478],[35.94579,33.46935],[35.95063,33.47058],[35.95303,33.47585],[35.94266,33.50536],[35.9326,33.51067],[35.93947,33.52081],[35.948,33.5231],[35.95582,33.52095],[35.96451,33.52511],[35.9727,33.53861],[35.9827,33.53025],[35.98893,33.53106],[35.98913,33.53404],[35.9968,33.53856],[36.01554,33.52355],[36.03994,33.55646],[36.05319,33.56739],[36.04744,33.57196],[36.04271,33.59329],[36.01566,33.60754],[36.01013,33.60742],[36.00364,33.61454],[35.99112,33.61441],[35.96987,33.62284],[35.95099,33.61723],[35.94203,33.62393],[35.93482,33.64951],[35.94105,33.65433],[35.95,33.67384],[35.96731,33.67501],[35.96945,33.68437],[35.97517,33.68896],[35.96802,33.7013],[35.97295,33.71016],[35.97017,33.71438],[35.97159,33.7201],[35.97712,33.72807],[35.98761,33.72774],[36.00109,33.74548],[36.00507,33.75757],[36.00943,33.75715],[36.01404,33.76301],[36.01963,33.75823],[36.03345,33.76562],[36.03621,33.77308],[36.04953,33.78573],[36.06283,33.81146],[36.09696,33.81772],[36.1102,33.82297],[36.11892,33.83134],[36.13538,33.83595],[36.14819,33.82918],[36.19157,33.84311],[36.19919,33.83347],[36.2081,33.83134],[36.21984,33.82099],[36.22806,33.81992],[36.23567,33.82825],[36.23883,33.82758],[36.23869,33.84224],[36.24405,33.85115],[36.25016,33.85306],[36.28178,33.8473],[36.29436,33.83943],[36.30623,33.84001],[36.31291,33.83745],[36.31554,33.83108],[36.32023,33.82888],[36.37583,33.82028],[36.38928,33.8246],[36.39149,33.82711],[36.39058,33.85259],[36.37052,33.86395],[36.36799,33.87481],[36.35211,33.87692],[36.33732,33.87456],[36.32934,33.87858],[36.32624,33.88482],[36.31879,33.88553],[36.31665,33.8945],[36.30648,33.8993],[36.29683,33.89903],[36.29366,33.90461],[36.28124,33.90652],[36.27898,33.90377],[36.27516,33.90754],[36.27744,33.91637],[36.28962,33.92199],[36.29187,33.92632],[36.30139,33.9291],[36.30249,33.94239],[36.31885,33.94271],[36.32011,33.94904],[36.3321,33.96615],[36.33189,33.97078],[36.34072,33.97351],[36.3424,33.97889],[36.3507,33.9802],[36.35396,33.98555],[36.3638,33.98245],[36.36926,33.99605],[36.38031,34.0025],[36.39017,33.99961],[36.39607,34.00122],[36.39706,34.00778],[36.3866,34.01783],[36.39085,34.02856],[36.40555,34.02818],[36.40714,34.03164],[36.40234,34.03967],[36.40558,34.04417],[36.42512,34.04039],[36.42268,34.04829],[36.42697,34.05419],[36.43203,34.0497],[36.44781,34.04914],[36.45568,34.04338],[36.47169,34.04328],[36.47902,34.0378],[36.48924,34.0491],[36.50102,34.048],[36.49982,34.05595],[36.51527,34.07393],[36.50759,34.09009],[36.51068,34.09949],[36.51523,34.10013],[36.5251,34.11385],[36.54098,34.12159],[36.54201,34.12668],[36.56664,34.1335],[36.56892,34.1412],[36.57361,34.14481],[36.56904,34.15203],[36.58263,34.15927],[36.58857,34.16789],[36.58671,34.17763],[36.59106,34.17976],[36.59272,34.18653],[36.60133,34.18617],[36.60531,34.19149],[36.62264,34.19491],[36.62375,34.20181],[36.60625,34.21823],[36.58927,34.22305],[36.58218,34.23],[36.58525,34.23715],[36.5846,34.24805],[36.59086,34.25576],[36.58864,34.2618],[36.59283,34.26772],[36.59157,34.2737],[36.58317,34.28143],[36.58914,34.28649],[36.59383,34.28373],[36.60204,34.29223],[36.59841,34.30433],[36.587,34.31073],[36.57742,34.30769],[36.55992,34.31532],[36.56307,34.32603],[36.5483,34.3339],[36.54363,34.35109],[36.53624,34.36452],[36.52871,34.37014],[36.55535,34.39123],[36.5581,34.40277],[36.55612,34.41232],[36.53265,34.4265],[36.53352,34.43002],[36.52889,34.43279],[36.52727,34.42814],[36.52341,34.42796],[36.52198,34.43476],[36.5119,34.43926],[36.51386,34.44377],[36.50819,34.44907],[36.49563,34.44975],[36.48562,34.4582],[36.47151,34.46001],[36.46354,34.46434],[36.45975,34.47953],[36.44938,34.48111],[36.44772,34.48416],[36.44631,34.50604],[36.42284,34.49911],[36.40919,34.50538],[36.40245,34.50049],[36.38595,34.49647],[36.38569,34.50114],[36.38073,34.50377],[36.37651,34.4995],[36.36848,34.49995],[36.36364,34.49691],[36.35219,34.50164],[36.33528,34.50273],[36.33653,34.51456],[36.33326,34.52361],[36.35935,34.52944],[36.39194,34.54346],[36.4111,34.55731],[36.41016,34.56398],[36.39993,34.57315],[36.4022,34.59162],[36.40735,34.60067],[36.40388,34.60727],[36.41488,34.61105],[36.41451,34.60595],[36.42722,34.60265],[36.43161,34.5933],[36.45201,34.59166],[36.45765,34.5992],[36.4607,34.61111],[36.45731,34.62455],[36.46102,34.62605],[36.46471,34.63667],[36.45453,34.63781],[36.42648,34.62569],[36.41735,34.62648],[36.40205,34.63764],[36.39051,34.63039],[36.38372,34.63216],[36.36547,34.64253],[36.35064,34.66032],[36.35023,34.67063],[36.35423,34.67371],[36.35567,34.68323],[36.3441,34.68953],[36.34065,34.68842],[36.33936,34.69195],[36.32174,34.68962],[36.31677,34.68363],[36.31148,34.68301],[36.30304,34.6675],[36.30868,34.65537],[36.3008,34.64019],[36.28791,34.63004],[36.2853,34.63242],[36.27644,34.62813],[36.27156,34.62966],[36.26616,34.62681],[36.24336,34.63558],[36.23769,34.62748],[36.22699,34.62933],[36.22701,34.62611],[36.22421,34.6261],[36.20476,34.63566],[36.1895,34.63734],[36.17039,34.62857],[36.16189,34.63338],[36.14085,34.63435],[36.12681,34.64218],[36.12163,34.64127],[36.11435,34.63352],[36.0986,34.63649],[36.09286,34.62917],[36.07847,34.6339],[36.07337,34.62829],[36.07314,34.63185],[36.06448,34.63556],[36.05444,34.63222],[36.05215,34.62769],[36.04628,34.6298],[36.03314,34.62755],[36.03224,34.63071],[36.02832,34.6297],[36.02378,34.63495],[36.00555,34.64244],[36.00679,34.64541],[35.98961,34.64373],[35.99004,34.65059],[35.98032,34.6491],[35.98143,34.64531],[35.97577,34.64275],[35.97805,34.63511],[35.97538,34.63375],[35.93213,34.73602],[35.9274,34.78263],[35.88484,34.86585],[35.87264,34.90031],[35.86861,34.90541],[35.86331,34.90541],[35.86332,34.91029],[35.87198,34.91265],[35.87955,34.91967],[35.87961,34.94792],[35.87414,34.96552],[35.87824,34.98906],[35.89328,34.99975],[35.8983,35.00913],[35.89423,35.03543],[35.88564,35.05747],[35.88558,35.06466],[35.89236,35.07966],[35.88683,35.10034],[35.88783,35.10648],[35.89323,35.10892],[35.8964,35.11886],[35.90568,35.12044],[35.91719,35.14958],[35.92364,35.15058],[35.92766,35.15793],[35.92329,35.17126],[35.92592,35.17492],[35.93176,35.18069],[35.95019,35.18859],[35.95343,35.19609],[35.94862,35.22729],[35.93316,35.25875],[35.92423,35.26307],[35.92122,35.27522],[35.92142,35.34585],[35.91766,35.37651],[35.92136,35.37899],[35.9114,35.41186],[35.91493,35.41819],[35.87401,35.45873],[35.82216,35.49335],[35.79465,35.50619],[35.78363,35.50555],[35.78198,35.49865],[35.77798,35.49656],[35.77223,35.50298],[35.7637,35.50601],[35.76205,35.50836],[35.77088,35.52768],[35.7657,35.52779],[35.77253,35.53432],[35.77153,35.53742],[35.76578,35.54372],[35.75832,35.5462],[35.75692,35.55112],[35.75218,35.55058],[35.73857,35.55706],[35.7387,35.56078],[35.73273,35.56091],[35.74559,35.57398],[35.74285,35.58098],[35.73666,35.58407],[35.72236,35.57964],[35.71877,35.58486],[35.72852,35.58503],[35.73849,35.59161],[35.745,35.58876],[35.75133,35.5899],[35.75335,35.59371],[35.75674,35.59183],[35.76366,35.61004],[35.77362,35.60712],[35.77574,35.60925],[35.77225,35.61755],[35.77712,35.61744],[35.78438,35.63166],[35.78032,35.63714],[35.77812,35.65081],[35.7681,35.65669],[35.76893,35.67183],[35.7806,35.68132],[35.79803,35.68464],[35.80614,35.70051],[35.81541,35.7044],[35.81592,35.71004],[35.83026,35.71458],[35.83457,35.73837],[35.84428,35.74122],[35.84551,35.74941],[35.83737,35.78634],[35.83055,35.79407],[35.83189,35.80059],[35.82211,35.81392],[35.8225,35.82496],[35.80712,35.83585],[35.81169,35.8491],[35.80509,35.85003],[35.79968,35.85298],[35.80132,35.85474],[35.80806,35.85368],[35.81419,35.85752],[35.81596,35.85388],[35.82509,35.85328],[35.82781,35.85013],[35.84264,35.85004],[35.8571,35.8574],[35.86561,35.86593],[35.87286,35.86576],[35.88131,35.87673],[35.88827,35.90328],[35.89182,35.9055],[35.89469,35.91494],[35.89949,35.92086],[35.91081,35.92405],[35.91188,35.92736],[35.91773,35.92869],[35.92292,35.92181],[35.9311,35.91925],[35.94811,35.92914],[35.96519,35.92948],[35.97553,35.93843],[36.00576,35.9417],[36.01791,35.92091],[35.99877,35.88248],[36.00965,35.88008],[36.02536,35.88307],[36.03899,35.87829],[36.04804,35.87964],[36.06825,35.86921],[36.08242,35.87186],[36.08712,35.86737],[36.10674,35.86678],[36.12919,35.8495],[36.14789,35.81382],[36.15656,35.81294],[36.16806,35.82928],[36.17394,35.8594],[36.1753,35.86882],[36.1696,35.88531],[36.17424,35.8937],[36.17597,35.92126],[36.18901,35.9403],[36.20474,35.95152],[36.24279,35.96137],[36.26059,35.96144],[36.26908,35.95267],[36.27736,35.94945],[36.2914,35.95425],[36.29857,35.96437],[36.28631,35.9823],[36.28627,36.00914],[36.30269,36.01027],[36.31517,36.00446],[36.33279,35.98967],[36.33957,35.98812],[36.36688,36.00186],[36.37619,36.01161],[36.374,36.01413],[36.37655,36.01736],[36.37163,36.02482],[36.37965,36.03019],[36.37755,36.0323],[36.38109,36.03815],[36.38877,36.03936],[36.3896,36.04203],[36.38022,36.04387],[36.37878,36.04779],[36.38568,36.04934],[36.38701,36.05275],[36.37989,36.05569],[36.37873,36.0725],[36.38684,36.07497],[36.39013,36.08204],[36.37665,36.09886],[36.38148,36.0989],[36.38424,36.09451],[36.38506,36.10328],[36.37504,36.10302],[36.37598,36.10633],[36.38069,36.10638],[36.38102,36.10982],[36.37573,36.10932],[36.37047,36.11613],[36.3781,36.11924],[36.37733,36.1225],[36.37218,36.12137],[36.37774,36.12521],[36.37479,36.1278],[36.38146,36.13104],[36.38846,36.144],[36.3826,36.14926],[36.37977,36.14711],[36.37709,36.14945],[36.37609,36.15262],[36.38053,36.1552],[36.36723,36.15986],[36.3699,36.17083],[36.37426,36.17227],[36.36775,36.1779],[36.38157,36.18378],[36.38108,36.18825],[36.38575,36.1893],[36.38304,36.18465],[36.38727,36.18346],[36.38815,36.18666],[36.39517,36.18772],[36.40018,36.19287],[36.39067,36.19695],[36.39307,36.20447],[36.39685,36.20295],[36.39046,36.21005],[36.39085,36.21346],[36.38845,36.21585],[36.38405,36.21322],[36.3812,36.21632],[36.38826,36.21797],[36.39502,36.22539],[36.42939,36.20731],[36.45719,36.20789],[36.45596,36.20254],[36.46832,36.19746],[36.47343,36.20151],[36.4719,36.20799],[36.47652,36.21421],[36.48651,36.21829],[36.48354,36.2324],[36.49123,36.23078],[36.49261,36.22673],[36.49975,36.22355],[36.50343,36.22619],[36.50096,36.22846],[36.50258,36.24227],[36.53568,36.24471],[36.55208,36.22602],[36.56162,36.23054],[36.5602,36.2338],[36.56346,36.23693],[36.57788,36.23223],[36.58249,36.22598],[36.59033,36.22657],[36.62512,36.2138],[36.6287,36.22356],[36.62642,36.22632],[36.62803,36.23194],[36.62444,36.23413],[36.62564,36.23885],[36.63678,36.23742],[36.65693,36.22837],[36.66782,36.22917],[36.66421,36.23545],[36.68088,36.23403],[36.68125,36.23858],[36.69443,36.24318],[36.69726,36.25332],[36.68972,36.26494],[36.68055,36.2709],[36.6805,36.27623],[36.68455,36.28231],[36.69575,36.28837],[36.69502,36.29442],[36.65694,36.29839],[36.65735,36.31752],[36.66542,36.32641],[36.65698,36.33758],[36.64192,36.33558],[36.63724,36.34191],[36.63016,36.34502],[36.62595,36.34297],[36.62735,36.33875],[36.61849,36.33413],[36.60826,36.33549],[36.60515,36.32754],[36.5992,36.34952],[36.61859,36.35753],[36.59662,36.37283],[36.60513,36.37642],[36.60596,36.39221],[36.58622,36.39171],[36.57494,36.41664],[36.56575,36.41906],[36.56336,36.42668],[36.56612,36.43736],[36.55508,36.44317],[36.55762,36.45002],[36.55559,36.45175],[36.56171,36.46375],[36.55262,36.46739],[36.55351,36.47638],[36.54471,36.48076],[36.5428,36.48567],[36.54841,36.48905],[36.54802,36.4974],[36.54543,36.49676],[36.54395,36.50173],[36.57373,36.52867],[36.58859,36.58181],[36.58891,36.587],[36.57674,36.61327],[36.57378,36.65771],[36.58558,36.66246],[36.58922,36.66896],[36.60884,36.67775],[36.61251,36.69037],[36.62892,36.70564],[36.63038,36.71985],[36.62546,36.72062],[36.61867,36.72812],[36.61741,36.73805],[36.61292,36.74405],[36.62903,36.76307],[36.62765,36.7665],[36.63791,36.77065],[36.64332,36.7775],[36.64605,36.78654],[36.66259,36.79356],[36.66966,36.80225],[36.67126,36.80959],[36.66745,36.81613],[36.67105,36.81927],[36.66542,36.82712],[36.71679,36.82745],[36.72826,36.82106],[36.75324,36.8187],[36.78067,36.80131],[36.79336,36.79683],[36.8935,36.77718],[36.90106,36.77716],[36.92387,36.78619],[36.92879,36.77931],[36.93477,36.77881],[36.93394,36.77377],[36.94587,36.77691],[36.97084,36.76432],[36.98499,36.76184],[36.99753,36.76557],[36.99325,36.75933],[36.99961,36.75083],[36.9927,36.74218],[37.01705,36.73684],[37.03628,36.73663],[37.04172,36.73421],[37.04774,36.72029],[37.04023,36.70325],[37.01618,36.69592],[37.01613,36.6853],[37.02156,36.67987],[37.02267,36.66821],[37.03546,36.66561],[37.05755,36.65488],[37.05709,36.64536],[37.08589,36.63456],[37.09895,36.64867],[37.10583,36.6721],[37.11439,36.67206],[37.12467,36.66561],[37.14208,36.67732],[37.15493,36.66119],[37.16256,36.65687],[37.2185,36.67548],[37.27506,36.6638],[37.27784,36.66439],[37.27821,36.66994],[37.31525,36.66531],[37.37571,36.65364],[37.40618,36.64394],[37.4257,36.64485],[37.44407,36.63272],[37.47415,36.63301],[37.4879,36.65194],[37.49011,36.66962],[37.49882,36.67576],[37.62201,36.7248],[37.65815,36.74907],[37.6818,36.74386],[37.70415,36.75773],[37.72666,36.75205],[37.78569,36.7504],[37.79861,36.7629],[37.82776,36.76894],[37.87882,36.7879],[37.90457,36.7924],[37.92489,36.81096],[37.94058,36.81872],[37.96248,36.82079],[37.99292,36.832],[38.01865,36.82611],[38.03165,36.83694],[38.02836,36.84721],[38.02958,36.85462],[38.04648,36.86488],[38.06468,36.86362],[38.07893,36.87594],[38.0989,36.87673],[38.11125,36.88064],[38.12231,36.89041],[38.13476,36.89538],[38.14401,36.89386],[38.16114,36.89877],[38.1669,36.91033],[38.213,36.90821],[38.24302,36.92402],[38.26545,36.91468],[38.3395,36.90009],[38.39239,36.90189],[38.55242,36.84561],[38.55959,36.84038],[38.56833,36.82573],[38.58616,36.8271],[38.59073,36.82408],[38.59076,36.81471],[38.5972,36.80384],[38.63785,36.77788],[38.69193,36.73419],[38.73899,36.70822],[38.89063,36.70075],[39.02055,36.71074],[39.06388,36.7057],[39.12857,36.68681],[39.21288,36.66913],[39.36317,36.69228],[39.493,36.70072],[39.59604,36.72321],[39.63973,36.72472],[39.71284,36.75045],[39.82168,36.75716],[39.83583,36.76284],[39.85411,36.7764],[39.93008,36.79732],[39.99795,36.82223],[40.03321,36.82783],[40.05444,36.8449],[40.06308,36.85637],[40.11072,36.86755],[40.14546,36.86979],[40.18491,36.87871],[40.23645,36.91407],[40.26669,36.92185],[40.30524,36.93875],[40.33936,36.95871],[40.35801,36.96373],[40.377,36.97827],[40.3849,36.99393],[40.39858,37.00825],[40.41119,37.0147],[40.41554,37.01609],[40.41619,37.01172],[40.41949,37.01206],[40.41876,37.01654],[40.53207,37.02895],[40.5883,37.06158],[40.61966,37.06495],[40.67765,37.09213],[40.69518,37.1036],[40.71174,37.10407],[40.74194,37.11107],[40.75029,37.1094],[40.75584,37.11202],[40.76269,37.12618],[40.76645,37.12799],[40.77685,37.12249],[40.79786,37.11935],[40.8109,37.12606],[40.82244,37.1109],[40.83548,37.1069],[40.842,37.11014],[40.84833,37.12237],[40.87179,37.12891],[40.9161,37.13139],[40.98298,37.11602],[41.01387,37.11556],[41.118,37.09441],[41.1466,37.09767],[41.16337,37.09481],[41.16826,37.09267],[41.16772,37.0882],[41.17275,37.09011],[41.1984,37.08013],[41.19811,37.06391],[41.2184,37.06202],[41.22284,37.06772],[41.2214,37.06971],[41.23734,37.07585],[41.26737,37.07981],[41.35157,37.07902],[41.37056,37.07547],[41.37841,37.07911],[41.51752,37.07797],[41.52608,37.08416],[41.55407,37.08694],[41.60304,37.10724],[41.62257,37.11064],[41.63049,37.10905],[41.6358,37.11449],[41.65296,37.11804],[41.69422,37.11445],[41.79553,37.12934],[41.82448,37.13859],[41.87452,37.14501],[41.92965,37.15879],[41.95004,37.15731],[41.96534,37.16152],[41.96665,37.16638],[41.98895,37.17271],[42.0027,37.18154],[42.03423,37.18201],[42.05514,37.19772],[42.09041,37.20985],[42.094,37.22051],[42.10212,37.2281],[42.18371,37.28645],[42.19024,37.29443],[42.19112,37.30351],[42.19698,37.31202],[42.21586,37.32055],[42.22504,37.31609],[42.22469,37.30892],[42.20813,37.292],[42.20984,37.28557],[42.20507,37.28017],[42.21814,37.27729],[42.23368,37.28396],[42.25973,37.27133],[42.28279,37.2827],[42.29084,37.26274],[42.30636,37.2601],[42.31652,37.24615],[42.33725,37.23843],[42.34269,37.23286],[42.34006,37.221],[42.3483,37.2148],[42.33702,37.20961],[42.32026,37.18418],[42.32984,37.16762],[42.32955,37.15544],[42.35369,37.13037],[42.35534,37.1231],[42.34939,37.11276]]],[[[35.85951,34.85887],[35.86215,34.85406],[35.85654,34.85419],[35.85591,34.85831],[35.85951,34.85887]]]]}},{"type":"Feature","properties":{"ISO_A3":"","WB_A3":"","WB_NAME":"Golan Heights","WB_REGION":"","STATUS":"non-determined","AREA_ID":"golan-heights","CLAIMANTS":"SYR,ISR"},"geometry":{"type":"MultiPolygon","coordinates":[[[[35.76901,33.33295],[35.81147,33.31572],[35.77764,33.27823],[35.78021,33.26818],[35.81119,33.24791],[35.81282,33.20217],[35.83471,33.19255],[35.84109,33.16346],[35.81636,33.12625],[35.81589,33.11276],[35.84926,33.10244],[35.86764,32.98613],[35.87222,32.97523],[35.89624,32.9452],[35.88186,32.92688],[35.87373,32.92257],[35.85144,32.89038],[35.84437,32.87026],[35.84652,32.85389],[35.83713,32.82785],[35.75576,32.74458],[35.74897,32.73362],[35.74431,32.73038],[35.73799,32.73319],[35.73294,32.72331],[35.7258,32.72682],[35.72368,32.72178],[35.71774,32.72102],[35.71535,32.7154],[35.71129,32.71877],[35.70672,32.71399],[35.70358,32.71576],[35.69062,32.70796],[35.67622,32.70577],[35.67195,32.69131],[35.64656,32.68224],[35.63588,32.68788],[35.63522,32.69213],[35.63807,32.70443],[35.64855,32.71167],[35.64889,32.72601],[35.66247,32.7772],[35.65488,32.79287],[35.65534,32.80855],[35.64439,32.8109],[35.64231,32.83439],[35.64964,32.84019],[35.64346,32.86513],[35.62286,32.89012],[35.6131,32.89574],[35.6166,32.90514],[35.62159,32.90483],[35.62695,32.91166],[35.6235,32.91363],[35.63311,32.9908],[35.62981,33.01341],[35.64663,33.06347],[35.64551,33.0773],[35.65013,33.08699],[35.653,33.1233],[35.67033,33.15309],[35.66304,33.18938],[35.66671,33.22532],[35.6838,33.23872],[35.68428,33.24472],[35.68111,33.24766],[35.66906,33.247],[35.6842,33.25392],[35.7044,33.27101],[35.73799,33.31057],[35.73853,33.31799],[35.74483,33.32581],[35.76901,33.33295]]]]}},{"type":"Feature","properties":{"ISO_A3":"","WB_A3":"","WB_NAME":"Shebaa Farms Dispute","WB_REGION":"","STATUS":"non-determined","AREA_ID":"shebaa-farms-dispute","CLAIMANTS":"LBN,SYR,ISR"},"geometry":{"type":"MultiPolygon","coordinates":[[[[35.73853,33.31799],[35.73799,33.31057],[35.72341,33.29167],[35.6842,33.25392],[35.66906,33.247],[35.65448,33.25016],[35.62449,33.24237],[35.62401,33.25252],[35.62025,33.25315],[35.62267,33.26432],[35.61886,33.27457],[35.62227,33.27846],[35.64297,33.28044],[35.6586,33.27406],[35.67738,33.29429],[35.68222,33.29148],[35.68929,33.29754],[35.69565,33.29663],[35.71097,33.30519],[35.71512,33.31187],[35.71083,33.31802],[35.71353,33.31905],[35.71411,33.32507],[35.72113,33.32918],[35.72922,33.32918],[35.73853,33.31799]]]]}}]}