{"type":"FeatureCollection","features":[{"type":"Feature","properties":{"ISO_A3":"TCD","WB_A3":"TCD","WB_NAME":"Chad","WB_REGION":"AFW,SSF"},"geometry":{"type":"MultiPolygon","coordinates":[[[[22.92304,15.49943],[22.91901,15.4941],[22.92623,15.472],[22.93444,15.46213],[22.97153,15.43431],[22.98714,15.41198],[22.99139,15.38726],[22.9866,15.3763],[22.99288,15.36621],[22.99632,15.34993],[22.99174,15.33571],[23.00354,15.32505],[23.0037,15.31675],[23.00059,15.30272],[22.98677,15.28438],[22.98805,15.26824],[22.98403,15.26028],[23.00309,15.2432],[23.00454,15.23144],[22.99703,15.22429],[22.98692,15.22324],[22.98154,15.2143],[22.98322,15.20555],[22.9774,15.1937],[22.96252,15.18165],[22.93618,15.17003],[22.93552,15.16057],[22.92905,15.15033],[22.93994,15.11496],[22.93598,15.10158],[22.92711,15.09486],[22.92757,15.09181],[22.91576,15.0891],[22.89402,15.09186],[22.87375,15.08588],[22.86186,15.07665],[22.86148,15.06535],[22.85182,15.05164],[22.81262,15.03511],[22.80901,15.02392],[22.79988,15.01832],[22.7851,14.99523],[22.77323,14.98968],[22.76623,14.97843],[22.75018,14.96794],[22.74658,14.95049],[22.74934,14.93319],[22.75531,14.92308],[22.75382,14.91341],[22.76018,14.9078],[22.74584,14.89904],[22.72671,14.90075],[22.70274,14.89253],[22.67989,14.87666],[22.6776,14.86976],[22.6714,14.86481],[22.66882,14.85173],[22.71359,14.72788],[22.71711,14.69776],[22.57948,14.65119],[22.51344,14.64538],[22.46474,14.6298],[22.44237,14.60885],[22.40985,14.60511],[22.39068,14.54096],[22.38299,14.51233],[22.38811,14.51121],[22.3939,14.52021],[22.42817,14.50102],[22.44396,14.48692],[22.43661,14.41125],[22.4442,14.37572],[22.46161,14.34828],[22.45832,14.33482],[22.45077,14.33029],[22.44684,14.32367],[22.43256,14.31943],[22.42856,14.31476],[22.42505,14.29347],[22.47014,14.24201],[22.48448,14.24826],[22.50818,14.24843],[22.55782,14.23555],[22.5491,14.22167],[22.55027,14.21133],[22.5752,14.19113],[22.53908,14.11728],[22.48775,14.10823],[22.44079,14.05439],[22.4161,14.05483],[22.41079,14.05749],[22.39516,14.05584],[22.36165,14.02393],[22.3237,14.01266],[22.29478,13.9738],[22.27733,13.97452],[22.26382,13.96911],[22.25577,13.9604],[22.2314,13.96299],[22.21832,13.95955],[22.21967,13.95602],[22.21435,13.94819],[22.21999,13.9371],[22.21069,13.93328],[22.2121,13.92863],[22.20861,13.92134],[22.14202,13.85454],[22.07248,13.77704],[22.08772,13.76868],[22.09661,13.7565],[22.10739,13.75393],[22.11248,13.74424],[22.12397,13.73542],[22.13149,13.70906],[22.1143,13.68332],[22.12134,13.67518],[22.12703,13.66029],[22.13483,13.65147],[22.14283,13.64847],[22.14478,13.6387],[22.14222,13.62954],[22.15047,13.61933],[22.15755,13.61953],[22.1745,13.5924],[22.18972,13.58936],[22.20101,13.57184],[22.2169,13.55799],[22.22035,13.53539],[22.21611,13.52906],[22.21833,13.52544],[22.21353,13.51015],[22.21804,13.50577],[22.22153,13.48165],[22.21631,13.47043],[22.22173,13.45573],[22.23482,13.44887],[22.23655,13.43954],[22.24249,13.43198],[22.23941,13.42109],[22.24783,13.41669],[22.24804,13.41113],[22.26603,13.40663],[22.28328,13.38701],[22.28859,13.37725],[22.28606,13.3698],[22.29114,13.35423],[22.28167,13.35089],[22.28177,13.34197],[22.26502,13.33272],[22.26182,13.32377],[22.25007,13.31816],[22.25353,13.30933],[22.24998,13.30365],[22.23459,13.30107],[22.22175,13.28474],[22.22174,13.27677],[22.20993,13.27437],[22.199,13.25761],[22.18152,13.24946],[22.17985,13.22913],[22.17062,13.22189],[22.16279,13.20868],[22.15099,13.20209],[22.1444,13.18198],[22.1358,13.17109],[22.11036,13.16222],[22.09631,13.16673],[22.08768,13.16533],[22.07778,13.15519],[22.07314,13.1454],[22.06649,13.14344],[22.05847,13.14524],[22.04517,13.14068],[22.0213,13.14393],[22.00956,13.14232],[22.00743,13.13762],[22.01016,13.12541],[22.00491,13.11316],[21.98769,13.099],[21.98096,13.0841],[21.96633,13.07352],[21.9451,13.06867],[21.92981,13.05436],[21.92615,13.04871],[21.93101,13.02333],[21.92955,13.01774],[21.89838,12.98892],[21.88181,12.94522],[21.87969,12.92256],[21.857,12.8809],[21.85016,12.84421],[21.83995,12.83065],[21.81602,12.81888],[21.81472,12.80747],[21.83441,12.79011],[21.84247,12.77811],[21.85313,12.7768],[21.86006,12.76871],[21.8616,12.76413],[21.85472,12.74369],[21.85967,12.72912],[21.8843,12.70881],[21.88775,12.68689],[21.89346,12.68105],[21.91218,12.67488],[21.92479,12.66279],[21.92809,12.65163],[21.93123,12.64757],[21.93687,12.647],[21.93848,12.63632],[21.94507,12.63059],[22.15294,12.67056],[22.20131,12.71179],[22.20131,12.757],[22.32972,12.6819],[22.47665,12.63286],[22.44333,12.55107],[22.44079,12.5523],[22.4362,12.54506],[22.4393,12.53558],[22.4393,12.51485],[22.41647,12.5111],[22.40436,12.49012],[22.39309,12.4836],[22.39376,12.47779],[22.3884,12.47077],[22.38663,12.46068],[22.37765,12.45633],[22.37504,12.44805],[22.36821,12.44193],[22.37275,12.43069],[22.382,12.42786],[22.39034,12.43225],[22.40063,12.4234],[22.40334,12.41243],[22.41252,12.40809],[22.4195,12.39617],[22.42852,12.39124],[22.43385,12.38316],[22.43443,12.37557],[22.42481,12.37545],[22.4328,12.36542],[22.42667,12.36076],[22.43397,12.35429],[22.42497,12.35063],[22.43347,12.34315],[22.4311,12.33679],[22.43717,12.33014],[22.43273,12.32563],[22.43451,12.3216],[22.43966,12.32163],[22.43963,12.31081],[22.44882,12.299],[22.44185,12.29316],[22.44108,12.2855],[22.45357,12.2775],[22.44927,12.26349],[22.46277,12.26203],[22.45547,12.25378],[22.46963,12.24359],[22.45917,12.2395],[22.462,12.23524],[22.47405,12.23695],[22.47587,12.22447],[22.47222,12.21656],[22.47936,12.21409],[22.47802,12.20842],[22.48357,12.20749],[22.48515,12.19446],[22.49164,12.18512],[22.48932,12.17227],[22.49568,12.16466],[22.49597,12.15816],[22.49098,12.15136],[22.49378,12.14355],[22.49275,12.12008],[22.4895,12.11767],[22.49074,12.10956],[22.48456,12.10415],[22.48653,12.09702],[22.48294,12.09417],[22.48657,12.08095],[22.47559,12.07727],[22.4818,12.07119],[22.4742,12.05435],[22.47654,12.05159],[22.47393,12.04582],[22.47933,12.03287],[22.5118,12.0367],[22.52139,12.04838],[22.54112,12.05955],[22.55883,12.05256],[22.56767,12.05327],[22.58715,12.06016],[22.59456,12.06745],[22.60246,12.05976],[22.61471,12.05595],[22.62079,12.05666],[22.63291,12.07428],[22.64275,12.0691],[22.63206,12.05152],[22.58281,11.85389],[22.5551,11.70617],[22.56085,11.63204],[22.60822,11.56694],[22.65689,11.51795],[22.7594,11.47766],[22.7836,11.44566],[22.786,11.40685],[22.82915,11.41885],[22.94365,11.42661],[22.93097,11.31762],[22.97888,11.30554],[22.98829,11.22129],[22.92961,11.10132],[22.92929,11.09184],[22.87681,10.93733],[22.87213,10.93471],[22.86794,10.93757],[22.8555,10.93678],[22.84615,10.94247],[22.83382,10.93943],[22.82113,10.94177],[22.81141,10.94997],[22.79666,10.94571],[22.77271,10.9509],[22.76206,10.949],[22.75993,10.95972],[22.7505,10.9733],[22.74731,10.97106],[22.74563,10.97474],[22.74259,10.97283],[22.73382,10.9806],[22.72371,10.98241],[22.71906,10.97721],[22.71698,10.98056],[22.70728,10.97513],[22.7067,10.97823],[22.69883,10.98093],[22.69952,10.98585],[22.69594,10.98496],[22.6922,10.98841],[22.6863,10.98738],[22.68286,10.9828],[22.67619,10.99023],[22.66515,10.98986],[22.64419,11.00076],[22.62506,10.99791],[22.61656,11.00567],[22.59288,11.00768],[22.58798,11.01544],[22.58086,11.01253],[22.5802,11.01752],[22.56388,11.01022],[22.56053,11.00087],[22.55647,11.00283],[22.54118,10.99963],[22.53592,11.00578],[22.53173,11.00496],[22.52274,11.0146],[22.52351,11.01793],[22.50174,11.01267],[22.49796,11.00834],[22.49751,11.0113],[22.49458,11.01074],[22.49067,11.00826],[22.48977,11.00296],[22.4847,11.00154],[22.47019,11.00662],[22.45801,11.00047],[22.45571,10.99504],[22.44238,10.99564],[22.44255,10.99173],[22.43725,10.9929],[22.42103,10.96968],[22.41189,10.96937],[22.40594,10.97402],[22.40016,10.97189],[22.40125,10.96896],[22.38872,10.96495],[22.38796,10.962],[22.38276,10.96197],[22.37672,10.96988],[22.37385,10.96067],[22.36599,10.95493],[22.34232,10.95853],[22.34184,10.9555],[22.33162,10.95777],[22.32733,10.95403],[22.32263,10.9583],[22.31897,10.95174],[22.31568,10.95182],[22.31785,10.94831],[22.3154,10.9459],[22.29541,10.93711],[22.28908,10.93897],[22.28634,10.93422],[22.27644,10.93105],[22.27209,10.93139],[22.27035,10.93812],[22.26043,10.9425],[22.25467,10.93447],[22.25098,10.93618],[22.24421,10.93193],[22.23863,10.93484],[22.23779,10.92627],[22.23157,10.92709],[22.22987,10.92113],[22.21861,10.91839],[22.21616,10.92099],[22.21259,10.91536],[22.20504,10.91736],[22.19867,10.91599],[22.19823,10.91254],[22.19465,10.91593],[22.19116,10.91262],[22.18876,10.91431],[22.18656,10.90968],[22.18252,10.90938],[22.18241,10.90317],[22.17585,10.90188],[22.16182,10.90014],[22.15796,10.90333],[22.16286,10.90936],[22.14964,10.91263],[22.15167,10.91561],[22.14961,10.92265],[22.14536,10.92567],[22.14303,10.92408],[22.1447,10.92037],[22.14236,10.91771],[22.13789,10.92193],[22.13937,10.92548],[22.13324,10.92135],[22.13399,10.92911],[22.12802,10.92773],[22.1281,10.93203],[22.12228,10.93043],[22.12166,10.93467],[22.11552,10.93171],[22.11391,10.93578],[22.1113,10.93463],[22.11205,10.92903],[22.10563,10.92934],[22.1026,10.92506],[22.10046,10.92876],[22.09727,10.92774],[22.09324,10.92553],[22.09273,10.92031],[22.08796,10.92117],[22.08713,10.91827],[22.08352,10.922],[22.07336,10.91593],[22.075,10.91307],[22.06753,10.91293],[22.06022,10.91556],[22.05913,10.92368],[22.05207,10.92658],[22.05227,10.93161],[22.03785,10.93542],[22.02925,10.92798],[22.01944,10.92953],[22.01302,10.92176],[22.0093,10.92169],[22.00932,10.91621],[22.00398,10.91231],[22.0058,10.9054],[21.99038,10.90246],[21.98925,10.9064],[21.98275,10.90556],[21.98029,10.90362],[21.98147,10.89873],[21.97616,10.89665],[21.97086,10.88555],[21.96288,10.89498],[21.95489,10.8884],[21.95799,10.88375],[21.9523,10.88602],[21.93887,10.883],[21.91846,10.88855],[21.91856,10.88349],[21.91547,10.88218],[21.91988,10.8706],[21.91679,10.86778],[21.91104,10.86857],[21.90313,10.85908],[21.89396,10.86099],[21.88917,10.86595],[21.88212,10.85449],[21.88538,10.8507],[21.88261,10.84669],[21.86335,10.84132],[21.83998,10.85061],[21.83646,10.8477],[21.83813,10.83983],[21.83325,10.83639],[21.82638,10.83955],[21.81358,10.82563],[21.81078,10.80715],[21.80607,10.80976],[21.79762,10.79777],[21.78567,10.79698],[21.78491,10.7814],[21.79323,10.77214],[21.79177,10.76549],[21.78293,10.7622],[21.78539,10.75221],[21.78256,10.7522],[21.7823,10.74499],[21.78895,10.73454],[21.78804,10.73057],[21.79132,10.729],[21.78379,10.71826],[21.78751,10.71426],[21.78458,10.7143],[21.78104,10.70686],[21.78691,10.70005],[21.7894,10.68981],[21.78464,10.68456],[21.7865,10.68181],[21.78276,10.66406],[21.77498,10.65631],[21.76506,10.65225],[21.76415,10.64637],[21.75945,10.65024],[21.7581,10.64456],[21.75251,10.64151],[21.74781,10.64481],[21.75112,10.64881],[21.74746,10.66156],[21.73816,10.66015],[21.73051,10.65236],[21.73257,10.64286],[21.72738,10.62913],[21.73078,10.60657],[21.72313,10.5984],[21.72617,10.58379],[21.72351,10.5806],[21.73271,10.56576],[21.72941,10.56472],[21.72778,10.55319],[21.7234,10.55008],[21.7302,10.54308],[21.72598,10.53659],[21.71613,10.53263],[21.71595,10.52561],[21.71984,10.52124],[21.71572,10.52061],[21.71258,10.51258],[21.71441,10.49471],[21.73025,10.48132],[21.73324,10.47451],[21.74493,10.47121],[21.75028,10.46604],[21.74709,10.45763],[21.75822,10.44819],[21.75022,10.42934],[21.77478,10.42301],[21.76098,10.40685],[21.74801,10.39778],[21.74748,10.39235],[21.73996,10.39184],[21.73643,10.38631],[21.73826,10.38203],[21.73475,10.37548],[21.74048,10.36786],[21.73719,10.36935],[21.736,10.36694],[21.73865,10.36386],[21.73542,10.35751],[21.73133,10.35502],[21.72652,10.36209],[21.723,10.35904],[21.72301,10.34513],[21.73561,10.33297],[21.7345,10.32535],[21.73911,10.32237],[21.73242,10.31662],[21.72873,10.31749],[21.72778,10.30801],[21.71413,10.2989],[21.71251,10.2942],[21.71534,10.29111],[21.70957,10.28388],[21.7043,10.28199],[21.69692,10.28628],[21.69608,10.28365],[21.68576,10.28148],[21.68554,10.28512],[21.67963,10.28626],[21.6729,10.2787],[21.68051,10.26629],[21.67776,10.26279],[21.66128,10.25887],[21.66281,10.25253],[21.67113,10.25192],[21.67698,10.23968],[21.65229,10.234],[21.64728,10.23999],[21.64342,10.23261],[21.63716,10.23614],[21.6373,10.22855],[21.62337,10.23437],[21.61744,10.23134],[21.61507,10.22407],[21.58803,10.21164],[21.5868,10.21596],[21.57888,10.21953],[21.55855,10.21256],[21.54311,10.23222],[21.53605,10.22479],[21.52225,10.22024],[21.51418,10.20881],[21.51232,10.1966],[21.49953,10.18957],[21.49423,10.18999],[21.49106,10.19447],[21.48799,10.17687],[21.48982,10.16395],[21.48531,10.16672],[21.47861,10.16506],[21.47787,10.16842],[21.47421,10.16608],[21.46514,10.15672],[21.47057,10.15019],[21.46212,10.13307],[21.45621,10.12728],[21.449,10.13034],[21.44365,10.12749],[21.45275,10.10966],[21.44795,10.09878],[21.45335,10.09325],[21.45077,10.09012],[21.44574,10.09136],[21.43539,10.08301],[21.43401,10.07537],[21.43928,10.07137],[21.44048,10.06504],[21.43366,10.05106],[21.43112,10.05375],[21.42468,10.04911],[21.42285,10.05787],[21.41218,10.05203],[21.40234,10.03459],[21.40752,10.02114],[21.39798,10.01749],[21.39372,10.01039],[21.39242,9.9952],[21.38433,9.98832],[21.37371,9.98811],[21.3712,9.98236],[21.36658,9.98146],[21.3652,9.98776],[21.36073,9.99042],[21.35754,9.98798],[21.35569,9.97008],[21.34921,9.96238],[21.33792,9.96397],[21.33348,9.97438],[21.32172,9.97021],[21.3171,9.97716],[21.32385,9.98253],[21.32106,9.98532],[21.30781,9.9867],[21.29903,9.96958],[21.28601,9.97571],[21.28354,9.98226],[21.28622,9.98414],[21.26729,9.99048],[21.26506,9.99837],[21.25425,9.99515],[21.24925,9.98593],[21.25183,9.97494],[21.24361,9.97386],[21.24281,9.96672],[21.22961,9.95673],[21.21798,9.95681],[21.21248,9.95239],[21.21249,9.93815],[21.20962,9.93483],[21.20483,9.93867],[21.20034,9.9204],[21.20704,9.9175],[21.20834,9.91057],[21.20253,9.90564],[21.20238,9.9018],[21.19268,9.90047],[21.19229,9.89674],[21.18517,9.89146],[21.18347,9.89574],[21.17952,9.89513],[21.17497,9.89278],[21.17284,9.88387],[21.15492,9.87927],[21.14662,9.86635],[21.14005,9.86455],[21.1333,9.85631],[21.13414,9.85031],[21.12092,9.84165],[21.11932,9.83245],[21.12381,9.82745],[21.11135,9.82144],[21.12074,9.80103],[21.11607,9.8011],[21.10278,9.78572],[21.07867,9.77816],[21.06811,9.76483],[21.04985,9.77049],[21.04798,9.77444],[21.05151,9.78055],[21.04657,9.78295],[21.03289,9.77882],[21.02262,9.76839],[21.02182,9.76385],[21.02417,9.7577],[21.03686,9.75716],[21.03289,9.75195],[21.03731,9.75217],[21.04166,9.74158],[21.03933,9.73793],[21.03639,9.74012],[21.03055,9.73135],[21.01722,9.72982],[21.01411,9.73629],[21.00813,9.73584],[20.99989,9.74716],[20.99314,9.74743],[20.98983,9.73693],[20.99811,9.71715],[21.0087,9.70722],[21.00686,9.70264],[20.98504,9.70738],[20.9761,9.71932],[20.97101,9.71994],[20.96567,9.71526],[20.97004,9.70381],[20.98019,9.70113],[20.98693,9.69331],[21.00204,9.69075],[21.00093,9.68236],[20.98473,9.68128],[20.98437,9.67871],[20.9904,9.6717],[21.00297,9.67093],[21.00644,9.66784],[20.99638,9.66171],[20.98024,9.67245],[20.9778,9.67084],[20.98137,9.66011],[20.98848,9.65963],[20.99643,9.65156],[20.99458,9.64589],[20.98509,9.64147],[20.97033,9.64619],[20.96513,9.64307],[20.96975,9.63687],[20.99029,9.63645],[20.99381,9.62895],[20.98223,9.61359],[20.96309,9.62138],[20.95143,9.61977],[20.94899,9.60887],[20.95638,9.59019],[20.95423,9.56848],[20.95046,9.5605],[20.94585,9.56143],[20.9336,9.57321],[20.9263,9.56826],[20.92429,9.54745],[20.91204,9.54555],[20.91319,9.54097],[20.92022,9.53874],[20.91899,9.51929],[20.91266,9.51869],[20.90292,9.53427],[20.8927,9.51813],[20.87854,9.52357],[20.87405,9.50794],[20.86414,9.49933],[20.86885,9.48259],[20.85639,9.48059],[20.84718,9.48513],[20.84036,9.48258],[20.82916,9.46533],[20.82591,9.45514],[20.83018,9.44835],[20.82732,9.44521],[20.82995,9.43512],[20.82453,9.42847],[20.82058,9.42783],[20.81487,9.43559],[20.80391,9.43986],[20.80094,9.44466],[20.79653,9.44389],[20.79411,9.43796],[20.78848,9.43893],[20.78302,9.42871],[20.77797,9.43298],[20.77807,9.42954],[20.774,9.42767],[20.76598,9.42852],[20.76525,9.42128],[20.76968,9.41456],[20.7687,9.40902],[20.76315,9.40706],[20.76211,9.40208],[20.75391,9.39943],[20.75014,9.40176],[20.74778,9.39847],[20.74473,9.39945],[20.74374,9.40645],[20.73749,9.40432],[20.73599,9.3983],[20.73055,9.39768],[20.72856,9.40159],[20.72233,9.40043],[20.71793,9.406],[20.71314,9.40604],[20.70193,9.39099],[20.70117,9.40109],[20.69614,9.39676],[20.68302,9.40276],[20.67609,9.39876],[20.66958,9.39917],[20.66291,9.39384],[20.65982,9.38218],[20.65441,9.37805],[20.65675,9.36751],[20.65178,9.3632],[20.651,9.35678],[20.65814,9.34489],[20.65299,9.33511],[20.65608,9.32842],[20.66019,9.32911],[20.66594,9.32081],[20.65997,9.3143],[20.65213,9.31543],[20.64596,9.31108],[20.62695,9.31672],[20.62046,9.31374],[20.61829,9.31686],[20.61511,9.3134],[20.61,9.31754],[20.59763,9.31389],[20.59689,9.32121],[20.59128,9.33216],[20.58648,9.3344],[20.58809,9.33757],[20.58471,9.33858],[20.58325,9.34412],[20.57519,9.34394],[20.57589,9.34013],[20.57095,9.33856],[20.57116,9.33567],[20.57782,9.33671],[20.57772,9.33173],[20.56842,9.33177],[20.56696,9.32704],[20.55011,9.33265],[20.55156,9.34143],[20.54938,9.34216],[20.53101,9.33569],[20.52314,9.32579],[20.52769,9.31124],[20.52417,9.29964],[20.51655,9.29865],[20.51079,9.30292],[20.50851,9.29883],[20.50504,9.30372],[20.4999,9.30405],[20.49072,9.29522],[20.49026,9.29044],[20.49553,9.28671],[20.50633,9.26407],[20.50616,9.25418],[20.51204,9.25063],[20.50893,9.24553],[20.51583,9.23902],[20.51384,9.23404],[20.51866,9.22563],[20.51499,9.22318],[20.49774,9.22532],[20.49266,9.22905],[20.48666,9.22636],[20.47746,9.21074],[20.46751,9.21355],[20.46394,9.21182],[20.4653,9.20586],[20.46115,9.19679],[20.46337,9.19254],[20.45904,9.19085],[20.45996,9.18676],[20.4552,9.18233],[20.45378,9.16595],[20.4439,9.15672],[20.4445,9.15155],[20.44172,9.14968],[20.43773,9.15178],[20.4254,9.14741],[20.4218,9.15373],[20.4161,9.15412],[20.39787,9.14883],[20.39895,9.15451],[20.39641,9.1542],[20.38669,9.1478],[20.38209,9.13838],[20.37241,9.13636],[20.36917,9.14203],[20.36429,9.13859],[20.36239,9.12673],[20.35528,9.12213],[20.34662,9.11982],[20.33849,9.1216],[20.33758,9.1286],[20.33018,9.13164],[20.32529,9.1229],[20.31181,9.1217],[20.30508,9.11751],[20.29477,9.12699],[20.28218,9.1209],[20.25207,9.12655],[20.24464,9.13186],[20.24737,9.13837],[20.2412,9.1409],[20.24135,9.14563],[20.23718,9.14821],[20.22822,9.14473],[20.21282,9.15718],[20.19739,9.15024],[20.19689,9.14056],[20.19257,9.13678],[20.17272,9.14119],[20.16716,9.13758],[20.16313,9.14185],[20.15237,9.13706],[20.13385,9.13802],[20.13003,9.13225],[20.1298,9.14487],[20.11109,9.1464],[20.10873,9.15591],[20.09912,9.15988],[20.08945,9.15766],[20.08903,9.15443],[20.09519,9.14913],[20.09459,9.14259],[20.08452,9.13256],[20.073,9.13386],[20.05801,9.14646],[20.05394,9.14435],[20.04765,9.1463],[20.04226,9.13997],[20.04414,9.13449],[20.03478,9.13005],[20.03263,9.12532],[20.02505,9.13321],[20.01302,9.12743],[20.01195,9.11526],[20.021,9.11328],[20.02035,9.10581],[20.00964,9.10222],[20.00096,9.1137],[19.99582,9.11282],[19.98697,9.09996],[19.97565,9.09683],[19.96952,9.10495],[19.92962,9.09045],[19.92589,9.0788],[19.93659,9.07214],[19.92999,9.06518],[19.92227,9.06636],[19.92307,9.07782],[19.91941,9.08197],[19.91282,9.07622],[19.90147,9.07888],[19.88941,9.06377],[19.88313,9.06233],[19.87434,9.07199],[19.86484,9.06969],[19.84963,9.05595],[19.85112,9.0538],[19.84336,9.05104],[19.83922,9.05094],[19.8381,9.05532],[19.83276,9.05711],[19.83267,9.06659],[19.82894,9.06796],[19.81952,9.05962],[19.80957,9.05844],[19.80688,9.05527],[19.79454,9.05484],[19.78929,9.06085],[19.77173,9.06285],[19.76426,9.05178],[19.75362,9.0542],[19.74005,9.04738],[19.72418,9.05104],[19.71745,9.04659],[19.71608,9.04032],[19.70811,9.03496],[19.69622,9.03492],[19.6895,9.02705],[19.68578,9.02755],[19.685,9.03165],[19.68765,9.03331],[19.68373,9.03638],[19.67493,9.03508],[19.66878,9.02948],[19.65451,9.03398],[19.64764,9.02404],[19.63323,9.02055],[19.62931,9.02178],[19.62491,9.03779],[19.60731,9.03984],[19.56163,9.02988],[19.54677,9.03215],[19.54167,9.0182],[19.53832,9.01902],[19.53684,9.01594],[19.5274,9.01881],[19.52648,9.02451],[19.52315,9.0258],[19.51797,9.01919],[19.50981,9.01866],[19.50292,9.02948],[19.49984,9.0286],[19.49504,9.01622],[19.48712,9.02253],[19.48601,9.0153],[19.48087,9.01054],[19.47572,9.01724],[19.4654,9.01768],[19.46213,9.01008],[19.45275,9.00789],[19.4445,9.00816],[19.44366,9.01052],[19.44891,9.01584],[19.44927,9.02242],[19.43184,9.02842],[19.42073,9.02195],[19.41757,9.02266],[19.41754,9.02811],[19.40533,9.02331],[19.4007,9.02786],[19.39321,9.02316],[19.39317,9.01621],[19.39021,9.01381],[19.37525,9.02071],[19.3724,9.02486],[19.35961,9.02859],[19.35737,9.02138],[19.35196,9.01824],[19.35615,9.01304],[19.35411,9.01149],[19.34775,9.0163],[19.3431,9.01462],[19.33978,9.02032],[19.33322,9.02096],[19.3316,9.01552],[19.31777,9.01526],[19.3084,9.00929],[19.29988,9.00885],[19.26193,9.01633],[19.25841,9.02921],[19.24886,9.02922],[19.24643,9.02532],[19.23894,9.0308],[19.23151,9.0281],[19.2223,9.03111],[19.22065,9.02702],[19.20681,9.0318],[19.19365,9.02554],[19.17939,9.02381],[19.17462,9.02692],[19.17351,9.0205],[19.16817,9.02001],[19.16692,9.01203],[19.15138,9.00795],[19.13254,9.01313],[19.1257,9.00859],[19.11426,9.00928],[19.11279,9.00588],[19.09235,9.00762],[19.08953,9.01176],[19.0868,9.01029],[19.08397,9.01935],[19.07987,9.01974],[19.07122,9.01373],[19.07162,9.00325],[19.06768,9.00185],[19.06004,9.00611],[19.05499,8.99898],[19.04777,8.99817],[19.04516,8.99336],[19.0324,8.99793],[19.02441,8.99605],[19.01638,8.98958],[19.01439,8.98232],[19.00721,8.98182],[19.00215,8.97748],[18.99556,8.9807],[18.9867,8.97735],[18.98027,8.96133],[18.98182,8.9556],[18.978,8.94997],[18.97164,8.94995],[18.97313,8.94246],[18.96185,8.94304],[18.95931,8.93475],[18.95445,8.93539],[18.95206,8.9317],[18.93805,8.9338],[18.93075,8.92828],[18.91737,8.92699],[18.91699,8.92178],[18.91242,8.92313],[18.90818,8.91936],[18.90817,8.90804],[18.9037,8.90737],[18.90108,8.89813],[18.89278,8.90411],[18.8812,8.90332],[18.88049,8.88946],[18.87648,8.88339],[18.86124,8.87835],[18.8611,8.86855],[18.86507,8.8617],[18.85967,8.85818],[18.86172,8.8514],[18.86772,8.85106],[18.87148,8.84351],[18.88384,8.85338],[18.89205,8.85555],[18.90384,8.85267],[18.9083,8.84179],[18.9052,8.8187],[18.91123,8.80802],[18.91809,8.80427],[18.9327,8.81209],[18.94474,8.81168],[18.95525,8.80192],[18.95871,8.78869],[18.9745,8.77623],[19.01279,8.76169],[19.02062,8.74509],[19.03753,8.72746],[19.06196,8.71313],[19.07875,8.71276],[19.09892,8.70091],[19.105,8.68667],[19.1239,8.67157],[19.10416,8.66198],[19.09198,8.64715],[19.08379,8.645],[19.07969,8.63757],[19.06652,8.6371],[19.06749,8.61954],[19.04516,8.58865],[19.04728,8.57256],[19.04183,8.56413],[19.04334,8.55392],[19.03596,8.54097],[19.03382,8.5438],[19.03124,8.54183],[19.03936,8.53561],[19.0349,8.53393],[19.03522,8.52963],[19.02799,8.52854],[19.02597,8.522],[19.01926,8.52184],[19.02105,8.51924],[19.01079,8.52237],[19.01043,8.51651],[19.00055,8.51774],[18.99959,8.514],[18.99506,8.51498],[18.99637,8.51994],[18.99313,8.52201],[18.99086,8.51979],[18.98499,8.50919],[18.99471,8.50483],[18.989,8.50237],[18.99157,8.49373],[18.98701,8.49134],[18.98381,8.49311],[18.9835,8.48657],[18.97908,8.49134],[18.97689,8.49025],[18.97685,8.48359],[18.97006,8.48449],[18.9733,8.47965],[18.96973,8.47683],[18.96979,8.46682],[18.96624,8.46686],[18.96596,8.46979],[18.96298,8.46825],[18.96538,8.46443],[18.96251,8.46265],[18.95636,8.46648],[18.9542,8.45769],[18.94863,8.45863],[18.94595,8.45153],[18.94141,8.45207],[18.94103,8.44878],[18.93571,8.4479],[18.93495,8.43764],[18.9296,8.43762],[18.92929,8.42584],[18.92115,8.42584],[18.91786,8.42045],[18.92273,8.41344],[18.91539,8.40843],[18.91571,8.4049],[18.92382,8.40253],[18.92469,8.39889],[18.91933,8.39727],[18.92179,8.39335],[18.91886,8.38724],[18.91413,8.38838],[18.9116,8.38458],[18.91053,8.38831],[18.9049,8.38693],[18.90603,8.37851],[18.90077,8.37729],[18.90206,8.37275],[18.89694,8.37286],[18.89256,8.36232],[18.88777,8.36568],[18.88256,8.36424],[18.88235,8.35871],[18.87176,8.35775],[18.87234,8.35053],[18.86751,8.34704],[18.87164,8.34504],[18.87049,8.34287],[18.85952,8.34253],[18.85907,8.34634],[18.85284,8.34855],[18.84938,8.34555],[18.85191,8.32452],[18.84279,8.31271],[18.84317,8.30537],[18.83525,8.29756],[18.83351,8.28986],[18.81021,8.27408],[18.80242,8.2624],[18.7885,8.25746],[18.78668,8.25422],[18.7491,8.24169],[18.73356,8.24015],[18.71048,8.22897],[18.69169,8.22397],[18.67862,8.21181],[18.67389,8.21333],[18.65702,8.19016],[18.65563,8.18134],[18.64123,8.16347],[18.6313,8.14201],[18.63394,8.12455],[18.63213,8.11773],[18.63532,8.1091],[18.63326,8.07998],[18.62278,8.07438],[18.61954,8.05918],[18.61212,8.05455],[18.60011,8.05399],[18.58023,8.04407],[18.03333,8.01528],[17.9272,7.9547],[17.72499,7.97889],[17.71407,7.98275],[17.69687,7.97097],[17.68401,7.9834],[17.66092,7.98488],[17.65222,7.97588],[17.65625,7.96126],[17.64319,7.94448],[17.63772,7.94782],[17.628,7.94686],[17.61389,7.93243],[17.60633,7.92898],[17.59936,7.9364],[17.58895,7.93725],[17.57842,7.92983],[17.57136,7.91647],[17.56333,7.91453],[17.56228,7.92217],[17.54949,7.93092],[17.53385,7.9241],[17.53683,7.91468],[17.53226,7.90529],[17.53509,7.89077],[17.52081,7.89507],[17.51872,7.88335],[17.51,7.87186],[17.50265,7.87219],[17.49474,7.88321],[17.47989,7.89039],[17.47255,7.89962],[17.4622,7.90175],[17.45491,7.8881],[17.4423,7.8909],[17.44072,7.88674],[17.44668,7.88176],[17.44198,7.87208],[17.42863,7.87228],[17.43085,7.88379],[17.42161,7.88244],[17.4136,7.87627],[17.41368,7.87037],[17.42004,7.86851],[17.4172,7.86433],[17.40106,7.87277],[17.40099,7.84839],[17.39772,7.84691],[17.38499,7.85935],[17.38201,7.85053],[17.37499,7.84776],[17.36099,7.85575],[17.34892,7.84337],[17.33826,7.84567],[17.33436,7.84175],[17.3332,7.83044],[17.32393,7.82531],[17.30475,7.83159],[17.29729,7.83099],[17.29379,7.81063],[17.27696,7.81018],[17.27476,7.79597],[17.26797,7.79716],[17.2648,7.78903],[17.25608,7.78806],[17.26167,7.7669],[17.25565,7.75165],[17.25056,7.74923],[17.23749,7.7531],[17.23279,7.76818],[17.22358,7.77094],[17.22037,7.7679],[17.22001,7.75801],[17.20738,7.74701],[17.21341,7.73421],[17.20548,7.73118],[17.20179,7.72209],[17.18301,7.72201],[17.17709,7.71367],[17.1687,7.7179],[17.16298,7.71387],[17.15899,7.70319],[17.16403,7.692],[17.15284,7.68149],[17.15522,7.6718],[17.14492,7.67205],[17.12228,7.66585],[17.10979,7.69314],[17.09628,7.69283],[17.09123,7.70109],[17.08358,7.6992],[17.08247,7.69114],[17.07733,7.68865],[17.08775,7.66464],[17.07239,7.66369],[17.05865,7.6532],[17.0398,7.65782],[17.03518,7.65114],[17.0402,7.642],[17.03538,7.63874],[17.00382,7.63613],[16.99747,7.64056],[16.98472,7.63794],[16.97724,7.64228],[16.97305,7.63244],[16.96276,7.63158],[16.95155,7.64508],[16.94052,7.63869],[16.93622,7.63016],[16.92402,7.62647],[16.92149,7.62176],[16.92257,7.60993],[16.91553,7.61019],[16.89374,7.62091],[16.89218,7.61053],[16.90182,7.60298],[16.90063,7.59608],[16.89536,7.59346],[16.88654,7.57909],[16.88875,7.57529],[16.90147,7.57488],[16.90658,7.56474],[16.89284,7.55201],[16.882,7.55644],[16.88257,7.55938],[16.88627,7.55959],[16.88512,7.56318],[16.8776,7.56488],[16.86649,7.56226],[16.86037,7.55749],[16.85943,7.54471],[16.85106,7.5398],[16.8423,7.54199],[16.83849,7.5336],[16.82693,7.53819],[16.80935,7.53676],[16.8034,7.55328],[16.79058,7.5636],[16.79093,7.58706],[16.77436,7.60908],[16.74865,7.62332],[16.74267,7.63301],[16.7305,7.63875],[16.72274,7.63549],[16.70615,7.64135],[16.68403,7.64023],[16.6824,7.65294],[16.67452,7.65965],[16.67017,7.6699],[16.65931,7.67179],[16.65893,7.70998],[16.65555,7.71778],[16.65604,7.72397],[16.66399,7.73517],[16.66273,7.73993],[16.63754,7.75971],[16.62351,7.76257],[16.62087,7.76593],[16.60568,7.76201],[16.59042,7.77258],[16.59194,7.78152],[16.58629,7.80189],[16.59162,7.80379],[16.59057,7.80982],[16.58723,7.80959],[16.58482,7.81758],[16.58225,7.81796],[16.58139,7.82687],[16.58656,7.83249],[16.58215,7.83674],[16.57858,7.8497],[16.58099,7.85316],[16.57869,7.85757],[16.59108,7.86917],[16.58704,7.87347],[16.59205,7.88014],[16.59193,7.88551],[16.58524,7.88298],[16.57832,7.87472],[16.56918,7.87587],[16.56176,7.87091],[16.55312,7.87241],[16.55145,7.86683],[16.55518,7.8622],[16.55289,7.85889],[16.53662,7.85916],[16.53376,7.85379],[16.5244,7.84817],[16.50798,7.84849],[16.50604,7.84612],[16.50867,7.83283],[16.50357,7.82755],[16.50368,7.82207],[16.48905,7.81267],[16.48668,7.80832],[16.48816,7.79642],[16.47862,7.7895],[16.47485,7.79199],[16.45931,7.78646],[16.44754,7.78864],[16.45216,7.79423],[16.4481,7.80375],[16.43167,7.81002],[16.41957,7.78356],[16.40622,7.77344],[16.41928,7.75045],[16.4168,7.74522],[16.4105,7.74254],[16.40915,7.73589],[16.41221,7.73516],[16.41601,7.72335],[16.42535,7.7208],[16.42458,7.71654],[16.40514,7.69674],[16.40501,7.69033],[16.40242,7.69057],[16.39932,7.6824],[16.39024,7.68355],[16.38569,7.67295],[16.37988,7.67503],[16.37213,7.66834],[16.36357,7.66886],[16.35453,7.66431],[16.3477,7.66805],[16.34185,7.66127],[16.33546,7.66363],[16.32626,7.66197],[16.30775,7.6507],[16.29557,7.65414],[16.28534,7.64345],[16.28693,7.6385],[16.27192,7.63088],[16.27049,7.62669],[16.25815,7.62465],[16.25581,7.62679],[16.25037,7.62259],[16.25004,7.6134],[16.23445,7.60987],[16.22919,7.60582],[16.21846,7.60583],[16.20935,7.61179],[16.20218,7.61068],[16.19842,7.61668],[16.18997,7.6181],[16.17466,7.61112],[16.16011,7.59352],[16.13343,7.59579],[16.12536,7.58701],[16.12154,7.59221],[16.11786,7.58864],[16.11157,7.59326],[16.10461,7.59087],[16.10307,7.59438],[16.09812,7.59023],[16.09221,7.59202],[16.08572,7.58815],[16.07806,7.58911],[16.05653,7.58096],[16.05412,7.57539],[16.04639,7.57569],[16.035,7.56133],[16.0335,7.53131],[16.02081,7.52969],[16.01224,7.52332],[16.01266,7.51617],[16.00498,7.50832],[15.98706,7.49969],[15.98331,7.49268],[15.97309,7.49323],[15.96996,7.48707],[15.93259,7.48478],[15.91703,7.48032],[15.9146,7.47563],[15.90306,7.46948],[15.87671,7.46398],[15.87149,7.46025],[15.83658,7.45446],[15.82325,7.44611],[15.80511,7.44775],[15.79929,7.44344],[15.7924,7.45603],[15.78305,7.46157],[15.77166,7.46757],[15.75615,7.45874],[15.75508,7.46489],[15.75033,7.46534],[15.74617,7.47697],[15.73604,7.47677],[15.72915,7.48473],[15.72998,7.48869],[15.71736,7.50993],[15.72049,7.5112],[15.72008,7.51745],[15.54348,7.5111],[15.49308,7.52772],[15.51048,7.53414],[15.51637,7.54779],[15.52189,7.54763],[15.5361,7.56031],[15.53977,7.56792],[15.55013,7.57259],[15.55256,7.57908],[15.56164,7.58527],[15.56632,7.59338],[15.56055,7.60395],[15.56149,7.61292],[15.5684,7.61695],[15.57557,7.62714],[15.57647,7.63689],[15.58064,7.64186],[15.57977,7.65092],[15.57435,7.65749],[15.58589,7.66763],[15.58458,7.671],[15.59049,7.6876],[15.58729,7.6942],[15.58665,7.70922],[15.58941,7.7211],[15.58488,7.72331],[15.58752,7.7401],[15.58372,7.74177],[15.58348,7.74618],[15.59145,7.76629],[15.58798,7.77814],[15.50638,7.79752],[15.45235,7.88755],[15.39396,8.04651],[15.39314,8.09841],[15.20006,8.51225],[15.17778,8.52699],[15.16661,8.55578],[15.15409,8.57387],[15.15094,8.60586],[15.11758,8.63152],[15.10932,8.64324],[15.10901,8.65935],[15.06363,8.67949],[15.03177,8.67417],[15.01612,8.68511],[14.9812,8.68645],[14.98122,8.70031],[14.98511,8.70441],[14.983,8.70688],[14.98871,8.71669],[14.98929,8.72751],[14.98617,8.72735],[14.98498,8.73152],[14.97039,8.74252],[14.95456,8.74661],[14.94904,8.75433],[14.92266,8.75096],[14.90996,8.76139],[14.90914,8.7661],[14.92151,8.77449],[14.92254,8.77845],[14.90357,8.79339],[14.90005,8.80973],[14.89657,8.81251],[14.8801,8.81966],[14.87675,8.81599],[14.87222,8.82215],[14.86225,8.81429],[14.85376,8.81827],[14.85344,8.81103],[14.84159,8.81111],[14.58971,8.99842],[14.49064,9.05822],[14.48292,9.0797],[14.47104,9.09699],[14.4686,9.11146],[14.41248,9.14175],[14.4078,9.14175],[14.3972,9.15972],[14.39151,9.1602],[14.3905,9.1664],[14.36437,9.18003],[14.35664,9.19087],[14.3581,9.19739],[14.3495,9.20034],[14.3467,9.20713],[14.34831,9.21631],[14.35702,9.22026],[14.35586,9.22925],[14.36228,9.23032],[14.3617,9.23837],[14.36759,9.24164],[14.36775,9.25905],[14.37139,9.25947],[14.37161,9.26852],[14.37528,9.27429],[14.37316,9.29415],[14.3392,9.30988],[14.32891,9.3361],[14.32039,9.34295],[14.30433,9.37168],[14.27452,9.36175],[14.26309,9.36506],[14.24343,9.39215],[14.22759,9.42699],[14.21327,9.43641],[14.2061,9.45031],[14.19577,9.44789],[14.19154,9.44988],[14.19034,9.45676],[14.17968,9.46676],[14.17683,9.47793],[14.16027,9.49144],[14.15443,9.5004],[14.14903,9.50404],[14.12541,9.50522],[14.10315,9.51975],[14.09858,9.54108],[14.08807,9.55473],[14.07553,9.55612],[14.07111,9.56488],[14.06544,9.56808],[14.06798,9.57241],[14.04195,9.6039],[14.0412,9.61165],[14.03694,9.61263],[14.03506,9.61918],[13.99884,9.62783],[13.97627,9.64521],[13.9989,9.69674],[14.0232,9.73637],[14.13345,9.83115],[14.1743,9.90496],[14.20857,9.99891],[14.21518,10.00787],[14.4639,10.00345],[14.47203,10.00795],[14.48305,10.00242],[14.79894,9.93731],[14.95276,9.98605],[15.00271,9.9709],[15.02691,9.97061],[15.06038,9.95034],[15.06452,9.95072],[15.10449,9.96912],[15.1146,9.99048],[15.1501,9.99873],[15.17598,9.99045],[15.19757,9.99802],[15.21005,9.9958],[15.21576,9.98982],[15.24643,9.99392],[15.36265,9.96494],[15.41547,9.93781],[15.53054,9.95814],[15.68927,9.99831],[15.68148,10.00581],[15.61586,10.04608],[15.58943,10.05028],[15.58041,10.06918],[15.55898,10.06645],[15.55211,10.08017],[15.53042,10.10025],[15.50245,10.09863],[15.48928,10.11689],[15.4889,10.12348],[15.47866,10.12759],[15.46714,10.14348],[15.46431,10.1531],[15.45603,10.16103],[15.45343,10.17488],[15.44127,10.1961],[15.40996,10.21612],[15.40502,10.23244],[15.39734,10.23616],[15.39494,10.24924],[15.38108,10.24735],[15.37852,10.2575],[15.36917,10.26774],[15.35773,10.27171],[15.34922,10.29456],[15.3452,10.29764],[15.31445,10.30775],[15.30535,10.30778],[15.30085,10.33681],[15.28857,10.3425],[15.28936,10.35413],[15.2792,10.36722],[15.28017,10.4043],[15.27351,10.41658],[15.25052,10.43585],[15.24362,10.45102],[15.24368,10.47423],[15.21995,10.48986],[15.21432,10.4991],[15.1997,10.49974],[15.18931,10.51344],[15.16365,10.52292],[15.14503,10.54165],[15.14712,10.56013],[15.14184,10.59023],[15.15395,10.60502],[15.16095,10.62399],[15.15368,10.63534],[15.15252,10.64883],[15.13425,10.67055],[15.13815,10.68659],[15.12806,10.69945],[15.13044,10.7035],[15.12884,10.7106],[15.1141,10.72462],[15.09206,10.75861],[15.09051,10.77022],[15.08014,10.78002],[15.0743,10.80641],[15.06843,10.81785],[15.06769,10.82271],[15.07239,10.8297],[15.073,10.84764],[15.09116,10.8661],[15.09711,10.86821],[15.09703,10.87324],[15.09078,10.88401],[15.09297,10.8972],[15.08711,10.92382],[15.08395,10.93434],[15.07882,10.939],[15.07937,10.95805],[15.05902,10.97576],[15.05968,10.98493],[15.04611,11.0038],[15.05331,11.01522],[15.05257,11.01922],[15.04545,11.02395],[15.04856,11.03088],[15.05289,11.03024],[15.05403,11.02689],[15.06934,11.02644],[15.08255,11.03434],[15.09262,11.03362],[15.09726,11.04611],[15.09425,11.06226],[15.10092,11.06893],[15.10258,11.08018],[15.11,11.09016],[15.10789,11.09562],[15.09849,11.1011],[15.0964,11.10875],[15.09825,11.1544],[15.09486,11.16791],[15.08434,11.174],[15.06742,11.20292],[15.05819,11.23146],[15.06624,11.24121],[15.06588,11.25096],[15.05966,11.27114],[15.04821,11.28094],[15.05517,11.28771],[15.06353,11.31156],[15.07274,11.32012],[15.07283,11.32726],[15.04874,11.34765],[15.06902,11.36825],[15.06232,11.3896],[15.05593,11.39957],[15.06177,11.4069],[15.05932,11.4168],[15.0681,11.42042],[15.07152,11.43761],[15.07829,11.44342],[15.07377,11.44972],[15.08195,11.4496],[15.08456,11.45251],[15.08934,11.46689],[15.10095,11.4787],[15.09666,11.48967],[15.10825,11.49117],[15.10759,11.50201],[15.12334,11.51139],[15.13274,11.5132],[15.13019,11.52531],[15.13862,11.53464],[15.14005,11.5555],[15.14404,11.56148],[15.12965,11.57432],[15.10172,11.58472],[15.0991,11.58884],[15.09982,11.61494],[15.08575,11.62524],[15.08694,11.63737],[15.07704,11.6464],[15.08483,11.66016],[15.08345,11.66493],[15.0747,11.67109],[15.08153,11.68885],[15.07351,11.69401],[15.07141,11.70313],[15.06413,11.71231],[15.06611,11.72081],[15.07886,11.73569],[15.10278,11.72948],[15.10546,11.73235],[15.09661,11.74927],[15.08414,11.75511],[15.07998,11.76502],[15.09149,11.77548],[15.11283,11.77909],[15.12196,11.78844],[15.12232,11.79289],[15.11576,11.80165],[15.10656,11.80462],[15.09758,11.81534],[15.09795,11.83018],[15.09284,11.85228],[15.07741,11.8587],[15.07213,11.84917],[15.06313,11.84371],[15.04889,11.86006],[15.04895,11.88007],[15.04073,11.89614],[15.03906,11.91033],[15.04318,11.91582],[15.05625,11.91941],[15.06313,11.93662],[15.04659,11.96595],[15.0571,11.98083],[15.06333,11.98049],[15.07005,11.97518],[15.07609,11.97559],[15.08385,11.98525],[15.08615,11.9943],[15.08327,12.00374],[15.06739,12.00295],[15.05902,12.0064],[15.03766,12.03391],[15.05737,12.03753],[15.06075,12.05731],[15.05202,12.07042],[15.03702,12.07783],[15.03417,12.10746],[15.01243,12.12029],[14.99961,12.12139],[14.98877,12.10817],[14.97735,12.10039],[14.96007,12.0973],[14.92571,12.12746],[14.91911,12.12853],[14.91182,12.14583],[14.88474,12.16349],[14.88838,12.17557],[14.90735,12.18012],[14.91191,12.18674],[14.90789,12.19329],[14.89582,12.19755],[14.89207,12.20398],[14.90386,12.22884],[14.89237,12.24714],[14.89219,12.25308],[14.9021,12.26648],[14.90565,12.27929],[14.89237,12.31003],[14.90963,12.32974],[14.91069,12.33453],[14.90103,12.34417],[14.8997,12.35062],[14.90911,12.37724],[14.90859,12.38448],[14.88909,12.42187],[14.8746,12.43765],[14.87875,12.45991],[14.87169,12.47037],[14.86542,12.46943],[14.85874,12.45325],[14.84847,12.45529],[14.84436,12.4639],[14.8433,12.47318],[14.84646,12.48012],[14.85889,12.49153],[14.85626,12.50579],[14.8476,12.51843],[14.8543,12.57635],[14.83848,12.60397],[14.8367,12.62357],[14.83223,12.63363],[14.82472,12.64001],[14.8064,12.63583],[14.79616,12.64057],[14.78269,12.63259],[14.77058,12.63485],[14.76433,12.64283],[14.76148,12.65384],[14.7617,12.67745],[14.74413,12.68921],[14.73378,12.6838],[14.72862,12.66321],[14.72233,12.6586],[14.71147,12.65875],[14.70465,12.66557],[14.70306,12.67954],[14.70731,12.6885],[14.71862,12.69686],[14.72442,12.70552],[14.72476,12.7137],[14.71969,12.72064],[14.69682,12.72876],[14.66141,12.72288],[14.65328,12.72582],[14.63366,12.74295],[14.61748,12.74316],[14.61571,12.74906],[14.62294,12.75563],[14.62552,12.7652],[14.62418,12.77108],[14.61951,12.77454],[14.60433,12.75307],[14.59215,12.74572],[14.58597,12.74846],[14.57986,12.75658],[14.57606,12.78162],[14.56918,12.78585],[14.55877,12.77519],[14.55396,12.77776],[14.54833,12.78763],[14.54771,12.79869],[14.56622,12.83737],[14.55445,12.86661],[14.5289,12.88071],[14.52308,12.88974],[14.5218,12.89881],[14.53403,12.92066],[14.54713,12.92837],[14.46667,13.08333],[14.08333,13.08333],[13.63338,13.70816],[13.47,14.41639],[13.47116,14.46276],[13.49864,14.48514],[13.57366,14.51374],[13.59847,14.5102],[13.64299,14.52104],[13.69544,14.55854],[13.69235,14.58607],[13.69462,14.62008],[13.67293,14.64025],[13.74674,14.70427],[13.76766,14.70008],[13.80865,14.72726],[13.81321,14.73479],[13.79497,14.7999],[13.79086,14.87477],[13.87261,15.05394],[13.95286,15.14201],[14.00355,15.2059],[14.09005,15.33265],[14.24967,15.55628],[14.38997,15.74035],[14.64604,15.99878],[14.99855,16.27905],[15.53253,16.7488],[15.59198,18.79485],[15.6033,18.88821],[15.75565,19.94508],[15.78427,19.99968],[15.99903,20.36149],[15.76484,20.45827],[15.74241,20.45839],[15.72376,20.47831],[15.70783,20.51034],[15.68652,20.5264],[15.67144,20.53369],[15.62452,20.53791],[15.59273,20.57013],[15.60116,20.58538],[15.59409,20.6118],[15.54594,20.68244],[15.53702,20.69366],[15.52788,20.69881],[15.52397,20.73476],[15.51359,20.73272],[15.50795,20.7416],[15.46904,20.76688],[15.46077,20.77755],[15.42717,20.79472],[15.41916,20.8114],[15.41108,20.83877],[15.41983,20.8678],[15.46166,20.89929],[15.48392,20.90874],[15.49446,20.94728],[15.50452,20.96089],[15.50454,20.96539],[15.50014,20.98412],[15.48586,20.99318],[15.48117,20.99968],[15.28187,21.45096],[15.19783,21.49834],[15.19901,21.99971],[15.05718,22.69833],[15,23],[16,23.45236],[17.02411,22.98006],[18.04108,22.50116],[19.05103,22.01585],[20.05407,21.52434],[21.05035,21.0268],[22.04001,20.52345],[23.02317,20.01445],[24,19.5],[24,15.6988],[23.96075,15.71903],[23.91476,15.71943],[23.89684,15.72779],[23.87865,15.73062],[23.85677,15.73948],[23.82346,15.73858],[23.80971,15.74346],[23.78223,15.74401],[23.76525,15.751],[23.73137,15.74706],[23.68761,15.76095],[23.61065,15.76539],[23.59055,15.76445],[23.56522,15.7563],[23.49645,15.74633],[23.43428,15.71481],[23.41786,15.69959],[23.37266,15.69788],[23.32456,15.68866],[23.30728,15.68964],[23.29637,15.70391],[23.28347,15.70907],[23.2752,15.70467],[23.24364,15.70373],[23.22067,15.71273],[23.21113,15.72268],[23.17498,15.71325],[23.16314,15.71362],[23.14881,15.71899],[23.12609,15.71972],[23.11795,15.71718],[23.11034,15.70794],[23.09488,15.6979],[23.07854,15.66756],[23.06545,15.66401],[23.0442,15.64848],[23.04065,15.63332],[23.03404,15.62387],[23.00888,15.60632],[22.99647,15.58712],[22.97323,15.57444],[22.9612,15.57538],[22.95246,15.57248],[22.94489,15.56559],[22.94032,15.56612],[22.93539,15.56224],[22.92404,15.54214],[22.92711,15.53608],[22.92409,15.52975],[22.92989,15.5161],[22.92304,15.49943]]]]}}]}