{"type":"FeatureCollection","features":[{"type":"Feature","properties":{"ISO_A3":"TGO","WB_A3":"TGO","WB_NAME":"Togo","WB_REGION":"AFW,SSF"},"geometry":{"type":"MultiPolygon","coordinates":[[[[1.62659,8.60229],[1.6238,8.54456],[1.65097,8.49434],[1.64122,8.46708],[1.62661,8.45508],[1.63231,8.44375],[1.63221,8.43667],[1.62542,8.43007],[1.62536,8.4216],[1.62882,8.41959],[1.62603,8.4149],[1.62647,8.4023],[1.62372,8.40085],[1.62527,8.38271],[1.62111,8.38148],[1.6156,8.3722],[1.62013,8.3602],[1.63202,8.34508],[1.63179,8.00003],[1.63446,7.97513],[1.62962,7.86499],[1.63324,7.80776],[1.63129,7.64259],[1.64,7.63624],[1.64272,7.61627],[1.64736,7.60973],[1.64314,7.57743],[1.64521,7.56469],[1.6309,7.4407],[1.63291,7],[1.55793,7],[1.56017,6.97167],[1.58026,6.93888],[1.57761,6.92006],[1.58486,6.90891],[1.6056,6.90473],[1.60285,6.89147],[1.60705,6.87866],[1.5974,6.8695],[1.60119,6.85011],[1.59811,6.83019],[1.60221,6.82614],[1.61245,6.82581],[1.60267,6.81897],[1.59407,6.79974],[1.61162,6.79285],[1.61469,6.78661],[1.6082,6.77492],[1.60977,6.76832],[1.61522,6.76377],[1.62529,6.76282],[1.61579,6.75328],[1.62208,6.74348],[1.62282,6.7365],[1.59952,6.72971],[1.59713,6.72035],[1.59692,6.72824],[1.59152,6.7286],[1.58844,6.72262],[1.59047,6.71581],[1.58839,6.7103],[1.59312,6.70337],[1.5845,6.69532],[1.58441,6.6909],[1.57624,6.69101],[1.57504,6.68732],[1.57968,6.68312],[1.5861,6.68522],[1.58912,6.6809],[1.58746,6.67409],[1.59533,6.67555],[1.60734,6.66282],[1.60348,6.65689],[1.60706,6.65184],[1.61481,6.64972],[1.61175,6.6438],[1.60176,6.64292],[1.60306,6.63383],[1.60595,6.63261],[1.60301,6.62443],[1.61166,6.62467],[1.60972,6.61225],[1.62297,6.60096],[1.6289,6.60314],[1.63535,6.60005],[1.63924,6.5898],[1.64991,6.5846],[1.65224,6.57513],[1.65502,6.5739],[1.66129,6.58088],[1.66541,6.57932],[1.66743,6.57613],[1.66493,6.57249],[1.65724,6.57279],[1.6595,6.56838],[1.66782,6.565],[1.67043,6.55476],[1.67437,6.55555],[1.67874,6.5626],[1.68301,6.56194],[1.68525,6.5515],[1.69685,6.55366],[1.69298,6.54451],[1.69975,6.53907],[1.70707,6.54038],[1.70776,6.53814],[1.69894,6.53348],[1.70165,6.53146],[1.69919,6.52525],[1.70365,6.51348],[1.70131,6.51162],[1.69626,6.51769],[1.69131,6.51843],[1.69459,6.51165],[1.6941,6.5024],[1.70247,6.50629],[1.70378,6.49717],[1.71114,6.50344],[1.71725,6.49847],[1.71704,6.49199],[1.7214,6.49132],[1.72187,6.50026],[1.72837,6.50157],[1.72952,6.49463],[1.72472,6.49372],[1.72527,6.48752],[1.73787,6.48687],[1.73095,6.47567],[1.7361,6.47404],[1.73618,6.47824],[1.74551,6.47237],[1.75269,6.47348],[1.75263,6.46885],[1.74907,6.46871],[1.74691,6.46182],[1.75817,6.45929],[1.75293,6.45417],[1.75482,6.44474],[1.75961,6.44128],[1.76642,6.44479],[1.76436,6.43977],[1.76652,6.43156],[1.77882,6.42824],[1.77546,6.42196],[1.77294,6.42519],[1.7704,6.42368],[1.76924,6.41705],[1.76343,6.41073],[1.76538,6.40568],[1.77518,6.40721],[1.76755,6.39607],[1.77251,6.39427],[1.77503,6.38451],[1.78471,6.38276],[1.78226,6.36878],[1.78666,6.35182],[1.77961,6.34506],[1.78609,6.34118],[1.78404,6.33263],[1.7911,6.33433],[1.79079,6.32855],[1.7967,6.3211],[1.79564,6.31179],[1.78813,6.30905],[1.79312,6.30521],[1.79293,6.29815],[1.80392,6.29336],[1.80833,6.28671],[1.7996,6.28682],[1.79621,6.28052],[1.7774,6.28623],[1.76987,6.27979],[1.77064,6.27634],[1.76687,6.27716],[1.7674,6.27316],[1.74723,6.27315],[1.74421,6.2684],[1.73275,6.2642],[1.72271,6.26407],[1.71411,6.25965],[1.69889,6.26027],[1.69063,6.2547],[1.68054,6.25638],[1.67538,6.2513],[1.66413,6.25295],[1.65953,6.24896],[1.6509,6.24964],[1.64582,6.24486],[1.63508,6.24757],[1.62903,6.24134],[1.62903,6.23462],[1.4863,6.20452],[1.39032,6.17975],[1.30054,6.15087],[1.28691,6.14477],[1.28563,6.14142],[1.28177,6.14218],[1.28556,6.13566],[1.26249,6.13322],[1.19965,6.11236],[1.19936,6.16923],[1.08287,6.1695],[1.08315,6.18746],[1.0678,6.20948],[1.06483,6.22091],[1.05294,6.23488],[1.04837,6.23322],[1.03695,6.2379],[1.02414,6.25621],[1.01601,6.28708],[1.00882,6.29291],[1.00665,6.29902],[1.00817,6.32075],[1.00347,6.33548],[0.8931,6.33333],[0.88365,6.35569],[0.87771,6.35932],[0.86194,6.38039],[0.83569,6.39693],[0.78912,6.40874],[0.78256,6.43309],[0.74959,6.44412],[0.74405,6.4832],[0.72711,6.49026],[0.72189,6.49729],[0.71228,6.52935],[0.73072,6.55039],[0.74756,6.56295],[0.74134,6.58415],[0.72826,6.59398],[0.71139,6.58903],[0.69126,6.5908],[0.68415,6.59762],[0.69138,6.59852],[0.67332,6.61398],[0.66392,6.60492],[0.65713,6.60772],[0.64351,6.63126],[0.6366,6.63381],[0.63542,6.64238],[0.6428,6.66461],[0.64948,6.67476],[0.64318,6.68805],[0.64743,6.70924],[0.64238,6.71971],[0.64295,6.72655],[0.64999,6.73755],[0.63241,6.74894],[0.62337,6.74909],[0.61971,6.75424],[0.60808,6.74724],[0.60078,6.7567],[0.58133,6.76158],[0.5737,6.77323],[0.57599,6.77504],[0.56694,6.78197],[0.56625,6.78848],[0.57,6.79378],[0.56985,6.80087],[0.57544,6.7992],[0.57853,6.80804],[0.56921,6.80988],[0.56436,6.82466],[0.56125,6.82399],[0.54753,6.83379],[0.54444,6.83044],[0.5462,6.82759],[0.53905,6.82514],[0.5324,6.82824],[0.53129,6.85686],[0.54279,6.8611],[0.54328,6.86564],[0.53537,6.87659],[0.55556,6.88404],[0.5625,6.90233],[0.56323,6.91574],[0.56612,6.91804],[0.56,6.92827],[0.55055,6.92877],[0.54856,6.93521],[0.54564,6.93356],[0.52408,6.94222],[0.52183,6.94778],[0.526,6.95497],[0.52212,6.9608],[0.52526,6.96404],[0.52117,6.96811],[0.52295,6.9733],[0.53397,6.97676],[0.54794,6.99085],[0.57044,6.99613],[0.58058,6.99405],[0.58931,6.99882],[0.59683,7.00607],[0.59257,7.01006],[0.60347,7.02219],[0.6013,7.03382],[0.60462,7.03594],[0.59739,7.06015],[0.61385,7.09018],[0.61454,7.09449],[0.61129,7.09761],[0.61421,7.09916],[0.61156,7.10549],[0.60232,7.10731],[0.59996,7.11265],[0.59169,7.11472],[0.59698,7.13383],[0.60311,7.13576],[0.60547,7.14205],[0.60475,7.15287],[0.61594,7.15755],[0.61847,7.17061],[0.6143,7.17349],[0.61662,7.18188],[0.62536,7.18496],[0.63375,7.20683],[0.64306,7.25365],[0.64487,7.29032],[0.6465,7.29354],[0.65202,7.2927],[0.65051,7.30567],[0.65828,7.31736],[0.64858,7.3558],[0.64111,7.37145],[0.64895,7.37912],[0.64337,7.39191],[0.64413,7.40116],[0.63369,7.40375],[0.62913,7.39972],[0.62545,7.41017],[0.61987,7.41235],[0.60212,7.40497],[0.59887,7.4003],[0.56789,7.39313],[0.55316,7.4055],[0.54412,7.42082],[0.53872,7.42224],[0.53753,7.43524],[0.53208,7.44348],[0.53247,7.45677],[0.52345,7.45648],[0.51948,7.4602],[0.52264,7.46767],[0.51975,7.47063],[0.52859,7.47877],[0.52657,7.49198],[0.52304,7.49419],[0.52387,7.50302],[0.51863,7.51165],[0.52521,7.58142],[0.52428,7.58928],[0.51849,7.59301],[0.52908,7.59659],[0.5439,7.60843],[0.55305,7.6067],[0.56095,7.61373],[0.58604,7.62208],[0.5833,7.67037],[0.59056,7.70322],[0.60321,7.7104],[0.60879,7.71093],[0.61987,7.70331],[0.62463,7.70457],[0.62624,7.70935],[0.61618,7.73916],[0.61697,7.74535],[0.61148,7.75516],[0.61947,7.75787],[0.61879,7.76324],[0.63096,7.76743],[0.62955,7.78563],[0.62711,7.78774],[0.62918,7.79123],[0.61761,7.79541],[0.62181,7.79971],[0.61695,7.80598],[0.61976,7.84088],[0.62359,7.84244],[0.62542,7.84865],[0.62747,7.86739],[0.62169,7.87441],[0.62149,7.88354],[0.62388,7.88468],[0.61741,7.92629],[0.61183,7.93765],[0.61201,7.94989],[0.60539,7.95686],[0.6064,7.96099],[0.60395,7.9609],[0.59667,7.9868],[0.59684,7.9895],[0.60792,7.99133],[0.60792,7.99679],[0.59896,8.00666],[0.59737,8.01417],[0.60243,8.02195],[0.59392,8.04034],[0.59747,8.0449],[0.59876,8.05678],[0.59747,8.06121],[0.59266,8.06129],[0.58477,8.09302],[0.58656,8.1035],[0.59253,8.10334],[0.59219,8.13919],[0.60678,8.13973],[0.60966,8.14565],[0.6082,8.17441],[0.61203,8.17498],[0.61396,8.18479],[0.60245,8.18487],[0.58849,8.19769],[0.58963,8.20515],[0.599,8.21278],[0.61923,8.21575],[0.61942,8.21971],[0.62601,8.22434],[0.62446,8.23722],[0.63806,8.24568],[0.63849,8.26034],[0.67431,8.25945],[0.68168,8.26514],[0.68418,8.27776],[0.68803,8.28076],[0.71093,8.28907],[0.73102,8.28652],[0.73148,8.31457],[0.72749,8.33848],[0.72963,8.3399],[0.72847,8.34327],[0.71745,8.34391],[0.71958,8.34769],[0.71051,8.35156],[0.71161,8.36709],[0.7088,8.36733],[0.70837,8.37793],[0.71123,8.37879],[0.69914,8.38954],[0.70406,8.39239],[0.70242,8.39433],[0.69472,8.39435],[0.69553,8.40478],[0.68719,8.40698],[0.68627,8.41131],[0.67958,8.41014],[0.67158,8.41729],[0.65158,8.42278],[0.65369,8.44516],[0.65161,8.4476],[0.65557,8.45675],[0.65025,8.46262],[0.64932,8.472],[0.64498,8.47533],[0.64479,8.49448],[0.6399,8.49784],[0.62933,8.49633],[0.62615,8.50261],[0.63004,8.50758],[0.62472,8.51127],[0.61161,8.5131],[0.60157,8.51836],[0.59032,8.51643],[0.58364,8.52608],[0.58021,8.52374],[0.57548,8.52721],[0.57186,8.52515],[0.57066,8.53425],[0.56459,8.53844],[0.56277,8.54579],[0.53559,8.55783],[0.52995,8.57004],[0.52393,8.56412],[0.51138,8.56395],[0.51095,8.57112],[0.50811,8.57284],[0.50587,8.57022],[0.49955,8.57404],[0.50148,8.57912],[0.49432,8.58558],[0.49452,8.59498],[0.49188,8.59715],[0.48403,8.5987],[0.48008,8.59376],[0.46943,8.59621],[0.47147,8.5995],[0.38263,8.73957],[0.38484,8.74563],[0.37463,8.75506],[0.39453,8.75384],[0.40092,8.75686],[0.39979,8.76089],[0.3892,8.76171],[0.38096,8.76819],[0.37807,8.77335],[0.38128,8.77627],[0.37941,8.79222],[0.39052,8.79082],[0.39111,8.79608],[0.39868,8.78957],[0.39898,8.79328],[0.41816,8.79229],[0.42399,8.78963],[0.42324,8.78244],[0.42785,8.77916],[0.44104,8.7878],[0.43855,8.79378],[0.43155,8.79024],[0.42963,8.79616],[0.44121,8.80064],[0.44812,8.81129],[0.45976,8.80928],[0.45948,8.80183],[0.46339,8.80094],[0.46756,8.79252],[0.46997,8.7925],[0.472,8.79946],[0.49045,8.79994],[0.50039,8.81447],[0.49572,8.81991],[0.50056,8.83046],[0.49608,8.83983],[0.50799,8.84879],[0.50809,8.8547],[0.51826,8.8526],[0.52083,8.85526],[0.51696,8.86415],[0.52016,8.87233],[0.5276,8.87785],[0.51476,8.89866],[0.51254,8.91379],[0.50934,8.91662],[0.5164,8.9375],[0.50922,8.94147],[0.50725,8.94944],[0.4942,8.95403],[0.46855,9.0044],[0.4707,9.01938],[0.46541,9.02283],[0.46327,9.03433],[0.45695,9.03533],[0.4563,9.04227],[0.45749,9.05525],[0.4625,9.05425],[0.46248,9.07614],[0.47307,9.09632],[0.4833,9.09968],[0.48706,9.11131],[0.48344,9.11652],[0.48481,9.12373],[0.4817,9.13591],[0.47677,9.14502],[0.4958,9.15605],[0.50308,9.15411],[0.50459,9.16003],[0.51163,9.16372],[0.52203,9.19377],[0.5336,9.20942],[0.50589,9.25486],[0.51338,9.26987],[0.52853,9.28572],[0.53791,9.30533],[0.55255,9.30389],[0.556,9.31174],[0.54509,9.34069],[0.55251,9.35229],[0.567,9.40593],[0.55721,9.41206],[0.55502,9.42314],[0.54846,9.42245],[0.53209,9.43133],[0.52686,9.43063],[0.51789,9.44053],[0.50837,9.4368],[0.50003,9.43865],[0.49487,9.45229],[0.50378,9.45819],[0.50569,9.46737],[0.50066,9.47219],[0.50256,9.47522],[0.48868,9.4869],[0.48162,9.48511],[0.46295,9.49048],[0.45666,9.498],[0.43949,9.49536],[0.41486,9.50068],[0.40614,9.49388],[0.40145,9.49544],[0.38915,9.49154],[0.37606,9.49317],[0.37051,9.49863],[0.36913,9.49597],[0.35934,9.49919],[0.3444,9.48687],[0.34982,9.47384],[0.34477,9.47227],[0.33827,9.45341],[0.33173,9.44825],[0.31244,9.44622],[0.3049,9.43883],[0.27363,9.42729],[0.26928,9.43076],[0.26234,9.4286],[0.2587,9.43109],[0.26033,9.4327],[0.24717,9.43801],[0.2436,9.44806],[0.22908,9.46347],[0.22727,9.47886],[0.23082,9.48647],[0.254,9.47774],[0.26987,9.47878],[0.27568,9.48763],[0.28871,9.4879],[0.31111,9.50463],[0.30926,9.51265],[0.29686,9.52277],[0.28054,9.52581],[0.25684,9.51929],[0.24505,9.52276],[0.23663,9.53696],[0.23546,9.54925],[0.23986,9.57427],[0.25297,9.57417],[0.26651,9.56659],[0.28975,9.57655],[0.31704,9.57547],[0.33455,9.57862],[0.34572,9.5725],[0.35558,9.57271],[0.37153,9.57863],[0.38359,9.59216],[0.37296,9.61013],[0.38244,9.64487],[0.3766,9.64399],[0.37561,9.65363],[0.36704,9.65751],[0.36851,9.6659],[0.36213,9.67034],[0.363,9.67386],[0.35136,9.67604],[0.35192,9.6924],[0.34415,9.71831],[0.3387,9.72217],[0.3243,9.72272],[0.3193,9.72858],[0.33006,9.76261],[0.32538,9.77225],[0.33469,9.7751],[0.33614,9.77985],[0.32978,9.79269],[0.33954,9.8042],[0.33913,9.81511],[0.352,9.82982],[0.35758,9.84822],[0.35531,9.87397],[0.35126,9.88181],[0.35305,9.91505],[0.35922,9.92906],[0.38714,9.9376],[0.38715,9.94966],[0.36964,9.96405],[0.35992,9.98621],[0.35761,9.99637],[0.36466,10.01557],[0.36139,10.03139],[0.3665,10.0339],[0.37475,10.02655],[0.39265,10.02594],[0.40122,10.02005],[0.41004,10.02103],[0.4144,10.03325],[0.41255,10.0422],[0.41734,10.05954],[0.41209,10.06757],[0.3945,10.08131],[0.36394,10.0857],[0.35718,10.09023],[0.35271,10.10043],[0.35231,10.1108],[0.36361,10.13833],[0.36209,10.14713],[0.35076,10.16766],[0.35447,10.18271],[0.35119,10.19215],[0.35674,10.19782],[0.35539,10.21216],[0.36065,10.21936],[0.3616,10.22693],[0.36127,10.25703],[0.36421,10.26443],[0.37086,10.26537],[0.38191,10.27355],[0.38202,10.2769],[0.37247,10.28062],[0.37858,10.28735],[0.37872,10.29454],[0.38834,10.30399],[0.39076,10.30235],[0.39803,10.30662],[0.3968,10.31277],[0.39134,10.31549],[0.3678,10.31078],[0.35322,10.31424],[0.34861,10.30775],[0.33627,10.30832],[0.33174,10.31145],[0.32411,10.30681],[0.32116,10.31008],[0.31966,10.30823],[0.31612,10.31098],[0.32207,10.31275],[0.32299,10.31948],[0.33706,10.32374],[0.33719,10.32912],[0.33415,10.33577],[0.3279,10.3399],[0.32481,10.33996],[0.32093,10.33409],[0.31792,10.33519],[0.31078,10.36693],[0.30628,10.37163],[0.30245,10.36945],[0.3012,10.3729],[0.29113,10.37567],[0.29015,10.37824],[0.29324,10.38002],[0.29024,10.3816],[0.30076,10.39174],[0.30044,10.40239],[0.29876,10.4091],[0.29417,10.41111],[0.29061,10.4088],[0.28469,10.42239],[0.2767,10.41928],[0.27328,10.42108],[0.26678,10.41329],[0.26947,10.41179],[0.2594,10.4076],[0.25034,10.40988],[0.25007,10.413],[0.24338,10.41598],[0.23441,10.41357],[0.22912,10.42012],[0.22006,10.42232],[0.21779,10.4269],[0.21097,10.42215],[0.21049,10.4185],[0.20629,10.41891],[0.20957,10.40588],[0.20201,10.40733],[0.19394,10.40307],[0.18921,10.40942],[0.19068,10.41697],[0.16987,10.42904],[0.16716,10.44167],[0.17265,10.45062],[0.16479,10.45326],[0.16245,10.45923],[0.15571,10.46271],[0.15421,10.46719],[0.15888,10.4751],[0.15437,10.47797],[0.15378,10.48492],[0.15052,10.48741],[0.15197,10.49107],[0.14695,10.50132],[0.14721,10.51374],[0.14268,10.52623],[0.12763,10.52975],[0.11722,10.54142],[0.061,10.56082],[0.05683,10.58179],[0.04298,10.59425],[0.04094,10.60149],[-0.01322,10.61718],[-0.01569,10.6236],[-0.05925,10.63233],[-0.07826,10.69027],[-0.09017,10.70831],[-0.08926,10.71371],[-0.07254,10.71946],[-0.07435,10.73134],[-0.07092,10.74212],[-0.07435,10.75632],[-0.0699,10.76343],[-0.07277,10.76847],[-0.06397,10.77282],[-0.05493,10.78744],[-0.04468,10.79222],[-0.04439,10.79785],[-0.03857,10.8046],[-0.03054,10.80727],[-0.02945,10.81404],[-0.02133,10.82101],[-0.02948,10.85354],[-0.0244,10.87036],[-0.02543,10.88089],[-0.01757,10.88962],[-0.01349,10.90788],[-0.00757,10.915],[-0.01179,10.94405],[-0.00724,10.94602],[-0.00602,10.96341],[0.00833,10.96512],[0.01898,10.97472],[0.03341,10.97945],[0.03131,10.9833],[0.03438,10.99272],[0.02857,11.00396],[0.02355,11.05902],[0.00286,11.08472],[0.00197,11.09388],[-0.00497,11.10044],[-0.00465,11.10778],[-0.01967,11.11418],[-0.04626,11.09979],[-0.05423,11.08599],[-0.09286,11.08583],[-0.12668,11.10587],[-0.14329,11.10684],[-0.14281,11.12101],[-0.13383,11.12982],[-0.13623,11.13962],[0.00111,11.1115],[0.01066,11.11467],[0.03127,11.10535],[0.5051,11.00923],[0.50161,11.00476],[0.50405,10.99861],[0.49882,10.99431],[0.49778,10.9883],[0.50776,10.99116],[0.51119,10.97818],[0.51736,10.97128],[0.50945,10.96028],[0.51012,10.94936],[0.50032,10.93248],[0.66311,11.00002],[0.91667,11],[0.88914,10.91362],[0.90166,10.88331],[0.88256,10.85429],[0.87428,10.80493],[0.80171,10.72307],[0.79973,10.6775],[0.80807,10.63137],[0.80666,10.57584],[0.78605,10.52737],[0.77541,10.38065],[1.11056,10.14068],[1.35484,9.99207],[1.35563,9.869],[1.36173,9.80279],[1.35864,9.68415],[1.36858,9.6618],[1.36383,9.6513],[1.36285,9.59832],[1.34213,9.55446],[1.35958,9.49974],[1.35957,9.48216],[1.36454,9.48417],[1.36853,9.49222],[1.38329,9.49771],[1.39641,9.47299],[1.40188,9.36242],[1.41169,9.3277],[1.44843,9.28518],[1.45839,9.2603],[1.49269,9.223],[1.52147,9.19534],[1.56292,9.1723],[1.5742,9.14],[1.59863,9.10785],[1.61829,9.05915],[1.62129,9.04398],[1.61849,9.03722],[1.62637,9.00714],[1.61843,8.96048],[1.62387,8.94431],[1.6194,8.92845],[1.62334,8.92029],[1.62533,8.90124],[1.63126,8.89343],[1.63292,8.86749],[1.62659,8.60229]]]]}}]}