{"type":"FeatureCollection","features":[{"type":"Feature","properties":{"ISO_A3":"TJK","WB_A3":"TJK","WB_NAME":"Tajikistan","WB_REGION":"ECS"},"geometry":{"type":"MultiPolygon","coordinates":[[[[70.99066,38.49031],[70.97916,38.48052],[70.96587,38.47508],[70.94563,38.47659],[70.94361,38.46891],[70.94604,38.46512],[70.96181,38.45774],[70.95749,38.44733],[70.95878,38.44156],[70.95287,38.43817],[70.94794,38.43828],[70.94307,38.44293],[70.93613,38.44199],[70.93266,38.43315],[70.92677,38.43071],[70.92233,38.43105],[70.92124,38.43516],[70.90715,38.43862],[70.90683,38.44327],[70.89988,38.44946],[70.90085,38.45899],[70.8953,38.46514],[70.88266,38.46943],[70.87249,38.46913],[70.86436,38.46035],[70.85651,38.45793],[70.86101,38.45093],[70.85032,38.43842],[70.84203,38.44066],[70.84243,38.44729],[70.82633,38.45333],[70.81492,38.44479],[70.8071,38.44437],[70.7883,38.45001],[70.78394,38.4561],[70.77148,38.45632],[70.75649,38.42726],[70.74056,38.419],[70.7115,38.41471],[70.69608,38.4196],[70.67748,38.40865],[70.67405,38.40472],[70.67405,38.38848],[70.68909,38.3888],[70.6935,38.38354],[70.69348,38.37225],[70.68361,38.3636],[70.66339,38.35758],[70.66082,38.35104],[70.64217,38.34901],[70.62781,38.35309],[70.61066,38.34719],[70.61129,38.33124],[70.61482,38.32237],[70.60656,38.31334],[70.60423,38.30499],[70.60852,38.29898],[70.60509,38.28332],[70.56596,38.26798],[70.55681,38.25883],[70.5569,38.25365],[70.54611,38.24504],[70.53677,38.2218],[70.53724,38.21076],[70.52841,38.20055],[70.51783,38.1949],[70.5178,38.18776],[70.5094,38.17778],[70.5095,38.17279],[70.50292,38.1629],[70.49969,38.14703],[70.50547,38.12161],[70.49253,38.12164],[70.48138,38.11545],[70.47815,38.10954],[70.4662,38.10406],[70.43176,38.1],[70.41953,38.08907],[70.41587,38.07559],[70.40547,38.0753],[70.39751,38.06683],[70.38227,38.06281],[70.37758,38.05558],[70.3636,38.05464],[70.36276,38.05019],[70.36717,38.04407],[70.36242,38.03173],[70.3364,38.01436],[70.32956,37.9995],[70.3127,37.99765],[70.29858,37.98764],[70.29035,37.98749],[70.28553,37.96982],[70.26919,37.97373],[70.26257,37.97944],[70.25956,37.97325],[70.26659,37.9613],[70.26687,37.9528],[70.27505,37.94597],[70.27012,37.93934],[70.25975,37.93842],[70.25307,37.9444],[70.24237,37.94416],[70.21434,37.93269],[70.2117,37.92111],[70.20011,37.92961],[70.19257,37.94312],[70.1879,37.94485],[70.18349,37.94464],[70.17873,37.93553],[70.17152,37.93309],[70.17936,37.90458],[70.17732,37.89598],[70.18264,37.88644],[70.17301,37.87556],[70.18892,37.8451],[70.20515,37.8417],[70.22211,37.8326],[70.25465,37.83183],[70.26414,37.8257],[70.26929,37.81805],[70.27964,37.81564],[70.27988,37.8087],[70.27319,37.79957],[70.27649,37.7956],[70.27608,37.78812],[70.27949,37.77958],[70.29746,37.76838],[70.28663,37.75267],[70.29793,37.73657],[70.29931,37.72986],[70.28729,37.715],[70.29078,37.70806],[70.30294,37.7011],[70.30304,37.69338],[70.28586,37.68483],[70.28712,37.67771],[70.27685,37.67324],[70.27583,37.65467],[70.27154,37.64934],[70.26355,37.6498],[70.26085,37.63996],[70.2662,37.63516],[70.26283,37.62837],[70.26873,37.6217],[70.26737,37.61356],[70.26109,37.60939],[70.25079,37.6093],[70.24763,37.61542],[70.24023,37.61096],[70.23128,37.6113],[70.2141,37.6053],[70.216,37.59371],[70.2226,37.58772],[70.2218,37.58323],[70.20971,37.58514],[70.20354,37.58397],[70.20255,37.58029],[70.20923,37.57723],[70.21289,37.56785],[70.20167,37.5691],[70.19472,37.56331],[70.17839,37.57151],[70.1803,37.54936],[70.17258,37.54789],[70.17518,37.53911],[70.17091,37.52776],[70.16645,37.52406],[70.1599,37.52616],[70.15606,37.53756],[70.15078,37.53394],[70.1454,37.52281],[70.12394,37.52643],[70.11807,37.52401],[70.11008,37.52517],[70.09407,37.53488],[70.07913,37.53456],[70.07496,37.54066],[70.05885,37.54792],[70.05307,37.54824],[70.04663,37.5436],[70.0418,37.5494],[70.03409,37.55212],[70.02002,37.5475],[70.01636,37.55166],[69.99991,37.55556],[69.99911,37.56532],[69.99531,37.5674],[69.9609,37.56439],[69.94989,37.57065],[69.95088,37.58972],[69.94513,37.59651],[69.94328,37.60619],[69.93049,37.6076],[69.92251,37.6111],[69.91595,37.61912],[69.91082,37.61993],[69.88591,37.61033],[69.86646,37.61217],[69.85503,37.60411],[69.83896,37.60273],[69.82966,37.5925],[69.82153,37.57348],[69.80959,37.56782],[69.8004,37.56985],[69.77633,37.58415],[69.75521,37.58477],[69.74703,37.58856],[69.70397,37.57609],[69.64226,37.5764],[69.62051,37.57324],[69.60514,37.58048],[69.58892,37.58221],[69.56597,37.57902],[69.55615,37.58402],[69.5519,37.58171],[69.53664,37.5911],[69.5283,37.58803],[69.53076,37.58368],[69.52297,37.57959],[69.52153,37.57105],[69.5172,37.5677],[69.51833,37.56352],[69.51141,37.5594],[69.51308,37.54792],[69.49673,37.53618],[69.49707,37.53139],[69.49251,37.5295],[69.49318,37.5225],[69.47732,37.52201],[69.46052,37.51115],[69.45871,37.50599],[69.45417,37.50721],[69.4549,37.50252],[69.45885,37.50157],[69.45844,37.49654],[69.44907,37.48898],[69.43501,37.48765],[69.43511,37.48296],[69.42484,37.46579],[69.42017,37.46625],[69.41572,37.45798],[69.39899,37.45334],[69.39032,37.443],[69.3911,37.43885],[69.37873,37.43148],[69.38106,37.42331],[69.37335,37.40633],[69.37379,37.40005],[69.38295,37.39536],[69.38469,37.39096],[69.37666,37.3867],[69.37486,37.37734],[69.38128,37.37411],[69.37817,37.36243],[69.3921,37.36033],[69.39521,37.35263],[69.38594,37.34548],[69.38741,37.34182],[69.37943,37.32666],[69.38075,37.32206],[69.39233,37.31477],[69.39976,37.31827],[69.40454,37.31641],[69.40696,37.30976],[69.39952,37.30583],[69.39936,37.30191],[69.41288,37.29236],[69.40624,37.27541],[69.41615,37.26978],[69.41981,37.25719],[69.41239,37.24094],[69.42209,37.23484],[69.44836,37.23791],[69.45371,37.23499],[69.45327,37.23245],[69.42368,37.20003],[69.42272,37.19224],[69.41316,37.1848],[69.40207,37.1665],[69.39452,37.16334],[69.38423,37.16714],[69.37151,37.16527],[69.33191,37.13347],[69.32335,37.11764],[69.28496,37.11118],[69.27861,37.10459],[69.26261,37.10152],[69.25825,37.09375],[69.25077,37.09357],[69.22231,37.11328],[69.2188,37.12261],[69.20242,37.13476],[69.17773,37.14509],[69.16822,37.14588],[69.16551,37.15037],[69.12993,37.16825],[69.1257,37.17327],[69.11627,37.17486],[69.11408,37.1814],[69.09977,37.19717],[69.09986,37.20316],[69.08907,37.22326],[69.07116,37.23735],[69.05694,37.24132],[69.02885,37.25845],[69.01551,37.27871],[68.99882,37.29226],[68.99185,37.30363],[68.9846,37.30418],[68.97284,37.31177],[68.97183,37.32025],[68.95066,37.32688],[68.94569,37.32682],[68.94069,37.3216],[68.93121,37.32071],[68.9046,37.33444],[68.89427,37.32713],[68.90083,37.30827],[68.90674,37.29891],[68.92445,37.28987],[68.92828,37.27994],[68.913,37.268],[68.90067,37.26763],[68.8951,37.27071],[68.86938,37.30316],[68.84495,37.31591],[68.83271,37.31783],[68.81861,37.31182],[68.81214,37.30294],[68.80855,37.29009],[68.81629,37.27411],[68.82744,37.26987],[68.83666,37.25787],[68.83664,37.25343],[68.82978,37.24742],[68.80451,37.24676],[68.80027,37.25089],[68.80002,37.26625],[68.79611,37.27409],[68.78792,37.28556],[68.78203,37.28797],[68.75529,37.28104],[68.73413,37.26854],[68.6813,37.28003],[68.67619,37.27653],[68.67407,37.26981],[68.69004,37.24554],[68.68885,37.24287],[68.67505,37.23656],[68.65714,37.24837],[68.65215,37.24172],[68.65384,37.22419],[68.65051,37.21446],[68.64265,37.2069],[68.62907,37.20689],[68.61341,37.19564],[68.57104,37.18958],[68.56031,37.18351],[68.54218,37.16469],[68.48257,37.15797],[68.46911,37.14561],[68.45867,37.141],[68.42205,37.14419],[68.41331,37.13891],[68.40864,37.12545],[68.42241,37.11131],[68.39917,37.10139],[68.37011,37.0993],[68.32876,37.11018],[68.31078,37.10959],[68.29532,37.10516],[68.28683,37.0758],[68.29089,37.0547],[68.28866,37.04351],[68.28464,37.03675],[68.28398,37.02706],[68.27386,37.0133],[68.25866,37.00688],[68.25108,37.00851],[68.22245,37.02573],[68.19052,37.0224],[68.1477,36.99392],[68.13616,36.97323],[68.12038,36.96114],[68.09684,36.95603],[68.08459,36.94896],[68.06238,36.94319],[68.056,36.93292],[68.02952,36.92866],[68.02021,36.92261],[67.99924,36.93636],[67.9971,36.95379],[67.97257,36.96668],[67.95383,36.9703],[67.94851,36.97887],[67.95054,36.99136],[67.92176,37.00944],[67.89833,37.02898],[67.89219,37.04168],[67.89272,37.04757],[67.8988,37.05438],[67.90004,37.06423],[67.89718,37.06699],[67.89042,37.0693],[67.88075,37.06465],[67.85195,37.06232],[67.81329,37.07013],[67.79867,37.07913],[67.79348,37.09686],[67.78701,37.1037],[67.78443,37.11123],[67.78842,37.1282],[67.78587,37.14078],[67.79221,37.15282],[67.79192,37.1668],[67.78654,37.17226],[67.78845,37.18909],[67.80582,37.20629],[67.84911,37.30614],[67.84115,37.35779],[67.82894,37.38484],[67.82191,37.41682],[67.81562,37.42566],[67.81724,37.43333],[67.84215,37.48989],[67.85029,37.51956],[67.86026,37.54102],[67.86977,37.5498],[67.87675,37.56371],[67.88737,37.57072],[67.96281,37.67287],[67.99062,37.68339],[68.00567,37.70248],[68.01257,37.70537],[68.01387,37.71009],[68.00879,37.71762],[68.02137,37.72591],[68.01957,37.73127],[68.02715,37.73315],[68.03781,37.7432],[68.03998,37.75201],[68.04783,37.75528],[68.04747,37.76545],[68.05713,37.77487],[68.06372,37.79013],[68.07351,37.79564],[68.09425,37.83631],[68.10587,37.85015],[68.11576,37.86963],[68.11978,37.87157],[68.11655,37.87661],[68.12129,37.89216],[68.125,37.89543],[68.1238,37.89999],[68.12691,37.8997],[68.13125,37.90539],[68.13059,37.90847],[68.12275,37.91182],[68.13142,37.91518],[68.13715,37.92256],[68.13474,37.92648],[68.14239,37.92968],[68.14297,37.93309],[68.15272,37.9299],[68.16512,37.9358],[68.1776,37.93128],[68.1878,37.93507],[68.19259,37.93468],[68.19232,37.93244],[68.21815,37.93335],[68.25395,37.92136],[68.25914,37.91107],[68.26428,37.90839],[68.28404,37.92664],[68.27712,37.93069],[68.27252,37.94025],[68.28338,37.94431],[68.27989,37.94855],[68.28556,37.95518],[68.27982,37.96567],[68.28683,37.96992],[68.28442,37.97899],[68.28768,37.98305],[68.28563,37.98796],[68.28914,37.99933],[68.29925,38.0081],[68.30782,38.02855],[68.32114,38.03207],[68.32391,38.03524],[68.32316,38.04251],[68.33655,38.04995],[68.34296,38.05951],[68.35561,38.06256],[68.37093,38.07398],[68.37747,38.08592],[68.3729,38.09329],[68.37569,38.09991],[68.38167,38.10175],[68.37657,38.11169],[68.37837,38.11885],[68.38959,38.1355],[68.38657,38.14111],[68.39539,38.14243],[68.39468,38.15357],[68.39939,38.15829],[68.39951,38.16708],[68.40536,38.18118],[68.40248,38.19288],[68.40462,38.19738],[68.38298,38.20123],[68.37856,38.20728],[68.37861,38.21697],[68.37398,38.22409],[68.37379,38.24195],[68.37079,38.24584],[68.36218,38.23943],[68.33336,38.2343],[68.3191,38.24078],[68.31694,38.25069],[68.30239,38.25567],[68.29072,38.29465],[68.29686,38.31531],[68.28965,38.3222],[68.27908,38.32372],[68.26345,38.32039],[68.25826,38.32324],[68.24955,38.3184],[68.23278,38.32186],[68.22619,38.3279],[68.22375,38.33802],[68.21273,38.33631],[68.20971,38.33868],[68.21386,38.34406],[68.1985,38.36387],[68.16228,38.37257],[68.15972,38.38603],[68.1501,38.39759],[68.14288,38.39901],[68.14472,38.40833],[68.13931,38.41325],[68.10355,38.40487],[68.0933,38.3922],[68.06467,38.39314],[68.06853,38.40971],[68.06633,38.41075],[68.0732,38.42015],[68.09801,38.43719],[68.09768,38.44395],[68.10551,38.44741],[68.10572,38.45321],[68.12307,38.47455],[68.1226,38.47793],[68.11077,38.48728],[68.09875,38.49295],[68.11024,38.49899],[68.10354,38.5089],[68.10125,38.51998],[68.08524,38.51718],[68.08416,38.53333],[68.07091,38.53376],[68.06789,38.54968],[68.05903,38.56074],[68.06278,38.5771],[68.07428,38.58307],[68.07931,38.59098],[68.07772,38.61125],[68.07268,38.6193],[68.07468,38.62752],[68.08858,38.63381],[68.09297,38.64145],[68.08056,38.6528],[68.08246,38.65601],[68.07743,38.66606],[68.08265,38.67252],[68.07352,38.68152],[68.07358,38.68794],[68.0654,38.69593],[68.05689,38.71033],[68.05712,38.71499],[68.07917,38.72707],[68.10906,38.728],[68.12806,38.73254],[68.12253,38.75141],[68.0984,38.77593],[68.10014,38.77901],[68.09287,38.79144],[68.06554,38.79946],[68.06993,38.8038],[68.06687,38.80636],[68.06953,38.81826],[68.09459,38.81328],[68.11492,38.81845],[68.12464,38.81716],[68.13411,38.81844],[68.13291,38.82592],[68.15377,38.82617],[68.17095,38.8318],[68.17336,38.84463],[68.20125,38.85674],[68.20083,38.86713],[68.18147,38.87594],[68.17808,38.8926],[68.19306,38.8958],[68.19664,38.90444],[68.19482,38.9129],[68.2073,38.91827],[68.2069,38.9222],[68.19537,38.93882],[68.17114,38.94777],[68.16132,38.94569],[68.13353,38.96299],[68.13145,38.96794],[68.13894,38.97359],[68.14054,38.97892],[68.13375,38.98465],[68.13062,38.99739],[68.11658,39.00273],[68.11885,39.00727],[68.11258,39.01506],[68.10244,39.01613],[68.0944,39.02298],[68.07839,39.02625],[68.06547,39.02346],[68.06412,39.01848],[68.05926,39.01677],[68.04058,39.01628],[68.02847,39.00867],[68.02022,39.0138],[67.99956,39.01789],[67.99523,39.0218],[67.99358,39.02948],[67.98568,39.03321],[67.96625,39.02272],[67.94468,39.02104],[67.93923,39.0251],[67.92988,39.02243],[67.92065,39.02587],[67.90556,39.01786],[67.89208,39.019],[67.87133,39.00194],[67.85901,39.00251],[67.81993,39.01657],[67.81292,39.01261],[67.79521,39.01093],[67.76677,39.016],[67.75103,39.00047],[67.74093,39.00483],[67.71957,38.99659],[67.70897,38.99705],[67.70753,39.00054],[67.69539,39.00553],[67.69367,39.0128],[67.68294,39.02018],[67.68532,39.02696],[67.6788,39.03914],[67.68415,39.04439],[67.6806,39.0501],[67.68302,39.05327],[67.68099,39.05782],[67.67424,39.05911],[67.67084,39.06432],[67.67363,39.07374],[67.66858,39.08183],[67.66991,39.08982],[67.66665,39.09316],[67.67177,39.09598],[67.67475,39.10317],[67.67292,39.10783],[67.67817,39.11388],[67.67624,39.11637],[67.67935,39.12676],[67.67591,39.14585],[67.63626,39.14417],[67.62702,39.15024],[67.62614,39.16916],[67.61315,39.1747],[67.61088,39.17992],[67.59919,39.18205],[67.59619,39.18639],[67.58757,39.18922],[67.55167,39.18119],[67.49774,39.18562],[67.49389,39.18836],[67.49648,39.1933],[67.49203,39.19494],[67.49365,39.19806],[67.45677,39.20084],[67.4522,39.20715],[67.43886,39.21267],[67.40904,39.21528],[67.41137,39.22082],[67.4096,39.22528],[67.35842,39.22752],[67.3417,39.23383],[67.3539,39.24165],[67.36344,39.26232],[67.35864,39.26475],[67.35716,39.27139],[67.35604,39.27847],[67.35914,39.28623],[67.33749,39.30536],[67.38637,39.31461],[67.39497,39.31093],[67.41258,39.30992],[67.41535,39.31262],[67.43067,39.30951],[67.46117,39.3134],[67.47516,39.32607],[67.47756,39.33304],[67.47402,39.3451],[67.48784,39.37803],[67.48322,39.38852],[67.48411,39.40614],[67.48171,39.40911],[67.46832,39.40964],[67.46332,39.41274],[67.46365,39.41953],[67.45986,39.42413],[67.46097,39.43772],[67.45545,39.44031],[67.46381,39.45219],[67.46461,39.46282],[67.45809,39.47406],[67.44749,39.48919],[67.43589,39.49901],[67.40327,39.51024],[67.40316,39.51466],[67.39842,39.51583],[67.39813,39.52173],[67.3946,39.5231],[67.39692,39.52834],[67.40176,39.53329],[67.41545,39.52939],[67.46442,39.53325],[67.46846,39.53137],[67.47165,39.53432],[67.47067,39.53878],[67.44423,39.55286],[67.45535,39.57447],[67.45103,39.57613],[67.45182,39.57833],[67.4628,39.57484],[67.47826,39.5782],[67.4835,39.57641],[67.49989,39.58369],[67.50635,39.57946],[67.51953,39.57922],[67.53348,39.58885],[67.55609,39.58858],[67.56437,39.59444],[67.5772,39.5957],[67.58274,39.60078],[67.59459,39.59674],[67.6279,39.60014],[67.63104,39.6018],[67.62953,39.61501],[67.64781,39.62514],[67.64776,39.63069],[67.65177,39.63528],[67.66122,39.6375],[67.66466,39.64225],[67.68356,39.63898],[67.70654,39.65995],[67.76604,39.6406],[67.78313,39.64691],[67.79172,39.65747],[67.79499,39.65682],[67.81821,39.64671],[67.83646,39.63056],[67.86108,39.62406],[67.87606,39.62797],[67.88174,39.62458],[67.88407,39.61737],[67.89261,39.61513],[67.89588,39.61076],[67.91146,39.61004],[67.94114,39.59929],[67.95055,39.60376],[67.97111,39.60349],[67.97621,39.60593],[67.97879,39.60109],[68.00267,39.58957],[68.01137,39.59111],[68.0212,39.5856],[68.02737,39.58664],[68.02736,39.58228],[68.03877,39.57719],[68.06258,39.57373],[68.08091,39.5783],[68.11679,39.56024],[68.1377,39.56146],[68.14474,39.56902],[68.15563,39.56298],[68.17671,39.56879],[68.19164,39.55676],[68.20496,39.55306],[68.24059,39.55612],[68.25109,39.5625],[68.26707,39.55788],[68.28638,39.55975],[68.29758,39.55034],[68.30839,39.55415],[68.33883,39.54376],[68.35077,39.53812],[68.35687,39.53158],[68.37015,39.53064],[68.37662,39.53762],[68.39171,39.54478],[68.40723,39.54085],[68.41602,39.54212],[68.42432,39.53772],[68.44408,39.53992],[68.45579,39.53362],[68.46383,39.53839],[68.4792,39.53603],[68.49044,39.54248],[68.50142,39.54003],[68.51117,39.53087],[68.52428,39.53237],[68.53075,39.54446],[68.54148,39.54969],[68.54709,39.55838],[68.54084,39.56551],[68.5358,39.56644],[68.54075,39.58575],[68.54739,39.59444],[68.55219,39.59975],[68.57023,39.60126],[68.58106,39.62213],[68.59956,39.62459],[68.6101,39.63765],[68.61499,39.63496],[68.61806,39.64089],[68.62148,39.66927],[68.62969,39.68349],[68.62141,39.69119],[68.62063,39.69665],[68.60403,39.70643],[68.59886,39.71415],[68.58639,39.72296],[68.58926,39.7374],[68.60918,39.74115],[68.61545,39.75067],[68.62418,39.75316],[68.62485,39.75663],[68.61862,39.76308],[68.62194,39.77048],[68.63274,39.77127],[68.64196,39.77725],[68.63784,39.78617],[68.63979,39.8053],[68.64383,39.81152],[68.63957,39.83226],[68.6323,39.83332],[68.63155,39.83736],[68.63586,39.84342],[68.64581,39.84766],[68.66788,39.84633],[68.68341,39.85208],[68.71695,39.84953],[68.73553,39.8438],[68.75128,39.84693],[68.76244,39.84571],[68.77137,39.85138],[68.78823,39.84709],[68.85142,39.85007],[68.87353,39.85315],[68.87737,39.86177],[68.88155,39.86209],[68.88566,39.85762],[68.89914,39.86006],[68.90758,39.86738],[68.91297,39.88826],[68.91816,39.89143],[68.93344,39.91374],[68.93511,39.92595],[68.9241,39.93666],[68.91322,39.95421],[68.91264,39.96982],[68.89686,40.00008],[68.86455,40.03519],[68.86611,40.03746],[68.85707,40.05062],[68.86548,40.0528],[68.85599,40.06151],[68.85081,40.07142],[68.89301,40.06631],[68.89381,40.06311],[68.88623,40.05863],[68.89432,40.04488],[68.89874,40.04604],[68.89606,40.05801],[68.90213,40.06703],[68.90627,40.06796],[68.91618,40.06128],[68.9684,40.06454],[68.95712,40.08286],[68.96041,40.08824],[68.97068,40.09277],[68.99508,40.0938],[69.02005,40.11671],[69.02394,40.12677],[69.02163,40.15724],[68.99865,40.15724],[68.98158,40.14713],[68.9358,40.15158],[68.88212,40.13725],[68.85834,40.12654],[68.84727,40.12655],[68.84689,40.12253],[68.83835,40.11962],[68.80086,40.1182],[68.77331,40.10679],[68.76899,40.10192],[68.73518,40.10341],[68.70194,40.09628],[68.69121,40.09679],[68.63341,40.07674],[68.531,40.11784],[68.53313,40.14347],[68.55514,40.15053],[68.59845,40.157],[68.66047,40.17409],[68.68855,40.17753],[68.70123,40.18354],[68.77958,40.20365],[68.79718,40.17264],[68.85349,40.18735],[68.84733,40.19513],[68.85205,40.19772],[68.85167,40.20319],[68.86265,40.21047],[69.03436,40.22906],[69.07222,40.22159],[69.14913,40.21585],[69.16962,40.20883],[69.21021,40.21296],[69.22824,40.20858],[69.24603,40.20837],[69.26314,40.20058],[69.27261,40.20221],[69.28196,40.19913],[69.29967,40.1888],[69.30524,40.18854],[69.30541,40.19423],[69.30139,40.19436],[69.29891,40.20723],[69.2907,40.21716],[69.28869,40.22597],[69.29724,40.23405],[69.30159,40.24518],[69.26235,40.25831],[69.2597,40.26461],[69.24756,40.27501],[69.24855,40.2811],[69.25464,40.28421],[69.25226,40.2911],[69.24643,40.29551],[69.24907,40.30357],[69.30736,40.28191],[69.31149,40.29052],[69.32284,40.29296],[69.32812,40.2974],[69.32761,40.30819],[69.33808,40.32141],[69.34054,40.33909],[69.3363,40.34872],[69.31616,40.35668],[69.30294,40.36772],[69.30648,40.38684],[69.29195,40.39639],[69.29105,40.4032],[69.29779,40.40795],[69.29842,40.41179],[69.28385,40.41953],[69.28397,40.44352],[69.27951,40.45172],[69.26783,40.45984],[69.27181,40.46815],[69.26657,40.47601],[69.2724,40.47944],[69.26986,40.48421],[69.2722,40.4882],[69.27809,40.48909],[69.27938,40.49338],[69.26287,40.49988],[69.25635,40.50712],[69.24816,40.5101],[69.24027,40.52013],[69.23079,40.52269],[69.22042,40.53109],[69.22107,40.53606],[69.21208,40.54083],[69.21299,40.54653],[69.23215,40.55327],[69.261,40.57604],[69.27593,40.57413],[69.28421,40.58196],[69.31869,40.57884],[69.3439,40.58124],[69.34694,40.58535],[69.34746,40.61476],[69.33885,40.64304],[69.33894,40.66772],[69.34693,40.69096],[69.34601,40.7227],[69.34948,40.72678],[69.35594,40.72694],[69.35111,40.73109],[69.35289,40.73268],[69.36296,40.73458],[69.35977,40.73933],[69.36459,40.74416],[69.35991,40.749],[69.36167,40.75392],[69.35745,40.75607],[69.35939,40.76052],[69.34743,40.77518],[69.36763,40.78812],[69.37328,40.79094],[69.38905,40.78435],[69.39463,40.76876],[69.40786,40.75233],[69.42111,40.76086],[69.42149,40.76903],[69.42819,40.78305],[69.44491,40.78967],[69.45864,40.7848],[69.4626,40.79342],[69.47227,40.79891],[69.47569,40.80921],[69.49245,40.81164],[69.4941,40.80074],[69.49888,40.79534],[69.49944,40.78188],[69.51611,40.77828],[69.51799,40.78238],[69.52425,40.77554],[69.53455,40.77711],[69.53685,40.77145],[69.54554,40.7724],[69.55358,40.76824],[69.57169,40.74352],[69.57556,40.73257],[69.57259,40.72851],[69.57358,40.72314],[69.58211,40.7115],[69.58368,40.70413],[69.59327,40.69736],[69.61488,40.69143],[69.62442,40.67823],[69.65193,40.6712],[69.6522,40.66685],[69.66711,40.64933],[69.66905,40.64251],[69.66657,40.63798],[69.66926,40.63449],[69.69978,40.62758],[69.71511,40.63107],[69.71916,40.62878],[69.73704,40.63557],[69.7395,40.64073],[69.74588,40.644],[69.75869,40.64546],[69.76437,40.65112],[69.76163,40.66052],[69.77319,40.6673],[69.7753,40.67506],[69.79039,40.69096],[69.79405,40.70318],[69.8087,40.70469],[69.81781,40.70938],[69.82485,40.70079],[69.83565,40.70082],[69.84417,40.7086],[69.86039,40.71413],[69.87054,40.71409],[69.88897,40.72534],[69.89438,40.71991],[69.91567,40.72137],[69.93164,40.71732],[69.93911,40.71872],[69.95061,40.72657],[69.96211,40.72634],[69.96374,40.73171],[69.97451,40.73919],[70.00431,40.73605],[70.03078,40.74444],[70.04073,40.75382],[70.06826,40.75518],[70.09812,40.78218],[70.11473,40.78795],[70.12439,40.80822],[70.12014,40.81443],[70.12775,40.82204],[70.14235,40.8245],[70.16103,40.83415],[70.17375,40.83164],[70.18113,40.8338],[70.20231,40.82273],[70.26622,40.85006],[70.27464,40.86728],[70.28713,40.87507],[70.30451,40.87712],[70.3258,40.88667],[70.33566,40.88262],[70.34341,40.88468],[70.37254,40.89832],[70.37927,40.91824],[70.37555,40.92307],[70.37108,40.94323],[70.38294,40.94706],[70.3885,40.95403],[70.38976,40.96993],[70.38266,40.97986],[70.37517,41.00276],[70.39035,41.01352],[70.39709,41.02638],[70.41419,41.03472],[70.43013,41.03693],[70.44477,41.04482],[70.45149,41.0383],[70.45818,41.03656],[70.46786,41.04149],[70.47365,41.041],[70.47704,41.03604],[70.48375,41.03376],[70.48844,41.02354],[70.51318,41.01122],[70.51973,40.99863],[70.52108,40.98776],[70.53545,40.97986],[70.55201,40.9818],[70.55829,40.97583],[70.56625,40.96774],[70.56924,40.95919],[70.58317,40.95025],[70.58795,40.93872],[70.59759,40.93224],[70.59627,40.92679],[70.60568,40.91322],[70.60605,40.90661],[70.62537,40.89591],[70.63038,40.8874],[70.63879,40.88318],[70.64436,40.87642],[70.6451,40.86848],[70.66558,40.85242],[70.67011,40.85254],[70.67928,40.84246],[70.69865,40.83555],[70.71364,40.8249],[70.72793,40.80922],[70.71963,40.80036],[70.7045,40.80044],[70.74394,40.7737],[70.74627,40.76784],[70.74018,40.76644],[70.74185,40.76492],[70.76388,40.7582],[70.78636,40.742],[70.79466,40.73455],[70.79727,40.71965],[70.77745,40.71673],[70.76463,40.68632],[70.75809,40.68308],[70.73453,40.68777],[70.7301,40.68479],[70.73136,40.67307],[70.73682,40.66601],[70.73613,40.6583],[70.72821,40.6553],[70.71581,40.66341],[70.70672,40.66353],[70.69348,40.65318],[70.6816,40.64979],[70.65785,40.62908],[70.64478,40.62859],[70.6365,40.62411],[70.60848,40.58342],[70.58461,40.56524],[70.57043,40.56268],[70.55595,40.55546],[70.52786,40.55468],[70.51355,40.54995],[70.49216,40.51221],[70.48118,40.50125],[70.44749,40.49896],[70.43188,40.49064],[70.40989,40.48632],[70.39044,40.47754],[70.33534,40.46237],[70.32783,40.45541],[70.32847,40.44532],[70.33387,40.43652],[70.34652,40.42929],[70.34874,40.41121],[70.35853,40.40395],[70.36508,40.39143],[70.3785,40.38699],[70.3884,40.38784],[70.42988,40.37436],[70.47325,40.35616],[70.49579,40.36527],[70.54696,40.36467],[70.56976,40.34437],[70.58203,40.33892],[70.56018,40.31797],[70.55986,40.31217],[70.57621,40.28353],[70.57282,40.24203],[70.58512,40.22387],[70.61173,40.20109],[70.63233,40.17729],[70.71395,40.18986],[70.7599,40.18819],[70.78861,40.20214],[70.83595,40.21065],[70.86533,40.22126],[70.95594,40.21954],[70.98366,40.22579],[70.98541,40.22198],[70.91772,40.19707],[70.88224,40.18754],[70.85964,40.16475],[70.85709,40.16848],[70.83229,40.16125],[70.82746,40.17095],[70.83157,40.18915],[70.80286,40.17912],[70.79838,40.13285],[70.79207,40.12774],[70.7771,40.12419],[70.77071,40.1166],[70.7079,40.11027],[70.65332,40.09974],[70.64185,40.06205],[70.6326,40.06079],[70.63387,40.05214],[70.62871,40.04453],[70.62973,40.03965],[70.63623,40.03428],[70.63868,40.02459],[70.63746,40.0185],[70.61824,40.0063],[70.62166,39.98585],[70.6136,39.97883],[70.60129,39.97705],[70.58559,39.96238],[70.57946,39.96354],[70.56518,39.95426],[70.55161,39.95389],[70.54493,39.95065],[70.54048,39.9559],[70.53393,39.95596],[70.52849,39.9641],[70.51429,39.96557],[70.51493,39.96951],[70.55729,39.98199],[70.56212,39.98563],[70.55323,39.98513],[70.54867,39.98711],[70.54964,39.99048],[70.5596,39.99202],[70.5607,39.99625],[70.5762,39.99733],[70.58217,40.0029],[70.57822,40.02004],[70.55469,40.04416],[70.53353,40.0323],[70.52966,40.04041],[70.53358,40.04519],[70.528,40.05414],[70.51112,40.04974],[70.48516,40.05251],[70.47221,40.04908],[70.46447,40.05758],[70.44168,40.05288],[70.42193,40.0582],[70.41755,40.06075],[70.41981,40.06748],[70.4045,40.07702],[70.35438,40.08232],[70.35106,40.10237],[70.317,40.11691],[70.30276,40.11892],[70.28808,40.13026],[70.26407,40.12404],[70.2526,40.12586],[70.24014,40.12358],[70.22115,40.1292],[70.20449,40.12903],[70.20065,40.13193],[70.19905,40.15748],[70.19551,40.16221],[70.19039,40.16485],[70.18388,40.16039],[70.17266,40.14636],[70.0175,40.23184],[70.00664,40.23323],[69.99655,40.22622],[69.97438,40.22291],[69.95027,40.2113],[69.90507,40.20659],[69.78864,40.18003],[69.78984,40.17369],[69.79366,40.17444],[69.79536,40.15602],[69.76402,40.15105],[69.73933,40.15583],[69.68843,40.1287],[69.68567,40.11136],[69.68192,40.10956],[69.68193,40.11603],[69.67551,40.12231],[69.65065,40.12268],[69.60906,40.11271],[69.58527,40.10189],[69.56601,40.10303],[69.56244,40.11726],[69.52888,40.12237],[69.53449,40.09691],[69.51953,40.0929],[69.5115,40.08163],[69.51013,40.07711],[69.5217,40.06863],[69.51433,40.05917],[69.50702,40.03962],[69.50836,40.02252],[69.49202,40.00832],[69.48786,40.00097],[69.4974,39.99152],[69.49735,39.98603],[69.5245,39.9695],[69.52897,39.95794],[69.53495,39.95585],[69.54238,39.9409],[69.53806,39.93131],[69.52405,39.94296],[69.51196,39.94363],[69.50394,39.94299],[69.47908,39.93186],[69.47458,39.92251],[69.46182,39.91377],[69.45793,39.91945],[69.45653,39.93422],[69.4514,39.93622],[69.44586,39.93717],[69.44525,39.9292],[69.43048,39.9238],[69.42902,39.93626],[69.43388,39.94939],[69.42962,39.96029],[69.43252,39.97533],[69.41566,39.99072],[69.39966,39.99958],[69.39292,40.00006],[69.38638,39.99231],[69.37164,39.9941],[69.36866,40.00254],[69.35748,40.01514],[69.34609,40.02226],[69.34008,40.01924],[69.35163,40.0068],[69.35785,39.98933],[69.35612,39.96856],[69.34231,39.9687],[69.34307,39.95649],[69.33526,39.95856],[69.33039,39.95102],[69.31651,39.95095],[69.31509,39.9381],[69.29453,39.91963],[69.29758,39.91169],[69.30652,39.90489],[69.31321,39.8897],[69.3261,39.87419],[69.31344,39.87127],[69.29952,39.87488],[69.29693,39.86546],[69.30276,39.84645],[69.28237,39.83631],[69.2857,39.8296],[69.28396,39.8268],[69.27552,39.82242],[69.2704,39.82739],[69.26799,39.82564],[69.26437,39.80672],[69.27833,39.80345],[69.2789,39.79027],[69.28335,39.78898],[69.28257,39.779],[69.29131,39.77893],[69.28639,39.77076],[69.29033,39.76347],[69.28823,39.75274],[69.2971,39.74698],[69.30994,39.73135],[69.32458,39.72151],[69.33644,39.69928],[69.31971,39.6822],[69.319,39.66615],[69.3234,39.65792],[69.32771,39.65694],[69.3313,39.64328],[69.32925,39.63547],[69.33374,39.62841],[69.34456,39.62252],[69.33836,39.60444],[69.33969,39.60052],[69.35953,39.59594],[69.35359,39.57595],[69.35527,39.56839],[69.34701,39.55459],[69.33779,39.5469],[69.35749,39.52354],[69.36313,39.51967],[69.36999,39.52001],[69.3799,39.52512],[69.38118,39.5335],[69.39949,39.55925],[69.40488,39.56192],[69.40939,39.55847],[69.40678,39.55092],[69.40975,39.54638],[69.41523,39.54604],[69.44609,39.52769],[69.47216,39.53952],[69.4857,39.52569],[69.49501,39.53986],[69.51221,39.53595],[69.52572,39.54432],[69.53199,39.54421],[69.53706,39.53801],[69.54669,39.54488],[69.55423,39.55751],[69.5766,39.55446],[69.5867,39.57659],[69.60205,39.58255],[69.59942,39.58891],[69.60197,39.59186],[69.61865,39.58889],[69.62712,39.59296],[69.64042,39.58739],[69.64286,39.58101],[69.66382,39.57854],[69.67853,39.58025],[69.6832,39.59177],[69.69835,39.59883],[69.71755,39.59262],[69.73636,39.59479],[69.7483,39.58681],[69.75622,39.58764],[69.77447,39.58011],[69.7928,39.57806],[69.80127,39.56763],[69.80844,39.5691],[69.81513,39.55802],[69.82023,39.55706],[69.82555,39.56161],[69.83866,39.54859],[69.85269,39.54496],[69.85555,39.53795],[69.86902,39.52904],[69.88558,39.53896],[69.88461,39.54618],[69.899,39.55746],[69.89362,39.56797],[69.90049,39.57345],[69.92263,39.57669],[69.92628,39.57094],[69.94488,39.56277],[69.97911,39.5667],[69.97981,39.55826],[69.99009,39.55767],[69.98769,39.54547],[69.99618,39.5366],[70.0001,39.53648],[70.03237,39.55186],[70.03876,39.57103],[70.05376,39.57151],[70.05765,39.56608],[70.06816,39.5638],[70.07766,39.57581],[70.09315,39.57868],[70.10415,39.58763],[70.11733,39.59026],[70.12886,39.58517],[70.13769,39.57179],[70.14433,39.57129],[70.15062,39.55941],[70.16944,39.55346],[70.17624,39.55388],[70.18575,39.56244],[70.19442,39.56565],[70.2077,39.57924],[70.21159,39.57899],[70.21705,39.57533],[70.22143,39.56604],[70.24304,39.55961],[70.24203,39.54611],[70.23596,39.53835],[70.26913,39.52771],[70.29868,39.52942],[70.30207,39.52736],[70.30745,39.53361],[70.31354,39.53534],[70.31571,39.54263],[70.32799,39.55049],[70.33022,39.55536],[70.32809,39.56117],[70.34076,39.56388],[70.34983,39.57147],[70.35478,39.57185],[70.35803,39.57493],[70.36072,39.58881],[70.37335,39.59623],[70.3772,39.59582],[70.38927,39.58236],[70.39686,39.58207],[70.40802,39.57493],[70.42193,39.5749],[70.43094,39.58847],[70.42903,39.59576],[70.43476,39.59773],[70.43977,39.60464],[70.46354,39.5825],[70.46807,39.59078],[70.47972,39.60065],[70.4967,39.60778],[70.51649,39.60624],[70.52362,39.62144],[70.53193,39.62317],[70.54781,39.6102],[70.55697,39.61066],[70.55888,39.60117],[70.56586,39.59446],[70.57364,39.5976],[70.58611,39.5897],[70.6029,39.58545],[70.62306,39.59124],[70.6279,39.58543],[70.65119,39.58429],[70.65656,39.57194],[70.67372,39.56107],[70.68316,39.54741],[70.68589,39.52774],[70.69281,39.52457],[70.69302,39.51841],[70.69823,39.51776],[70.70959,39.50717],[70.74413,39.49652],[70.74729,39.49006],[70.7613,39.48465],[70.75998,39.47609],[70.7652,39.46595],[70.76252,39.45919],[70.76488,39.44828],[70.74981,39.4349],[70.74889,39.42782],[70.76687,39.40364],[70.77401,39.40057],[70.79103,39.40154],[70.7987,39.39302],[70.82929,39.38848],[70.84158,39.39428],[70.85651,39.39531],[70.8591,39.40534],[70.86824,39.40677],[70.86923,39.41227],[70.87748,39.41635],[70.89095,39.41186],[70.90357,39.39634],[70.91787,39.39161],[70.92498,39.39461],[70.93771,39.41071],[70.93646,39.4155],[70.94404,39.42853],[70.93924,39.43601],[70.95099,39.43619],[70.95498,39.43061],[70.99781,39.41026],[71.00755,39.41443],[71.01725,39.41069],[71.02833,39.4168],[71.03492,39.40991],[71.04355,39.4125],[71.05793,39.40897],[71.06155,39.4109],[71.0618,39.41725],[71.07261,39.42455],[71.0764,39.44392],[71.08349,39.44914],[71.08305,39.46459],[71.08027,39.46869],[71.08525,39.47834],[71.08425,39.48742],[71.08668,39.49096],[71.08256,39.49808],[71.10086,39.50189],[71.09794,39.50802],[71.0996,39.51864],[71.12876,39.51816],[71.1596,39.50907],[71.19167,39.50863],[71.20321,39.51806],[71.23093,39.51784],[71.24433,39.52713],[71.25542,39.53063],[71.26659,39.54181],[71.27342,39.52891],[71.28098,39.52416],[71.28564,39.51587],[71.2944,39.51352],[71.30852,39.52849],[71.32703,39.53589],[71.33471,39.54357],[71.33248,39.5518],[71.33991,39.56842],[71.33881,39.57283],[71.3626,39.57313],[71.37542,39.57678],[71.37881,39.57303],[71.38434,39.57383],[71.38705,39.56915],[71.39658,39.57265],[71.41381,39.57148],[71.42685,39.58403],[71.42171,39.59417],[71.42352,39.59809],[71.484,39.60692],[71.4805,39.61839],[71.47427,39.62237],[71.48512,39.62582],[71.49654,39.62139],[71.50406,39.61129],[71.51856,39.61003],[71.52583,39.59897],[71.54266,39.59997],[71.56697,39.5752],[71.56584,39.5701],[71.57007,39.56228],[71.55799,39.55097],[71.5568,39.5445],[71.55155,39.5431],[71.55444,39.53519],[71.54659,39.53126],[71.53862,39.51406],[71.54704,39.48847],[71.5571,39.47915],[71.55257,39.47526],[71.55235,39.46831],[71.56147,39.45916],[71.58087,39.4577],[71.59747,39.4469],[71.61096,39.45972],[71.62302,39.46232],[71.62396,39.45536],[71.63284,39.44548],[71.67808,39.4495],[71.6904,39.45639],[71.70202,39.45491],[71.71076,39.45869],[71.72239,39.45422],[71.7281,39.45705],[71.73411,39.4539],[71.74214,39.45893],[71.74872,39.458],[71.76037,39.46216],[71.77676,39.4638],[71.78535,39.46117],[71.78609,39.45727],[71.78181,39.45329],[71.78309,39.44547],[71.79019,39.43566],[71.79509,39.43538],[71.80258,39.42793],[71.8018,39.40934],[71.80856,39.3999],[71.80872,39.39033],[71.79552,39.37356],[71.76863,39.36364],[71.77436,39.3569],[71.75195,39.33506],[71.75309,39.33074],[71.75995,39.32734],[71.77246,39.31205],[71.77375,39.30593],[71.78994,39.29074],[71.79353,39.27884],[71.8037,39.27179],[71.80751,39.27681],[71.81725,39.27634],[71.82705,39.28453],[71.84537,39.29061],[71.85869,39.28516],[71.86385,39.2875],[71.90421,39.28602],[71.92563,39.29706],[71.92879,39.31812],[71.93191,39.3214],[71.94616,39.31969],[71.95846,39.33898],[71.97809,39.3391],[71.97859,39.34795],[71.99548,39.35323],[72.01524,39.34981],[72.02899,39.35569],[72.04274,39.37056],[72.07027,39.35295],[72.06682,39.34301],[72.07165,39.33818],[72.06963,39.33261],[72.08098,39.32054],[72.07463,39.30631],[72.08917,39.27748],[72.10689,39.26643],[72.15246,39.27331],[72.1629,39.26772],[72.17376,39.26945],[72.1817,39.25889],[72.17987,39.25318],[72.18226,39.24382],[72.18537,39.24108],[72.20024,39.24202],[72.21188,39.23288],[72.20938,39.2198],[72.21545,39.19536],[72.23224,39.1805],[72.24387,39.18398],[72.24733,39.19154],[72.2441,39.20847],[72.26495,39.21821],[72.26312,39.2234],[72.27626,39.2262],[72.27456,39.23165],[72.28317,39.24071],[72.28838,39.25993],[72.30243,39.27722],[72.29979,39.28996],[72.30936,39.29648],[72.31594,39.30853],[72.3117,39.31544],[72.33165,39.3174],[72.33919,39.32985],[72.34504,39.33328],[72.37774,39.32952],[72.39292,39.33457],[72.39568,39.3406],[72.40065,39.34204],[72.4328,39.3423],[72.43622,39.34689],[72.47766,39.34944],[72.48084,39.35494],[72.47246,39.362],[72.48533,39.37826],[72.49064,39.37944],[72.50115,39.37618],[72.52353,39.38151],[72.54731,39.37933],[72.55098,39.37586],[72.55254,39.36631],[72.56029,39.35985],[72.56282,39.35332],[72.56872,39.35123],[72.58315,39.35576],[72.59101,39.36347],[72.59834,39.36551],[72.61317,39.39499],[72.62893,39.39438],[72.64635,39.38737],[72.66265,39.39172],[72.67481,39.38841],[72.69447,39.39607],[72.70631,39.38565],[72.71663,39.38433],[72.74086,39.37215],[72.75305,39.37186],[72.76582,39.36537],[72.77964,39.36423],[72.78392,39.35842],[72.78383,39.34868],[72.79051,39.34601],[72.81663,39.36096],[72.83187,39.36294],[72.84472,39.35266],[72.85664,39.35224],[72.87782,39.34453],[72.88395,39.35214],[72.90392,39.3656],[72.9328,39.3723],[72.93902,39.37133],[72.94217,39.36054],[72.95694,39.34775],[72.97177,39.35801],[72.98458,39.35726],[73.00772,39.3643],[73.02234,39.35547],[73.04721,39.3523],[73.05959,39.35859],[73.06919,39.35932],[73.07087,39.36769],[73.07393,39.36901],[73.09437,39.3701],[73.10655,39.37518],[73.12709,39.37066],[73.16196,39.35165],[73.1852,39.35363],[73.1903,39.3509],[73.21741,39.36375],[73.23118,39.35795],[73.24395,39.36181],[73.25203,39.38097],[73.26059,39.38549],[73.27541,39.38135],[73.29506,39.38686],[73.32024,39.38228],[73.32652,39.39035],[73.35367,39.39311],[73.35373,39.39793],[73.36322,39.4087],[73.3598,39.42119],[73.35228,39.42568],[73.35186,39.43142],[73.35721,39.43463],[73.3711,39.43285],[73.38259,39.4438],[73.39267,39.44668],[73.39365,39.45319],[73.43026,39.44912],[73.44166,39.45186],[73.44528,39.46006],[73.45111,39.46384],[73.46602,39.46444],[73.47696,39.47107],[73.49374,39.46851],[73.50608,39.47401],[73.51375,39.47455],[73.52018,39.46934],[73.53091,39.46929],[73.54008,39.46268],[73.56708,39.4559],[73.57886,39.46524],[73.59046,39.46866],[73.60001,39.45883],[73.59455,39.44983],[73.59745,39.44405],[73.59022,39.43517],[73.59698,39.42533],[73.59116,39.41916],[73.59281,39.41171],[73.57418,39.40486],[73.56682,39.39572],[73.52619,39.39149],[73.52,39.38572],[73.50159,39.38191],[73.50487,39.37597],[73.52099,39.37476],[73.53276,39.36521],[73.53998,39.36647],[73.54577,39.35702],[73.56303,39.35144],[73.56589,39.34637],[73.55957,39.34252],[73.5537,39.34315],[73.55023,39.33447],[73.55296,39.31393],[73.5617,39.30756],[73.56074,39.30189],[73.5507,39.28822],[73.54151,39.28382],[73.53751,39.27795],[73.56191,39.26942],[73.56377,39.25509],[73.5608,39.25221],[73.56761,39.24948],[73.56979,39.24469],[73.58757,39.23949],[73.61302,39.24697],[73.61638,39.24012],[73.62325,39.24041],[73.62491,39.23564],[73.63539,39.22759],[73.63347,39.22073],[73.64339,39.212],[73.64158,39.20477],[73.64501,39.20164],[73.65335,39.2015],[73.65546,39.19634],[73.66096,39.19417],[73.65757,39.18441],[73.66104,39.18069],[73.65935,39.17068],[73.66271,39.16465],[73.67853,39.16553],[73.68911,39.15888],[73.68461,39.14874],[73.6754,39.14201],[73.70244,39.13673],[73.70741,39.12887],[73.70611,39.12282],[73.71954,39.11224],[73.71393,39.10194],[73.71779,39.09703],[73.71102,39.07542],[73.72185,39.06876],[73.73123,39.06708],[73.73962,39.05348],[73.73599,39.0364],[73.75028,39.02533],[73.76435,39.03135],[73.77469,39.02691],[73.78658,39.03051],[73.78984,39.04178],[73.81215,39.04261],[73.82457,39.01894],[73.83779,39.00961],[73.8434,38.99849],[73.84516,38.97469],[73.85416,38.95257],[73.84716,38.94889],[73.84506,38.93897],[73.83766,38.93254],[73.83699,38.92637],[73.83101,38.91933],[73.82026,38.91869],[73.80915,38.93327],[73.79499,38.92907],[73.78538,38.9347],[73.78073,38.94143],[73.76533,38.93761],[73.75775,38.94221],[73.73711,38.92371],[73.73366,38.91086],[73.71645,38.90764],[73.71046,38.90078],[73.70825,38.89507],[73.71042,38.88769],[73.6986,38.87872],[73.70305,38.87149],[73.70362,38.86114],[73.69496,38.85275],[73.70699,38.84661],[73.72912,38.84374],[73.72929,38.83029],[73.73646,38.8256],[73.75025,38.80423],[73.74958,38.80008],[73.76669,38.78071],[73.76748,38.77089],[73.75635,38.77055],[73.75229,38.74543],[73.74615,38.7403],[73.744,38.73167],[73.7544,38.72464],[73.76424,38.72339],[73.76989,38.71702],[73.76587,38.70464],[73.77408,38.7018],[73.77178,38.69451],[73.77876,38.69212],[73.78054,38.68066],[73.7954,38.67329],[73.79712,38.66645],[73.80501,38.66396],[73.80604,38.65871],[73.79861,38.64983],[73.80949,38.64112],[73.8085,38.63161],[73.8003,38.62255],[73.80124,38.61504],[73.82265,38.60215],[73.82878,38.60161],[73.86086,38.57866],[73.87533,38.58456],[73.89352,38.58393],[73.89881,38.58078],[73.90639,38.56327],[73.92,38.55249],[73.92374,38.54256],[73.93705,38.54226],[73.93874,38.53791],[73.96685,38.53337],[73.97652,38.53671],[73.98905,38.52413],[73.99591,38.52152],[74.00852,38.52522],[74.00893,38.53525],[74.03925,38.54481],[74.05444,38.53688],[74.07848,38.53188],[74.08483,38.53581],[74.0889,38.54502],[74.08783,38.54975],[74.07675,38.55235],[74.06905,38.57146],[74.06155,38.57819],[74.07675,38.59003],[74.07234,38.59509],[74.07664,38.61042],[74.09115,38.61064],[74.09467,38.61421],[74.11468,38.60949],[74.11968,38.62033],[74.11745,38.62839],[74.12103,38.63177],[74.12149,38.64164],[74.18689,38.64028],[74.25691,38.60234],[74.28444,38.59842],[74.50669,38.4715],[74.62197,38.4462],[74.64394,38.45209],[74.65978,38.43696],[74.69272,38.42755],[74.69565,38.42459],[74.68994,38.40791],[74.6781,38.40294],[74.67014,38.38577],[74.6653,38.38277],[74.66651,38.37631],[74.67567,38.37014],[74.67311,38.3576],[74.67533,38.35104],[74.68803,38.34237],[74.69072,38.32845],[74.68838,38.31887],[74.69146,38.31073],[74.70451,38.29453],[74.7058,38.28249],[74.69549,38.26449],[74.69794,38.22816],[74.70639,38.22171],[74.71391,38.20795],[74.72804,38.21429],[74.75537,38.21501],[74.75884,38.21447],[74.76164,38.20352],[74.7713,38.19708],[74.80024,38.2023],[74.8051,38.1769],[74.79901,38.15624],[74.81881,38.12863],[74.81736,38.0993],[74.8204,38.08531],[74.82783,38.08326],[74.83438,38.07255],[74.84626,38.07388],[74.85397,38.06942],[74.85681,38.0603],[74.85201,38.05808],[74.85324,38.04759],[74.85588,38.0432],[74.86593,38.03904],[74.86852,38.02566],[74.88528,38.02342],[74.89276,38.03564],[74.90609,38.03346],[74.9164,38.02441],[74.9152,38.01516],[74.91827,38.00549],[74.91312,37.99678],[74.91802,37.98049],[74.90786,37.9699],[74.90879,37.96489],[74.91471,37.96157],[74.91352,37.95607],[74.91892,37.95138],[74.9176,37.94221],[74.92152,37.93761],[74.91673,37.92705],[74.92029,37.91807],[74.91289,37.90718],[74.91861,37.89951],[74.92695,37.90001],[74.9383,37.8944],[74.93689,37.88012],[74.9323,37.87945],[74.92858,37.86793],[74.91278,37.85678],[74.9256,37.83415],[74.92464,37.82872],[74.94415,37.82415],[74.945,37.8149],[74.9521,37.80886],[74.96358,37.81103],[74.97464,37.80689],[74.98622,37.8083],[75.01081,37.775],[75.01,37.76987],[75.00061,37.76902],[74.9969,37.76225],[74.98982,37.76175],[74.98189,37.75097],[74.96688,37.75173],[74.95956,37.7279],[74.95308,37.72647],[74.94528,37.71832],[74.93417,37.71745],[74.92269,37.7038],[74.93356,37.69366],[74.93165,37.69015],[74.90169,37.67732],[74.89949,37.6737],[74.89707,37.66197],[74.90254,37.64743],[74.90721,37.64477],[74.91124,37.63466],[74.92331,37.62941],[74.92646,37.62463],[74.92546,37.61367],[74.93914,37.60368],[74.93076,37.58661],[74.93441,37.57577],[74.93197,37.56826],[74.94431,37.55415],[74.95567,37.55324],[74.95853,37.54433],[74.96397,37.53983],[74.98681,37.53549],[75.00076,37.52523],[75.0104,37.5254],[75.01771,37.5181],[75.01965,37.50916],[75.0282,37.50709],[75.03115,37.50119],[75.04768,37.50814],[75.05513,37.52233],[75.06357,37.52624],[75.06208,37.52037],[75.0837,37.49964],[75.08278,37.49216],[75.08889,37.48463],[75.09362,37.48532],[75.10475,37.47161],[75.11751,37.47085],[75.12563,37.46436],[75.12494,37.44922],[75.12815,37.44359],[75.13394,37.44289],[75.13543,37.43794],[75.14142,37.43508],[75.14182,37.42979],[75.14859,37.42111],[75.14588,37.41768],[75.15307,37.40873],[75.138,37.40054],[75.12896,37.39914],[75.12581,37.38729],[75.11364,37.3843],[75.11193,37.37729],[75.09413,37.3713],[75.10474,37.36149],[75.11349,37.34642],[75.12137,37.34099],[75.12177,37.3312],[75.12885,37.32362],[75.12526,37.31583],[75.10885,37.31413],[75.0958,37.31821],[75.07734,37.31574],[75.07227,37.31134],[75.062,37.30955],[75.05612,37.30279],[75.04268,37.30566],[75.01544,37.29276],[74.99206,37.29005],[74.97916,37.2853],[74.9723,37.29018],[74.9634,37.2877],[74.95179,37.29192],[74.93892,37.28531],[74.92672,37.28409],[74.90877,37.27287],[74.91907,37.26038],[74.9117,37.2469],[74.91706,37.24297],[74.91539,37.23706],[74.90804,37.23354],[74.89359,37.23254],[74.88697,37.23606],[74.88967,37.24644],[74.88765,37.25715],[74.87864,37.26029],[74.87672,37.27512],[74.86237,37.285],[74.8541,37.29512],[74.84878,37.30815],[74.82923,37.33578],[74.8204,37.33666],[74.80388,37.355],[74.76931,37.36415],[74.7357,37.37796],[74.72692,37.37719],[74.7066,37.38385],[74.70931,37.38753],[74.69006,37.40598],[74.6859,37.39744],[74.67556,37.38971],[74.64214,37.3834],[74.64036,37.37748],[74.63187,37.37689],[74.62719,37.38147],[74.61464,37.38292],[74.58962,37.37674],[74.57377,37.37696],[74.56595,37.37248],[74.56053,37.37723],[74.55578,37.3884],[74.55541,37.39835],[74.53743,37.40658],[74.52819,37.40881],[74.52029,37.40048],[74.50523,37.40051],[74.49436,37.39603],[74.48358,37.40202],[74.48343,37.41189],[74.4748,37.41782],[74.47303,37.42282],[74.46816,37.42399],[74.46533,37.42087],[74.46757,37.40701],[74.45205,37.40457],[74.43938,37.41635],[74.43474,37.41354],[74.4282,37.39409],[74.41786,37.38864],[74.41075,37.38932],[74.39009,37.39728],[74.38588,37.40626],[74.3904,37.41018],[74.37563,37.4242],[74.34802,37.42188],[74.34262,37.4064],[74.32433,37.40748],[74.32049,37.39958],[74.31567,37.39871],[74.28288,37.40415],[74.27674,37.40183],[74.26728,37.41045],[74.25472,37.40829],[74.24413,37.41535],[74.23901,37.41323],[74.23124,37.40273],[74.23005,37.39447],[74.23799,37.39048],[74.24294,37.3816],[74.25204,37.37679],[74.25141,37.37379],[74.23819,37.37303],[74.22827,37.35432],[74.22247,37.34901],[74.2125,37.35054],[74.2084,37.34042],[74.20201,37.3352],[74.18492,37.33464],[74.17792,37.34035],[74.15474,37.34153],[74.15183,37.33659],[74.14506,37.33706],[74.13726,37.32757],[74.12981,37.32438],[74.12625,37.32469],[74.12504,37.32837],[74.11394,37.32751],[74.11197,37.32014],[74.09828,37.31761],[74.07705,37.31997],[74.06702,37.32665],[74.06084,37.32338],[74.06242,37.31087],[74.05632,37.3111],[74.04108,37.30044],[74.03496,37.30887],[74.02556,37.3069],[74.01411,37.29106],[73.99876,37.28903],[73.98359,37.29807],[73.96926,37.29972],[73.96428,37.29859],[73.95514,37.28642],[73.95232,37.27484],[73.92459,37.28529],[73.88963,37.2765],[73.8843,37.27245],[73.88536,37.26723],[73.88046,37.26397],[73.85265,37.25765],[73.8438,37.24889],[73.84258,37.23349],[73.82886,37.22691],[73.81991,37.22674],[73.81413,37.2318],[73.80524,37.22596],[73.7819,37.23803],[73.76411,37.23511],[73.76139,37.2219],[73.75693,37.22184],[73.74902,37.22693],[73.73896,37.22734],[73.72516,37.2462],[73.71246,37.24564],[73.69103,37.25272],[73.68192,37.24913],[73.66423,37.24926],[73.66022,37.24644],[73.65911,37.23814],[73.65098,37.23734],[73.63016,37.24979],[73.62709,37.25859],[73.62966,37.26636],[73.62186,37.26608],[73.61675,37.27083],[73.63086,37.28279],[73.64101,37.28071],[73.65103,37.28498],[73.65319,37.2943],[73.64725,37.30062],[73.65169,37.30385],[73.65462,37.31443],[73.66734,37.31555],[73.66994,37.31046],[73.67951,37.30841],[73.68329,37.3117],[73.69709,37.31125],[73.70484,37.30731],[73.71094,37.3158],[73.73267,37.31531],[73.73795,37.31983],[73.75312,37.32262],[73.75138,37.33183],[73.7725,37.33828],[73.76975,37.34629],[73.77061,37.38294],[73.76714,37.39236],[73.77222,37.39727],[73.77044,37.40947],[73.77495,37.43593],[73.76881,37.43949],[73.73036,37.43874],[73.68282,37.4493],[73.64938,37.4351],[73.57965,37.4472],[73.53301,37.47178],[73.51239,37.47487],[73.50725,37.4723],[73.4575,37.47427],[73.41848,37.4669],[73.40397,37.45622],[73.37599,37.44268],[73.36588,37.44619],[73.36848,37.45416],[73.36512,37.46173],[73.35321,37.45998],[73.34659,37.46455],[73.33438,37.46661],[73.30557,37.46371],[73.2874,37.45633],[73.27548,37.444],[73.25391,37.43614],[73.24448,37.42274],[73.21634,37.40574],[73.20429,37.4041],[73.1952,37.40841],[73.16617,37.40966],[73.14903,37.40431],[73.13278,37.37179],[73.1071,37.36328],[73.10193,37.35313],[73.10182,37.34367],[73.1073,37.34065],[73.09441,37.325],[73.03934,37.30549],[73.0159,37.30573],[72.97719,37.29727],[72.96975,37.29098],[72.95215,37.29062],[72.95147,37.28785],[72.93892,37.28321],[72.93425,37.27443],[72.92076,37.26682],[72.91507,37.25877],[72.90986,37.25842],[72.89095,37.24311],[72.85764,37.22906],[72.83653,37.23532],[72.81518,37.23199],[72.77621,37.19608],[72.77072,37.17863],[72.73961,37.11985],[72.72687,37.10867],[72.71655,37.09026],[72.70185,37.08127],[72.6999,37.07587],[72.70355,37.07412],[72.70246,37.06903],[72.68232,37.05183],[72.67767,37.03158],[72.67862,37.0227],[72.66835,37.02194],[72.66364,37.01693],[72.65584,37.02061],[72.64447,37.01942],[72.63621,37.02789],[72.62347,37.02929],[72.60987,37.02483],[72.58931,37.01085],[72.58075,37.00924],[72.57429,37.01183],[72.56732,37.00623],[72.53418,37.00221],[72.52387,36.99785],[72.51213,37.00026],[72.48468,36.99786],[72.4761,36.99309],[72.45956,37.00185],[72.43873,37.00725],[72.42225,37.00707],[72.41284,37.00517],[72.40639,36.99656],[72.38194,36.99026],[72.37197,36.988],[72.34462,36.98945],[72.33258,36.9802],[72.30453,36.9719],[72.29464,36.96619],[72.29497,36.96262],[72.27013,36.94871],[72.24569,36.94445],[72.23251,36.9306],[72.2082,36.92555],[72.2,36.9101],[72.19345,36.90553],[72.17188,36.89587],[72.1517,36.87963],[72.14147,36.87994],[72.13846,36.87519],[72.12251,36.86797],[72.11771,36.85423],[72.10957,36.84347],[72.10111,36.84402],[72.08612,36.8388],[72.06744,36.83951],[72.0522,36.83106],[72.04506,36.81994],[72.01908,36.81146],[72.00897,36.79591],[71.99771,36.79076],[71.98841,36.77936],[71.98275,36.77988],[71.97816,36.77636],[71.95818,36.75565],[71.94147,36.74638],[71.90282,36.73332],[71.89263,36.71708],[71.87217,36.70328],[71.86494,36.69301],[71.8454,36.68407],[71.84213,36.67982],[71.81872,36.68242],[71.78499,36.67506],[71.75904,36.67891],[71.7474,36.67562],[71.72764,36.67703],[71.71101,36.67234],[71.68988,36.67736],[71.67662,36.67203],[71.65347,36.68785],[71.63328,36.69158],[71.61892,36.71426],[71.59017,36.73327],[71.56738,36.7621],[71.55364,36.8078],[71.54034,36.83006],[71.54245,36.84526],[71.52636,36.85937],[71.52901,36.86978],[71.51831,36.88217],[71.518,36.88894],[71.50361,36.90898],[71.49344,36.91424],[71.48755,36.93115],[71.47639,36.93793],[71.47003,36.95403],[71.4648,36.95701],[71.46454,36.96615],[71.47143,36.9847],[71.46664,37.00776],[71.46053,37.01637],[71.46215,37.0237],[71.44795,37.03953],[71.44273,37.04142],[71.44125,37.04786],[71.43225,37.05604],[71.42885,37.07138],[71.43494,37.089],[71.44312,37.09514],[71.44477,37.10148],[71.44119,37.11804],[71.44429,37.12459],[71.4422,37.13133],[71.44541,37.13332],[71.44479,37.14345],[71.45189,37.15314],[71.44547,37.16983],[71.44685,37.17467],[71.45012,37.18158],[71.46164,37.18436],[71.46324,37.19111],[71.45664,37.19913],[71.45384,37.20841],[71.45549,37.2141],[71.46692,37.22518],[71.48106,37.23131],[71.47888,37.23409],[71.48535,37.24617],[71.48262,37.24906],[71.48492,37.25998],[71.49104,37.26529],[71.48867,37.27555],[71.49486,37.28425],[71.49253,37.29727],[71.50675,37.31384],[71.48822,37.33038],[71.48675,37.33578],[71.49209,37.35256],[71.49064,37.35869],[71.49555,37.36923],[71.49162,37.37825],[71.47493,37.38763],[71.47848,37.4058],[71.49752,37.40742],[71.4993,37.411],[71.49538,37.41531],[71.49526,37.42168],[71.50188,37.4349],[71.50417,37.45295],[71.51998,37.46378],[71.5265,37.47923],[71.50452,37.51104],[71.50505,37.52311],[71.50317,37.52799],[71.49627,37.53197],[71.49396,37.542],[71.49567,37.54996],[71.50237,37.55675],[71.50699,37.59107],[71.50464,37.60509],[71.51324,37.61195],[71.52628,37.63171],[71.52927,37.67826],[71.53968,37.6879],[71.54124,37.70464],[71.55005,37.71484],[71.54812,37.72119],[71.55176,37.72863],[71.54835,37.73319],[71.55129,37.73541],[71.53145,37.76582],[71.54364,37.77066],[71.55815,37.78788],[71.56419,37.78752],[71.5891,37.79729],[71.59463,37.80578],[71.58444,37.84593],[71.59692,37.8744],[71.58662,37.89508],[71.59094,37.92033],[71.57454,37.93558],[71.5422,37.94242],[71.54023,37.94624],[71.52825,37.94321],[71.5187,37.95284],[71.50313,37.95217],[71.49141,37.94143],[71.47431,37.93774],[71.46073,37.92799],[71.4283,37.91879],[71.41638,37.90798],[71.3784,37.90558],[71.329,37.8857],[71.31348,37.91917],[71.29923,37.9317],[71.28962,37.93265],[71.28774,37.92533],[71.28128,37.91984],[71.25601,37.92374],[71.25209,37.93241],[71.26547,37.93809],[71.26267,37.95229],[71.27423,37.96471],[71.27337,37.97722],[71.26687,37.98282],[71.2682,37.98968],[71.27045,37.99416],[71.27903,37.99563],[71.27566,38.00595],[71.2944,38.01743],[71.29564,38.03121],[71.28494,38.03375],[71.28406,38.0424],[71.29057,38.04508],[71.30266,38.04338],[71.30654,38.04682],[71.31099,38.06043],[71.32033,38.0667],[71.32154,38.09264],[71.31749,38.09927],[71.32662,38.10307],[71.32585,38.10898],[71.33711,38.1153],[71.33859,38.12838],[71.3468,38.14627],[71.35221,38.15033],[71.36297,38.14925],[71.37575,38.15993],[71.36826,38.17254],[71.3638,38.19629],[71.36501,38.20077],[71.37662,38.20735],[71.37913,38.21244],[71.37407,38.21993],[71.36653,38.22409],[71.37038,38.2317],[71.37348,38.25697],[71.36589,38.26667],[71.35686,38.271],[71.33456,38.27091],[71.3321,38.27585],[71.33369,38.28142],[71.32731,38.28638],[71.33349,38.29464],[71.32968,38.30684],[71.31062,38.30175],[71.30346,38.31052],[71.29491,38.31362],[71.27901,38.31471],[71.25229,38.31054],[71.24291,38.31922],[71.2254,38.32151],[71.19788,38.34344],[71.18406,38.34595],[71.17578,38.36969],[71.16717,38.38392],[71.16288,38.388],[71.15001,38.38954],[71.14882,38.3992],[71.14399,38.40285],[71.13185,38.39714],[71.1211,38.40636],[71.10909,38.40588],[71.10467,38.41019],[71.10847,38.41876],[71.10568,38.42192],[71.09318,38.42366],[71.07505,38.41346],[71.06643,38.41446],[71.06894,38.40248],[71.06121,38.39795],[71.05585,38.3988],[71.04623,38.41154],[71.04581,38.42178],[71.03951,38.42767],[71.03702,38.44272],[71.02993,38.45079],[71.03145,38.4602],[71.02068,38.469],[71.00685,38.47249],[70.99985,38.47852],[71.0011,38.48343],[70.99717,38.48795],[70.99066,38.49031]]],[[[70.53007,39.88425],[70.52626,39.88714],[70.52928,39.88954],[70.58951,39.88518],[70.62543,39.87513],[70.69185,39.86902],[70.72891,39.87758],[70.73051,39.84755],[70.69183,39.82939],[70.65039,39.8048],[70.64496,39.80105],[70.63575,39.7811],[70.61316,39.77532],[70.60684,39.769],[70.60156,39.77096],[70.61318,39.81561],[70.60326,39.8222],[70.58537,39.82231],[70.5752,39.82026],[70.57174,39.81544],[70.54244,39.82776],[70.54246,39.83039],[70.55611,39.83549],[70.53424,39.85176],[70.5214,39.86877],[70.52935,39.87349],[70.52673,39.87921],[70.53135,39.88031],[70.53007,39.88425]]],[[[70.58641,40.99106],[70.61781,40.97184],[70.64198,40.94402],[70.66273,40.92697],[70.66937,40.9144],[70.65646,40.91858],[70.61034,40.96566],[70.58201,40.98516],[70.56766,40.99097],[70.54278,40.98864],[70.56149,41.00324],[70.58641,40.99106]]],[[[69.54567,40.07704],[69.54931,40.06615],[69.54786,40.06087],[69.54357,40.05924],[69.5417,40.0657],[69.54567,40.07704]]]]}}]}