{"type":"FeatureCollection","features":[{"type":"Feature","properties":{"ISO_A3":"TKM","WB_A3":"TKM","WB_NAME":"Turkmenistan","WB_REGION":"ECS"},"geometry":{"type":"MultiPolygon","coordinates":[[[[57.69352,37.91987],[57.68417,37.91732],[57.65347,37.92603],[57.62819,37.92312],[57.579,37.939],[57.5445,37.92471],[57.53472,37.92605],[57.51606,37.91919],[57.50077,37.92763],[57.49272,37.93739],[57.4726,37.93479],[57.47162,37.93859],[57.45304,37.93986],[57.44494,37.94499],[57.44235,37.94251],[57.41117,37.96048],[57.4045,37.97129],[57.38376,37.97317],[57.38247,37.97754],[57.36752,37.98307],[57.36285,37.97999],[57.35566,37.98172],[57.35054,37.9856],[57.35137,37.99011],[57.36467,38.00633],[57.3669,38.02264],[57.36189,38.03218],[57.36421,38.03494],[57.36227,38.04632],[57.3644,38.05116],[57.37386,38.0543],[57.37699,38.0618],[57.37243,38.07425],[57.37824,38.08512],[57.36993,38.08762],[57.36895,38.09739],[57.35593,38.10025],[57.35254,38.10706],[57.34217,38.11459],[57.34198,38.12516],[57.33674,38.1278],[57.33578,38.13703],[57.30166,38.15101],[57.29818,38.15575],[57.2939,38.16913],[57.28867,38.1742],[57.29628,38.18381],[57.29485,38.187],[57.30128,38.19792],[57.29888,38.20255],[57.29101,38.20504],[57.29654,38.21564],[57.28595,38.21456],[57.27946,38.21863],[57.28052,38.221],[57.27076,38.22148],[57.25038,38.23106],[57.25159,38.24361],[57.24389,38.25111],[57.24754,38.25914],[57.25391,38.26403],[57.24663,38.27165],[57.21872,38.27418],[57.21637,38.28074],[57.19567,38.27813],[57.17959,38.26854],[57.16696,38.26865],[57.16391,38.27217],[57.15704,38.27021],[57.15666,38.2651],[57.14833,38.2539],[57.14816,38.24447],[57.11814,38.22043],[57.10418,38.21287],[57.08945,38.19476],[57.06591,38.18133],[57.03798,38.18485],[57.03247,38.18241],[57.02124,38.18521],[57.01974,38.18835],[57.01229,38.1868],[57.01063,38.18946],[57.00256,38.18973],[56.99704,38.20001],[56.99734,38.20692],[56.991,38.21461],[56.97258,38.21489],[56.966,38.21063],[56.93012,38.21588],[56.90845,38.21394],[56.8951,38.22033],[56.8829,38.21952],[56.86573,38.22757],[56.8403,38.22874],[56.83268,38.23687],[56.81865,38.24103],[56.81257,38.24654],[56.80235,38.24649],[56.7979,38.25077],[56.79242,38.25101],[56.78885,38.25867],[56.7809,38.26517],[56.76765,38.26976],[56.76075,38.28161],[56.75333,38.28442],[56.74614,38.27735],[56.73432,38.27581],[56.72249,38.26524],[56.71696,38.26771],[56.68936,38.26625],[56.67784,38.26982],[56.64703,38.258],[56.64159,38.2478],[56.63042,38.24306],[56.61574,38.24263],[56.60528,38.23383],[56.59544,38.23749],[56.59239,38.25022],[56.58766,38.25054],[56.58409,38.25724],[56.56983,38.26422],[56.56078,38.26248],[56.54844,38.26707],[56.53799,38.26258],[56.53035,38.26319],[56.52529,38.26796],[56.52052,38.26283],[56.51014,38.25943],[56.5035,38.2631],[56.49986,38.26],[56.49348,38.26136],[56.48704,38.26601],[56.48151,38.26194],[56.46608,38.26398],[56.46317,38.26116],[56.46019,38.26487],[56.45251,38.26459],[56.44211,38.2582],[56.4102,38.25347],[56.4015,38.24217],[56.33285,38.19759],[56.32964,38.19051],[56.331,38.1859],[56.31246,38.17336],[56.31468,38.16748],[56.32305,38.16597],[56.3296,38.15352],[56.32673,38.1513],[56.32842,38.14697],[56.34311,38.1428],[56.35078,38.12667],[56.35174,38.11689],[56.34477,38.11464],[56.33678,38.10484],[56.33548,38.07798],[56.3207,38.08084],[56.31987,38.07721],[56.28931,38.08447],[56.28068,38.07923],[56.2754,38.08028],[56.265,38.07602],[56.2047,38.07242],[56.17222,38.09297],[56.12696,38.08914],[56.11491,38.09093],[56.08182,38.08217],[56.04939,38.08141],[56.0333,38.07679],[55.98626,38.07651],[55.9677,38.08315],[55.95725,38.09385],[55.94259,38.09331],[55.93138,38.09739],[55.91495,38.08981],[55.90786,38.09274],[55.90466,38.09073],[55.88598,38.09527],[55.87835,38.09404],[55.86382,38.10313],[55.84596,38.10582],[55.83554,38.11519],[55.81408,38.12551],[55.80249,38.1242],[55.79629,38.11884],[55.78156,38.118],[55.76804,38.12025],[55.76328,38.1271],[55.75936,38.12325],[55.74094,38.12169],[55.73416,38.11503],[55.72532,38.11229],[55.70169,38.11345],[55.69303,38.10597],[55.67152,38.10866],[55.62453,38.10531],[55.59476,38.10678],[55.57969,38.09801],[55.56366,38.10005],[55.53829,38.09338],[55.52228,38.09422],[55.52068,38.08787],[55.50315,38.08503],[55.50194,38.08207],[55.48651,38.08436],[55.48077,38.0934],[55.46515,38.09428],[55.44513,38.08131],[55.44121,38.0657],[55.42924,38.0633],[55.42745,38.05893],[55.40706,38.04355],[55.3965,38.04402],[55.39244,38.03959],[55.35711,38.03284],[55.35171,38.02591],[55.2954,38.00261],[55.27396,37.99034],[55.26726,37.99246],[55.26148,37.99044],[55.26119,37.98629],[55.25764,37.98857],[55.25657,37.98607],[55.25242,37.98689],[55.2509,37.98242],[55.23647,37.97691],[55.22696,37.97909],[55.22067,37.97432],[55.21936,37.96921],[55.20969,37.96649],[55.20696,37.95683],[55.20399,37.95615],[55.20518,37.9495],[55.19352,37.94757],[55.18908,37.95315],[55.17828,37.95753],[55.16825,37.95744],[55.1571,37.95281],[55.15743,37.9506],[55.14527,37.95292],[55.14562,37.94915],[55.12791,37.94776],[55.12118,37.93921],[55.11055,37.9365],[55.09527,37.9246],[55.08866,37.91518],[55.07933,37.91375],[55.08086,37.90661],[55.07731,37.9031],[55.06209,37.89978],[55.05441,37.889],[55.05657,37.88603],[55.0384,37.87696],[55.03214,37.87064],[55.03549,37.87002],[55.03929,37.86093],[55.03066,37.8584],[55.03266,37.85491],[55.02318,37.8513],[55.01971,37.8422],[55.00406,37.84086],[54.99551,37.83398],[54.99418,37.82767],[54.98664,37.82741],[54.98269,37.82221],[54.9763,37.82163],[54.97338,37.81653],[54.95596,37.81173],[54.95719,37.80335],[54.95477,37.79925],[54.94264,37.79461],[54.94142,37.78949],[54.93332,37.78836],[54.93128,37.7845],[54.92237,37.78707],[54.89107,37.76767],[54.88598,37.77046],[54.86618,37.76703],[54.8661,37.76309],[54.8554,37.757],[54.85582,37.75018],[54.84029,37.74577],[54.84246,37.7405],[54.83929,37.73463],[54.82624,37.72632],[54.82325,37.71939],[54.82562,37.71552],[54.81971,37.71363],[54.82314,37.70428],[54.8218,37.69869],[54.81751,37.69944],[54.81853,37.69568],[54.81048,37.68779],[54.81268,37.68351],[54.80832,37.68262],[54.79821,37.67196],[54.80337,37.66733],[54.80469,37.66064],[54.79482,37.65656],[54.79498,37.64972],[54.78842,37.64739],[54.78844,37.63831],[54.78513,37.63729],[54.7893,37.61855],[54.81314,37.61449],[54.81806,37.61116],[54.82067,37.60203],[54.81647,37.58724],[54.81116,37.58435],[54.81206,37.57526],[54.80837,37.56753],[54.80294,37.56518],[54.80639,37.55619],[54.80356,37.55193],[54.79759,37.55129],[54.79893,37.52309],[54.77335,37.51555],[54.76937,37.5064],[54.76963,37.49765],[54.75875,37.49818],[54.7575,37.49248],[54.72951,37.49108],[54.70604,37.45838],[54.67437,37.43778],[54.66424,37.43553],[54.65537,37.44175],[54.64779,37.43984],[54.6291,37.44882],[54.6235,37.44591],[54.61548,37.4492],[54.61203,37.45463],[54.59606,37.45931],[54.58239,37.45854],[54.57805,37.44819],[54.56857,37.45078],[54.56198,37.44631],[54.55264,37.44645],[54.53918,37.43552],[54.52842,37.432],[54.52189,37.43482],[54.51339,37.43014],[54.50615,37.42086],[54.48811,37.41883],[54.47206,37.4041],[54.46302,37.40213],[54.45578,37.39519],[54.43827,37.38811],[54.39746,37.36079],[54.34756,37.3487],[54.28528,37.35176],[54.24459,37.32003],[53.98056,37.34213],[53.97596,37.37545],[53.95575,37.38528],[53.95515,37.41191],[53.944,37.45222],[53.93425,37.47434],[53.91358,37.5077],[53.89825,37.54932],[53.87317,37.60306],[53.85088,37.66614],[53.83299,37.73248],[53.82161,37.7949],[53.8136,37.90845],[53.82086,38.01002],[53.82793,38.0488],[53.85715,38.15111],[53.86404,38.19077],[53.87384,38.36254],[53.87347,38.37534],[53.8517,38.42567],[53.83247,38.5092],[53.83247,38.53787],[53.83646,38.5654],[53.86005,38.64735],[53.89742,38.71278],[53.92137,38.73939],[53.93371,38.76967],[53.93661,38.79654],[53.95875,38.83189],[53.98633,38.86269],[53.99866,38.87427],[54.01209,38.87399],[54.02189,38.89066],[54.02624,38.90873],[54.01281,38.91071],[53.99903,38.91918],[54.00628,38.95333],[54.01789,38.95361],[54.02007,38.96208],[54.00955,38.96969],[53.99213,38.95813],[53.98306,38.96095],[53.99068,38.98041],[53.98487,38.98352],[53.97363,38.96913],[53.96782,38.96941],[53.96455,38.98154],[53.9729,38.99846],[53.95911,38.99057],[53.9406,38.99677],[53.92391,38.98859],[53.91738,38.97731],[53.91811,38.96151],[53.90287,38.96716],[53.89416,38.9838],[53.8898,39.03681],[53.89488,39.05315],[53.8898,39.05963],[53.88073,39.05428],[53.87674,39.04413],[53.88109,39.03709],[53.87239,39.03117],[53.82267,39.04413],[53.81796,39.054],[53.81651,39.07316],[53.80671,39.07259],[53.80272,39.06273],[53.7951,39.05541],[53.78856,39.05625],[53.78893,39.07344],[53.77332,39.07597],[53.7697,39.08302],[53.76099,39.08302],[53.76062,39.09794],[53.74974,39.09597],[53.75083,39.08696],[53.7599,39.07513],[53.7599,39.06076],[53.75554,39.04808],[53.74575,39.05174],[53.74502,39.06301],[53.73631,39.06949],[53.73159,39.08302],[53.73159,39.09625],[53.72289,39.10273],[53.71599,39.07766],[53.70765,39.09597],[53.70293,39.12582],[53.69749,39.13454],[53.72143,39.14383],[53.72905,39.15537],[53.72325,39.16325],[53.73159,39.17394],[53.73559,39.18659],[53.72325,39.18322],[53.70474,39.16746],[53.69785,39.16859],[53.71019,39.18378],[53.71635,39.21781],[53.72143,39.22427],[53.7149,39.23102],[53.69386,39.22792],[53.68987,39.21837],[53.66846,39.19756],[53.66265,39.188],[53.65902,39.17731],[53.65975,39.16606],[53.66955,39.15565],[53.66156,39.11624],[53.65285,39.1154],[53.6543,39.15959],[53.6416,39.16212],[53.63072,39.16915],[53.63616,39.17562],[53.62963,39.18125],[53.62128,39.18209],[53.6202,39.19081],[53.61294,39.19503],[53.62274,39.22315],[53.6416,39.23636],[53.6456,39.24254],[53.6416,39.24732],[53.59334,39.22343],[53.59734,39.23608],[53.59117,39.24282],[53.57411,39.24085],[53.56649,39.25013],[53.57012,39.26699],[53.59661,39.30883],[53.5723,39.29255],[53.55161,39.283],[53.5527,39.29283],[53.5498,39.29648],[53.54073,39.29732],[53.54472,39.30967],[53.55669,39.3209],[53.55887,39.3355],[53.54944,39.33185],[53.53964,39.31838],[53.52621,39.30883],[53.52585,39.3209],[53.55161,39.35823],[53.55161,39.36552],[53.54109,39.36272],[53.52404,39.35037],[53.50662,39.34392],[53.48557,39.32034],[53.47469,39.32427],[53.49718,39.35037],[53.48811,39.35823],[53.4736,39.3529],[53.46453,39.34139],[53.45473,39.33802],[53.46835,39.36443],[53.47981,39.37549],[53.402,39.3427],[53.40114,39.34501],[53.43043,39.35848],[53.42062,39.36244],[53.41735,39.37366],[53.42243,39.38824],[53.41808,39.39441],[53.3495,39.36777],[53.30378,39.37366],[53.2831,39.37955],[53.28194,39.38917],[53.24825,39.39574],[53.21579,39.39207],[53.20907,39.38544],[53.19057,39.37786],[53.16226,39.37394],[53.16081,39.36861],[53.16952,39.35935],[53.18149,39.35514],[53.19601,39.35963],[53.21705,39.35626],[53.21052,39.34111],[53.1873,39.31473],[53.17206,39.26895],[53.1873,39.2313],[53.18839,39.21949],[53.17895,39.2164],[53.17278,39.22961],[53.16662,39.27485],[53.16625,39.31108],[53.15718,39.34223],[53.12674,39.3977],[53.11112,39.41262],[53.09912,39.41591],[53.09695,39.42974],[53.10747,39.45271],[53.12416,39.47401],[53.15972,39.50957],[53.22141,39.58512],[53.24971,39.6332],[53.26132,39.66673],[53.2733,39.68879],[53.28818,39.6994],[53.30632,39.70247],[53.31829,39.698],[53.32591,39.68683],[53.31358,39.68041],[53.28672,39.67622],[53.27729,39.6617],[53.27112,39.6441],[53.26096,39.63292],[53.24028,39.58428],[53.22504,39.56694],[53.23229,39.54288],[53.39885,39.5633],[53.43876,39.5647],[53.45691,39.55603],[53.48049,39.53364],[53.47614,39.52329],[53.48049,39.51097],[53.45981,39.48381],[53.43804,39.46532],[53.43477,39.44263],[53.44348,39.46308],[53.45872,39.47176],[53.47324,39.48633],[53.49319,39.51461],[53.50662,39.50845],[53.50227,39.49361],[53.48884,39.48213],[53.48303,39.4698],[53.47106,39.46084],[53.46525,39.44935],[53.46888,39.44179],[53.48376,39.45019],[53.49464,39.46448],[53.52767,39.48885],[53.54218,39.49529],[53.55597,39.49501],[53.56504,39.48297],[53.57484,39.47709],[53.5879,39.48017],[53.59806,39.48829],[53.60314,39.50397],[53.59915,39.52329],[53.6035,39.53672],[53.6162,39.53644],[53.62564,39.51209],[53.64103,39.50291],[53.65954,39.50235],[53.68421,39.51299],[53.68385,39.52167],[53.67659,39.52279],[53.67224,39.53175],[53.66462,39.53119],[53.6628,39.5407],[53.68203,39.55749],[53.6853,39.5435],[53.698,39.54322],[53.71369,39.56421],[53.71752,39.57597],[53.72723,39.57198],[53.71637,39.54836],[53.72739,39.54518],[53.73649,39.54685],[53.74128,39.5669],[53.73032,39.5674],[53.73333,39.57556],[53.74477,39.5749],[53.74856,39.5855],[53.74163,39.58931],[53.73226,39.58017],[53.73041,39.57321],[53.71179,39.58043],[53.70381,39.57623],[53.69256,39.5863],[53.66825,39.57511],[53.65772,39.57791],[53.63958,39.60503],[53.65409,39.62097],[53.65482,39.63718],[53.64901,39.64891],[53.63958,39.64388],[53.63305,39.65282],[53.62761,39.65115],[53.63305,39.64109],[53.62071,39.64444],[53.61817,39.65254],[53.60728,39.66009],[53.59676,39.65254],[53.60801,39.64304],[53.60874,39.62879],[53.58842,39.64416],[53.5739,39.63494],[53.56302,39.63578],[53.56338,39.64584],[53.57463,39.65282],[53.58007,39.66093],[53.57463,39.66539],[53.57318,39.6788],[53.5681,39.68662],[53.56011,39.69081],[53.55213,39.68494],[53.54741,39.67796],[53.54923,39.66065],[53.54052,39.66735],[53.53544,39.6774],[53.52455,39.67852],[53.52274,39.68746],[53.49806,39.71984],[53.47847,39.7391],[53.46867,39.74021],[53.46758,39.73184],[53.47484,39.71928],[53.48427,39.71286],[53.48754,39.70421],[53.485,39.69918],[53.4723,39.70449],[53.46323,39.72152],[53.45597,39.7257],[53.44871,39.7218],[53.46976,39.68215],[53.45778,39.67713],[53.43529,39.71327],[53.43442,39.73854],[53.43974,39.76915],[53.44944,39.79432],[53.44654,39.80129],[53.43892,39.79516],[53.43456,39.78317],[53.42331,39.77257],[53.41606,39.77843],[53.41896,39.79878],[53.44581,39.81467],[53.47266,39.86677],[53.50169,39.88488],[53.51911,39.90325],[53.53979,39.91689],[53.57717,39.92134],[53.58733,39.93219],[53.60474,39.94277],[53.69111,39.91577],[53.76404,39.90742],[53.77343,39.89141],[53.7535,39.86175],[53.75942,39.85404],[53.75449,39.85174],[53.75319,39.8456],[53.76092,39.84331],[53.76492,39.83784],[53.75303,39.83244],[53.75191,39.82889],[53.75909,39.82392],[53.77189,39.83354],[53.77677,39.83385],[53.78028,39.82941],[53.78721,39.83055],[53.78655,39.82643],[53.77644,39.82346],[53.76208,39.81147],[53.76989,39.81403],[53.78744,39.81137],[53.79477,39.81708],[53.7945,39.82158],[53.82917,39.84503],[53.86217,39.8304],[53.92217,39.82889],[53.93495,39.8183],[53.93752,39.80956],[53.99555,39.80687],[54.11734,39.78856],[54.13888,39.79544],[54.08808,39.82397],[54.0322,39.85006],[53.99591,39.87903],[53.94801,39.88571],[53.88451,39.90019],[53.83879,39.91995],[53.78996,39.96103],[53.77063,39.96226],[53.76016,39.97128],[53.69222,39.99399],[53.65977,40.01179],[53.63206,40.02252],[53.59895,40.01942],[53.58282,40.02231],[53.55145,40.01296],[53.54124,40.00005],[53.52491,40.00061],[53.51403,40.00922],[53.50176,40.01009],[53.49407,40.002],[53.47375,40.01089],[53.46395,40.02201],[53.4273,40.03507],[53.40109,40.03507],[53.357,40.00377],[53.32897,39.99505],[53.29726,39.96077],[53.27194,39.96581],[53.22931,39.98798],[53.21516,39.99093],[53.20674,39.99712],[53.17145,40.00875],[53.16411,40.00533],[53.12799,40.00553],[53.12449,39.99821],[53.13045,39.99104],[53.11666,39.98187],[53.09579,39.98567],[53.0661,39.97902],[53.05622,39.98509],[53.06764,39.99166],[53.06641,39.99708],[53.06925,39.99854],[53.0651,40.00488],[53.03567,40.00744],[53.01575,40.00451],[53.00532,40.007],[52.98926,39.99111],[52.98148,39.98903],[52.96711,39.99186],[52.96019,39.98952],[52.9564,39.99893],[52.95086,40.00167],[52.9264,40.00595],[52.90768,39.99628],[52.90328,39.98685],[52.90736,39.98136],[52.90157,39.97192],[52.91261,39.96413],[52.91704,39.93318],[52.92509,39.90683],[52.92885,39.90435],[52.9293,39.89396],[52.93695,39.8722],[52.95401,39.86237],[52.95137,39.86012],[52.93769,39.86246],[52.92289,39.86859],[52.91376,39.87607],[52.90665,39.90473],[52.89819,39.91062],[52.89089,39.93196],[52.87422,39.9453],[52.8548,39.94805],[52.84569,39.95439],[52.83248,39.9575],[52.81971,39.98515],[52.80975,39.99622],[52.78325,40.00064],[52.7624,40.01088],[52.76767,40.0422],[52.75148,40.05356],[52.74869,40.06209],[52.73829,40.07532],[52.76077,40.12747],[52.76783,40.1607],[52.75984,40.18952],[52.75278,40.19931],[52.74219,40.20215],[52.7381,40.20896],[52.7433,40.23237],[52.7264,40.25279],[52.71674,40.2766],[52.70853,40.28471],[52.71289,40.34005],[52.72087,40.376],[52.73502,40.41607],[52.73285,40.43789],[52.73648,40.4793],[52.75099,40.52152],[52.76079,40.53696],[52.82211,40.61248],[52.8624,40.67425],[52.86662,40.69716],[52.86397,40.71008],[52.85893,40.716],[52.84946,40.7199],[52.83726,40.71206],[52.83445,40.7135],[52.83118,40.72175],[52.83227,40.7322],[52.83735,40.73495],[52.84461,40.72643],[52.84642,40.7322],[52.85332,40.73715],[52.8515,40.7487],[52.85622,40.75722],[52.86529,40.76409],[52.87654,40.78964],[52.88561,40.83908],[52.89831,40.86104],[52.91537,40.9063],[52.92807,40.9255],[52.94803,40.97318],[52.94706,40.9989],[52.92085,41.04809],[52.90825,41.0635],[52.9085,41.07325],[52.9105,41.07275],[52.91425,41.0875],[52.919,41.084],[52.91775,41.08],[52.92125,41.08],[52.92,41.0865],[52.9145,41.091],[52.91971,41.09631],[52.9285,41.07775],[52.942,41.06875],[52.9455,41.0605],[52.95075,41.056],[52.95325,41.06075],[52.95725,41.06025],[52.96025,41.05575],[52.96425,41.04125],[52.96,41.0155],[52.97925,40.9955],[52.97625,40.99175],[52.98175,40.9855],[52.99,40.985],[52.9875,40.98125],[52.99275,40.97925],[52.98675,40.977],[52.98825,40.971],[52.99425,40.9695],[53.00025,40.95625],[52.99875,40.94525],[53.0015,40.93225],[53.03725,40.83925],[53.039,40.8255],[53.042,40.82375],[53.0395,40.821],[53.039,40.7975],[53.02775,40.77775],[52.988,40.765],[52.99825,40.771],[52.99475,40.774],[53.01075,40.789],[53.014,40.79625],[53.01025,40.81725],[52.99975,40.81325],[53.005,40.81],[53.0015,40.8025],[52.99875,40.8005],[52.9915,40.8045],[52.986,40.7995],[52.98675,40.79475],[52.97375,40.784],[52.9705,40.77375],[52.975,40.75525],[52.9865,40.73575],[53.00275,40.7225],[53.0145,40.72325],[53.013,40.72025],[53.0185,40.7155],[53.0265,40.71675],[53.02775,40.714],[53.04625,40.71375],[53.05475,40.71025],[53.05625,40.71275],[53.05975,40.70975],[53.08325,40.7065],[53.11,40.709],[53.11225,40.70625],[53.12125,40.71],[53.14475,40.711],[53.14725,40.71625],[53.15425,40.71075],[53.17325,40.71525],[53.18,40.71375],[53.182,40.71675],[53.1975,40.71925],[53.20425,40.7265],[53.21325,40.72675],[53.219,40.71075],[53.22625,40.70925],[53.2395,40.7125],[53.258,40.7225],[53.26347,40.73113],[53.27532,40.72762],[53.29197,40.73386],[53.3033,40.74583],[53.30381,40.75025],[53.30862,40.75207],[53.35582,40.7574],[53.3608,40.76117],[53.36406,40.77002],[53.37196,40.76976],[53.38209,40.75987],[53.39222,40.76091],[53.3929,40.75558],[53.38964,40.75298],[53.39754,40.73985],[53.41659,40.74323],[53.42243,40.75194],[53.4329,40.74375],[53.44045,40.74726],[53.44372,40.74505],[53.4396,40.74219],[53.44354,40.73399],[53.45556,40.72905],[53.46809,40.73035],[53.47925,40.73699],[53.47908,40.74141],[53.48354,40.73894],[53.50414,40.74271],[53.52594,40.73933],[53.53864,40.74245],[53.57298,40.76143],[53.58757,40.77782],[53.58911,40.7873],[53.58465,40.80043],[53.58019,40.80472],[53.58877,40.8168],[53.58946,40.8268],[53.60971,40.85719],[53.61212,40.86771],[53.60061,40.88108],[53.60388,40.88471],[53.59993,40.8899],[53.60199,40.8912],[53.60885,40.88419],[53.63134,40.879],[53.63254,40.87589],[53.62791,40.86914],[53.63083,40.85849],[53.62774,40.8555],[53.62911,40.83564],[53.63186,40.8346],[53.6322,40.82745],[53.63872,40.82563],[53.63649,40.82356],[53.6437,40.81875],[53.63975,40.81667],[53.64387,40.80901],[53.6528,40.80264],[53.64628,40.79835],[53.64765,40.7847],[53.6619,40.75272],[53.67941,40.72918],[53.67443,40.72554],[53.67717,40.71877],[53.68438,40.7111],[53.69434,40.69027],[53.71082,40.68259],[53.70104,40.67739],[53.69383,40.65747],[53.694,40.64913],[53.70327,40.62894],[53.72112,40.61526],[53.75442,40.61695],[53.76713,40.62047],[53.76884,40.62373],[53.78515,40.62503],[53.80266,40.62386],[53.81468,40.61878],[53.83991,40.61956],[53.86085,40.62842],[53.86017,40.63415],[53.86429,40.63467],[53.87115,40.64223],[53.88918,40.64079],[53.9345,40.65213],[53.94479,40.66215],[53.95063,40.6753],[53.95544,40.6658],[53.96574,40.66293],[54.05225,40.66997],[54.07337,40.68272],[54.0871,40.69743],[54.0883,40.70667],[54.08453,40.71032],[54.05672,40.71409],[54.07663,40.71526],[54.10684,40.72463],[54.1101,40.72073],[54.10547,40.71097],[54.10753,40.70199],[54.11388,40.69366],[54.10873,40.68923],[54.10942,40.68468],[54.12744,40.67661],[54.14942,40.67309],[54.1683,40.67413],[54.2028,40.68272],[54.2258,40.67556],[54.25739,40.674],[54.40038,40.68051],[54.48656,40.69119],[54.52793,40.70368],[54.54921,40.73152],[54.5578,40.74037],[54.56192,40.73972],[54.56363,40.74505],[54.57033,40.74427],[54.582,40.73087],[54.59282,40.73321],[54.59676,40.7522],[54.6014,40.75441],[54.59522,40.75597],[54.58664,40.77275],[54.57548,40.77886],[54.41137,40.76794],[54.36588,40.75311],[54.32708,40.72801],[54.33206,40.73347],[54.33155,40.73725],[54.31232,40.73881],[54.34717,40.74973],[54.34511,40.75675],[54.34992,40.76234],[54.36674,40.77093],[54.37652,40.77197],[54.36674,40.77626],[54.36554,40.7834],[54.37223,40.79536],[54.33155,40.81693],[54.31232,40.84031],[54.31472,40.84551],[54.31249,40.84953],[54.32554,40.85252],[54.33841,40.86174],[54.33601,40.86836],[54.34339,40.87277],[54.34065,40.87498],[54.34391,40.87666],[54.34356,40.88809],[54.34837,40.89029],[54.36399,40.88575],[54.43008,40.81264],[54.45841,40.793],[54.49538,40.79195],[54.62172,40.80774],[54.63703,40.81433],[54.69922,40.85984],[54.70804,40.86959],[54.72175,40.87501],[54.74435,40.8905],[54.77169,40.92474],[54.79101,40.95979],[54.77497,40.98792],[54.77337,41.00029],[54.76593,41.012],[54.75055,41.02873],[54.73525,41.0388],[54.73315,41.04371],[54.71108,41.05356],[54.71836,41.05448],[54.71719,41.0619],[54.72564,41.06282],[54.73119,41.05907],[54.73231,41.05392],[54.77393,41.03841],[54.79297,41.02004],[54.80155,41.0258],[54.80473,41.04434],[54.79507,41.05074],[54.78308,41.05236],[54.78023,41.05918],[54.75508,41.07352],[54.75709,41.07716],[54.76334,41.07691],[54.76964,41.08203],[54.7736,41.09209],[54.75783,41.10448],[54.75312,41.11736],[54.73497,41.1374],[54.67314,41.15913],[54.6675,41.17525],[54.65725,41.18725],[54.61175,41.2035],[54.57975,41.236],[54.549,41.25275],[54.54525,41.257],[54.551,41.262],[54.55025,41.2685],[54.52025,41.29175],[54.5025,41.298],[54.481,41.31125],[54.476,41.3105],[54.45575,41.324],[54.43075,41.33075],[54.4075,41.3435],[54.3655,41.3525],[54.349,41.34875],[54.32025,41.359],[54.28775,41.3775],[54.2355,41.416],[54.221,41.4235],[54.17425,41.45675],[54.15425,41.476],[54.13825,41.48375],[54.1255,41.484],[54.1115,41.489],[54.09225,41.482],[54.088,41.48575],[54.106,41.49725],[54.0995,41.51925],[54.09675,41.51925],[54.094,41.52525],[54.08575,41.52775],[54.0865,41.532],[54.0705,41.54475],[54.07,41.5485],[54.0595,41.55275],[54.05375,41.564],[54.03175,41.58275],[54.02975,41.60775],[54.02075,41.615],[54.02275,41.636],[54.01875,41.64025],[54.02,41.65325],[54.02825,41.689],[54.02425,41.6955],[54.022,41.71075],[54.024,41.714],[54.02,41.7295],[54.01975,41.76475],[54.0125,41.782],[54.01175,41.7975],[54.007,41.8105],[53.99225,41.82875],[53.9785,41.83325],[53.97825,41.84075],[53.97,41.8555],[53.94825,41.87125],[53.94475,41.88725],[53.92125,41.90425],[53.90575,41.90725],[53.8965,41.92475],[53.90075,41.947],[53.913,41.974],[53.91425,41.99575],[53.92475,42.01175],[53.924,42.042],[53.919,42.05825],[53.91275,42.06675],[53.91275,42.07625],[53.89825,42.09525],[53.88275,42.108],[53.85025,42.1255],[53.797,42.138],[53.733,42.14025],[53.723,42.14875],[53.69675,42.15325],[53.6625,42.14525],[53.63775,42.1485],[53.58375,42.14475],[53.5655,42.1465],[53.4925,42.1345],[53.4545,42.13575],[53.416,42.1295],[53.406,42.13225],[53.386,42.1305],[53.28475,42.1],[53.263,42.0985],[53.2065,42.112],[53.18375,42.11525],[53.1655,42.114],[53.11575,42.09825],[53.0895,42.08225],[53.07075,42.06275],[52.98175,42.012],[52.93875,41.97025],[52.89125,41.90325],[52.83825,41.84175],[52.79775,41.783],[52.741,41.73925],[52.73725,41.72725],[52.7455,41.6965],[52.76525,41.67575],[52.76325,41.66525],[52.75225,41.65875],[52.74525,41.64375],[52.7255,41.6345],[52.7235,41.62225],[52.72775,41.611],[52.73325,41.61225],[52.74375,41.6025],[52.772,41.6035],[52.78525,41.60025],[52.82025,41.62025],[52.82375,41.62675],[52.8255,41.647],[52.8345,41.666],[52.84075,41.67175],[52.86375,41.67425],[52.88475,41.6675],[52.87175,41.66075],[52.86325,41.64375],[52.861,41.63475],[52.868,41.61675],[52.86575,41.598],[52.86925,41.58575],[52.8185,41.437],[52.81,41.407],[52.80525,41.375],[52.80925,41.34825],[52.82675,41.3205],[52.8395,41.29025],[52.861,41.2095],[52.877,41.12325],[52.8825,41.11375],[52.8955,41.11275],[52.9105,41.10675],[52.90875,41.08275],[52.9015,41.07275],[52.9005,41.064],[52.91523,41.05176],[52.91089,41.04436],[52.90551,41.04352],[52.89675,41.04943],[52.88649,41.06127],[52.85022,41.08727],[52.84701,41.10725],[52.84796,41.13045],[52.85545,41.14827],[52.85605,41.16036],[52.84956,41.1955],[52.82488,41.24654],[52.81908,41.29426],[52.80622,41.32387],[52.79008,41.3439],[52.77632,41.38062],[52.75774,41.40171],[52.74991,41.40678],[52.74341,41.40492],[52.73822,41.41269],[52.73243,41.4087],[52.72505,41.41488],[52.72748,41.42576],[52.71022,41.44839],[52.66776,41.47096],[52.65797,41.48129],[52.62778,41.50138],[52.58449,41.5174],[52.57588,41.52515],[52.57432,41.53101],[52.55363,41.5393],[52.58684,41.59211],[52.60209,41.64013],[52.59229,41.65477],[52.58902,41.68513],[52.57523,41.6957],[52.54693,41.70491],[52.50375,41.73741],[52.48561,41.74255],[52.47581,41.74093],[52.44605,41.76262],[52.9091,42.07758],[52.9899,42.12593],[53.14651,42.16794],[53.57582,42.29154],[54.21645,42.37928],[54.76563,42.06138],[54.89109,41.96287],[54.91507,41.93683],[54.95212,41.90631],[54.95195,41.87959],[54.9481,41.85717],[54.94998,41.83321],[54.96401,41.81022],[54.99923,41.78108],[55.06623,41.69934],[55.10871,41.6301],[55.11961,41.60465],[55.13716,41.59159],[55.17939,41.54352],[55.21143,41.51458],[55.24011,41.472],[55.2684,41.43799],[55.31511,41.38992],[55.33761,41.38031],[55.37424,41.34382],[55.38324,41.33999],[55.38758,41.34269],[55.3892,41.33652],[55.39645,41.33849],[55.39914,41.33391],[55.39403,41.32727],[55.39741,41.32052],[55.41381,41.31507],[55.41085,41.31068],[55.41338,41.30719],[55.40801,41.30463],[55.41211,41.29404],[55.41901,41.29412],[55.41549,41.29982],[55.42016,41.30123],[55.42824,41.29656],[55.42658,41.29273],[55.43273,41.28775],[55.43731,41.28785],[55.43933,41.29417],[55.4517,41.28898],[55.44556,41.28322],[55.45052,41.27995],[55.44545,41.27482],[55.44761,41.2708],[55.45951,41.26794],[55.46684,41.27304],[55.47231,41.27209],[55.47789,41.2684],[55.4808,41.26086],[55.48698,41.26156],[55.49537,41.25302],[55.52098,41.26078],[55.53482,41.25824],[55.54469,41.26255],[55.54402,41.27028],[55.5463,41.27117],[55.55357,41.26527],[55.55641,41.27833],[55.55404,41.28278],[55.54423,41.28782],[55.56046,41.28782],[55.55601,41.29556],[55.57003,41.28828],[55.5673,41.28695],[55.57384,41.28218],[55.57148,41.2768],[55.57905,41.27734],[55.58566,41.2719],[55.59282,41.27745],[55.59892,41.27359],[55.60015,41.26115],[55.59388,41.25929],[55.60278,41.25051],[55.60143,41.2464],[55.6045,41.24375],[55.60929,41.25115],[55.60469,41.26809],[55.62485,41.27564],[55.63728,41.28422],[55.64885,41.27873],[55.65883,41.28793],[55.66888,41.28637],[55.68394,41.28991],[55.70182,41.28698],[55.7032,41.28268],[55.71071,41.27985],[55.72578,41.28463],[55.72213,41.28549],[55.71771,41.29375],[55.71984,41.2952],[55.73495,41.29764],[55.73872,41.29556],[55.7431,41.30266],[55.74706,41.30273],[55.75315,41.29542],[55.76105,41.29565],[55.76901,41.28574],[55.81172,41.27834],[55.81655,41.2865],[55.81636,41.29716],[55.83204,41.30496],[55.83979,41.31392],[55.87907,41.32563],[55.98466,41.31898],[56.17864,41.31459],[56.3525,41.30183],[56.36241,41.30355],[56.47526,41.29785],[56.49649,41.29398],[56.70545,41.28587],[56.72832,41.28137],[56.77595,41.28194],[57.04237,41.24084],[57.05459,41.24933],[57.07064,41.27591],[57.07293,41.29509],[57.05959,41.31337],[57.05897,41.31973],[57.09386,41.33419],[57.11257,41.33746],[57.12373,41.33605],[57.15456,41.34294],[57.16107,41.34804],[57.16711,41.3649],[57.16252,41.37687],[57.15463,41.37831],[57.14962,41.37721],[57.14688,41.36932],[57.13341,41.35871],[57.1069,41.35914],[57.09359,41.37077],[57.09326,41.37773],[57.05634,41.41607],[57.04203,41.43739],[57.04009,41.44545],[57.04556,41.45477],[57.04458,41.46984],[57.05213,41.47922],[57.03667,41.51609],[57.03634,41.52243],[57.0418,41.52925],[57.04425,41.56263],[56.98791,41.65659],[56.97743,41.66087],[56.97966,41.6647],[56.9747,41.67411],[56.97946,41.67714],[56.97868,41.68998],[56.98261,41.70064],[56.96366,41.8305],[56.96454,41.85573],[56.96544,41.86977],[56.9858,41.89791],[57.00019,41.90958],[57.0362,41.92122],[57.06961,41.92501],[57.11175,41.9236],[57.1236,41.92708],[57.16232,41.97138],[57.28057,42.12967],[57.30425,42.14063],[57.35012,42.14886],[57.42837,42.15544],[57.5706,42.15041],[57.65333,42.13806],[57.74079,42.16745],[57.77569,42.17086],[57.83427,42.17029],[57.85017,42.17346],[57.86504,42.17158],[57.85775,42.19747],[57.84877,42.20822],[57.84046,42.21129],[57.85068,42.21479],[57.8507,42.21917],[57.84458,42.22388],[57.84674,42.22744],[57.84286,42.23624],[57.84821,42.23025],[57.85318,42.23325],[57.85573,42.23175],[57.85467,42.22795],[57.86387,42.22718],[57.8718,42.21626],[57.88275,42.21188],[57.90492,42.21541],[57.89601,42.22355],[57.89608,42.23097],[57.90094,42.23326],[57.90418,42.23121],[57.95061,42.33553],[57.95002,42.34467],[57.96187,42.35669],[57.95875,42.37147],[57.95215,42.37628],[57.95872,42.37504],[57.95953,42.38317],[57.94129,42.39764],[57.94078,42.4021],[57.93033,42.40526],[57.92465,42.41129],[57.92654,42.41421],[57.92414,42.41908],[57.90742,42.4247],[57.91354,42.4315],[57.92863,42.43625],[57.92699,42.43882],[57.94084,42.4453],[57.94965,42.43421],[57.96763,42.42705],[57.97835,42.4543],[57.97586,42.46224],[57.98432,42.46663],[57.98238,42.47539],[57.98494,42.47778],[57.97798,42.47887],[57.97805,42.4848],[57.99653,42.48193],[58.00118,42.48447],[58.00396,42.48997],[58.00138,42.49786],[58.00843,42.5008],[58.00701,42.50877],[58.01344,42.49403],[58.04193,42.5048],[58.04385,42.50621],[58.04061,42.5112],[58.05273,42.5158],[58.04936,42.52612],[58.05569,42.52788],[58.05536,42.53661],[58.05955,42.5279],[58.05689,42.52266],[58.05991,42.51341],[58.0564,42.50704],[58.10251,42.49923],[58.11976,42.49123],[58.12247,42.50222],[58.13937,42.49509],[58.14188,42.49056],[58.1387,42.4883],[58.13579,42.4749],[58.13313,42.44473],[58.1456,42.45236],[58.19334,42.46865],[58.21113,42.47138],[58.30303,42.45569],[58.32809,42.44576],[58.36247,42.42071],[58.37971,42.39908],[58.39548,42.35624],[58.39973,42.3355],[58.39522,42.28783],[58.44658,42.29569],[58.46882,42.29308],[58.51064,42.2777],[58.51502,42.29386],[58.51268,42.29748],[58.52169,42.31212],[58.51908,42.32282],[58.43338,42.36659],[58.43171,42.37085],[58.41665,42.36742],[58.40773,42.3805],[58.40585,42.39091],[58.4086,42.39129],[58.41047,42.39776],[58.40462,42.40849],[58.39386,42.41518],[58.39582,42.41794],[58.35016,42.47271],[58.33005,42.50373],[58.31312,42.54593],[58.3015,42.55816],[58.25558,42.56491],[58.16291,42.60235],[58.15528,42.60831],[58.15056,42.62869],[58.15487,42.63384],[58.15971,42.63142],[58.16034,42.63509],[58.17974,42.63509],[58.18525,42.64271],[58.20717,42.65727],[58.24439,42.67618],[58.25254,42.67644],[58.25903,42.68291],[58.27585,42.68704],[58.33602,42.68358],[58.39325,42.66896],[58.4129,42.65722],[58.43651,42.65535],[58.45486,42.64843],[58.48378,42.64418],[58.53937,42.65269],[58.56349,42.65261],[58.5906,42.64753],[58.60287,42.6639],[58.60222,42.67191],[58.60623,42.67248],[58.60148,42.67847],[58.60789,42.69698],[58.6031,42.70224],[58.60505,42.70457],[58.59284,42.71058],[58.59361,42.71975],[58.60724,42.72525],[58.62312,42.71392],[58.63016,42.71313],[58.64484,42.7189],[58.64882,42.72635],[58.64735,42.72907],[58.65086,42.73065],[58.64072,42.74151],[58.61919,42.7507],[58.62696,42.75004],[58.63089,42.75339],[58.62348,42.76135],[58.62562,42.77504],[58.62933,42.7772],[58.62283,42.79148],[58.62546,42.79826],[58.67173,42.7641],[58.67273,42.76068],[58.74703,42.71169],[58.7677,42.69183],[58.87119,42.61163],[58.90489,42.59659],[58.97301,42.55066],[59.00489,42.53507],[59.01484,42.52684],[59.05834,42.52742],[59.07725,42.5203],[59.17081,42.53159],[59.22395,42.47485],[59.22345,42.47171],[59.23814,42.46764],[59.24171,42.45582],[59.27032,42.4293],[59.26759,42.42022],[59.25846,42.41457],[59.26928,42.40218],[59.27498,42.38927],[59.30089,42.37116],[59.30448,42.36136],[59.33452,42.35403],[59.38764,42.3333],[59.41799,42.32531],[59.42016,42.30666],[59.43111,42.30051],[59.43708,42.29158],[59.51822,42.28982],[59.54817,42.29479],[59.55561,42.29254],[59.56585,42.28191],[59.5958,42.28968],[59.60823,42.2988],[59.64242,42.29037],[59.65526,42.29069],[59.69866,42.30054],[59.71884,42.30196],[59.74195,42.29696],[59.7622,42.28538],[59.79328,42.27389],[59.81653,42.28067],[59.8337,42.29717],[59.84103,42.30881],[59.8623,42.3153],[59.88998,42.31094],[59.90127,42.31809],[59.91526,42.3081],[59.91003,42.29402],[59.90751,42.29411],[59.90744,42.28019],[59.9209,42.28201],[59.92938,42.27546],[59.94195,42.27285],[59.93999,42.26794],[59.95483,42.26335],[59.95665,42.25875],[59.94774,42.25927],[59.94564,42.25676],[59.95606,42.24944],[59.95927,42.23925],[59.96365,42.23844],[59.96743,42.24498],[59.97596,42.24665],[59.98849,42.24489],[59.99823,42.23976],[59.99214,42.22388],[60.01424,42.22189],[60.01326,42.21776],[60.01881,42.21589],[60.01902,42.20379],[60.02375,42.20124],[60.02485,42.19086],[60.02796,42.18884],[60.02709,42.18337],[60.04779,42.1832],[60.04653,42.17993],[60.04981,42.17801],[60.04739,42.17265],[60.0522,42.17032],[60.03487,42.16646],[60.03126,42.15674],[60.02475,42.15984],[60.01763,42.15768],[59.98155,42.17107],[59.9857,42.1644],[59.97548,42.15054],[59.96185,42.14647],[59.96111,42.14213],[59.971,42.13352],[59.99396,42.12412],[60.00184,42.12233],[60.01055,42.12731],[60.01816,42.12133],[60.02185,42.12411],[60.03691,42.11126],[60.03452,42.10544],[60.04996,42.09747],[60.05692,42.08938],[60.05191,42.08602],[60.04674,42.07361],[60.04999,42.06379],[60.04086,42.03709],[60.04367,42.01992],[60.0326,42.00532],[60.03208,41.99631],[60.02603,41.99471],[60.02354,41.98288],[59.97451,42.00251],[59.97061,42.00813],[59.95064,42.01068],[59.94638,42.00665],[59.92967,42.00678],[59.92431,41.99226],[59.93699,41.98161],[59.94278,41.97119],[59.95165,41.96692],[59.96658,41.9433],[59.9788,41.9452],[59.9918,41.95594],[60.01437,41.96337],[60.02476,41.9609],[60.02979,41.94839],[60.02524,41.93404],[60.02718,41.92793],[60.04164,41.91544],[60.05698,41.909],[60.08946,41.90458],[60.09321,41.91146],[60.09859,41.91174],[60.12521,41.90114],[60.13216,41.89662],[60.13333,41.87962],[60.15063,41.86593],[60.15943,41.85257],[60.18532,41.83302],[60.20588,41.82586],[60.24697,41.8228],[60.25744,41.81943],[60.28817,41.796],[60.28378,41.79132],[60.29542,41.78895],[60.30892,41.78027],[60.31298,41.77223],[60.31805,41.77412],[60.32487,41.76813],[60.33148,41.76743],[60.31832,41.7506],[60.29489,41.75457],[60.29139,41.74916],[60.30099,41.74477],[60.2992,41.73693],[60.28349,41.73351],[60.27536,41.75236],[60.27744,41.75497],[60.26568,41.76065],[60.24805,41.76125],[60.24774,41.75502],[60.23716,41.75147],[60.22064,41.77458],[60.20412,41.78051],[60.20146,41.78742],[60.19132,41.7963],[60.18122,41.78744],[60.17195,41.79139],[60.16553,41.79931],[60.14966,41.79988],[60.14904,41.79669],[60.14313,41.80057],[60.14211,41.80507],[60.12652,41.80155],[60.1289,41.79734],[60.12228,41.79608],[60.10203,41.80204],[60.09933,41.80395],[60.10097,41.80664],[60.09654,41.80901],[60.08516,41.8109],[60.07894,41.79715],[60.08161,41.79291],[60.07799,41.78428],[60.07836,41.7779],[60.08405,41.77272],[60.07654,41.77267],[60.0707,41.7662],[60.06102,41.76892],[60.04392,41.75332],[60.08449,41.70011],[60.14513,41.66],[60.1782,41.61709],[60.17446,41.61357],[60.17546,41.60813],[60.17097,41.60523],[60.17517,41.60395],[60.17282,41.59239],[60.17523,41.57919],[60.16975,41.58133],[60.15265,41.57868],[60.14202,41.56892],[60.14471,41.56597],[60.13914,41.56535],[60.1407,41.56],[60.12854,41.55383],[60.1245,41.55714],[60.11909,41.55095],[60.11471,41.55276],[60.09787,41.52525],[60.08133,41.50669],[60.08871,41.49874],[60.07478,41.45808],[60.07662,41.43486],[60.0914,41.41585],[60.12361,41.40277],[60.15895,41.37642],[60.23349,41.33552],[60.32337,41.31202],[60.36204,41.29754],[60.38996,41.28091],[60.43208,41.244],[60.47381,41.21916],[60.49365,41.21458],[60.57993,41.22348],[60.68496,41.25673],[60.81723,41.25819],[60.96209,41.24638],[60.99902,41.24219],[61.0017,41.23347],[61.0248,41.22195],[61.03007,41.22228],[61.02942,41.26275],[61.03748,41.26115],[61.04225,41.26552],[61.04472,41.26476],[61.04252,41.25564],[61.05158,41.24573],[61.05392,41.25372],[61.06482,41.25415],[61.06534,41.24364],[61.08241,41.21441],[61.09039,41.22977],[61.10084,41.21176],[61.12844,41.18984],[61.24034,41.14526],[61.33012,41.14846],[61.39636,41.19649],[61.39964,41.2039],[61.39409,41.20778],[61.40655,41.21989],[61.40167,41.2544],[61.41797,41.2844],[61.43145,41.29087],[61.45903,41.29717],[61.49758,41.2813],[61.55691,41.27833],[61.56986,41.26683],[61.63772,41.25141],[61.64567,41.23434],[61.65125,41.22925],[61.72136,41.21032],[61.7286,41.1891],[61.79762,41.15569],[61.80494,41.14549],[61.80581,41.13728],[61.81548,41.13085],[61.85765,41.11952],[61.88751,41.1053],[61.89282,41.08889],[61.89213,41.07979],[61.89973,41.07246],[61.89661,41.05503],[61.93828,41.04181],[61.9493,41.01163],[61.98461,40.98171],[61.99159,40.95659],[61.99087,40.93064],[61.99629,40.91351],[61.98538,40.83606],[61.99895,40.81003],[62.01209,40.79893],[62.0353,40.76524],[62.03596,40.75369],[62.03148,40.7383],[62.03223,40.71454],[62.03515,40.70845],[62.05682,40.68303],[62.08727,40.67006],[62.09344,40.66203],[62.10194,40.6291],[62.10619,40.58716],[62.11554,40.56355],[62.13187,40.54255],[62.16159,40.52616],[62.18172,40.50842],[62.20971,40.49296],[62.21528,40.48528],[62.24439,40.48731],[62.27302,40.48081],[62.31051,40.44746],[62.33133,40.43743],[62.33894,40.42889],[62.34219,40.408],[62.33385,40.38129],[62.33828,40.36787],[62.34869,40.35339],[62.38497,40.33082],[62.39065,40.32197],[62.38337,40.26236],[62.40097,40.21981],[62.4022,40.18991],[62.41379,40.15605],[62.41242,40.1347],[62.39534,40.1089],[62.39953,40.09716],[62.41924,40.07784],[62.42446,40.06742],[62.43481,40],[62.45349,39.97453],[62.47007,39.95811],[63.482,39.38318],[63.57056,39.33467],[63.69428,39.27241],[63.70507,39.22404],[63.99817,39.0621],[64.00379,39.05608],[64.03805,39.03722],[64.10816,39.00021],[64.16708,38.9733],[64.17998,38.96418],[64.19908,38.96403],[64.30236,38.99185],[64.33065,38.99525],[64.53619,38.83923],[64.66453,38.77035],[64.71781,38.75102],[64.77315,38.71672],[64.81438,38.68505],[64.82864,38.68221],[64.85203,38.68307],[64.8756,38.67774],[64.89558,38.67062],[64.91188,38.65862],[64.92183,38.65579],[64.95001,38.63458],[64.99263,38.61233],[65.03468,38.60673],[65.15529,38.52063],[65.1713,38.50246],[65.54137,38.30035],[65.53792,38.29697],[65.53967,38.28944],[65.56183,38.28956],[65.65186,38.27303],[65.83123,38.25493],[65.83186,38.25094],[65.84036,38.25158],[65.85144,38.27565],[65.86372,38.2778],[65.87392,38.27468],[65.88324,38.27868],[65.8895,38.27651],[65.90969,38.27923],[65.91409,38.27778],[65.91614,38.27264],[65.92253,38.27393],[65.92712,38.27126],[65.93275,38.26303],[65.92979,38.26072],[65.94019,38.25703],[65.93963,38.25264],[65.94871,38.25072],[65.9564,38.23888],[65.95974,38.24198],[65.96877,38.23916],[65.96911,38.23447],[65.97501,38.23372],[65.97822,38.22743],[65.986,38.22658],[65.99002,38.23077],[66.00948,38.23298],[66.0188,38.22597],[66.02647,38.2292],[66.04602,38.21032],[66.06407,38.21183],[66.08067,38.20227],[66.07955,38.19886],[66.08822,38.19972],[66.09128,38.20337],[66.09789,38.19979],[66.10003,38.19198],[66.10503,38.18993],[66.10119,38.18707],[66.10771,38.17961],[66.11545,38.1802],[66.11293,38.17737],[66.12012,38.1753],[66.123,38.17789],[66.12511,38.17515],[66.13317,38.17489],[66.13775,38.17751],[66.166,38.16261],[66.16548,38.15598],[66.16994,38.15724],[66.17725,38.1534],[66.18524,38.15837],[66.18857,38.15618],[66.20193,38.16091],[66.20391,38.16589],[66.2121,38.15754],[66.24739,38.15596],[66.25165,38.14511],[66.25689,38.14301],[66.25242,38.13618],[66.25896,38.13393],[66.26087,38.12528],[66.27195,38.11886],[66.27141,38.10778],[66.29089,38.10106],[66.29086,38.0948],[66.30224,38.09029],[66.30671,38.08082],[66.32258,38.06668],[66.34299,38.06646],[66.34592,38.06281],[66.35214,38.06341],[66.36403,38.04939],[66.37704,38.04888],[66.39229,38.033],[66.4155,38.02762],[66.41811,38.02407],[66.43002,38.024],[66.43347,38.0267],[66.459,38.02744],[66.49495,38.04159],[66.50606,38.04152],[66.51971,38.0329],[66.53914,38.03204],[66.54596,38.02484],[66.55524,38.02115],[66.59247,38.01323],[66.59826,38.00813],[66.63841,37.99455],[66.67316,37.97452],[66.70726,37.9163],[66.70305,37.91362],[66.6808,37.91575],[66.67029,37.9118],[66.65452,37.90034],[66.64526,37.89832],[66.63435,37.8845],[66.62549,37.88274],[66.60834,37.87055],[66.59863,37.85344],[66.57764,37.83499],[66.57149,37.81803],[66.5592,37.80217],[66.56083,37.79469],[66.55137,37.78576],[66.54234,37.77001],[66.54561,37.76426],[66.54125,37.7366],[66.55052,37.69658],[66.54102,37.66428],[66.5405,37.64151],[66.52251,37.59762],[66.53135,37.58111],[66.52572,37.55821],[66.52762,37.53826],[66.53395,37.52627],[66.53397,37.51384],[66.55523,37.49739],[66.56633,37.49408],[66.58119,37.46903],[66.57383,37.45208],[66.55339,37.44162],[66.5265,37.41608],[66.50134,37.40002],[66.49168,37.38933],[66.506,37.37884],[66.5344,37.34293],[66.50275,37.33159],[66.47518,37.32888],[66.46297,37.33445],[66.43403,37.33864],[66.41612,37.34733],[66.3884,37.32859],[66.36475,37.33278],[66.35473,37.32925],[66.34406,37.33368],[66.32221,37.32229],[66.30899,37.32346],[66.26947,37.34476],[66.26217,37.34437],[66.24707,37.36359],[66.23061,37.36779],[66.22092,37.36433],[66.19359,37.3706],[66.17696,37.36703],[66.16831,37.36907],[66.16363,37.37422],[66.15485,37.39914],[66.11225,37.40431],[66.09054,37.43283],[66.07174,37.44876],[66.04192,37.45378],[65.99911,37.44619],[65.98922,37.4546],[65.98032,37.45713],[65.97638,37.46394],[65.95437,37.47262],[65.89236,37.4768],[65.85574,37.49055],[65.83828,37.48845],[65.82149,37.49788],[65.80161,37.52208],[65.76419,37.53527],[65.76766,37.54972],[65.76064,37.55076],[65.75777,37.53576],[65.7449,37.53993],[65.72638,37.54094],[65.71892,37.53719],[65.70621,37.53888],[65.70093,37.53456],[65.64632,37.44188],[65.64296,37.34292],[65.53118,37.23804],[65.26806,37.2328],[65.22852,37.25093],[65.19124,37.23621],[65.13261,37.24606],[64.99028,37.21851],[64.75575,37.11288],[64.79815,36.92289],[64.7072,36.79583],[64.61814,36.63597],[64.62233,36.60415],[64.6192,36.58295],[64.63631,36.44228],[64.58877,36.37697],[64.57996,36.35164],[64.52607,36.30451],[64.44523,36.24273],[64.42689,36.24174],[64.42577,36.23833],[64.42141,36.24056],[64.41931,36.2356],[64.41437,36.23775],[64.40452,36.231],[64.39478,36.23315],[64.38978,36.22833],[64.37982,36.23087],[64.3628,36.22954],[64.3626,36.2257],[64.34355,36.2129],[64.32801,36.2064],[64.31598,36.20836],[64.30988,36.18902],[64.30257,36.18228],[64.29877,36.1735],[64.30012,36.16961],[64.28144,36.15165],[64.26856,36.15514],[64.26651,36.16165],[64.26166,36.16251],[64.2472,36.15857],[64.2408,36.1508],[64.20937,36.16753],[64.19553,36.16552],[64.18935,36.15949],[64.17015,36.16358],[64.16077,36.16036],[64.15799,36.14689],[64.14652,36.14682],[64.1272,36.13545],[64.1175,36.12569],[64.10991,36.12303],[64.10361,36.12499],[64.09981,36.13028],[64.09322,36.12964],[64.08094,36.10983],[64.05753,36.10242],[64.0573,36.09232],[64.06038,36.08826],[64.05661,36.08192],[64.06029,36.07473],[64.05595,36.06886],[64.05987,36.0649],[64.05676,36.05773],[64.0608,36.04945],[64.05817,36.04736],[64.06091,36.04526],[64.05994,36.03485],[64.06497,36.02351],[64.07038,36.02735],[64.07196,36.02408],[64.06791,36.00605],[64.07158,36.00229],[64.06854,35.99729],[63.98923,36.0363],[63.87884,36.00771],[63.70334,35.96762],[63.57069,35.95144],[63.53538,35.90327],[63.30583,35.85795],[63.1207,35.86318],[63.1216,35.85115],[63.11249,35.84707],[63.11686,35.83392],[63.10924,35.82819],[63.1088,35.82194],[63.11324,35.82195],[63.11193,35.81689],[63.11842,35.8091],[63.12304,35.80968],[63.12776,35.80708],[63.12883,35.80159],[63.13293,35.80235],[63.13401,35.79551],[63.13119,35.79443],[63.13578,35.78806],[63.13299,35.7861],[63.13618,35.78433],[63.13978,35.78826],[63.14182,35.78533],[63.13858,35.78014],[63.14434,35.77729],[63.14246,35.77213],[63.1479,35.76966],[63.14739,35.76584],[63.15603,35.75648],[63.15952,35.75605],[63.1605,35.74999],[63.16807,35.75019],[63.16715,35.74326],[63.17456,35.73317],[63.18951,35.73206],[63.19451,35.71317],[63.2092,35.70763],[63.21194,35.71131],[63.22439,35.71172],[63.23355,35.7026],[63.2424,35.70401],[63.24937,35.69433],[63.24753,35.68982],[63.25075,35.68601],[63.24434,35.68755],[63.24334,35.6846],[63.24819,35.68094],[63.11175,35.6336],[63.11179,35.62684],[63.10627,35.62553],[63.10661,35.62185],[63.09511,35.61938],[63.09987,35.60931],[63.09785,35.60568],[63.10037,35.59321],[63.10609,35.58566],[63.1094,35.58573],[63.10927,35.5783],[63.10336,35.57348],[63.10552,35.56503],[63.10233,35.55989],[63.10729,35.5591],[63.10565,35.55103],[63.1133,35.55132],[63.11251,35.5451],[63.1239,35.54477],[63.1258,35.5471],[63.13072,35.54222],[63.12471,35.51624],[63.11222,35.51133],[63.11624,35.50319],[63.11958,35.50284],[63.11968,35.49146],[63.11512,35.4912],[63.1167,35.4765],[63.11356,35.46788],[63.1097,35.46644],[63.1084,35.44608],[63.10382,35.44131],[63.09866,35.41818],[63.08722,35.41995],[63.07587,35.41504],[63.05192,35.41221],[63.04448,35.4162],[63.02414,35.41271],[63.01724,35.41795],[63.01424,35.41611],[63.02398,35.40274],[63.02032,35.40088],[63.00715,35.4098],[63.00428,35.40569],[62.99317,35.4033],[62.96239,35.38699],[62.95412,35.38806],[62.94962,35.38327],[62.9338,35.38004],[62.93304,35.37582],[62.92454,35.36881],[62.91744,35.36953],[62.91095,35.35899],[62.90791,35.35808],[62.90564,35.36143],[62.89376,35.35837],[62.89601,35.35012],[62.89226,35.34385],[62.88599,35.34132],[62.8777,35.3472],[62.85463,35.31593],[62.84045,35.3115],[62.83238,35.30303],[62.82714,35.30301],[62.82379,35.29937],[62.80101,35.30369],[62.79834,35.30042],[62.78529,35.30075],[62.7772,35.29041],[62.76354,35.2877],[62.75064,35.2721],[62.75207,35.26746],[62.74679,35.25359],[62.73689,35.24979],[62.7246,35.25181],[62.71638,35.24232],[62.70501,35.2368],[62.69287,35.23925],[62.677,35.23151],[62.65591,35.23245],[62.6283,35.20827],[62.62311,35.21003],[62.61177,35.23537],[62.60383,35.23588],[62.59975,35.22739],[62.58433,35.22665],[62.58115,35.22158],[62.57748,35.22375],[62.57614,35.23111],[62.55017,35.23608],[62.54826,35.24186],[62.54405,35.24368],[62.54327,35.25865],[62.52617,35.26217],[62.52577,35.27272],[62.52131,35.27391],[62.51508,35.26616],[62.50522,35.26703],[62.4988,35.27607],[62.49027,35.27402],[62.47737,35.27871],[62.32588,35.145],[62.30523,35.13079],[62.29831,35.1381],[62.30133,35.14346],[62.29899,35.15007],[62.30128,35.16941],[62.29335,35.17854],[62.29212,35.18772],[62.29552,35.20861],[62.29114,35.2148],[62.29418,35.22249],[62.29103,35.22882],[62.29447,35.23172],[62.29311,35.23847],[62.28905,35.24109],[62.29105,35.25622],[62.27542,35.26822],[62.27268,35.27793],[62.27506,35.28359],[62.26669,35.28802],[62.26606,35.29523],[62.15372,35.3409],[62.10668,35.38275],[62.06428,35.43442],[61.96851,35.45449],[61.77986,35.41116],[61.58849,35.43638],[61.45243,35.51907],[61.44516,35.53253],[61.43428,35.53911],[61.42532,35.53863],[61.40945,35.55451],[61.40276,35.55398],[61.3867,35.56689],[61.38897,35.57394],[61.39855,35.57758],[61.40098,35.58344],[61.39865,35.58726],[61.39449,35.58308],[61.39337,35.59156],[61.37599,35.59041],[61.36848,35.61264],[61.37531,35.62073],[61.37354,35.62342],[61.36646,35.62526],[61.31192,35.61991],[61.28687,35.61448],[61.28276,35.60818],[61.27413,35.60515],[61.27019,35.6151],[61.24734,35.6264],[61.25114,35.63655],[61.24655,35.64527],[61.22594,35.65147],[61.22927,35.65599],[61.22186,35.66248],[61.2196,35.6684],[61.22418,35.67265],[61.2167,35.67645],[61.21619,35.68422],[61.22427,35.69767],[61.2289,35.69715],[61.23157,35.70223],[61.23849,35.70529],[61.24186,35.71871],[61.2504,35.72471],[61.24185,35.74131],[61.25576,35.75825],[61.24678,35.76575],[61.25175,35.77523],[61.24846,35.77876],[61.24828,35.78586],[61.25791,35.7979],[61.26768,35.79871],[61.25525,35.81099],[61.255,35.81396],[61.26316,35.81925],[61.2572,35.8286],[61.2608,35.83614],[61.25718,35.84676],[61.24755,35.85355],[61.23728,35.87221],[61.23608,35.87919],[61.2448,35.88846],[61.23886,35.89142],[61.2304,35.88758],[61.22641,35.88889],[61.23385,35.89971],[61.23328,35.91153],[61.22383,35.91479],[61.21039,35.9309],[61.19425,35.93653],[61.19259,35.94176],[61.16197,35.95098],[61.15464,35.94711],[61.14037,35.94906],[61.13014,35.95811],[61.1261,35.95929],[61.12281,35.95553],[61.11766,35.95984],[61.12204,35.96779],[61.12941,35.96697],[61.13976,35.97387],[61.14673,35.98335],[61.16894,35.99026],[61.17102,35.99467],[61.16556,36.00234],[61.1659,36.00766],[61.17345,36.00976],[61.17326,36.0146],[61.16419,36.02502],[61.16416,36.03551],[61.18018,36.04345],[61.18414,36.05326],[61.18319,36.06714],[61.1927,36.0735],[61.1972,36.08395],[61.20737,36.09215],[61.20563,36.10029],[61.20895,36.10587],[61.21499,36.11044],[61.22662,36.11089],[61.23073,36.11681],[61.22845,36.12198],[61.22026,36.12048],[61.21059,36.12782],[61.21524,36.13539],[61.22421,36.13876],[61.2249,36.14178],[61.21554,36.14954],[61.22665,36.1648],[61.22101,36.1831],[61.20714,36.19559],[61.20182,36.20685],[61.20155,36.21745],[61.19209,36.22731],[61.18799,36.2544],[61.19147,36.26556],[61.17952,36.27581],[61.1795,36.27973],[61.1736,36.28299],[61.16966,36.2914],[61.15631,36.29692],[61.16153,36.30456],[61.16058,36.31169],[61.1496,36.31662],[61.15513,36.32169],[61.1612,36.3207],[61.1604,36.33073],[61.14828,36.3381],[61.15056,36.35031],[61.15591,36.3548],[61.15593,36.36305],[61.15467,36.37117],[61.14779,36.37549],[61.14042,36.3939],[61.16594,36.41299],[61.16732,36.41825],[61.16175,36.43207],[61.16469,36.43811],[61.15864,36.45375],[61.17193,36.45823],[61.17479,36.46299],[61.16728,36.48079],[61.1569,36.48625],[61.16182,36.50218],[61.1569,36.50745],[61.16305,36.5106],[61.16729,36.51948],[61.18266,36.52615],[61.17597,36.53626],[61.18491,36.5472],[61.18181,36.55611],[61.18571,36.56595],[61.17936,36.57564],[61.17746,36.59032],[61.17093,36.59785],[61.17393,36.6048],[61.16965,36.60569],[61.16505,36.61485],[61.15422,36.61863],[61.15143,36.62926],[61.1468,36.63177],[61.14352,36.64012],[61.14451,36.6445],[60.68228,36.62232],[60.58037,36.6288],[60.49417,36.62583],[60.34574,36.62928],[60.34431,36.64276],[60.3404,36.64202],[60.33382,36.64711],[60.30598,36.68083],[60.28361,36.72322],[60.26884,36.74205],[60.26636,36.75743],[60.26256,36.76293],[60.21768,36.80023],[60.20981,36.81391],[60.21286,36.82294],[60.20667,36.82202],[60.18863,36.83152],[60.16633,36.84948],[60.15798,36.86556],[60.1353,36.89163],[60.13268,36.89949],[60.11204,36.91607],[60.09555,36.93529],[60.09132,36.94687],[60.08986,36.96984],[60.08396,36.97889],[60.04298,37.02175],[60.00664,37.04102],[59.99217,37.04519],[59.98028,37.04703],[59.96839,37.04373],[59.92767,37.04244],[59.90738,37.05165],[59.89889,37.05196],[59.89344,37.05888],[59.87841,37.06786],[59.87098,37.06742],[59.85521,37.08088],[59.84414,37.09544],[59.83174,37.10025],[59.82845,37.09736],[59.81904,37.10509],[59.81199,37.10431],[59.80281,37.11136],[59.79999,37.10931],[59.76925,37.12617],[59.76294,37.12665],[59.75863,37.12288],[59.75514,37.10934],[59.74703,37.1081],[59.73035,37.11661],[59.72633,37.12687],[59.68024,37.14101],[59.66201,37.1433],[59.65327,37.14266],[59.64401,37.12432],[59.64446,37.11971],[59.62645,37.11865],[59.62374,37.12257],[59.61699,37.1203],[59.61582,37.12417],[59.59929,37.13242],[59.55716,37.13152],[59.55086,37.13784],[59.54388,37.15886],[59.54921,37.17193],[59.55276,37.17237],[59.55185,37.17738],[59.54324,37.17755],[59.53833,37.1805],[59.53781,37.18546],[59.52836,37.18494],[59.49136,37.20783],[59.47571,37.21412],[59.47411,37.21832],[59.48253,37.21906],[59.49157,37.22973],[59.48318,37.2486],[59.47155,37.25243],[59.4642,37.26625],[59.45049,37.27167],[59.45211,37.27893],[59.43686,37.28464],[59.43261,37.29264],[59.43535,37.3037],[59.43215,37.30775],[59.41326,37.30669],[59.39884,37.31596],[59.39956,37.32416],[59.39252,37.33217],[59.38813,37.37364],[59.37781,37.40776],[59.38272,37.4209],[59.41128,37.43572],[59.39574,37.44874],[59.38762,37.44541],[59.38143,37.44978],[59.3923,37.47902],[59.38442,37.49214],[59.36118,37.51164],[59.35362,37.5285],[59.31952,37.5301],[59.27719,37.50864],[59.26359,37.51013],[59.25972,37.51463],[59.23888,37.52057],[59.22939,37.5122],[59.21785,37.51693],[59.19986,37.53224],[59.19037,37.53618],[59.18494,37.54318],[59.17222,37.54429],[59.15895,37.55281],[59.15752,37.56145],[59.14741,37.56135],[59.1302,37.567],[59.12553,37.5752],[59.11359,37.58371],[59.10915,37.58612],[59.10588,37.58308],[59.10241,37.58825],[59.09635,37.5875],[59.09047,37.59857],[59.08272,37.59809],[59.05167,37.62008],[59.04712,37.61762],[59.02686,37.62144],[58.9771,37.63755],[58.93931,37.65375],[58.88691,37.65945],[58.83961,37.6894],[58.82002,37.69816],[58.80568,37.69713],[58.8176,37.68251],[58.81752,37.67715],[58.80742,37.66778],[58.80413,37.65185],[58.79323,37.64237],[58.78932,37.64099],[58.78412,37.6442],[58.78671,37.6471],[58.75586,37.65988],[58.74883,37.65652],[58.74253,37.64808],[58.74085,37.6313],[58.67784,37.64066],[58.62514,37.66034],[58.61942,37.66397],[58.60406,37.6867],[58.5564,37.70526],[58.53966,37.69819],[58.52084,37.67874],[58.51756,37.6789],[58.51171,37.65641],[58.50732,37.6516],[58.49398,37.65038],[58.48606,37.63759],[58.47328,37.63721],[58.46857,37.63425],[58.45459,37.6365],[58.44019,37.63249],[58.41773,37.63707],[58.40801,37.63005],[58.38846,37.62704],[58.38216,37.63075],[58.38025,37.63655],[58.3682,37.63632],[58.36498,37.63918],[58.36766,37.64769],[58.36418,37.65616],[58.33275,37.6633],[58.32941,37.66797],[58.31321,37.66247],[58.28795,37.6642],[58.27283,37.67164],[58.2652,37.66969],[58.22275,37.68228],[58.21663,37.6803],[58.2121,37.68538],[58.2251,37.69141],[58.22822,37.70235],[58.2382,37.71477],[58.23323,37.71862],[58.23022,37.71645],[58.22655,37.71831],[58.22784,37.72986],[58.22435,37.73777],[58.21409,37.74549],[58.21033,37.76572],[58.20055,37.77618],[58.1847,37.77856],[58.16755,37.78756],[58.15565,37.78886],[58.15431,37.79266],[58.15078,37.79285],[58.14119,37.78333],[58.13311,37.78692],[58.12566,37.78468],[58.12093,37.79581],[58.10975,37.79355],[58.10209,37.78789],[58.09582,37.79843],[58.08988,37.7969],[58.0811,37.8052],[58.0449,37.80325],[58.02745,37.80609],[58.02326,37.80894],[58.02336,37.81268],[58.01778,37.81142],[58.01392,37.81782],[58.0092,37.81656],[58.0025,37.81984],[57.96629,37.84312],[57.96081,37.84478],[57.953,37.84169],[57.94868,37.84963],[57.93655,37.84814],[57.93051,37.85262],[57.92256,37.85278],[57.91639,37.86294],[57.89356,37.86241],[57.89372,37.87178],[57.85988,37.87431],[57.82764,37.8638],[57.80655,37.87821],[57.80575,37.8922],[57.79945,37.89287],[57.79529,37.90041],[57.75358,37.89904],[57.74456,37.9074],[57.74293,37.91753],[57.71217,37.92462],[57.69352,37.91987]]],[[[54.31663,40.97724],[54.31225,40.97711],[54.31115,40.98387],[54.31444,40.98971],[54.31663,40.97724]]],[[[54.22191,40.73042],[54.23581,40.72634],[54.2194,40.72348],[54.22077,40.72903],[54.21405,40.72981],[54.20289,40.72565],[54.19138,40.71568],[54.19218,40.70173],[54.17896,40.69991],[54.16996,40.69028],[54.16734,40.69297],[54.1727,40.70008],[54.17498,40.71135],[54.13442,40.72158],[54.16233,40.72175],[54.17965,40.72808],[54.22191,40.73042]]],[[[53.46411,39.98344],[53.47132,39.98291],[53.48179,39.97686],[53.48247,39.97962],[53.49037,39.98041],[53.49209,39.9787],[53.48659,39.97712],[53.49277,39.97278],[53.4775,39.9687],[53.44677,39.98186],[53.46411,39.98344]]],[[[53.1161,39.69406],[53.10333,39.69648],[53.08901,39.7121],[53.0892,39.71653],[53.1161,39.69406]]],[[[53.09399,39.10773],[53.1032,39.10517],[53.09375,39.09725],[53.094,39.10375],[53.0895,39.10675],[53.06975,39.099],[53.05925,39.08575],[53.05675,39.0745],[53.054,39.034],[53.05675,38.92925],[53.073,38.80175],[53.05997,38.81556],[53.05872,38.81256],[53.07072,38.79631],[53.06497,38.79931],[53.05672,38.81256],[53.05425,38.82675],[53.0595,38.846],[53.0575,38.865],[53.03475,38.89775],[53.03275,38.91525],[53.03725,38.94725],[53.04048,39.0161],[53.03575,39.04225],[53.04475,39.077],[53.06175,39.1015],[53.07221,39.10568],[53.09399,39.10773]]],[[[52.98002,39.84273],[52.98427,39.8422],[52.99231,39.83507],[52.99324,39.82991],[53.00026,39.82591],[52.99234,39.81988],[52.99412,39.81688],[53.019,39.80498],[53.03379,39.7923],[53.03406,39.78988],[53.02898,39.78837],[53.01706,39.79627],[53.01096,39.79471],[53.01551,39.79082],[53.0133,39.78461],[53.01985,39.77644],[53.0323,39.76851],[53.06085,39.76092],[53.07065,39.75007],[53.04582,39.75519],[53.03653,39.76465],[53.02132,39.76848],[53.00549,39.7802],[52.99593,39.79209],[52.98218,39.82465],[52.97043,39.83303],[52.95626,39.85797],[52.98002,39.84273]]]]}}]}