{"type":"FeatureCollection","features":[{"type":"Feature","properties":{"ISO_A3":"TLS","WB_A3":"TMP","WB_NAME":"Timor-Leste","WB_REGION":"EAS"},"geometry":{"type":"MultiPolygon","coordinates":[[[[127.32937,-8.44809],[127.32032,-8.44599],[127.30936,-8.43654],[127.3088,-8.4167],[127.31607,-8.41222],[127.33106,-8.41589],[127.34071,-8.42895],[127.34079,-8.44132],[127.32937,-8.44809]]],[[[125.70063,-9.19406],[125.68416,-9.20084],[125.67354,-9.2017],[125.65642,-9.20002],[125.62366,-9.18661],[125.60137,-9.18626],[125.58405,-9.19205],[125.54563,-9.21936],[125.5148,-9.22164],[125.49877,-9.22742],[125.45436,-9.25296],[125.43197,-9.2607],[125.43352,-9.25313],[125.42719,-9.26165],[125.42613,-9.25792],[125.41731,-9.25759],[125.41371,-9.26071],[125.38549,-9.26657],[125.36405,-9.27881],[125.34601,-9.29567],[125.30378,-9.32081],[125.27818,-9.35278],[125.26855,-9.34692],[125.25489,-9.36066],[125.24953,-9.37357],[125.23636,-9.38216],[125.20853,-9.41118],[125.19243,-9.40896],[125.15615,-9.4146],[125.13647,-9.42116],[125.11321,-9.43547],[125.0876,-9.46001],[125.08644,-9.45013],[125.07867,-9.44245],[125.08081,-9.4389],[125.07868,-9.43466],[125.0814,-9.43249],[125.07821,-9.42618],[125.08103,-9.42135],[125.07859,-9.41584],[125.08126,-9.41375],[125.07688,-9.40289],[125.07936,-9.39007],[125.05003,-9.35806],[125.0523,-9.33146],[125.04907,-9.32537],[125.04242,-9.32131],[125.03734,-9.32376],[125.02948,-9.32012],[125.00607,-9.29451],[124.99525,-9.29115],[124.99809,-9.28078],[124.99422,-9.27218],[124.99582,-9.26156],[124.98671,-9.25391],[124.98195,-9.23939],[124.9829,-9.19111],[125.00556,-9.18243],[125.01389,-9.16946],[125.03245,-9.16991],[125.03543,-9.17393],[125.04148,-9.17464],[125.05253,-9.16883],[125.0749,-9.17563],[125.08125,-9.1885],[125.09701,-9.20181],[125.11704,-9.18619],[125.13165,-9.17932],[125.13329,-9.17529],[125.14815,-9.17085],[125.17521,-9.17436],[125.18529,-9.16014],[125.19332,-9.15621],[125.18519,-9.14562],[125.17984,-9.14553],[125.17598,-9.14145],[125.17124,-9.12102],[125.17323,-9.11779],[125.17911,-9.11866],[125.17908,-9.11222],[125.17343,-9.10532],[125.17659,-9.10436],[125.17912,-9.08719],[125.18797,-9.07286],[125.18387,-9.06244],[125.18874,-9.05709],[125.1883,-9.04247],[125.18423,-9.03592],[125.18543,-9.02642],[125.14791,-8.99618],[125.13447,-8.994],[125.12649,-8.97959],[125.11268,-8.96774],[125.10261,-8.97472],[125.0996,-8.98114],[125.10335,-8.98504],[125.09992,-8.98793],[125.10037,-8.99687],[125.08711,-9.0128],[125.06893,-9.02732],[125.05828,-9.0269],[125.05268,-9.03159],[125.04266,-9.03192],[125.03071,-9.0381],[125.03066,-9.04312],[125.02021,-9.04386],[125.02124,-9.04991],[125.01111,-9.05009],[125.00354,-9.06343],[124.99191,-9.06419],[124.98798,-9.06066],[124.98393,-9.06624],[124.9761,-9.06374],[124.96849,-9.05629],[124.95834,-9.05857],[124.95393,-9.05629],[124.95254,-9.04856],[124.9474,-9.05217],[124.94025,-9.04718],[124.94165,-9.03893],[124.93189,-9.0282],[124.93289,-9.0185],[124.93761,-9.01352],[124.93817,-9.00397],[124.93419,-8.99484],[124.94116,-8.98405],[124.94118,-8.97892],[124.95169,-8.96756],[124.95249,-8.96016],[124.94925,-8.95823],[124.95669,-8.95059],[124.97014,-8.94679],[124.97762,-8.94095],[124.98093,-8.93037],[124.98764,-8.92441],[124.99477,-8.90273],[125.00095,-8.89419],[125.00673,-8.86273],[125.04022,-8.82932],[125.05473,-8.82988],[125.06921,-8.82555],[125.09638,-8.79783],[125.0976,-8.78392],[125.09137,-8.73495],[125.09625,-8.72905],[125.10107,-8.71073],[125.09851,-8.69194],[125.12333,-8.64015],[125.13884,-8.63646],[125.17317,-8.619],[125.21063,-8.60642],[125.29783,-8.60231],[125.3076,-8.5913],[125.32598,-8.5917],[125.33292,-8.58419],[125.34353,-8.584],[125.37091,-8.57598],[125.39232,-8.56464],[125.41792,-8.56203],[125.45111,-8.5729],[125.46402,-8.56857],[125.47179,-8.56942],[125.47285,-8.57379],[125.48037,-8.57516],[125.48716,-8.56546],[125.48309,-8.5566],[125.50587,-8.558],[125.53343,-8.53786],[125.55626,-8.54749],[125.5692,-8.54857],[125.57467,-8.55432],[125.58499,-8.54885],[125.60902,-8.54534],[125.61528,-8.53268],[125.61021,-8.52962],[125.60885,-8.51946],[125.6218,-8.52156],[125.62364,-8.5267],[125.64022,-8.52955],[125.64743,-8.52538],[125.66697,-8.52537],[125.68166,-8.53583],[125.68891,-8.53745],[125.70855,-8.5341],[125.70837,-8.52766],[125.71827,-8.51935],[125.72039,-8.52655],[125.72662,-8.52972],[125.73486,-8.52348],[125.74651,-8.52469],[125.75705,-8.51624],[125.76763,-8.51269],[125.77747,-8.51352],[125.79578,-8.50554],[125.80741,-8.5052],[125.82282,-8.49015],[125.83238,-8.48905],[125.85128,-8.47491],[125.89107,-8.47793],[125.90273,-8.47545],[125.9257,-8.48052],[125.9399,-8.47694],[125.94821,-8.47851],[125.95901,-8.48593],[125.97477,-8.4885],[125.97893,-8.48506],[125.98744,-8.48834],[126.0013,-8.50158],[126.00983,-8.50293],[126.01855,-8.5115],[126.04079,-8.51179],[126.05188,-8.51651],[126.06432,-8.51326],[126.06778,-8.51676],[126.06631,-8.52345],[126.07173,-8.52503],[126.06995,-8.52038],[126.07307,-8.51835],[126.09349,-8.51953],[126.10572,-8.50971],[126.11296,-8.50989],[126.12724,-8.50369],[126.13548,-8.50787],[126.14536,-8.50125],[126.15545,-8.50081],[126.16107,-8.4957],[126.1818,-8.50512],[126.1893,-8.50492],[126.20437,-8.4955],[126.23588,-8.50267],[126.25462,-8.48607],[126.28078,-8.47994],[126.30811,-8.45606],[126.33905,-8.45073],[126.34885,-8.43612],[126.35978,-8.42679],[126.37196,-8.42301],[126.38072,-8.42861],[126.41546,-8.41506],[126.43791,-8.42293],[126.45541,-8.43734],[126.5073,-8.45248],[126.55394,-8.48162],[126.56713,-8.48287],[126.58144,-8.4702],[126.59812,-8.47018],[126.61774,-8.456],[126.63769,-8.45097],[126.65873,-8.4377],[126.70747,-8.41945],[126.73033,-8.40284],[126.73602,-8.40325],[126.74321,-8.41257],[126.75584,-8.42024],[126.76696,-8.42236],[126.78587,-8.41784],[126.80042,-8.40607],[126.8087,-8.4065],[126.82814,-8.39991],[126.87226,-8.374],[126.8865,-8.37099],[126.9057,-8.3604],[126.93298,-8.33851],[126.96176,-8.32655],[127.0011,-8.32212],[127.02507,-8.3395],[127.03542,-8.33929],[127.04678,-8.34373],[127.06298,-8.36378],[127.11551,-8.36838],[127.14474,-8.36223],[127.17928,-8.33457],[127.1966,-8.33632],[127.20842,-8.35441],[127.22928,-8.37641],[127.25615,-8.38516],[127.29184,-8.38918],[127.29726,-8.39294],[127.30072,-8.43109],[127.27661,-8.44039],[127.2692,-8.44796],[127.26462,-8.4598],[127.24695,-8.4735],[127.22893,-8.48051],[127.19601,-8.51926],[127.17135,-8.53409],[127.16563,-8.54089],[127.15604,-8.54304],[127.15551,-8.54613],[127.1315,-8.55915],[127.12941,-8.56352],[127.10954,-8.5767],[127.09626,-8.59196],[127.08769,-8.59694],[127.05017,-8.64455],[127.03276,-8.65824],[127.01671,-8.68148],[127.01035,-8.68492],[126.97646,-8.67933],[126.95521,-8.68334],[126.93028,-8.69635],[126.9157,-8.71095],[126.90612,-8.71116],[126.89262,-8.7183],[126.86035,-8.74671],[126.82168,-8.7604],[126.80126,-8.75462],[126.78288,-8.75361],[126.7767,-8.74803],[126.7591,-8.74793],[126.7365,-8.75964],[126.72823,-8.7565],[126.70932,-8.75742],[126.67017,-8.76645],[126.63874,-8.78287],[126.61686,-8.8027],[126.59539,-8.79947],[126.58813,-8.80122],[126.5743,-8.81788],[126.56311,-8.82515],[126.54275,-8.85025],[126.50808,-8.90334],[126.49584,-8.93184],[126.47864,-8.94705],[126.45452,-8.95178],[126.44911,-8.94762],[126.42165,-8.94936],[126.41312,-8.94634],[126.35914,-8.96115],[126.30356,-8.98238],[126.28387,-8.98353],[126.28142,-8.98106],[126.20339,-8.97391],[126.18394,-8.97789],[126.13171,-8.99988],[126.11193,-9.0126],[126.08625,-9.03313],[126.06331,-9.05864],[126.0309,-9.07246],[125.98942,-9.10713],[125.94284,-9.133],[125.90863,-9.13438],[125.87038,-9.12518],[125.85252,-9.12399],[125.83092,-9.13513],[125.82396,-9.14627],[125.81705,-9.15097],[125.80803,-9.146],[125.79041,-9.14674],[125.78,-9.15296],[125.77144,-9.15352],[125.76672,-9.16043],[125.75683,-9.16536],[125.72937,-9.16614],[125.70063,-9.19406]]],[[[125.55088,-8.21941],[125.56277,-8.19899],[125.58653,-8.17515],[125.59303,-8.16107],[125.60576,-8.15184],[125.62024,-8.13218],[125.63597,-8.12744],[125.64085,-8.1426],[125.64053,-8.17274],[125.63477,-8.18076],[125.63254,-8.19506],[125.61738,-8.2092],[125.60984,-8.22238],[125.60732,-8.23219],[125.60904,-8.25767],[125.59863,-8.28684],[125.5871,-8.30314],[125.57537,-8.30785],[125.56126,-8.30563],[125.55462,-8.29768],[125.52901,-8.29656],[125.50639,-8.27584],[125.50154,-8.26583],[125.50472,-8.25782],[125.51913,-8.24743],[125.52444,-8.22834],[125.52855,-8.2238],[125.55088,-8.21941]]],[[[124.09613,-9.40552],[124.08893,-9.39329],[124.08239,-9.3915],[124.07245,-9.37921],[124.05638,-9.35124],[124.04985,-9.35084],[124.04947,-9.34647],[124.04344,-9.3438],[124.04353,-9.33614],[124.0585,-9.33597],[124.07378,-9.32497],[124.07729,-9.32844],[124.09765,-9.32373],[124.11084,-9.31068],[124.12847,-9.30727],[124.13856,-9.29693],[124.15568,-9.2961],[124.17353,-9.27916],[124.18537,-9.25077],[124.2048,-9.24414],[124.21414,-9.24488],[124.22242,-9.23789],[124.25406,-9.23701],[124.26207,-9.22629],[124.30119,-9.21249],[124.30919,-9.20357],[124.30634,-9.2028],[124.3084,-9.19996],[124.33796,-9.19625],[124.36987,-9.1987],[124.38567,-9.19297],[124.39187,-9.18754],[124.39784,-9.18855],[124.4123,-9.17328],[124.42655,-9.16782],[124.44936,-9.16721],[124.47792,-9.17564],[124.47926,-9.19547],[124.48287,-9.19764],[124.4684,-9.20839],[124.46737,-9.23901],[124.45455,-9.26581],[124.45538,-9.28364],[124.46275,-9.29916],[124.45418,-9.30813],[124.44654,-9.30638],[124.4399,-9.31478],[124.4385,-9.33373],[124.42604,-9.3319],[124.42193,-9.33605],[124.4035,-9.34003],[124.4021,-9.35037],[124.39645,-9.35579],[124.38797,-9.36064],[124.38188,-9.35667],[124.37885,-9.36086],[124.37827,-9.37057],[124.37454,-9.3762],[124.38145,-9.38787],[124.38036,-9.39664],[124.36547,-9.40208],[124.37041,-9.40654],[124.36919,-9.41334],[124.36164,-9.42037],[124.35466,-9.41997],[124.34944,-9.42502],[124.34867,-9.43595],[124.3524,-9.44169],[124.36302,-9.44735],[124.36489,-9.45979],[124.35673,-9.46387],[124.35379,-9.48263],[124.34966,-9.4856],[124.34199,-9.48292],[124.31607,-9.49575],[124.30394,-9.49474],[124.29666,-9.5027],[124.27815,-9.50303],[124.27913,-9.49106],[124.28809,-9.47277],[124.28361,-9.45826],[124.2869,-9.45122],[124.27414,-9.43383],[124.27666,-9.43123],[124.27404,-9.42002],[124.26309,-9.40419],[124.26241,-9.39789],[124.23897,-9.38171],[124.2354,-9.37494],[124.23082,-9.37598],[124.21657,-9.36565],[124.21101,-9.37035],[124.20609,-9.36963],[124.20405,-9.37697],[124.19255,-9.37759],[124.1856,-9.38734],[124.16773,-9.39415],[124.17203,-9.40036],[124.16131,-9.41186],[124.16315,-9.41912],[124.14987,-9.42151],[124.14934,-9.42727],[124.14411,-9.424],[124.13562,-9.4262],[124.12601,-9.41628],[124.12426,-9.41013],[124.11792,-9.40732],[124.11586,-9.40989],[124.11288,-9.40666],[124.11058,-9.41019],[124.10044,-9.4102],[124.09613,-9.40552]]]]}}]}