{"type":"FeatureCollection","features":[{"type":"Feature","properties":{"ISO_A3":"TON","WB_A3":"TON","WB_NAME":"Tonga","WB_REGION":"EAS"},"geometry":{"type":"MultiPolygon","coordinates":[[[[-173.75315,-15.85614],[-173.7547,-15.84247],[-173.75105,-15.83827],[-173.74079,-15.84625],[-173.73654,-15.85686],[-173.74819,-15.86251],[-173.75315,-15.85614]]],[[[-173.78204,-15.9456],[-173.76633,-15.94451],[-173.75282,-15.92937],[-173.747,-15.94141],[-173.75112,-15.95089],[-173.77422,-15.97633],[-173.78361,-15.982],[-173.79523,-15.9758],[-173.8025,-15.96335],[-173.79861,-15.96031],[-173.79699,-15.94952],[-173.78204,-15.9456]]],[[[-173.80692,-15.95531],[-173.80657,-15.9494],[-173.79777,-15.94823],[-173.80258,-15.95897],[-173.80692,-15.95531]]],[[[-174.00292,-18.5949],[-174.00194,-18.57767],[-173.97868,-18.56672],[-173.97272,-18.56527],[-173.96156,-18.57484],[-173.9551,-18.5761],[-173.95288,-18.57266],[-173.94591,-18.57521],[-173.94505,-18.57188],[-173.93862,-18.57456],[-173.93343,-18.57103],[-173.93029,-18.577],[-173.92268,-18.58149],[-173.92761,-18.59351],[-173.92661,-18.59816],[-173.91987,-18.59878],[-173.91844,-18.60189],[-173.92332,-18.61133],[-173.90508,-18.61753],[-173.90191,-18.62942],[-173.90362,-18.63505],[-173.90571,-18.63875],[-173.9173,-18.63793],[-173.92377,-18.62149],[-173.93301,-18.60938],[-173.93845,-18.61187],[-173.93555,-18.61577],[-173.93667,-18.63428],[-173.94074,-18.63551],[-173.95789,-18.62609],[-173.95719,-18.63448],[-173.95356,-18.6353],[-173.95121,-18.63225],[-173.9495,-18.6346],[-173.95142,-18.64396],[-173.94782,-18.64646],[-173.95009,-18.65071],[-173.94454,-18.65217],[-173.94458,-18.65474],[-173.95163,-18.65643],[-173.95309,-18.64728],[-173.95658,-18.64606],[-173.96218,-18.64958],[-173.96057,-18.65809],[-173.96359,-18.66885],[-173.96778,-18.66917],[-173.96482,-18.65442],[-173.97519,-18.65165],[-173.97758,-18.65381],[-173.97437,-18.67563],[-173.98134,-18.68041],[-173.9855,-18.67906],[-173.98707,-18.67646],[-173.98082,-18.66626],[-173.98298,-18.6532],[-173.9944,-18.64765],[-174.00256,-18.65151],[-174.00435,-18.64582],[-173.98319,-18.63985],[-173.97357,-18.62959],[-173.9744,-18.62288],[-173.97138,-18.6201],[-173.97647,-18.61024],[-173.99044,-18.6068],[-174.00596,-18.6181],[-174.00417,-18.62091],[-173.9941,-18.61511],[-173.9852,-18.61576],[-173.97772,-18.62],[-173.97869,-18.62899],[-173.99617,-18.6408],[-173.99989,-18.6374],[-174.00481,-18.64118],[-174.01116,-18.63375],[-174.02487,-18.63829],[-174.02678,-18.64775],[-174.02454,-18.65038],[-174.02744,-18.6542],[-174.02065,-18.65216],[-174.0175,-18.65667],[-174.02865,-18.66113],[-174.03719,-18.67076],[-174.05395,-18.67216],[-174.05672,-18.67037],[-174.05773,-18.64959],[-174.06649,-18.64906],[-174.06345,-18.64512],[-174.06775,-18.63656],[-174.06442,-18.62375],[-174.03792,-18.62071],[-174.0361,-18.62498],[-174.03126,-18.62596],[-174.02101,-18.61828],[-174.01445,-18.60629],[-174.00875,-18.60407],[-174.00292,-18.5949]]],[[[-173.92165,-18.63941],[-173.90979,-18.64834],[-173.91132,-18.65127],[-173.91475,-18.64646],[-173.92612,-18.64834],[-173.92538,-18.65247],[-173.93062,-18.65268],[-173.93503,-18.64846],[-173.936,-18.64201],[-173.92602,-18.64243],[-173.92165,-18.63941]]],[[[-173.92387,-18.69058],[-173.92309,-18.67618],[-173.91953,-18.68138],[-173.92387,-18.69058]]],[[[-173.9219,-18.67028],[-173.92428,-18.66741],[-173.92141,-18.66514],[-173.9219,-18.67028]]],[[[-173.92598,-18.70302],[-173.92681,-18.69645],[-173.92229,-18.69292],[-173.92598,-18.70302]]],[[[-173.95081,-18.68719],[-173.95887,-18.68449],[-173.95855,-18.68193],[-173.94965,-18.6822],[-173.94768,-18.68531],[-173.95081,-18.68719]]],[[[-173.95663,-18.7109],[-173.96302,-18.70566],[-173.96331,-18.69922],[-173.95251,-18.69129],[-173.95013,-18.69428],[-173.95683,-18.69907],[-173.95663,-18.7109]]],[[[-173.95603,-18.67682],[-173.96115,-18.67584],[-173.9581,-18.67151],[-173.95392,-18.67184],[-173.95603,-18.67682]]],[[[-173.99642,-18.65495],[-173.99341,-18.65294],[-173.98856,-18.66871],[-173.99944,-18.67874],[-173.98709,-18.67723],[-173.98528,-18.68163],[-173.99512,-18.68868],[-173.99519,-18.6928],[-173.98821,-18.69522],[-173.9828,-18.702],[-173.98533,-18.70788],[-173.98673,-18.70322],[-174.00688,-18.7047],[-174.00694,-18.70045],[-173.99744,-18.69791],[-173.99739,-18.69482],[-174.01275,-18.67785],[-174.00431,-18.65894],[-173.99642,-18.65495]]],[[[-173.98835,-18.71812],[-173.99612,-18.71478],[-173.99471,-18.7112],[-173.98839,-18.71272],[-173.98835,-18.71812]]],[[[-174.00945,-18.79677],[-174.00773,-18.79101],[-174.00184,-18.79381],[-174.00945,-18.79677]]],[[[-174.00975,-18.75277],[-174.01532,-18.73904],[-174.00688,-18.74278],[-174.00975,-18.75277]]],[[[-174.01843,-18.76974],[-174.02092,-18.76545],[-174.01832,-18.76344],[-174.01635,-18.76681],[-174.01843,-18.76974]]],[[[-174.01846,-18.66515],[-174.0228,-18.67383],[-174.01714,-18.68189],[-174.01668,-18.68628],[-174.01993,-18.68687],[-174.02593,-18.67506],[-174.01846,-18.66515]]],[[[-174.04548,-18.68144],[-174.02279,-18.69621],[-174.01794,-18.70427],[-174.02254,-18.72748],[-174.03535,-18.71891],[-174.0377,-18.70729],[-174.03477,-18.70168],[-174.02746,-18.70077],[-174.03287,-18.69373],[-174.04703,-18.68501],[-174.04548,-18.68144]]],[[[-174.0329,-18.76359],[-174.03641,-18.76327],[-174.04005,-18.75511],[-174.03409,-18.75418],[-174.0329,-18.76359]]],[[[-174.04758,-18.70816],[-174.05009,-18.70555],[-174.04747,-18.70212],[-174.04115,-18.70363],[-174.04243,-18.70721],[-174.04758,-18.70816]]],[[[-174.05064,-18.72869],[-174.05314,-18.73251],[-174.05377,-18.72993],[-174.05064,-18.72869]]],[[[-174.05562,-18.70507],[-174.05795,-18.69924],[-174.05416,-18.69905],[-174.05562,-18.70507]]],[[[-174.07739,-18.6997],[-174.08899,-18.69912],[-174.09232,-18.70395],[-174.10226,-18.70855],[-174.10199,-18.70135],[-174.0966,-18.70157],[-174.06937,-18.68877],[-174.06738,-18.69086],[-174.07012,-18.70085],[-174.06573,-18.704],[-174.06719,-18.71041],[-174.06337,-18.71575],[-174.06792,-18.71362],[-174.06778,-18.70551],[-174.07739,-18.6997]]],[[[-174.07727,-18.75231],[-174.07995,-18.75137],[-174.07774,-18.74858],[-174.07727,-18.75231]]],[[[-174.08281,-18.71582],[-174.07941,-18.7214],[-174.08653,-18.71987],[-174.08281,-18.71582]]],[[[-174.12823,-18.70426],[-174.12507,-18.70122],[-174.127,-18.69579],[-174.12316,-18.69276],[-174.12359,-18.68684],[-174.13222,-18.68592],[-174.12564,-18.68063],[-174.12447,-18.67551],[-174.11186,-18.67263],[-174.10813,-18.66806],[-174.10171,-18.67112],[-174.09222,-18.66884],[-174.08336,-18.67143],[-174.08503,-18.6741],[-174.09961,-18.6745],[-174.11226,-18.67982],[-174.12019,-18.6923],[-174.12397,-18.70729],[-174.13018,-18.70757],[-174.12823,-18.70426]]],[[[-174.08494,-18.7289],[-174.08854,-18.72627],[-174.08569,-18.72529],[-174.08494,-18.7289]]],[[[-174.11179,-18.74994],[-174.11618,-18.74614],[-174.10297,-18.74018],[-174.09127,-18.74269],[-174.09365,-18.74715],[-174.1093,-18.74664],[-174.11179,-18.74994]]],[[[-174.10681,-18.7288],[-174.1043,-18.71701],[-174.102,-18.71653],[-174.10239,-18.72321],[-174.09535,-18.72204],[-174.09218,-18.7257],[-174.10681,-18.7288]]],[[[-174.10912,-18.79552],[-174.11234,-18.79431],[-174.11173,-18.79085],[-174.10904,-18.79154],[-174.10912,-18.79552]]],[[[-174.13694,-18.70784],[-174.14266,-18.70299],[-174.13863,-18.69675],[-174.13239,-18.7029],[-174.13315,-18.70713],[-174.13694,-18.70784]]],[[[-174.13896,-18.71488],[-174.14441,-18.71762],[-174.14381,-18.71442],[-174.13896,-18.71488]]],[[[-174.17905,-18.16532],[-174.18329,-18.16178],[-174.17597,-18.15881],[-174.17538,-18.1632],[-174.17905,-18.16532]]],[[[-174.26543,-19.68495],[-174.26487,-19.69369],[-174.27284,-19.69639],[-174.27698,-19.68487],[-174.28813,-19.67629],[-174.28621,-19.66932],[-174.28844,-19.66575],[-174.29736,-19.65996],[-174.2976,-19.64607],[-174.29053,-19.64622],[-174.27849,-19.66765],[-174.26731,-19.67804],[-174.26543,-19.68495]]],[[[-174.2756,-19.70981],[-174.27399,-19.71699],[-174.27848,-19.71642],[-174.2756,-19.70981]]],[[[-174.28411,-19.72126],[-174.27837,-19.72272],[-174.27565,-19.73091],[-174.28056,-19.73819],[-174.28277,-19.75187],[-174.28944,-19.75956],[-174.33562,-19.76128],[-174.33818,-19.76514],[-174.33479,-19.76989],[-174.33457,-19.78327],[-174.3403,-19.79828],[-174.33948,-19.81499],[-174.33397,-19.82752],[-174.34694,-19.8326],[-174.3677,-19.82661],[-174.37966,-19.82743],[-174.35394,-19.81212],[-174.3438,-19.78418],[-174.34766,-19.77253],[-174.34173,-19.76948],[-174.33379,-19.75675],[-174.31208,-19.73854],[-174.2985,-19.73782],[-174.29259,-19.73374],[-174.29227,-19.72859],[-174.28411,-19.72126]]],[[[-174.32797,-18.02813],[-174.32478,-18.01584],[-174.32041,-18.01257],[-174.31422,-18.01177],[-174.30521,-18.019],[-174.31163,-18.03137],[-174.32079,-18.03276],[-174.32797,-18.02813]]],[[[-174.41785,-19.85372],[-174.41433,-19.85264],[-174.41012,-19.84383],[-174.38985,-19.8362],[-174.39428,-19.84771],[-174.40154,-19.85322],[-174.41531,-19.85896],[-174.42192,-19.85416],[-174.41785,-19.85372]]],[[[-174.40453,-19.88646],[-174.39359,-19.89016],[-174.39169,-19.89811],[-174.41157,-19.92221],[-174.42033,-19.91899],[-174.4201,-19.91603],[-174.41233,-19.90897],[-174.40902,-19.88627],[-174.40453,-19.88646]]],[[[-174.42109,-19.87152],[-174.42049,-19.87524],[-174.42365,-19.87362],[-174.42109,-19.87152]]],[[[-174.45355,-19.59224],[-174.44932,-19.60133],[-174.45171,-19.60534],[-174.45851,-19.60184],[-174.45355,-19.59224]]],[[[-174.47134,-19.96206],[-174.46353,-19.95667],[-174.46324,-19.9577],[-174.47134,-19.96206]]],[[[-174.4886,-19.64305],[-174.49285,-19.64066],[-174.48984,-19.63342],[-174.47873,-19.63146],[-174.47747,-19.63427],[-174.4886,-19.64305]]],[[[-174.49138,-19.96826],[-174.48409,-19.96443],[-174.4808,-19.96618],[-174.49138,-19.96826]]],[[[-174.5237,-20.35269],[-174.52177,-20.34572],[-174.51877,-20.34542],[-174.5237,-20.35269]]],[[[-174.51934,-20.3184],[-174.52296,-20.31356],[-174.52135,-20.31187],[-174.51934,-20.3184]]],[[[-174.53522,-20.40034],[-174.52583,-20.39055],[-174.52548,-20.39544],[-174.53522,-20.40034]]],[[[-174.55583,-19.83096],[-174.55945,-19.82509],[-174.55273,-19.81985],[-174.54328,-19.82461],[-174.54416,-19.82899],[-174.55583,-19.83096]]],[[[-174.62345,-19.76469],[-174.61908,-19.76592],[-174.62389,-19.77139],[-174.62721,-19.76757],[-174.62345,-19.76469]]],[[[-174.665,-18.79279],[-174.66024,-18.78501],[-174.64514,-18.7825],[-174.62879,-18.79234],[-174.61986,-18.80278],[-174.63374,-18.82444],[-174.64641,-18.82692],[-174.6588,-18.82051],[-174.66764,-18.80724],[-174.67013,-18.80264],[-174.665,-18.79279]]],[[[-174.6334,-20.28099],[-174.63481,-20.27818],[-174.62392,-20.27636],[-174.62306,-20.27944],[-174.6334,-20.28099]]],[[[-174.67921,-20.04276],[-174.6869,-20.03784],[-174.6875,-20.03399],[-174.6788,-20.03323],[-174.67583,-20.04053],[-174.67921,-20.04276]]],[[[-174.70297,-20.3352],[-174.71689,-20.32624],[-174.71077,-20.32436],[-174.70297,-20.3352]]],[[[-174.71285,-19.95749],[-174.71879,-19.95151],[-174.719,-19.94637],[-174.70741,-19.93824],[-174.70483,-19.94696],[-174.71285,-19.95749]]],[[[-174.71652,-19.8152],[-174.72815,-19.81058],[-174.7229,-19.80627],[-174.71441,-19.81105],[-174.71652,-19.8152]]],[[[-174.72496,-19.96717],[-174.7273,-19.96501],[-174.72367,-19.96213],[-174.72496,-19.96717]]],[[[-174.73541,-20.50575],[-174.73672,-20.49997],[-174.73241,-20.50545],[-174.73541,-20.50575]]],[[[-174.73841,-19.97853],[-174.73902,-19.97391],[-174.73616,-19.97413],[-174.73841,-19.97853]]],[[[-174.74383,-19.96123],[-174.74928,-19.96066],[-174.74824,-19.95704],[-174.74143,-19.95772],[-174.74383,-19.96123]]],[[[-174.76233,-20.45784],[-174.75805,-20.46061],[-174.76117,-20.4622],[-174.76233,-20.45784]]],[[[-174.77036,-20.0106],[-174.76,-20.01124],[-174.76095,-20.0209],[-174.77174,-20.0186],[-174.77036,-20.0106]]],[[[-174.78466,-20.271],[-174.80778,-20.25598],[-174.80871,-20.24788],[-174.8055,-20.2436],[-174.78586,-20.24399],[-174.78454,-20.24102],[-174.77367,-20.23818],[-174.77318,-20.24357],[-174.78113,-20.26015],[-174.77995,-20.26657],[-174.78466,-20.271]]],[[[-174.79868,-19.95136],[-174.80156,-19.95024],[-174.80107,-19.94638],[-174.7961,-19.94142],[-174.79868,-19.95136]]],[[[-174.80321,-20.29015],[-174.80939,-20.27749],[-174.80199,-20.28023],[-174.80321,-20.29015]]],[[[-174.91248,-21.29391],[-174.91609,-21.30091],[-174.90623,-21.3381],[-174.90874,-21.34331],[-174.90472,-21.35816],[-174.90619,-21.37903],[-174.90187,-21.39287],[-174.90394,-21.42121],[-174.8997,-21.43917],[-174.90106,-21.44948],[-174.90659,-21.45753],[-174.91503,-21.45352],[-174.93996,-21.43041],[-174.94962,-21.42756],[-174.97044,-21.40272],[-174.97486,-21.38167],[-174.96684,-21.35506],[-174.95771,-21.33951],[-174.94496,-21.32803],[-174.93062,-21.29285],[-174.92032,-21.28358],[-174.91401,-21.28312],[-174.91248,-21.29391]]],[[[-174.95097,-21.46838],[-174.95103,-21.47188],[-174.9553,-21.47358],[-174.95647,-21.46844],[-174.95097,-21.46838]]],[[[-174.97961,-21.12421],[-174.98577,-21.11437],[-174.97841,-21.11158],[-174.97435,-21.11733],[-174.97961,-21.12421]]],[[[-175.00105,-21.05896],[-175.0052,-21.05669],[-175.0025,-21.05331],[-174.99917,-21.05662],[-175.00105,-21.05896]]],[[[-175.02236,-19.65061],[-175.014,-19.64576],[-175.00812,-19.64866],[-174.99973,-19.66787],[-175.00463,-19.67822],[-175.02513,-19.69093],[-175.0316,-19.68393],[-175.03071,-19.6677],[-175.02236,-19.65061]]],[[[-175.06974,-19.71086],[-175.04958,-19.71398],[-175.03352,-19.73852],[-175.02943,-19.75058],[-175.02756,-19.75854],[-175.03239,-19.77481],[-175.04056,-19.7852],[-175.04598,-19.78719],[-175.07726,-19.78662],[-175.09492,-19.7648],[-175.10644,-19.75694],[-175.10484,-19.74238],[-175.09402,-19.71523],[-175.0812,-19.7075],[-175.06974,-19.71086]]],[[[-175.03129,-21.09496],[-175.03408,-21.09177],[-175.02833,-21.09068],[-175.03129,-21.09496]]],[[[-175.34822,-21.08483],[-175.33224,-21.06614],[-175.32433,-21.0622],[-175.32452,-21.06966],[-175.33735,-21.08807],[-175.33634,-21.10453],[-175.33363,-21.11429],[-175.3292,-21.11785],[-175.27997,-21.12765],[-175.25066,-21.12401],[-175.25072,-21.11912],[-175.24583,-21.11508],[-175.2354,-21.11484],[-175.22406,-21.12296],[-175.20342,-21.1284],[-175.18626,-21.13757],[-175.17932,-21.1357],[-175.17543,-21.1402],[-175.16321,-21.14097],[-175.15921,-21.1538],[-175.17155,-21.15393],[-175.18082,-21.15892],[-175.18461,-21.15413],[-175.19792,-21.15203],[-175.20348,-21.14591],[-175.20786,-21.14673],[-175.21163,-21.15243],[-175.23292,-21.16591],[-175.23374,-21.17217],[-175.22443,-21.17914],[-175.19649,-21.18272],[-175.1927,-21.18004],[-175.19053,-21.1717],[-175.19858,-21.16656],[-175.19649,-21.15665],[-175.19195,-21.15789],[-175.18678,-21.16581],[-175.17121,-21.15946],[-175.15825,-21.16459],[-175.15458,-21.17132],[-175.15202,-21.16856],[-175.14009,-21.16813],[-175.13758,-21.17171],[-175.1438,-21.17937],[-175.1712,-21.18289],[-175.17245,-21.19268],[-175.16937,-21.19767],[-175.16249,-21.19888],[-175.15759,-21.19587],[-175.15736,-21.19226],[-175.15113,-21.19683],[-175.14891,-21.18702],[-175.12664,-21.19012],[-175.1259,-21.18355],[-175.12824,-21.18293],[-175.11221,-21.1704],[-175.1134,-21.16346],[-175.11961,-21.16057],[-175.11792,-21.15296],[-175.1217,-21.14708],[-175.12431,-21.15779],[-175.12929,-21.15463],[-175.12216,-21.14297],[-175.12247,-21.12933],[-175.09872,-21.12044],[-175.08994,-21.12008],[-175.04974,-21.13121],[-175.03129,-21.14708],[-175.0319,-21.15275],[-175.0392,-21.16107],[-175.06683,-21.1677],[-175.07908,-21.17556],[-175.10454,-21.21253],[-175.0982,-21.23614],[-175.10302,-21.25601],[-175.11958,-21.271],[-175.13549,-21.27246],[-175.15176,-21.26698],[-175.18024,-21.25094],[-175.19082,-21.22815],[-175.19483,-21.22562],[-175.1935,-21.222],[-175.19959,-21.21794],[-175.22031,-21.20748],[-175.24345,-21.20039],[-175.27256,-21.19901],[-175.3052,-21.17734],[-175.31492,-21.16714],[-175.33645,-21.15654],[-175.34272,-21.14759],[-175.35184,-21.10417],[-175.35691,-21.09302],[-175.34822,-21.08483]]],[[[-175.05874,-21.09309],[-175.05823,-21.09038],[-175.05411,-21.09072],[-175.05874,-21.09309]]],[[[-175.11585,-21.08858],[-175.11507,-21.0851],[-175.10795,-21.08451],[-175.11585,-21.08858]]],[[[-175.14531,-21.14567],[-175.14828,-21.13914],[-175.14463,-21.13421],[-175.14531,-21.14567]]],[[[-175.15688,-21.14258],[-175.15386,-21.14254],[-175.15325,-21.14717],[-175.15571,-21.14823],[-175.15688,-21.14258]]],[[[-175.15872,-21.12677],[-175.16069,-21.12228],[-175.15714,-21.12147],[-175.15872,-21.12677]]],[[[-175.19845,-21.17649],[-175.2043,-21.16909],[-175.19627,-21.17311],[-175.19845,-21.17649]]],[[[-175.21142,-21.16112],[-175.20839,-21.15986],[-175.20664,-21.16885],[-175.20868,-21.17003],[-175.21213,-21.16865],[-175.21142,-21.16112]]],[[[-175.2572,-21.05702],[-175.25654,-21.04349],[-175.25298,-21.04294],[-175.25058,-21.04858],[-175.2572,-21.05702]]],[[[-175.38619,-20.53375],[-175.37494,-20.5375],[-175.38287,-20.53719],[-175.38619,-20.53375]]],[[[-175.40469,-20.5419],[-175.40029,-20.54392],[-175.40282,-20.55038],[-175.408,-20.55197],[-175.40469,-20.5419]]],[[[-175.67916,-15.60145],[-175.67157,-15.58338],[-175.66575,-15.57845],[-175.63527,-15.5668],[-175.62037,-15.56889],[-175.60273,-15.58372],[-175.6011,-15.58912],[-175.6014,-15.60406],[-175.60621,-15.61981],[-175.61835,-15.63264],[-175.63771,-15.63933],[-175.65635,-15.63429],[-175.67401,-15.61739],[-175.67916,-15.60145]]],[[[-176.20941,-22.33412],[-176.20527,-22.33243],[-176.19784,-22.33973],[-176.20461,-22.34815],[-176.21239,-22.34181],[-176.21347,-22.33533],[-176.20941,-22.33412]]]]}}]}