{"type":"FeatureCollection","features":[{"type":"Feature","properties":{"ISO_A3":"TTO","WB_A3":"TTO","WB_NAME":"Trinidad and Tobago","WB_REGION":"LCN"},"geometry":{"type":"MultiPolygon","coordinates":[[[[-60.50297,11.29325],[-60.50765,11.29561],[-60.50702,11.30745],[-60.49676,11.30195],[-60.49775,11.29346],[-60.50112,11.29594],[-60.50297,11.29325]]],[[[-60.52646,11.35306],[-60.52618,11.35551],[-60.51809,11.35544],[-60.52646,11.35306]]],[[[-60.51865,11.32042],[-60.52206,11.31903],[-60.52237,11.31273],[-60.52772,11.31226],[-60.52632,11.30864],[-60.53409,11.30072],[-60.53194,11.29272],[-60.52438,11.2915],[-60.52323,11.28827],[-60.52906,11.27827],[-60.52608,11.27593],[-60.52719,11.26783],[-60.53019,11.26773],[-60.53565,11.25489],[-60.54436,11.25857],[-60.54599,11.26592],[-60.54964,11.26673],[-60.55462,11.26355],[-60.55172,11.25219],[-60.55401,11.24346],[-60.56054,11.24222],[-60.5639,11.24637],[-60.57614,11.24892],[-60.58373,11.24576],[-60.5937,11.23837],[-60.598,11.22347],[-60.61841,11.21642],[-60.64234,11.19202],[-60.65922,11.18635],[-60.66503,11.19271],[-60.6807,11.19051],[-60.6872,11.19378],[-60.69216,11.19266],[-60.70205,11.17999],[-60.70301,11.17394],[-60.70559,11.17718],[-60.71186,11.17556],[-60.71739,11.16852],[-60.72676,11.17181],[-60.73868,11.18194],[-60.7555,11.16507],[-60.7649,11.1645],[-60.77375,11.15014],[-60.77175,11.14385],[-60.77395,11.141],[-60.77707,11.14128],[-60.77702,11.14785],[-60.77988,11.14915],[-60.78383,11.14532],[-60.78391,11.13476],[-60.79956,11.13436],[-60.80001,11.14312],[-60.81433,11.14748],[-60.83102,11.14785],[-60.842,11.14407],[-60.84524,11.1468],[-60.84586,11.15195],[-60.83877,11.15783],[-60.84129,11.16969],[-60.83814,11.17276],[-60.83516,11.16695],[-60.81665,11.16771],[-60.81935,11.17301],[-60.80759,11.17589],[-60.80963,11.1826],[-60.79865,11.18613],[-60.79588,11.1892],[-60.79682,11.19769],[-60.786,11.20252],[-60.7857,11.20741],[-60.77756,11.21405],[-60.77714,11.21868],[-60.78142,11.2218],[-60.77122,11.22482],[-60.75601,11.235],[-60.74782,11.24731],[-60.72769,11.25359],[-60.72267,11.26051],[-60.71719,11.26124],[-60.71453,11.26701],[-60.69776,11.27577],[-60.69768,11.28659],[-60.68459,11.29125],[-60.67182,11.28922],[-60.67124,11.29694],[-60.65035,11.2987],[-60.64664,11.30576],[-60.62998,11.30234],[-60.62806,11.31153],[-60.61471,11.31658],[-60.61179,11.32248],[-60.60111,11.32072],[-60.58644,11.32781],[-60.5768,11.32567],[-60.57062,11.31545],[-60.55232,11.31954],[-60.54903,11.32299],[-60.54988,11.33047],[-60.55535,11.33206],[-60.55792,11.33672],[-60.53754,11.33925],[-60.53122,11.34576],[-60.52894,11.33725],[-60.52127,11.33487],[-60.52274,11.32998],[-60.51883,11.32969],[-60.52084,11.32379],[-60.51865,11.32042]]],[[[-61.45957,10.52127],[-61.44781,10.55637],[-61.44407,10.56165],[-61.43253,10.56477],[-61.42987,10.57558],[-61.42137,10.58223],[-61.42159,10.59022],[-61.43365,10.59981],[-61.42714,10.6003],[-61.42712,10.60442],[-61.43285,10.60445],[-61.43283,10.60883],[-61.42707,10.61395],[-61.476,10.62167],[-61.47804,10.62967],[-61.47557,10.62862],[-61.47439,10.6321],[-61.47803,10.63224],[-61.47879,10.63753],[-61.48908,10.63719],[-61.48684,10.64272],[-61.491,10.64261],[-61.48795,10.62765],[-61.49266,10.62783],[-61.49689,10.64189],[-61.50797,10.64091],[-61.50794,10.64671],[-61.51246,10.64643],[-61.52873,10.65737],[-61.5342,10.65791],[-61.54077,10.67225],[-61.5501,10.67694],[-61.5621,10.67438],[-61.5638,10.67828],[-61.5724,10.67716],[-61.58358,10.68288],[-61.59866,10.68473],[-61.60201,10.69131],[-61.60606,10.69082],[-61.61534,10.68197],[-61.62447,10.68059],[-61.62344,10.67724],[-61.6168,10.67643],[-61.61578,10.67128],[-61.63027,10.66554],[-61.6339,10.66801],[-61.63282,10.67831],[-61.63853,10.68155],[-61.6534,10.67878],[-61.6625,10.6814],[-61.66144,10.68642],[-61.66767,10.69186],[-61.66202,10.70214],[-61.66685,10.70062],[-61.67097,10.71068],[-61.64436,10.71856],[-61.63701,10.7309],[-61.62292,10.73612],[-61.61427,10.746],[-61.58456,10.74664],[-61.5765,10.74364],[-61.56213,10.75079],[-61.54547,10.74659],[-61.53111,10.7536],[-61.52252,10.75163],[-61.51599,10.75405],[-61.51101,10.76085],[-61.50658,10.7607],[-61.49946,10.7543],[-61.49042,10.76037],[-61.48941,10.75444],[-61.48629,10.753],[-61.47244,10.76118],[-61.47214,10.76826],[-61.47604,10.77112],[-61.47419,10.77459],[-61.46091,10.77336],[-61.4638,10.76797],[-61.45888,10.76266],[-61.45445,10.76264],[-61.45076,10.77061],[-61.44201,10.77507],[-61.44286,10.76194],[-61.42867,10.75813],[-61.42369,10.7639],[-61.42748,10.76837],[-61.42646,10.7724],[-61.41959,10.77625],[-61.42049,10.77883],[-61.40873,10.78444],[-61.40486,10.77823],[-61.39077,10.78035],[-61.39374,10.78565],[-61.39099,10.78847],[-61.37456,10.7907],[-61.36539,10.80044],[-61.36637,10.81075],[-61.36324,10.81254],[-61.35203,10.81197],[-61.34391,10.80554],[-61.32447,10.79971],[-61.29505,10.79581],[-61.28774,10.79822],[-61.27578,10.79326],[-61.25389,10.79223],[-61.25022,10.79595],[-61.23643,10.79329],[-61.19106,10.79754],[-61.17457,10.80929],[-61.15292,10.81264],[-61.14218,10.82172],[-61.11118,10.81973],[-61.06263,10.83296],[-61.04858,10.829],[-61.04303,10.84082],[-61.01435,10.84334],[-61.01124,10.84113],[-61.00809,10.84369],[-60.99564,10.83562],[-60.96515,10.83606],[-60.95031,10.83326],[-60.9393,10.84349],[-60.92138,10.83474],[-60.91069,10.83531],[-60.91585,10.82453],[-60.91264,10.81781],[-60.92561,10.80682],[-60.93761,10.80407],[-60.94408,10.79149],[-60.94804,10.76472],[-60.9623,10.75542],[-60.97017,10.74787],[-60.96981,10.74374],[-60.98067,10.73609],[-60.9861,10.7217],[-60.99539,10.71557],[-60.99781,10.70425],[-61.01033,10.70227],[-61.0202,10.70607],[-61.02699,10.70289],[-61.03242,10.68979],[-61.03568,10.68929],[-61.03805,10.68545],[-61.03751,10.66767],[-61.02921,10.62099],[-61.04028,10.62093],[-61.04345,10.61463],[-61.04995,10.61275],[-61.04191,10.61063],[-61.03668,10.61369],[-61.03122,10.6125],[-61.0254,10.60654],[-61.02114,10.56039],[-61.01274,10.5302],[-61.01266,10.52196],[-61.02216,10.52305],[-61.0282,10.5151],[-61.04057,10.51389],[-61.04354,10.4969],[-61.03731,10.4523],[-61.02125,10.39913],[-61.02597,10.39375],[-61.01691,10.38622],[-61.00513,10.35678],[-60.99611,10.34281],[-60.99652,10.33895],[-61.00069,10.3382],[-61.0061,10.34609],[-61.00956,10.33439],[-61.00255,10.33151],[-60.99836,10.33638],[-60.98146,10.33551],[-60.97987,10.33936],[-60.96856,10.33774],[-60.97397,10.32657],[-60.98423,10.32934],[-60.98777,10.32447],[-60.99648,10.30469],[-60.99825,10.29182],[-61.00371,10.20993],[-60.9975,10.16249],[-60.98946,10.13835],[-60.9939,10.13567],[-61.00064,10.13829],[-61.00083,10.15014],[-61.00394,10.15222],[-61.0211,10.15245],[-61.04642,10.13509],[-61.0563,10.13579],[-61.05217,10.13035],[-61.06215,10.11393],[-61.09756,10.10576],[-61.10645,10.09782],[-61.11972,10.09532],[-61.12521,10.08956],[-61.1617,10.07443],[-61.19157,10.07898],[-61.21085,10.07213],[-61.23266,10.07611],[-61.2503,10.08367],[-61.26254,10.08065],[-61.26277,10.08593],[-61.2711,10.08366],[-61.28669,10.08593],[-61.32678,10.07763],[-61.33226,10.07353],[-61.38532,10.0689],[-61.38946,10.07227],[-61.40999,10.07624],[-61.42899,10.0722],[-61.45472,10.07284],[-61.47789,10.06805],[-61.49947,10.06764],[-61.50706,10.07205],[-61.51948,10.06979],[-61.52935,10.07395],[-61.55926,10.07099],[-61.57277,10.07311],[-61.59933,10.06472],[-61.60322,10.06706],[-61.62771,10.05582],[-61.6329,10.05971],[-61.65032,10.06004],[-61.66844,10.07931],[-61.69416,10.0865],[-61.75944,10.08366],[-61.7808,10.07511],[-61.79532,10.08702],[-61.82654,10.08249],[-61.82523,10.08635],[-61.83083,10.08405],[-61.83446,10.0869],[-61.83227,10.08148],[-61.84375,10.07108],[-61.86796,10.06214],[-61.89689,10.04394],[-61.9099,10.04244],[-61.92769,10.04727],[-61.93054,10.05114],[-61.92947,10.0599],[-61.912,10.07531],[-61.90766,10.08728],[-61.86343,10.09267],[-61.84078,10.10148],[-61.83322,10.10648],[-61.83059,10.1142],[-61.82511,10.11831],[-61.82583,10.13429],[-61.80762,10.13512],[-61.80007,10.13832],[-61.79997,10.14132],[-61.79068,10.1437],[-61.78807,10.14781],[-61.77324,10.1484],[-61.76923,10.1449],[-61.76725,10.14889],[-61.72431,10.15568],[-61.69643,10.16679],[-61.69468,10.18198],[-61.69675,10.18534],[-61.69116,10.18455],[-61.65651,10.19639],[-61.63458,10.21447],[-61.63113,10.22113],[-61.63852,10.23587],[-61.63732,10.24257],[-61.63028,10.24627],[-61.61752,10.2497],[-61.59024,10.24108],[-61.59132,10.23168],[-61.5812,10.22596],[-61.5648,10.22885],[-61.56,10.22626],[-61.55777,10.22947],[-61.53357,10.23052],[-61.52523,10.23422],[-61.52408,10.23099],[-61.52799,10.22843],[-61.52061,10.22419],[-61.52391,10.20842],[-61.51978,10.20693],[-61.51731,10.21016],[-61.52042,10.21289],[-61.51409,10.21714],[-61.5088,10.21495],[-61.49939,10.22547],[-61.50505,10.23889],[-61.50123,10.24241],[-61.50292,10.24471],[-61.4788,10.25964],[-61.47028,10.27378],[-61.46827,10.28588],[-61.45584,10.29999],[-61.46013,10.3105],[-61.4674,10.30779],[-61.46947,10.30986],[-61.46491,10.31564],[-61.46727,10.32328],[-61.46012,10.3299],[-61.46097,10.3433],[-61.46408,10.34487],[-61.46249,10.34776],[-61.46775,10.36679],[-61.47891,10.37426],[-61.49156,10.37793],[-61.48369,10.37592],[-61.47976,10.38552],[-61.4903,10.3857],[-61.48967,10.40022],[-61.49371,10.40788],[-61.48926,10.41224],[-61.48791,10.42202],[-61.49572,10.42155],[-61.49231,10.42759],[-61.48528,10.42742],[-61.48674,10.45018],[-61.472,10.48199],[-61.46925,10.51238],[-61.45907,10.51748],[-61.45957,10.52127]]],[[[-61.65035,10.66035],[-61.6657,10.66582],[-61.66151,10.66941],[-61.64537,10.66831],[-61.65035,10.66035]]],[[[-61.68039,10.70222],[-61.6783,10.70479],[-61.67506,10.70039],[-61.6752,10.69756],[-61.67884,10.69938],[-61.67629,10.68648],[-61.68866,10.68731],[-61.68777,10.68318],[-61.68309,10.6811],[-61.68544,10.67969],[-61.69611,10.68193],[-61.69614,10.69704],[-61.68664,10.70366],[-61.68039,10.70222]]],[[[-61.71795,10.69336],[-61.71795,10.70022],[-61.71272,10.69875],[-61.71223,10.69037],[-61.71795,10.69336]]],[[[-61.72629,10.7042],[-61.7242,10.70595],[-61.71812,10.70162],[-61.7205,10.69981],[-61.72629,10.7042]]],[[[-61.76416,10.67087],[-61.7559,10.68475],[-61.75967,10.68631],[-61.75753,10.69828],[-61.74815,10.69967],[-61.73438,10.68904],[-61.73155,10.68091],[-61.74208,10.68547],[-61.74558,10.69025],[-61.75524,10.68616],[-61.75526,10.68011],[-61.74849,10.67892],[-61.742,10.6731],[-61.75607,10.67534],[-61.76416,10.67087]]]]}}]}