{"type":"FeatureCollection","features":[{"type":"Feature","properties":{"ISO_A3":"TUN","WB_A3":"TUN","WB_NAME":"Tunisia","WB_REGION":"MEA"},"geometry":{"type":"MultiPolygon","coordinates":[[[[10.21821,37.11155],[10.21284,37.09804],[10.21688,37.11046],[10.19817,37.10333],[10.18967,37.09352],[10.19448,37.09322],[10.1796,37.07474],[10.17968,37.03826],[10.19336,37.01141],[10.20162,36.98692],[10.21198,36.97372],[10.23456,36.95422],[10.26054,36.93801],[10.29833,36.92052],[10.31748,36.91787],[10.32071,36.91039],[10.31673,36.90247],[10.32311,36.89212],[10.3516,36.8751],[10.35468,36.86839],[10.3418,36.86365],[10.33779,36.85381],[10.33167,36.85092],[10.32724,36.84429],[10.32744,36.8371],[10.32002,36.83333],[10.31435,36.82243],[10.30695,36.81626],[10.30824,36.80777],[10.2984,36.81173],[10.28435,36.81226],[10.19115,36.79769],[10.19143,36.79512],[10.19463,36.79535],[10.19867,36.78837],[10.1988,36.79672],[10.20199,36.79604],[10.20287,36.79141],[10.20769,36.7929],[10.20455,36.7895],[10.21076,36.78499],[10.25097,36.78718],[10.27199,36.79673],[10.23945,36.80169],[10.26798,36.80743],[10.26951,36.80318],[10.28132,36.80305],[10.2808,36.80973],[10.29517,36.80945],[10.30056,36.80734],[10.29349,36.80472],[10.28442,36.78773],[10.29435,36.77015],[10.31189,36.75044],[10.3487,36.72844],[10.39443,36.71597],[10.41606,36.71623],[10.46167,36.72762],[10.48234,36.74047],[10.53468,36.75612],[10.54096,36.7667],[10.5508,36.77171],[10.55507,36.79349],[10.56201,36.797],[10.57093,36.84299],[10.57965,36.84711],[10.58574,36.86373],[10.60246,36.86787],[10.61203,36.87468],[10.60927,36.88011],[10.61264,36.88084],[10.61998,36.88022],[10.62469,36.87592],[10.66068,36.88428],[10.67302,36.87833],[10.70473,36.88071],[10.7545,36.90336],[10.79067,36.9321],[10.8198,36.94592],[10.82117,36.94975],[10.83472,36.95416],[10.84064,36.96101],[10.8526,36.96545],[10.86469,36.97553],[10.87434,36.97743],[10.87348,36.98181],[10.87992,36.983],[10.88099,36.9876],[10.89055,36.99233],[10.8932,37.00205],[10.89837,37.00402],[10.90077,37.01015],[10.91175,37.00741],[10.91473,37.01789],[10.91192,37.02076],[10.90707,37.01904],[10.9062,37.02252],[10.90972,37.02221],[10.90503,37.02704],[10.90875,37.03494],[10.90401,37.03758],[10.90882,37.03751],[10.90969,37.04057],[10.90547,37.0445],[10.90945,37.04983],[10.9113,37.04723],[10.92539,37.04649],[10.93288,37.05124],[10.94568,37.05078],[10.95153,37.05364],[10.97482,37.04978],[10.98624,37.05756],[11.01757,37.06679],[11.02318,37.0726],[11.03611,37.07687],[11.03859,37.07978],[11.03671,37.08727],[11.04748,37.08246],[11.04672,37.07785],[11.05595,37.07538],[11.06214,37.0614],[11.07486,37.05193],[11.07213,37.04555],[11.06402,37.04184],[11.05914,37.03319],[11.05887,37.01162],[11.06599,36.9966],[11.09316,36.96556],[11.09984,36.95234],[11.10743,36.90237],[11.11932,36.88726],[11.13673,36.87513],[11.11967,36.83614],[11.11592,36.83338],[11.109,36.83749],[11.09907,36.83663],[11.05661,36.81439],[11.02232,36.78595],[10.97323,36.72718],[10.92165,36.65532],[10.87031,36.57573],[10.84701,36.53345],[10.82913,36.49057],[10.80764,36.45583],[10.79195,36.45093],[10.78723,36.45331],[10.76649,36.45003],[10.74913,36.4418],[10.71597,36.4374],[10.67652,36.42178],[10.65583,36.40537],[10.62964,36.39931],[10.61774,36.39228],[10.61297,36.39221],[10.60992,36.39829],[10.5989,36.40332],[10.58902,36.40217],[10.56852,36.39396],[10.5527,36.38145],[10.5495,36.37224],[10.54618,36.37306],[10.5418,36.36823],[10.5204,36.33819],[10.50223,36.30143],[10.48454,36.2554],[10.47027,36.19649],[10.46705,36.14257],[10.47134,36.10116],[10.48528,36.05114],[10.49875,36.03581],[10.5098,36.03452],[10.51713,36.02916],[10.52949,35.98121],[10.55051,35.94883],[10.57562,35.92461],[10.58787,35.90543],[10.6,35.89577],[10.60387,35.8767],[10.61765,35.86316],[10.62476,35.84842],[10.6466,35.82859],[10.64268,35.82197],[10.64724,35.82139],[10.64774,35.81496],[10.65258,35.80923],[10.66843,35.80131],[10.68049,35.78984],[10.73389,35.76557],[10.75344,35.76606],[10.77697,35.77509],[10.78096,35.77949],[10.79597,35.77866],[10.80714,35.78479],[10.81904,35.78102],[10.83448,35.78091],[10.83484,35.77577],[10.84398,35.76895],[10.84028,35.75898],[10.8307,35.75322],[10.8292,35.73629],[10.8328,35.72801],[10.82861,35.7309],[10.82862,35.74503],[10.82579,35.74559],[10.82609,35.73787],[10.82231,35.73793],[10.82071,35.72999],[10.82274,35.72238],[10.81796,35.71976],[10.82949,35.7007],[10.83569,35.69611],[10.85778,35.68433],[10.87413,35.68344],[10.87965,35.67706],[10.90059,35.67056],[10.94535,35.65957],[10.95545,35.66069],[10.96069,35.65585],[10.98142,35.65423],[10.98626,35.64619],[10.99998,35.64108],[11.00241,35.63731],[11.03471,35.63304],[11.04715,35.62692],[11.04927,35.62381],[11.04531,35.60409],[11.03214,35.57502],[11.03349,35.54134],[11.04093,35.52452],[11.05087,35.51382],[11.06918,35.50477],[11.08218,35.50955],[11.08292,35.50761],[11.06434,35.49997],[11.05994,35.49362],[11.04529,35.44891],[11.04138,35.4184],[11.04954,35.3936],[11.04296,35.38754],[11.03634,35.38637],[11.03317,35.37872],[11.03242,35.36126],[11.03597,35.34039],[11.04187,35.32564],[11.05433,35.31002],[11.10039,35.26683],[11.12994,35.24705],[11.15997,35.23392],[11.15062,35.22343],[11.14237,35.22524],[11.14027,35.22284],[11.13537,35.22704],[11.12025,35.22371],[11.1195,35.21897],[11.10942,35.21066],[11.10852,35.19398],[11.09921,35.1908],[11.09763,35.18415],[11.08921,35.17941],[11.0827,35.16925],[11.08247,35.16642],[11.08894,35.16272],[11.08711,35.16039],[11.05786,35.15824],[11.03994,35.13606],[11.02394,35.10884],[11.02177,35.09705],[11.02162,35.09089],[11.0276,35.07974],[11.02247,35.06184],[11.02375,35.04409],[11.01964,35.0421],[11.01937,35.03774],[11.00775,35.02252],[11.00693,35.01431],[10.98653,35.00372],[10.96514,34.99713],[10.92889,34.96932],[10.92163,34.94606],[10.92357,34.92213],[10.92152,34.91471],[10.92464,34.9013],[10.92159,34.88387],[10.88779,34.85151],[10.88353,34.83565],[10.86668,34.82743],[10.86591,34.81434],[10.8727,34.80421],[10.87211,34.79882],[10.84662,34.7942],[10.82962,34.78624],[10.81493,34.7695],[10.804,34.76825],[10.80077,34.76277],[10.773,34.7457],[10.78201,34.73773],[10.77975,34.73391],[10.78324,34.72949],[10.78168,34.72232],[10.78026,34.72877],[10.77696,34.72689],[10.77051,34.73109],[10.76857,34.72791],[10.77624,34.7224],[10.76819,34.71738],[10.76183,34.71798],[10.76566,34.7151],[10.76203,34.71297],[10.7611,34.72031],[10.75418,34.72426],[10.75459,34.69933],[10.75004,34.69785],[10.74766,34.68067],[10.73077,34.66113],[10.73537,34.6581],[10.73279,34.65365],[10.71447,34.64016],[10.70099,34.63456],[10.66369,34.62737],[10.6612,34.63473],[10.65566,34.63737],[10.64402,34.63072],[10.64052,34.6264],[10.64135,34.6215],[10.62911,34.61524],[10.62973,34.60753],[10.62477,34.59988],[10.60907,34.59161],[10.60216,34.57962],[10.59796,34.55501],[10.60057,34.54572],[10.59344,34.53811],[10.54557,34.51881],[10.56123,34.52606],[10.56253,34.52926],[10.55479,34.53025],[10.53323,34.52307],[10.5218,34.52604],[10.51863,34.52274],[10.50373,34.52305],[10.49399,34.51662],[10.4625,34.50904],[10.4344,34.49048],[10.37538,34.42126],[10.36512,34.41944],[10.35942,34.42195],[10.35994,34.42567],[10.35408,34.42715],[10.32975,34.41842],[10.32742,34.40829],[10.32214,34.40797],[10.32273,34.4059],[10.34074,34.40789],[10.34673,34.41387],[10.35339,34.41354],[10.34997,34.40316],[10.33167,34.39621],[10.31392,34.39765],[10.28837,34.41],[10.2854,34.41853],[10.28309,34.40915],[10.28705,34.40461],[10.27652,34.39534],[10.27876,34.38941],[10.27247,34.38382],[10.27092,34.3733],[10.23752,34.36825],[10.22741,34.35485],[10.21156,34.34811],[10.1905,34.36331],[10.18478,34.3536],[10.18399,34.34102],[10.18067,34.33668],[10.17235,34.33959],[10.17081,34.32932],[10.15206,34.32886],[10.13458,34.319],[10.12232,34.31718],[10.09831,34.29273],[10.08016,34.2659],[10.06517,34.23134],[10.04975,34.2104],[10.04662,34.20734],[10.04541,34.20992],[10.05163,34.22477],[10.04607,34.22585],[10.03782,34.22155],[10.04288,34.21739],[10.03766,34.20844],[10.03254,34.2072],[10.04115,34.20302],[10.04351,34.20634],[10.04266,34.18733],[10.03377,34.16812],[10.03647,34.17759],[10.02811,34.17313],[10.03308,34.17558],[10.03336,34.18173],[10.02815,34.17651],[10.02539,34.17872],[10.02836,34.18142],[10.02089,34.18597],[10.01533,34.17779],[10.01523,34.16956],[10.02645,34.15148],[10.02251,34.11913],[10.01741,34.11945],[10.02509,34.11577],[10.02243,34.11219],[10.02588,34.10394],[10.02596,34.08517],[10.03829,34.03212],[10.05368,33.99113],[10.07824,33.94465],[10.08747,33.93056],[10.09946,33.92775],[10.09587,33.92444],[10.09718,33.91878],[10.10862,33.92073],[10.10239,33.91616],[10.10432,33.90998],[10.1372,33.86778],[10.18281,33.82509],[10.22126,33.79848],[10.21737,33.79582],[10.24801,33.77547],[10.25264,33.77593],[10.25288,33.77156],[10.26366,33.77171],[10.2746,33.76286],[10.276,33.75308],[10.28192,33.74813],[10.28214,33.74196],[10.2961,33.7395],[10.33438,33.70812],[10.35898,33.69822],[10.36456,33.6916],[10.4054,33.66929],[10.41307,33.66831],[10.41465,33.67099],[10.42598,33.66842],[10.42838,33.6644],[10.43571,33.66201],[10.46117,33.6585],[10.47644,33.65279],[10.47759,33.6484],[10.46457,33.64775],[10.46413,33.64332],[10.45759,33.64697],[10.45739,33.64415],[10.45262,33.64395],[10.44049,33.63509],[10.43314,33.63486],[10.44184,33.6297],[10.44475,33.62348],[10.45261,33.62467],[10.45364,33.63121],[10.46409,33.6316],[10.46752,33.63452],[10.48222,33.63151],[10.48644,33.62709],[10.49183,33.63628],[10.51291,33.64125],[10.51967,33.64725],[10.55629,33.65001],[10.56945,33.65563],[10.56106,33.63337],[10.59067,33.63094],[10.59533,33.63396],[10.59515,33.6409],[10.58153,33.63504],[10.56675,33.64204],[10.57267,33.6552],[10.60075,33.66088],[10.60858,33.66874],[10.64714,33.67608],[10.66772,33.69135],[10.69814,33.70571],[10.72124,33.70796],[10.73402,33.70097],[10.7457,33.67794],[10.73814,33.65388],[10.73187,33.64729],[10.73152,33.62982],[10.737,33.61201],[10.7354,33.60123],[10.72556,33.59315],[10.72186,33.57675],[10.714,33.57545],[10.68629,33.55539],[10.68111,33.53388],[10.68922,33.53261],[10.70223,33.52305],[10.7041,33.5166],[10.69952,33.4943],[10.72737,33.49096],[10.74427,33.4771],[10.75614,33.47295],[10.78351,33.47641],[10.78792,33.48201],[10.80084,33.48387],[10.80659,33.4951],[10.8281,33.49671],[10.84587,33.503],[10.85107,33.50948],[10.9202,33.52796],[10.93964,33.54654],[10.94885,33.56722],[10.92807,33.5989],[10.91313,33.60401],[10.91348,33.613],[10.92193,33.61968],[10.94477,33.62459],[10.94608,33.6283],[10.93499,33.64068],[10.91491,33.68018],[10.89746,33.6739],[10.89195,33.66781],[10.886,33.6345],[10.87653,33.63708],[10.86939,33.65479],[10.87286,33.65885],[10.87304,33.66759],[10.87918,33.67392],[10.8774,33.69117],[10.83238,33.73553],[10.82797,33.73804],[10.81595,33.73667],[10.79182,33.72276],[10.78765,33.71486],[10.78862,33.70225],[10.77929,33.70431],[10.76198,33.69981],[10.75348,33.71303],[10.74168,33.72245],[10.72757,33.763],[10.73711,33.77829],[10.74204,33.77822],[10.74972,33.80047],[10.74958,33.83876],[10.74301,33.85633],[10.74416,33.85991],[10.74825,33.85677],[10.75157,33.86084],[10.74938,33.86678],[10.74524,33.86787],[10.74596,33.88032],[10.74255,33.87947],[10.74489,33.88843],[10.7941,33.89852],[10.79604,33.90299],[10.79936,33.89947],[10.8249,33.89742],[10.85872,33.88702],[10.87532,33.87791],[10.88521,33.87917],[10.89527,33.87464],[10.91158,33.87349],[10.92486,33.87496],[10.94598,33.8691],[10.95994,33.87312],[10.9525,33.87812],[10.94726,33.87769],[10.94587,33.88465],[10.92329,33.90119],[10.90888,33.90476],[10.89305,33.91361],[10.90043,33.91273],[10.93701,33.89455],[10.96025,33.87311],[10.98156,33.86224],[11.01114,33.83606],[11.02272,33.83086],[11.03661,33.83256],[11.05721,33.82451],[11.05858,33.79185],[11.05289,33.79194],[11.05975,33.78926],[11.05841,33.77823],[11.04921,33.77954],[11.03175,33.77006],[11.01868,33.75755],[11.00558,33.7561],[10.99846,33.74983],[10.98857,33.7326],[10.98517,33.71852],[10.98547,33.69796],[10.98033,33.6907],[10.98263,33.69492],[10.98095,33.71525],[10.98754,33.73467],[10.99662,33.74815],[10.9909,33.74696],[10.98023,33.71757],[10.97788,33.68883],[10.97499,33.68348],[10.97268,33.68326],[10.97531,33.69092],[10.97295,33.69533],[10.96947,33.69076],[10.96574,33.69596],[10.97019,33.70874],[10.96701,33.71778],[10.96784,33.72728],[10.95626,33.72528],[10.95044,33.71959],[10.93893,33.69304],[10.92653,33.68861],[10.91618,33.67926],[10.92274,33.66323],[10.94377,33.63009],[10.95869,33.629],[10.97544,33.62231],[10.98497,33.62267],[10.99583,33.62737],[10.99573,33.63637],[10.99198,33.63373],[10.98809,33.63804],[10.99213,33.64041],[11.00344,33.63766],[11.00299,33.64473],[11.0238,33.6282],[11.03629,33.6235],[11.04906,33.62445],[11.10635,33.56129],[11.11514,33.53776],[11.1209,33.49731],[11.11272,33.48897],[11.12005,33.48126],[11.10735,33.47608],[11.10311,33.46562],[11.10035,33.46554],[11.09448,33.45099],[11.09413,33.43018],[11.10674,33.413],[11.10697,33.40349],[11.11513,33.40489],[11.13796,33.38613],[11.12998,33.37945],[11.12358,33.38059],[11.12345,33.37545],[11.11712,33.36682],[11.11168,33.3637],[11.09796,33.36612],[11.09879,33.36251],[11.09249,33.36184],[11.09258,33.35889],[11.09843,33.3602],[11.10019,33.35709],[11.1115,33.35613],[11.12577,33.36385],[11.12771,33.36806],[11.13634,33.37035],[11.14907,33.36473],[11.16869,33.34692],[11.1742,33.34091],[11.17323,33.33244],[11.18057,33.32615],[11.23917,33.30724],[11.29443,33.27874],[11.17664,33.31568],[11.14642,33.31916],[11.13925,33.31389],[11.1298,33.31559],[11.12535,33.30886],[11.1243,33.2968],[11.11494,33.29257],[11.11744,33.28535],[11.12536,33.28367],[11.14018,33.2644],[11.15352,33.25929],[11.16099,33.25222],[11.16983,33.23253],[11.16773,33.22152],[11.1752,33.20828],[11.18576,33.20257],[11.19369,33.20205],[11.19899,33.20619],[11.21494,33.20822],[11.23656,33.20475],[11.26319,33.20607],[11.36948,33.18019],[11.38732,33.18409],[11.39111,33.18864],[11.41586,33.17724],[11.43087,33.17862],[11.44234,33.18456],[11.44353,33.19456],[11.41774,33.20689],[11.3516,33.25403],[11.32558,33.26505],[11.33473,33.26398],[11.3574,33.25392],[11.40904,33.21849],[11.48747,33.18097],[11.54234,33.16586],[11.56162,33.16704],[11.55975,33.14289],[11.53439,33.08722],[11.52541,33.07366],[11.52148,33.01124],[11.52906,32.98625],[11.51817,32.9769],[11.5142,32.95619],[11.50148,32.93205],[11.48819,32.89046],[11.50306,32.8455],[11.48965,32.78468],[11.48828,32.76211],[11.49558,32.7258],[11.49534,32.69956],[11.48349,32.65344],[11.50658,32.60685],[11.55146,32.58038],[11.58457,32.54238],[11.59996,32.51509],[11.60762,32.46234],[11.60267,32.45156],[11.57869,32.43627],[11.54816,32.40479],[11.51994,32.39776],[11.45315,32.3589],[11.41696,32.35184],[11.35542,32.31695],[11.16927,32.26643],[11.13615,32.24897],[11.0603,32.21982],[11.03051,32.19858],[10.98563,32.18033],[10.86322,32.10639],[10.86318,32.08323],[10.82521,32.03771],[10.79722,31.99759],[10.77835,31.98876],[10.75884,31.98461],[10.74982,31.98698],[10.72246,31.96771],[10.70913,31.96765],[10.67276,31.97844],[10.6511,31.9743],[10.64955,31.96667],[10.64339,31.96336],[10.64567,31.96164],[10.63574,31.95204],[10.63593,31.94559],[10.64419,31.94459],[10.64017,31.94307],[10.63412,31.93254],[10.62953,31.93799],[10.62874,31.92499],[10.61925,31.92064],[10.62164,31.91701],[10.61647,31.91275],[10.6172,31.90811],[10.62863,31.89935],[10.63638,31.87948],[10.62712,31.86182],[10.61932,31.85001],[10.57852,31.81751],[10.56483,31.79935],[10.56175,31.77799],[10.54847,31.76021],[10.52442,31.73964],[10.49889,31.74392],[10.47054,31.73239],[10.40975,31.73095],[10.38043,31.73906],[10.30715,31.70127],[10.28892,31.68347],[10.20634,31.56416],[10.14884,31.50559],[10.1281,31.47843],[10.12718,31.46603],[10.14463,31.43796],[10.14751,31.41024],[10.15603,31.38524],[10.17957,31.3361],[10.2003,31.28166],[10.23302,31.21413],[10.23833,31.19429],[10.25716,31.18234],[10.25101,31.16466],[10.2605,31.11891],[10.28431,31.08522],[10.27008,31.03877],[10.28571,30.95923],[10.30256,30.89557],[10.28783,30.87898],[10.27985,30.83785],[10.26856,30.8011],[10.24727,30.76963],[10.24254,30.75237],[10.21525,30.70828],[10.19746,30.69463],[10.15638,30.65377],[10.09061,30.55747],[10.05734,30.53091],[10.0306,30.5046],[9.98421,30.43526],[9.95152,30.40201],[9.94012,30.38213],[9.89823,30.35283],[9.87423,30.34089],[9.82516,30.34133],[9.66138,30.27261],[9.63863,30.25516],[9.60358,30.2404],[9.5562,30.22889],[9.07542,32.08647],[8.35734,32.50173],[8.32321,32.82317],[8.10458,33.04994],[8.10764,33.06656],[8.14382,33.08397],[7.88427,33.18057],[7.85396,33.17728],[7.84081,33.19443],[7.8084,33.20752],[7.81035,33.21439],[7.78941,33.26015],[7.74336,33.42515],[7.62815,33.57377],[7.59245,33.64918],[7.5975,33.69008],[7.56473,33.72704],[7.57663,33.74687],[7.58898,33.75057],[7.55991,33.77906],[7.52464,33.79733],[7.54634,33.83641],[7.52231,33.90569],[7.5412,33.93867],[7.54022,33.97574],[7.55392,34.0188],[7.52803,34.06346],[7.53754,34.07266],[7.54741,34.07338],[7.553,34.07953],[7.56073,34.08049],[7.57711,34.08986],[7.57582,34.09569],[7.57171,34.09265],[7.56799,34.09424],[7.57502,34.10113],[7.60499,34.11038],[7.61277,34.13685],[7.65423,34.19793],[7.72297,34.16647],[7.77751,34.20091],[7.79673,34.20901],[7.80414,34.21926],[7.8039,34.22807],[7.81331,34.25413],[7.85338,34.35544],[7.85138,34.36787],[7.85775,34.37836],[7.85218,34.38998],[7.85545,34.4057],[7.87583,34.40672],[7.88974,34.41633],[7.92233,34.41558],[7.93455,34.42199],[7.932,34.42406],[7.93315,34.42872],[7.94064,34.43878],[7.95101,34.43981],[7.95187,34.44617],[7.97368,34.44746],[7.98734,34.45387],[8.01016,34.45752],[8.01786,34.47218],[8.0427,34.49332],[8.07036,34.49611],[8.07104,34.5035],[8.08609,34.51434],[8.1153,34.51246],[8.12029,34.52403],[8.13391,34.53137],[8.14865,34.53408],[8.14728,34.53938],[8.15248,34.54739],[8.16625,34.55402],[8.16003,34.56761],[8.17009,34.56512],[8.17102,34.57583],[8.18567,34.57121],[8.19813,34.57549],[8.20538,34.57439],[8.20631,34.57798],[8.22277,34.57848],[8.20419,34.58918],[8.20865,34.59113],[8.21079,34.60315],[8.22061,34.6057],[8.23214,34.61564],[8.23808,34.61337],[8.24857,34.61554],[8.24401,34.61956],[8.2412,34.63155],[8.26526,34.64471],[8.27409,34.64586],[8.28072,34.6549],[8.27719,34.65993],[8.25868,34.65997],[8.24135,34.6691],[8.23663,34.67642],[8.23895,34.6869],[8.24795,34.69123],[8.26427,34.69198],[8.29198,34.72195],[8.29397,34.73059],[8.29983,34.73196],[8.31271,34.72844],[8.31999,34.73341],[8.29382,34.74553],[8.28934,34.7599],[8.28168,34.76942],[8.28508,34.80545],[8.28044,34.81275],[8.27892,34.8358],[8.27385,34.8383],[8.27507,34.84582],[8.2707,34.85063],[8.27009,34.86503],[8.26095,34.87966],[8.26115,34.89526],[8.25603,34.90892],[8.24581,34.9202],[8.25539,34.92796],[8.26936,34.93255],[8.28445,34.94443],[8.29761,34.94651],[8.3014,34.95001],[8.30791,34.94723],[8.31566,34.94983],[8.31082,34.95472],[8.31777,34.99999],[8.31544,35.00901],[8.35712,35.09869],[8.39965,35.12735],[8.41636,35.15104],[8.42263,35.17924],[8.45673,35.22261],[8.47643,35.23961],[8.44622,35.237],[8.42111,35.24643],[8.40595,35.24638],[8.3784,35.26645],[8.36535,35.27025],[8.35892,35.2762],[8.33464,35.2795],[8.32457,35.28981],[8.32286,35.30032],[8.3123,35.31299],[8.31091,35.32002],[8.31224,35.32489],[8.31691,35.32592],[8.31756,35.34095],[8.31265,35.37095],[8.3299,35.40634],[8.32502,35.41329],[8.31533,35.41427],[8.33076,35.42376],[8.33914,35.44511],[8.34959,35.45376],[8.35325,35.46283],[8.37533,35.46801],[8.38356,35.46684],[8.38538,35.48735],[8.37436,35.49409],[8.35994,35.52578],[8.36303,35.53495],[8.35315,35.58204],[8.3506,35.61087],[8.35689,35.62109],[8.35992,35.63997],[8.35619,35.67012],[8.33657,35.6834],[8.31882,35.68507],[8.30793,35.69152],[8.28007,35.72249],[8.26434,35.7305],[8.2664,35.7383],[8.25825,35.76271],[8.26541,35.78259],[8.26432,35.79511],[8.27002,35.80996],[8.26853,35.81411],[8.27269,35.81881],[8.26686,35.87048],[8.26954,35.87995],[8.25327,35.88588],[8.26799,35.89797],[8.27154,35.90779],[8.2558,35.90828],[8.25638,35.91365],[8.2631,35.9184],[8.26303,35.93763],[8.2705,35.94619],[8.28937,35.95225],[8.30035,36.01196],[8.29577,36.03396],[8.2976,36.04147],[8.31381,36.06283],[8.3117,36.06916],[8.31954,36.07699],[8.32301,36.08847],[8.33732,36.09459],[8.34473,36.10282],[8.33932,36.11725],[8.3385,36.13789],[8.32534,36.14485],[8.3154,36.1583],[8.30874,36.16198],[8.30671,36.17279],[8.33082,36.19228],[8.33786,36.21294],[8.3472,36.22011],[8.34609,36.22537],[8.35402,36.23077],[8.35376,36.25433],[8.34882,36.26258],[8.3396,36.2663],[8.34726,36.27895],[8.36492,36.29402],[8.37178,36.29794],[8.38097,36.29698],[8.3832,36.30287],[8.39044,36.30433],[8.38008,36.31141],[8.37721,36.31775],[8.37639,36.3237],[8.38443,36.3302],[8.38496,36.33664],[8.37638,36.3499],[8.37737,36.35344],[8.39387,36.3651],[8.40199,36.37822],[8.39414,36.39408],[8.39855,36.40264],[8.40876,36.41064],[8.40686,36.42265],[8.3718,36.42837],[8.36736,36.43753],[8.35434,36.44609],[8.34259,36.43458],[8.32803,36.43324],[8.32742,36.43632],[8.31533,36.43813],[8.30646,36.43423],[8.303,36.44243],[8.28494,36.44576],[8.26105,36.43753],[8.24648,36.44696],[8.20863,36.44797],[8.20016,36.45297],[8.19896,36.45905],[8.19492,36.46091],[8.1764,36.45953],[8.16999,36.46308],[8.15837,36.47998],[8.16035,36.48788],[8.15424,36.49603],[8.15586,36.49941],[8.16173,36.49861],[8.17291,36.50405],[8.17767,36.51358],[8.19643,36.50843],[8.22404,36.51658],[8.22356,36.51972],[8.24777,36.52813],[8.2501,36.53349],[8.25673,36.53719],[8.26611,36.53509],[8.29223,36.54001],[8.31991,36.55723],[8.32635,36.5741],[8.38034,36.59794],[8.38806,36.59447],[8.39471,36.59813],[8.39767,36.61065],[8.40421,36.61707],[8.41766,36.62231],[8.43228,36.61857],[8.44813,36.62005],[8.44687,36.62373],[8.45966,36.65827],[8.45392,36.66257],[8.47006,36.66795],[8.4834,36.68211],[8.4831,36.69021],[8.48727,36.69712],[8.47899,36.70323],[8.46512,36.72693],[8.4645,36.73497],[8.47011,36.74132],[8.46419,36.74825],[8.45946,36.75126],[8.4449,36.74599],[8.43721,36.74663],[8.42959,36.75],[8.42946,36.75921],[8.48444,36.77938],[8.51806,36.77832],[8.52346,36.78204],[8.53097,36.77891],[8.53333,36.77413],[8.54942,36.77433],[8.554,36.7789],[8.56376,36.77363],[8.57271,36.77339],[8.57732,36.78076],[8.60075,36.79912],[8.61089,36.79103],[8.61874,36.79522],[8.62179,36.80119],[8.63001,36.80102],[8.65526,36.80954],[8.66999,36.81802],[8.68105,36.83888],[8.66753,36.8446],[8.66561,36.84918],[8.65398,36.84851],[8.63111,36.85598],[8.625,36.85376],[8.63125,36.8728],[8.62879,36.8862],[8.63215,36.8926],[8.63047,36.89719],[8.63686,36.90921],[8.65336,36.91622],[8.64263,36.92978],[8.64207,36.94095],[8.67848,36.95634],[8.68038,36.95956],[8.70407,36.96181],[8.70917,36.9667],[8.71655,36.96222],[8.72934,36.96636],[8.73671,36.96548],[8.74246,36.9696],[8.7553,36.95781],[8.75833,36.96141],[8.75624,36.96526],[8.76136,36.96579],[8.76236,36.95449],[8.77133,36.95181],[8.795,36.95737],[8.82506,36.97296],[8.8321,36.97323],[8.88392,37.00733],[8.95436,37.0621],[8.96269,37.07675],[8.98305,37.09602],[8.98866,37.10848],[9.00277,37.11478],[9.01047,37.1212],[9.01208,37.12685],[9.02042,37.12788],[9.02524,37.13661],[9.03968,37.14072],[9.05412,37.1506],[9.07371,37.15637],[9.10613,37.16136],[9.11865,37.16045],[9.12459,37.1643],[9.12541,37.1693],[9.154,37.18327],[9.17171,37.20277],[9.17556,37.20251],[9.17816,37.21278],[9.18653,37.22099],[9.21614,37.24046],[9.21903,37.2402],[9.21995,37.22736],[9.22413,37.22735],[9.22571,37.21861],[9.23502,37.21692],[9.25494,37.21611],[9.26138,37.22098],[9.27358,37.22082],[9.29708,37.23194],[9.33081,37.23121],[9.37266,37.24791],[9.38717,37.25724],[9.39041,37.26365],[9.4036,37.26489],[9.40845,37.2695],[9.43641,37.26914],[9.4563,37.26303],[9.51366,37.28399],[9.53627,37.29969],[9.54301,37.29773],[9.55818,37.30524],[9.56269,37.3056],[9.57546,37.29411],[9.59221,37.29724],[9.6704,37.33947],[9.6797,37.33543],[9.69034,37.33897],[9.70414,37.33426],[9.7225,37.33749],[9.74464,37.34699],[9.75477,37.34654],[9.75987,37.34227],[9.76045,37.3361],[9.7861,37.32732],[9.80251,37.32747],[9.82319,37.33632],[9.84278,37.3331],[9.86354,37.33385],[9.86978,37.31685],[9.86835,37.30427],[9.87499,37.29472],[9.87618,37.28649],[9.88494,37.27936],[9.8785,37.27851],[9.8794,37.2731],[9.87647,37.2694],[9.86612,37.26434],[9.85158,37.26311],[9.85072,37.26112],[9.85932,37.25938],[9.85945,37.25707],[9.82154,37.24385],[9.82425,37.23724],[9.80966,37.24305],[9.80476,37.23848],[9.7813,37.2368],[9.78048,37.21882],[9.77057,37.22351],[9.76763,37.21748],[9.77496,37.21366],[9.77703,37.20279],[9.78562,37.20337],[9.78551,37.2094],[9.78752,37.20156],[9.77962,37.18708],[9.78822,37.175],[9.80128,37.17044],[9.80114,37.16782],[9.80975,37.16237],[9.80687,37.148],[9.81019,37.14387],[9.82491,37.1394],[9.86464,37.13487],[9.87496,37.1393],[9.88567,37.14911],[9.91272,37.15674],[9.92217,37.16874],[9.93655,37.20228],[9.93861,37.21356],[9.93375,37.22324],[9.92512,37.22613],[9.88479,37.22554],[9.86141,37.23189],[9.84709,37.2298],[9.8472,37.22723],[9.84217,37.22941],[9.83662,37.22468],[9.82167,37.22561],[9.82318,37.23138],[9.82974,37.22966],[9.83783,37.23436],[9.84014,37.24012],[9.8663,37.25188],[9.87029,37.26315],[9.8821,37.27026],[9.9043,37.2584],[9.97647,37.24717],[10.01701,37.25145],[10.06706,37.26848],[10.07047,37.25894],[10.07842,37.25348],[10.08724,37.24068],[10.12318,37.23778],[10.14618,37.22921],[10.16086,37.22238],[10.16781,37.21487],[10.19178,37.20731],[10.19491,37.20239],[10.20864,37.19699],[10.20903,37.19133],[10.21425,37.1864],[10.25751,37.18145],[10.27872,37.18264],[10.27991,37.17684],[10.25591,37.17235],[10.23974,37.15505],[10.23167,37.15205],[10.22111,37.15409],[10.22308,37.16653],[10.22007,37.16938],[10.19986,37.17023],[10.19436,37.16708],[10.16226,37.16752],[10.15163,37.16467],[10.1347,37.14163],[10.13844,37.14168],[10.1387,37.1377],[10.14158,37.13703],[10.14212,37.12983],[10.16161,37.12463],[10.17959,37.12561],[10.17468,37.11949],[10.1938,37.11147],[10.21659,37.11239],[10.20637,37.13536],[10.20662,37.141],[10.21296,37.14582],[10.21071,37.13583],[10.21821,37.11155]]],[[[11.30775,34.74381],[11.30775,34.74946],[11.31563,34.75843],[11.33406,34.76065],[11.34332,34.75777],[11.31887,34.75195],[11.30775,34.74381]]],[[[11.33557,34.81445],[11.32944,34.81803],[11.3126,34.81733],[11.30443,34.82583],[11.30578,34.82966],[11.31353,34.82823],[11.32111,34.82063],[11.33557,34.81445]]],[[[11.24532,34.80073],[11.2447,34.80639],[11.25501,34.80184],[11.25486,34.80775],[11.24438,34.8177],[11.24516,34.82334],[11.25069,34.82632],[11.24875,34.82919],[11.26387,34.82402],[11.26772,34.81085],[11.28012,34.80304],[11.28416,34.80823],[11.27898,34.81809],[11.29723,34.81338],[11.31071,34.80541],[11.31025,34.7999],[11.30387,34.80567],[11.28763,34.80444],[11.28616,34.80177],[11.28901,34.79799],[11.29424,34.79571],[11.28651,34.792],[11.29435,34.77708],[11.29005,34.77921],[11.28216,34.77538],[11.27674,34.78216],[11.27193,34.77711],[11.27887,34.77467],[11.27722,34.76545],[11.30193,34.74726],[11.30501,34.73499],[11.2979,34.73089],[11.28284,34.73233],[11.27233,34.72366],[11.25155,34.72045],[11.25216,34.71402],[11.2477,34.71037],[11.22773,34.70817],[11.20809,34.70095],[11.20299,34.7022],[11.18583,34.69441],[11.12371,34.66185],[11.1227,34.65878],[11.1066,34.65534],[11.08888,34.64318],[11.08248,34.64226],[11.06451,34.62574],[11.04885,34.62086],[11.04979,34.61481],[11.04665,34.61383],[11.02882,34.62814],[11.00706,34.63453],[10.96918,34.65609],[10.97637,34.6579],[10.98723,34.66981],[10.99694,34.67286],[11.01555,34.6705],[11.03799,34.67269],[11.04971,34.66864],[11.05915,34.67285],[11.0787,34.67123],[11.08934,34.67388],[11.0942,34.66917],[11.11345,34.66781],[11.12263,34.66187],[11.12567,34.66345],[11.12287,34.67163],[11.12596,34.67697],[11.12216,34.68012],[11.13314,34.68378],[11.13662,34.6922],[11.13386,34.69996],[11.15115,34.70659],[11.15813,34.71777],[11.15715,34.72216],[11.17444,34.72879],[11.1683,34.73523],[11.16933,34.73836],[11.18066,34.7405],[11.17016,34.7615],[11.18029,34.76196],[11.1798,34.7549],[11.18492,34.74839],[11.19813,34.74172],[11.21558,34.74269],[11.21956,34.74005],[11.22546,34.74534],[11.22382,34.74794],[11.22902,34.75041],[11.22668,34.76176],[11.23105,34.76219],[11.23302,34.76601],[11.21986,34.77473],[11.21671,34.78481],[11.22693,34.7827],[11.23605,34.78613],[11.23092,34.7807],[11.23493,34.77908],[11.23837,34.77979],[11.24352,34.79151],[11.25386,34.78811],[11.25367,34.79274],[11.24532,34.80073]]],[[[11.3079,34.76038],[11.29253,34.77313],[11.30035,34.77452],[11.30034,34.76836],[11.3079,34.76038]]],[[[11.23149,34.79019],[11.21745,34.80073],[11.22553,34.80007],[11.23149,34.79019]]],[[[11.15889,35.21673],[11.15828,35.22907],[11.16066,35.2244],[11.15889,35.21673]]],[[[11.04622,35.62745],[11.03982,35.63591],[11.04299,35.63676],[11.04622,35.62745]]],[[[11.02575,35.78876],[11.02033,35.79283],[11.028,35.80285],[11.04067,35.80508],[11.04558,35.79985],[11.03875,35.79162],[11.02575,35.78876]]],[[[11.01089,35.76229],[11.00189,35.7677],[11.00259,35.77052],[11.00924,35.77169],[11.01365,35.76545],[11.01089,35.76229]]],[[[10.9975,33.65973],[10.99281,33.66315],[10.98826,33.6789],[10.98325,33.68167],[10.98877,33.68094],[10.99235,33.67652],[10.9975,33.65973]]],[[[10.87046,33.58359],[10.86072,33.60173],[10.86568,33.60409],[10.8736,33.60102],[10.87046,33.58359]]],[[[10.79531,37.1157],[10.78931,37.12671],[10.80334,37.13651],[10.80623,37.14315],[10.81451,37.12748],[10.81928,37.12574],[10.82025,37.1193],[10.79531,37.1157]]],[[[10.77917,33.68388],[10.76842,33.69149],[10.76835,33.6956],[10.77879,33.69494],[10.77917,33.68388]]],[[[10.72246,33.72247],[10.70803,33.73166],[10.7095,33.73601],[10.7207,33.74228],[10.72246,33.72247]]],[[[10.45744,33.63811],[10.45598,33.64236],[10.45887,33.64105],[10.45744,33.63811]]],[[[10.31981,34.35865],[10.30533,34.36356],[10.30327,34.37065],[10.31055,34.38034],[10.31303,34.38082],[10.32073,34.36789],[10.31981,34.35865]]],[[[10.30341,33.7348],[10.29367,33.74171],[10.29098,33.74649],[10.30341,33.7348]]],[[[10.18203,37.07626],[10.19851,37.08419],[10.19847,37.08213],[10.18203,37.07626]]],[[[9.79033,37.21733],[9.78801,37.21527],[9.78294,37.21747],[9.78409,37.22702],[9.79963,37.23745],[9.80964,37.23348],[9.79915,37.21843],[9.79033,37.21733]]],[[[9.77779,37.20734],[9.77714,37.20707],[9.77702,37.20851],[9.77779,37.20734]]],[[[8.91281,37.51345],[8.90346,37.51422],[8.89926,37.52063],[8.90861,37.52475],[8.91118,37.52963],[8.93666,37.53248],[8.94085,37.54147],[8.94569,37.54199],[8.94827,37.53582],[8.95827,37.52863],[8.95344,37.51733],[8.95022,37.51643],[8.93796,37.52387],[8.91281,37.51345]]],[[[8.8835,37.49223],[8.87834,37.49493],[8.88446,37.49442],[8.8835,37.49223]]],[[[8.87672,37.49441],[8.86995,37.4962],[8.87285,37.50006],[8.87865,37.49852],[8.87672,37.49441]]]]}}]}