{"type":"FeatureCollection","features":[{"type":"Feature","properties":{"ISO_A3":"TUV","WB_A3":"TUV","WB_NAME":"Tuvalu","WB_REGION":"EAS"},"geometry":{"type":"MultiPolygon","coordinates":[[[[179.86512,-9.43246],[179.86172,-9.42927],[179.86663,-9.42717],[179.87028,-9.41376],[179.86622,-9.39371],[179.87157,-9.41375],[179.86512,-9.43246]]],[[[179.86125,-9.4352],[179.85319,-9.43269],[179.86043,-9.4298],[179.86125,-9.4352]]],[[[179.85267,-9.43218],[179.84978,-9.42783],[179.8534,-9.42651],[179.85267,-9.43218]]],[[[179.84547,-9.37611],[179.84048,-9.36842],[179.83957,-9.35273],[179.83124,-9.34867],[179.8214,-9.35004],[179.8219,-9.34707],[179.83305,-9.34737],[179.83982,-9.35169],[179.84189,-9.36635],[179.847,-9.37378],[179.84547,-9.37611]]],[[[179.84172,-9.42557],[179.84039,-9.42121],[179.84377,-9.42195],[179.84172,-9.42557]]],[[[179.81393,-9.35576],[179.81235,-9.35243],[179.81957,-9.34825],[179.82012,-9.35185],[179.81393,-9.35576]]],[[[179.81285,-9.38216],[179.80933,-9.38026],[179.80785,-9.37383],[179.81091,-9.3675],[179.80968,-9.37562],[179.81285,-9.38216]]],[[[179.47482,-10.7919],[179.46853,-10.78718],[179.47791,-10.78711],[179.47482,-10.7919]]],[[[179.1942,-8.49381],[179.20302,-8.52107],[179.18229,-8.53832],[179.16975,-8.5425],[179.14101,-8.56096],[179.19155,-8.52886],[179.19885,-8.51543],[179.1942,-8.49381]]],[[[179.12343,-8.42599],[179.12397,-8.4288],[179.11712,-8.42598],[179.12343,-8.42599]]],[[[179.0984,-8.62141],[179.10402,-8.63281],[179.07938,-8.64523],[179.07854,-8.64252],[179.08362,-8.64262],[179.10165,-8.63207],[179.0984,-8.62141]]],[[[179.08019,-8.46558],[179.07835,-8.4607],[179.08172,-8.46171],[179.08019,-8.46558]]],[[[179.07669,-8.63177],[179.0749,-8.63616],[179.07712,-8.63924],[179.07441,-8.64183],[179.07258,-8.63746],[179.07669,-8.63177]]],[[[178.68235,-7.49923],[178.66272,-7.46387],[178.66644,-7.45806],[178.67213,-7.45971],[178.67124,-7.46229],[178.68186,-7.4723],[178.68252,-7.4759],[178.67789,-7.48005],[178.68206,-7.49034],[178.68772,-7.48619],[178.68124,-7.47952],[178.68355,-7.47435],[178.69791,-7.48306],[178.69793,-7.48899],[178.69138,-7.49752],[178.68235,-7.49923]]],[[[178.38728,-8.0362],[178.40257,-8.00986],[178.42936,-7.97936],[178.43256,-7.97033],[178.43136,-7.96105],[178.43748,-7.97418],[178.40065,-8.01348],[178.39565,-8.0269],[178.386,-8.04007],[178.38577,-8.04884],[178.38012,-8.05891],[178.38004,-8.07385],[178.37694,-8.07451],[178.37156,-8.06426],[178.37818,-8.06072],[178.38728,-8.0362]]],[[[178.37905,-7.93314],[178.37748,-7.92902],[178.38383,-7.9339],[178.37905,-7.93314]]],[[[178.32589,-8.04233],[178.32665,-8.03808],[178.33261,-8.04051],[178.32589,-8.04233]]],[[[178.31757,-8.03371],[178.32121,-8.03487],[178.32019,-8.0381],[178.31605,-8.03721],[178.31757,-8.03371]]],[[[178.31317,-8.02614],[178.31822,-8.03127],[178.31455,-8.0354],[178.30581,-8.03183],[178.30825,-8.02615],[178.31317,-8.02614]]],[[[177.33218,-6.10926],[177.33089,-6.10513],[177.33424,-6.1032],[177.34995,-6.10422],[177.35343,-6.11156],[177.33862,-6.11479],[177.33218,-6.10926]]],[[[177.16023,-7.25338],[177.14836,-7.25119],[177.14474,-7.24423],[177.14758,-7.24036],[177.15145,-7.24758],[177.16204,-7.25015],[177.15855,-7.23855],[177.16255,-7.23288],[177.16591,-7.23288],[177.16643,-7.24422],[177.16023,-7.25338]]],[[[177.16203,-7.22656],[177.16039,-7.21956],[177.16409,-7.21741],[177.16487,-7.22618],[177.16203,-7.22656]]],[[[177.16125,-7.2178],[177.15945,-7.21277],[177.1628,-7.21045],[177.16384,-7.21715],[177.16125,-7.2178]]],[[[177.15867,-7.21638],[177.15506,-7.20891],[177.14757,-7.20594],[177.14434,-7.19731],[177.14808,-7.19009],[177.15286,-7.19421],[177.15041,-7.19834],[177.15712,-7.19937],[177.15987,-7.20366],[177.15867,-7.21638]]],[[[176.31325,-6.28758],[176.32023,-6.27431],[176.32448,-6.27728],[176.32626,-6.29326],[176.32148,-6.30164],[176.31672,-6.29867],[176.31325,-6.28758]]],[[[176.11922,-5.66214],[176.12654,-5.67247],[176.13358,-5.69954],[176.11007,-5.67038],[176.11406,-5.67013],[176.12305,-5.68187],[176.12563,-5.68097],[176.11845,-5.66369],[176.10945,-5.66032],[176.111,-5.65762],[176.11922,-5.66214]]],[[[176.07806,-5.65344],[176.06237,-5.64826],[176.05929,-5.64297],[176.07267,-5.64673],[176.07806,-5.65344]]]]}}]}