{"type":"FeatureCollection","features":[{"type":"Feature","properties":{"ISO_A3":"UGA","WB_A3":"UGA","WB_NAME":"Uganda","WB_REGION":"AFE,SSF"},"geometry":{"type":"MultiPolygon","coordinates":[[[[32.75043,-1],[30.79914,-0.99938],[30.76808,-0.98474],[30.75286,-0.99186],[30.74364,-1.00352],[30.735,-1.00749],[30.71862,-1.01424],[30.69889,-1.01497],[30.67267,-1.03708],[30.66859,-1.05098],[30.66118,-1.05976],[30.64432,-1.06653],[30.62448,-1.0683],[30.61036,-1.06459],[30.59455,-1.06514],[30.5832,-1.06084],[30.56619,-1.0664],[30.55934,-1.06441],[30.53859,-1.0755],[30.53227,-1.07391],[30.52835,-1.07627],[30.5089,-1.07276],[30.49062,-1.05878],[30.47312,-1.05741],[30.46648,-1.0552],[30.46755,-1.05262],[30.46018,-1.05323],[30.44772,-1.04738],[30.43763,-1.04975],[30.43799,-1.05262],[30.43077,-1.05807],[30.43073,-1.06273],[30.42562,-1.06486],[30.39801,-1.06231],[30.39086,-1.06896],[30.37623,-1.06185],[30.37394,-1.06995],[30.36963,-1.06517],[30.35606,-1.06162],[30.3494,-1.06971],[30.35133,-1.0792],[30.34902,-1.08694],[30.3393,-1.09607],[30.34342,-1.13222],[30.33565,-1.13157],[30.30714,-1.14498],[30.30269,-1.15008],[30.29755,-1.1596],[30.29256,-1.18908],[30.27795,-1.19952],[30.27585,-1.21007],[30.26777,-1.21165],[30.25431,-1.2204],[30.24497,-1.2385],[30.21373,-1.26905],[30.21086,-1.27646],[30.20467,-1.2727],[30.19782,-1.27418],[30.19786,-1.28084],[30.19103,-1.28172],[30.18753,-1.2707],[30.16967,-1.27442],[30.17454,-1.30169],[30.16766,-1.30555],[30.16199,-1.31761],[30.16512,-1.32761],[30.16309,-1.33489],[30.16993,-1.34517],[30.15272,-1.35144],[30.14529,-1.35055],[30.13749,-1.36139],[30.12977,-1.36298],[30.12228,-1.38426],[30.11842,-1.38495],[30.11209,-1.37618],[30.10478,-1.37249],[30.09946,-1.37606],[30.08135,-1.37315],[30.06993,-1.38276],[30.07046,-1.3917],[30.05228,-1.40102],[30.05585,-1.42134],[30.05374,-1.43113],[30.04174,-1.42704],[30.03747,-1.42147],[30.0249,-1.41725],[30.02156,-1.41284],[30.01424,-1.41608],[30.01145,-1.42544],[30.00007,-1.43516],[29.99612,-1.44778],[29.98711,-1.45019],[29.97859,-1.4586],[29.96167,-1.46143],[29.93446,-1.47208],[29.92619,-1.48132],[29.91577,-1.48232],[29.89381,-1.45187],[29.89065,-1.42868],[29.88558,-1.42335],[29.88729,-1.41177],[29.8837,-1.40629],[29.88191,-1.35686],[29.86979,-1.35589],[29.86151,-1.36097],[29.8497,-1.33885],[29.84139,-1.33369],[29.84016,-1.32555],[29.84301,-1.3228],[29.84085,-1.31929],[29.83039,-1.3156],[29.82459,-1.30881],[29.81906,-1.31451],[29.8195,-1.32761],[29.80955,-1.32937],[29.79654,-1.35017],[29.79686,-1.37324],[29.77679,-1.3664],[29.75824,-1.34551],[29.73299,-1.34071],[29.7119,-1.34577],[29.70956,-1.35137],[29.69041,-1.36313],[29.67769,-1.38305],[29.64667,-1.38565],[29.63913,-1.38942],[29.59157,-1.38771],[29.6079,-1.31784],[29.60051,-1.3033],[29.5934,-1.27369],[29.59622,-1.2524],[29.60554,-1.24514],[29.60773,-1.23151],[29.60416,-1.22495],[29.60839,-1.22094],[29.58552,-1.20481],[29.58475,-1.19989],[29.57458,-1.19151],[29.57365,-1.18556],[29.57723,-1.18515],[29.58167,-1.17818],[29.57845,-1.17161],[29.57965,-1.16581],[29.58676,-1.15636],[29.58062,-1.1478],[29.57671,-1.12959],[29.58065,-1.12183],[29.57908,-1.11136],[29.58327,-1.10576],[29.5908,-1.05358],[29.58354,-1.01966],[29.58987,-0.98938],[29.58701,-0.98393],[29.59019,-0.98054],[29.59444,-0.98734],[29.59926,-0.98747],[29.60235,-0.98155],[29.59338,-0.97279],[29.59363,-0.95838],[29.58727,-0.94303],[29.59409,-0.93271],[29.59215,-0.92699],[29.58474,-0.92177],[29.58189,-0.90685],[29.58918,-0.90052],[29.63826,-0.90053],[29.62937,-0.88514],[29.63143,-0.88317],[29.62705,-0.86284],[29.62744,-0.85676],[29.6412,-0.83],[29.64102,-0.82185],[29.63186,-0.80702],[29.63353,-0.79894],[29.62708,-0.79398],[29.62783,-0.78945],[29.63163,-0.78781],[29.62722,-0.77966],[29.63253,-0.77221],[29.62883,-0.75543],[29.63218,-0.74594],[29.62904,-0.74106],[29.63128,-0.73484],[29.62558,-0.72469],[29.62825,-0.71825],[29.62652,-0.70613],[29.63584,-0.69533],[29.63569,-0.6859],[29.63858,-0.68312],[29.6364,-0.67705],[29.64227,-0.67322],[29.65169,-0.65768],[29.65188,-0.6416],[29.66385,-0.62564],[29.65834,-0.62002],[29.65733,-0.61094],[29.65029,-0.59786],[29.65515,-0.59562],[29.65315,-0.59221],[29.65547,-0.58759],[29.66538,-0.58226],[29.66784,-0.57584],[29.6555,-0.56568],[29.65379,-0.55338],[29.65699,-0.54027],[29.66417,-0.53685],[29.6663,-0.54187],[29.66999,-0.54219],[29.67463,-0.53853],[29.67211,-0.53014],[29.67452,-0.52135],[29.67182,-0.51784],[29.67267,-0.5058],[29.6828,-0.49635],[29.6708,-0.47438],[29.65883,-0.46745],[29.73234,-0.08042],[29.72958,-0.07307],[29.73364,-0.06818],[29.73048,-0.06083],[29.72962,-0.04156],[29.73902,-0.0371],[29.7448,-0.02817],[29.74157,-0.02372],[29.73443,-0.02264],[29.7325,-0.01161],[29.72572,-0.00277],[29.72821,0.00586],[29.72364,0.01063],[29.72844,0.01678],[29.72134,0.02145],[29.72176,0.03102],[29.71639,0.03399],[29.72029,0.04055],[29.71674,0.05214],[29.72127,0.05865],[29.7164,0.07309],[29.73012,0.07909],[29.73565,0.08901],[29.73477,0.10932],[29.7403,0.12027],[29.7364,0.12501],[29.75025,0.13165],[29.7642,0.14522],[29.76974,0.15233],[29.76925,0.16393],[29.77378,0.16263],[29.78182,0.168],[29.78528,0.16523],[29.78986,0.16956],[29.81429,0.16405],[29.81992,0.16576],[29.82387,0.17213],[29.87277,0.38552],[29.98017,0.50873],[29.97807,0.52861],[29.98065,0.5324],[29.97589,0.53623],[29.97599,0.54251],[29.98008,0.54606],[29.98211,0.5573],[29.97761,0.55872],[29.97612,0.56326],[29.97283,0.56028],[29.96954,0.56654],[29.97243,0.56781],[29.96778,0.57611],[29.97184,0.58478],[29.96961,0.59172],[29.97254,0.59867],[29.95438,0.6387],[29.96388,0.67445],[29.96258,0.68008],[29.96764,0.68374],[29.97167,0.69315],[29.97042,0.72444],[29.97747,0.74232],[29.96703,0.76066],[29.96883,0.76504],[29.96366,0.77917],[29.97131,0.79406],[29.97344,0.81454],[29.98348,0.82825],[29.98604,0.83705],[29.99144,0.83976],[29.98973,0.84688],[29.99567,0.84788],[30.00206,0.84449],[30.00279,0.85006],[30.0073,0.85084],[30.00768,0.85463],[30.01323,0.85189],[30.01527,0.85783],[30.02891,0.85589],[30.02982,0.85989],[30.03604,0.86056],[30.0379,0.86508],[30.04192,0.86375],[30.04205,0.86717],[30.04942,0.87109],[30.0527,0.86664],[30.05818,0.8722],[30.06339,0.87049],[30.06568,0.87819],[30.07152,0.87909],[30.07252,0.8836],[30.0828,0.87899],[30.08482,0.88181],[30.0969,0.88293],[30.09925,0.89112],[30.10357,0.88802],[30.10522,0.88981],[30.10444,0.8944],[30.10972,0.89143],[30.11749,0.89481],[30.12707,0.89059],[30.12803,0.88634],[30.13202,0.89157],[30.13523,0.89022],[30.13372,0.88469],[30.13599,0.88262],[30.14693,0.88456],[30.1453,0.8887],[30.15157,0.88476],[30.15511,0.88619],[30.15201,0.8928],[30.15527,0.89506],[30.15434,0.89865],[30.15953,0.90324],[30.16506,0.90003],[30.16197,0.91176],[30.17132,0.905],[30.1704,0.91161],[30.17535,0.91407],[30.1691,0.92235],[30.17399,0.92483],[30.17048,0.92727],[30.17345,0.92844],[30.17682,0.94468],[30.18536,0.94434],[30.18019,0.94988],[30.18026,0.95408],[30.18364,0.9548],[30.1877,0.94702],[30.19163,0.95194],[30.18453,0.95794],[30.18865,0.9589],[30.19444,0.95477],[30.19241,0.95965],[30.18419,0.96156],[30.18709,0.96458],[30.19331,0.96308],[30.19512,0.96615],[30.19046,0.97205],[30.19484,0.97176],[30.20087,0.96498],[30.20364,0.96573],[30.20091,0.97776],[30.20434,0.97828],[30.2053,0.97341],[30.21149,0.97564],[30.21629,0.97376],[30.21881,0.97676],[30.20949,0.97934],[30.20879,0.98208],[30.21712,0.98465],[30.21398,0.98903],[30.21618,0.99048],[30.22136,0.98295],[30.22362,0.98619],[30.22668,0.9848],[30.22791,0.99395],[30.22428,0.99246],[30.22263,0.99527],[30.23445,1.00039],[30.23466,1.00364],[30.2238,1.00235],[30.22854,1.01094],[30.22378,1.01462],[30.22835,1.02953],[30.22562,1.03227],[30.23001,1.04011],[30.22881,1.04557],[30.22083,1.04574],[30.2261,1.05186],[30.22201,1.05268],[30.22193,1.05541],[30.22844,1.05404],[30.23009,1.05687],[30.22419,1.06146],[30.22662,1.06764],[30.23094,1.06815],[30.22934,1.07249],[30.23294,1.07269],[30.22625,1.0778],[30.23199,1.08294],[30.2339,1.08958],[30.23941,1.09145],[30.24128,1.09812],[30.23883,1.10245],[30.24354,1.10531],[30.23472,1.12589],[30.23818,1.13485],[30.24791,1.14225],[30.26163,1.14462],[30.26582,1.15214],[30.2699,1.15317],[30.26868,1.16243],[30.27314,1.162],[30.27506,1.16641],[30.27851,1.16403],[30.28366,1.16563],[30.2904,1.17304],[30.2937,1.17261],[30.30019,1.16167],[30.30931,1.16744],[30.31168,1.15232],[30.32122,1.15351],[30.32347,1.15754],[30.32711,1.15137],[30.33666,1.15041],[30.34133,1.16363],[30.33892,1.16927],[30.34169,1.17716],[30.34772,1.18349],[30.3474,1.18798],[30.35136,1.18898],[30.359,1.19968],[30.36106,1.20365],[30.35897,1.20972],[30.36709,1.22027],[30.38657,1.2257],[30.39117,1.23294],[30.40973,1.22916],[30.42027,1.23962],[30.42892,1.23875],[30.43776,1.24449],[30.44853,1.25611],[30.4601,1.25784],[30.46871,1.27019],[30.52702,1.27212],[30.73558,1.5],[31.28421,2],[31.32013,2.11667],[31.32012,2.14349],[31.24816,2.19818],[31.2037,2.21829],[31.20349,2.29225],[31.19821,2.28705],[31.17471,2.28136],[31.16838,2.27619],[31.14149,2.28121],[31.13274,2.26419],[31.12506,2.26415],[31.11975,2.27067],[31.11406,2.27027],[31.09777,2.27955],[31.09501,2.28612],[31.08741,2.28764],[31.08403,2.29509],[31.07688,2.29585],[31.07664,2.29915],[31.07044,2.30284],[31.08091,2.30192],[31.08585,2.30869],[31.07451,2.32029],[31.07048,2.32982],[31.06897,2.33636],[31.07424,2.34337],[31.03874,2.36888],[31.02757,2.38153],[31.01288,2.38714],[31.00928,2.3977],[31.00201,2.39609],[30.99069,2.40351],[30.96581,2.40108],[30.95897,2.3948],[30.95414,2.39718],[30.94319,2.37234],[30.94425,2.36355],[30.94993,2.36131],[30.94744,2.3516],[30.93579,2.3322],[30.92905,2.33206],[30.92628,2.33574],[30.91588,2.33844],[30.91201,2.33558],[30.91134,2.3299],[30.90624,2.32951],[30.89231,2.33778],[30.88439,2.33826],[30.87304,2.36711],[30.86632,2.36822],[30.86544,2.37392],[30.8583,2.37487],[30.84987,2.38102],[30.84705,2.39414],[30.83975,2.40308],[30.84114,2.40796],[30.83428,2.41425],[30.83326,2.42388],[30.82278,2.42093],[30.8155,2.42353],[30.80574,2.42206],[30.78909,2.4318],[30.78454,2.43077],[30.77976,2.43598],[30.77042,2.42765],[30.76605,2.42848],[30.75667,2.42341],[30.75317,2.41661],[30.74926,2.43828],[30.74254,2.44482],[30.74079,2.45133],[30.74491,2.45636],[30.74715,2.48903],[30.75019,2.49285],[30.75888,2.49453],[30.76278,2.5078],[30.75802,2.52636],[30.75954,2.54994],[30.75602,2.5541],[30.75994,2.56172],[30.75362,2.56902],[30.75477,2.57435],[30.75045,2.58461],[30.7603,2.59349],[30.77635,2.59976],[30.77903,2.60465],[30.79046,2.63194],[30.78775,2.63485],[30.78814,2.64284],[30.79242,2.64457],[30.79826,2.65825],[30.79764,2.66706],[30.80789,2.6826],[30.80842,2.70266],[30.82694,2.7271],[30.82414,2.74556],[30.8366,2.75354],[30.8367,2.76264],[30.8397,2.7646],[30.84571,2.76243],[30.84797,2.7664],[30.86037,2.77069],[30.8682,2.79059],[30.88503,2.81098],[30.88567,2.83467],[30.89148,2.85589],[30.88774,2.87947],[30.87513,2.88884],[30.8749,2.89832],[30.8697,2.90125],[30.8655,2.91925],[30.85904,2.92506],[30.85436,2.94224],[30.85574,2.96024],[30.83741,2.97221],[30.83245,2.98134],[30.82525,2.98638],[30.82636,2.99766],[30.82117,3.00725],[30.81039,3.00365],[30.80342,3.00497],[30.79401,3.01494],[30.78138,3.02056],[30.77869,3.02411],[30.78032,3.03356],[30.76967,3.0437],[30.76924,3.04822],[30.77664,3.05687],[30.7921,3.0603],[30.79496,3.06507],[30.79454,3.08862],[30.80047,3.1007],[30.80304,3.1332],[30.8087,3.13928],[30.81577,3.17415],[30.82903,3.20204],[30.83099,3.22394],[30.84191,3.23528],[30.84317,3.24144],[30.83698,3.24941],[30.83849,3.26123],[30.84226,3.26724],[30.86507,3.27276],[30.87178,3.27784],[30.86776,3.28375],[30.87641,3.292],[30.87509,3.30261],[30.8879,3.3134],[30.8917,3.31299],[30.89372,3.31817],[30.89372,3.33023],[30.88871,3.33588],[30.88915,3.33984],[30.89592,3.3439],[30.90307,3.35758],[30.91036,3.35988],[30.91856,3.37451],[30.91895,3.38798],[30.92583,3.38945],[30.93681,3.39993],[30.93856,3.42239],[30.93626,3.44285],[30.9378,3.46],[30.94266,3.46488],[30.94299,3.4798],[30.93874,3.50519],[30.92212,3.50606],[30.90405,3.50119],[30.89877,3.50312],[30.88939,3.49387],[30.88231,3.49137],[30.87843,3.48221],[30.87005,3.47814],[30.86052,3.48037],[30.84896,3.48826],[30.84809,3.49478],[30.85236,3.50064],[30.85167,3.49006],[30.86623,3.49365],[30.88704,3.55233],[30.90322,3.5742],[30.90912,3.59415],[30.92068,3.59913],[30.92652,3.61573],[30.92956,3.61887],[30.93923,3.61898],[30.94233,3.62918],[30.94882,3.63307],[30.94788,3.6534],[30.95589,3.66839],[30.96886,3.67641],[30.97234,3.69098],[30.97645,3.69535],[30.98056,3.69903],[30.98768,3.69954],[30.98832,3.70349],[31.00198,3.7074],[31.00748,3.70663],[31.01999,3.69351],[31.0263,3.6957],[31.05935,3.71884],[31.06322,3.73019],[31.06108,3.73642],[31.06464,3.73992],[31.07414,3.74432],[31.08909,3.74122],[31.09054,3.73513],[31.093,3.73488],[31.09412,3.73973],[31.10038,3.73599],[31.10413,3.74176],[31.09991,3.74468],[31.10559,3.75066],[31.108,3.74903],[31.11001,3.75292],[31.11827,3.75418],[31.12856,3.76519],[31.13325,3.76498],[31.13618,3.76959],[31.15283,3.77782],[31.16287,3.79049],[31.1855,3.79417],[31.29054,3.79371],[31.54522,3.6509],[31.57741,3.67584],[31.63316,3.68968],[31.69309,3.70873],[31.6996,3.71529],[31.70387,3.71203],[31.70818,3.71727],[31.71219,3.71698],[31.72485,3.73372],[31.73067,3.75301],[31.73702,3.74759],[31.73941,3.74906],[31.75691,3.76644],[31.80184,3.79961],[31.80366,3.80618],[31.79615,3.81482],[31.79783,3.81966],[31.79307,3.8283],[31.80316,3.83599],[31.82011,3.8254],[31.84243,3.80294],[31.87301,3.78294],[31.87738,3.77712],[31.87718,3.76466],[31.88296,3.75899],[31.88948,3.76005],[31.89518,3.75498],[31.90248,3.73854],[31.90757,3.73694],[31.91404,3.72537],[31.91184,3.71876],[31.92256,3.71104],[31.94282,3.6692],[31.9456,3.65384],[31.94326,3.64753],[31.94698,3.64482],[31.9544,3.60773],[31.95438,3.58687],[32.04005,3.58594],[32.04335,3.59235],[32.04763,3.58905],[32.0538,3.59105],[32.05431,3.58809],[32.06089,3.58542],[32.05705,3.58093],[32.06268,3.58035],[32.06311,3.57545],[32.07102,3.57507],[32.06962,3.57117],[32.07271,3.57153],[32.07248,3.5667],[32.07689,3.56809],[32.08397,3.56137],[32.08212,3.55104],[32.08937,3.54606],[32.08692,3.54109],[32.08994,3.53582],[32.08359,3.53413],[32.08691,3.52991],[32.1006,3.52991],[32.20254,3.50513],[32.20502,3.51376],[32.20188,3.52378],[32.21088,3.53812],[32.20802,3.5419],[32.20985,3.55319],[32.21884,3.56123],[32.21454,3.56626],[32.21609,3.57508],[32.20841,3.59206],[32.20399,3.5906],[32.19589,3.59482],[32.19672,3.59843],[32.41524,3.74401],[32.72003,3.76507],[32.90236,3.81356],[33.02863,3.89072],[33.1943,3.77761],[33.51247,3.74907],[33.99206,4.21863],[34.04738,4.17554],[34.06638,4.14007],[34.05009,4.11825],[34.06375,4.09111],[34.08054,4.0827],[34.09227,4.05957],[34.0923,4.04499],[34.08978,4.03448],[34.06026,4.02512],[34.06178,4.00727],[34.0805,4.00109],[34.10484,3.97562],[34.13455,3.95947],[34.11947,3.89916],[34.11486,3.89392],[34.09131,3.88274],[34.08894,3.85835],[34.12784,3.86944],[34.14907,3.86628],[34.16772,3.86742],[34.17562,3.87722],[34.21583,3.87894],[34.22555,3.84711],[34.22555,3.82748],[34.17944,3.82857],[34.16345,3.80753],[34.15317,3.80427],[34.15356,3.79691],[34.15915,3.79872],[34.16237,3.79464],[34.16997,3.7969],[34.18872,3.7921],[34.19028,3.77998],[34.16491,3.771],[34.17226,3.76436],[34.22134,3.78134],[34.22667,3.77922],[34.22717,3.77078],[34.23278,3.77782],[34.24591,3.78146],[34.26654,3.74521],[34.30808,3.70962],[34.30301,3.68329],[34.30573,3.68325],[34.31786,3.71804],[34.32448,3.72501],[34.35418,3.73264],[34.37008,3.73217],[34.37734,3.72806],[34.39989,3.70287],[34.4029,3.69052],[34.45469,3.67447],[34.463,3.66734],[34.45288,3.6089],[34.4564,3.57577],[34.45094,3.51547],[34.43373,3.49536],[34.42346,3.48802],[34.39689,3.48518],[34.3894,3.48888],[34.39161,3.47953],[34.40622,3.46447],[34.41687,3.44791],[34.41942,3.4304],[34.40965,3.41476],[34.40154,3.41168],[34.40035,3.37462],[34.40155,3.36763],[34.42944,3.34075],[34.44825,3.27794],[34.45567,3.17932],[34.46063,3.17075],[34.47094,3.1693],[34.48297,3.16118],[34.49471,3.13835],[34.51148,3.14583],[34.5459,3.13281],[34.56,3.10666],[34.57422,3.09418],[34.57731,3.07356],[34.57723,3.01659],[34.58842,2.99756],[34.6,2.92123],[34.6407,2.90308],[34.65426,2.86433],[34.66959,2.86006],[34.69361,2.85974],[34.70282,2.87422],[34.70948,2.87028],[34.71296,2.86205],[34.7374,2.85193],[34.75043,2.82253],[34.76178,2.8258],[34.76721,2.81916],[34.78251,2.76586],[34.78488,2.74592],[34.77654,2.6944],[34.79151,2.68022],[34.80054,2.65239],[34.83291,2.61777],[34.83981,2.60138],[34.85383,2.58077],[34.86987,2.56805],[34.88002,2.57001],[34.88198,2.5867],[34.8953,2.59029],[34.89892,2.5852],[34.91476,2.51439],[34.93485,2.51342],[34.94906,2.46998],[34.95496,2.46778],[34.95186,2.455],[34.94244,2.45106],[34.93622,2.44181],[34.93736,2.43857],[34.93093,2.4355],[34.93231,2.42927],[34.91786,2.42162],[34.91464,2.39357],[34.91941,2.39084],[34.91746,2.38766],[34.94786,2.20304],[34.98124,2.04902],[34.98615,1.98169],[35.03305,1.91447],[34.99892,1.73518],[34.99078,1.66375],[34.94405,1.57506],[34.90608,1.55054],[34.89038,1.55315],[34.86472,1.52653],[34.84598,1.45436],[34.84164,1.45268],[34.84186,1.44364],[34.84726,1.43592],[34.81266,1.43927],[34.79792,1.43134],[34.79028,1.43014],[34.78791,1.43327],[34.7865,1.42213],[34.77167,1.41899],[34.79568,1.36918],[34.79346,1.35765],[34.82931,1.30686],[34.83154,1.26674],[34.8209,1.26066],[34.81896,1.248],[34.8114,1.24128],[34.81223,1.23778],[34.80655,1.22899],[34.7952,1.21948],[34.78389,1.22209],[34.77421,1.22069],[34.76986,1.21661],[34.74468,1.21831],[34.70046,1.21297],[34.66987,1.20559],[34.66512,1.18998],[34.64958,1.17607],[34.6373,1.16883],[34.62451,1.16619],[34.61217,1.15618],[34.57986,1.14702],[34.57472,1.09931],[34.52609,1.10632],[34.51875,1.08593],[34.50382,1.06822],[34.50167,1.0553],[34.49456,1.0416],[34.48797,0.99862],[34.49022,0.98063],[34.4839,0.96212],[34.48075,0.93596],[34.4645,0.90831],[34.45164,0.89833],[34.4528,0.89081],[34.44385,0.85578],[34.42814,0.85144],[34.41571,0.84057],[34.41529,0.83212],[34.40904,0.82898],[34.40852,0.82537],[34.41415,0.81764],[34.41114,0.81327],[34.41411,0.80767],[34.39536,0.79966],[34.38564,0.80112],[34.3839,0.78999],[34.37693,0.7938],[34.37025,0.78066],[34.35481,0.77145],[34.346,0.77235],[34.33535,0.76608],[34.31922,0.76501],[34.31469,0.76126],[34.30776,0.72895],[34.30933,0.70919],[34.31342,0.70042],[34.31185,0.69644],[34.28791,0.68048],[34.27916,0.67984],[34.27757,0.67466],[34.28092,0.6642],[34.27818,0.65959],[34.27983,0.64553],[34.27762,0.64092],[34.26139,0.63704],[34.25182,0.62892],[34.24313,0.63222],[34.23971,0.62781],[34.23025,0.62515],[34.22211,0.62916],[34.21605,0.62338],[34.1976,0.62365],[34.197,0.61857],[34.18653,0.61038],[34.18656,0.60394],[34.17811,0.60648],[34.14721,0.58256],[34.13876,0.58279],[34.12818,0.55503],[34.12719,0.5367],[34.11708,0.52036],[34.12298,0.51651],[34.11736,0.50827],[34.11916,0.48093],[34.08893,0.45546],[34.09224,0.44045],[34.08948,0.42388],[34.10051,0.4138],[34.10943,0.37314],[34.09903,0.35475],[34.09944,0.34701],[34.07254,0.32276],[34.05903,0.32269],[34.0603,0.31098],[34.05097,0.30573],[34.05057,0.29467],[34.04062,0.28905],[34.04043,0.27295],[34.02377,0.26691],[34.02264,0.25297],[34.01419,0.24682],[33.91062,0.10445],[33.91019,0.09858],[33.98425,-0.13213],[33.92901,-0.45817],[33.92548,-0.56088],[33.93406,-1],[32.75043,-1]]]]}}]}