{"type":"FeatureCollection","features":[{"type":"Feature","properties":{"ISO_A3":"UZB","WB_A3":"UZB","WB_NAME":"Uzbekistan","WB_REGION":"ECS"},"geometry":{"type":"MultiPolygon","coordinates":[[[[72.55866,40.95243],[72.56431,40.93885],[72.59297,40.90531],[72.58579,40.89145],[72.57347,40.87983],[72.5725,40.87322],[72.59164,40.86471],[72.63939,40.86148],[72.66873,40.8495],[72.6873,40.84543],[72.71322,40.84577],[72.73786,40.84162],[72.76759,40.8444],[72.79851,40.85512],[72.81236,40.85372],[72.83474,40.85765],[72.86624,40.84683],[72.89024,40.83317],[72.90017,40.82212],[72.90035,40.81542],[72.91511,40.80704],[72.93912,40.80054],[72.95724,40.8034],[72.9576,40.8144],[72.96471,40.82101],[72.97614,40.81974],[72.98099,40.8295],[72.99297,40.83048],[73.00023,40.84271],[73.00555,40.8397],[73.02164,40.8465],[73.03096,40.83905],[73.04355,40.84686],[73.06203,40.84111],[73.10635,40.84308],[73.11824,40.83635],[73.12308,40.84072],[73.14925,40.82766],[73.14308,40.81856],[73.14562,40.81522],[73.13978,40.80804],[73.1403,40.78953],[73.1363,40.7844],[73.11795,40.78349],[73.09454,40.77024],[73.06472,40.7686],[73.06361,40.76315],[73.0577,40.76693],[73.03684,40.76467],[73.02003,40.76775],[72.99105,40.76466],[72.96716,40.75035],[72.94651,40.73215],[72.93395,40.73118],[72.91676,40.72337],[72.87297,40.71132],[72.85323,40.71234],[72.85322,40.70823],[72.85958,40.70729],[72.85826,40.70087],[72.86563,40.70072],[72.84695,40.67272],[72.80136,40.67736],[72.79914,40.6731],[72.78571,40.66637],[72.79108,40.65371],[72.78116,40.64779],[72.77662,40.63953],[72.76114,40.62681],[72.75031,40.61004],[72.74891,40.59718],[72.75663,40.57946],[72.76089,40.57729],[72.76025,40.57274],[72.75414,40.57406],[72.75069,40.57121],[72.74483,40.57458],[72.74757,40.5803],[72.73898,40.58424],[72.73482,40.58214],[72.71748,40.58972],[72.70071,40.58848],[72.70225,40.59116],[72.69244,40.59727],[72.67014,40.58955],[72.66199,40.58246],[72.66804,40.5784],[72.6731,40.56849],[72.6733,40.56489],[72.6593,40.55992],[72.66813,40.55411],[72.67083,40.53764],[72.66939,40.52335],[72.6549,40.51029],[72.61024,40.51569],[72.60666,40.52355],[72.58678,40.52999],[72.58725,40.53242],[72.57582,40.54084],[72.56641,40.53581],[72.51801,40.54604],[72.51134,40.55052],[72.51171,40.55469],[72.49944,40.57002],[72.49274,40.56934],[72.48262,40.55302],[72.47489,40.55178],[72.45019,40.57302],[72.43114,40.60134],[72.41555,40.60954],[72.41361,40.6155],[72.40793,40.61799],[72.3864,40.61339],[72.38324,40.60155],[72.34982,40.60396],[72.34455,40.60113],[72.3656,40.58809],[72.37257,40.58014],[72.3965,40.57397],[72.38908,40.57016],[72.39002,40.56598],[72.40932,40.56141],[72.41916,40.56223],[72.41578,40.55632],[72.42001,40.54925],[72.4197,40.54292],[72.42441,40.54196],[72.42178,40.53761],[72.40875,40.53323],[72.40535,40.52601],[72.38242,40.52238],[72.3842,40.51865],[72.37869,40.51624],[72.37858,40.51193],[72.3937,40.50704],[72.4149,40.50847],[72.41942,40.50398],[72.42434,40.48566],[72.43721,40.48024],[72.43163,40.46645],[72.43229,40.45462],[72.42199,40.45403],[72.41709,40.44897],[72.40438,40.42192],[72.40442,40.41701],[72.41559,40.40207],[72.41112,40.39757],[72.38599,40.39743],[72.36548,40.4028],[72.35924,40.41361],[72.31929,40.43815],[72.31208,40.44546],[72.30133,40.43675],[72.27814,40.43399],[72.27338,40.4391],[72.27198,40.45098],[72.2434,40.46036],[72.25387,40.48036],[72.24413,40.48581],[72.24192,40.48306],[72.20037,40.48694],[72.19873,40.48151],[72.19337,40.48146],[72.18752,40.48541],[72.18615,40.49594],[72.17656,40.49252],[72.1761,40.49508],[72.17249,40.49468],[72.17218,40.48575],[72.15919,40.48324],[72.12814,40.45973],[72.13016,40.45674],[72.12186,40.45727],[72.10147,40.4393],[72.1034,40.42972],[72.1127,40.42932],[72.11314,40.42707],[72.10771,40.42106],[72.09812,40.41952],[72.0921,40.40867],[72.08862,40.40813],[72.0891,40.40502],[72.06648,40.39545],[72.06121,40.3858],[72.04457,40.37744],[72.04839,40.37087],[71.96155,40.31893],[71.97201,40.31229],[71.97267,40.30887],[71.99371,40.29762],[72.04337,40.29073],[72.05133,40.28699],[72.05256,40.2802],[72.05014,40.27691],[72.02445,40.26834],[72.02805,40.26492],[72.02472,40.26395],[72.00463,40.27567],[71.99024,40.26828],[71.9785,40.25631],[71.94931,40.25613],[71.93989,40.25013],[71.96694,40.24477],[71.96319,40.24075],[71.94514,40.23774],[71.92703,40.24198],[71.92629,40.25251],[71.92134,40.25466],[71.88631,40.2601],[71.8845,40.26259],[71.84117,40.25377],[71.83859,40.24815],[71.83163,40.24585],[71.82853,40.24102],[71.83133,40.21848],[71.83661,40.21043],[71.83194,40.20583],[71.81383,40.2047],[71.80308,40.19317],[71.77804,40.18019],[71.75599,40.1785],[71.75029,40.16989],[71.73514,40.16261],[71.73153,40.15002],[71.72845,40.14909],[71.72506,40.15422],[71.71989,40.15436],[71.72184,40.1625],[71.7153,40.17371],[71.70949,40.17406],[71.71069,40.17717],[71.699,40.17924],[71.68904,40.18724],[71.68127,40.18907],[71.68331,40.19416],[71.68071,40.19679],[71.69608,40.19354],[71.69302,40.20525],[71.69991,40.20753],[71.70201,40.20368],[71.70407,40.20821],[71.6943,40.22468],[71.69953,40.23274],[71.69884,40.24369],[71.68073,40.25627],[71.68078,40.26443],[71.67327,40.26902],[71.64904,40.27022],[71.63305,40.26434],[71.6292,40.2678],[71.6201,40.26716],[71.61974,40.23794],[71.62869,40.21758],[71.62689,40.21523],[71.61857,40.2179],[71.62094,40.21334],[71.61919,40.2071],[71.59395,40.21241],[71.59283,40.21777],[71.58023,40.21878],[71.57408,40.21573],[71.55698,40.21791],[71.5311,40.22601],[71.52108,40.22572],[71.51289,40.2309],[71.51749,40.23898],[71.51143,40.24418],[71.51262,40.26362],[71.51018,40.27059],[71.50196,40.27687],[71.49142,40.27982],[71.47956,40.27488],[71.42898,40.28378],[71.3901,40.30919],[71.36728,40.30627],[71.37648,40.31425],[71.36989,40.31827],[71.35817,40.31651],[71.35258,40.32035],[71.34593,40.31789],[71.34662,40.31504],[71.33666,40.3133],[71.33428,40.31407],[71.33549,40.31704],[71.32398,40.31801],[71.31069,40.30721],[71.2985,40.31507],[71.29303,40.32565],[71.3009,40.33079],[71.27376,40.34362],[71.24445,40.32401],[71.24433,40.32776],[71.24995,40.33153],[71.22923,40.34038],[71.15228,40.33359],[71.12674,40.33538],[71.07451,40.29541],[71.03687,40.28665],[71.01892,40.29623],[70.9877,40.28702],[70.96392,40.28851],[70.95912,40.28524],[70.96091,40.26765],[70.97666,40.25718],[70.97508,40.25011],[70.98032,40.24269],[70.98366,40.22579],[70.97031,40.22202],[70.95594,40.21954],[70.86533,40.22126],[70.83595,40.21065],[70.78861,40.20214],[70.7599,40.18819],[70.71395,40.18986],[70.63233,40.17729],[70.61173,40.20109],[70.58512,40.22387],[70.57282,40.24203],[70.57621,40.28353],[70.55986,40.31217],[70.56018,40.31797],[70.58203,40.33892],[70.56976,40.34437],[70.54696,40.36467],[70.49579,40.36527],[70.47325,40.35616],[70.42988,40.37436],[70.3884,40.38784],[70.3785,40.38699],[70.36508,40.39143],[70.35853,40.40395],[70.34874,40.41121],[70.34652,40.42929],[70.33021,40.4414],[70.32783,40.45541],[70.33534,40.46237],[70.39044,40.47754],[70.40989,40.48632],[70.43188,40.49064],[70.44749,40.49896],[70.48118,40.50125],[70.49216,40.51221],[70.51355,40.54995],[70.52786,40.55468],[70.55595,40.55546],[70.57043,40.56268],[70.58461,40.56524],[70.60848,40.58342],[70.6365,40.62411],[70.64478,40.62859],[70.65785,40.62908],[70.6816,40.64979],[70.69348,40.65318],[70.70672,40.66353],[70.71581,40.66341],[70.72821,40.6553],[70.73613,40.6583],[70.73682,40.66601],[70.73136,40.67307],[70.7301,40.68479],[70.73453,40.68777],[70.75809,40.68308],[70.76463,40.68632],[70.77745,40.71673],[70.79727,40.71965],[70.79466,40.73455],[70.76388,40.7582],[70.74185,40.76492],[70.74018,40.76644],[70.74627,40.76784],[70.74394,40.7737],[70.7045,40.80044],[70.71963,40.80036],[70.72793,40.80922],[70.71364,40.8249],[70.69865,40.83555],[70.67928,40.84246],[70.67011,40.85254],[70.66558,40.85242],[70.6451,40.86848],[70.64436,40.87642],[70.63879,40.88318],[70.63038,40.8874],[70.62537,40.89591],[70.60605,40.90661],[70.60568,40.91322],[70.59627,40.92679],[70.59759,40.93224],[70.58795,40.93872],[70.58317,40.95025],[70.56924,40.95919],[70.56625,40.96774],[70.55829,40.97583],[70.55201,40.9818],[70.53545,40.97986],[70.52108,40.98776],[70.51973,40.99863],[70.51318,41.01122],[70.48844,41.02354],[70.48375,41.03376],[70.47704,41.03604],[70.47365,41.041],[70.46786,41.04149],[70.45818,41.03656],[70.45149,41.0383],[70.44477,41.04482],[70.43013,41.03693],[70.41419,41.03472],[70.39709,41.02638],[70.39035,41.01352],[70.37517,41.00276],[70.38266,40.97986],[70.38976,40.96993],[70.3885,40.95403],[70.38294,40.94706],[70.37108,40.94323],[70.37555,40.92307],[70.37927,40.91824],[70.37254,40.89832],[70.34341,40.88468],[70.33566,40.88262],[70.3258,40.88667],[70.30451,40.87712],[70.28713,40.87507],[70.27464,40.86728],[70.26622,40.85006],[70.20231,40.82273],[70.18113,40.8338],[70.17375,40.83164],[70.16103,40.83415],[70.14235,40.8245],[70.12775,40.82204],[70.12014,40.81443],[70.12439,40.80822],[70.11473,40.78795],[70.09812,40.78218],[70.06826,40.75518],[70.04073,40.75382],[70.03078,40.74444],[70.00431,40.73605],[69.97451,40.73919],[69.96374,40.73171],[69.96211,40.72634],[69.95061,40.72657],[69.93911,40.71872],[69.93164,40.71732],[69.91567,40.72137],[69.89438,40.71991],[69.88897,40.72534],[69.87054,40.71409],[69.86039,40.71413],[69.84417,40.7086],[69.83565,40.70082],[69.82485,40.70079],[69.81781,40.70938],[69.8087,40.70469],[69.79405,40.70318],[69.79039,40.69096],[69.7753,40.67506],[69.77319,40.6673],[69.76163,40.66052],[69.76437,40.65112],[69.75869,40.64546],[69.74588,40.644],[69.7395,40.64073],[69.73704,40.63557],[69.71916,40.62878],[69.71511,40.63107],[69.69978,40.62758],[69.66926,40.63449],[69.66657,40.63798],[69.66905,40.64251],[69.66711,40.64933],[69.6522,40.66685],[69.65193,40.6712],[69.62442,40.67823],[69.61488,40.69143],[69.59327,40.69736],[69.58368,40.70413],[69.58211,40.7115],[69.57358,40.72314],[69.57259,40.72851],[69.57556,40.73257],[69.57169,40.74352],[69.55358,40.76824],[69.54554,40.7724],[69.53685,40.77145],[69.53455,40.77711],[69.52425,40.77554],[69.51799,40.78238],[69.51611,40.77828],[69.49944,40.78188],[69.49888,40.79534],[69.4941,40.80074],[69.49245,40.81164],[69.47569,40.80921],[69.47227,40.79891],[69.4626,40.79342],[69.45864,40.7848],[69.44491,40.78967],[69.42819,40.78305],[69.42149,40.76903],[69.42111,40.76086],[69.40786,40.75233],[69.39463,40.76876],[69.38905,40.78435],[69.37328,40.79094],[69.36763,40.78812],[69.34743,40.77518],[69.35939,40.76052],[69.35745,40.75607],[69.36167,40.75392],[69.35991,40.749],[69.36459,40.74416],[69.35977,40.73933],[69.36296,40.73458],[69.35289,40.73268],[69.35111,40.73109],[69.35594,40.72694],[69.34948,40.72678],[69.34601,40.7227],[69.34693,40.69096],[69.33894,40.66772],[69.33885,40.64304],[69.34746,40.61476],[69.34694,40.58535],[69.3439,40.58124],[69.31869,40.57884],[69.28421,40.58196],[69.27593,40.57413],[69.261,40.57604],[69.23215,40.55327],[69.21299,40.54653],[69.21208,40.54083],[69.22107,40.53606],[69.22042,40.53109],[69.23079,40.52269],[69.24027,40.52013],[69.24816,40.5101],[69.25635,40.50712],[69.26287,40.49988],[69.27938,40.49338],[69.27809,40.48909],[69.2722,40.4882],[69.26986,40.48421],[69.2724,40.47944],[69.26657,40.47601],[69.27181,40.46815],[69.26783,40.45984],[69.27951,40.45172],[69.28397,40.44352],[69.28385,40.41953],[69.29842,40.41179],[69.29779,40.40795],[69.29105,40.4032],[69.29195,40.39639],[69.30648,40.38684],[69.30294,40.36772],[69.31616,40.35668],[69.3363,40.34872],[69.34054,40.33909],[69.33808,40.32141],[69.32761,40.30819],[69.32812,40.2974],[69.32284,40.29296],[69.31149,40.29052],[69.30736,40.28191],[69.24907,40.30357],[69.24643,40.29551],[69.25226,40.2911],[69.25464,40.28421],[69.24855,40.2811],[69.24756,40.27501],[69.2597,40.26461],[69.26235,40.25831],[69.30159,40.24518],[69.29724,40.23405],[69.28869,40.22597],[69.2907,40.21716],[69.29891,40.20723],[69.30139,40.19436],[69.30541,40.19423],[69.30524,40.18854],[69.29967,40.1888],[69.28196,40.19913],[69.27261,40.20221],[69.26314,40.20058],[69.24603,40.20837],[69.22824,40.20858],[69.21021,40.21296],[69.16962,40.20883],[69.14913,40.21585],[69.07222,40.22159],[69.03436,40.22906],[68.86265,40.21047],[68.85167,40.20319],[68.85205,40.19772],[68.84733,40.19513],[68.85349,40.18735],[68.79718,40.17264],[68.77958,40.20365],[68.70123,40.18354],[68.68855,40.17753],[68.66047,40.17409],[68.59845,40.157],[68.55514,40.15053],[68.53313,40.14347],[68.531,40.11784],[68.63341,40.07674],[68.69121,40.09679],[68.70194,40.09628],[68.73518,40.10341],[68.76899,40.10192],[68.77331,40.10679],[68.80086,40.1182],[68.83835,40.11962],[68.84689,40.12253],[68.84727,40.12655],[68.85834,40.12654],[68.88212,40.13725],[68.9358,40.15158],[68.98158,40.14713],[68.99865,40.15724],[69.02163,40.15724],[69.02394,40.12677],[69.02005,40.11671],[68.99508,40.0938],[68.97068,40.09277],[68.96041,40.08824],[68.95712,40.08286],[68.9684,40.06454],[68.91618,40.06128],[68.90627,40.06796],[68.90213,40.06703],[68.89606,40.05801],[68.89874,40.04604],[68.89432,40.04488],[68.88623,40.05863],[68.89381,40.06311],[68.89301,40.06631],[68.85081,40.07142],[68.85599,40.06151],[68.86548,40.0528],[68.85707,40.05062],[68.86611,40.03746],[68.86455,40.03519],[68.89686,40.00008],[68.91264,39.96982],[68.91322,39.95421],[68.9241,39.93666],[68.93511,39.92595],[68.93344,39.91374],[68.91816,39.89143],[68.91297,39.88826],[68.90758,39.86738],[68.89914,39.86006],[68.88566,39.85762],[68.88155,39.86209],[68.87737,39.86177],[68.87353,39.85315],[68.85142,39.85007],[68.78823,39.84709],[68.77137,39.85138],[68.76244,39.84571],[68.75128,39.84693],[68.73553,39.8438],[68.71695,39.84953],[68.68341,39.85208],[68.66788,39.84633],[68.64581,39.84766],[68.63586,39.84342],[68.63155,39.83736],[68.6323,39.83332],[68.63957,39.83226],[68.64383,39.81152],[68.63979,39.8053],[68.63784,39.78617],[68.64196,39.77725],[68.63274,39.77127],[68.62194,39.77048],[68.61862,39.76308],[68.62485,39.75663],[68.62418,39.75316],[68.61545,39.75067],[68.60918,39.74115],[68.58926,39.7374],[68.58639,39.72296],[68.59886,39.71415],[68.60403,39.70643],[68.62063,39.69665],[68.62141,39.69119],[68.62969,39.68349],[68.62148,39.66927],[68.61806,39.64089],[68.61499,39.63496],[68.6101,39.63765],[68.59956,39.62459],[68.58106,39.62213],[68.57023,39.60126],[68.55219,39.59975],[68.54739,39.59444],[68.54075,39.58575],[68.5358,39.56644],[68.54084,39.56551],[68.54709,39.55838],[68.54148,39.54969],[68.53075,39.54446],[68.52428,39.53237],[68.51117,39.53087],[68.50142,39.54003],[68.49044,39.54248],[68.4792,39.53603],[68.46383,39.53839],[68.45579,39.53362],[68.44408,39.53992],[68.42432,39.53772],[68.41602,39.54212],[68.40723,39.54085],[68.39171,39.54478],[68.37662,39.53762],[68.37015,39.53064],[68.35687,39.53158],[68.35077,39.53812],[68.33883,39.54376],[68.30839,39.55415],[68.29758,39.55034],[68.28638,39.55975],[68.26707,39.55788],[68.25109,39.5625],[68.24059,39.55612],[68.20496,39.55306],[68.19164,39.55676],[68.17671,39.56879],[68.15563,39.56298],[68.14474,39.56902],[68.1377,39.56146],[68.11679,39.56024],[68.08091,39.5783],[68.06258,39.57373],[68.03877,39.57719],[68.02736,39.58228],[68.02737,39.58664],[68.0212,39.5856],[68.01137,39.59111],[68.00267,39.58957],[67.97879,39.60109],[67.97621,39.60593],[67.97111,39.60349],[67.95055,39.60376],[67.94114,39.59929],[67.91146,39.61004],[67.89588,39.61076],[67.89261,39.61513],[67.88407,39.61737],[67.88174,39.62458],[67.87606,39.62797],[67.86108,39.62406],[67.83646,39.63056],[67.81821,39.64671],[67.79499,39.65682],[67.79172,39.65747],[67.78313,39.64691],[67.76604,39.6406],[67.70654,39.65995],[67.68356,39.63898],[67.66466,39.64225],[67.66122,39.6375],[67.65177,39.63528],[67.64776,39.63069],[67.64781,39.62514],[67.62953,39.61501],[67.63104,39.6018],[67.6279,39.60014],[67.59459,39.59674],[67.58274,39.60078],[67.5772,39.5957],[67.56437,39.59444],[67.55609,39.58858],[67.53348,39.58885],[67.51953,39.57922],[67.50635,39.57946],[67.49989,39.58369],[67.4835,39.57641],[67.47826,39.5782],[67.4628,39.57484],[67.45182,39.57833],[67.45103,39.57613],[67.45535,39.57447],[67.44423,39.55286],[67.47067,39.53878],[67.47165,39.53432],[67.46846,39.53137],[67.46442,39.53325],[67.41545,39.52939],[67.40176,39.53329],[67.3946,39.5231],[67.39813,39.52173],[67.39842,39.51583],[67.40316,39.51466],[67.40327,39.51024],[67.43589,39.49901],[67.44749,39.48919],[67.45809,39.47406],[67.46461,39.46282],[67.46381,39.45219],[67.45545,39.44031],[67.46097,39.43772],[67.45986,39.42413],[67.46365,39.41953],[67.46332,39.41274],[67.46832,39.40964],[67.48171,39.40911],[67.48411,39.40614],[67.48322,39.38852],[67.48784,39.37803],[67.47402,39.3451],[67.47756,39.33304],[67.47516,39.32607],[67.46117,39.3134],[67.43067,39.30951],[67.41535,39.31262],[67.41258,39.30992],[67.39497,39.31093],[67.38637,39.31461],[67.33749,39.30536],[67.35914,39.28623],[67.35604,39.27847],[67.35716,39.27139],[67.35864,39.26475],[67.36344,39.26232],[67.3539,39.24165],[67.3417,39.23383],[67.35842,39.22752],[67.4096,39.22528],[67.41137,39.22082],[67.40904,39.21528],[67.43886,39.21267],[67.4522,39.20715],[67.45677,39.20084],[67.49365,39.19806],[67.49203,39.19494],[67.49648,39.1933],[67.49389,39.18836],[67.49774,39.18562],[67.55167,39.18119],[67.58757,39.18922],[67.59619,39.18639],[67.59919,39.18205],[67.61088,39.17992],[67.61315,39.1747],[67.62614,39.16916],[67.62702,39.15024],[67.63626,39.14417],[67.67591,39.14585],[67.67935,39.12676],[67.67624,39.11637],[67.67817,39.11388],[67.67292,39.10783],[67.67475,39.10317],[67.67177,39.09598],[67.66665,39.09316],[67.66991,39.08982],[67.66858,39.08183],[67.67363,39.07374],[67.67084,39.06432],[67.67424,39.05911],[67.68099,39.05782],[67.68302,39.05327],[67.6806,39.0501],[67.68415,39.04439],[67.6788,39.03914],[67.68532,39.02696],[67.68294,39.02018],[67.69367,39.0128],[67.69539,39.00553],[67.70753,39.00054],[67.70897,38.99705],[67.71957,38.99659],[67.74093,39.00483],[67.75103,39.00047],[67.76677,39.016],[67.79521,39.01093],[67.81292,39.01261],[67.81993,39.01657],[67.85901,39.00251],[67.87133,39.00194],[67.89208,39.019],[67.90556,39.01786],[67.92065,39.02587],[67.92988,39.02243],[67.93923,39.0251],[67.94468,39.02104],[67.96625,39.02272],[67.98568,39.03321],[67.99358,39.02948],[67.99523,39.0218],[67.99956,39.01789],[68.02022,39.0138],[68.02847,39.00867],[68.04058,39.01628],[68.05926,39.01677],[68.06412,39.01848],[68.06547,39.02346],[68.07839,39.02625],[68.0944,39.02298],[68.10244,39.01613],[68.11258,39.01506],[68.11885,39.00727],[68.11658,39.00273],[68.13062,38.99739],[68.13375,38.98465],[68.14054,38.97892],[68.13894,38.97359],[68.13145,38.96794],[68.13353,38.96299],[68.16132,38.94569],[68.17114,38.94777],[68.19537,38.93882],[68.2073,38.91827],[68.19482,38.9129],[68.19664,38.90444],[68.19306,38.8958],[68.17808,38.8926],[68.18103,38.8872],[68.17831,38.88289],[68.18147,38.87594],[68.20083,38.86713],[68.20125,38.85674],[68.17336,38.84463],[68.17095,38.8318],[68.15377,38.82617],[68.13291,38.82592],[68.13411,38.81844],[68.11492,38.81845],[68.09459,38.81328],[68.06953,38.81826],[68.06687,38.80636],[68.06993,38.8038],[68.06554,38.79946],[68.09287,38.79144],[68.10014,38.77901],[68.0984,38.77593],[68.12253,38.75141],[68.12806,38.73254],[68.10906,38.728],[68.07917,38.72707],[68.05712,38.71499],[68.05689,38.71033],[68.0654,38.69593],[68.07358,38.68794],[68.07352,38.68152],[68.08265,38.67252],[68.07743,38.66606],[68.08246,38.65601],[68.08056,38.6528],[68.09297,38.64145],[68.08858,38.63381],[68.07468,38.62752],[68.07268,38.6193],[68.07772,38.61125],[68.07931,38.59098],[68.07428,38.58307],[68.06278,38.5771],[68.05903,38.56074],[68.06789,38.54968],[68.07091,38.53376],[68.08416,38.53333],[68.08524,38.51718],[68.10125,38.51998],[68.10354,38.5089],[68.11024,38.49899],[68.09875,38.49295],[68.11077,38.48728],[68.1226,38.47793],[68.12307,38.47455],[68.10572,38.45321],[68.10551,38.44741],[68.09768,38.44395],[68.09801,38.43719],[68.0732,38.42015],[68.06633,38.41075],[68.06853,38.40971],[68.06467,38.39314],[68.0933,38.3922],[68.10355,38.40487],[68.1363,38.41335],[68.14382,38.41155],[68.14288,38.39901],[68.1501,38.39759],[68.15804,38.38877],[68.16228,38.37257],[68.1985,38.36387],[68.21386,38.34406],[68.20971,38.33868],[68.21273,38.33631],[68.22375,38.33802],[68.22619,38.3279],[68.23278,38.32186],[68.24955,38.3184],[68.25826,38.32324],[68.26345,38.32039],[68.27908,38.32372],[68.28965,38.3222],[68.29686,38.31531],[68.29072,38.29465],[68.30239,38.25567],[68.31694,38.25069],[68.3191,38.24078],[68.33336,38.2343],[68.36218,38.23943],[68.37079,38.24584],[68.37379,38.24195],[68.37398,38.22409],[68.37861,38.21697],[68.3813,38.20254],[68.40462,38.19738],[68.40248,38.19288],[68.40536,38.18118],[68.39951,38.16708],[68.39939,38.15829],[68.39468,38.15357],[68.39539,38.14243],[68.38657,38.14111],[68.38959,38.1355],[68.37657,38.11169],[68.38167,38.10175],[68.37569,38.09991],[68.3729,38.09329],[68.37692,38.08409],[68.3682,38.07116],[68.35561,38.06256],[68.34692,38.06229],[68.33655,38.04995],[68.32316,38.04251],[68.32391,38.03524],[68.32114,38.03207],[68.30782,38.02855],[68.29925,38.0081],[68.28914,37.99933],[68.28563,37.98796],[68.28768,37.98305],[68.28442,37.97899],[68.28683,37.96992],[68.27982,37.96567],[68.28556,37.95518],[68.27989,37.94855],[68.28338,37.94431],[68.27252,37.94025],[68.27712,37.93069],[68.28404,37.92664],[68.26428,37.90839],[68.25914,37.91107],[68.25395,37.92136],[68.21815,37.93335],[68.19232,37.93244],[68.19259,37.93468],[68.1878,37.93507],[68.1776,37.93128],[68.16512,37.9358],[68.15272,37.9299],[68.14297,37.93309],[68.14239,37.92968],[68.13474,37.92648],[68.13715,37.92256],[68.13142,37.91518],[68.12275,37.91182],[68.13059,37.90847],[68.13125,37.90539],[68.12691,37.8997],[68.1238,37.89999],[68.125,37.89543],[68.12129,37.89216],[68.11655,37.87661],[68.11978,37.87157],[68.11576,37.86963],[68.10587,37.85015],[68.09425,37.83631],[68.07351,37.79564],[68.06372,37.79013],[68.05713,37.77487],[68.04747,37.76545],[68.04783,37.75528],[68.03998,37.75201],[68.03781,37.7432],[68.02715,37.73315],[68.01957,37.73127],[68.02137,37.72591],[68.00879,37.71762],[68.01387,37.71009],[68.01257,37.70537],[68.00567,37.70248],[67.99062,37.68339],[67.96281,37.67287],[67.88737,37.57072],[67.87675,37.56371],[67.86977,37.5498],[67.86026,37.54102],[67.81562,37.42566],[67.82191,37.41682],[67.82894,37.38484],[67.84115,37.35779],[67.84911,37.30614],[67.80582,37.20629],[67.78845,37.18909],[67.78654,37.17226],[67.75866,37.19347],[67.75365,37.20311],[67.73697,37.21455],[67.71345,37.22415],[67.69695,37.22531],[67.67837,37.23274],[67.66385,37.23031],[67.64738,37.22277],[67.63874,37.22552],[67.62867,37.23608],[67.61267,37.2392],[67.58714,37.2251],[67.57096,37.22426],[67.54124,37.25722],[67.53548,37.25925],[67.53229,37.27019],[67.50014,37.28175],[67.47935,37.26779],[67.46383,37.24443],[67.44897,37.23463],[67.41575,37.22562],[67.40528,37.21988],[67.37785,37.21749],[67.32568,37.20297],[67.3033,37.18813],[67.2735,37.18218],[67.26202,37.18343],[67.24933,37.19914],[67.24815,37.2097],[67.24086,37.22359],[67.23246,37.23266],[67.21092,37.24332],[67.21021,37.24786],[67.19383,37.25762],[67.18452,37.2602],[67.16502,37.25826],[67.12788,37.27147],[67.11998,37.28356],[67.11,37.28992],[67.11242,37.32707],[67.10314,37.33424],[67.09061,37.33833],[67.08663,37.34257],[67.0869,37.35005],[67.06915,37.36017],[67.05743,37.37369],[67.04477,37.38044],[67.01107,37.37341],[66.99745,37.37837],[66.99231,37.38398],[66.97937,37.38594],[66.94997,37.39825],[66.93531,37.39395],[66.89719,37.37203],[66.87267,37.36639],[66.85121,37.35349],[66.82393,37.35597],[66.80087,37.36325],[66.76901,37.36085],[66.75119,37.35381],[66.74098,37.35679],[66.73287,37.36373],[66.70846,37.3561],[66.69262,37.35702],[66.67206,37.34207],[66.66584,37.32769],[66.65427,37.32298],[66.64365,37.32867],[66.62536,37.33021],[66.61023,37.34905],[66.60709,37.36073],[66.59368,37.36872],[66.5751,37.36917],[66.5603,37.36239],[66.54768,37.3485],[66.5344,37.34293],[66.506,37.37884],[66.49168,37.38933],[66.50134,37.40002],[66.5265,37.41608],[66.55339,37.44162],[66.57383,37.45208],[66.58119,37.46903],[66.56633,37.49408],[66.55523,37.49739],[66.53397,37.51384],[66.53395,37.52627],[66.52762,37.53826],[66.52572,37.55821],[66.53135,37.58111],[66.52251,37.59762],[66.5405,37.64151],[66.54102,37.66428],[66.55052,37.69658],[66.54125,37.7366],[66.54561,37.76426],[66.54234,37.77001],[66.55137,37.78576],[66.56083,37.79469],[66.5592,37.80217],[66.57149,37.81803],[66.57764,37.83499],[66.59863,37.85344],[66.60834,37.87055],[66.62549,37.88274],[66.63435,37.8845],[66.64526,37.89832],[66.65452,37.90034],[66.67571,37.91425],[66.70662,37.91464],[66.67316,37.97452],[66.63841,37.99455],[66.59826,38.00813],[66.59247,38.01323],[66.55524,38.02115],[66.54596,38.02484],[66.53914,38.03204],[66.51971,38.0329],[66.50606,38.04152],[66.49495,38.04159],[66.459,38.02744],[66.43347,38.0267],[66.43002,38.024],[66.41811,38.02407],[66.4155,38.02762],[66.39229,38.033],[66.37704,38.04888],[66.36403,38.04939],[66.35214,38.06341],[66.34592,38.06281],[66.34299,38.06646],[66.32258,38.06668],[66.30671,38.08082],[66.30224,38.09029],[66.29086,38.0948],[66.29089,38.10106],[66.27141,38.10778],[66.27195,38.11886],[66.26087,38.12528],[66.25896,38.13393],[66.25242,38.13618],[66.25689,38.14301],[66.25165,38.14511],[66.24739,38.15596],[66.2121,38.15754],[66.20391,38.16589],[66.20193,38.16091],[66.18857,38.15618],[66.18524,38.15837],[66.17725,38.1534],[66.16994,38.15724],[66.16548,38.15598],[66.166,38.16261],[66.13775,38.17751],[66.13317,38.17489],[66.12511,38.17515],[66.123,38.17789],[66.12012,38.1753],[66.11293,38.17737],[66.11545,38.1802],[66.10771,38.17961],[66.10119,38.18707],[66.10503,38.18993],[66.10003,38.19198],[66.09789,38.19979],[66.09128,38.20337],[66.08822,38.19972],[66.07955,38.19886],[66.08067,38.20227],[66.06407,38.21183],[66.04602,38.21032],[66.02647,38.2292],[66.0188,38.22597],[66.00948,38.23298],[65.99002,38.23077],[65.986,38.22658],[65.97822,38.22743],[65.97501,38.23372],[65.96911,38.23447],[65.96877,38.23916],[65.95974,38.24198],[65.9564,38.23888],[65.94871,38.25072],[65.93963,38.25264],[65.94019,38.25703],[65.92979,38.26072],[65.93275,38.26303],[65.92712,38.27126],[65.92253,38.27393],[65.91614,38.27264],[65.91409,38.27778],[65.90969,38.27923],[65.8895,38.27651],[65.88324,38.27868],[65.87392,38.27468],[65.86372,38.2778],[65.85144,38.27565],[65.84036,38.25158],[65.83186,38.25094],[65.83123,38.25493],[65.65186,38.27303],[65.56183,38.28956],[65.53967,38.28944],[65.53792,38.29697],[65.54137,38.30035],[65.1713,38.50246],[65.15529,38.52063],[65.03468,38.60673],[64.99263,38.61233],[64.95001,38.63458],[64.92183,38.65579],[64.91188,38.65862],[64.89558,38.67062],[64.8756,38.67774],[64.85203,38.68307],[64.82864,38.68221],[64.81438,38.68505],[64.77315,38.71672],[64.71781,38.75102],[64.66453,38.77035],[64.53619,38.83923],[64.33065,38.99525],[64.30236,38.99185],[64.19908,38.96403],[64.17998,38.96418],[64.16708,38.9733],[64.10816,39.00021],[64.03805,39.03722],[64.00379,39.05608],[63.99817,39.0621],[63.70507,39.22404],[63.69428,39.27241],[63.57056,39.33467],[63.482,39.38318],[62.47007,39.95811],[62.45349,39.97453],[62.43481,40],[62.42446,40.06742],[62.41924,40.07784],[62.39953,40.09716],[62.39534,40.1089],[62.41242,40.1347],[62.41379,40.15605],[62.4022,40.18991],[62.40097,40.21981],[62.38337,40.26236],[62.39065,40.32197],[62.38497,40.33082],[62.34869,40.35339],[62.33828,40.36787],[62.33385,40.38129],[62.34219,40.408],[62.33894,40.42889],[62.33133,40.43743],[62.31051,40.44746],[62.27302,40.48081],[62.24439,40.48731],[62.21528,40.48528],[62.20971,40.49296],[62.18172,40.50842],[62.16159,40.52616],[62.13187,40.54255],[62.11554,40.56355],[62.10619,40.58716],[62.10194,40.6291],[62.09344,40.66203],[62.08727,40.67006],[62.05682,40.68303],[62.03515,40.70845],[62.03223,40.71454],[62.03148,40.7383],[62.03596,40.75369],[62.0353,40.76524],[62.01209,40.79893],[61.99895,40.81003],[61.98538,40.83606],[61.99629,40.91351],[61.99087,40.93064],[61.99159,40.95659],[61.98461,40.98171],[61.9493,41.01163],[61.93828,41.04181],[61.89661,41.05503],[61.89973,41.07246],[61.89213,41.07979],[61.89282,41.08889],[61.88751,41.1053],[61.85765,41.11952],[61.81548,41.13085],[61.80581,41.13728],[61.80494,41.14549],[61.79762,41.15569],[61.7286,41.1891],[61.72136,41.21032],[61.65125,41.22925],[61.64567,41.23434],[61.63772,41.25141],[61.56986,41.26683],[61.55691,41.27833],[61.49758,41.2813],[61.45903,41.29717],[61.43145,41.29087],[61.41797,41.2844],[61.40167,41.2544],[61.40655,41.21989],[61.39409,41.20778],[61.39964,41.2039],[61.39636,41.19649],[61.33012,41.14846],[61.24034,41.14526],[61.12844,41.18984],[61.10084,41.21176],[61.09039,41.22977],[61.08643,41.22559],[61.08534,41.21671],[61.08241,41.21441],[61.07977,41.21671],[61.06534,41.24364],[61.06482,41.25415],[61.05392,41.25372],[61.05158,41.24573],[61.04252,41.25564],[61.04472,41.26476],[61.04225,41.26552],[61.03748,41.26115],[61.02942,41.26275],[61.03007,41.22228],[61.0248,41.22195],[61.0017,41.23347],[60.99902,41.24219],[60.96209,41.24638],[60.81723,41.25819],[60.68496,41.25673],[60.57993,41.22348],[60.49365,41.21458],[60.47381,41.21916],[60.43208,41.244],[60.38996,41.28091],[60.36204,41.29754],[60.32337,41.31202],[60.2422,41.33144],[60.15895,41.37642],[60.12361,41.40277],[60.0914,41.41585],[60.07662,41.43486],[60.07478,41.45808],[60.08871,41.49874],[60.08133,41.50669],[60.09787,41.52525],[60.11471,41.55276],[60.11909,41.55095],[60.1245,41.55714],[60.12854,41.55383],[60.1407,41.56],[60.13914,41.56535],[60.14471,41.56597],[60.14202,41.56892],[60.15265,41.57868],[60.16975,41.58133],[60.17523,41.57919],[60.17282,41.59239],[60.17517,41.60395],[60.17097,41.60523],[60.17546,41.60813],[60.17446,41.61357],[60.1782,41.61709],[60.14513,41.66],[60.08449,41.70011],[60.04392,41.75332],[60.06102,41.76892],[60.0707,41.7662],[60.07654,41.77267],[60.08405,41.77272],[60.07836,41.7779],[60.07799,41.78428],[60.08161,41.79291],[60.07894,41.79715],[60.08516,41.8109],[60.09654,41.80901],[60.10097,41.80664],[60.09933,41.80395],[60.10203,41.80204],[60.12228,41.79608],[60.1289,41.79734],[60.12652,41.80155],[60.14211,41.80507],[60.14313,41.80057],[60.14904,41.79669],[60.14966,41.79988],[60.16553,41.79931],[60.17195,41.79139],[60.18122,41.78744],[60.19132,41.7963],[60.20146,41.78742],[60.20412,41.78051],[60.22064,41.77458],[60.23716,41.75147],[60.24774,41.75502],[60.24805,41.76125],[60.26568,41.76065],[60.27744,41.75497],[60.27536,41.75236],[60.28349,41.73351],[60.2992,41.73693],[60.30099,41.74477],[60.29139,41.74916],[60.29489,41.75457],[60.31832,41.7506],[60.33148,41.76743],[60.32487,41.76813],[60.31805,41.77412],[60.31298,41.77223],[60.30892,41.78027],[60.29542,41.78895],[60.28378,41.79132],[60.28817,41.796],[60.25744,41.81943],[60.24697,41.8228],[60.20588,41.82586],[60.18532,41.83302],[60.15943,41.85257],[60.15063,41.86593],[60.13333,41.87962],[60.13216,41.89662],[60.12521,41.90114],[60.09859,41.91174],[60.09321,41.91146],[60.08946,41.90458],[60.05698,41.909],[60.04164,41.91544],[60.02718,41.92793],[60.02524,41.93404],[60.02979,41.94839],[60.02476,41.9609],[60.01437,41.96337],[59.9918,41.95594],[59.9788,41.9452],[59.96658,41.9433],[59.95165,41.96692],[59.94278,41.97119],[59.93699,41.98161],[59.92431,41.99226],[59.92967,42.00678],[59.94638,42.00665],[59.95064,42.01068],[59.97061,42.00813],[59.97451,42.00251],[60.02354,41.98288],[60.02603,41.99471],[60.03208,41.99631],[60.0326,42.00532],[60.04367,42.01992],[60.04086,42.03709],[60.04999,42.06379],[60.04674,42.07361],[60.05191,42.08602],[60.05692,42.08938],[60.04996,42.09747],[60.03452,42.10544],[60.03691,42.11126],[60.02185,42.12411],[60.01816,42.12133],[60.01055,42.12731],[60.00184,42.12233],[59.99396,42.12412],[59.971,42.13352],[59.96111,42.14213],[59.96185,42.14647],[59.97548,42.15054],[59.9857,42.1644],[59.98155,42.17107],[60.01763,42.15768],[60.02475,42.15984],[60.03126,42.15674],[60.03487,42.16646],[60.0522,42.17032],[60.04739,42.17265],[60.04981,42.17801],[60.04653,42.17993],[60.04779,42.1832],[60.02709,42.18337],[60.02796,42.18884],[60.02485,42.19086],[60.02375,42.20124],[60.01902,42.20379],[60.01881,42.21589],[60.01326,42.21776],[60.01424,42.22189],[59.99214,42.22388],[59.99823,42.23976],[59.98849,42.24489],[59.97596,42.24665],[59.96743,42.24498],[59.96365,42.23844],[59.95927,42.23925],[59.95606,42.24944],[59.94564,42.25676],[59.94774,42.25927],[59.95665,42.25875],[59.95483,42.26335],[59.93999,42.26794],[59.94195,42.27285],[59.92938,42.27546],[59.9209,42.28201],[59.90744,42.28019],[59.90751,42.29411],[59.91003,42.29402],[59.91526,42.3081],[59.90485,42.31757],[59.88998,42.31094],[59.8623,42.3153],[59.84103,42.30881],[59.8337,42.29717],[59.81653,42.28067],[59.79328,42.27389],[59.7622,42.28538],[59.74195,42.29696],[59.71884,42.30196],[59.69866,42.30054],[59.65526,42.29069],[59.64242,42.29037],[59.60823,42.2988],[59.5958,42.28968],[59.56585,42.28191],[59.55561,42.29254],[59.54817,42.29479],[59.51822,42.28982],[59.43708,42.29158],[59.43111,42.30051],[59.42016,42.30666],[59.41799,42.32531],[59.38764,42.3333],[59.33452,42.35403],[59.30448,42.36136],[59.30089,42.37116],[59.27498,42.38927],[59.26928,42.40218],[59.25846,42.41457],[59.26759,42.42022],[59.27032,42.4293],[59.24171,42.45582],[59.23814,42.46764],[59.22345,42.47171],[59.22395,42.47485],[59.17081,42.53159],[59.07725,42.5203],[59.05834,42.52742],[59.01484,42.52684],[59.00489,42.53507],[58.97301,42.55066],[58.90489,42.59659],[58.87119,42.61163],[58.7677,42.69183],[58.74703,42.71169],[58.67273,42.76068],[58.67173,42.7641],[58.62546,42.79826],[58.62283,42.79148],[58.62933,42.7772],[58.62562,42.77504],[58.62348,42.76135],[58.63089,42.75339],[58.62696,42.75004],[58.61919,42.7507],[58.64072,42.74151],[58.65086,42.73065],[58.64735,42.72907],[58.64882,42.72635],[58.64484,42.7189],[58.63016,42.71313],[58.62312,42.71392],[58.60724,42.72525],[58.59361,42.71975],[58.59284,42.71058],[58.60505,42.70457],[58.6031,42.70224],[58.60789,42.69698],[58.60148,42.67847],[58.60623,42.67248],[58.60222,42.67191],[58.60287,42.6639],[58.5906,42.64753],[58.56349,42.65261],[58.53937,42.65269],[58.48378,42.64418],[58.45486,42.64843],[58.43651,42.65535],[58.4129,42.65722],[58.39325,42.66896],[58.33602,42.68358],[58.27585,42.68704],[58.25903,42.68291],[58.25254,42.67644],[58.24439,42.67618],[58.20717,42.65727],[58.18525,42.64271],[58.17974,42.63509],[58.16034,42.63509],[58.15971,42.63142],[58.15487,42.63384],[58.15056,42.62869],[58.15528,42.60831],[58.16291,42.60235],[58.25558,42.56491],[58.3015,42.55816],[58.31312,42.54593],[58.33005,42.50373],[58.35016,42.47271],[58.39582,42.41794],[58.39386,42.41518],[58.40462,42.40849],[58.41047,42.39776],[58.4086,42.39129],[58.40585,42.39091],[58.40773,42.3805],[58.41665,42.36742],[58.43171,42.37085],[58.43338,42.36659],[58.51908,42.32282],[58.52169,42.31212],[58.51268,42.29748],[58.51502,42.29386],[58.51064,42.2777],[58.46882,42.29308],[58.44658,42.29569],[58.39522,42.28783],[58.39973,42.3355],[58.39548,42.35624],[58.37971,42.39908],[58.36247,42.42071],[58.32809,42.44576],[58.30303,42.45569],[58.21113,42.47138],[58.19334,42.46865],[58.1456,42.45236],[58.13313,42.44473],[58.13579,42.4749],[58.1387,42.4883],[58.14188,42.49056],[58.13937,42.49509],[58.12247,42.50222],[58.11976,42.49123],[58.10251,42.49923],[58.0564,42.50704],[58.05991,42.51341],[58.05689,42.52266],[58.05955,42.5279],[58.05536,42.53661],[58.05569,42.52788],[58.04936,42.52612],[58.05273,42.5158],[58.04061,42.5112],[58.04385,42.50621],[58.04193,42.5048],[58.01344,42.49403],[58.00701,42.50877],[58.00843,42.5008],[58.00138,42.49786],[58.00396,42.48997],[58.00118,42.48447],[57.99653,42.48193],[57.97805,42.4848],[57.97798,42.47887],[57.98494,42.47778],[57.98238,42.47539],[57.98432,42.46663],[57.97586,42.46224],[57.97835,42.4543],[57.96763,42.42705],[57.94965,42.43421],[57.94084,42.4453],[57.92699,42.43882],[57.92863,42.43625],[57.91354,42.4315],[57.90742,42.4247],[57.92414,42.41908],[57.92654,42.41421],[57.92465,42.41129],[57.93033,42.40526],[57.94078,42.4021],[57.94129,42.39764],[57.95953,42.38317],[57.95872,42.37504],[57.95215,42.37628],[57.95875,42.37147],[57.96187,42.35669],[57.95002,42.34467],[57.95061,42.33553],[57.90418,42.23121],[57.90094,42.23326],[57.89608,42.23097],[57.89601,42.22355],[57.90492,42.21541],[57.88275,42.21188],[57.8718,42.21626],[57.86387,42.22718],[57.85467,42.22795],[57.85573,42.23175],[57.85318,42.23325],[57.84821,42.23025],[57.84286,42.23624],[57.84674,42.22744],[57.84458,42.22388],[57.8507,42.21917],[57.85068,42.21479],[57.84046,42.21129],[57.84877,42.20822],[57.85775,42.19747],[57.86504,42.17158],[57.85017,42.17346],[57.83427,42.17029],[57.77569,42.17086],[57.74079,42.16745],[57.65333,42.13806],[57.5706,42.15041],[57.42837,42.15544],[57.35012,42.14886],[57.30425,42.14063],[57.28057,42.12967],[57.16232,41.97138],[57.1236,41.92708],[57.11175,41.9236],[57.06961,41.92501],[57.0362,41.92122],[57.00019,41.90958],[56.9858,41.89791],[56.96544,41.86977],[56.96454,41.85573],[56.96366,41.8305],[56.98261,41.70064],[56.97868,41.68998],[56.97946,41.67714],[56.9747,41.67411],[56.97966,41.6647],[56.97743,41.66087],[56.98791,41.65659],[57.04425,41.56263],[57.0418,41.52925],[57.03634,41.52243],[57.03667,41.51609],[57.05213,41.47922],[57.04458,41.46984],[57.04556,41.45477],[57.04009,41.44545],[57.04203,41.43739],[57.05634,41.41607],[57.09326,41.37773],[57.09359,41.37077],[57.1069,41.35914],[57.13341,41.35871],[57.14688,41.36932],[57.14962,41.37721],[57.15463,41.37831],[57.16252,41.37687],[57.16711,41.3649],[57.16107,41.34804],[57.15456,41.34294],[57.12373,41.33605],[57.11257,41.33746],[57.09386,41.33419],[57.05897,41.31973],[57.05959,41.31337],[57.07293,41.29509],[57.07064,41.27591],[57.06298,41.26069],[57.04567,41.2419],[57.02833,41.24111],[56.9689,41.25371],[56.77595,41.28194],[56.72832,41.28137],[56.70545,41.28587],[56.49649,41.29398],[56.47526,41.29785],[56.36241,41.30355],[56.3525,41.30183],[56.17864,41.31459],[55.99857,41.31864],[55.99822,45.00043],[56.64714,45.15508],[57.20642,45.28405],[58.58958,45.59007],[59.21625,45.33262],[59.9992,45.00075],[60.54518,44.68966],[61.08011,44.37673],[61.1067,44.35943],[61.13886,44.22552],[61.42534,44.00095],[62.00452,43.50568],[62.45312,43.5269],[63.29682,43.65361],[63.85464,43.60029],[64.53029,43.57205],[64.93267,43.73526],[64.99891,43.71755],[65.18428,43.49577],[65.53127,43.3176],[65.55908,43.28655],[65.75681,42.97911],[65.84459,42.8586],[66.09667,42.93801],[66.08695,42.34846],[65.99962,42.36214],[65.999,41.93666],[66.53461,41.87695],[66.60486,41.50315],[66.64478,41.34781],[66.65175,41.33351],[66.70941,41.14075],[66.99915,41.14079],[67.01455,41.13733],[67.31023,41.13372],[67.36544,41.12556],[67.56943,41.16668],[67.68587,41.17136],[67.73594,41.18225],[67.81407,41.15615],[67.86657,41.13474],[67.89169,41.15204],[67.96618,41.14804],[67.98852,41.08562],[67.98386,41.06334],[67.98704,41.03369],[67.98321,41.02524],[68.02431,41.01822],[68.02481,41.0381],[68.04135,41.04445],[68.05148,41.04176],[68.06381,41.07188],[68.07109,41.08],[68.08015,41.08152],[68.10116,41.06785],[68.1123,41.06686],[68.11472,41.05426],[68.11881,41.04695],[68.12685,41.04449],[68.1274,41.03827],[68.12669,41.03237],[68.11071,41.03618],[68.08758,41.03068],[68.05546,41.00906],[68.05753,41.00577],[68.06804,41.00802],[68.08226,41.00128],[68.08362,40.99772],[68.07365,40.98587],[68.08774,40.96982],[68.08418,40.96367],[68.0763,40.96023],[68.08172,40.95268],[68.07512,40.94964],[68.07168,40.95331],[68.06385,40.94532],[68.09155,40.94182],[68.09618,40.93658],[68.08869,40.9256],[68.07314,40.92464],[68.07243,40.91698],[68.03973,40.90781],[68.00662,40.88558],[68.00588,40.86072],[67.97153,40.86189],[67.97018,40.85133],[67.97919,40.84147],[67.97616,40.83267],[68.0233,40.80079],[68.07559,40.79001],[68.15829,40.72532],[68.21734,40.68773],[68.29766,40.65662],[68.37098,40.61737],[68.41097,40.61477],[68.43552,40.59675],[68.46786,40.58917],[68.48155,40.57102],[68.49072,40.57463],[68.49276,40.57248],[68.50209,40.57973],[68.53149,40.58341],[68.53523,40.57958],[68.56311,40.57923],[68.58174,40.56869],[68.61046,40.57706],[68.64136,40.5995],[68.66326,40.59912],[68.65303,40.61338],[68.62178,40.63049],[68.64247,40.6381],[68.64272,40.64582],[68.64787,40.64952],[68.64868,40.67645],[68.65378,40.6802],[68.64628,40.68241],[68.64626,40.68609],[68.63627,40.68629],[68.64389,40.694],[68.63507,40.70099],[68.6342,40.69766],[68.61887,40.69799],[68.60916,40.70776],[68.58392,40.70911],[68.58589,40.78015],[68.56232,40.80585],[68.56469,40.8491],[68.57999,40.85408],[68.59043,40.86511],[68.58626,40.88617],[68.57673,40.89704],[68.57672,40.9065],[68.58287,40.92446],[68.5733,40.9279],[68.56809,40.93452],[68.55878,40.93801],[68.54874,40.94694],[68.51751,40.9424],[68.51992,40.9505],[68.51603,40.9524],[68.51698,40.95657],[68.51107,40.96395],[68.50946,40.97289],[68.49823,40.97339],[68.49726,40.97923],[68.50663,41.00319],[68.52653,41.02003],[68.53299,41.01398],[68.55857,41.00718],[68.57114,41.01195],[68.58668,41.02724],[68.59547,41.03057],[68.60743,41.0302],[68.6108,41.02566],[68.60968,41.01202],[68.61894,41.00198],[68.6277,40.99746],[68.6619,40.9949],[68.67262,40.98856],[68.66994,40.98066],[68.63207,40.97257],[68.62746,40.96758],[68.63388,40.952],[68.64049,40.94444],[68.64641,40.94249],[68.67675,40.96242],[68.6976,40.9673],[68.71142,40.96435],[68.72884,40.96995],[68.74208,40.98151],[68.74914,40.98142],[68.74781,40.99033],[68.75821,40.99763],[68.75264,41.00262],[68.76107,41.00656],[68.75673,41.00787],[68.75785,41.01103],[68.7533,41.01126],[68.74725,41.00556],[68.74254,41.00599],[68.7222,41.02902],[68.7128,41.03272],[68.72329,41.05206],[68.7478,41.06783],[68.76571,41.08568],[68.80835,41.11813],[68.83706,41.1342],[68.86026,41.14292],[68.87771,41.15517],[68.91373,41.17338],[68.91543,41.18216],[68.93239,41.18264],[68.93767,41.19042],[68.98633,41.21049],[68.99552,41.22095],[68.99741,41.22542],[68.99294,41.23042],[69.00071,41.2397],[69.01185,41.2275],[69.03042,41.22525],[69.02637,41.23094],[69.02916,41.23949],[69.02101,41.24593],[69.03974,41.25496],[69.04033,41.26467],[69.01708,41.27345],[69.01341,41.289],[69.01862,41.29836],[69.02623,41.2984],[69.02946,41.30342],[69.03753,41.30173],[69.04499,41.31072],[69.0393,41.32381],[69.04706,41.34765],[69.04384,41.35074],[69.0252,41.35143],[69.0223,41.35354],[69.02353,41.35709],[69.03379,41.36356],[69.04121,41.36609],[69.0495,41.36453],[69.05243,41.3686],[69.07896,41.37723],[69.08872,41.36855],[69.08382,41.36528],[69.08296,41.36019],[69.08567,41.35699],[69.09186,41.35674],[69.09682,41.35839],[69.10123,41.37574],[69.11364,41.39148],[69.12188,41.39212],[69.12759,41.38893],[69.14417,41.39329],[69.15066,41.3924],[69.15171,41.38686],[69.15517,41.38663],[69.16041,41.3933],[69.16654,41.3947],[69.16908,41.40018],[69.17364,41.40069],[69.16588,41.40853],[69.15951,41.42498],[69.14994,41.42705],[69.15621,41.43419],[69.16668,41.4351],[69.166,41.43799],[69.1715,41.44086],[69.1776,41.43862],[69.18584,41.44838],[69.186,41.4526],[69.19818,41.45198],[69.22804,41.46262],[69.23475,41.45866],[69.24997,41.4663],[69.26246,41.45266],[69.27822,41.4498],[69.29313,41.43745],[69.30101,41.43751],[69.31682,41.44285],[69.3375,41.45916],[69.34524,41.46119],[69.35423,41.46744],[69.35462,41.47268],[69.38031,41.46559],[69.41167,41.4705],[69.41663,41.46348],[69.43403,41.46105],[69.45679,41.46462],[69.46053,41.4674],[69.45688,41.4688],[69.45503,41.48688],[69.44941,41.49027],[69.4416,41.48777],[69.42749,41.49756],[69.40047,41.50332],[69.39736,41.507],[69.4071,41.52469],[69.4276,41.54066],[69.44724,41.56545],[69.46069,41.56882],[69.47484,41.55981],[69.48107,41.55045],[69.50066,41.54692],[69.52689,41.56297],[69.5498,41.56946],[69.55001,41.57283],[69.53759,41.57841],[69.54033,41.58997],[69.54873,41.59128],[69.55333,41.59741],[69.55929,41.59865],[69.56541,41.61408],[69.57202,41.61786],[69.57654,41.62935],[69.59112,41.64081],[69.60767,41.64853],[69.61736,41.66232],[69.63206,41.66321],[69.63504,41.66745],[69.66014,41.66872],[69.66294,41.67166],[69.66804,41.66817],[69.68028,41.67728],[69.69746,41.67408],[69.71202,41.68457],[69.71995,41.68485],[69.73696,41.6988],[69.74549,41.70068],[69.76085,41.69707],[69.78643,41.70005],[69.79653,41.70744],[69.81315,41.70915],[69.83854,41.72025],[69.85705,41.71786],[69.86599,41.71074],[69.88153,41.70633],[69.8943,41.70675],[69.90716,41.7127],[69.91554,41.71306],[69.92281,41.71711],[69.9257,41.72749],[69.94454,41.72939],[69.95873,41.73766],[69.96145,41.74272],[69.95757,41.75079],[69.96236,41.7567],[69.97331,41.75717],[69.973,41.77192],[69.97611,41.77635],[70.00616,41.78747],[70.00442,41.79726],[70.0191,41.79721],[70.02149,41.79568],[70.02034,41.78642],[70.03554,41.78035],[70.09317,41.82533],[70.10034,41.83653],[70.10592,41.8394],[70.11667,41.83633],[70.12072,41.84142],[70.13104,41.84475],[70.13893,41.84398],[70.14656,41.83793],[70.15158,41.83934],[70.15753,41.84926],[70.1679,41.85701],[70.17563,41.85524],[70.18317,41.86216],[70.18212,41.88376],[70.19644,41.88875],[70.19531,41.89387],[70.19893,41.89963],[70.19555,41.90398],[70.20785,41.90341],[70.21411,41.90675],[70.2153,41.91099],[70.22666,41.91609],[70.22862,41.9214],[70.22344,41.92841],[70.22735,41.93083],[70.22707,41.93498],[70.25759,41.94902],[70.26107,41.95417],[70.27446,41.95327],[70.28836,41.95827],[70.29035,41.9623],[70.33527,41.97478],[70.33618,41.98449],[70.32968,41.99627],[70.33305,42.0178],[70.32438,42.02543],[70.31993,42.0366],[70.33006,42.04112],[70.33286,42.04699],[70.35096,42.05035],[70.35484,42.05655],[70.37183,42.06358],[70.37269,42.06884],[70.38184,42.07129],[70.39712,42.06801],[70.42943,42.08731],[70.44367,42.09134],[70.45821,42.0854],[70.47333,42.09992],[70.47582,42.10968],[70.50209,42.0986],[70.50589,42.09047],[70.51375,42.08732],[70.51406,42.08343],[70.52833,42.08538],[70.54573,42.07413],[70.55096,42.05839],[70.55757,42.05341],[70.55867,42.04211],[70.55166,42.03918],[70.55066,42.03505],[70.55154,42.03001],[70.55898,42.02365],[70.57664,42.0204],[70.58759,42.00979],[70.60696,42.00649],[70.62502,42.01529],[70.6383,42.01686],[70.64127,42.01912],[70.6417,42.03032],[70.65179,42.04272],[70.65543,42.06105],[70.66497,42.07103],[70.66607,42.07732],[70.6781,42.08745],[70.67892,42.0986],[70.68824,42.12216],[70.70148,42.12961],[70.70709,42.12963],[70.71464,42.14225],[70.72672,42.14927],[70.72443,42.15333],[70.72661,42.15768],[70.73808,42.16564],[70.74879,42.16585],[70.75507,42.1705],[70.75326,42.17611],[70.73905,42.18185],[70.74794,42.19154],[70.76759,42.19367],[70.77057,42.20111],[70.79282,42.2092],[70.81921,42.20252],[70.8362,42.1943],[70.85067,42.19817],[70.85519,42.20876],[70.87632,42.21262],[70.88397,42.2103],[70.88857,42.21334],[70.88857,42.22027],[70.91213,42.22831],[70.91144,42.23544],[70.9268,42.23816],[70.92569,42.24374],[70.94428,42.26373],[70.96302,42.256],[70.98904,42.25292],[71.00054,42.25598],[71.00676,42.26672],[71.00423,42.26986],[71.0085,42.27823],[71.01858,42.28155],[71.02708,42.29384],[71.03872,42.29032],[71.06442,42.2947],[71.07566,42.28378],[71.08577,42.28413],[71.10993,42.27328],[71.12238,42.27822],[71.12381,42.28295],[71.13303,42.28226],[71.15179,42.26331],[71.16539,42.25928],[71.17017,42.25298],[71.17827,42.25134],[71.19297,42.2404],[71.19867,42.2434],[71.2087,42.23697],[71.20506,42.22731],[71.20735,42.22515],[71.21452,42.22216],[71.2256,42.22312],[71.23342,42.22869],[71.24478,42.22757],[71.24552,42.21833],[71.25088,42.21083],[71.26795,42.20415],[71.26507,42.20099],[71.26872,42.19596],[71.26243,42.19293],[71.25657,42.18352],[71.25012,42.18218],[71.25955,42.17145],[71.25919,42.16771],[71.24817,42.16619],[71.23832,42.15339],[71.22079,42.14836],[71.22522,42.144],[71.22228,42.13914],[71.21014,42.13356],[71.20647,42.1372],[71.20001,42.13754],[71.19489,42.1435],[71.17337,42.14302],[71.15295,42.13051],[71.14112,42.134],[71.13126,42.11733],[71.11996,42.11208],[71.10752,42.1158],[71.10378,42.1137],[71.09966,42.09422],[71.08373,42.09409],[71.06513,42.08412],[71.05951,42.08525],[71.0485,42.08034],[71.04136,42.06256],[71.02888,42.06678],[71.02465,42.06132],[71.01596,42.06154],[71.00687,42.05737],[71.01344,42.05242],[71.00202,42.04381],[70.9922,42.03009],[70.97841,42.03329],[70.94225,42.03114],[70.91495,42.04165],[70.90035,42.0408],[70.89566,42.04907],[70.88874,42.05217],[70.88474,42.04623],[70.87979,42.04606],[70.86611,42.05403],[70.86067,42.04808],[70.86222,42.04356],[70.85575,42.04],[70.85943,42.02654],[70.8469,42.01874],[70.8381,41.99964],[70.8517,41.98985],[70.85299,41.98623],[70.84837,41.97477],[70.85229,41.95809],[70.85664,41.95268],[70.85254,41.94847],[70.85393,41.9414],[70.84587,41.93879],[70.8439,41.93219],[70.83485,41.92316],[70.81447,41.92681],[70.80823,41.92064],[70.79166,41.9292],[70.78106,41.92663],[70.77289,41.92871],[70.76665,41.93592],[70.7581,41.9366],[70.75617,41.91492],[70.75129,41.91247],[70.72115,41.92087],[70.67827,41.91358],[70.67224,41.9078],[70.66514,41.90717],[70.6606,41.89946],[70.66225,41.89444],[70.65394,41.88392],[70.64838,41.88199],[70.64731,41.87507],[70.63966,41.87204],[70.6396,41.86792],[70.63042,41.85928],[70.62723,41.85179],[70.61406,41.85345],[70.60247,41.85013],[70.59726,41.83476],[70.59838,41.81983],[70.596,41.81786],[70.57653,41.81943],[70.56895,41.81077],[70.5539,41.80764],[70.55143,41.80418],[70.53325,41.79759],[70.52752,41.79863],[70.50926,41.77286],[70.50886,41.76146],[70.50439,41.75036],[70.50843,41.74689],[70.50503,41.74373],[70.5059,41.73675],[70.49804,41.72046],[70.46676,41.72083],[70.45012,41.70266],[70.43648,41.70051],[70.41965,41.69032],[70.41235,41.6913],[70.39709,41.68454],[70.36662,41.64733],[70.34102,41.63856],[70.30932,41.63397],[70.29973,41.63019],[70.29212,41.62168],[70.28039,41.62013],[70.26555,41.60777],[70.24415,41.6163],[70.22734,41.61058],[70.21068,41.61134],[70.20864,41.60413],[70.21614,41.59528],[70.20967,41.57448],[70.18948,41.56837],[70.18806,41.56176],[70.17927,41.55753],[70.18763,41.54487],[70.18451,41.54253],[70.18058,41.52645],[70.17557,41.52518],[70.16924,41.51649],[70.18928,41.50743],[70.21208,41.5042],[70.21903,41.49621],[70.22869,41.49163],[70.2392,41.49151],[70.27029,41.49953],[70.27495,41.5115],[70.29401,41.51925],[70.30511,41.51879],[70.31271,41.50847],[70.32377,41.50111],[70.33763,41.49992],[70.34886,41.49266],[70.363,41.49291],[70.36968,41.487],[70.37205,41.47794],[70.381,41.4664],[70.39649,41.47123],[70.40683,41.46975],[70.41105,41.46027],[70.41979,41.45359],[70.43888,41.44711],[70.45109,41.4327],[70.46419,41.42638],[70.46967,41.41622],[70.46938,41.40895],[70.49457,41.39685],[70.50418,41.40285],[70.51296,41.39852],[70.53441,41.40898],[70.54886,41.40841],[70.55368,41.42169],[70.56717,41.42618],[70.56927,41.44247],[70.5861,41.44291],[70.59121,41.44585],[70.59358,41.45715],[70.60752,41.45222],[70.61994,41.45954],[70.64837,41.45816],[70.66907,41.47118],[70.67511,41.46921],[70.68692,41.47209],[70.70039,41.46595],[70.72,41.46569],[70.72269,41.46473],[70.71589,41.45494],[70.71814,41.44568],[70.73325,41.43478],[70.73359,41.42925],[70.74262,41.42166],[70.74118,41.41944],[70.75125,41.41513],[70.75612,41.40506],[70.77872,41.38844],[70.78032,41.37909],[70.77707,41.36967],[70.78011,41.36527],[70.77981,41.35638],[70.78479,41.3529],[70.77951,41.34434],[70.7807,41.33732],[70.77638,41.33305],[70.77752,41.3294],[70.78466,41.32839],[70.78511,41.32476],[70.77659,41.31612],[70.77713,41.31267],[70.76945,41.3082],[70.77022,41.30217],[70.77761,41.29914],[70.77606,41.29581],[70.77958,41.29226],[70.77515,41.2861],[70.77735,41.28381],[70.77537,41.27731],[70.76743,41.2737],[70.77072,41.26903],[70.76863,41.26251],[70.77233,41.26194],[70.77481,41.25443],[70.77264,41.23589],[70.77583,41.21575],[70.78345,41.19743],[70.78717,41.19536],[70.79689,41.21271],[70.79599,41.22398],[70.80104,41.23053],[70.8233,41.2408],[70.83278,41.24995],[70.85482,41.24993],[70.87701,41.23302],[70.88892,41.21418],[70.92443,41.19281],[70.93471,41.19045],[70.94301,41.17358],[70.96591,41.16284],[70.96792,41.16654],[70.98248,41.16876],[70.98933,41.17715],[71.03899,41.19044],[71.04914,41.18139],[71.07086,41.1774],[71.07885,41.16803],[71.08331,41.16875],[71.09932,41.15449],[71.10451,41.15551],[71.11519,41.14343],[71.12282,41.1449],[71.12459,41.14201],[71.1475,41.16074],[71.14542,41.16986],[71.15615,41.18026],[71.16137,41.18105],[71.16583,41.17684],[71.17704,41.18875],[71.19452,41.19551],[71.20447,41.19358],[71.22856,41.1805],[71.23655,41.18221],[71.23515,41.19132],[71.23839,41.19206],[71.24983,41.1822],[71.25965,41.18327],[71.27403,41.17688],[71.27447,41.14281],[71.27856,41.13303],[71.28976,41.13683],[71.28869,41.12005],[71.29383,41.10762],[71.3035,41.10932],[71.32363,41.1209],[71.36184,41.12865],[71.37074,41.1251],[71.38138,41.12598],[71.37875,41.11992],[71.38774,41.12088],[71.39601,41.10749],[71.4323,41.13276],[71.45154,41.15691],[71.44942,41.16483],[71.44114,41.17214],[71.43737,41.16997],[71.43651,41.17649],[71.43002,41.18497],[71.43085,41.18955],[71.45878,41.20697],[71.46047,41.21397],[71.45695,41.22084],[71.44761,41.22633],[71.45364,41.23583],[71.45198,41.24237],[71.44256,41.24834],[71.4474,41.25789],[71.4566,41.26288],[71.45669,41.26593],[71.4504,41.26854],[71.45285,41.27645],[71.44967,41.28104],[71.44462,41.28033],[71.44453,41.28389],[71.46544,41.29579],[71.48215,41.29621],[71.48722,41.2937],[71.49889,41.29671],[71.51671,41.30716],[71.5252,41.29429],[71.53654,41.29413],[71.54637,41.30467],[71.55575,41.29626],[71.56911,41.29309],[71.57903,41.30234],[71.58098,41.29937],[71.59779,41.31131],[71.59778,41.31649],[71.61064,41.3348],[71.63467,41.3412],[71.63927,41.35248],[71.6445,41.35464],[71.6621,41.38277],[71.6591,41.38957],[71.65096,41.393],[71.65056,41.39846],[71.66496,41.40134],[71.67147,41.41142],[71.67869,41.41594],[71.68065,41.42206],[71.67207,41.44364],[71.66223,41.45198],[71.60154,41.47665],[71.62418,41.48893],[71.65794,41.48684],[71.6599,41.49211],[71.6696,41.49745],[71.67677,41.51632],[71.70375,41.53241],[71.71705,41.54864],[71.7257,41.54869],[71.73571,41.54397],[71.73979,41.53215],[71.72097,41.5234],[71.73217,41.51513],[71.72843,41.5088],[71.73009,41.50476],[71.724,41.50199],[71.72805,41.49319],[71.71277,41.49218],[71.71365,41.47973],[71.72198,41.46705],[71.71752,41.46046],[71.70782,41.45692],[71.69694,41.44603],[71.69879,41.4439],[71.69543,41.43802],[71.69479,41.42557],[71.69745,41.42162],[71.7049,41.41819],[71.71059,41.4204],[71.71982,41.42537],[71.72147,41.42981],[71.71879,41.43202],[71.72615,41.4365],[71.73376,41.43344],[71.74134,41.42292],[71.75347,41.41762],[71.76616,41.42136],[71.76465,41.43562],[71.77424,41.43668],[71.781,41.44449],[71.78984,41.44187],[71.79368,41.41396],[71.80532,41.39963],[71.80815,41.40119],[71.81299,41.39284],[71.83139,41.38725],[71.83086,41.37692],[71.84088,41.37385],[71.83413,41.36147],[71.83832,41.35508],[71.86556,41.34943],[71.87811,41.36232],[71.88253,41.36198],[71.88361,41.35686],[71.89199,41.3521],[71.891,41.34838],[71.89538,41.34298],[71.88025,41.3385],[71.8911,41.32118],[71.90038,41.30898],[71.92509,41.29407],[71.90806,41.27766],[71.89714,41.25922],[71.9015,41.25528],[71.90761,41.2361],[71.89532,41.22001],[71.89569,41.21584],[71.88402,41.20475],[71.89109,41.1835],[71.88366,41.1729],[71.89191,41.16321],[71.90514,41.15928],[71.914,41.16044],[71.91789,41.15612],[71.93507,41.15162],[71.94251,41.14535],[71.94899,41.14588],[71.9594,41.15527],[72.01143,41.1559],[72.01098,41.14548],[72.0152,41.14135],[72.04899,41.13217],[72.07111,41.11712],[72.09347,41.13555],[72.09758,41.14507],[72.10663,41.15281],[72.12076,41.15433],[72.1379,41.1625],[72.15226,41.15968],[72.1665,41.16519],[72.177,41.15664],[72.16514,41.14461],[72.15292,41.1387],[72.15001,41.12527],[72.17879,41.1165],[72.17967,41.10642],[72.19031,41.10231],[72.19328,41.08688],[72.20172,41.07305],[72.20333,41.06444],[72.20735,41.0617],[72.2098,41.0504],[72.20845,41.02843],[72.19751,41.03087],[72.18245,41.00677],[72.16208,41.01295],[72.15935,41.00527],[72.17157,40.99508],[72.17164,40.98852],[72.18806,40.99781],[72.23874,41.00223],[72.24211,41.00525],[72.24855,41.00234],[72.25982,41.00591],[72.26602,41.01164],[72.27824,41.01555],[72.29411,41.02981],[72.31492,41.03054],[72.33029,41.03687],[72.32965,41.03919],[72.34007,41.04545],[72.34758,41.0601],[72.36184,41.04343],[72.37728,41.04111],[72.38145,41.03152],[72.39286,41.02765],[72.41671,41.0267],[72.42603,41.03461],[72.44411,41.0319],[72.48799,41.00104],[72.48562,40.99097],[72.49623,40.98852],[72.50052,40.98368],[72.48793,40.97472],[72.4907,40.97006],[72.49936,40.96726],[72.50556,40.97096],[72.50756,40.96848],[72.52012,40.96924],[72.52494,40.96602],[72.52103,40.96191],[72.5252,40.95957],[72.52896,40.96372],[72.53171,40.96137],[72.54066,40.96241],[72.54476,40.96563],[72.55153,40.96196],[72.54979,40.95745],[72.55866,40.95243]],[[72.77239,40.6773],[72.76021,40.67614],[72.75816,40.6658],[72.76751,40.66],[72.77472,40.66394],[72.77449,40.67737],[72.77239,40.6773]],[[70.58641,40.99106],[70.56149,41.00324],[70.54278,40.98864],[70.56766,40.99097],[70.58201,40.98516],[70.61034,40.96566],[70.65646,40.91858],[70.66937,40.9144],[70.66273,40.92697],[70.64198,40.94402],[70.61781,40.97184],[70.58641,40.99106]]],[[[71.79215,40.00831],[71.81589,40.0031],[71.81874,40.00102],[71.82001,39.98976],[71.8287,39.98592],[71.85887,39.98421],[71.85497,39.96932],[71.84795,39.96069],[71.84544,39.94642],[71.82654,39.9563],[71.7959,39.95897],[71.79,39.9667],[71.77732,39.96207],[71.77431,39.95032],[71.75391,39.935],[71.745,39.93381],[71.74253,39.93804],[71.74734,39.95361],[71.72183,39.9587],[71.71696,39.95219],[71.71565,39.96811],[71.73823,39.9768],[71.76333,39.97733],[71.77632,39.98737],[71.78848,39.99181],[71.78164,39.99573],[71.79672,40.00189],[71.79215,40.00831]]],[[[71.66051,40.20687],[71.67244,40.20159],[71.67109,40.19668],[71.66028,40.20181],[71.66051,40.20687]]],[[[71.20565,40.03744],[71.20868,40.03666],[71.19451,40.01437],[71.18689,40.01086],[71.18325,40.00084],[71.14195,40.00032],[71.16834,39.98708],[71.16643,39.97757],[71.16951,39.97504],[71.15902,39.96411],[71.13254,39.95865],[71.13306,39.95479],[71.14381,39.95169],[71.17833,39.95296],[71.19006,39.95049],[71.20898,39.95327],[71.21533,39.95108],[71.20408,39.94651],[71.18801,39.94724],[71.1885,39.94234],[71.19386,39.94041],[71.19274,39.93398],[71.21572,39.9275],[71.21765,39.91526],[71.21434,39.91218],[71.1974,39.91283],[71.19351,39.90674],[71.19983,39.90227],[71.19575,39.89756],[71.17453,39.89536],[71.16666,39.88771],[71.15989,39.88924],[71.1556,39.88669],[71.14685,39.88851],[71.13117,39.88614],[71.12887,39.89747],[71.13543,39.90789],[71.12047,39.92252],[71.10908,39.91722],[71.10599,39.9131],[71.10781,39.90604],[71.10305,39.90756],[71.10353,39.91401],[71.09853,39.91369],[71.09485,39.89828],[71.09906,39.88863],[71.09444,39.88539],[71.0937,39.89076],[71.0818,39.89642],[71.06639,39.89556],[71.04825,39.90108],[71.05788,39.90848],[71.0666,39.90841],[71.07777,39.91515],[71.07762,39.93569],[71.09094,39.94937],[71.12092,39.95957],[71.11891,39.96824],[71.10733,39.96776],[71.0984,39.97249],[71.09928,39.9817],[71.08991,39.99026],[71.09391,39.9965],[71.10231,39.99926],[71.10678,39.99061],[71.11362,39.99317],[71.11472,40.01503],[71.10801,40.02162],[71.09487,40.01961],[71.0749,40.02464],[71.04656,40.02335],[71.02419,40.03653],[71.0102,40.05099],[71.00491,40.08142],[71.01509,40.09237],[71.01933,40.12024],[71.00867,40.16693],[70.99938,40.18348],[71.02095,40.17815],[71.03603,40.18078],[71.03913,40.17297],[71.04624,40.17594],[71.04233,40.18196],[71.0462,40.18423],[71.06815,40.1655],[71.07749,40.14941],[71.08359,40.12043],[71.09204,40.10713],[71.09026,40.09427],[71.09713,40.09374],[71.1025,40.08783],[71.10047,40.07593],[71.1037,40.06615],[71.10283,40.05657],[71.11892,40.03688],[71.11594,40.02061],[71.12634,40.01599],[71.13544,40.01841],[71.1418,40.0266],[71.18042,40.02734],[71.18677,40.03277],[71.20565,40.03744]]],[[[71.03415,40.22611],[71.02507,40.23927],[71.02531,40.24334],[71.04099,40.2669],[71.04479,40.25326],[71.04013,40.24403],[71.04131,40.23148],[71.03905,40.22684],[71.03415,40.22611]]]]}}]}