{"type":"FeatureCollection","features":[{"type":"Feature","properties":{"ISO_A3":"VCT","WB_A3":"VCT","WB_NAME":"Saint Vincent and the Grenadines","WB_REGION":"LCN"},"geometry":{"type":"MultiPolygon","coordinates":[[[[-61.17516,13.38189],[-61.15651,13.38093],[-61.15024,13.3747],[-61.14311,13.37825],[-61.1401,13.3763],[-61.14289,13.374],[-61.14133,13.37064],[-61.13213,13.37006],[-61.13163,13.36593],[-61.13479,13.3657],[-61.13077,13.35871],[-61.13185,13.3546],[-61.11862,13.33106],[-61.11549,13.29369],[-61.11797,13.26099],[-61.11511,13.23959],[-61.12239,13.23424],[-61.13078,13.20237],[-61.13474,13.20084],[-61.14035,13.18775],[-61.1436,13.15763],[-61.14894,13.14762],[-61.15802,13.14563],[-61.16817,13.12355],[-61.18445,13.12598],[-61.18736,13.12329],[-61.2101,13.14007],[-61.22699,13.13782],[-61.2289,13.14046],[-61.22397,13.14854],[-61.23049,13.15644],[-61.24626,13.1559],[-61.24528,13.16556],[-61.24878,13.17125],[-61.25796,13.17492],[-61.25767,13.17852],[-61.26581,13.18038],[-61.26893,13.18452],[-61.26829,13.1937],[-61.27176,13.19408],[-61.27196,13.20258],[-61.278,13.20249],[-61.27527,13.21779],[-61.27787,13.2222],[-61.27427,13.22938],[-61.27628,13.24279],[-61.27046,13.24816],[-61.27304,13.25462],[-61.26035,13.26432],[-61.2636,13.27027],[-61.25946,13.27823],[-61.26084,13.28713],[-61.25138,13.28719],[-61.2366,13.29314],[-61.23354,13.29814],[-61.23503,13.31078],[-61.2267,13.31716],[-61.20569,13.36647],[-61.20131,13.37146],[-61.19421,13.37102],[-61.18599,13.37959],[-61.17516,13.38189]]],[[[-61.13289,12.9574],[-61.13416,12.96308],[-61.12891,12.96201],[-61.13217,12.9659],[-61.12757,12.96587],[-61.12735,12.96084],[-61.13289,12.9574]]],[[[-61.13669,12.94069],[-61.14112,12.94536],[-61.1403,12.9487],[-61.13669,12.94069]]],[[[-61.17063,12.89533],[-61.16797,12.88321],[-61.17572,12.88133],[-61.18231,12.85961],[-61.19097,12.86147],[-61.19313,12.8705],[-61.1877,12.87793],[-61.19055,12.88311],[-61.18881,12.8867],[-61.18457,12.89337],[-61.1767,12.89138],[-61.17404,12.89561],[-61.17063,12.89533]]],[[[-61.19313,12.83366],[-61.19873,12.8404],[-61.19675,12.84232],[-61.19046,12.8406],[-61.19313,12.83366]]],[[[-61.24677,13.01023],[-61.24869,13.01669],[-61.22321,13.03519],[-61.21242,13.03808],[-61.21027,13.04476],[-61.20447,13.04652],[-61.20616,13.03068],[-61.22199,13.02153],[-61.22307,13.01857],[-61.21572,13.01672],[-61.21617,13.00951],[-61.21999,13.00799],[-61.21873,13.00051],[-61.2302,12.99415],[-61.22919,12.98925],[-61.23301,12.98682],[-61.23285,12.99107],[-61.23691,12.99278],[-61.24301,12.98483],[-61.24852,12.985],[-61.27527,12.99149],[-61.27367,12.99521],[-61.24555,12.99721],[-61.23614,13.00913],[-61.24229,13.01252],[-61.24677,13.01023]]],[[[-61.24705,12.97082],[-61.24649,12.97545],[-61.24097,12.97516],[-61.23994,12.97244],[-61.24705,12.97082]]],[[[-61.26637,12.94879],[-61.26687,12.95278],[-61.25397,12.9567],[-61.24917,12.9662],[-61.24577,12.96514],[-61.24977,12.95886],[-61.24982,12.94984],[-61.26044,12.95236],[-61.26637,12.94879]]],[[[-61.27927,12.79032],[-61.28135,12.79432],[-61.27846,12.79431],[-61.27927,12.79032]]],[[[-61.30985,12.73217],[-61.31171,12.72857],[-61.30823,12.71902],[-61.31806,12.72024],[-61.32241,12.71679],[-61.32345,12.69825],[-61.32715,12.69402],[-61.33395,12.69741],[-61.34422,12.69297],[-61.34862,12.70162],[-61.34207,12.69952],[-61.32998,12.70293],[-61.32589,12.70754],[-61.33272,12.72574],[-61.33211,12.73875],[-61.3201,12.73147],[-61.31453,12.73838],[-61.30985,12.73217]]],[[[-61.38039,12.53257],[-61.38847,12.53969],[-61.38192,12.53939],[-61.38039,12.53257]]],[[[-61.39972,12.62864],[-61.39541,12.64742],[-61.38336,12.64348],[-61.38392,12.63795],[-61.39049,12.63697],[-61.39368,12.62951],[-61.39972,12.62864]]],[[[-61.39607,12.58315],[-61.39921,12.58419],[-61.40023,12.58961],[-61.3937,12.58519],[-61.39607,12.58315]]],[[[-61.43623,12.579],[-61.43351,12.59367],[-61.4455,12.5846],[-61.46121,12.5901],[-61.44777,12.60084],[-61.44787,12.60574],[-61.45337,12.60731],[-61.45335,12.61041],[-61.44232,12.61189],[-61.44099,12.61549],[-61.43641,12.61314],[-61.43423,12.60565],[-61.41352,12.60348],[-61.41171,12.59973],[-61.41737,12.59628],[-61.41739,12.59293],[-61.4267,12.5926],[-61.43552,12.5866],[-61.43623,12.579]]]]}}]}