{"type":"FeatureCollection","features":[{"type":"Feature","properties":{"ISO_A3":"VUT","WB_A3":"VUT","WB_NAME":"Vanuatu","WB_REGION":"EAS"},"geometry":{"type":"MultiPolygon","coordinates":[[[[170.22344,-19.54959],[170.22254,-19.54607],[170.2096,-19.54631],[170.20423,-19.53328],[170.19828,-19.52759],[170.20389,-19.51911],[170.19672,-19.51354],[170.20569,-19.51217],[170.21055,-19.51734],[170.22468,-19.51676],[170.22985,-19.51485],[170.22987,-19.51047],[170.23816,-19.50948],[170.23117,-19.52181],[170.23244,-19.54151],[170.22782,-19.54214],[170.22344,-19.54959]]],[[[169.74613,-20.19092],[169.74234,-20.18806],[169.74393,-20.15975],[169.75535,-20.14605],[169.77205,-20.13806],[169.77636,-20.14388],[169.79306,-20.1355],[169.82251,-20.13467],[169.82712,-20.13753],[169.83042,-20.13485],[169.84022,-20.1362],[169.85759,-20.14687],[169.8592,-20.15126],[169.8668,-20.1553],[169.87703,-20.15549],[169.87686,-20.15936],[169.88856,-20.16278],[169.90335,-20.19351],[169.89992,-20.19581],[169.90124,-20.202],[169.89669,-20.20892],[169.89844,-20.21254],[169.8898,-20.21918],[169.89072,-20.22459],[169.87986,-20.23521],[169.8775,-20.24202],[169.86804,-20.24775],[169.8656,-20.24529],[169.85082,-20.25215],[169.85086,-20.247],[169.84679,-20.24426],[169.83227,-20.25125],[169.82702,-20.24246],[169.81815,-20.2424],[169.81493,-20.23594],[169.80343,-20.24063],[169.8021,-20.23714],[169.78929,-20.23487],[169.78762,-20.23962],[169.7805,-20.24343],[169.7822,-20.23443],[169.76818,-20.23124],[169.76441,-20.22504],[169.76515,-20.2168],[169.75604,-20.21313],[169.75244,-20.20332],[169.74796,-20.20046],[169.74613,-20.19092]]],[[[169.61146,-19.22327],[169.61108,-19.21992],[169.60474,-19.21691],[169.60437,-19.2124],[169.60858,-19.21089],[169.61181,-19.21426],[169.61553,-19.22774],[169.60603,-19.27215],[169.59582,-19.27761],[169.59099,-19.27285],[169.59001,-19.25967],[169.59791,-19.24105],[169.59896,-19.22729],[169.60062,-19.22267],[169.60319,-19.22424],[169.60761,-19.23714],[169.61146,-19.22327]]],[[[169.43275,-19.6553],[169.42569,-19.65486],[169.42003,-19.64991],[169.40832,-19.65161],[169.39129,-19.64232],[169.38368,-19.64315],[169.35853,-19.6307],[169.35336,-19.63168],[169.34829,-19.62224],[169.34259,-19.62167],[169.33509,-19.61091],[169.33129,-19.61062],[169.32814,-19.60029],[169.31601,-19.59104],[169.31281,-19.58483],[169.29442,-19.57745],[169.28844,-19.57791],[169.28002,-19.55156],[169.27627,-19.54741],[169.27165,-19.54762],[169.26544,-19.53083],[169.25246,-19.52633],[169.24555,-19.51236],[169.2318,-19.47824],[169.22537,-19.47019],[169.221,-19.44827],[169.22286,-19.43927],[169.24958,-19.38933],[169.24953,-19.36924],[169.24646,-19.36458],[169.2487,-19.34452],[169.27586,-19.32868],[169.30387,-19.32161],[169.30799,-19.31611],[169.31234,-19.31564],[169.32695,-19.31925],[169.33051,-19.31593],[169.3424,-19.32029],[169.36002,-19.32084],[169.36321,-19.32704],[169.36132,-19.34016],[169.35191,-19.34497],[169.34758,-19.35806],[169.34842,-19.3815],[169.34565,-19.38714],[169.34928,-19.4039],[169.35319,-19.40703],[169.35308,-19.43149],[169.36811,-19.46124],[169.3878,-19.47454],[169.39783,-19.47579],[169.40086,-19.47157],[169.41275,-19.47669],[169.43068,-19.47582],[169.43599,-19.48784],[169.44089,-19.48737],[169.45573,-19.49651],[169.4611,-19.5035],[169.46048,-19.51174],[169.46941,-19.51452],[169.48898,-19.51275],[169.49029,-19.51791],[169.4961,-19.52131],[169.49181,-19.52977],[169.49641,-19.53148],[169.50051,-19.52907],[169.4992,-19.52391],[169.50195,-19.52007],[169.50656,-19.52036],[169.50393,-19.5403],[169.48541,-19.54632],[169.48204,-19.55801],[169.4718,-19.56359],[169.46652,-19.57616],[169.46971,-19.61198],[169.46856,-19.61892],[169.46392,-19.62094],[169.46176,-19.63354],[169.45056,-19.64014],[169.45107,-19.64401],[169.44627,-19.64834],[169.44814,-19.6517],[169.43275,-19.6553]]],[[[169.09106,-18.62513],[169.10974,-18.62133],[169.1466,-18.63418],[169.15675,-18.64458],[169.16211,-18.66034],[169.17508,-18.67283],[169.17741,-18.69499],[169.17121,-18.70613],[169.17605,-18.70863],[169.17987,-18.71819],[169.17628,-18.72485],[169.17935,-18.72836],[169.18667,-18.72624],[169.18687,-18.73319],[169.19008,-18.73631],[169.20942,-18.74706],[169.22106,-18.74498],[169.24227,-18.73308],[169.25526,-18.73114],[169.25916,-18.73259],[169.26401,-18.74757],[169.272,-18.75923],[169.28005,-18.76523],[169.28257,-18.77014],[169.27996,-18.77385],[169.2735,-18.77173],[169.23344,-18.77599],[169.22747,-18.77903],[169.21829,-18.77791],[169.21364,-18.78276],[169.20364,-18.78279],[169.19954,-18.78687],[169.20332,-18.78716],[169.2083,-18.80189],[169.21845,-18.81422],[169.24071,-18.83155],[169.27221,-18.84459],[169.31522,-18.87086],[169.31891,-18.88042],[169.33338,-18.89537],[169.34079,-18.91126],[169.34175,-18.92363],[169.34509,-18.92803],[169.34244,-18.9499],[169.33485,-18.95452],[169.31358,-18.98054],[169.29784,-18.9849],[169.28771,-18.99562],[169.27258,-18.99316],[169.25668,-18.98619],[169.22929,-18.9661],[169.19798,-18.9582],[169.19343,-18.9534],[169.18504,-18.95357],[169.17191,-18.94186],[169.1557,-18.93977],[169.14508,-18.94584],[169.13967,-18.94527],[169.12622,-18.93818],[169.10626,-18.93309],[169.1001,-18.92749],[169.092,-18.92586],[169.08854,-18.92042],[169.06279,-18.91294],[169.05884,-18.90363],[169.06011,-18.89901],[169.02286,-18.8927],[169.01159,-18.88524],[169.00482,-18.88581],[168.9925,-18.87564],[168.98976,-18.84472],[169.00051,-18.8384],[169.01531,-18.82208],[169.01511,-18.81538],[169.00881,-18.81094],[169.00988,-18.80091],[169.00502,-18.78824],[168.98612,-18.76384],[168.99266,-18.72503],[168.99726,-18.72444],[169.00283,-18.71098],[169.00373,-18.70288],[168.9988,-18.69678],[168.99649,-18.68645],[168.99988,-18.67413],[169.00851,-18.66418],[169.00774,-18.66006],[169.03915,-18.63026],[169.04765,-18.63112],[169.04838,-18.62624],[169.05163,-18.62537],[169.08561,-18.6292],[169.08564,-18.62662],[169.09106,-18.62513]]],[[[168.61623,-17.01738],[168.61224,-17.01489],[168.61178,-17.00896],[168.62132,-16.99582],[168.63817,-16.99588],[168.64496,-16.99879],[168.6474,-17.00655],[168.62274,-17.01051],[168.61623,-17.01738]]],[[[168.54396,-16.93685],[168.53009,-16.93411],[168.52795,-16.92353],[168.5277,-16.90164],[168.53321,-16.87905],[168.55117,-16.87592],[168.55258,-16.87002],[168.56149,-16.86304],[168.59262,-16.87487],[168.59718,-16.88445],[168.59447,-16.88699],[168.59474,-16.89755],[168.58463,-16.90438],[168.58443,-16.90953],[168.57702,-16.91356],[168.56895,-16.92749],[168.54396,-16.93685]]],[[[168.27648,-17.56069],[168.27724,-17.55529],[168.28549,-17.55026],[168.2816,-17.54171],[168.29218,-17.53388],[168.30078,-17.53284],[168.31382,-17.52169],[168.32826,-17.52485],[168.33035,-17.53774],[168.34131,-17.54934],[168.35483,-17.54206],[168.39007,-17.53584],[168.40241,-17.5266],[168.42063,-17.53452],[168.42348,-17.5307],[168.44079,-17.53373],[168.44032,-17.53031],[168.45151,-17.53574],[168.46433,-17.55958],[168.46502,-17.56757],[168.49924,-17.59658],[168.50422,-17.61492],[168.50151,-17.62672],[168.50525,-17.6278],[168.50658,-17.63863],[168.52325,-17.6463],[168.52743,-17.65511],[168.54444,-17.66742],[168.54717,-17.67389],[168.5424,-17.67949],[168.54396,-17.68312],[168.55311,-17.68143],[168.56461,-17.68518],[168.58905,-17.6847],[168.59582,-17.69122],[168.5785,-17.72087],[168.56647,-17.73668],[168.56256,-17.73741],[168.56603,-17.74964],[168.56334,-17.7593],[168.55928,-17.76156],[168.56094,-17.7778],[168.55594,-17.79009],[168.54616,-17.79769],[168.52457,-17.8045],[168.50281,-17.8041],[168.50286,-17.81002],[168.49536,-17.81803],[168.48328,-17.81697],[168.47023,-17.80857],[168.45914,-17.8137],[168.45603,-17.80581],[168.45113,-17.81012],[168.45324,-17.81272],[168.43295,-17.82262],[168.38428,-17.82481],[168.37622,-17.81531],[168.38354,-17.79275],[168.37527,-17.78853],[168.36555,-17.80101],[168.35123,-17.80609],[168.35011,-17.80003],[168.35347,-17.80007],[168.35736,-17.7915],[168.34709,-17.78609],[168.34621,-17.78247],[168.35268,-17.78101],[168.35059,-17.77648],[168.34404,-17.78347],[168.3261,-17.77962],[168.31293,-17.79797],[168.3127,-17.76837],[168.32515,-17.75336],[168.3309,-17.73963],[168.3245,-17.74254],[168.31151,-17.7672],[168.29712,-17.77755],[168.29311,-17.77595],[168.28387,-17.78342],[168.28415,-17.7739],[168.27976,-17.77113],[168.2759,-17.77713],[168.26817,-17.77342],[168.26375,-17.78134],[168.25864,-17.78204],[168.25791,-17.77714],[168.26447,-17.76925],[168.28692,-17.75901],[168.29374,-17.75241],[168.29609,-17.75656],[168.31249,-17.7555],[168.31389,-17.74415],[168.31054,-17.72433],[168.30046,-17.73397],[168.29427,-17.73466],[168.29619,-17.71435],[168.29356,-17.71072],[168.27926,-17.69713],[168.26682,-17.69413],[168.26635,-17.69001],[168.2569,-17.68473],[168.25153,-17.68414],[168.23974,-17.69169],[168.20626,-17.72133],[168.20203,-17.73388],[168.1932,-17.7407],[168.18241,-17.74351],[168.18351,-17.73362],[168.17129,-17.73357],[168.17001,-17.72982],[168.18041,-17.70809],[168.17708,-17.70663],[168.15897,-17.71409],[168.1573,-17.7093],[168.16621,-17.6976],[168.17353,-17.69333],[168.18209,-17.67852],[168.19173,-17.64495],[168.1989,-17.64145],[168.204,-17.63277],[168.22421,-17.62765],[168.23987,-17.61294],[168.2451,-17.60401],[168.24375,-17.58726],[168.2484,-17.57214],[168.27588,-17.56506],[168.27648,-17.56069]]],[[[168.58692,-17.02862],[168.57987,-17.0248],[168.58921,-17.01706],[168.59353,-17.02394],[168.58692,-17.02862]]],[[[168.58182,-16.96742],[168.57187,-16.95005],[168.57482,-16.94983],[168.58455,-16.96308],[168.58182,-16.96742]]],[[[168.56271,-16.83088],[168.55896,-16.83084],[168.55941,-16.82711],[168.56263,-16.82663],[168.56271,-16.83088]]],[[[168.49269,-17.46753],[168.50363,-17.47153],[168.49977,-17.48899],[168.48747,-17.49617],[168.47997,-17.4953],[168.47359,-17.48119],[168.47486,-17.47683],[168.48276,-17.46818],[168.49269,-17.46753]]],[[[168.13328,-16.64737],[168.13556,-16.63736],[168.14688,-16.63031],[168.15156,-16.6206],[168.16059,-16.61454],[168.15933,-16.60088],[168.16739,-16.59688],[168.15308,-16.57197],[168.17655,-16.57281],[168.18093,-16.5654],[168.19238,-16.5671],[168.19993,-16.58059],[168.20446,-16.58091],[168.21166,-16.59053],[168.20676,-16.5969],[168.20736,-16.60179],[168.22216,-16.61229],[168.22476,-16.63549],[168.23432,-16.63896],[168.23759,-16.64364],[168.23453,-16.65235],[168.23606,-16.66652],[168.24834,-16.68522],[168.25497,-16.68878],[168.26515,-16.68673],[168.26572,-16.68365],[168.27508,-16.68274],[168.27648,-16.67825],[168.30583,-16.67993],[168.31166,-16.68322],[168.32063,-16.69157],[168.32582,-16.71197],[168.33407,-16.72315],[168.33356,-16.73138],[168.34269,-16.7378],[168.35501,-16.735],[168.35746,-16.74147],[168.35504,-16.75251],[168.36848,-16.76632],[168.38014,-16.77329],[168.41159,-16.77883],[168.4218,-16.77472],[168.43615,-16.76125],[168.44364,-16.76057],[168.45957,-16.76824],[168.47172,-16.77868],[168.47614,-16.78775],[168.49047,-16.79526],[168.48563,-16.7979],[168.47683,-16.79612],[168.47372,-16.79904],[168.47218,-16.81421],[168.48098,-16.8259],[168.47997,-16.84185],[168.47568,-16.84257],[168.47043,-16.8353],[168.46371,-16.83805],[168.45039,-16.83466],[168.40552,-16.81222],[168.3967,-16.81275],[168.38944,-16.80623],[168.38702,-16.7977],[168.36727,-16.79565],[168.35489,-16.78249],[168.32945,-16.78641],[168.32761,-16.78407],[168.31238,-16.78426],[168.30271,-16.78799],[168.28032,-16.80314],[168.2696,-16.80506],[168.26269,-16.81204],[168.26459,-16.81876],[168.25921,-16.82165],[168.2534,-16.81642],[168.24878,-16.82215],[168.23755,-16.82239],[168.23153,-16.81394],[168.17929,-16.80435],[168.1734,-16.78741],[168.15603,-16.77842],[168.15544,-16.76426],[168.151,-16.75776],[168.14858,-16.74075],[168.15097,-16.73306],[168.14697,-16.73223],[168.14565,-16.72243],[168.14263,-16.71904],[168.13674,-16.71948],[168.12334,-16.69587],[168.11911,-16.6935],[168.11785,-16.68859],[168.12821,-16.68333],[168.13328,-16.64737]]],[[[168.4661,-17.81559],[168.46723,-17.81162],[168.46987,-17.81538],[168.4661,-17.81559]]],[[[168.44141,-17.14242],[168.43342,-17.13884],[168.42928,-17.12901],[168.44342,-17.13228],[168.44626,-17.13965],[168.44141,-17.14242]]],[[[168.43651,-17.26437],[168.43363,-17.25957],[168.42229,-17.25659],[168.42028,-17.2473],[168.42342,-17.24258],[168.4278,-17.24585],[168.42942,-17.25411],[168.43631,-17.26012],[168.43651,-17.26437]]],[[[168.34409,-17.09496],[168.33397,-17.09174],[168.33421,-17.07488],[168.37059,-17.05721],[168.38425,-17.03667],[168.39927,-17.0339],[168.41393,-17.03846],[168.43249,-17.05105],[168.43283,-17.05543],[168.42107,-17.06391],[168.39565,-17.06384],[168.36496,-17.09588],[168.35555,-17.09859],[168.34409,-17.09496]]],[[[168.40742,-17.50389],[168.40368,-17.50294],[168.39953,-17.49311],[168.3937,-17.4884],[168.39186,-17.48515],[168.39405,-17.48261],[168.40609,-17.48444],[168.41831,-17.49309],[168.41923,-17.50327],[168.4139,-17.50114],[168.40742,-17.50389]]],[[[168.40237,-17.51991],[168.40296,-17.51606],[168.40809,-17.51355],[168.40855,-17.51871],[168.40237,-17.51991]]],[[[168.36696,-17.48238],[168.34671,-17.4731],[168.32774,-17.44068],[168.32373,-17.43071],[168.3285,-17.42499],[168.32613,-17.42212],[168.3363,-17.41402],[168.35025,-17.41344],[168.3567,-17.43102],[168.38065,-17.463],[168.38834,-17.47803],[168.38788,-17.48266],[168.38168,-17.48425],[168.36696,-17.48238]]],[[[168.32051,-16.48822],[168.33604,-16.48366],[168.35177,-16.48463],[168.35678,-16.48869],[168.36922,-16.51587],[168.36839,-16.52822],[168.35562,-16.53475],[168.34228,-16.53509],[168.32289,-16.52828],[168.30758,-16.50633],[168.30677,-16.49783],[168.32051,-16.48822]]],[[[168.35947,-16.83802],[168.35743,-16.83104],[168.36013,-16.82876],[168.36265,-16.83034],[168.35947,-16.83802]]],[[[168.3522,-17.79529],[168.34887,-17.79332],[168.35067,-17.78961],[168.35398,-17.79313],[168.3522,-17.79529]]],[[[168.08073,-16.1803],[168.08427,-16.17494],[168.08126,-16.1713],[168.08331,-16.16785],[168.09051,-16.16679],[168.09223,-16.15858],[168.10908,-16.15366],[168.11963,-16.14197],[168.13216,-16.10405],[168.15408,-16.09829],[168.17533,-16.10127],[168.18323,-16.10743],[168.19164,-16.12465],[168.19681,-16.15509],[168.19476,-16.15867],[168.19787,-16.16437],[168.20423,-16.16703],[168.20299,-16.17963],[168.21065,-16.19337],[168.2168,-16.22022],[168.22053,-16.22027],[168.22011,-16.2312],[168.21741,-16.23322],[168.22103,-16.24112],[168.22497,-16.24529],[168.24199,-16.24783],[168.26975,-16.26312],[168.30327,-16.28697],[168.31271,-16.30794],[168.30907,-16.33081],[168.30346,-16.33163],[168.30217,-16.33792],[168.28534,-16.35045],[168.27248,-16.35505],[168.2451,-16.35881],[168.20934,-16.35203],[168.1997,-16.35473],[168.18919,-16.36296],[168.18497,-16.35968],[168.17108,-16.36156],[168.161,-16.35808],[168.14137,-16.37016],[168.12748,-16.37152],[168.09734,-16.35451],[168.06624,-16.3488],[168.04934,-16.33853],[168.0387,-16.33696],[168.0363,-16.32792],[168.02667,-16.32174],[168.01868,-16.32137],[168.01326,-16.32747],[168.00542,-16.31706],[167.98471,-16.31201],[167.9798,-16.30216],[167.9646,-16.29422],[167.95172,-16.27422],[167.93999,-16.27469],[167.93421,-16.26972],[167.91988,-16.26565],[167.92208,-16.25269],[167.91242,-16.24045],[167.91288,-16.22759],[167.91821,-16.21944],[167.92999,-16.2151],[167.94006,-16.21859],[167.97242,-16.20979],[167.98647,-16.19674],[167.99872,-16.19679],[168.00374,-16.19969],[168.01125,-16.19568],[168.01868,-16.19758],[168.03951,-16.19388],[168.04424,-16.19833],[168.06284,-16.19241],[168.06334,-16.18572],[168.06819,-16.18141],[168.08073,-16.1803]]],[[[168.30884,-17.74863],[168.30866,-17.74232],[168.31082,-17.74184],[168.30884,-17.74863]]],[[[168.22615,-17.55343],[168.23088,-17.55131],[168.22734,-17.53684],[168.22865,-17.53017],[168.24571,-17.51973],[168.26879,-17.51889],[168.26778,-17.51476],[168.28053,-17.50502],[168.29364,-17.50713],[168.30637,-17.52635],[168.29226,-17.52809],[168.27106,-17.53719],[168.26594,-17.54767],[168.23827,-17.55051],[168.23521,-17.55729],[168.21919,-17.57006],[168.21292,-17.56752],[168.21365,-17.56342],[168.22615,-17.55343]]],[[[168.29762,-17.74397],[168.29964,-17.747],[168.29617,-17.75116],[168.29135,-17.75058],[168.29277,-17.74519],[168.29762,-17.74397]]],[[[168.14528,-15.4533],[168.14932,-15.44936],[168.16313,-15.44851],[168.16893,-15.45154],[168.16831,-15.46749],[168.16362,-15.4713],[168.16001,-15.48232],[168.16187,-15.50216],[168.17446,-15.51275],[168.19093,-15.51206],[168.19417,-15.51827],[168.19286,-15.53602],[168.1985,-15.55153],[168.20053,-15.57756],[168.1978,-15.58318],[168.19139,-15.58619],[168.19104,-15.59211],[168.18512,-15.59795],[168.18955,-15.61397],[168.19442,-15.61737],[168.19195,-15.62275],[168.20307,-15.64477],[168.19956,-15.64936],[168.20391,-15.65147],[168.20381,-15.65868],[168.20563,-15.66205],[168.21648,-15.66476],[168.21987,-15.66995],[168.21625,-15.68213],[168.21249,-15.68479],[168.21452,-15.69176],[168.21914,-15.69388],[168.22381,-15.70243],[168.22126,-15.71132],[168.22421,-15.71196],[168.22258,-15.71503],[168.23098,-15.75194],[168.23977,-15.76029],[168.24176,-15.77061],[168.24543,-15.77401],[168.24566,-15.78688],[168.24896,-15.78872],[168.24784,-15.81213],[168.25238,-15.82043],[168.2502,-15.82426],[168.25519,-15.82947],[168.25743,-15.84083],[168.26248,-15.84076],[168.26681,-15.84481],[168.27097,-15.87163],[168.26973,-15.88448],[168.27581,-15.89717],[168.27141,-15.8984],[168.2697,-15.91666],[168.28003,-15.92013],[168.28141,-15.92607],[168.27696,-15.93065],[168.26899,-15.92939],[168.26297,-15.93202],[168.26922,-15.94239],[168.27561,-15.97156],[168.26652,-15.97466],[168.25628,-15.98393],[168.25629,-15.99294],[168.24946,-15.99607],[168.2452,-16.00618],[168.23011,-16.00997],[168.22648,-16.00298],[168.21747,-16.00054],[168.21142,-16.01449],[168.20716,-16.00517],[168.18927,-15.99027],[168.18395,-15.98042],[168.19406,-15.95224],[168.18468,-15.9377],[168.18879,-15.90996],[168.18174,-15.9006],[168.18056,-15.89029],[168.173,-15.87886],[168.16597,-15.84917],[168.16902,-15.80237],[168.1646,-15.79536],[168.16291,-15.78298],[168.14149,-15.76546],[168.14298,-15.74463],[168.13203,-15.73895],[168.13012,-15.73314],[168.13482,-15.71982],[168.12467,-15.7045],[168.1239,-15.69316],[168.11226,-15.68014],[168.12077,-15.66069],[168.11,-15.64305],[168.11748,-15.6398],[168.12361,-15.6283],[168.12106,-15.6208],[168.12709,-15.60775],[168.123,-15.59612],[168.13401,-15.56821],[168.13437,-15.56152],[168.1316,-15.5602],[168.13327,-15.55481],[168.14205,-15.55364],[168.15011,-15.54654],[168.14845,-15.54188],[168.1396,-15.53855],[168.13834,-15.53377],[168.14367,-15.52277],[168.1386,-15.49581],[168.14438,-15.46152],[168.141,-15.45633],[168.14528,-15.4533]]],[[[168.25161,-16.49325],[168.23961,-16.51124],[168.22016,-16.50982],[168.21188,-16.5007],[168.21899,-16.46065],[168.22414,-16.45531],[168.23248,-16.43148],[168.2357,-16.42985],[168.2578,-16.43233],[168.26109,-16.4352],[168.26152,-16.44293],[168.25349,-16.46342],[168.25161,-16.49325]]],[[[168.21905,-17.61394],[168.19239,-17.60275],[168.19626,-17.59508],[168.20619,-17.58647],[168.21133,-17.57471],[168.21487,-17.58891],[168.2255,-17.60476],[168.22407,-17.6104],[168.21905,-17.61394]]],[[[168.05745,-14.98553],[168.05968,-14.97732],[168.05732,-14.96648],[168.06018,-14.9606],[168.05141,-14.93359],[168.04642,-14.93108],[168.03915,-14.90087],[168.04455,-14.89296],[168.04773,-14.89275],[168.05506,-14.89876],[168.06457,-14.9003],[168.07256,-14.89693],[168.08159,-14.90373],[168.08341,-14.91611],[168.09722,-14.94228],[168.09526,-14.95024],[168.10974,-14.99572],[168.10979,-15.01194],[168.11528,-15.01716],[168.11484,-15.0205],[168.12206,-15.02496],[168.12324,-15.03579],[168.12866,-15.04615],[168.12845,-15.05207],[168.12473,-15.05305],[168.12306,-15.05921],[168.12803,-15.06339],[168.12554,-15.07185],[168.13574,-15.09129],[168.13382,-15.09615],[168.13958,-15.11141],[168.1446,-15.11225],[168.14782,-15.11924],[168.1427,-15.12535],[168.1425,-15.1305],[168.14926,-15.14989],[168.14957,-15.16611],[168.15072,-15.16934],[168.16837,-15.17793],[168.17185,-15.18518],[168.16533,-15.19719],[168.17508,-15.21096],[168.17314,-15.21763],[168.17736,-15.22926],[168.17384,-15.23462],[168.17514,-15.24622],[168.16885,-15.25052],[168.17075,-15.25749],[168.16809,-15.25797],[168.17407,-15.26654],[168.17425,-15.27324],[168.16583,-15.27854],[168.17466,-15.29178],[168.16479,-15.29654],[168.17007,-15.3078],[168.17989,-15.30728],[168.18139,-15.314],[168.18508,-15.31584],[168.18021,-15.32325],[168.17756,-15.32296],[168.17839,-15.33017],[168.17344,-15.33333],[168.17388,-15.34016],[168.18205,-15.34386],[168.18049,-15.36147],[168.17206,-15.3669],[168.171,-15.37693],[168.17335,-15.37953],[168.17006,-15.38773],[168.16446,-15.38971],[168.14746,-15.3913],[168.14349,-15.38482],[168.13613,-15.38587],[168.12507,-15.37968],[168.13438,-15.37774],[168.13439,-15.36771],[168.131,-15.35351],[168.12618,-15.34701],[168.12629,-15.33903],[168.11871,-15.33121],[168.1196,-15.31449],[168.11417,-15.30439],[168.11196,-15.29123],[168.1104,-15.27911],[168.11652,-15.26813],[168.11779,-15.24266],[168.11296,-15.23732],[168.1163,-15.23569],[168.11628,-15.22746],[168.10841,-15.2114],[168.10834,-15.20676],[168.11276,-15.20373],[168.11121,-15.19084],[168.10716,-15.18641],[168.10919,-15.17409],[168.10384,-15.16758],[168.10387,-15.15549],[168.0993,-15.14101],[168.09123,-15.13061],[168.07915,-15.10318],[168.07909,-15.07847],[168.06922,-15.0544],[168.0683,-15.02479],[168.0647,-15.00776],[168.05855,-15.00202],[168.05745,-14.98553]]],[[[168.15229,-17.64412],[168.14562,-17.64171],[168.16079,-17.63279],[168.16114,-17.63627],[168.15229,-17.64412]]],[[[168.13818,-16.58695],[168.1301,-16.59173],[168.12946,-16.58117],[168.13879,-16.58182],[168.13818,-16.58695]]],[[[168.02182,-14.45976],[168.02403,-14.4476],[168.02868,-14.4426],[168.03954,-14.43922],[168.06798,-14.44593],[168.06107,-14.46952],[168.05037,-14.47968],[168.03583,-14.48079],[168.02796,-14.47657],[168.02378,-14.47266],[168.02182,-14.45976]]],[[[167.67381,-15.43213],[167.6779,-15.41973],[167.73353,-15.37181],[167.74378,-15.36474],[167.76178,-15.36142],[167.7731,-15.35498],[167.79691,-15.33023],[167.81816,-15.31651],[167.82916,-15.31747],[167.84333,-15.31304],[167.8743,-15.2973],[167.89214,-15.29214],[167.89513,-15.2873],[167.90385,-15.28896],[167.91214,-15.28432],[167.92405,-15.28551],[167.93156,-15.27995],[167.93976,-15.28096],[167.95867,-15.27466],[167.96689,-15.2749],[167.98124,-15.28178],[167.98195,-15.27845],[167.98862,-15.27545],[167.99302,-15.29249],[167.94253,-15.35512],[167.92904,-15.39739],[167.91266,-15.41094],[167.90426,-15.42291],[167.89745,-15.42578],[167.88409,-15.44103],[167.84943,-15.47026],[167.83989,-15.46948],[167.83715,-15.47472],[167.8313,-15.47592],[167.82428,-15.47492],[167.82237,-15.46962],[167.81551,-15.46707],[167.78918,-15.46868],[167.7682,-15.46585],[167.75845,-15.47138],[167.74678,-15.4723],[167.73664,-15.4683],[167.72102,-15.47081],[167.70825,-15.46891],[167.68709,-15.45372],[167.67759,-15.45044],[167.67381,-15.43213]]],[[[167.83534,-16.53548],[167.8315,-16.53362],[167.83039,-16.52807],[167.8236,-16.52732],[167.82684,-16.51657],[167.83347,-16.51924],[167.83775,-16.52625],[167.83534,-16.53548]]],[[[167.23379,-15.88066],[167.26285,-15.88615],[167.28,-15.8964],[167.27883,-15.89924],[167.2856,-15.89775],[167.30222,-15.90852],[167.32514,-15.91226],[167.33346,-15.91797],[167.3366,-15.92489],[167.32853,-15.92909],[167.32851,-15.93888],[167.34738,-15.97098],[167.35886,-15.97433],[167.36186,-15.98022],[167.37148,-15.98346],[167.38262,-16.00317],[167.39151,-16.01156],[167.3998,-16.01482],[167.40695,-16.01191],[167.40132,-16.01995],[167.40627,-16.03251],[167.38902,-16.05948],[167.3908,-16.06384],[167.40118,-16.06372],[167.40685,-16.06996],[167.41696,-16.06972],[167.41848,-16.07434],[167.40327,-16.08275],[167.40386,-16.08712],[167.4087,-16.09118],[167.41509,-16.09085],[167.43182,-16.1092],[167.45138,-16.11824],[167.4738,-16.14424],[167.4767,-16.14189],[167.48287,-16.14465],[167.48576,-16.14205],[167.47791,-16.13158],[167.47888,-16.12385],[167.48311,-16.122],[167.48983,-16.12681],[167.48346,-16.12804],[167.48456,-16.13086],[167.49103,-16.13761],[167.49691,-16.13895],[167.50155,-16.13774],[167.50199,-16.12976],[167.49755,-16.12608],[167.50059,-16.12462],[167.50286,-16.13567],[167.50071,-16.14445],[167.49194,-16.14648],[167.49079,-16.14997],[167.4964,-16.16036],[167.50138,-16.16343],[167.51527,-16.15818],[167.51495,-16.16487],[167.51973,-16.17434],[167.53552,-16.17995],[167.54585,-16.1748],[167.54208,-16.17227],[167.54303,-16.16299],[167.5489,-16.17425],[167.54912,-16.19124],[167.55439,-16.19684],[167.56396,-16.19569],[167.57543,-16.21731],[167.59516,-16.2181],[167.6046,-16.22686],[167.61235,-16.22857],[167.62091,-16.25137],[167.62523,-16.25557],[167.65435,-16.27189],[167.66034,-16.27175],[167.6695,-16.26494],[167.68942,-16.26847],[167.6911,-16.27133],[167.6727,-16.28854],[167.6767,-16.29619],[167.6905,-16.29936],[167.6943,-16.31062],[167.70911,-16.30943],[167.71732,-16.32037],[167.71698,-16.32499],[167.73448,-16.33002],[167.74443,-16.3406],[167.7537,-16.34396],[167.75824,-16.34313],[167.76011,-16.33466],[167.76534,-16.33269],[167.77682,-16.35576],[167.77643,-16.37171],[167.78054,-16.37306],[167.78401,-16.38881],[167.78951,-16.39481],[167.78214,-16.40499],[167.78299,-16.41027],[167.79238,-16.41492],[167.78703,-16.42384],[167.77819,-16.42628],[167.77282,-16.44498],[167.76685,-16.45107],[167.7726,-16.46914],[167.77625,-16.4633],[167.77728,-16.47658],[167.78127,-16.47634],[167.78353,-16.4717],[167.77954,-16.45795],[167.78492,-16.44671],[167.78553,-16.43437],[167.79947,-16.42918],[167.80549,-16.41988],[167.81525,-16.42659],[167.83508,-16.4696],[167.82339,-16.47483],[167.81461,-16.46582],[167.80831,-16.46714],[167.81051,-16.47275],[167.8146,-16.47124],[167.81376,-16.48407],[167.80288,-16.4859],[167.79905,-16.4798],[167.79066,-16.48708],[167.78626,-16.48715],[167.79067,-16.49414],[167.78594,-16.50629],[167.77656,-16.50885],[167.76693,-16.51873],[167.7674,-16.54653],[167.75757,-16.54393],[167.7466,-16.54633],[167.73894,-16.54171],[167.73745,-16.53487],[167.72457,-16.52373],[167.7214,-16.51391],[167.6981,-16.51187],[167.68542,-16.50511],[167.66971,-16.50357],[167.6618,-16.49804],[167.64624,-16.50358],[167.63186,-16.50271],[167.63004,-16.49946],[167.62438,-16.50349],[167.61276,-16.49648],[167.60546,-16.48697],[167.59509,-16.49336],[167.59447,-16.50596],[167.59092,-16.51053],[167.58156,-16.51179],[167.57434,-16.52044],[167.57361,-16.52585],[167.58732,-16.53337],[167.58702,-16.54288],[167.58331,-16.54874],[167.56788,-16.55668],[167.56173,-16.5556],[167.56432,-16.54939],[167.56239,-16.54478],[167.54873,-16.54134],[167.54054,-16.54762],[167.54259,-16.5512],[167.53906,-16.55639],[167.53976,-16.56951],[167.53354,-16.57345],[167.53457,-16.58065],[167.52446,-16.5836],[167.5191,-16.58186],[167.51433,-16.57394],[167.51547,-16.56929],[167.50877,-16.56744],[167.50187,-16.57036],[167.50129,-16.58774],[167.49491,-16.58962],[167.4906,-16.58684],[167.49503,-16.57726],[167.48931,-16.56858],[167.46048,-16.56815],[167.45892,-16.56096],[167.46173,-16.56131],[167.46262,-16.55808],[167.45337,-16.5551],[167.44253,-16.54236],[167.43019,-16.53735],[167.42181,-16.52818],[167.41762,-16.5133],[167.42059,-16.50554],[167.41805,-16.49424],[167.42189,-16.4924],[167.42784,-16.49838],[167.4392,-16.49992],[167.43889,-16.50713],[167.44453,-16.51028],[167.4548,-16.50926],[167.44931,-16.50804],[167.44607,-16.49392],[167.43531,-16.49829],[167.44268,-16.48984],[167.44536,-16.48028],[167.44028,-16.45846],[167.42317,-16.44411],[167.41691,-16.43453],[167.40077,-16.42313],[167.40047,-16.42056],[167.40736,-16.41713],[167.40477,-16.37957],[167.39749,-16.37335],[167.39083,-16.37433],[167.39024,-16.36931],[167.38594,-16.3664],[167.38911,-16.36405],[167.38546,-16.35019],[167.3757,-16.3485],[167.38459,-16.33372],[167.3849,-16.31544],[167.38084,-16.31033],[167.38654,-16.29688],[167.38441,-16.28506],[167.39825,-16.27281],[167.39822,-16.26997],[167.38941,-16.26484],[167.3859,-16.25492],[167.39073,-16.24612],[167.38099,-16.23438],[167.38398,-16.20629],[167.38872,-16.19027],[167.3941,-16.18339],[167.39115,-16.18175],[167.38376,-16.18737],[167.376,-16.18518],[167.35542,-16.16436],[167.35261,-16.15592],[167.34127,-16.14343],[167.33169,-16.1098],[167.31728,-16.11846],[167.29405,-16.1254],[167.29103,-16.12878],[167.29268,-16.13365],[167.28362,-16.14469],[167.27355,-16.14931],[167.25774,-16.16441],[167.25109,-16.1659],[167.2388,-16.16281],[167.22901,-16.14476],[167.2205,-16.14665],[167.2012,-16.13578],[167.19454,-16.13559],[167.19324,-16.14125],[167.18897,-16.13783],[167.17667,-16.12122],[167.17794,-16.1098],[167.17473,-16.10063],[167.16689,-16.09158],[167.15862,-16.09038],[167.15525,-16.08642],[167.15692,-16.08074],[167.15354,-16.0764],[167.15829,-16.04725],[167.17428,-16.02789],[167.17657,-16.0187],[167.17455,-16.01207],[167.18045,-16.00351],[167.18048,-15.9945],[167.185,-15.99381],[167.18385,-15.98623],[167.19019,-15.98127],[167.1904,-15.97612],[167.18323,-15.96563],[167.17403,-15.92684],[167.17714,-15.90699],[167.19056,-15.89294],[167.21311,-15.88731],[167.21703,-15.88006],[167.23379,-15.88066]]],[[[167.82598,-16.48799],[167.83389,-16.49326],[167.8241,-16.50482],[167.80638,-16.50416],[167.80731,-16.49835],[167.82598,-16.48799]]],[[[167.80057,-14.32011],[167.7985,-14.32373],[167.79386,-14.3225],[167.79656,-14.31655],[167.79893,-14.31575],[167.80057,-14.32011]]],[[[167.78594,-16.55428],[167.7801,-16.55303],[167.77937,-16.54852],[167.78233,-16.54676],[167.78387,-16.5509],[167.78683,-16.54889],[167.78594,-16.55428]]],[[[167.77441,-16.52567],[167.77358,-16.51961],[167.78121,-16.51831],[167.77441,-16.52567]]],[[[167.77282,-16.54108],[167.77109,-16.53295],[167.77537,-16.5325],[167.77705,-16.53536],[167.77282,-16.54108]]],[[[167.70898,-13.64642],[167.71347,-13.64817],[167.71611,-13.66024],[167.71706,-13.67413],[167.71409,-13.67893],[167.68439,-13.68363],[167.67241,-13.6956],[167.64086,-13.70006],[167.6265,-13.71077],[167.62123,-13.71082],[167.61763,-13.70687],[167.62848,-13.69929],[167.64328,-13.68034],[167.65295,-13.67457],[167.65615,-13.66655],[167.65489,-13.65101],[167.67847,-13.64932],[167.69166,-13.65188],[167.70898,-13.64642]]],[[[167.68479,-13.83436],[167.69791,-13.82945],[167.70694,-13.83618],[167.71328,-13.84846],[167.708,-13.85946],[167.70012,-13.86161],[167.68245,-13.85962],[167.67595,-13.84424],[167.68479,-13.83436]]],[[[167.65311,-16.52247],[167.64652,-16.51851],[167.65164,-16.51499],[167.65521,-16.51672],[167.65581,-16.5211],[167.65311,-16.52247]]],[[[167.63136,-13.72127],[167.62626,-13.71296],[167.63326,-13.71469],[167.63136,-13.72127]]],[[[167.61765,-13.88555],[167.61255,-13.87685],[167.61474,-13.87362],[167.61929,-13.87909],[167.61765,-13.88555]]],[[[167.54473,-14.20327],[167.5553,-14.20392],[167.56752,-14.21126],[167.57224,-14.20902],[167.58009,-14.21421],[167.57921,-14.2169],[167.59027,-14.21591],[167.59543,-14.22898],[167.6029,-14.23559],[167.60268,-14.23933],[167.59496,-14.24546],[167.60378,-14.25489],[167.60809,-14.27364],[167.59911,-14.28481],[167.6021,-14.2925],[167.59943,-14.30103],[167.58729,-14.31352],[167.58447,-14.3326],[167.57496,-14.35536],[167.56969,-14.35593],[167.56135,-14.36555],[167.55005,-14.37069],[167.53712,-14.37199],[167.521,-14.37074],[167.51409,-14.36721],[167.50294,-14.36858],[167.48116,-14.36033],[167.43598,-14.36529],[167.43348,-14.35775],[167.41729,-14.35522],[167.41565,-14.34983],[167.42303,-14.34086],[167.43414,-14.31479],[167.43064,-14.30719],[167.43271,-14.30331],[167.4294,-14.30257],[167.42279,-14.28924],[167.42863,-14.2794],[167.42475,-14.27455],[167.42551,-14.2637],[167.42075,-14.25888],[167.42544,-14.25265],[167.43218,-14.2289],[167.43518,-14.22552],[167.44826,-14.22667],[167.44807,-14.22153],[167.46307,-14.21725],[167.46375,-14.2072],[167.48308,-14.21331],[167.48831,-14.20824],[167.50097,-14.2081],[167.50329,-14.20306],[167.5246,-14.1964],[167.54473,-14.20327]]],[[[167.59578,-13.88565],[167.59235,-13.88492],[167.59191,-13.88145],[167.59699,-13.87599],[167.60621,-13.87563],[167.60456,-13.88157],[167.59578,-13.88565]]],[[[167.59582,-16.51987],[167.59013,-16.51721],[167.59649,-16.51217],[167.59582,-16.51987]]],[[[167.47458,-13.71401],[167.47854,-13.71448],[167.47992,-13.72065],[167.48571,-13.72059],[167.48615,-13.72445],[167.48998,-13.72621],[167.49259,-13.72374],[167.50291,-13.7284],[167.51603,-13.74784],[167.5205,-13.74779],[167.52346,-13.75368],[167.52141,-13.75859],[167.52729,-13.7664],[167.5306,-13.78064],[167.53561,-13.78059],[167.53303,-13.78603],[167.53753,-13.78752],[167.53413,-13.78988],[167.53521,-13.7927],[167.53943,-13.79265],[167.54666,-13.80391],[167.546,-13.8155],[167.55952,-13.82347],[167.5589,-13.82843],[167.55451,-13.82339],[167.54531,-13.82516],[167.53999,-13.83281],[167.54181,-13.86678],[167.55442,-13.87624],[167.56894,-13.86534],[167.58354,-13.87536],[167.57783,-13.88301],[167.56256,-13.88472],[167.5554,-13.89213],[167.54888,-13.89341],[167.54551,-13.90382],[167.53559,-13.90083],[167.53407,-13.906],[167.52134,-13.89918],[167.50196,-13.91045],[167.49144,-13.91236],[167.48534,-13.90907],[167.48204,-13.91194],[167.47875,-13.90927],[167.47345,-13.91924],[167.47956,-13.92329],[167.4776,-13.9246],[167.48005,-13.93204],[167.49,-13.93832],[167.49052,-13.95022],[167.47118,-13.96548],[167.4575,-13.96832],[167.44913,-13.96274],[167.4445,-13.94863],[167.4497,-13.9169],[167.44182,-13.90668],[167.4254,-13.89951],[167.40685,-13.87978],[167.40082,-13.86743],[167.39461,-13.86518],[167.38668,-13.85643],[167.37973,-13.83136],[167.3863,-13.82612],[167.38496,-13.79781],[167.38781,-13.78053],[167.38415,-13.77849],[167.40146,-13.74924],[167.40959,-13.74632],[167.42058,-13.73849],[167.4208,-13.73437],[167.43781,-13.72352],[167.45044,-13.72275],[167.45327,-13.71602],[167.46904,-13.71755],[167.47458,-13.71401]]],[[[167.55284,-13.79084],[167.5465,-13.7891],[167.54987,-13.78431],[167.55329,-13.78376],[167.55284,-13.79084]]],[[[167.52799,-13.58524],[167.53114,-13.5847],[167.53665,-13.59545],[167.53496,-13.60963],[167.54087,-13.6209],[167.53029,-13.62899],[167.53426,-13.61839],[167.53252,-13.61584],[167.52859,-13.61716],[167.53227,-13.59189],[167.52461,-13.58965],[167.51073,-13.59623],[167.50658,-13.60181],[167.50263,-13.60185],[167.49863,-13.59713],[167.52799,-13.58524]]],[[[167.52304,-13.61542],[167.5253,-13.60535],[167.52725,-13.61486],[167.52304,-13.61542]]],[[[167.48631,-16.1217],[167.48079,-16.11713],[167.48245,-16.11119],[167.47964,-16.11019],[167.47999,-16.10607],[167.48631,-16.1217]]],[[[167.48039,-16.60267],[167.46313,-16.58871],[167.46547,-16.58405],[167.46918,-16.58169],[167.47588,-16.58341],[167.48369,-16.59954],[167.48039,-16.60267]]],[[[167.46307,-16.09442],[167.4596,-16.09382],[167.45955,-16.09009],[167.46541,-16.09054],[167.46307,-16.09442]]],[[[167.45853,-16.0937],[167.44456,-16.08408],[167.46137,-16.08685],[167.45853,-16.0937]]],[[[167.45245,-16.07537],[167.44494,-16.07146],[167.44755,-16.06654],[167.45864,-16.07053],[167.45908,-16.0731],[167.45245,-16.07537]]],[[[167.40753,-16.06043],[167.41146,-16.05459],[167.41283,-16.05818],[167.40753,-16.06043]]],[[[167.39156,-15.99354],[167.38378,-15.98848],[167.38715,-15.9811],[167.39139,-15.97964],[167.39722,-15.98859],[167.39156,-15.99354]]],[[[167.37568,-15.97878],[167.37441,-15.97236],[167.38141,-15.96816],[167.38307,-15.97381],[167.37568,-15.97878]]],[[[167.35518,-13.51844],[167.3439,-13.52266],[167.33712,-13.52917],[167.33277,-13.54131],[167.34173,-13.54329],[167.35268,-13.53237],[167.36342,-13.52737],[167.36622,-13.54409],[167.35217,-13.56096],[167.33763,-13.56753],[167.31773,-13.56553],[167.30504,-13.55908],[167.29854,-13.55399],[167.29007,-13.53501],[167.29847,-13.51897],[167.31661,-13.50335],[167.34215,-13.50491],[167.36118,-13.51349],[167.35518,-13.51844]]],[[[167.34096,-15.94556],[167.33763,-15.94496],[167.33957,-15.94056],[167.34777,-15.93661],[167.34862,-15.94098],[167.34096,-15.94556]]],[[[167.30345,-15.89975],[167.30287,-15.89538],[167.30922,-15.89287],[167.31768,-15.8996],[167.30455,-15.90283],[167.30345,-15.89975]]],[[[167.28533,-15.53998],[167.29119,-15.54224],[167.2961,-15.55378],[167.29579,-15.57309],[167.27922,-15.58884],[167.26572,-15.59246],[167.25805,-15.58378],[167.25678,-15.57684],[167.27577,-15.5648],[167.28533,-15.53998]]],[[[167.25839,-15.72372],[167.25563,-15.71461],[167.2634,-15.70784],[167.25839,-15.72372]]],[[[167.26073,-15.42746],[167.26265,-15.44546],[167.25497,-15.45932],[167.25254,-15.44308],[167.24663,-15.43793],[167.24127,-15.42019],[167.23634,-15.41843],[167.24327,-15.40832],[167.24698,-15.40803],[167.26073,-15.42746]]],[[[167.25794,-15.70725],[167.2616,-15.70116],[167.26229,-15.70373],[167.25794,-15.70725]]],[[[166.5598,-14.71791],[166.5599,-14.71301],[166.57305,-14.70236],[166.5752,-14.6874],[166.57121,-14.68511],[166.57707,-14.67168],[166.5863,-14.66827],[166.6147,-14.64399],[166.62185,-14.64458],[166.61859,-14.65079],[166.62431,-14.65513],[166.62413,-14.66685],[166.63633,-14.67101],[166.63693,-14.68041],[166.64356,-14.68126],[166.64309,-14.6899],[166.6516,-14.69486],[166.64995,-14.70492],[166.6532,-14.71417],[166.67434,-14.72715],[166.68102,-14.73638],[166.68098,-14.74771],[166.68379,-14.75258],[166.6883,-14.75358],[166.69535,-14.77491],[166.70627,-14.78307],[166.70885,-14.79232],[166.71836,-14.80591],[166.73321,-14.80863],[166.73858,-14.81889],[166.74654,-14.82089],[166.75313,-14.81698],[166.75557,-14.8234],[166.76035,-14.82568],[166.75636,-14.84013],[166.7829,-14.91231],[166.78626,-14.93392],[166.78402,-14.95119],[166.78925,-14.97433],[166.79503,-14.98459],[166.78897,-15.0055],[166.78881,-15.01709],[166.81241,-15.0509],[166.8073,-15.07335],[166.80875,-15.08776],[166.81523,-15.10136],[166.8149,-15.12557],[166.8188,-15.13198],[166.82203,-15.15256],[166.83259,-15.16303],[166.88385,-15.17227],[166.90052,-15.16749],[166.90346,-15.17043],[166.90688,-15.16796],[166.926,-15.17011],[166.9511,-15.16062],[166.95597,-15.14191],[166.9812,-15.11851],[166.98276,-15.10047],[166.9879,-15.09708],[166.98608,-15.05846],[166.97908,-15.04616],[166.99136,-14.99944],[166.9808,-14.97403],[166.98339,-14.95392],[166.99232,-14.94483],[167.01208,-14.93359],[167.02529,-14.93051],[167.05086,-14.94573],[167.08474,-14.94285],[167.0898,-14.94525],[167.08998,-14.95014],[167.08616,-14.95314],[167.06764,-14.95472],[167.06398,-14.96042],[167.05605,-14.96217],[167.0531,-14.97211],[167.05926,-14.97952],[167.0604,-14.98775],[167.05741,-14.99331],[167.06645,-14.99697],[167.07714,-15.02005],[167.07526,-15.03062],[167.06813,-15.03352],[167.06633,-15.03933],[167.07575,-15.04015],[167.07342,-15.04583],[167.07771,-15.06459],[167.08301,-15.06532],[167.07712,-15.07233],[167.07771,-15.09215],[167.09729,-15.11566],[167.11087,-15.14914],[167.11828,-15.1474],[167.13318,-15.12614],[167.13794,-15.12532],[167.15359,-15.13882],[167.1506,-15.15791],[167.15813,-15.16865],[167.15753,-15.17458],[167.16462,-15.18121],[167.16089,-15.1918],[167.17182,-15.21101],[167.16911,-15.23061],[167.1737,-15.23932],[167.16896,-15.25507],[167.14957,-15.25307],[167.14737,-15.2576],[167.1569,-15.26884],[167.17473,-15.27459],[167.18996,-15.28474],[167.20043,-15.29674],[167.20743,-15.31907],[167.20648,-15.34264],[167.19823,-15.34066],[167.18455,-15.32612],[167.17979,-15.32758],[167.18237,-15.34584],[167.19227,-15.35398],[167.18711,-15.36845],[167.19011,-15.37615],[167.1879,-15.38003],[167.19453,-15.39284],[167.20271,-15.40049],[167.20823,-15.43288],[167.21887,-15.44745],[167.21619,-15.45803],[167.21809,-15.46188],[167.2284,-15.45778],[167.23575,-15.46247],[167.23082,-15.47308],[167.2324,-15.48362],[167.24611,-15.49919],[167.25193,-15.49758],[167.25619,-15.47437],[167.25989,-15.50935],[167.25671,-15.52213],[167.24612,-15.52507],[167.21922,-15.51761],[167.18227,-15.51425],[167.1656,-15.52046],[167.15688,-15.52506],[167.14502,-15.55942],[167.13919,-15.56063],[167.12779,-15.57581],[167.11436,-15.58701],[167.10904,-15.59994],[167.10265,-15.5982],[167.10176,-15.60207],[167.09633,-15.60405],[167.09235,-15.60409],[167.08937,-15.59884],[167.07613,-15.60296],[167.06024,-15.60316],[167.0438,-15.58485],[167.04088,-15.58539],[167.0415,-15.58101],[167.03842,-15.57884],[167.02361,-15.58529],[166.99913,-15.58152],[166.99122,-15.58816],[166.9824,-15.58258],[166.95079,-15.58299],[166.9394,-15.58695],[166.92558,-15.58681],[166.90179,-15.60003],[166.89881,-15.60829],[166.90697,-15.61415],[166.9078,-15.618],[166.90375,-15.62551],[166.89596,-15.63085],[166.89064,-15.63026],[166.88233,-15.62286],[166.85819,-15.62783],[166.84894,-15.63319],[166.84543,-15.64172],[166.85059,-15.65481],[166.83543,-15.66846],[166.81603,-15.66836],[166.8003,-15.66295],[166.79185,-15.6553],[166.774,-15.65029],[166.77157,-15.63634],[166.76679,-15.63103],[166.77765,-15.62579],[166.78028,-15.60748],[166.77902,-15.58457],[166.76968,-15.58001],[166.77003,-15.57473],[166.76523,-15.57206],[166.76586,-15.56871],[166.75826,-15.56542],[166.75845,-15.55641],[166.75523,-15.55295],[166.74779,-15.5525],[166.73535,-15.54294],[166.73116,-15.53344],[166.72409,-15.53015],[166.71115,-15.50707],[166.70944,-15.49369],[166.70065,-15.47367],[166.6694,-15.4308],[166.66363,-15.41136],[166.65759,-15.40316],[166.64839,-15.39782],[166.6472,-15.3816],[166.66135,-15.3578],[166.66782,-15.3374],[166.66285,-15.29623],[166.67233,-15.26963],[166.67399,-15.24463],[166.65204,-15.18607],[166.63765,-15.15951],[166.63776,-15.12229],[166.62642,-15.09558],[166.62403,-15.07796],[166.61284,-15.05344],[166.61259,-15.0197],[166.60599,-14.98832],[166.57977,-14.95321],[166.56819,-14.90976],[166.55513,-14.88048],[166.55342,-14.86272],[166.54219,-14.84734],[166.54996,-14.82384],[166.5497,-14.78701],[166.55388,-14.77951],[166.55228,-14.75891],[166.55597,-14.75709],[166.55336,-14.74319],[166.55716,-14.71973],[166.5598,-14.71791]]],[[[167.12952,-15.62781],[167.17761,-15.62682],[167.18401,-15.62882],[167.18513,-15.63447],[167.17687,-15.63224],[167.17983,-15.63607],[167.18462,-15.63602],[167.18614,-15.62906],[167.20586,-15.63465],[167.24149,-15.63674],[167.25018,-15.64205],[167.25194,-15.65697],[167.24863,-15.66988],[167.23795,-15.67758],[167.23078,-15.69015],[167.24917,-15.71905],[167.24612,-15.73196],[167.2384,-15.74363],[167.21618,-15.75402],[167.21296,-15.75084],[167.21206,-15.7542],[167.19299,-15.74834],[167.13245,-15.71389],[167.11452,-15.7087],[167.08864,-15.68434],[167.08463,-15.67149],[167.09298,-15.64001],[167.11226,-15.62914],[167.12952,-15.62781]]],[[[167.24556,-15.59562],[167.24205,-15.59064],[167.24652,-15.58609],[167.24974,-15.58953],[167.24556,-15.59562]]],[[[167.22101,-15.3864],[167.21875,-15.37406],[167.22405,-15.37259],[167.23923,-15.37824],[167.24182,-15.3849],[167.24161,-15.38954],[167.23701,-15.39384],[167.23013,-15.39545],[167.22613,-15.39433],[167.22101,-15.3864]]],[[[167.19784,-15.5298],[167.21301,-15.53287],[167.21744,-15.53733],[167.19105,-15.5412],[167.19018,-15.54636],[167.20635,-15.55598],[167.20842,-15.56317],[167.19879,-15.56945],[167.1995,-15.57356],[167.20364,-15.57596],[167.22141,-15.57334],[167.2293,-15.57815],[167.2267,-15.5962],[167.2216,-15.60346],[167.20216,-15.61164],[167.18767,-15.61102],[167.18705,-15.61514],[167.17936,-15.61638],[167.17708,-15.61473],[167.1785,-15.61033],[167.18698,-15.60819],[167.15245,-15.60969],[167.13354,-15.6046],[167.12449,-15.59864],[167.13171,-15.58412],[167.15647,-15.56214],[167.15982,-15.55232],[167.18488,-15.53495],[167.19784,-15.5298]]],[[[167.21819,-15.29592],[167.2114,-15.29302],[167.21083,-15.28942],[167.21698,-15.28151],[167.22171,-15.28983],[167.21819,-15.29592]]],[[[167.19301,-15.27273],[167.1792,-15.27081],[167.17729,-15.26581],[167.18042,-15.26062],[167.1918,-15.25768],[167.19868,-15.26894],[167.19301,-15.27273]]],[[[167.19798,-15.36706],[167.19224,-15.37677],[167.19348,-15.36813],[167.19798,-15.36706]]],[[[167.19365,-15.35938],[167.19607,-15.36244],[167.19262,-15.36248],[167.19365,-15.35938]]],[[[167.19145,-15.62939],[167.18531,-15.62662],[167.19115,-15.62592],[167.19145,-15.62939]]],[[[167.15666,-14.98313],[167.14525,-14.98117],[167.12047,-14.96711],[167.10707,-14.95101],[167.1046,-14.94254],[167.11866,-14.94395],[167.13732,-14.95666],[167.14296,-14.96459],[167.15041,-14.96748],[167.15464,-14.96705],[167.15592,-14.96279],[167.16044,-14.96391],[167.16172,-14.97239],[167.15666,-14.98313]]],[[[167.12269,-15.11066],[167.11897,-15.10992],[167.12048,-15.10231],[167.13612,-15.10216],[167.13617,-15.10719],[167.12269,-15.11066]]],[[[167.0897,-15.04478],[167.08289,-15.03931],[167.0869,-15.02897],[167.10041,-15.02885],[167.09817,-15.0438],[167.0897,-15.04478]]],[[[167.03321,-15.61636],[167.02321,-15.61233],[167.02331,-15.60899],[167.02969,-15.60918],[167.03613,-15.61531],[167.03321,-15.61636]]],[[[167.02628,-15.58655],[167.03,-15.58703],[167.03003,-15.59038],[167.02628,-15.58655]]],[[[166.99023,-15.59538],[166.98593,-15.59079],[166.99804,-15.59222],[166.99023,-15.59538]]],[[[166.95544,-15.62505],[166.96167,-15.63787],[166.95585,-15.64076],[166.94946,-15.63914],[166.94473,-15.63159],[166.94931,-15.62408],[166.95544,-15.62505]]],[[[166.69583,-13.44739],[166.68433,-13.4409],[166.68187,-13.42804],[166.67258,-13.41548],[166.67119,-13.40518],[166.69359,-13.39151],[166.70916,-13.39771],[166.7144,-13.41365],[166.71276,-13.42268],[166.70544,-13.42917],[166.70539,-13.44179],[166.69583,-13.44739]]],[[[166.61334,-13.2725],[166.60789,-13.26416],[166.59482,-13.25703],[166.59451,-13.24879],[166.60028,-13.24695],[166.60091,-13.24308],[166.5934,-13.24029],[166.59009,-13.23619],[166.59124,-13.23129],[166.60055,-13.22788],[166.60065,-13.22273],[166.60535,-13.21742],[166.61485,-13.22277],[166.63299,-13.22265],[166.63854,-13.22687],[166.6448,-13.21948],[166.65614,-13.2234],[166.65448,-13.23114],[166.65925,-13.23678],[166.66227,-13.25557],[166.65951,-13.25597],[166.65103,-13.24534],[166.64603,-13.24588],[166.6489,-13.26106],[166.64485,-13.26585],[166.6262,-13.26958],[166.61966,-13.27452],[166.61334,-13.2725]]],[[[166.64742,-13.37275],[166.64412,-13.37135],[166.64028,-13.34897],[166.62356,-13.34611],[166.61971,-13.34163],[166.61846,-13.33056],[166.62235,-13.32358],[166.62969,-13.31915],[166.63417,-13.32015],[166.63577,-13.32401],[166.64207,-13.32203],[166.6471,-13.32548],[166.64503,-13.3318],[166.6395,-13.32991],[166.63571,-13.33457],[166.63929,-13.33893],[166.65763,-13.34602],[166.66191,-13.35681],[166.65897,-13.36868],[166.65348,-13.37516],[166.64742,-13.37275]]],[[[166.59822,-13.21308],[166.58979,-13.21107],[166.59119,-13.20398],[166.59734,-13.19943],[166.60891,-13.19885],[166.6125,-13.20488],[166.61109,-13.2103],[166.59822,-13.21308]]],[[[166.54564,-13.15196],[166.54354,-13.13162],[166.55246,-13.12873],[166.55291,-13.11739],[166.56063,-13.11065],[166.54601,-13.08575],[166.54738,-13.07273],[166.56132,-13.07522],[166.5778,-13.08298],[166.58576,-13.09478],[166.58569,-13.1257],[166.58663,-13.12762],[166.59475,-13.12397],[166.59542,-13.12667],[166.59256,-13.13106],[166.58847,-13.12838],[166.58344,-13.14297],[166.58983,-13.1553],[166.58503,-13.16615],[166.58218,-13.19244],[166.56651,-13.18945],[166.54762,-13.17488],[166.54325,-13.16924],[166.5477,-13.16663],[166.54422,-13.15635],[166.54564,-13.15196]]],[[[166.58797,-13.25398],[166.58519,-13.25194],[166.58768,-13.24986],[166.58797,-13.25398]]]]}}]}