{"type":"FeatureCollection","features":[{"type":"Feature","properties":{"ISO_A3":"WSM","WB_A3":"WSM","WB_NAME":"Samoa","WB_REGION":"EAS"},"geometry":{"type":"MultiPolygon","coordinates":[[[[-171.40612,-14.07679],[-171.41245,-14.07137],[-171.40822,-14.0706],[-171.40612,-14.07679]]],[[[-171.41474,-14.02601],[-171.41711,-14.02008],[-171.4146,-14.02008],[-171.41474,-14.02601]]],[[[-171.42828,-14.0649],[-171.42827,-14.05949],[-171.41982,-14.05847],[-171.41772,-14.06878],[-171.42828,-14.0649]]],[[[-171.94359,-13.98315],[-171.94913,-13.9789],[-171.95068,-13.97039],[-171.95986,-13.95747],[-171.95996,-13.94974],[-171.97072,-13.93604],[-171.97466,-13.93358],[-171.97863,-13.93562],[-171.97735,-13.94645],[-171.98344,-13.95145],[-171.98766,-13.95118],[-171.98855,-13.94164],[-171.99342,-13.93956],[-171.99327,-13.93621],[-172.00079,-13.93605],[-172.00355,-13.93436],[-172.00275,-13.93076],[-172.01051,-13.92583],[-172.00601,-13.9243],[-172.00427,-13.91735],[-172.01414,-13.91306],[-172.02681,-13.91352],[-172.05419,-13.90323],[-172.06618,-13.89248],[-172.0648,-13.88618],[-172.0716,-13.8743],[-172.07169,-13.86592],[-172.06297,-13.86119],[-172.05712,-13.85143],[-172.04575,-13.84478],[-172.03538,-13.83005],[-172.02906,-13.82604],[-172.01745,-13.82506],[-172.01114,-13.8292],[-171.97053,-13.82808],[-171.95212,-13.81601],[-171.9449,-13.81504],[-171.94172,-13.81067],[-171.91612,-13.80471],[-171.90766,-13.79843],[-171.8879,-13.80263],[-171.88234,-13.79736],[-171.85453,-13.79914],[-171.85439,-13.79605],[-171.85044,-13.79606],[-171.85019,-13.79992],[-171.83911,-13.79842],[-171.83012,-13.79304],[-171.82593,-13.79962],[-171.82171,-13.79873],[-171.80829,-13.80805],[-171.80858,-13.81501],[-171.79621,-13.82124],[-171.79164,-13.82692],[-171.77603,-13.83147],[-171.77538,-13.82391],[-171.77947,-13.82129],[-171.77958,-13.81485],[-171.77157,-13.82724],[-171.76538,-13.82906],[-171.76566,-13.8319],[-171.76239,-13.83307],[-171.75932,-13.83011],[-171.7622,-13.82469],[-171.75746,-13.82535],[-171.74403,-13.83261],[-171.74011,-13.84254],[-171.72771,-13.84219],[-171.72179,-13.84595],[-171.72075,-13.85059],[-171.71167,-13.85499],[-171.70905,-13.86312],[-171.70457,-13.86403],[-171.69823,-13.8598],[-171.68506,-13.86447],[-171.66501,-13.8626],[-171.64948,-13.87552],[-171.64395,-13.87605],[-171.63972,-13.87233],[-171.63102,-13.87377],[-171.62287,-13.88513],[-171.61125,-13.8782],[-171.6078,-13.8728],[-171.59251,-13.87386],[-171.58303,-13.87904],[-171.58714,-13.89063],[-171.58121,-13.8927],[-171.56999,-13.88861],[-171.5662,-13.90227],[-171.56159,-13.90203],[-171.56345,-13.90924],[-171.55383,-13.91184],[-171.5496,-13.90862],[-171.54038,-13.91702],[-171.57263,-13.94194],[-171.54493,-13.94381],[-171.52722,-13.92916],[-171.52314,-13.9302],[-171.52381,-13.93638],[-171.5196,-13.94064],[-171.51458,-13.93924],[-171.51301,-13.94414],[-171.51672,-13.95109],[-171.4964,-13.95035],[-171.49192,-13.95526],[-171.48084,-13.95502],[-171.48059,-13.96018],[-171.47532,-13.96199],[-171.47374,-13.96651],[-171.46978,-13.96638],[-171.47007,-13.9754],[-171.46295,-13.97838],[-171.45279,-13.97853],[-171.45159,-13.97479],[-171.44078,-13.97623],[-171.43764,-13.98912],[-171.42841,-13.99506],[-171.42434,-14.00383],[-171.42409,-14.01517],[-171.43695,-14.04788],[-171.46651,-14.04615],[-171.49256,-14.04009],[-171.50135,-14.04273],[-171.53064,-14.04009],[-171.53936,-14.04496],[-171.58371,-14.04589],[-171.58489,-14.04318],[-171.60587,-14.0412],[-171.61483,-14.03448],[-171.65286,-14.04365],[-171.67819,-14.03959],[-171.68924,-14.02822],[-171.6903,-14.03105],[-171.70138,-14.02896],[-171.70483,-14.03475],[-171.71671,-14.03574],[-171.72993,-14.04446],[-171.74498,-14.04545],[-171.76793,-14.04216],[-171.76937,-14.0388],[-171.76566,-14.03211],[-171.7729,-14.02861],[-171.77603,-14.01765],[-171.78129,-14.01184],[-171.78867,-14.00872],[-171.82693,-14.00872],[-171.8339,-14.00071],[-171.83099,-13.99917],[-171.82719,-14.00601],[-171.8132,-14.00568],[-171.8211,-14.00114],[-171.82599,-14.00202],[-171.83124,-13.99505],[-171.83213,-13.98551],[-171.83584,-13.99091],[-171.85167,-13.98944],[-171.85376,-13.98402],[-171.85825,-13.98375],[-171.86302,-13.9894],[-171.86537,-13.98282],[-171.86907,-13.98564],[-171.86909,-13.99028],[-171.8733,-13.98872],[-171.88866,-14.00232],[-171.90133,-14.00163],[-171.90292,-14.00497],[-171.90767,-14.00521],[-171.92099,-14.00194],[-171.93293,-13.98618],[-171.93663,-13.98835],[-171.94359,-13.98315]]],[[[-172.10437,-13.86127],[-172.11577,-13.85546],[-172.11711,-13.84961],[-172.12249,-13.84495],[-172.1077,-13.84038],[-172.10103,-13.85123],[-172.10437,-13.86127]]],[[[-172.14984,-13.82937],[-172.15575,-13.82496],[-172.15374,-13.81878],[-172.14715,-13.81985],[-172.14599,-13.82397],[-172.14984,-13.82937]]],[[[-172.19861,-13.69815],[-172.19956,-13.70365],[-172.20325,-13.70415],[-172.20251,-13.71446],[-172.1962,-13.71681],[-172.19649,-13.72196],[-172.21975,-13.73576],[-172.21725,-13.74488],[-172.22286,-13.7512],[-172.21371,-13.76619],[-172.21193,-13.7778],[-172.21371,-13.79041],[-172.22058,-13.79398],[-172.22589,-13.80182],[-172.24435,-13.80327],[-172.25301,-13.79498],[-172.26436,-13.79776],[-172.26861,-13.79591],[-172.28781,-13.77148],[-172.28517,-13.76995],[-172.28593,-13.76454],[-172.2913,-13.75871],[-172.29948,-13.75996],[-172.30867,-13.75501],[-172.32348,-13.76241],[-172.32591,-13.77283],[-172.33147,-13.77808],[-172.3486,-13.77773],[-172.35423,-13.77244],[-172.36598,-13.77325],[-172.37273,-13.7785],[-172.38656,-13.77739],[-172.39793,-13.78415],[-172.40558,-13.78488],[-172.41267,-13.78046],[-172.41929,-13.78532],[-172.4462,-13.78928],[-172.45177,-13.79402],[-172.46596,-13.78736],[-172.47492,-13.78679],[-172.48869,-13.79701],[-172.50768,-13.79793],[-172.51188,-13.79507],[-172.51692,-13.80135],[-172.53274,-13.80164],[-172.54706,-13.79472],[-172.55261,-13.77691],[-172.57796,-13.76413],[-172.58403,-13.74477],[-172.59466,-13.73955],[-172.59426,-13.71946],[-172.59685,-13.71248],[-172.61033,-13.699],[-172.61986,-13.69539],[-172.63263,-13.68481],[-172.64568,-13.66721],[-172.64773,-13.65908],[-172.66688,-13.64762],[-172.67351,-13.63573],[-172.67902,-13.6326],[-172.67754,-13.62745],[-172.68433,-13.61904],[-172.69328,-13.6191],[-172.7043,-13.6131],[-172.70795,-13.60741],[-172.71975,-13.60089],[-172.73537,-13.57631],[-172.75505,-13.56625],[-172.76032,-13.56648],[-172.78149,-13.54559],[-172.78596,-13.54491],[-172.79163,-13.52903],[-172.80319,-13.51507],[-172.78426,-13.49302],[-172.77583,-13.49218],[-172.76481,-13.49767],[-172.75716,-13.49025],[-172.74954,-13.49726],[-172.74034,-13.49848],[-172.73303,-13.50677],[-172.71861,-13.51525],[-172.70021,-13.51936],[-172.68069,-13.50984],[-172.67833,-13.51488],[-172.67543,-13.51464],[-172.66325,-13.50557],[-172.65616,-13.50807],[-172.65135,-13.51608],[-172.64254,-13.51807],[-172.63648,-13.51696],[-172.63196,-13.51016],[-172.63525,-13.51001],[-172.636,-13.50485],[-172.6142,-13.49263],[-172.60077,-13.4922],[-172.58632,-13.49602],[-172.57864,-13.48912],[-172.55411,-13.48206],[-172.54222,-13.47543],[-172.5301,-13.47332],[-172.51354,-13.47767],[-172.489,-13.46854],[-172.48117,-13.46175],[-172.47396,-13.46257],[-172.46663,-13.46828],[-172.45267,-13.46682],[-172.44821,-13.46981],[-172.42688,-13.46838],[-172.42198,-13.47077],[-172.41319,-13.45025],[-172.38147,-13.44622],[-172.3628,-13.4498],[-172.35512,-13.44018],[-172.3295,-13.44947],[-172.32462,-13.44769],[-172.306,-13.45938],[-172.28302,-13.49454],[-172.27124,-13.50761],[-172.26466,-13.5088],[-172.26208,-13.51809],[-172.23799,-13.54346],[-172.23541,-13.55481],[-172.22688,-13.55975],[-172.22601,-13.57057],[-172.20934,-13.58148],[-172.21397,-13.58558],[-172.20546,-13.59489],[-172.19782,-13.62018],[-172.19414,-13.62174],[-172.19748,-13.631],[-172.18858,-13.64367],[-172.18652,-13.65347],[-172.17396,-13.67028],[-172.19861,-13.69815]]]]}}]}