{"type":"FeatureCollection","features":[{"type":"Feature","properties":{"ISO_A3":"YEM","WB_A3":"YEM","WB_NAME":"Republic of Yemen","WB_REGION":"MEA"},"geometry":{"type":"MultiPolygon","coordinates":[[[[53.61816,12.69883],[53.64616,12.70284],[53.65269,12.70045],[53.70601,12.65872],[53.76746,12.61921],[53.76715,12.6142],[53.77136,12.61634],[53.80894,12.60102],[53.83694,12.59686],[53.85432,12.6035],[53.87145,12.62391],[53.87764,12.638],[53.89177,12.6475],[53.91357,12.65164],[53.93262,12.64345],[53.95877,12.6384],[53.96643,12.64359],[53.97403,12.64312],[53.97882,12.64963],[54.00501,12.64868],[54.03004,12.66054],[54.03999,12.66117],[54.07626,12.67598],[54.08571,12.68703],[54.08857,12.70044],[54.11165,12.69992],[54.12562,12.69287],[54.16132,12.66558],[54.17812,12.66421],[54.19848,12.67202],[54.19934,12.66534],[54.22236,12.64653],[54.21821,12.64172],[54.23181,12.64534],[54.24467,12.64393],[54.25337,12.639],[54.26228,12.63947],[54.26553,12.62947],[54.27632,12.62623],[54.29243,12.61442],[54.29896,12.61706],[54.31032,12.60855],[54.31896,12.61006],[54.34656,12.60222],[54.35361,12.60512],[54.36412,12.6024],[54.38051,12.58891],[54.39579,12.58198],[54.40552,12.57873],[54.42125,12.57901],[54.44345,12.55991],[54.47375,12.54487],[54.49053,12.54374],[54.50902,12.55653],[54.53003,12.55209],[54.53406,12.54234],[54.52723,12.54305],[54.49837,12.53236],[54.46658,12.52704],[54.44819,12.5185],[54.44026,12.49885],[54.44482,12.48782],[54.42015,12.47845],[54.41144,12.47154],[54.41162,12.46704],[54.36821,12.45838],[54.33008,12.44616],[54.28346,12.44518],[54.25837,12.43939],[54.23469,12.42447],[54.22655,12.40148],[54.22189,12.39667],[54.1929,12.38903],[54.17918,12.3737],[54.13988,12.35154],[54.09008,12.35616],[54.04221,12.35204],[54.02602,12.348],[54.01728,12.33349],[54.0087,12.32863],[53.97078,12.33619],[53.93698,12.33347],[53.88138,12.3248],[53.83332,12.3114],[53.76831,12.30383],[53.71801,12.30176],[53.67563,12.30501],[53.63332,12.31572],[53.57461,12.33726],[53.54426,12.3409],[53.54288,12.34683],[53.54676,12.35581],[53.53981,12.36772],[53.52265,12.38178],[53.51703,12.39638],[53.497,12.4106],[53.49585,12.41422],[53.48137,12.42053],[53.46883,12.43816],[53.41704,12.46206],[53.32164,12.51968],[53.30667,12.53153],[53.30646,12.53642],[53.3195,12.54352],[53.33648,12.53758],[53.36826,12.54438],[53.38641,12.55118],[53.39475,12.55986],[53.40006,12.58093],[53.39898,12.60643],[53.40425,12.62235],[53.39787,12.65537],[53.43893,12.67109],[53.44887,12.66842],[53.46804,12.67147],[53.47657,12.68606],[53.48395,12.68934],[53.48508,12.69757],[53.50896,12.69941],[53.51879,12.71219],[53.55288,12.71135],[53.57873,12.69964],[53.58425,12.70139],[53.60597,12.69641],[53.61816,12.69883]]],[[[53.25142,12.12378],[53.27921,12.12883],[53.28808,12.12606],[53.29482,12.11866],[53.30813,12.11417],[53.31006,12.11068],[53.30415,12.10764],[53.29424,12.1121],[53.26414,12.11157],[53.25761,12.11304],[53.25349,12.1208],[53.2459,12.12125],[53.25142,12.12378]]],[[[47.18184,13.59878],[47.11467,13.58381],[47.08112,13.5707],[47.04976,13.56761],[46.92289,13.539],[46.88457,13.52062],[46.82873,13.48137],[46.74559,13.44963],[46.69014,13.42476],[46.67032,13.42957],[46.596,13.4362],[46.53036,13.4196],[46.47901,13.41475],[46.44501,13.40645],[46.43293,13.41103],[46.4319,13.41438],[46.41455,13.41744],[46.35715,13.41338],[46.31825,13.42363],[46.29653,13.42336],[46.28065,13.43027],[46.24644,13.43327],[46.17691,13.42433],[46.1603,13.41951],[46.13688,13.42117],[46.09238,13.41647],[46.08394,13.41315],[46.01922,13.41961],[45.99077,13.41508],[45.96757,13.40693],[45.9373,13.40575],[45.91622,13.40068],[45.9091,13.39581],[45.85988,13.39624],[45.83589,13.38652],[45.80456,13.38289],[45.779,13.37292],[45.73818,13.36596],[45.72763,13.3598],[45.70472,13.35471],[45.67709,13.35453],[45.65865,13.34917],[45.6377,13.33647],[45.54343,13.25087],[45.49938,13.19813],[45.45283,13.12683],[45.42584,13.10162],[45.38975,13.06096],[45.36187,13.05082],[45.29772,13.04137],[45.2178,13.0198],[45.15365,12.99382],[45.12065,12.96948],[45.08713,12.92156],[45.06242,12.87079],[45.04731,12.82827],[45.03956,12.79245],[45.04638,12.77789],[45.05032,12.7824],[45.05124,12.77853],[45.04612,12.77725],[45.04625,12.76977],[45.05505,12.76668],[45.05518,12.76307],[45.04231,12.76565],[45.03798,12.75998],[45.04034,12.75714],[45.03509,12.75418],[45.01172,12.75444],[45.00358,12.75908],[44.99964,12.75689],[44.99912,12.76282],[44.98993,12.76539],[44.98546,12.77506],[44.97076,12.77763],[44.97391,12.78111],[44.9726,12.78859],[45.00463,12.79864],[45.02065,12.79361],[45.0263,12.80637],[45.01291,12.82338],[45.00949,12.83859],[44.99124,12.84838],[44.98993,12.81153],[44.99649,12.8105],[44.99886,12.80508],[44.97443,12.79903],[44.97627,12.80663],[44.98901,12.81668],[44.98848,12.82441],[44.98073,12.82686],[44.98047,12.82364],[44.95158,12.82686],[44.92112,12.82118],[44.90773,12.81009],[44.89854,12.79682],[44.89487,12.77826],[44.89146,12.77542],[44.89068,12.76718],[44.92179,12.76384],[44.91523,12.75894],[44.913,12.74347],[44.90723,12.74553],[44.90696,12.74244],[44.90158,12.74502],[44.90184,12.75017],[44.89646,12.75133],[44.88701,12.74527],[44.88596,12.73908],[44.8924,12.73316],[44.89227,12.72852],[44.88701,12.73431],[44.87704,12.73637],[44.87258,12.72915],[44.85551,12.72966],[44.8465,12.72403],[44.84108,12.7245],[44.8395,12.73133],[44.82177,12.7393],[44.82295,12.74704],[44.82715,12.74807],[44.82753,12.75709],[44.80901,12.76996],[44.7838,12.77291],[44.76412,12.76903],[44.73486,12.75238],[44.73499,12.74709],[44.72306,12.73845],[44.71977,12.74656],[44.72802,12.75623],[44.72447,12.76628],[44.69319,12.79563],[44.65352,12.81104],[44.62357,12.81602],[44.59311,12.81649],[44.55845,12.80819],[44.51491,12.78299],[44.47953,12.74916],[44.41854,12.66953],[44.41565,12.66952],[44.41709,12.67301],[44.41353,12.67867],[44.39962,12.68057],[44.35897,12.66785],[44.28847,12.62927],[44.27325,12.63077],[44.25726,12.62506],[44.23598,12.63299],[44.22181,12.63346],[44.19002,12.61684],[44.16571,12.6168],[44.15388,12.62269],[44.16921,12.61677],[44.188,12.61983],[44.19044,12.63608],[44.18359,12.64585],[44.15193,12.65619],[44.12573,12.64386],[44.09877,12.62483],[44.07623,12.61831],[44.0482,12.60352],[44.03639,12.60606],[44.00781,12.60132],[43.99022,12.60331],[43.97137,12.59448],[43.95588,12.59596],[43.94671,12.59335],[43.92754,12.59804],[43.91754,12.60548],[43.91528,12.61088],[43.91519,12.63381],[43.90951,12.64332],[43.87665,12.65568],[43.85013,12.65918],[43.8375,12.66659],[43.83407,12.67186],[43.81803,12.67759],[43.80092,12.68885],[43.78936,12.6924],[43.77415,12.68899],[43.76889,12.69296],[43.75918,12.69265],[43.75864,12.69548],[43.7389,12.70673],[43.70185,12.71492],[43.68501,12.72437],[43.65455,12.72564],[43.65138,12.73],[43.63823,12.7347],[43.62958,12.73414],[43.59984,12.74841],[43.58595,12.74396],[43.56556,12.72994],[43.52633,12.68193],[43.5228,12.68114],[43.51962,12.68614],[43.51569,12.68509],[43.50368,12.67472],[43.50274,12.67768],[43.49815,12.67713],[43.49582,12.67248],[43.49486,12.67866],[43.49145,12.67864],[43.49003,12.67464],[43.48163,12.67562],[43.48122,12.67858],[43.47035,12.6753],[43.47137,12.68085],[43.46247,12.67641],[43.45475,12.69595],[43.4684,12.71613],[43.47352,12.71538],[43.47316,12.70971],[43.47593,12.70754],[43.48432,12.709],[43.48751,12.70181],[43.49093,12.70092],[43.49116,12.70608],[43.49417,12.70674],[43.49152,12.71111],[43.47744,12.71862],[43.47089,12.71666],[43.46783,12.72411],[43.47498,12.75636],[43.47388,12.76511],[43.49315,12.8134],[43.49373,12.82628],[43.46372,12.86012],[43.4634,12.87068],[43.4481,12.88089],[43.4404,12.89553],[43.44206,12.9025],[43.43941,12.90609],[43.43694,12.90247],[43.43335,12.90915],[43.42797,12.9305],[43.42228,12.93768],[43.42098,12.93509],[43.40635,12.94351],[43.41053,12.94662],[43.41062,12.95332],[43.40036,12.97644],[43.40272,12.97646],[43.3999,12.98675],[43.37648,13.01236],[43.34383,13.083],[43.31656,13.11245],[43.28617,13.15502],[43.2526,13.2179],[43.24635,13.24594],[43.24224,13.25145],[43.24334,13.25535],[43.22768,13.2829],[43.22802,13.29012],[43.23155,13.29349],[43.23169,13.31024],[43.23891,13.31132],[43.24215,13.31855],[43.24118,13.3255],[43.23722,13.32792],[43.24613,13.33275],[43.24962,13.34102],[43.24843,13.35981],[43.25258,13.36834],[43.24934,13.3794],[43.24982,13.4219],[43.25841,13.43484],[43.25461,13.45156],[43.25722,13.50877],[43.26457,13.51139],[43.26402,13.51474],[43.26034,13.51471],[43.2616,13.52155],[43.2658,13.52351],[43.26647,13.53974],[43.27337,13.55138],[43.27109,13.55704],[43.28097,13.57411],[43.28212,13.57952],[43.27823,13.58928],[43.28455,13.58946],[43.29199,13.59737],[43.29274,13.60407],[43.28395,13.61792],[43.28176,13.62898],[43.28752,13.66946],[43.28661,13.68697],[43.27535,13.71394],[43.27529,13.7209],[43.24742,13.78407],[43.2444,13.80028],[43.23238,13.82183],[43.22965,13.83443],[43.234,13.83369],[43.23367,13.8257],[43.23591,13.82546],[43.23568,13.83782],[43.22898,13.85297],[43.23595,13.87311],[43.23485,13.87852],[43.21982,13.89618],[43.20077,13.90506],[43.20106,13.91768],[43.18814,13.9351],[43.16044,13.95267],[43.15498,13.97581],[43.14566,13.98681],[43.14629,14.00665],[43.12634,14.02736],[43.11744,14.05073],[43.11252,14.0561],[43.09795,14.06255],[43.10719,14.07795],[43.10816,14.08852],[43.08887,14.12365],[43.08782,14.15404],[43.07651,14.18151],[43.07633,14.20288],[43.07162,14.2286],[43.05109,14.26337],[43.03644,14.29631],[43.03244,14.33182],[43.02135,14.36109],[42.99804,14.39721],[42.99186,14.43862],[42.98543,14.44861],[42.98046,14.47149],[42.97324,14.48121],[42.96357,14.52646],[42.94468,14.5402],[42.94134,14.55743],[42.94391,14.56543],[42.95055,14.56317],[42.9468,14.55335],[42.95261,14.53598],[42.96154,14.53172],[42.96947,14.53269],[42.96646,14.52906],[42.96927,14.52522],[42.96988,14.50153],[42.97329,14.49023],[42.98838,14.48778],[42.99274,14.47263],[43.00216,14.46936],[43.01078,14.43621],[43.01778,14.43652],[43.0192,14.45559],[43.01888,14.46177],[43.00567,14.47583],[43.01121,14.47716],[43.01446,14.48234],[43.01453,14.48981],[43.01041,14.49261],[43.00903,14.49929],[43.01183,14.51091],[43.00939,14.51758],[43.01633,14.54005],[43.00211,14.56285],[43.0052,14.57189],[42.9962,14.60194],[42.99886,14.61536],[42.98683,14.61448],[42.98111,14.63323],[42.98377,14.66056],[42.96747,14.67793],[42.9663,14.69028],[42.95528,14.70872],[42.96149,14.70929],[42.95405,14.74116],[42.95755,14.74892],[42.94785,14.7818],[42.93936,14.79743],[42.9199,14.81194],[42.92198,14.81608],[42.93089,14.81113],[42.93995,14.81881],[42.93937,14.82499],[42.93273,14.82725],[42.93334,14.8324],[42.93806,14.83747],[42.93565,14.84041],[42.94221,14.84639],[42.94305,14.85541],[42.94742,14.85519],[42.9535,14.87044],[42.94452,14.92393],[42.93822,14.93224],[42.9349,14.93234],[42.9359,14.93879],[42.92961,14.9462],[42.92907,14.9601],[42.91454,14.98392],[42.89505,14.99945],[42.88562,15.00206],[42.87233,15.01984],[42.86974,15.02677],[42.87165,15.03477],[42.86681,15.04193],[42.86729,15.07361],[42.86048,15.07844],[42.86501,15.08956],[42.86284,15.08155],[42.86925,15.08934],[42.87286,15.09993],[42.87032,15.11536],[42.86037,15.12917],[42.85842,15.13816],[42.84534,15.15303],[42.82459,15.16733],[42.78515,15.18677],[42.72234,15.2079],[42.69311,15.21365],[42.66769,15.2103],[42.66472,15.20371],[42.66683,15.1924],[42.66029,15.18409],[42.65343,15.18144],[42.6346,15.18176],[42.62418,15.18886],[42.61666,15.20964],[42.60031,15.22517],[42.5982,15.23519],[42.60412,15.25173],[42.61046,15.25347],[42.62434,15.24525],[42.63028,15.23605],[42.64012,15.23396],[42.66239,15.23419],[42.67216,15.23829],[42.67765,15.24529],[42.67963,15.25793],[42.68866,15.2691],[42.68961,15.27941],[42.67595,15.29162],[42.66879,15.30288],[42.66866,15.31524],[42.68134,15.31975],[42.68418,15.32673],[42.69103,15.33118],[42.69077,15.35486],[42.6981,15.36408],[42.70555,15.36235],[42.69322,15.33712],[42.68692,15.29509],[42.69792,15.30782],[42.71832,15.31034],[42.71922,15.30108],[42.7283,15.29499],[42.72607,15.28029],[42.73198,15.27392],[42.74466,15.27881],[42.74956,15.26663],[42.75555,15.27699],[42.76008,15.27575],[42.76011,15.2724],[42.76679,15.26834],[42.76349,15.24102],[42.77031,15.23568],[42.77453,15.22542],[42.77376,15.21099],[42.78297,15.21752],[42.77491,15.22774],[42.77457,15.2343],[42.78317,15.23658],[42.7827,15.24353],[42.80604,15.26925],[42.8103,15.2801],[42.81036,15.28732],[42.80168,15.29264],[42.79217,15.31366],[42.79292,15.34354],[42.79865,15.35389],[42.79672,15.36083],[42.78573,15.37102],[42.78045,15.39414],[42.7721,15.40513],[42.77733,15.41239],[42.77251,15.41968],[42.76893,15.41669],[42.76638,15.41846],[42.7654,15.4236],[42.77637,15.44071],[42.77265,15.45277],[42.7755,15.46001],[42.77421,15.46901],[42.76414,15.47895],[42.76428,15.49105],[42.75482,15.50667],[42.75172,15.52311],[42.74665,15.52538],[42.73949,15.53586],[42.71703,15.54979],[42.70426,15.55172],[42.70008,15.55734],[42.70015,15.56275],[42.70769,15.5654],[42.72429,15.6024],[42.70527,15.6161],[42.70485,15.63026],[42.69569,15.64175],[42.7001,15.65081],[42.69847,15.66624],[42.70933,15.68155],[42.70785,15.69466],[42.69996,15.69883],[42.68671,15.69521],[42.69238,15.71149],[42.68993,15.71662],[42.68714,15.71633],[42.68386,15.70033],[42.6866,15.69315],[42.68098,15.68511],[42.6791,15.68715],[42.68277,15.71525],[42.69188,15.73183],[42.70663,15.72091],[42.71367,15.7327],[42.70277,15.73272],[42.70328,15.73478],[42.71285,15.73449],[42.70961,15.73897],[42.71572,15.74006],[42.72913,15.75282],[42.72706,15.74829],[42.73761,15.75522],[42.74239,15.76789],[42.74145,15.78127],[42.7585,15.7902],[42.76363,15.8075],[42.78051,15.82055],[42.7805,15.83343],[42.78559,15.84275],[42.80431,15.85736],[42.81093,15.86715],[42.8183,15.90436],[42.8175,15.92959],[42.82476,15.94717],[42.82818,15.97553],[42.82418,15.98888],[42.82551,16.001],[42.83403,16.0137],[42.83802,16.02636],[42.8329,16.04382],[42.84022,16.05702],[42.83673,16.0593],[42.83415,16.07576],[42.82509,16.08906],[42.83033,16.09683],[42.83025,16.10378],[42.81915,16.13303],[42.81846,16.1719],[42.82955,16.18051],[42.82283,16.18623],[42.81908,16.20023],[42.80858,16.20991],[42.81229,16.21544],[42.80049,16.23042],[42.8055,16.24747],[42.80478,16.26368],[42.79833,16.28035],[42.79351,16.2821],[42.79431,16.29447],[42.7872,16.3101],[42.79148,16.30912],[42.79103,16.31323],[42.79732,16.32282],[42.79494,16.3331],[42.78435,16.35024],[42.78671,16.35361],[42.78987,16.34553],[42.79368,16.35085],[42.78959,16.35828],[42.77416,16.36713],[42.76913,16.37557],[42.7674,16.38662],[42.7706,16.38691],[42.77168,16.39774],[42.76918,16.39948],[42.76556,16.38403],[42.77012,16.37017],[42.77473,16.36417],[42.77927,16.36332],[42.78094,16.35728],[42.76101,16.37407],[42.7663,16.40129],[42.77028,16.40313],[42.76918,16.39957],[42.77097,16.40411],[42.78114,16.40439],[42.80367,16.40128],[42.82736,16.38822],[42.83061,16.37953],[42.95646,16.40213],[42.95,16.40761],[42.93834,16.40871],[42.9465,16.43531],[42.93797,16.45072],[42.94475,16.48981],[42.95031,16.49697],[42.99217,16.52169],[43.05883,16.52517],[43.06717,16.52967],[43.12072,16.52858],[43.12642,16.57467],[43.12975,16.57392],[43.12947,16.59261],[43.13983,16.59661],[43.14217,16.60544],[43.1393,16.62197],[43.14633,16.63642],[43.13594,16.66272],[43.1448,16.6718],[43.15164,16.67725],[43.15739,16.66658],[43.16606,16.66564],[43.20622,16.64764],[43.21567,16.65007],[43.22389,16.64761],[43.22696,16.64171],[43.23472,16.64283],[43.23642,16.66703],[43.22764,16.70194],[43.21919,16.70008],[43.21167,16.70969],[43.23053,16.73053],[43.224,16.73717],[43.22631,16.74589],[43.23291,16.74171],[43.23543,16.74427],[43.23969,16.74144],[43.25144,16.74264],[43.25205,16.74728],[43.26511,16.75398],[43.25129,16.76914],[43.25736,16.78628],[43.2625,16.78694],[43.26661,16.79494],[43.26164,16.80086],[43.24618,16.8078],[43.24136,16.80547],[43.23256,16.80694],[43.22128,16.83811],[43.20228,16.84967],[43.20199,16.84479],[43.17997,16.84906],[43.1717,16.86553],[43.15684,16.87659],[43.15047,16.87765],[43.13792,16.90715],[43.13811,16.91758],[43.14193,16.91845],[43.14432,16.92531],[43.17225,16.93144],[43.17547,16.93689],[43.19404,16.94471],[43.19491,16.95549],[43.17775,16.96808],[43.17744,16.97553],[43.18824,16.98114],[43.18486,16.98934],[43.17805,16.99373],[43.18003,17.009],[43.18408,17.01425],[43.179,17.01675],[43.17922,17.02583],[43.19042,17.02483],[43.191,17.01608],[43.20272,17.01008],[43.2073,17.02097],[43.21153,17.02261],[43.22539,17.01142],[43.22747,17.02069],[43.23233,17.02208],[43.23094,17.02953],[43.23747,17.02925],[43.24863,17.01529],[43.23969,17.04739],[43.22722,17.07536],[43.20806,17.07833],[43.18528,17.09861],[43.16017,17.08697],[43.15914,17.1316],[43.15195,17.17471],[43.18076,17.18409],[43.21631,17.21036],[43.19877,17.24491],[43.20368,17.24949],[43.20322,17.25957],[43.20854,17.26197],[43.22407,17.26026],[43.23244,17.26892],[43.25766,17.28178],[43.26722,17.29222],[43.28948,17.29011],[43.30244,17.29319],[43.31498,17.30427],[43.3365,17.304],[43.326,17.32836],[43.27675,17.35817],[43.25883,17.36231],[43.22803,17.38553],[43.24706,17.4015],[43.22972,17.43212],[43.25649,17.45782],[43.24075,17.48053],[43.26044,17.48994],[43.28536,17.51728],[43.30269,17.5275],[43.30472,17.53189],[43.31022,17.52767],[43.33589,17.53983],[43.35475,17.55639],[43.37556,17.544],[43.37944,17.55539],[43.39922,17.55664],[43.41961,17.56583],[43.43128,17.56392],[43.44542,17.55],[43.4593,17.55253],[43.48464,17.54511],[43.49569,17.52689],[43.50617,17.52403],[43.52033,17.50906],[43.52719,17.51425],[43.56653,17.48336],[43.61781,17.42611],[43.68333,17.36667],[43.78889,17.375],[43.80583,17.35661],[43.83194,17.33889],[43.90534,17.34166],[43.96667,17.33056],[44.01136,17.40247],[44.02328,17.39131],[44.04958,17.40492],[44.06667,17.40583],[44.10061,17.36606],[44.11083,17.36639],[44.13083,17.38361],[44.13806,17.40889],[44.20833,17.41389],[44.36611,17.43333],[44.46667,17.43333],[44.56667,17.40556],[44.65,17.43333],[45.21667,17.43333],[45.4,17.33333],[46.1,17.25],[46.36667,17.23333],[46.75,17.28333],[47,16.95],[47.18333,16.95],[47.46667,17.11667],[47.6,17.45],[48.18333,18.16667],[49.11667,18.61667],[50.78333,18.78889],[52,19],[52.78218,17.34973],[52.75139,17.30417],[52.74264,17.30193],[52.74583,17.29444],[52.81228,17.28553],[53.10885,16.65055],[53.06261,16.63633],[52.99946,16.62562],[52.94591,16.61222],[52.94534,16.60914],[52.93003,16.59962],[52.89255,16.59057],[52.83921,16.57044],[52.83621,16.5639],[52.82226,16.55669],[52.74998,16.53554],[52.70467,16.51428],[52.5569,16.4647],[52.47363,16.43027],[52.41169,16.3909],[52.36445,16.35077],[52.27887,16.25678],[52.23973,16.20317],[52.23374,16.20501],[52.23772,16.20061],[52.20464,16.13228],[52.20037,16.0867],[52.18113,16.05435],[52.1672,16.01811],[52.15213,15.99088],[52.14678,15.96386],[52.15169,15.93756],[52.15913,15.9352],[52.16294,15.92565],[52.16931,15.92278],[52.16697,15.91017],[52.16322,15.90607],[52.16028,15.85662],[52.17338,15.84432],[52.18891,15.83818],[52.20052,15.82111],[52.19294,15.82103],[52.19039,15.81756],[52.19642,15.80233],[52.19961,15.80128],[52.19463,15.79101],[52.19778,15.78493],[52.20363,15.78374],[52.19054,15.77531],[52.18846,15.75961],[52.19411,15.74902],[52.19064,15.74698],[52.19576,15.7351],[52.19582,15.72222],[52.20538,15.69743],[52.21316,15.66364],[52.21647,15.66105],[52.21733,15.65048],[52.22497,15.63833],[52.22349,15.63409],[52.19264,15.60914],[52.17202,15.60629],[52.05566,15.56721],[51.86611,15.49255],[51.84756,15.47162],[51.85391,15.46619],[51.84937,15.45873],[51.8504,15.4528],[51.85689,15.44814],[51.84545,15.44393],[51.82135,15.46206],[51.74769,15.43965],[51.67082,15.40807],[51.64713,15.39243],[51.64074,15.38523],[51.63591,15.36978],[51.63772,15.35509],[51.64833,15.34926],[51.65881,15.34782],[51.65734,15.34473],[51.66396,15.33981],[51.65997,15.33712],[51.64271,15.33691],[51.62782,15.33],[51.60526,15.33032],[51.60235,15.33432],[51.58376,15.33244],[51.51043,15.31072],[51.47509,15.29624],[51.46989,15.288],[51.45674,15.28185],[51.45593,15.27438],[51.44983,15.27812],[51.44318,15.27208],[51.43947,15.27415],[51.41928,15.26414],[51.41833,15.25796],[51.40334,15.2594],[51.37651,15.2476],[51.36881,15.2431],[51.36986,15.23485],[51.34703,15.23347],[51.33961,15.23838],[51.31518,15.23249],[51.22624,15.19472],[51.2074,15.19268],[51.1376,15.16928],[51.13336,15.17225],[51.13297,15.1859],[51.12725,15.16658],[51.0397,15.15077],[50.9145,15.11648],[50.88771,15.11235],[50.81797,15.09066],[50.80683,15.09117],[50.71802,15.06943],[50.70581,15.07225],[50.65942,15.06188],[50.55365,15.04546],[50.47364,15.02287],[50.40322,14.98431],[50.37015,14.96206],[50.33975,14.93633],[50.3296,14.9193],[50.32523,14.91954],[50.31752,14.92712],[50.30852,14.92555],[50.26009,14.90685],[50.18791,14.86486],[50.18105,14.85814],[50.18227,14.85028],[50.17819,14.8446],[50.15038,14.84205],[50.13446,14.84895],[50.12574,14.8457],[50.10824,14.84988],[50.05536,14.82751],[50.02176,14.81951],[50.02518,14.82326],[50.02315,14.8324],[50.01797,14.83624],[50.01742,14.84217],[50.01129,14.85013],[49.98717,14.8526],[49.95966,14.84591],[49.93765,14.8507],[49.89693,14.83608],[49.85061,14.81367],[49.82213,14.80892],[49.7431,14.78248],[49.68226,14.77286],[49.63548,14.75997],[49.63097,14.76162],[49.56284,14.73557],[49.49192,14.69429],[49.44967,14.68075],[49.40774,14.66114],[49.33886,14.63709],[49.17848,14.54793],[49.16855,14.53356],[49.16627,14.52221],[49.17027,14.51812],[49.16955,14.50858],[49.15737,14.51042],[49.15334,14.51876],[49.14937,14.51886],[49.15119,14.52338],[49.14852,14.52542],[49.14057,14.5278],[49.1353,14.52557],[49.13581,14.52866],[49.12547,14.53154],[49.12207,14.52727],[49.10672,14.52856],[49.08831,14.51734],[49.06195,14.4933],[49.02756,14.45129],[49.01427,14.43005],[49.01304,14.42],[49.00647,14.41557],[49.00023,14.40418],[48.98844,14.37807],[48.98763,14.3657],[48.98472,14.36567],[48.98279,14.35948],[48.98328,14.34969],[48.99415,14.34489],[48.99563,14.32675],[48.99304,14.3217],[48.98934,14.32116],[48.98099,14.31027],[48.94931,14.30858],[48.93435,14.29776],[48.92352,14.26986],[48.9175,14.26337],[48.91039,14.26189],[48.90911,14.25685],[48.90169,14.26001],[48.88935,14.25217],[48.87776,14.25001],[48.87279,14.24443],[48.86804,14.24451],[48.86198,14.22862],[48.86606,14.21604],[48.82761,14.16535],[48.81209,14.15902],[48.79306,14.13541],[48.77805,14.13193],[48.76991,14.12786],[48.76392,14.11982],[48.75707,14.11808],[48.72895,14.08035],[48.69416,14.0508],[48.6841,14.05443],[48.68337,14.04825],[48.67437,14.05099],[48.67124,14.04787],[48.67468,14.04636],[48.67154,14.0444],[48.58841,14.04822],[48.54337,14.04236],[48.51923,14.03117],[48.48893,14.00408],[48.47491,14.00818],[48.45791,13.99539],[48.4505,13.99801],[48.44926,14.01473],[48.43412,14.02487],[48.42806,14.02391],[48.42604,14.01629],[48.41577,14.01464],[48.4144,14.01926],[48.40488,14.02147],[48.38862,14.01383],[48.37117,14.01789],[48.35488,14.01334],[48.34872,14.02112],[48.33602,14.02471],[48.32553,14.02009],[48.32282,14.01543],[48.32808,14.00442],[48.31833,14.00444],[48.31313,13.99807],[48.30653,13.99916],[48.29656,13.9948],[48.29377,13.98511],[48.2885,13.98518],[48.28101,13.99385],[48.27337,13.99351],[48.27,13.98897],[48.25473,13.98712],[48.25757,13.98097],[48.24985,13.97664],[48.24646,13.9842],[48.22971,13.98478],[48.22334,13.98869],[48.2127,13.97506],[48.18634,13.9745],[48.18547,13.97037],[48.17929,13.96952],[48.1749,13.9723],[48.17854,13.97698],[48.1764,13.97901],[48.17795,13.99242],[48.1256,14.02642],[48.0631,14.04858],[48.03191,14.05438],[47.99817,14.05396],[47.97003,14.04846],[47.94773,14.04046],[47.92026,14.02467],[47.88236,13.99111],[47.80685,13.93364],[47.77013,13.92209],[47.71596,13.91494],[47.68875,13.90196],[47.652,13.87483],[47.64361,13.87201],[47.61606,13.84654],[47.59646,13.81848],[47.56438,13.79745],[47.45635,13.69919],[47.39311,13.65403],[47.37217,13.64665],[47.32623,13.64083],[47.29069,13.62615],[47.21533,13.60264],[47.18184,13.59878]]],[[[53.03727,12.13677],[53.0259,12.13995],[53.01214,12.1546],[52.99622,12.16206],[52.98615,12.16239],[52.98293,12.16937],[52.98841,12.16752],[53.00179,12.17168],[53.00901,12.17433],[53.00891,12.17768],[53.03537,12.17942],[53.05133,12.17788],[53.05601,12.17398],[53.07277,12.17463],[53.07559,12.16714],[53.08821,12.15648],[53.08633,12.13383],[53.0593,12.12541],[53.05594,12.13135],[53.03727,12.13677]]],[[[52.06844,12.23858],[52.08287,12.24342],[52.09726,12.23808],[52.11248,12.24331],[52.1143,12.24059],[52.12557,12.24171],[52.14231,12.23352],[52.1507,12.23516],[52.15277,12.23026],[52.17026,12.21562],[52.17551,12.2174],[52.20321,12.20285],[52.21501,12.20564],[52.22075,12.20175],[52.24356,12.20461],[52.25009,12.20097],[52.25508,12.20417],[52.26345,12.20052],[52.27945,12.20625],[52.2844,12.20068],[52.29382,12.19858],[52.29802,12.20075],[52.3116,12.19167],[52.32311,12.18891],[52.34017,12.19501],[52.35455,12.1903],[52.3755,12.18942],[52.39099,12.19746],[52.38887,12.19232],[52.37036,12.18288],[52.36745,12.17722],[52.36818,12.16691],[52.38045,12.15886],[52.37741,12.1545],[52.3578,12.16014],[52.34337,12.15531],[52.34178,12.15158],[52.29962,12.1523],[52.29489,12.14846],[52.29229,12.15195],[52.28652,12.15017],[52.26481,12.1571],[52.23915,12.15721],[52.22864,12.17994],[52.22381,12.18215],[52.20049,12.17993],[52.18047,12.18479],[52.17823,12.1826],[52.17092,12.18805],[52.1599,12.18397],[52.15284,12.18671],[52.14479,12.2013],[52.13562,12.20185],[52.13433,12.20521],[52.12174,12.20204],[52.09451,12.20679],[52.0948,12.21271],[52.09061,12.21299],[52.09088,12.21582],[52.06446,12.22443],[52.06395,12.2292],[52.06868,12.23214],[52.06399,12.23937],[52.06844,12.23858]]],[[[52.13426,12.43519],[52.13139,12.43675],[52.13587,12.44227],[52.14111,12.4416],[52.13426,12.43519]]],[[[48.46182,13.97586],[48.45758,13.97723],[48.45645,13.98417],[48.46595,13.98401],[48.46664,13.98067],[48.46182,13.97586]]],[[[48.38749,13.92757],[48.38123,13.93317],[48.3837,13.93615],[48.39031,13.93429],[48.39062,13.92966],[48.38749,13.92757]]],[[[48.32197,13.98568],[48.31782,13.99143],[48.31896,13.99556],[48.32396,13.996],[48.326,13.99075],[48.32197,13.98568]]],[[[45.01855,12.81075],[45.02092,12.80921],[45.01579,12.80044],[45.01855,12.81075]]],[[[44.71583,12.74127],[44.71873,12.73277],[44.70639,12.7325],[44.70547,12.73662],[44.71243,12.7347],[44.71583,12.74127]]],[[[43.43151,12.63282],[43.42757,12.6337],[43.43161,12.63836],[43.4291,12.64092],[43.41968,12.63675],[43.42255,12.64011],[43.42325,12.65454],[43.41694,12.65592],[43.41146,12.65164],[43.39937,12.65427],[43.4081,12.64376],[43.40022,12.64526],[43.39206,12.64972],[43.38857,12.66181],[43.41055,12.6716],[43.42713,12.66371],[43.43421,12.66466],[43.43883,12.65953],[43.43678,12.65127],[43.44104,12.64074],[43.43151,12.63282]]],[[[42.93929,14.87482],[42.94156,14.87239],[42.93817,14.86696],[42.93666,14.87312],[42.93929,14.87482]]],[[[42.90755,14.62164],[42.91706,14.62327],[42.91854,14.62058],[42.91436,14.61539],[42.9164,14.6091],[42.93913,14.61033],[42.92719,14.60108],[42.92823,14.5986],[42.93541,14.59858],[42.92761,14.59851],[42.90471,14.61505],[42.89889,14.62864],[42.90137,14.63214],[42.90587,14.63192],[42.90801,14.6295],[42.90459,14.62715],[42.90755,14.62164]]],[[[42.9194,14.82236],[42.91712,14.82608],[42.91976,14.82687],[42.9194,14.82236]]],[[[42.88217,14.92104],[42.87636,14.9197],[42.87853,14.91444],[42.87589,14.91377],[42.87528,14.90836],[42.88211,14.90057],[42.8763,14.89858],[42.87439,14.89161],[42.87996,14.87621],[42.86881,14.89259],[42.8724,14.91863],[42.87739,14.92293],[42.88217,14.92104]]],[[[42.82238,14.07658],[42.82102,14.08069],[42.82286,14.08122],[42.82238,14.07658]]],[[[42.81883,13.86511],[42.81758,13.87231],[42.82122,13.87698],[42.82258,13.87262],[42.81883,13.86511]]],[[[42.8087,13.7078],[42.80458,13.7115],[42.80782,13.71745],[42.81144,13.71079],[42.8087,13.7078]]],[[[42.77663,13.8404],[42.77335,13.85286],[42.77774,13.86165],[42.79447,13.877],[42.81054,13.87817],[42.801,13.85543],[42.79706,13.85385],[42.79423,13.84687],[42.78685,13.84641],[42.77663,13.8404]]],[[[42.79318,13.70534],[42.78993,13.71471],[42.79309,13.71526],[42.7959,13.71039],[42.79318,13.70534]]],[[[42.68837,14],[42.68329,14.00382],[42.67669,14.00376],[42.67902,14.00881],[42.69133,14.01665],[42.69653,14.02404],[42.70627,14.02658],[42.71661,14.04715],[42.73206,14.05914],[42.73788,14.0579],[42.74391,14.06144],[42.74518,14.06634],[42.75784,14.06697],[42.7628,14.07166],[42.77088,14.05525],[42.78495,14.04559],[42.788,14.02965],[42.79303,14.0279],[42.78759,14.01832],[42.78986,14.01448],[42.78661,13.99642],[42.78958,13.98872],[42.77944,13.97344],[42.77924,13.9536],[42.78377,13.94901],[42.78398,13.94077],[42.77604,13.92924],[42.78516,13.91335],[42.77811,13.90634],[42.76821,13.90792],[42.77231,13.92435],[42.76068,13.92356],[42.75151,13.91678],[42.7554,13.91038],[42.75107,13.90802],[42.74655,13.9121],[42.74963,13.93402],[42.76306,13.94959],[42.75129,13.95322],[42.73866,13.95117],[42.73626,13.95372],[42.72782,13.95339],[42.72804,13.95777],[42.72528,13.95774],[42.72667,13.96316],[42.71362,13.9633],[42.71483,13.97387],[42.71228,13.97899],[42.69584,13.98837],[42.6878,13.98726],[42.68837,14]]],[[[42.78773,13.78152],[42.78493,13.78472],[42.78684,13.7913],[42.79125,13.78477],[42.78773,13.78152]]],[[[42.70216,13.70722],[42.7055,13.7294],[42.71564,13.74288],[42.73311,13.74871],[42.73631,13.75775],[42.75519,13.76706],[42.76652,13.76717],[42.77227,13.77173],[42.77249,13.77624],[42.77697,13.77653],[42.7785,13.78208],[42.78074,13.78159],[42.78492,13.7721],[42.78366,13.76591],[42.77945,13.7651],[42.77621,13.75966],[42.77426,13.74239],[42.77804,13.73289],[42.76737,13.73318],[42.76599,13.72583],[42.75694,13.72214],[42.75575,13.70797],[42.75038,13.70483],[42.73744,13.68153],[42.73155,13.67762],[42.72021,13.67944],[42.70983,13.67639],[42.70712,13.67082],[42.70239,13.67001],[42.69339,13.66078],[42.69527,13.65694],[42.67572,13.65006],[42.66571,13.66413],[42.66658,13.6698],[42.67497,13.67297],[42.67546,13.6771],[42.68286,13.67433],[42.68457,13.68826],[42.70248,13.70104],[42.70216,13.70722]]],[[[42.76032,14.08258],[42.75847,14.08256],[42.75843,14.08745],[42.76032,14.08258]]],[[[42.74636,13.64324],[42.74395,13.6476],[42.75362,13.65516],[42.75395,13.64846],[42.74636,13.64324]]],[[[42.72699,13.60379],[42.72153,13.6098],[42.73251,13.61788],[42.73988,13.63275],[42.74673,13.63166],[42.74677,13.62792],[42.73982,13.6249],[42.73754,13.61587],[42.74053,13.60611],[42.73328,13.60707],[42.72699,13.60379]]],[[[42.71761,15.54555],[42.72349,15.54252],[42.7187,15.54286],[42.71761,15.54555]]],[[[42.71157,13.94345],[42.71487,13.95661],[42.71908,13.95743],[42.71564,13.9458],[42.71157,13.94345]]],[[[42.67115,16.16905],[42.6665,16.16797],[42.66661,16.17003],[42.67115,16.16905]]],[[[42.63815,15.4564],[42.64215,15.45464],[42.63969,15.44934],[42.64669,15.44014],[42.64097,15.44124],[42.62464,15.43051],[42.61686,15.43738],[42.61329,15.43644],[42.60509,15.42206],[42.59226,15.41844],[42.59352,15.41305],[42.60198,15.4161],[42.61482,15.4071],[42.61143,15.40127],[42.58118,15.40146],[42.57526,15.39663],[42.57916,15.39268],[42.58552,15.39314],[42.59012,15.38572],[42.59728,15.38593],[42.6284,15.40338],[42.63928,15.40324],[42.6316,15.39029],[42.63153,15.38437],[42.6346,15.38311],[42.62814,15.37918],[42.62519,15.38224],[42.62768,15.37248],[42.63034,15.37199],[42.62893,15.3676],[42.62431,15.36601],[42.62514,15.36293],[42.61546,15.35046],[42.61984,15.33892],[42.61069,15.33831],[42.61274,15.33344],[42.61819,15.33247],[42.61867,15.32501],[42.62159,15.32452],[42.61702,15.31855],[42.61666,15.3152],[42.61958,15.31523],[42.61693,15.30336],[42.59999,15.28773],[42.58887,15.26302],[42.5716,15.26528],[42.54613,15.28908],[42.53441,15.30453],[42.535,15.31097],[42.55297,15.31657],[42.562,15.32774],[42.56522,15.3476],[42.55973,15.36325],[42.553,15.3709],[42.55763,15.38382],[42.55519,15.38792],[42.57211,15.40484],[42.58594,15.4261],[42.59278,15.43119],[42.59623,15.4311],[42.59336,15.42644],[42.59814,15.42623],[42.60111,15.43322],[42.59664,15.44115],[42.60935,15.44399],[42.62593,15.45653],[42.63815,15.4564]]],[[[42.60245,15.65028],[42.60922,15.64005],[42.63589,15.63069],[42.63516,15.6254],[42.62289,15.629],[42.60573,15.62032],[42.60066,15.62142],[42.59477,15.63732],[42.58563,15.64623],[42.58891,15.64948],[42.60245,15.65028]]],[[[42.63492,15.98933],[42.63027,15.98812],[42.63197,15.99084],[42.63492,15.98933]]],[[[42.63242,15.41167],[42.62515,15.40837],[42.62062,15.41077],[42.62902,15.41858],[42.63242,15.41167]]],[[[42.63178,15.76826],[42.62503,15.76561],[42.61638,15.74415],[42.60624,15.73554],[42.60258,15.74142],[42.61127,15.76005],[42.62341,15.7683],[42.63178,15.76826]]],[[[42.61728,15.42412],[42.61762,15.41769],[42.60411,15.41471],[42.61066,15.42238],[42.61728,15.42412]]],[[[42.59899,15.92212],[42.58958,15.90785],[42.58818,15.91324],[42.59315,15.92051],[42.59899,15.92212]]],[[[42.59187,16.0052],[42.5956,16.00511],[42.58635,15.99999],[42.58549,16.00461],[42.59187,16.0052]]],[[[42.58119,16.31518],[42.57937,16.31078],[42.57644,16.31101],[42.57641,16.31371],[42.58119,16.31518]]],[[[42.57055,15.1722],[42.56731,15.17744],[42.57286,15.17853],[42.57055,15.1722]]],[[[42.57233,15.85952],[42.56841,15.85407],[42.56309,15.85388],[42.5649,15.85853],[42.57233,15.85952]]],[[[42.55897,15.7094],[42.56722,15.70833],[42.56116,15.70402],[42.54149,15.70457],[42.54172,15.70714],[42.55897,15.7094]]],[[[42.5376,15.56266],[42.53625,15.5651],[42.53993,15.56758],[42.54921,15.56975],[42.55802,15.57641],[42.549,15.56498],[42.5376,15.56266]]],[[[42.51924,15.49938],[42.53197,15.50004],[42.53294,15.49709],[42.51905,15.49282],[42.50748,15.48355],[42.50608,15.48971],[42.51246,15.48914],[42.51415,15.49173],[42.51383,15.49636],[42.5097,15.49799],[42.49697,15.49656],[42.49117,15.49276],[42.49903,15.49105],[42.49706,15.48935],[42.48564,15.48909],[42.48282,15.49189],[42.48817,15.49955],[42.50137,15.50613],[42.51924,15.49938]]],[[[42.51926,15.71809],[42.5185,15.71525],[42.51319,15.71442],[42.51448,15.71791],[42.51926,15.71809]]],[[[42.47243,16.30374],[42.46937,16.29315],[42.47382,16.28921],[42.48285,16.29138],[42.48478,16.28651],[42.50059,16.28],[42.5088,16.28422],[42.51042,16.28269],[42.50608,16.27762],[42.51273,16.26856],[42.47854,16.27421],[42.47322,16.27324],[42.46691,16.26634],[42.4574,16.2809],[42.45103,16.27915],[42.44804,16.28336],[42.45228,16.28496],[42.46351,16.30337],[42.47243,16.30374]]],[[[42.50556,15.73029],[42.50405,15.72345],[42.49371,15.72153],[42.49207,15.72473],[42.49754,15.73393],[42.50556,15.73029]]],[[[42.48505,16.26527],[42.50219,16.25878],[42.50343,16.25571],[42.47872,16.26043],[42.48505,16.26527]]],[[[42.50272,15.59227],[42.4977,15.59002],[42.49582,15.59193],[42.50272,15.59227]]],[[[42.48561,15.86033],[42.4806,15.85679],[42.47977,15.85975],[42.48561,15.86033]]],[[[42.40046,15.7391],[42.4232,15.72702],[42.43278,15.72649],[42.44004,15.71936],[42.45251,15.7217],[42.45228,15.71835],[42.46029,15.71574],[42.48288,15.71536],[42.48121,15.70002],[42.45785,15.6982],[42.41681,15.70725],[42.39132,15.70527],[42.38632,15.70122],[42.3779,15.71566],[42.37813,15.71824],[42.38239,15.71778],[42.38508,15.72605],[42.37706,15.73947],[42.38017,15.74581],[42.38626,15.74756],[42.39052,15.74748],[42.40046,15.7391]]],[[[42.45278,15.76405],[42.45205,15.76906],[42.46086,15.77676],[42.45752,15.76719],[42.45278,15.76405]]],[[[42.44658,15.84494],[42.44011,15.84087],[42.43954,15.84408],[42.44658,15.84494]]],[[[42.41907,16.10307],[42.41238,16.09527],[42.40691,16.09598],[42.40776,16.10216],[42.42126,16.10902],[42.41907,16.10307]]],[[[42.37174,15.53217],[42.37946,15.53059],[42.37951,15.52622],[42.37437,15.52332],[42.38042,15.49662],[42.40987,15.47663],[42.41049,15.4693],[42.39876,15.47316],[42.3774,15.49375],[42.36828,15.52222],[42.35846,15.53214],[42.36613,15.53442],[42.37174,15.53217]]],[[[42.37373,16.21913],[42.37518,16.2104],[42.38744,16.19999],[42.38495,16.18658],[42.37106,16.17933],[42.3609,16.19271],[42.36002,16.19837],[42.36608,16.21389],[42.37373,16.21913]]],[[[42.36169,16.28295],[42.36836,16.28265],[42.36172,16.26068],[42.35349,16.25865],[42.34767,16.26488],[42.36169,16.28295]]],[[[42.35212,16.1419],[42.35487,16.13524],[42.35342,16.13419],[42.35212,16.1419]]],[[[42.35182,16.35271],[42.33312,16.3463],[42.34795,16.35356],[42.35182,16.35271]]],[[[42.33933,16.32038],[42.34894,16.29965],[42.33298,16.27731],[42.32207,16.27666],[42.29933,16.28293],[42.29548,16.29176],[42.30739,16.29758],[42.31287,16.30589],[42.32634,16.31558],[42.32628,16.31944],[42.33933,16.32038]]],[[[42.29849,15.71186],[42.30636,15.65906],[42.29547,15.66832],[42.29102,15.68346],[42.28289,15.68541],[42.28605,15.70785],[42.28918,15.71226],[42.29527,15.71401],[42.29849,15.71186]]],[[[42.3048,16.37966],[42.28688,16.37389],[42.28947,16.37946],[42.2985,16.38176],[42.3048,16.37966]]],[[[42.28297,16.14463],[42.27411,16.14014],[42.27299,16.14399],[42.28297,16.14463]]],[[[42.26681,16.33065],[42.2517,16.31565],[42.24808,16.2981],[42.23816,16.29321],[42.23956,16.29773],[42.23521,16.30385],[42.23843,16.31162],[42.26681,16.33065]]],[[[42.19872,16.32087],[42.20286,16.32016],[42.20325,16.31167],[42.21128,16.30946],[42.20671,16.30219],[42.21194,16.29068],[42.20334,16.2867],[42.20181,16.28128],[42.19728,16.28173],[42.19171,16.28887],[42.19439,16.30666],[42.19172,16.31641],[42.19872,16.32087]]],[[[42.17789,15.07907],[42.18507,15.07723],[42.19207,15.06857],[42.19104,15.05646],[42.19458,15.04904],[42.1927,15.04091],[42.18186,15.02906],[42.17197,15.03589],[42.16122,15.05815],[42.16218,15.06549],[42.17139,15.07011],[42.17209,15.07707],[42.17789,15.07907]]],[[[42.15973,15.03046],[42.16666,15.02681],[42.16552,15.01303],[42.16181,15.01285],[42.15924,15.01745],[42.15303,15.01622],[42.15046,15.02069],[42.15261,15.02792],[42.15654,15.03145],[42.15973,15.03046]]],[[[42.15791,15.08796],[42.15891,15.0818],[42.14704,15.07856],[42.14679,15.08705],[42.15416,15.09088],[42.15791,15.08796]]],[[[42.14519,15.06798],[42.14152,15.06498],[42.14305,15.06924],[42.14519,15.06798]]],[[[42.11393,15.17621],[42.11812,15.16995],[42.10893,15.17331],[42.10929,15.17589],[42.11393,15.17621]]],[[[42.11663,15.133],[42.11628,15.12965],[42.1127,15.12986],[42.11357,15.13425],[42.11663,15.133]]],[[[42.1088,15.1244],[42.1102,15.11876],[42.1048,15.11663],[42.10408,15.12074],[42.1088,15.1244]]],[[[42.10474,15.14983],[42.10694,15.1442],[42.10363,15.14416],[42.10474,15.14983]]],[[[41.96965,16.3208],[41.97334,16.31493],[41.97456,16.29655],[41.96388,16.29742],[41.96328,16.31942],[41.96965,16.3208]]],[[[41.85045,15.55146],[41.85092,15.53783],[41.84665,15.53069],[41.82792,15.52348],[41.81695,15.52937],[41.81559,15.5399],[41.82877,15.55476],[41.84253,15.5574],[41.85045,15.55146]]]]}}]}