{"type":"FeatureCollection","features":[{"type":"Feature","properties":{"ISO_A3":"ZMB","WB_A3":"ZMB","WB_NAME":"Zambia","WB_REGION":"AFE,SSF"},"geometry":{"type":"MultiPolygon","coordinates":[[[[29.81476,-12.99063],[29.81476,-12.14986],[29.79371,-12.15481],[29.77392,-12.14905],[29.76103,-12.15642],[29.74812,-12.16495],[29.74042,-12.17461],[29.73232,-12.19501],[29.73765,-12.20403],[29.72911,-12.19941],[29.72635,-12.20598],[29.71689,-12.20714],[29.72028,-12.21883],[29.69771,-12.21967],[29.69118,-12.22781],[29.68083,-12.23229],[29.6477,-12.23425],[29.6369,-12.22796],[29.63636,-12.21926],[29.62938,-12.21847],[29.62544,-12.21394],[29.62197,-12.21624],[29.62212,-12.22236],[29.61741,-12.22162],[29.60685,-12.20539],[29.60146,-12.20293],[29.60037,-12.1964],[29.58843,-12.19435],[29.58114,-12.201],[29.57744,-12.19815],[29.58091,-12.19129],[29.58038,-12.18306],[29.57431,-12.18173],[29.56209,-12.18659],[29.55924,-12.19385],[29.56533,-12.1981],[29.56179,-12.20242],[29.55171,-12.20193],[29.54589,-12.21522],[29.53039,-12.23149],[29.52014,-12.22959],[29.5039,-12.23316],[29.483,-12.2484],[29.47931,-12.25378],[29.47751,-12.27163],[29.45916,-12.30778],[29.46128,-12.3356],[29.47651,-12.36648],[29.48357,-12.39096],[29.49603,-12.4013],[29.5247,-12.39246],[29.53009,-12.40451],[29.53007,-12.4214],[29.51401,-12.44035],[29.49846,-12.44314],[29.47848,-12.46001],[29.46264,-12.45236],[29.41437,-12.43787],[29.40442,-12.42736],[29.38974,-12.42326],[29.38335,-12.41496],[29.36166,-12.41199],[29.34818,-12.4209],[29.32765,-12.41911],[29.32212,-12.42219],[29.31936,-12.41832],[29.30039,-12.41086],[29.29853,-12.40547],[29.30536,-12.39709],[29.30474,-12.3937],[29.27042,-12.36102],[29.26236,-12.3628],[29.25252,-12.37547],[29.23769,-12.38039],[29.22903,-12.37589],[29.17705,-12.37249],[29.13487,-12.38607],[29.12358,-12.39672],[29.10917,-12.37599],[29.09894,-12.37903],[29.09069,-12.37625],[29.07848,-12.38844],[29.04212,-12.38445],[29.03105,-12.36924],[29.03579,-12.35252],[29.01969,-12.3404],[29.01148,-12.3231],[29.00838,-12.31049],[29.00914,-12.29333],[29.00472,-12.28397],[28.99034,-12.27404],[28.97388,-12.25197],[28.94953,-12.20717],[28.92102,-12.17542],[28.90551,-12.16358],[28.87907,-12.1548],[28.86319,-12.14587],[28.8309,-12.09219],[28.81683,-12.08506],[28.80774,-12.06738],[28.79168,-12.05913],[28.78629,-12.05082],[28.77446,-12.0442],[28.77281,-12.03528],[28.77671,-12.02483],[28.76243,-12.01324],[28.765,-11.99376],[28.75865,-11.99068],[28.75363,-11.97877],[28.74386,-11.97696],[28.72071,-11.9902],[28.69914,-11.98423],[28.68352,-11.96891],[28.66868,-11.96478],[28.65871,-11.95414],[28.63261,-11.94053],[28.62557,-11.92124],[28.61581,-11.90844],[28.59282,-11.90554],[28.57544,-11.911],[28.56305,-11.89988],[28.55146,-11.89949],[28.53267,-11.89283],[28.51121,-11.87672],[28.49573,-11.88411],[28.49042,-11.87695],[28.49454,-11.85257],[28.49272,-11.84498],[28.48449,-11.83959],[28.48069,-11.83148],[28.46707,-11.82864],[28.45795,-11.8402],[28.45135,-11.83917],[28.43487,-11.81376],[28.44057,-11.80123],[28.4402,-11.79297],[28.45255,-11.78047],[28.45403,-11.77302],[28.44483,-11.75017],[28.42735,-11.72719],[28.41978,-11.72512],[28.41905,-11.72033],[28.43047,-11.71245],[28.43707,-11.69867],[28.43641,-11.69207],[28.4226,-11.68526],[28.41966,-11.67772],[28.42215,-11.66846],[28.43204,-11.66098],[28.43387,-11.65156],[28.42009,-11.62589],[28.40695,-11.62046],[28.39953,-11.60529],[28.38538,-11.58774],[28.38466,-11.54417],[28.39114,-11.52725],[28.3892,-11.51885],[28.39767,-11.50447],[28.39634,-11.4753],[28.422,-11.44905],[28.42171,-11.434],[28.43237,-11.41698],[28.42563,-11.3892],[28.42976,-11.38255],[28.45405,-11.37266],[28.45611,-11.36861],[28.45588,-11.35629],[28.46115,-11.34209],[28.45277,-11.33263],[28.45052,-11.3213],[28.45512,-11.31496],[28.4529,-11.29834],[28.45776,-11.2919],[28.47099,-11.28469],[28.47575,-11.25918],[28.48454,-11.25126],[28.48914,-11.23891],[28.47956,-11.21974],[28.48328,-11.21028],[28.48123,-11.19985],[28.49868,-11.17646],[28.49927,-11.14882],[28.49618,-11.13251],[28.48059,-11.11494],[28.47748,-11.10046],[28.49309,-11.08278],[28.4971,-11.04724],[28.51203,-11.02071],[28.51136,-10.96586],[28.53474,-10.95388],[28.54011,-10.94659],[28.54648,-10.91045],[28.54733,-10.89763],[28.54315,-10.87453],[28.54818,-10.84871],[28.55866,-10.82355],[28.56241,-10.82003],[28.56922,-10.82045],[28.58094,-10.81084],[28.58161,-10.78916],[28.60083,-10.77399],[28.60609,-10.76116],[28.60785,-10.72611],[28.61995,-10.71465],[28.64555,-10.71922],[28.64968,-10.71749],[28.65884,-10.72287],[28.66466,-10.72043],[28.66234,-10.68483],[28.69434,-10.67691],[28.6988,-10.66811],[28.68586,-10.63605],[28.66811,-10.62701],[28.65842,-10.62606],[28.65969,-10.60213],[28.66513,-10.59393],[28.66609,-10.57972],[28.67479,-10.56994],[28.67406,-10.56538],[28.6629,-10.55141],[28.65699,-10.53274],[28.64788,-10.53523],[28.6302,-10.52016],[28.62945,-10.51643],[28.64107,-10.50467],[28.64196,-10.49796],[28.63322,-10.47799],[28.63296,-10.46491],[28.64677,-10.44771],[28.64509,-10.42202],[28.62979,-10.40804],[28.62218,-10.39041],[28.62459,-10.37585],[28.61868,-10.36178],[28.63374,-10.3352],[28.63442,-10.29914],[28.6279,-10.28841],[28.61121,-10.2856],[28.60719,-10.26174],[28.59732,-10.25247],[28.5925,-10.24128],[28.58208,-10.23679],[28.57478,-10.22524],[28.59473,-10.19213],[28.61128,-10.17838],[28.60951,-10.16611],[28.61304,-10.16321],[28.62087,-10.16772],[28.62752,-10.16116],[28.62461,-10.14698],[28.62561,-10.12198],[28.63287,-10.07927],[28.629,-10.06306],[28.63171,-10.05655],[28.64388,-10.04762],[28.64465,-10.02126],[28.63698,-10.0094],[28.62204,-9.99888],[28.62228,-9.99189],[28.63091,-9.9795],[28.6223,-9.95719],[28.6347,-9.91904],[28.65558,-9.89229],[28.65976,-9.88114],[28.65821,-9.86464],[28.66666,-9.85298],[28.67301,-9.83637],[28.67517,-9.81191],[28.68031,-9.80969],[28.68362,-9.81476],[28.68871,-9.81521],[28.69473,-9.81051],[28.69619,-9.80243],[28.68468,-9.78695],[28.6721,-9.78168],[28.66994,-9.7779],[28.67649,-9.76936],[28.67629,-9.76391],[28.6687,-9.75123],[28.65056,-9.75186],[28.63602,-9.74696],[28.6175,-9.7182],[28.61943,-9.7109],[28.63003,-9.70211],[28.63067,-9.69673],[28.62516,-9.68496],[28.62413,-9.6629],[28.61545,-9.63554],[28.6055,-9.62058],[28.61221,-9.60204],[28.6116,-9.59222],[28.59178,-9.579],[28.58115,-9.57833],[28.58092,-9.57468],[28.59398,-9.56468],[28.61105,-9.56405],[28.6159,-9.56045],[28.61819,-9.55036],[28.61666,-9.54663],[28.60943,-9.54365],[28.59146,-9.55913],[28.58678,-9.56146],[28.57873,-9.55976],[28.57406,-9.5549],[28.5698,-9.54186],[28.57408,-9.49364],[28.56869,-9.47997],[28.55388,-9.47386],[28.54069,-9.47918],[28.5343,-9.4773],[28.53312,-9.46925],[28.53801,-9.46118],[28.53715,-9.45497],[28.52254,-9.44791],[28.51344,-9.44866],[28.51188,-9.43724],[28.52086,-9.41955],[28.52439,-9.39844],[28.52291,-9.38531],[28.52599,-9.36967],[28.52249,-9.35754],[28.51447,-9.34849],[28.4873,-9.3306],[28.44821,-9.31016],[28.41809,-9.28936],[28.38905,-9.26462],[28.38008,-9.25279],[28.38008,-9.24669],[28.3912,-9.23594],[28.44749,-9.21012],[28.53758,-9.15903],[28.66932,-9.05887],[28.78632,-8.93465],[28.8964,-8.79088],[28.92618,-8.74246],[28.95144,-8.69223],[28.95956,-8.66395],[28.96137,-8.63869],[28.95625,-8.60169],[28.94362,-8.5668],[28.92437,-8.52801],[28.89085,-8.47669],[30.77285,-8.20328],[30.80439,-8.28884],[30.82836,-8.33894],[30.84904,-8.37181],[30.99577,-8.55816],[31.02909,-8.59404],[31.06517,-8.61966],[31.10384,-8.63163],[31.14601,-8.62881],[31.17739,-8.61266],[31.18397,-8.60452],[31.18273,-8.59336],[31.18898,-8.59245],[31.19446,-8.5955],[31.21305,-8.58415],[31.2241,-8.59004],[31.22756,-8.58886],[31.23494,-8.59698],[31.2419,-8.59531],[31.24003,-8.59289],[31.24302,-8.59086],[31.25279,-8.59876],[31.26317,-8.6231],[31.27877,-8.63204],[31.29486,-8.62953],[31.29418,-8.62534],[31.30112,-8.62001],[31.30068,-8.61697],[31.31245,-8.60686],[31.32017,-8.61028],[31.32072,-8.60803],[31.32572,-8.60883],[31.3246,-8.61591],[31.32759,-8.61682],[31.33045,-8.61192],[31.35091,-8.6153],[31.35591,-8.60789],[31.36264,-8.60801],[31.35921,-8.59519],[31.36382,-8.58965],[31.37646,-8.58856],[31.37675,-8.60135],[31.38738,-8.6089],[31.39125,-8.62399],[31.3975,-8.63159],[31.41308,-8.63976],[31.45966,-8.63961],[31.47628,-8.65886],[31.48479,-8.6797],[31.48991,-8.68518],[31.50081,-8.68511],[31.50825,-8.6793],[31.53614,-8.67909],[31.54148,-8.68671],[31.55214,-8.68745],[31.56426,-8.70392],[31.57054,-8.70312],[31.57315,-8.72279],[31.58159,-8.73693],[31.56816,-8.76195],[31.57315,-8.80195],[31.56691,-8.81289],[31.57765,-8.82729],[31.57711,-8.83304],[31.58239,-8.84301],[31.59257,-8.84308],[31.61129,-8.8631],[31.65666,-8.88455],[31.66829,-8.90253],[31.67399,-8.90436],[31.67821,-8.91609],[31.69353,-8.91674],[31.70031,-8.92374],[31.71865,-8.91902],[31.73494,-8.92521],[31.73764,-8.9199],[31.75438,-8.90888],[31.76007,-8.8979],[31.79013,-8.88921],[31.86061,-8.90221],[31.94925,-8.9359],[31.92961,-8.98242],[31.93718,-9.00029],[31.93624,-9.01844],[31.94573,-9.03022],[31.95179,-9.03292],[31.96329,-9.05664],[31.98747,-9.0752],[31.99876,-9.07595],[32.01389,-9.07154],[32.01549,-9.06216],[32.06949,-9.04824],[32.13918,-9.06429],[32.16003,-9.05757],[32.17276,-9.06559],[32.193,-9.0958],[32.25521,-9.13255],[32.35971,-9.12875],[32.43744,-9.11944],[32.44859,-9.13013],[32.46224,-9.13231],[32.49309,-9.15106],[32.48633,-9.17518],[32.54555,-9.25778],[32.57521,-9.24917],[32.61619,-9.25855],[32.64784,-9.27553],[32.71826,-9.27695],[32.75567,-9.28516],[32.76549,-9.32317],[32.80077,-9.32262],[32.81314,-9.33856],[32.81329,-9.34933],[32.86522,-9.37979],[32.89283,-9.36685],[32.89788,-9.38899],[32.90505,-9.39018],[32.9132,-9.37986],[32.92808,-9.40184],[32.95964,-9.40068],[32.94309,-9.42121],[32.94852,-9.43486],[32.94459,-9.45893],[32.95266,-9.46737],[32.94706,-9.48265],[32.95103,-9.49294],[32.96585,-9.48524],[32.98279,-9.48304],[32.9836,-9.48729],[32.99443,-9.49771],[33.0047,-9.49784],[33.01292,-9.49428],[33.02095,-9.49599],[33.02647,-9.50107],[33.02991,-9.49923],[33.03184,-9.50355],[33.02971,-9.50706],[33.03302,-9.51453],[33.0324,-9.52323],[33.01531,-9.55115],[33.00316,-9.55872],[33.00395,-9.56622],[32.99891,-9.57379],[33.00578,-9.58541],[33.01499,-9.6173],[33.02137,-9.62204],[33.02314,-9.63655],[33.0297,-9.64226],[33.03929,-9.64378],[33.04871,-9.62719],[33.06265,-9.62819],[33.06774,-9.63131],[33.06662,-9.63938],[33.08694,-9.66386],[33.08457,-9.67482],[33.09949,-9.68436],[33.1027,-9.67959],[33.10113,-9.67153],[33.10857,-9.66856],[33.11317,-9.65677],[33.1093,-9.64695],[33.11151,-9.64127],[33.11909,-9.64014],[33.11926,-9.63618],[33.11139,-9.63056],[33.11055,-9.6178],[33.11756,-9.60309],[33.12426,-9.59692],[33.12826,-9.60299],[33.14044,-9.60948],[33.15291,-9.61083],[33.15644,-9.6167],[33.16883,-9.60914],[33.17167,-9.60095],[33.19093,-9.60029],[33.20435,-9.6131],[33.21957,-9.62159],[33.22241,-9.62721],[33.21879,-9.63823],[33.22686,-9.64695],[33.23183,-9.66196],[33.22679,-9.67146],[33.21837,-9.67466],[33.21646,-9.67994],[33.21787,-9.68871],[33.22717,-9.69892],[33.22808,-9.71706],[33.23646,-9.73411],[33.22935,-9.73924],[33.23091,-9.74893],[33.24026,-9.74944],[33.24945,-9.75891],[33.2763,-9.76791],[33.28242,-9.77501],[33.29018,-9.77485],[33.29298,-9.79548],[33.30595,-9.82072],[33.32265,-9.82302],[33.32687,-9.82755],[33.3515,-9.83404],[33.37087,-9.87054],[33.36982,-9.88723],[33.37394,-9.89141],[33.37495,-9.90382],[33.38065,-9.91593],[33.36187,-9.92522],[33.35569,-9.93356],[33.35203,-9.94559],[33.35422,-9.964],[33.33944,-9.99269],[33.34164,-9.99736],[33.33436,-10.00177],[33.33001,-10.00939],[33.32814,-10.03802],[33.31992,-10.05437],[33.31389,-10.05695],[33.31595,-10.06197],[33.32518,-10.06749],[33.32401,-10.07508],[33.34217,-10.08331],[33.34984,-10.0927],[33.34763,-10.10614],[33.35001,-10.10995],[33.3568,-10.10069],[33.36073,-10.10453],[33.38569,-10.10107],[33.39192,-10.10438],[33.39478,-10.11078],[33.40311,-10.11182],[33.41431,-10.12707],[33.43327,-10.13949],[33.43915,-10.16039],[33.45209,-10.16256],[33.45691,-10.16979],[33.49755,-10.17766],[33.50379,-10.18427],[33.51241,-10.18535],[33.51445,-10.20098],[33.52058,-10.20973],[33.53395,-10.21038],[33.54329,-10.23473],[33.55002,-10.23122],[33.56142,-10.23232],[33.56421,-10.23596],[33.56285,-10.24767],[33.55382,-10.25671],[33.54579,-10.29831],[33.54071,-10.30068],[33.53861,-10.30807],[33.54344,-10.31644],[33.5446,-10.32721],[33.54153,-10.33937],[33.55467,-10.33894],[33.55814,-10.34782],[33.55522,-10.35355],[33.55714,-10.3585],[33.5495,-10.37265],[33.56353,-10.37932],[33.5659,-10.3867],[33.56292,-10.38778],[33.56101,-10.39711],[33.56599,-10.40051],[33.56399,-10.4097],[33.57291,-10.4198],[33.57338,-10.43863],[33.58772,-10.43658],[33.6093,-10.45379],[33.6216,-10.45056],[33.63288,-10.45873],[33.63775,-10.46922],[33.63724,-10.47506],[33.63376,-10.48598],[33.62195,-10.4965],[33.63226,-10.49532],[33.64435,-10.50698],[33.64405,-10.51263],[33.65145,-10.52468],[33.65792,-10.52517],[33.66577,-10.53392],[33.67154,-10.52676],[33.67518,-10.52983],[33.67063,-10.54413],[33.6734,-10.55035],[33.68156,-10.55379],[33.67754,-10.56048],[33.67915,-10.57577],[33.68347,-10.57625],[33.70226,-10.56634],[33.70888,-10.56849],[33.70161,-10.58637],[33.69744,-10.58784],[33.69515,-10.59335],[33.68646,-10.59489],[33.6834,-10.60848],[33.67586,-10.60824],[33.66626,-10.61836],[33.6569,-10.62168],[33.65194,-10.62015],[33.64591,-10.62471],[33.64077,-10.63978],[33.63434,-10.64324],[33.61691,-10.66366],[33.60481,-10.65489],[33.59786,-10.6592],[33.58759,-10.68017],[33.55947,-10.71365],[33.5502,-10.73438],[33.54134,-10.73679],[33.53691,-10.73239],[33.53111,-10.74527],[33.53602,-10.75094],[33.53091,-10.765],[33.52392,-10.76554],[33.51605,-10.77539],[33.50427,-10.77766],[33.49656,-10.79154],[33.47676,-10.79315],[33.46483,-10.80629],[33.46697,-10.81258],[33.46425,-10.81637],[33.44875,-10.82226],[33.43507,-10.82095],[33.43104,-10.81629],[33.40584,-10.81339],[33.39526,-10.80707],[33.36629,-10.82743],[33.35226,-10.82942],[33.33649,-10.82203],[33.32617,-10.83642],[33.32443,-10.84854],[33.31942,-10.85195],[33.31877,-10.86026],[33.31278,-10.86825],[33.28694,-10.87803],[33.28551,-10.87191],[33.28778,-10.86994],[33.2837,-10.86636],[33.26693,-10.866],[33.24577,-10.88962],[33.2448,-10.89631],[33.24981,-10.89945],[33.25205,-10.90913],[33.26281,-10.90178],[33.26951,-10.90527],[33.27875,-10.90053],[33.28385,-10.91382],[33.29986,-10.9282],[33.30536,-10.93963],[33.31038,-10.94083],[33.3109,-10.9733],[33.30713,-10.98584],[33.28953,-10.98179],[33.30022,-10.99013],[33.2979,-11.00033],[33.30581,-11.00158],[33.31715,-11.02764],[33.32046,-11.0455],[33.32879,-11.05107],[33.3313,-11.06236],[33.32916,-11.06996],[33.35888,-11.093],[33.36704,-11.10339],[33.37427,-11.11508],[33.37552,-11.12963],[33.38054,-11.13982],[33.38457,-11.14403],[33.39756,-11.14773],[33.4075,-11.15888],[33.4004,-11.1711],[33.39782,-11.18419],[33.39048,-11.19204],[33.39366,-11.20692],[33.38164,-11.21972],[33.38123,-11.23407],[33.36732,-11.24848],[33.35526,-11.255],[33.35453,-11.26976],[33.3473,-11.27845],[33.34783,-11.28386],[33.33508,-11.3107],[33.32806,-11.3151],[33.32177,-11.32897],[33.3106,-11.33156],[33.30828,-11.33886],[33.31793,-11.36349],[33.30431,-11.37064],[33.29475,-11.36797],[33.29003,-11.37304],[33.28923,-11.38828],[33.29334,-11.39759],[33.29152,-11.42244],[33.29316,-11.42988],[33.2992,-11.43579],[33.29238,-11.44041],[33.27844,-11.43947],[33.26468,-11.42542],[33.25132,-11.41951],[33.24588,-11.41131],[33.23772,-11.41238],[33.23243,-11.42168],[33.23483,-11.44267],[33.24768,-11.45514],[33.23912,-11.46406],[33.23405,-11.47803],[33.24163,-11.48023],[33.23804,-11.48478],[33.25514,-11.52503],[33.25067,-11.53787],[33.23056,-11.56079],[33.22687,-11.56929],[33.22762,-11.57898],[33.23446,-11.58916],[33.23928,-11.59021],[33.26272,-11.57754],[33.26942,-11.57743],[33.27449,-11.58311],[33.28065,-11.57695],[33.28997,-11.57886],[33.29654,-11.59141],[33.31032,-11.59316],[33.31237,-11.5959],[33.32027,-11.62936],[33.31207,-11.67214],[33.31622,-11.68955],[33.31463,-11.73099],[33.31995,-11.74968],[33.32638,-11.75664],[33.32296,-11.77902],[33.33084,-11.78525],[33.33502,-11.79587],[33.33259,-11.82016],[33.30588,-11.8618],[33.30588,-11.87369],[33.31962,-11.88564],[33.32516,-11.90954],[33.32113,-11.93505],[33.31174,-11.95142],[33.31464,-11.96363],[33.30741,-11.97907],[33.31053,-11.99434],[33.30283,-12.01598],[33.29036,-12.03123],[33.28294,-12.05627],[33.27372,-12.06596],[33.27453,-12.08356],[33.26871,-12.09579],[33.26954,-12.1042],[33.25805,-12.12803],[33.25735,-12.14031],[33.27298,-12.15827],[33.28001,-12.16212],[33.28257,-12.16863],[33.29902,-12.16562],[33.31257,-12.16682],[33.30807,-12.18079],[33.31127,-12.19652],[33.3186,-12.20919],[33.31291,-12.21724],[33.31203,-12.24895],[33.32572,-12.26071],[33.32914,-12.26026],[33.33581,-12.28426],[33.36327,-12.31647],[33.36764,-12.32636],[33.36973,-12.34636],[33.38187,-12.34747],[33.39783,-12.34164],[33.42289,-12.3436],[33.45752,-12.3282],[33.47583,-12.3253],[33.48538,-12.33532],[33.49322,-12.33539],[33.51146,-12.34363],[33.5278,-12.33738],[33.53806,-12.33933],[33.54022,-12.3537],[33.54928,-12.36101],[33.54883,-12.37225],[33.53485,-12.3787],[33.52756,-12.38746],[33.51169,-12.39088],[33.50282,-12.4118],[33.49243,-12.41073],[33.48137,-12.418],[33.47478,-12.41655],[33.47028,-12.43044],[33.4809,-12.4563],[33.47498,-12.46212],[33.46613,-12.46314],[33.46245,-12.48293],[33.43692,-12.4777],[33.43683,-12.48272],[33.4301,-12.48659],[33.41937,-12.50074],[33.40812,-12.50536],[33.41453,-12.50936],[33.41569,-12.51638],[33.41077,-12.5237],[33.40124,-12.52668],[33.38779,-12.53882],[33.37931,-12.55149],[33.36682,-12.56069],[33.35859,-12.55876],[33.3517,-12.54981],[33.33149,-12.54594],[33.33088,-12.53814],[33.31862,-12.52809],[33.30906,-12.53294],[33.29078,-12.53606],[33.28464,-12.54103],[33.27503,-12.53985],[33.26569,-12.54422],[33.26459,-12.55961],[33.25886,-12.56235],[33.23996,-12.58429],[33.23531,-12.59535],[33.22725,-12.59585],[33.20413,-12.60901],[33.1908,-12.63481],[33.18077,-12.64256],[33.17619,-12.64165],[33.17563,-12.6348],[33.18002,-12.61304],[33.16085,-12.59976],[33.13878,-12.60128],[33.12541,-12.60665],[33.11442,-12.61669],[33.09679,-12.60823],[33.08949,-12.59563],[33.07767,-12.59925],[33.07381,-12.60636],[33.05856,-12.61289],[33.04572,-12.62351],[33.0428,-12.63258],[33.0357,-12.63827],[33.02693,-12.65592],[33.02141,-12.65693],[33.01139,-12.68262],[33.00981,-12.70316],[33.00308,-12.70932],[32.99481,-12.72812],[32.97639,-12.73537],[32.9476,-12.76748],[32.93969,-12.77101],[32.94654,-12.78799],[32.94958,-12.81348],[32.95593,-12.82218],[32.95552,-12.83225],[32.94837,-12.84777],[32.95626,-12.86042],[32.97882,-12.8839],[33.02264,-12.89308],[33.0223,-12.90547],[33.02894,-12.91024],[33.0266,-12.92301],[33.01923,-12.93184],[33.02055,-12.94097],[33.01472,-12.97142],[33.01,-12.9755],[33.01525,-12.98994],[32.99889,-13.00585],[32.99464,-13.02414],[32.98946,-13.02492],[32.98514,-13.03349],[32.99921,-13.04928],[32.99044,-13.0739],[32.98115,-13.08156],[32.98164,-13.10652],[32.97554,-13.11413],[32.98028,-13.14179],[32.98495,-13.14591],[32.97974,-13.15836],[32.98404,-13.16574],[33.00233,-13.17747],[33.00559,-13.19977],[33.01808,-13.213],[33.01232,-13.21887],[32.99109,-13.22555],[32.99179,-13.22967],[32.98828,-13.23276],[32.98044,-13.23257],[32.98075,-13.24472],[32.96999,-13.25702],[32.97089,-13.2598],[32.96659,-13.26412],[32.95076,-13.26895],[32.94414,-13.27605],[32.94292,-13.28118],[32.94587,-13.28324],[32.93796,-13.29686],[32.9452,-13.30875],[32.93444,-13.31333],[32.93225,-13.31829],[32.93554,-13.33037],[32.93163,-13.33843],[32.93428,-13.3438],[32.92672,-13.35807],[32.92756,-13.37756],[32.9171,-13.40898],[32.91839,-13.41514],[32.90257,-13.42688],[32.90038,-13.43936],[32.8882,-13.44897],[32.88813,-13.45314],[32.88029,-13.46165],[32.86636,-13.46596],[32.85741,-13.46371],[32.85608,-13.45987],[32.84557,-13.46238],[32.84238,-13.47337],[32.84644,-13.48784],[32.84087,-13.49997],[32.84983,-13.51573],[32.83584,-13.52211],[32.82435,-13.54083],[32.80555,-13.54139],[32.80125,-13.54668],[32.78252,-13.55368],[32.78079,-13.55715],[32.76724,-13.55526],[32.76005,-13.56264],[32.76305,-13.56865],[32.7613,-13.57219],[32.74269,-13.58514],[32.72263,-13.58118],[32.70302,-13.56942],[32.68831,-13.57117],[32.68721,-13.57431],[32.69397,-13.5776],[32.69236,-13.58207],[32.6821,-13.58391],[32.68068,-13.58796],[32.68831,-13.59878],[32.68104,-13.60461],[32.67252,-13.62084],[32.68454,-13.62267],[32.69969,-13.63788],[32.71294,-13.63819],[32.71877,-13.64478],[32.73221,-13.64659],[32.73914,-13.65145],[32.74657,-13.64838],[32.75264,-13.65178],[32.75519,-13.63935],[32.76126,-13.63612],[32.79503,-13.65255],[32.80247,-13.65996],[32.79401,-13.67735],[32.81719,-13.68723],[32.83533,-13.70403],[32.84638,-13.72359],[32.83672,-13.72839],[32.81934,-13.72634],[32.8088,-13.72996],[32.79587,-13.75113],[32.7805,-13.74869],[32.78177,-13.75967],[32.771,-13.78072],[32.77644,-13.77978],[32.78839,-13.78764],[32.7928,-13.78619],[32.8048,-13.80163],[32.81004,-13.80024],[32.81412,-13.78506],[32.81874,-13.78884],[32.83233,-13.78571],[32.84462,-13.79193],[32.84923,-13.79865],[32.8558,-13.79628],[32.86171,-13.79795],[32.8629,-13.80308],[32.87248,-13.80359],[32.87984,-13.81475],[32.89016,-13.81589],[32.89234,-13.82378],[32.89599,-13.82376],[32.90259,-13.83718],[32.90176,-13.84663],[32.91023,-13.86399],[32.91869,-13.86687],[32.92392,-13.87639],[32.93151,-13.8732],[32.936,-13.8788],[32.94159,-13.87978],[32.9446,-13.88604],[32.94362,-13.89332],[32.95332,-13.90443],[32.95347,-13.91034],[32.94593,-13.9244],[32.94879,-13.94554],[32.96027,-13.94062],[32.97578,-13.9408],[33.00283,-13.95319],[33.00414,-13.96265],[32.99819,-13.98454],[32.99487,-13.98744],[32.99684,-13.99763],[32.99317,-14.00816],[32.99798,-14.01189],[33.00223,-14.02314],[33.01331,-14.02692],[33.02955,-14.04109],[33.03226,-14.05492],[33.03858,-14.05269],[33.0434,-14.04197],[33.06474,-14.02093],[33.06204,-13.99878],[33.06896,-13.98639],[33.08092,-13.97441],[33.10701,-13.95784],[33.13283,-13.96103],[33.14666,-13.94008],[33.15416,-13.94029],[33.16245,-13.95133],[33.17976,-13.95558],[33.18841,-13.96308],[33.19362,-13.98502],[33.20548,-14.0015],[33.22095,-13.99796],[33.24226,-13.99829],[32.68369,-14.18762],[32.58248,-14.22506],[32.45082,-14.28459],[32.25391,-14.32231],[32.11796,-14.36556],[32.06244,-14.38772],[31.95519,-14.41325],[31.82015,-14.48239],[31.68286,-14.51072],[31.50009,-14.61106],[31.42892,-14.63315],[31.27391,-14.66211],[31.08141,-14.72344],[30.79973,-14.78851],[30.68487,-14.82936],[30.48112,-14.90844],[30.38415,-14.95821],[30.21987,-14.99717],[30.21606,-15.00729],[30.22841,-15.01582],[30.22931,-15.03072],[30.2347,-15.03992],[30.23012,-15.04801],[30.23037,-15.06088],[30.21601,-15.06832],[30.22059,-15.08394],[30.2182,-15.09832],[30.22372,-15.10094],[30.23783,-15.09986],[30.23853,-15.10422],[30.23054,-15.11035],[30.22546,-15.12071],[30.23769,-15.13981],[30.2495,-15.14666],[30.25669,-15.16228],[30.25726,-15.17673],[30.26782,-15.18661],[30.26817,-15.19398],[30.26065,-15.20754],[30.26276,-15.21171],[30.25663,-15.2184],[30.27713,-15.2352],[30.27903,-15.24644],[30.28359,-15.25312],[30.28351,-15.26202],[30.29605,-15.2709],[30.29606,-15.27493],[30.30613,-15.27915],[30.30757,-15.29175],[30.31663,-15.29837],[30.32619,-15.29644],[30.33515,-15.31102],[30.35751,-15.32377],[30.35621,-15.33452],[30.37908,-15.34944],[30.37583,-15.35956],[30.38123,-15.37164],[30.37755,-15.37589],[30.38558,-15.38487],[30.38459,-15.39119],[30.37752,-15.39922],[30.38022,-15.40411],[30.37522,-15.41475],[30.37855,-15.42511],[30.3759,-15.42933],[30.37632,-15.45962],[30.39668,-15.46935],[30.40234,-15.48411],[30.389,-15.4941],[30.37898,-15.52237],[30.35938,-15.55056],[30.36218,-15.55799],[30.37961,-15.57262],[30.38097,-15.57744],[30.38634,-15.5781],[30.40639,-15.59274],[30.40484,-15.60672],[30.41633,-15.62023],[30.42184,-15.62117],[30.39297,-15.64368],[30.36774,-15.64937],[30.35505,-15.65582],[30.33304,-15.64879],[30.27988,-15.64687],[30.27205,-15.64253],[30.26529,-15.62931],[30.25738,-15.62898],[30.24359,-15.64798],[30.21342,-15.66854],[30.20444,-15.6582],[30.19001,-15.6501],[30.17942,-15.62746],[30.16185,-15.6187],[30.13014,-15.62262],[30.11092,-15.62866],[30.06814,-15.62776],[30.05427,-15.63401],[29.97731,-15.64348],[29.95949,-15.64143],[29.94472,-15.6292],[29.91527,-15.62237],[29.89742,-15.62417],[29.88488,-15.61589],[29.87636,-15.6142],[29.82395,-15.60977],[29.76502,-15.62732],[29.75175,-15.635],[29.72323,-15.63894],[29.71701,-15.63501],[29.70469,-15.63352],[29.66426,-15.65816],[29.63173,-15.66597],[29.5964,-15.65629],[29.57332,-15.6419],[29.54984,-15.65286],[29.53112,-15.6723],[29.48913,-15.69021],[29.48038,-15.69259],[29.44731,-15.68119],[29.43337,-15.68348],[29.42296,-15.69747],[29.404,-15.70616],[29.38033,-15.70665],[29.35092,-15.72042],[29.34074,-15.72007],[29.31513,-15.73719],[29.2898,-15.74399],[29.27332,-15.75428],[29.2119,-15.77132],[29.20426,-15.78462],[29.19066,-15.7884],[29.13607,-15.82841],[29.13078,-15.84346],[29.11399,-15.85238],[29.09537,-15.8714],[29.0731,-15.87718],[29.05899,-15.89085],[29.04667,-15.89644],[29.02948,-15.93222],[29.01331,-15.9466],[28.99082,-15.93963],[28.96504,-15.94303],[28.94266,-15.9405],[28.93164,-15.94384],[28.92256,-15.95474],[28.90919,-15.95646],[28.88583,-15.98503],[28.87916,-16.01888],[28.85325,-16.03711],[28.84716,-16.04609],[28.84997,-16.06365],[28.86084,-16.07353],[28.86949,-16.10446],[28.86648,-16.12442],[28.85832,-16.13091],[28.855,-16.14111],[28.8421,-16.15719],[28.83811,-16.1747],[28.84017,-16.19897],[28.836,-16.21132],[28.84154,-16.23394],[28.85608,-16.23881],[28.85805,-16.24714],[28.85516,-16.25439],[28.84666,-16.26225],[28.84109,-16.27729],[28.83266,-16.2859],[28.82795,-16.29811],[28.82056,-16.30534],[28.82054,-16.31146],[28.82268,-16.32217],[28.84329,-16.33065],[28.84252,-16.34219],[28.83829,-16.3509],[28.85107,-16.37376],[28.84516,-16.38088],[28.84019,-16.40838],[28.8179,-16.43723],[28.81682,-16.44909],[28.82181,-16.45847],[28.8224,-16.47114],[28.81571,-16.48522],[28.80013,-16.49992],[28.77091,-16.51413],[28.74111,-16.54481],[28.63695,-16.56492],[28.25441,-16.72158],[28.13597,-16.82333],[27.82943,-16.95939],[27.63019,-17.24497],[27.62079,-17.33536],[27.54341,-17.42038],[27.31578,-17.59328],[27.1432,-17.80764],[27.1519,-17.83607],[27.08165,-17.90157],[27.04153,-17.96247],[27.01834,-17.95446],[26.99935,-17.96005],[26.98555,-17.96954],[26.96509,-17.96518],[26.958,-17.96954],[26.93148,-17.97394],[26.89333,-17.98955],[26.87709,-17.98392],[26.87289,-17.98556],[26.86805,-17.99435],[26.83226,-17.99131],[26.82537,-17.99951],[26.82966,-18.00606],[26.82888,-18.0123],[26.80858,-18.01148],[26.7995,-18.02498],[26.77348,-18.01847],[26.74908,-18.022],[26.73404,-18.02932],[26.72319,-18.04561],[26.70844,-18.05333],[26.69599,-18.06495],[26.69611,-18.07595],[26.67521,-18.07457],[26.66505,-18.06355],[26.64795,-18.05448],[26.62936,-18.05744],[26.5987,-18.04966],[26.60257,-18.03455],[26.57428,-18.01727],[26.56917,-17.99395],[26.56252,-17.98798],[26.53331,-17.98654],[26.5107,-17.99047],[26.48441,-17.98235],[26.46842,-17.96497],[26.45702,-17.96495],[26.44718,-17.95438],[26.42884,-17.95233],[26.41084,-17.93819],[26.39959,-17.93594],[26.38468,-17.93781],[26.34497,-17.92956],[26.30813,-17.93648],[26.28791,-17.91933],[26.24595,-17.91745],[26.22451,-17.89732],[26.22595,-17.89005],[26.21986,-17.88443],[26.20819,-17.88782],[26.17886,-17.90645],[26.16461,-17.91029],[26.154,-17.91922],[26.14043,-17.91774],[26.13422,-17.92208],[26.12506,-17.91978],[26.10756,-17.92791],[26.10257,-17.92605],[26.09447,-17.93364],[26.08754,-17.93393],[26.09288,-17.94787],[26.10573,-17.94745],[26.09508,-17.96136],[26.09159,-17.98111],[26.05397,-17.98104],[26.04245,-17.9728],[26.03554,-17.98],[26.0036,-17.97648],[25.98799,-17.98671],[25.98929,-17.99656],[25.97138,-18.00198],[25.96454,-18.0005],[25.96298,-17.99628],[25.94883,-17.99663],[25.9393,-17.99223],[25.9185,-17.99683],[25.91233,-17.99351],[25.91033,-17.98396],[25.90308,-17.98394],[25.8964,-17.97969],[25.8836,-17.9807],[25.87649,-17.97466],[25.85979,-17.97601],[25.85808,-17.97368],[25.86245,-17.96967],[25.85739,-17.96707],[25.85679,-17.96213],[25.86071,-17.94981],[25.846,-17.94351],[25.84651,-17.93722],[25.85865,-17.93134],[25.84866,-17.92931],[25.85835,-17.92797],[25.85843,-17.92521],[25.85328,-17.92459],[25.85909,-17.91797],[25.85737,-17.9139],[25.84782,-17.91041],[25.84558,-17.89992],[25.81714,-17.89684],[25.80547,-17.88444],[25.79592,-17.87956],[25.79294,-17.86633],[25.79627,-17.86004],[25.76947,-17.85198],[25.76711,-17.84399],[25.74452,-17.85148],[25.72794,-17.84048],[25.70428,-17.83822],[25.69757,-17.82902],[25.70234,-17.81715],[25.69998,-17.81348],[25.68587,-17.8087],[25.66827,-17.8138],[25.64782,-17.83243],[25.63261,-17.83869],[25.5934,-17.84051],[25.58469,-17.84569],[25.57754,-17.84062],[25.54777,-17.83932],[25.53902,-17.84613],[25.53152,-17.85789],[25.51753,-17.86536],[25.49502,-17.85784],[25.48685,-17.85096],[25.46437,-17.84937],[25.45603,-17.84313],[25.43415,-17.85286],[25.41567,-17.8464],[25.40154,-17.8516],[25.37861,-17.85265],[25.37375,-17.83614],[25.36701,-17.83408],[25.35144,-17.83858],[25.32956,-17.8361],[25.32103,-17.82904],[25.28694,-17.8158],[25.2771,-17.79982],[25.22746,-17.76942],[25.19047,-17.76846],[25.18156,-17.76184],[25.17039,-17.74691],[25.15655,-17.74262],[25.15643,-17.73608],[25.16149,-17.72646],[25.15894,-17.71763],[25.15044,-17.70466],[25.14168,-17.70628],[25.13973,-17.71173],[25.13387,-17.71067],[25.1364,-17.69976],[25.13386,-17.69423],[25.12352,-17.69262],[25.10642,-17.7065],[25.09516,-17.70967],[25.09364,-17.70389],[25.10003,-17.69776],[25.10856,-17.68075],[25.1065,-17.66718],[25.1032,-17.66382],[25.08736,-17.66186],[25.08185,-17.64056],[25.06729,-17.63193],[25.06512,-17.61528],[25.05712,-17.61358],[25.05519,-17.62773],[25.04959,-17.63152],[25.04477,-17.62973],[25.04323,-17.61817],[25.05102,-17.60169],[25.05023,-17.59469],[25.04486,-17.58856],[25.03164,-17.5874],[25.0195,-17.59519],[25.00644,-17.59755],[24.99582,-17.58914],[24.98789,-17.56305],[24.97875,-17.55334],[24.96038,-17.56517],[24.94375,-17.56889],[24.94062,-17.56389],[24.94771,-17.55229],[24.94405,-17.54887],[24.90757,-17.55457],[24.89645,-17.54676],[24.88069,-17.52702],[24.85452,-17.52977],[24.82994,-17.52066],[24.80399,-17.53598],[24.79353,-17.53706],[24.78904,-17.53244],[24.78669,-17.51463],[24.78137,-17.50797],[24.76234,-17.5177],[24.74744,-17.51364],[24.73196,-17.50241],[24.71521,-17.49762],[24.69299,-17.50085],[24.64424,-17.4963],[24.6371,-17.50137],[24.64245,-17.51342],[24.62656,-17.51095],[24.61394,-17.5325],[24.60502,-17.53529],[24.58354,-17.5335],[24.56016,-17.53951],[24.55212,-17.53222],[24.54945,-17.51339],[24.54612,-17.50884],[24.53769,-17.50723],[24.52382,-17.5143],[24.50927,-17.51223],[24.47742,-17.48832],[24.45372,-17.47929],[24.42841,-17.47942],[24.3881,-17.46943],[24.32703,-17.49277],[24.30778,-17.48586],[24.28927,-17.48389],[24.27562,-17.48595],[24.26906,-17.49134],[24.26016,-17.48818],[24.24979,-17.47439],[23.43423,-17.63787],[23.43004,-17.63476],[23.43014,-17.63045],[23.42527,-17.62823],[23.42619,-17.61445],[23.41397,-17.60122],[23.41836,-17.60118],[23.4177,-17.59744],[23.4097,-17.59246],[23.40063,-17.59706],[23.39094,-17.57632],[23.37711,-17.57313],[23.36528,-17.57608],[23.35024,-17.56689],[23.34134,-17.55407],[23.28363,-17.54823],[23.28691,-17.54202],[23.24964,-17.5434],[23.24129,-17.54665],[23.23169,-17.53732],[23.22159,-17.53271],[23.22483,-17.52349],[23.20815,-17.51563],[23.20543,-17.50296],[23.19996,-17.5012],[23.19169,-17.49264],[23.19368,-17.48794],[23.17769,-17.47486],[23.13613,-17.46657],[23.14422,-17.46025],[23.14185,-17.45257],[23.12353,-17.44583],[23.12819,-17.42266],[23.08714,-17.41351],[23.06873,-17.38141],[23.05864,-17.33774],[23.04399,-17.3467],[23.03755,-17.33157],[23.0251,-17.31695],[23.02598,-17.31196],[23.02105,-17.31193],[22.99707,-17.29812],[23.00883,-17.28412],[22.99343,-17.28645],[22.99551,-17.27422],[22.97393,-17.26032],[22.9682,-17.26111],[22.96931,-17.25601],[22.90938,-17.22264],[22.89672,-17.20112],[22.85358,-17.19083],[22.80189,-17.16534],[22.79754,-17.15257],[22.80526,-17.15062],[22.79161,-17.11993],[22.77028,-17.10423],[22.76711,-17.10537],[22.72894,-17.07486],[22.73947,-17.06433],[22.72612,-17.06465],[22.71723,-17.05794],[22.72503,-17.05454],[22.71621,-17.04265],[22.68569,-17.03194],[22.6934,-17.02442],[22.6421,-16.97605],[22.64396,-16.97157],[22.62118,-16.95934],[22.62022,-16.955],[22.62682,-16.95222],[22.59905,-16.91868],[22.55616,-16.87925],[22.52088,-16.8598],[22.49215,-16.83511],[22.4968,-16.81475],[22.47092,-16.80463],[22.42025,-16.7455],[22.37154,-16.69781],[22.36894,-16.70061],[22.35082,-16.69876],[22.35547,-16.68318],[22.34788,-16.67348],[22.32933,-16.66715],[22.33318,-16.66217],[22.3219,-16.64171],[22.29575,-16.62178],[22.27738,-16.6252],[22.27985,-16.617],[22.2638,-16.6022],[22.26395,-16.58771],[22.25259,-16.57412],[22.21805,-16.5733],[22.21856,-16.56245],[22.2051,-16.54924],[22.18517,-16.54608],[22.1742,-16.52096],[22.16082,-16.52192],[22.16964,-16.50984],[22.16045,-16.50685],[22.14999,-16.48962],[22.14722,-16.49424],[22.1353,-16.4901],[22.12705,-16.49406],[22.12084,-16.49023],[22.13769,-16.48624],[22.14826,-16.47514],[22.13978,-16.47208],[22.1397,-16.45908],[22.12538,-16.44537],[22.13975,-16.43948],[22.1303,-16.4327],[22.13567,-16.42333],[22.13551,-16.40805],[22.13023,-16.40428],[22.12817,-16.38601],[22.11989,-16.38709],[22.11786,-16.3841],[22.12715,-16.37553],[22.12545,-16.36606],[22.11911,-16.35735],[22.1233,-16.35694],[22.12045,-16.34812],[22.11337,-16.34564],[22.11255,-16.33394],[22.09842,-16.33094],[22.09877,-16.32656],[22.09129,-16.32121],[22.0946,-16.31664],[22.10067,-16.31655],[22.10042,-16.30824],[22.08521,-16.30456],[22.08114,-16.29425],[22.07068,-16.29025],[22.08191,-16.27899],[22.07248,-16.27596],[22.072,-16.27298],[22.08126,-16.26091],[22.07647,-16.25757],[22.05971,-16.26044],[22.05815,-16.25211],[22.05167,-16.24948],[22.05163,-16.24566],[22.04794,-16.24435],[22.04961,-16.23993],[22.04386,-16.23368],[22.03086,-16.23428],[22.02992,-16.21873],[22.0208,-16.2161],[22.02038,-16.21187],[22.01592,-16.20976],[22.00022,-16.20728],[22.00451,-16.20025],[22.00043,-16.19281],[22.00041,-13.46889],[22.00372,-12.99969],[24.05813,-13.00077],[24.02516,-12.9703],[24.02939,-12.95332],[24.02741,-12.94582],[23.99634,-12.92838],[23.98198,-12.89612],[23.97447,-12.89772],[23.96117,-12.89152],[23.95408,-12.89563],[23.94109,-12.8932],[23.92621,-12.88094],[23.92698,-12.87335],[23.92255,-12.86275],[23.90676,-12.85371],[23.90614,-12.84575],[23.89504,-12.84393],[23.89366,-12.84129],[23.90018,-12.82458],[23.89702,-12.7943],[23.90353,-12.77725],[23.89795,-12.77038],[23.8995,-12.76384],[23.90516,-12.75874],[23.91081,-12.73468],[23.92298,-12.7139],[23.92641,-12.71437],[23.93254,-12.69705],[23.92361,-12.69177],[23.92493,-12.6881],[23.92057,-12.68254],[23.92315,-12.66821],[23.92744,-12.66655],[23.92739,-12.66123],[23.93065,-12.65872],[23.92869,-12.65602],[23.93632,-12.65169],[23.93601,-12.64621],[23.94087,-12.64386],[23.93949,-12.64119],[23.94913,-12.62396],[23.94721,-12.62281],[23.95056,-12.60954],[23.95533,-12.60352],[23.95736,-12.59237],[23.95982,-12.59206],[23.94661,-12.55501],[23.94802,-12.53803],[23.9559,-12.5316],[23.9567,-12.5196],[23.96397,-12.51548],[23.97105,-12.51755],[23.975,-12.51191],[23.98276,-12.5111],[23.9841,-12.50885],[23.98048,-12.50607],[23.98311,-12.49772],[24.00078,-12.48527],[24.0091,-12.46559],[24.01953,-12.45791],[24.02119,-12.45234],[24.03416,-12.44769],[24.03196,-12.44121],[24.04391,-12.43268],[24.06566,-12.42436],[24.07198,-12.4081],[24.06945,-12.39704],[24.07728,-12.38082],[24.07466,-12.37639],[24.07793,-12.36227],[24.07566,-12.35822],[24.06384,-12.3485],[24.06069,-12.34209],[24.04301,-12.33396],[24.06646,-12.31088],[24.05763,-12.28743],[24.06286,-12.27722],[24.05988,-12.26483],[24.05053,-12.25571],[24.04065,-12.23602],[24.02903,-12.22987],[24.02647,-12.223],[24.01304,-12.22207],[23.99997,-12.20808],[23.99706,-12.18517],[23.99117,-12.17608],[23.98236,-12.17139],[23.98039,-12.13644],[23.98448,-12.00126],[23.99802,-11.85596],[24.00254,-11.84782],[24.01772,-11.84229],[24.02296,-11.83047],[24.01217,-11.81075],[24.01292,-11.80264],[24.0084,-11.78993],[24.01312,-11.78935],[24.01307,-11.78664],[24.00219,-11.77503],[24.00304,-11.7625],[23.99281,-11.74307],[23.99227,-11.71512],[23.98499,-11.70665],[23.98544,-11.69957],[23.97345,-11.68936],[23.97251,-11.68388],[23.97548,-11.68101],[23.9635,-11.66503],[23.96233,-11.65731],[23.96513,-11.65352],[23.9759,-11.65234],[23.97874,-11.64298],[23.98147,-11.64233],[23.98217,-11.62994],[23.98624,-11.62366],[23.98403,-11.62174],[23.98855,-11.61859],[23.99079,-11.61104],[24.00015,-11.60438],[24.00194,-11.58888],[24.01222,-11.58193],[24.01305,-11.56817],[24.02328,-11.5549],[24.03024,-11.535],[24.03773,-11.53246],[24.03926,-11.52394],[24.03378,-11.51864],[24.03263,-11.50505],[24.0286,-11.50325],[24.02807,-11.49546],[24.02151,-11.48326],[24.02512,-11.47962],[24.02093,-11.47587],[24.02588,-11.46568],[24.02577,-11.45938],[24.02148,-11.45336],[24.02439,-11.4457],[24.03416,-11.43907],[24.04515,-11.42343],[24.06247,-11.422],[24.08789,-11.4045],[24.05624,-11.30831],[24.03133,-11.27474],[24.03442,-11.17195],[24.03739,-11.16782],[24.03508,-11.16279],[24.03621,-11.14242],[24.03108,-11.13441],[24.02038,-11.13336],[24.01741,-11.12949],[24.00739,-11.13052],[24.00212,-11.12001],[24.00637,-11.10943],[24.01421,-11.10754],[24.02173,-11.09812],[24.01412,-11.08194],[24.01052,-11.01522],[24.01755,-11.00339],[24.02168,-11.00212],[24.02363,-10.98508],[24.02271,-10.96768],[24.01837,-10.96685],[24.01603,-10.96139],[24.02136,-10.94874],[24.01822,-10.94111],[24.00005,-10.92766],[23.99271,-10.91614],[23.98053,-10.91118],[23.99987,-10.88996],[24.01684,-10.89538],[24.0299,-10.88816],[24.06383,-10.88816],[24.07733,-10.89664],[24.08742,-10.89901],[24.09788,-10.90736],[24.11459,-10.90509],[24.13229,-10.92518],[24.12005,-10.9463],[24.12021,-10.9515],[24.13686,-10.96578],[24.13659,-10.97577],[24.14292,-10.98292],[24.13585,-10.99583],[24.14337,-11.00541],[24.14422,-11.03121],[24.15031,-11.04182],[24.16306,-11.04336],[24.1678,-11.03187],[24.17981,-11.02287],[24.18973,-11.02461],[24.20206,-11.0318],[24.21293,-11.03149],[24.21426,-11.03447],[24.22455,-11.03712],[24.23257,-11.03626],[24.24446,-11.05058],[24.26411,-11.04305],[24.2825,-11.04245],[24.28898,-11.04522],[24.30402,-11.04156],[24.30907,-11.04754],[24.32849,-11.05053],[24.34822,-11.07149],[24.37883,-11.08482],[24.37992,-11.09371],[24.39093,-11.10094],[24.39235,-11.10616],[24.38697,-11.1142],[24.39247,-11.12137],[24.38905,-11.12921],[24.38734,-11.15933],[24.38001,-11.16497],[24.37709,-11.17723],[24.38282,-11.18497],[24.40184,-11.19887],[24.40062,-11.21116],[24.39557,-11.22106],[24.39682,-11.23008],[24.40323,-11.23619],[24.40972,-11.2373],[24.41011,-11.2438],[24.3978,-11.25118],[24.4,-11.26569],[24.39338,-11.27032],[24.39492,-11.27721],[24.38587,-11.28547],[24.38477,-11.30541],[24.3748,-11.31246],[24.3617,-11.33161],[24.36422,-11.33455],[24.35988,-11.34224],[24.35963,-11.35303],[24.34331,-11.35577],[24.34582,-11.36274],[24.34057,-11.36713],[24.32299,-11.37221],[24.30482,-11.37171],[24.28736,-11.37752],[24.27984,-11.38855],[24.29065,-11.3977],[24.30679,-11.40246],[24.30971,-11.40823],[24.3256,-11.41118],[24.34875,-11.41352],[24.35463,-11.40978],[24.35626,-11.40268],[24.36379,-11.39989],[24.37424,-11.40433],[24.38435,-11.41224],[24.39378,-11.41509],[24.39969,-11.42249],[24.41816,-11.42568],[24.42262,-11.42995],[24.42362,-11.44026],[24.43601,-11.44142],[24.43446,-11.44575],[24.44037,-11.45659],[24.43788,-11.45802],[24.4384,-11.46564],[24.44174,-11.46656],[24.45706,-11.46142],[24.45758,-11.46444],[24.46487,-11.46573],[24.48008,-11.45948],[24.49544,-11.46602],[24.50998,-11.46641],[24.51441,-11.46217],[24.52271,-11.46492],[24.53066,-11.45948],[24.52964,-11.45518],[24.54566,-11.44727],[24.54678,-11.44385],[24.58136,-11.45409],[24.58834,-11.45039],[24.59167,-11.4419],[24.58948,-11.42856],[24.59138,-11.4199],[24.60689,-11.41174],[24.64208,-11.4005],[24.65954,-11.3674],[24.66412,-11.36587],[24.67248,-11.35247],[24.6926,-11.34283],[24.69477,-11.33181],[24.71288,-11.3288],[24.73906,-11.33076],[24.73927,-11.32377],[24.73366,-11.32006],[24.73192,-11.31375],[24.73756,-11.30813],[24.74668,-11.30767],[24.75266,-11.30224],[24.7599,-11.30478],[24.76519,-11.30053],[24.7723,-11.30368],[24.78408,-11.30133],[24.79984,-11.30843],[24.81787,-11.29801],[24.83119,-11.29707],[24.8397,-11.30089],[24.85321,-11.29768],[24.85751,-11.29258],[24.86556,-11.29166],[24.87054,-11.28725],[24.86718,-11.27011],[24.87299,-11.26559],[24.89212,-11.27028],[24.89414,-11.27424],[24.90736,-11.27491],[24.92822,-11.26019],[24.94499,-11.25874],[24.94841,-11.26182],[24.96867,-11.2624],[24.97811,-11.25232],[25.00215,-11.25293],[25.02761,-11.24504],[25.03365,-11.2549],[25.05347,-11.25028],[25.05993,-11.25892],[25.06528,-11.25978],[25.09233,-11.25203],[25.11896,-11.25443],[25.12385,-11.24697],[25.14369,-11.2425],[25.14569,-11.23733],[25.15776,-11.24061],[25.16086,-11.23761],[25.17867,-11.23779],[25.19409,-11.23362],[25.20338,-11.23552],[25.21797,-11.22851],[25.24328,-11.22581],[25.25553,-11.20931],[25.2695,-11.2085],[25.27432,-11.20251],[25.29467,-11.19865],[25.30264,-11.1919],[25.3188,-11.18865],[25.32078,-11.19367],[25.34109,-11.19858],[25.35288,-11.19437],[25.3543,-11.19922],[25.34986,-11.2027],[25.34837,-11.21015],[25.34046,-11.21674],[25.34202,-11.22132],[25.33454,-11.22824],[25.33682,-11.2465],[25.31704,-11.25847],[25.31964,-11.2645],[25.33638,-11.27434],[25.33594,-11.27823],[25.32591,-11.28604],[25.32672,-11.28905],[25.32305,-11.29208],[25.29222,-11.30208],[25.29374,-11.30701],[25.29821,-11.3081],[25.30102,-11.32031],[25.30858,-11.32047],[25.31409,-11.32506],[25.30986,-11.33444],[25.31303,-11.33777],[25.31301,-11.3477],[25.30459,-11.35578],[25.29823,-11.35711],[25.28665,-11.35302],[25.28279,-11.36308],[25.28827,-11.37926],[25.28116,-11.3987],[25.29826,-11.40503],[25.30141,-11.40954],[25.29593,-11.42585],[25.30652,-11.43612],[25.30601,-11.45724],[25.30882,-11.46081],[25.30444,-11.46959],[25.30509,-11.47521],[25.3099,-11.47875],[25.30816,-11.4843],[25.31198,-11.49232],[25.32869,-11.4959],[25.32961,-11.49914],[25.32444,-11.50093],[25.31703,-11.51377],[25.31067,-11.51575],[25.30696,-11.51113],[25.30262,-11.51082],[25.29373,-11.5199],[25.29892,-11.52596],[25.30356,-11.52475],[25.31166,-11.5335],[25.31249,-11.53913],[25.30692,-11.54278],[25.30999,-11.55313],[25.30463,-11.56187],[25.32533,-11.57385],[25.33093,-11.58154],[25.33218,-11.58997],[25.32922,-11.59779],[25.33767,-11.61892],[25.33434,-11.62181],[25.33764,-11.63039],[25.37074,-11.65002],[25.396,-11.65269],[25.40871,-11.66604],[25.43394,-11.68132],[25.44058,-11.68206],[25.45072,-11.67521],[25.45952,-11.6755],[25.47094,-11.68049],[25.47528,-11.68763],[25.4788,-11.6872],[25.4916,-11.703],[25.49712,-11.7199],[25.49455,-11.72942],[25.49936,-11.75364],[25.48683,-11.77056],[25.48968,-11.77769],[25.50587,-11.79079],[25.51453,-11.78102],[25.53108,-11.78575],[25.54658,-11.77338],[25.55195,-11.76424],[25.56476,-11.76626],[25.58409,-11.75757],[25.58677,-11.75411],[25.5846,-11.74483],[25.59367,-11.73437],[25.60414,-11.7364],[25.61982,-11.73261],[25.6379,-11.73587],[25.65195,-11.73094],[25.6558,-11.73346],[25.66014,-11.74789],[25.66412,-11.75158],[25.66715,-11.77076],[25.6975,-11.79718],[25.70448,-11.81011],[25.71617,-11.81707],[25.74557,-11.81428],[25.76649,-11.82613],[25.77599,-11.82741],[25.79325,-11.8221],[25.82501,-11.83232],[25.84435,-11.82033],[25.84872,-11.81171],[25.86664,-11.80628],[25.87193,-11.8092],[25.88107,-11.80841],[25.88622,-11.8111],[25.89148,-11.82895],[25.88754,-11.84885],[25.90191,-11.85405],[25.90237,-11.86321],[25.91348,-11.87816],[25.93157,-11.888],[25.94312,-11.88205],[25.95152,-11.88454],[25.95306,-11.87896],[25.95818,-11.87754],[25.97109,-11.88565],[25.98065,-11.89789],[25.99008,-11.8999],[25.99443,-11.91893],[25.98877,-11.92527],[25.98114,-11.92677],[25.98058,-11.94774],[26.01652,-11.93815],[26.02435,-11.94083],[26.04241,-11.93992],[26.04824,-11.93446],[26.06619,-11.93403],[26.07374,-11.9383],[26.09623,-11.93508],[26.10157,-11.93907],[26.12731,-11.93996],[26.16458,-11.93438],[26.16861,-11.92849],[26.18645,-11.93681],[26.19592,-11.92891],[26.20339,-11.92787],[26.20475,-11.92081],[26.21074,-11.92118],[26.21978,-11.92842],[26.23355,-11.93109],[26.23979,-11.92673],[26.24375,-11.936],[26.25088,-11.94251],[26.26658,-11.93954],[26.29219,-11.94144],[26.30208,-11.94676],[26.30431,-11.96111],[26.31292,-11.96357],[26.33349,-11.95755],[26.34482,-11.94927],[26.35734,-11.94652],[26.38827,-11.92974],[26.40435,-11.92941],[26.40755,-11.92742],[26.40937,-11.91872],[26.42016,-11.9202],[26.42218,-11.91213],[26.42999,-11.91049],[26.43916,-11.91559],[26.46109,-11.91506],[26.47662,-11.91823],[26.48369,-11.92456],[26.49889,-11.95081],[26.50961,-11.9565],[26.52225,-11.95514],[26.52471,-11.95843],[26.53962,-11.96207],[26.54234,-11.97019],[26.54995,-11.97778],[26.55883,-11.9774],[26.56476,-11.98358],[26.57246,-11.98591],[26.5792,-11.98371],[26.5912,-11.9672],[26.6002,-11.97366],[26.60895,-11.97109],[26.62443,-11.98562],[26.63608,-11.98915],[26.64516,-11.99139],[26.66659,-11.98881],[26.67944,-11.99323],[26.69081,-11.99313],[26.70815,-12.00636],[26.71878,-12.00226],[26.72514,-11.9894],[26.73348,-11.98455],[26.73949,-11.97488],[26.74911,-11.97454],[26.75534,-11.9637],[26.77468,-11.95545],[26.80069,-11.97658],[26.81698,-11.98173],[26.81946,-11.98696],[26.84877,-11.98653],[26.85789,-11.97865],[26.87056,-11.98093],[26.87625,-11.98512],[26.89053,-11.97728],[26.89765,-11.95813],[26.90304,-11.95852],[26.91477,-11.95181],[26.91706,-11.94824],[26.91587,-11.93761],[26.93846,-11.93997],[26.94319,-11.92736],[26.94959,-11.92703],[26.96081,-11.91613],[26.9683,-11.88875],[26.96675,-11.8817],[26.97343,-11.87505],[26.97942,-11.87453],[26.98581,-11.85843],[26.99274,-11.85278],[27.00064,-11.85128],[27.00691,-11.84244],[26.99529,-11.82538],[26.99847,-11.81926],[27.00845,-11.81543],[27.00188,-11.80327],[27.00505,-11.79139],[27.00286,-11.77985],[27.00696,-11.76575],[27.00391,-11.74904],[27.00628,-11.74511],[27.0187,-11.74762],[27.02003,-11.7414],[27.02416,-11.74111],[27.02553,-11.73675],[27.03146,-11.73716],[27.03124,-11.72643],[27.04753,-11.70742],[27.03991,-11.68691],[27.04201,-11.67789],[27.038,-11.67148],[27.03027,-11.66971],[27.02753,-11.65416],[27.02207,-11.64679],[27.03122,-11.63564],[27.01988,-11.62659],[27.01609,-11.61816],[27.01766,-11.61503],[27.02966,-11.60519],[27.03745,-11.60316],[27.03929,-11.59714],[27.05356,-11.5928],[27.07936,-11.60722],[27.09013,-11.60522],[27.10124,-11.59492],[27.11518,-11.5932],[27.12007,-11.58903],[27.14273,-11.59924],[27.16053,-11.60077],[27.17567,-11.58557],[27.18571,-11.58268],[27.19084,-11.58436],[27.19628,-11.5803],[27.20522,-11.56387],[27.21706,-11.61043],[27.22104,-11.61636],[27.22037,-11.62839],[27.22659,-11.63791],[27.22686,-11.65917],[27.23554,-11.68441],[27.22996,-11.68728],[27.22551,-11.69579],[27.2321,-11.71758],[27.22337,-11.73009],[27.2231,-11.74032],[27.21948,-11.74532],[27.2217,-11.75382],[27.22918,-11.76326],[27.23146,-11.77678],[27.22892,-11.78355],[27.25117,-11.79984],[27.25883,-11.80203],[27.26325,-11.79517],[27.287,-11.80292],[27.32632,-11.82983],[27.33888,-11.83064],[27.33808,-11.84154],[27.37527,-11.85935],[27.3779,-11.8687],[27.39595,-11.8731],[27.39916,-11.87752],[27.39801,-11.88758],[27.42181,-11.89537],[27.43581,-11.9109],[27.46272,-11.92878],[27.47298,-11.94269],[27.47633,-11.95459],[27.46706,-11.97742],[27.46594,-11.98591],[27.46914,-11.98947],[27.46333,-11.99851],[27.4627,-12.00654],[27.46371,-12.02698],[27.46752,-12.03282],[27.46656,-12.0439],[27.47009,-12.04607],[27.47007,-12.05288],[27.47501,-12.05559],[27.48775,-12.05069],[27.49778,-12.05931],[27.49596,-12.07249],[27.50321,-12.07674],[27.5125,-12.09258],[27.50939,-12.10021],[27.51069,-12.12167],[27.51536,-12.13907],[27.53362,-12.17728],[27.54563,-12.18152],[27.55981,-12.19971],[27.56939,-12.20691],[27.58179,-12.20952],[27.59288,-12.20659],[27.59915,-12.21584],[27.61641,-12.22178],[27.61837,-12.2338],[27.61499,-12.2404],[27.63002,-12.25747],[27.6222,-12.26653],[27.62258,-12.27047],[27.63615,-12.27263],[27.64966,-12.28586],[27.65817,-12.28663],[27.662,-12.28184],[27.66876,-12.28008],[27.68289,-12.28605],[27.70014,-12.27885],[27.72181,-12.28653],[27.7291,-12.27977],[27.76302,-12.29298],[27.76896,-12.27419],[27.77332,-12.27063],[27.78123,-12.26637],[27.7983,-12.26507],[27.81439,-12.25198],[27.81298,-12.23607],[27.81821,-12.23134],[27.81103,-12.22323],[27.81256,-12.22167],[27.84153,-12.23609],[27.85477,-12.23782],[27.87371,-12.23512],[27.92286,-12.23999],[27.93194,-12.24291],[27.92785,-12.25169],[27.93219,-12.25747],[27.93034,-12.27297],[27.93754,-12.27969],[27.94098,-12.27877],[27.94066,-12.2849],[27.9463,-12.29533],[27.95179,-12.29718],[27.96102,-12.31455],[27.94644,-12.3389],[27.94805,-12.35238],[27.9563,-12.35935],[27.96612,-12.36108],[27.98951,-12.33871],[27.9976,-12.3387],[28.00912,-12.34892],[28.01935,-12.34481],[28.03829,-12.35036],[28.04327,-12.3553],[28.05659,-12.34487],[28.07004,-12.35049],[28.07771,-12.34866],[28.08303,-12.3517],[28.09506,-12.37784],[28.09842,-12.39507],[28.10722,-12.4035],[28.12266,-12.43899],[28.13962,-12.42734],[28.14832,-12.42967],[28.15085,-12.42624],[28.14168,-12.41482],[28.14633,-12.3977],[28.16356,-12.38976],[28.17149,-12.37772],[28.19167,-12.38016],[28.1837,-12.39381],[28.18917,-12.40124],[28.19473,-12.40441],[28.21927,-12.40372],[28.22479,-12.41936],[28.22947,-12.42219],[28.24011,-12.42042],[28.2559,-12.40803],[28.26611,-12.41191],[28.28044,-12.42693],[28.29967,-12.41694],[28.31403,-12.4215],[28.3236,-12.42008],[28.34127,-12.43369],[28.3437,-12.44672],[28.34919,-12.45367],[28.36046,-12.44991],[28.36837,-12.45934],[28.37416,-12.4603],[28.37507,-12.46674],[28.39577,-12.49047],[28.40022,-12.50105],[28.41177,-12.50008],[28.4478,-12.51601],[28.44291,-12.52086],[28.44733,-12.53486],[28.44069,-12.54745],[28.43654,-12.54968],[28.43752,-12.55413],[28.4473,-12.5644],[28.46162,-12.56777],[28.47466,-12.57804],[28.48042,-12.5889],[28.49228,-12.5883],[28.49797,-12.60012],[28.50681,-12.60184],[28.51281,-12.6103],[28.52194,-12.61213],[28.52425,-12.61513],[28.5207,-12.62277],[28.53463,-12.63709],[28.5199,-12.65344],[28.51444,-12.68501],[28.50885,-12.68932],[28.48937,-12.68406],[28.48315,-12.68851],[28.467,-12.69013],[28.46134,-12.69811],[28.46223,-12.70741],[28.45238,-12.71412],[28.45127,-12.71884],[28.45729,-12.73213],[28.48052,-12.74955],[28.49824,-12.77879],[28.50654,-12.78331],[28.50961,-12.77889],[28.5181,-12.79524],[28.54267,-12.82398],[28.54212,-12.84603],[28.53598,-12.85256],[28.54245,-12.8658],[28.55924,-12.88274],[28.56312,-12.89588],[28.57615,-12.89914],[28.58339,-12.89629],[28.60957,-12.83321],[28.62276,-12.83035],[28.63447,-12.81727],[28.65485,-12.81482],[28.66981,-12.83455],[28.67364,-12.8461],[28.69316,-12.85381],[28.69916,-12.86648],[28.71245,-12.86583],[28.7188,-12.87955],[28.72895,-12.88125],[28.72839,-12.89375],[28.74564,-12.9253],[28.7529,-12.92859],[28.75434,-12.9418],[28.78072,-12.9374],[28.78325,-12.94003],[28.78559,-12.95547],[28.7928,-12.96189],[28.79923,-12.98061],[28.80771,-12.98807],[28.81645,-12.9855],[28.82566,-13.00494],[28.82539,-13.02056],[28.82866,-13.02437],[28.82939,-13.03607],[28.8266,-13.04022],[28.82841,-13.0626],[28.83542,-13.06331],[28.84117,-13.07022],[28.83461,-13.07661],[28.82328,-13.07979],[28.82453,-13.08773],[28.84022,-13.09663],[28.84761,-13.11106],[28.83807,-13.12862],[28.8414,-13.13158],[28.83908,-13.14609],[28.84411,-13.14579],[28.84759,-13.15563],[28.86725,-13.15031],[28.86697,-13.15768],[28.87152,-13.16286],[28.8837,-13.16247],[28.88885,-13.15451],[28.89374,-13.1545],[28.90403,-13.16448],[28.90869,-13.17722],[28.91668,-13.18603],[28.91804,-13.20348],[28.92317,-13.21493],[28.91709,-13.2263],[28.9326,-13.25398],[28.93996,-13.27544],[28.94871,-13.32313],[28.96057,-13.33869],[28.95836,-13.3612],[28.96126,-13.37301],[28.96315,-13.37703],[28.97583,-13.37916],[28.98939,-13.36902],[28.99752,-13.36897],[28.99648,-13.37989],[28.99187,-13.38595],[28.98322,-13.38937],[28.98895,-13.39813],[28.98621,-13.4034],[29.00616,-13.42341],[29.07052,-13.38866],[29.08891,-13.37963],[29.11066,-13.37482],[29.11987,-13.36753],[29.1238,-13.36986],[29.12235,-13.37507],[29.13425,-13.38114],[29.14202,-13.37871],[29.15744,-13.40055],[29.16583,-13.4035],[29.17547,-13.42487],[29.17243,-13.43364],[29.17865,-13.44878],[29.21267,-13.41266],[29.23531,-13.40676],[29.24296,-13.39731],[29.25277,-13.39499],[29.26246,-13.38496],[29.27877,-13.37527],[29.29733,-13.37489],[29.29648,-13.37002],[29.31082,-13.35505],[29.3162,-13.33395],[29.34738,-13.35313],[29.35353,-13.35245],[29.36132,-13.32575],[29.36978,-13.32406],[29.38913,-13.32769],[29.40968,-13.31552],[29.44166,-13.3131],[29.45081,-13.30114],[29.46468,-13.29651],[29.47582,-13.28222],[29.48831,-13.27415],[29.4991,-13.26127],[29.50459,-13.24817],[29.50933,-13.24963],[29.518,-13.243],[29.53031,-13.22823],[29.54329,-13.22841],[29.54707,-13.22572],[29.55521,-13.22788],[29.57228,-13.2087],[29.58494,-13.20363],[29.60201,-13.22688],[29.64058,-13.24354],[29.65151,-13.23374],[29.67389,-13.22519],[29.6689,-13.2424],[29.66981,-13.25284],[29.68277,-13.25007],[29.68019,-13.25932],[29.6464,-13.29427],[29.65657,-13.30923],[29.65708,-13.31598],[29.6522,-13.32606],[29.65199,-13.34736],[29.63058,-13.35871],[29.61063,-13.35709],[29.60484,-13.36345],[29.60722,-13.36908],[29.62064,-13.37418],[29.62165,-13.37768],[29.6128,-13.38725],[29.61184,-13.40239],[29.63146,-13.41614],[29.6387,-13.43286],[29.65695,-13.43767],[29.67242,-13.42382],[29.67273,-13.42671],[29.68096,-13.42902],[29.68539,-13.43907],[29.69487,-13.44274],[29.69729,-13.44975],[29.71725,-13.45341],[29.72374,-13.45845],[29.74388,-13.4531],[29.76453,-13.43569],[29.78076,-13.43258],[29.79571,-13.44424],[29.81476,-13.4445],[29.81476,-12.99063]]]]}}]}