{"type":"FeatureCollection","features":[{"type":"Feature","properties":{"ISO_A3":"ZWE","WB_A3":"ZWE","WB_NAME":"Zimbabwe","WB_REGION":"AFE,SSF"},"geometry":{"type":"MultiPolygon","coordinates":[[[[32.49574,-21.33896],[32.48987,-21.33983],[32.4725,-21.32933],[32.46615,-21.31492],[32.46114,-21.31222],[32.45282,-21.31059],[32.42995,-21.31904],[32.4146,-21.31747],[31.38606,-22.37165],[31.37617,-22.38148],[31.30788,-22.423],[31.28461,-22.40199],[31.27914,-22.38207],[31.27015,-22.36757],[31.25227,-22.36163],[31.23873,-22.36436],[31.22849,-22.37163],[31.21234,-22.37079],[31.19999,-22.35997],[31.18708,-22.3367],[31.17779,-22.33028],[31.14546,-22.33056],[31.09744,-22.34797],[31.08827,-22.34845],[31.06585,-22.34385],[30.99797,-22.31544],[30.99401,-22.31872],[30.99323,-22.32474],[30.98508,-22.32782],[30.97319,-22.32464],[30.96662,-22.31423],[30.94705,-22.31527],[30.93104,-22.30149],[30.90081,-22.29614],[30.88071,-22.3043],[30.8684,-22.2982],[30.83955,-22.29205],[30.77842,-22.30416],[30.72964,-22.30974],[30.70864,-22.31714],[30.66526,-22.31027],[30.65296,-22.31571],[30.63601,-22.33488],[30.62995,-22.33607],[30.62026,-22.3339],[30.60595,-22.32272],[30.59032,-22.3197],[30.56856,-22.32089],[30.55109,-22.33168],[30.48904,-22.31646],[30.47615,-22.31916],[30.44469,-22.3342],[30.38443,-22.35013],[30.36201,-22.34793],[30.3386,-22.35059],[30.31787,-22.3472],[30.29019,-22.35593],[30.27279,-22.34514],[30.25681,-22.31859],[30.24338,-22.31138],[30.23143,-22.29648],[30.15752,-22.30014],[30.13742,-22.30988],[30.12549,-22.31132],[30.10264,-22.28827],[30.07278,-22.27246],[30.06075,-22.25934],[30.05442,-22.25609],[30.02591,-22.25511],[30.02102,-22.24854],[30.01809,-22.22986],[29.96962,-22.22254],[29.9633,-22.21463],[29.92436,-22.18971],[29.89039,-22.19518],[29.88246,-22.19383],[29.85893,-22.1747],[29.82895,-22.17423],[29.80697,-22.16591],[29.77362,-22.14163],[29.71656,-22.14307],[29.69694,-22.13626],[29.67237,-22.13854],[29.66424,-22.12848],[29.65631,-22.12477],[29.63079,-22.13348],[29.62398,-22.13907],[29.6151,-22.15406],[29.60937,-22.15669],[29.602,-22.15464],[29.58542,-22.14138],[29.57901,-22.14023],[29.55825,-22.15002],[29.53813,-22.1526],[29.53413,-22.15808],[29.53607,-22.1669],[29.53064,-22.17639],[29.51653,-22.17744],[29.48371,-22.16713],[29.46076,-22.16634],[29.41836,-22.17452],[29.4059,-22.18298],[29.3753,-22.19547],[29.35856,-22.1898],[29.32843,-22.15417],[29.28772,-22.12151],[29.27058,-22.07999],[29.26487,-22.07231],[29.24718,-22.05991],[29.21735,-22.0709],[29.19468,-22.07514],[29.17159,-22.07621],[29.14102,-22.07266],[29.11892,-22.06635],[29.09146,-22.05334],[29.05674,-22.02506],[29.03922,-22.00144],[29.02703,-21.97507],[29.02063,-21.94699],[29.02115,-21.91113],[29.02834,-21.88321],[29.04127,-21.85715],[29.05943,-21.83398],[29.07693,-21.8184],[29.06403,-21.80325],[29.00829,-21.78951],[28.99955,-21.77113],[28.98437,-21.76896],[28.9615,-21.77576],[28.89394,-21.76058],[28.87993,-21.76005],[28.86814,-21.75515],[28.86199,-21.75614],[28.83674,-21.73741],[28.82256,-21.733],[28.79817,-21.73318],[28.77786,-21.7163],[28.74817,-21.70219],[28.6672,-21.67583],[28.64914,-21.65358],[28.59878,-21.64452],[28.57995,-21.6301],[28.57007,-21.63152],[28.55467,-21.64429],[28.54109,-21.64191],[28.51645,-21.66469],[28.50039,-21.66854],[28.45981,-21.65551],[28.4457,-21.64126],[28.41301,-21.63302],[28.36674,-21.60303],[28.34897,-21.60778],[28.33113,-21.59781],[28.31397,-21.59702],[28.2928,-21.58929],[28.28729,-21.5925],[28.25428,-21.59439],[28.2001,-21.60338],[28.16845,-21.59481],[28.14642,-21.59393],[28.10039,-21.57878],[28.08166,-21.5843],[28.06937,-21.57894],[28.05296,-21.58024],[28.02162,-21.57594],[28.00805,-21.55906],[28.00468,-21.54218],[27.99555,-21.53262],[27.99435,-21.52521],[28.00165,-21.52082],[28.00208,-21.51627],[27.98421,-21.51587],[27.97671,-21.52394],[27.97113,-21.51888],[27.97503,-21.50554],[27.97304,-21.49978],[27.97485,-21.49432],[27.98172,-21.49089],[27.98278,-21.48363],[27.96109,-21.47782],[27.95722,-21.47401],[27.96263,-21.46234],[27.97575,-21.46179],[27.97829,-21.45808],[27.96865,-21.449],[27.966,-21.4398],[27.95121,-21.43041],[27.95768,-21.41348],[27.94409,-21.3874],[27.93086,-21.37744],[27.92055,-21.36228],[27.91802,-21.34242],[27.92247,-21.33535],[27.90493,-21.30193],[27.88534,-21.29167],[27.88481,-21.28107],[27.86878,-21.27037],[27.85724,-21.24548],[27.83494,-21.22194],[27.82758,-21.20661],[27.81351,-21.19897],[27.81691,-21.19288],[27.80532,-21.17551],[27.78899,-21.17793],[27.78333,-21.17216],[27.77962,-21.16005],[27.74891,-21.15182],[27.74708,-21.14331],[27.72833,-21.1279],[27.72415,-21.11624],[27.71587,-21.11215],[27.71371,-21.1049],[27.70306,-21.10193],[27.69848,-21.09655],[27.6984,-21.0896],[27.69328,-21.08772],[27.69518,-21.0735],[27.68951,-21.0678],[27.68518,-21.05103],[27.69825,-21.04707],[27.70437,-21.03848],[27.70143,-21.02083],[27.698,-21.01632],[27.7003,-21.01277],[27.69571,-21.00493],[27.7069,-21.00065],[27.70108,-20.99074],[27.70053,-20.98274],[27.70963,-20.96678],[27.70957,-20.95635],[27.69761,-20.94723],[27.68952,-20.93305],[27.69513,-20.9258],[27.69694,-20.91105],[27.70168,-20.90554],[27.7002,-20.89452],[27.69336,-20.88369],[27.69338,-20.86614],[27.71767,-20.83803],[27.71265,-20.83055],[27.71978,-20.80707],[27.71799,-20.79699],[27.73059,-20.79455],[27.72581,-20.77813],[27.7328,-20.75918],[27.72986,-20.74751],[27.7333,-20.74074],[27.72851,-20.73191],[27.72718,-20.72027],[27.73318,-20.71515],[27.7291,-20.71421],[27.73298,-20.70391],[27.72365,-20.69578],[27.72536,-20.69186],[27.7161,-20.6835],[27.71593,-20.67934],[27.71271,-20.67976],[27.70321,-20.6573],[27.70632,-20.64795],[27.70382,-20.63905],[27.70859,-20.6261],[27.70516,-20.624],[27.70326,-20.60317],[27.71362,-20.59213],[27.71381,-20.58669],[27.71977,-20.58472],[27.7218,-20.5779],[27.71865,-20.57219],[27.72474,-20.56662],[27.72913,-20.55572],[27.72658,-20.54802],[27.73021,-20.54198],[27.72659,-20.53406],[27.73039,-20.52256],[27.72343,-20.51268],[27.69484,-20.48998],[27.6831,-20.4867],[27.67529,-20.49366],[27.64668,-20.49866],[27.62186,-20.47923],[27.60321,-20.48008],[27.57676,-20.49421],[27.54489,-20.48262],[27.4714,-20.46749],[27.4337,-20.48204],[27.3787,-20.47767],[27.36284,-20.46858],[27.28866,-20.49906],[27.28544,-20.48527],[27.29846,-20.42577],[27.29613,-20.35889],[27.30447,-20.33086],[27.29885,-20.30417],[27.30021,-20.29627],[27.2895,-20.2797],[27.29199,-20.26734],[27.28468,-20.23365],[27.27819,-20.22319],[27.27324,-20.22204],[27.26619,-20.2141],[27.26411,-20.19442],[27.25055,-20.16788],[27.24642,-20.14358],[27.23365,-20.12023],[27.2242,-20.11149],[27.2149,-20.09049],[27.206,-20.08187],[27.18301,-20.07632],[27.15502,-20.08083],[27.14353,-20.07967],[27.11274,-20.06581],[27.0947,-20.05202],[27.08467,-20.03265],[27.04033,-20.00883],[27.00578,-20.00808],[26.98027,-20.0149],[26.93375,-19.99913],[26.90087,-19.97988],[26.88201,-19.97573],[26.85139,-19.96177],[26.82868,-19.96227],[26.79505,-19.94721],[26.75375,-19.93666],[26.72649,-19.93989],[26.72003,-19.93239],[26.70207,-19.89473],[26.70276,-19.88771],[26.64289,-19.87282],[26.63206,-19.87562],[26.62201,-19.88296],[26.61884,-19.88122],[26.59966,-19.85082],[26.58331,-19.80407],[26.57364,-19.79183],[26.56167,-19.78471],[26.56209,-19.78174],[26.54566,-19.78435],[26.53599,-19.77787],[26.53326,-19.76995],[26.51171,-19.76751],[26.49414,-19.75791],[26.44793,-19.75197],[26.43335,-19.74513],[26.41339,-19.72217],[26.40595,-19.69522],[26.39421,-19.68255],[26.39156,-19.67104],[26.38774,-19.66924],[26.35342,-19.67586],[26.34038,-19.66704],[26.32795,-19.66405],[26.32862,-19.65123],[26.33765,-19.63526],[26.34787,-19.62147],[26.3584,-19.61476],[26.32363,-19.59226],[26.31208,-19.57588],[26.24607,-19.58482],[26.23696,-19.58185],[26.21574,-19.56312],[26.20355,-19.56155],[26.18464,-19.55029],[26.16999,-19.54602],[26.15926,-19.52148],[26.1582,-19.50765],[26.15338,-19.50151],[26.14173,-19.43818],[26.13088,-19.42858],[26.12608,-19.42793],[26.10847,-19.36177],[26.09773,-19.34746],[26.09098,-19.32448],[26.07411,-19.29217],[26.0722,-19.27207],[26.06126,-19.26204],[26.04348,-19.23657],[26.04179,-19.21061],[25.99203,-19.14746],[25.97462,-19.13125],[25.96453,-19.10792],[25.96146,-19.09034],[25.9654,-19.06668],[25.97472,-19.05284],[25.99677,-19.03152],[25.98477,-18.97333],[25.97469,-18.96093],[25.96742,-18.94095],[25.95125,-18.91279],[25.9395,-18.90126],[25.92366,-18.89916],[25.86882,-18.85904],[25.85354,-18.85406],[25.84989,-18.84924],[25.8251,-18.83748],[25.81937,-18.80854],[25.80585,-18.79008],[25.79576,-18.75425],[25.79015,-18.71991],[25.79163,-18.70106],[25.79255,-18.69405],[25.80338,-18.68557],[25.7901,-18.66313],[25.78841,-18.64285],[25.78239,-18.62479],[25.75892,-18.60578],[25.73514,-18.59549],[25.71655,-18.59175],[25.69305,-18.57399],[25.66967,-18.54168],[25.66342,-18.52589],[25.65582,-18.52021],[25.64782,-18.4967],[25.61042,-18.48369],[25.60355,-18.4778],[25.56995,-18.43025],[25.52244,-18.3832],[25.49107,-18.29856],[25.46539,-18.25953],[25.45753,-18.24308],[25.45444,-18.22539],[25.44802,-18.22068],[25.44098,-18.19927],[25.42479,-18.17467],[25.41563,-18.15321],[25.39338,-18.1216],[25.37083,-18.11793],[25.36559,-18.11182],[25.36382,-18.09874],[25.35521,-18.09085],[25.3189,-18.0781],[25.31291,-18.05952],[25.29768,-18.04273],[25.28648,-18.02264],[25.28081,-18.00619],[25.28184,-17.9907],[25.26524,-17.9486],[25.25144,-17.93918],[25.23745,-17.91297],[25.24315,-17.89716],[25.23881,-17.88948],[25.23975,-17.87199],[25.2464,-17.85094],[25.26466,-17.81662],[25.26281,-17.79129],[25.2771,-17.79982],[25.28694,-17.8158],[25.32103,-17.82904],[25.33306,-17.83765],[25.35144,-17.83858],[25.36701,-17.83408],[25.37375,-17.83614],[25.37861,-17.85265],[25.40154,-17.8516],[25.41567,-17.8464],[25.43415,-17.85286],[25.45603,-17.84313],[25.46437,-17.84937],[25.48685,-17.85096],[25.49502,-17.85784],[25.51434,-17.86528],[25.53152,-17.85789],[25.53902,-17.84613],[25.55222,-17.83792],[25.57754,-17.84062],[25.58469,-17.84569],[25.5934,-17.84051],[25.63261,-17.83869],[25.64782,-17.83243],[25.67553,-17.81033],[25.68587,-17.8087],[25.69524,-17.81115],[25.70234,-17.81715],[25.69757,-17.82902],[25.70428,-17.83822],[25.72794,-17.84048],[25.74452,-17.85148],[25.76711,-17.84399],[25.76947,-17.85198],[25.79627,-17.86004],[25.79294,-17.86633],[25.79592,-17.87956],[25.80547,-17.88444],[25.81714,-17.89684],[25.84558,-17.89992],[25.84782,-17.91041],[25.85737,-17.9139],[25.85909,-17.91797],[25.85328,-17.92459],[25.85843,-17.92521],[25.85835,-17.92797],[25.84866,-17.92931],[25.85865,-17.93134],[25.84651,-17.93722],[25.846,-17.94351],[25.86071,-17.94981],[25.85679,-17.96213],[25.85739,-17.96707],[25.86245,-17.96967],[25.85808,-17.97368],[25.85979,-17.97601],[25.87649,-17.97466],[25.8836,-17.9807],[25.8964,-17.97969],[25.90308,-17.98394],[25.91033,-17.98396],[25.91233,-17.99351],[25.9185,-17.99683],[25.9393,-17.99223],[25.94883,-17.99663],[25.96298,-17.99628],[25.96454,-18.0005],[25.97138,-18.00198],[25.98929,-17.99656],[25.98799,-17.98671],[26.00132,-17.977],[26.03554,-17.98],[26.04245,-17.9728],[26.05397,-17.98104],[26.09159,-17.98111],[26.09508,-17.96136],[26.10573,-17.94745],[26.09288,-17.94787],[26.08754,-17.93393],[26.09447,-17.93364],[26.10257,-17.92605],[26.10756,-17.92791],[26.12506,-17.91978],[26.13422,-17.92208],[26.14043,-17.91774],[26.154,-17.91922],[26.16461,-17.91029],[26.17886,-17.90645],[26.20819,-17.88782],[26.21986,-17.88443],[26.22595,-17.89005],[26.22451,-17.89732],[26.24595,-17.91745],[26.28791,-17.91933],[26.30813,-17.93648],[26.34497,-17.92956],[26.38468,-17.93781],[26.39959,-17.93594],[26.41084,-17.93819],[26.42884,-17.95233],[26.44718,-17.95438],[26.45702,-17.96495],[26.46842,-17.96497],[26.48441,-17.98235],[26.5107,-17.99047],[26.53331,-17.98654],[26.56252,-17.98798],[26.56917,-17.99395],[26.57428,-18.01727],[26.60257,-18.03455],[26.5987,-18.04966],[26.62936,-18.05744],[26.64795,-18.05448],[26.66505,-18.06355],[26.67521,-18.07457],[26.69323,-18.07653],[26.69703,-18.07305],[26.69599,-18.06495],[26.70844,-18.05333],[26.72319,-18.04561],[26.73404,-18.02932],[26.74908,-18.022],[26.77348,-18.01847],[26.7995,-18.02498],[26.80858,-18.01148],[26.82888,-18.0123],[26.82966,-18.00606],[26.82537,-17.99951],[26.83226,-17.99131],[26.86805,-17.99435],[26.87289,-17.98556],[26.87709,-17.98392],[26.89333,-17.98955],[26.93148,-17.97394],[26.958,-17.96954],[26.96509,-17.96518],[26.98555,-17.96954],[26.99935,-17.96005],[27.01834,-17.95446],[27.04153,-17.96247],[27.08165,-17.90157],[27.1519,-17.83607],[27.1432,-17.80764],[27.31578,-17.59328],[27.54341,-17.42038],[27.62079,-17.33536],[27.63019,-17.24497],[27.82943,-16.95939],[28.13597,-16.82333],[28.25441,-16.72158],[28.63695,-16.56492],[28.74111,-16.54481],[28.77091,-16.51413],[28.80013,-16.49992],[28.81571,-16.48522],[28.8224,-16.47114],[28.82181,-16.45847],[28.81682,-16.44909],[28.8179,-16.43723],[28.84019,-16.40838],[28.84516,-16.38088],[28.85107,-16.37376],[28.83829,-16.3509],[28.84252,-16.34219],[28.84329,-16.33065],[28.82268,-16.32217],[28.82054,-16.31146],[28.82056,-16.30534],[28.82795,-16.29811],[28.83266,-16.2859],[28.84109,-16.27729],[28.84666,-16.26225],[28.85516,-16.25439],[28.85805,-16.24714],[28.85608,-16.23881],[28.84154,-16.23394],[28.836,-16.21132],[28.84017,-16.19897],[28.83811,-16.1747],[28.8421,-16.15719],[28.855,-16.14111],[28.85832,-16.13091],[28.86648,-16.12442],[28.86949,-16.10446],[28.86084,-16.07353],[28.84997,-16.06365],[28.84716,-16.04609],[28.85325,-16.03711],[28.87916,-16.01888],[28.88583,-15.98503],[28.90919,-15.95646],[28.92256,-15.95474],[28.93164,-15.94384],[28.94266,-15.9405],[28.96504,-15.94303],[28.99082,-15.93963],[29.01331,-15.9466],[29.02948,-15.93222],[29.04667,-15.89644],[29.05899,-15.89085],[29.0731,-15.87718],[29.09537,-15.8714],[29.11399,-15.85238],[29.13078,-15.84346],[29.13607,-15.82841],[29.19066,-15.7884],[29.20426,-15.78462],[29.2119,-15.77132],[29.27332,-15.75428],[29.2898,-15.74399],[29.31513,-15.73719],[29.34074,-15.72007],[29.35092,-15.72042],[29.38033,-15.70665],[29.404,-15.70616],[29.42296,-15.69747],[29.43337,-15.68348],[29.44731,-15.68119],[29.48038,-15.69259],[29.48913,-15.69021],[29.53112,-15.6723],[29.54984,-15.65286],[29.57332,-15.6419],[29.5964,-15.65629],[29.63173,-15.66597],[29.66426,-15.65816],[29.70469,-15.63352],[29.71701,-15.63501],[29.72323,-15.63894],[29.75175,-15.635],[29.76502,-15.62732],[29.82395,-15.60977],[29.87636,-15.6142],[29.88488,-15.61589],[29.89742,-15.62417],[29.91527,-15.62237],[29.94472,-15.6292],[29.95949,-15.64143],[29.97731,-15.64348],[30.05427,-15.63401],[30.06814,-15.62776],[30.11092,-15.62866],[30.13014,-15.62262],[30.16185,-15.6187],[30.17942,-15.62746],[30.19001,-15.6501],[30.20444,-15.6582],[30.21342,-15.66854],[30.24359,-15.64798],[30.25738,-15.62898],[30.26529,-15.62931],[30.27205,-15.64253],[30.27988,-15.64687],[30.33304,-15.64879],[30.35505,-15.65582],[30.36774,-15.64937],[30.39297,-15.64368],[30.42184,-15.62117],[30.42182,-16.00628],[30.42458,-16.00952],[30.43153,-16.00553],[30.43761,-16.00671],[30.44095,-16],[30.90678,-15.99999],[30.91547,-15.9977],[30.92829,-16.00645],[30.94702,-16.01106],[30.95717,-16.02578],[30.95797,-16.03406],[30.95522,-16.03506],[30.96472,-16.04215],[30.96487,-16.04759],[30.97781,-16.05303],[30.98415,-16.06048],[30.98941,-16.06088],[31.00743,-16.05827],[31.01408,-16.05086],[31.01696,-16.05153],[31.02597,-16.03939],[31.02615,-16.02771],[31.02945,-16.02375],[31.03336,-16.02065],[31.04448,-16.02312],[31.05467,-16.01852],[31.06223,-16.00233],[31.06594,-16.0052],[31.06223,-16.01265],[31.06289,-16.01933],[31.06611,-16.02037],[31.07837,-16.01411],[31.08445,-16.01778],[31.08886,-16.00849],[31.09315,-16.01075],[31.0985,-16.0039],[31.10516,-16.00185],[31.10597,-15.99801],[31.14504,-15.98626],[31.14748,-15.99167],[31.15906,-15.9883],[31.18199,-15.98986],[31.18856,-16.00705],[31.1995,-16.00452],[31.20342,-16.00647],[31.20645,-16.00349],[31.22301,-16.01043],[31.235,-16.00254],[31.24579,-16.00627],[31.24841,-16.01087],[31.25485,-16.00744],[31.26344,-16.01272],[31.2713,-16.00652],[31.27901,-16.00511],[31.29018,-16.01828],[31.29511,-16.0204],[31.3063,-16.0171],[31.31935,-16.02339],[31.32391,-16.04019],[31.34546,-16.04903],[31.34443,-16.0564],[31.33646,-16.0607],[31.33803,-16.0688],[31.34377,-16.07379],[31.35187,-16.07288],[31.35372,-16.0787],[31.36292,-16.08281],[31.37081,-16.09417],[31.38065,-16.09867],[31.40354,-16.11798],[31.40417,-16.13724],[31.41119,-16.14329],[31.42366,-16.13605],[31.43316,-16.14108],[31.43604,-16.15355],[31.42532,-16.15587],[31.42569,-16.15968],[31.4457,-16.1564],[31.45313,-16.16047],[31.4579,-16.15755],[31.46777,-16.15972],[31.47379,-16.15685],[31.48128,-16.16073],[31.49045,-16.15609],[31.4943,-16.16139],[31.49363,-16.16695],[31.49968,-16.17095],[31.50711,-16.17059],[31.51443,-16.16492],[31.51911,-16.16604],[31.52026,-16.1712],[31.53191,-16.16926],[31.53479,-16.17417],[31.54121,-16.17417],[31.54786,-16.1785],[31.55492,-16.17325],[31.55725,-16.17403],[31.5575,-16.18207],[31.56355,-16.18598],[31.57788,-16.17804],[31.58267,-16.18203],[31.58717,-16.17941],[31.59306,-16.18326],[31.60164,-16.18251],[31.60814,-16.18814],[31.62914,-16.17981],[31.64264,-16.19572],[31.6641,-16.19039],[31.67733,-16.19755],[31.69239,-16.19731],[31.69795,-16.20204],[31.70195,-16.19924],[31.70535,-16.20204],[31.71943,-16.19991],[31.72065,-16.20702],[31.72648,-16.20761],[31.72717,-16.21126],[31.73378,-16.20776],[31.73841,-16.216],[31.73479,-16.21922],[31.73643,-16.2225],[31.74149,-16.22296],[31.7478,-16.22913],[31.75369,-16.22881],[31.75713,-16.23295],[31.76399,-16.22952],[31.76755,-16.2309],[31.77092,-16.24011],[31.77716,-16.23997],[31.78063,-16.25026],[31.78532,-16.24954],[31.80528,-16.27211],[31.81093,-16.27065],[31.81998,-16.28331],[31.81368,-16.28659],[31.81436,-16.28962],[31.82281,-16.28804],[31.83079,-16.3005],[31.82727,-16.30275],[31.82945,-16.30743],[31.83271,-16.30796],[31.836,-16.30244],[31.8409,-16.30738],[31.84528,-16.30439],[31.84938,-16.31425],[31.8534,-16.31125],[31.86508,-16.32062],[31.87867,-16.32479],[31.8779,-16.331],[31.89076,-16.32792],[31.89359,-16.33649],[31.89781,-16.33697],[31.90343,-16.34517],[31.90648,-16.35667],[31.90412,-16.36384],[31.9101,-16.36709],[31.91246,-16.37236],[31.90841,-16.37787],[31.91117,-16.38679],[31.90384,-16.39542],[31.9137,-16.40834],[32.03745,-16.4422],[32.27393,-16.43351],[32.40061,-16.46744],[32.57113,-16.53172],[32.71216,-16.59856],[32.70207,-16.67733],[32.70674,-16.68203],[32.75958,-16.70561],[32.79508,-16.70998],[32.80461,-16.70393],[32.81368,-16.70763],[32.81994,-16.70668],[32.84119,-16.69797],[32.853,-16.70553],[32.8706,-16.70878],[32.89053,-16.71909],[32.90543,-16.70726],[32.91688,-16.70297],[32.92424,-16.69521],[32.9397,-16.70119],[32.97046,-16.70338],[32.98012,-16.70702],[32.98669,-16.70524],[32.98999,-16.70006],[32.9632,-16.78238],[32.9116,-16.8975],[32.83303,-16.92285],[32.93818,-17.06867],[32.98973,-17.18495],[32.99773,-17.30633],[33.05258,-17.34523],[33.04969,-17.35016],[33.03128,-17.36205],[33.02775,-17.37278],[33.01608,-17.38747],[33.01629,-17.39428],[33.0045,-17.39874],[33.01089,-17.42021],[33.00782,-17.42176],[33.00984,-17.42847],[33.00679,-17.4348],[32.9976,-17.4446],[32.99977,-17.45418],[32.99401,-17.45209],[32.9775,-17.4758],[32.96533,-17.47997],[32.96338,-17.495],[32.96827,-17.52118],[32.98207,-17.54448],[32.98255,-17.55596],[32.99397,-17.56713],[33.00695,-17.56564],[33.02967,-17.57598],[33.03092,-17.58033],[33.04199,-17.58772],[33.04358,-17.59733],[33.0535,-17.60351],[33.04665,-17.60691],[33.04415,-17.62817],[33.04758,-17.63534],[33.03873,-17.63961],[33.03198,-17.64841],[33.03197,-17.65896],[33.02093,-17.66562],[33.02398,-17.67573],[33.01846,-17.67834],[33.0241,-17.68674],[33.01795,-17.68651],[33.01573,-17.68935],[33.01876,-17.70278],[33.01624,-17.71047],[33.02259,-17.71089],[33.02904,-17.72281],[33.02122,-17.72527],[33.01065,-17.72015],[33.01082,-17.7301],[33.00775,-17.73097],[33.00737,-17.73416],[33.01078,-17.7358],[33.00721,-17.73962],[33.00795,-17.74533],[33.01705,-17.74574],[33.01794,-17.75024],[33.02224,-17.7517],[33.02566,-17.74659],[33.02972,-17.75015],[33.02977,-17.76072],[33.02106,-17.7613],[33.01676,-17.7683],[33.02266,-17.78224],[33.01894,-17.78595],[33.01143,-17.78559],[33.0149,-17.78984],[33.01317,-17.79702],[33.01858,-17.80185],[33.01262,-17.80634],[33.00651,-17.79827],[33.00268,-17.80379],[32.99616,-17.80399],[32.98637,-17.79672],[32.98164,-17.80124],[32.97512,-17.79839],[32.96143,-17.81341],[32.96289,-17.82163],[32.96072,-17.82367],[32.96727,-17.83578],[32.96761,-17.8458],[32.96275,-17.84874],[32.965,-17.85118],[32.9609,-17.8721],[32.95104,-17.88184],[32.9528,-17.88793],[32.95032,-17.8898],[32.95538,-17.90423],[32.95431,-17.91429],[32.96926,-17.91428],[32.97578,-17.91018],[32.98318,-17.91742],[32.97306,-17.92019],[32.97157,-17.92657],[32.97482,-17.9331],[32.97191,-17.93531],[32.9689,-17.96118],[32.96533,-17.96503],[32.95108,-17.96259],[32.94515,-17.97057],[32.94525,-17.98032],[32.93732,-17.98625],[32.94528,-17.99333],[32.95229,-17.99288],[32.95588,-18.00002],[32.93776,-18.01513],[32.9416,-18.0221],[32.93615,-18.02485],[32.93627,-18.03305],[32.94093,-18.03299],[32.94391,-18.02831],[32.95089,-18.02946],[32.94676,-18.03876],[32.9594,-18.05233],[32.94764,-18.05192],[32.95602,-18.06194],[32.95518,-18.06949],[32.95969,-18.06985],[32.96448,-18.08125],[32.95823,-18.08459],[32.96979,-18.0897],[32.96992,-18.09396],[32.96726,-18.09458],[32.97295,-18.10823],[32.98141,-18.11342],[32.97625,-18.11626],[32.97842,-18.12598],[32.97187,-18.13539],[32.97444,-18.1413],[32.98206,-18.14529],[32.9795,-18.15146],[32.98221,-18.15626],[32.99526,-18.15959],[33.00932,-18.1781],[33.00946,-18.19673],[33.01636,-18.2076],[33.01599,-18.22103],[33.02198,-18.22963],[33.02147,-18.23796],[33.01544,-18.24235],[33.01502,-18.24742],[33.01833,-18.24669],[33.02318,-18.25229],[33.01583,-18.25935],[33.01763,-18.2637],[33.01359,-18.27177],[33.01889,-18.27438],[33.01836,-18.27968],[33.01227,-18.28002],[33.01689,-18.28789],[33.0165,-18.29906],[33.02157,-18.30065],[33.02533,-18.31032],[33.03533,-18.32074],[33.04095,-18.31838],[33.04165,-18.32058],[33.05517,-18.3196],[33.05203,-18.33387],[33.06835,-18.34865],[33.05845,-18.36733],[33.05731,-18.38218],[33.04998,-18.38462],[33.04918,-18.37726],[33.03995,-18.38194],[33.03111,-18.39343],[33.03005,-18.40572],[33.0175,-18.42292],[33.01853,-18.42764],[33.02866,-18.43029],[33.0268,-18.46698],[32.98302,-18.49401],[32.97638,-18.48034],[32.97908,-18.47328],[32.97272,-18.4748],[32.95241,-18.48739],[32.94977,-18.49329],[32.93624,-18.4959],[32.93507,-18.5001],[32.92848,-18.49999],[32.92384,-18.50541],[32.91879,-18.50311],[32.91521,-18.50515],[32.91485,-18.5018],[32.90913,-18.49965],[32.90539,-18.50415],[32.89939,-18.50503],[32.89676,-18.51212],[32.87578,-18.51969],[32.9002,-18.54602],[32.88983,-18.57671],[32.89709,-18.58433],[32.90945,-18.58956],[32.90841,-18.60498],[32.916,-18.62417],[32.96102,-18.68643],[32.95784,-18.7071],[32.95314,-18.70853],[32.95146,-18.72502],[32.93603,-18.76061],[32.93623,-18.76897],[32.92994,-18.76899],[32.92224,-18.78203],[32.91042,-18.78884],[32.90902,-18.79251],[32.87856,-18.79951],[32.84414,-18.77759],[32.81175,-18.78144],[32.7923,-18.79664],[32.77638,-18.79856],[32.76178,-18.81233],[32.75275,-18.81549],[32.74913,-18.81028],[32.7423,-18.81242],[32.73127,-18.82325],[32.72581,-18.82202],[32.71249,-18.8288],[32.70178,-18.84222],[32.70874,-18.85524],[32.71617,-18.85853],[32.71595,-18.8636],[32.7258,-18.87672],[32.72422,-18.902],[32.73459,-18.92189],[32.7413,-18.92732],[32.70989,-18.9369],[32.69788,-18.93661],[32.70934,-18.97782],[32.71716,-19.02472],[32.77626,-19.02529],[32.77729,-19.01757],[32.80502,-19.01816],[32.84069,-19.00906],[32.84424,-19.01125],[32.84783,-19.02636],[32.85117,-19.06313],[32.86305,-19.07755],[32.86862,-19.07399],[32.87688,-19.07445],[32.87684,-19.08687],[32.88461,-19.10286],[32.87548,-19.13033],[32.86889,-19.13974],[32.85951,-19.22512],[32.85153,-19.22765],[32.85371,-19.23874],[32.84936,-19.24492],[32.85653,-19.28031],[32.83692,-19.31324],[32.82334,-19.31974],[32.81172,-19.33669],[32.78447,-19.35478],[32.77742,-19.35652],[32.79171,-19.38968],[32.77943,-19.41263],[32.78193,-19.42658],[32.77721,-19.45963],[32.78419,-19.47001],[32.80016,-19.47598],[32.83749,-19.47657],[32.8513,-19.48439],[32.84087,-19.51397],[32.85166,-19.54199],[32.85878,-19.54568],[32.85057,-19.60213],[32.84593,-19.60677],[32.85723,-19.61852],[32.85409,-19.63132],[32.84577,-19.63557],[32.84654,-19.65523],[32.84052,-19.65805],[32.83167,-19.66932],[32.84116,-19.67984],[32.85366,-19.68486],[32.87697,-19.67963],[32.885,-19.68463],[32.90454,-19.68036],[32.90779,-19.68306],[32.91518,-19.67746],[32.93611,-19.67357],[32.95733,-19.65677],[32.97579,-19.65104],[32.9866,-19.68186],[32.98571,-19.6905],[32.95688,-19.71304],[32.9562,-19.71779],[32.96766,-19.73016],[32.97348,-19.73027],[32.98376,-19.74204],[33.00707,-19.75183],[33.01404,-19.74925],[33.0622,-19.77639],[33.04807,-19.81068],[33.04834,-19.84434],[33.02554,-19.95593],[33.02474,-19.99212],[33.02876,-20.03491],[32.99297,-20.02814],[32.9738,-20.03965],[32.96203,-20.04064],[32.95717,-20.03673],[32.94355,-20.04241],[32.92714,-20.04154],[32.92055,-20.04513],[32.91809,-20.05158],[32.93954,-20.09952],[32.92345,-20.10002],[32.90988,-20.11063],[32.89377,-20.10766],[32.89262,-20.09293],[32.88351,-20.09451],[32.87023,-20.10576],[32.86729,-20.12981],[32.86098,-20.13608],[32.86982,-20.14519],[32.86285,-20.15478],[32.87625,-20.1874],[32.84806,-20.19589],[32.84734,-20.22181],[32.85776,-20.23157],[32.86089,-20.228],[32.87341,-20.23483],[32.86952,-20.25167],[32.86346,-20.26007],[32.86487,-20.27356],[32.87169,-20.27777],[32.80284,-20.34366],[32.80507,-20.36702],[32.75743,-20.42116],[32.66814,-20.55588],[32.56648,-20.55483],[32.52106,-20.59489],[32.50744,-20.60093],[32.50533,-20.60746],[32.49733,-20.61224],[32.50391,-20.62384],[32.49654,-20.62264],[32.50274,-20.62967],[32.49569,-20.63077],[32.4919,-20.63831],[32.49421,-20.64045],[32.49293,-20.64613],[32.49085,-20.64296],[32.48957,-20.65054],[32.48382,-20.65709],[32.48712,-20.65689],[32.48585,-20.66015],[32.49358,-20.66627],[32.49242,-20.66914],[32.48397,-20.6709],[32.49117,-20.67826],[32.49351,-20.70106],[32.50113,-20.7123],[32.49444,-20.7183],[32.50158,-20.8144],[32.52369,-20.90914],[32.48885,-20.99087],[32.37955,-21.1147],[32.38366,-21.12345],[32.37798,-21.12443],[32.36266,-21.14138],[32.3797,-21.14602],[32.39023,-21.15819],[32.38281,-21.16207],[32.38437,-21.16485],[32.39159,-21.16614],[32.39266,-21.16276],[32.39796,-21.16857],[32.41404,-21.17476],[32.4121,-21.17773],[32.39945,-21.18074],[32.39393,-21.18905],[32.39706,-21.19416],[32.39555,-21.19985],[32.40176,-21.21043],[32.40602,-21.21102],[32.41342,-21.21875],[32.41594,-21.22603],[32.42716,-21.23107],[32.42572,-21.24466],[32.43448,-21.25294],[32.49574,-21.33896]]]]}}]}